{"type":"Topology","objects":{"01108-4316-28.featurecollection":{"type":"GeometryCollection","geometries":[{"type":"Polygon","arcs":[[0,1,2,3,4]],"properties":{"市区町村名":"札幌市厚別区","大字名":"厚別西五条","丁目名":"６丁目","小字名":null,"地番":"775-39","精度区分":null,"座標系":"任意座標系"}},{"type":"Polygon","arcs":[[5,6,7,8,9,10]],"properties":{"市区町村名":"札幌市厚別区","大字名":"厚別西五条","丁目名":"６丁目","小字名":null,"地番":"775-113","精度区分":null,"座標系":"任意座標系"}},{"type":"Polygon","arcs":[[11,-8,12]],"properties":{"市区町村名":"札幌市厚別区","大字名":"厚別西五条","丁目名":"６丁目","小字名":null,"地番":"775-203","精度区分":null,"座標系":"任意座標系"}},{"type":"Polygon","arcs":[[13,14,15]],"properties":{"市区町村名":"札幌市厚別区","大字名":"厚別西五条","丁目名":"６丁目","小字名":null,"地番":"2512-2","精度区分":null,"座標系":"任意座標系"}},{"type":"Polygon","arcs":[[16,17,18,19,20]],"properties":{"市区町村名":"札幌市厚別区","大字名":"厚別西五条","丁目名":"６丁目","小字名":null,"地番":"2512-6","精度区分":null,"座標系":"任意座標系"}},{"type":"Polygon","arcs":[[-15,21,22,23,24]],"properties":{"市区町村名":"札幌市厚別区","大字名":"厚別西五条","丁目名":"６丁目","小字名":null,"地番":"2512-7","精度区分":null,"座標系":"任意座標系"}},{"type":"Polygon","arcs":[[25,26,27,28]],"properties":{"市区町村名":"札幌市厚別区","大字名":"厚別西五条","丁目名":"６丁目","小字名":null,"地番":"2512-43","精度区分":null,"座標系":"任意座標系"}},{"type":"Polygon","arcs":[[29,-29,30,31]],"properties":{"市区町村名":"札幌市厚別区","大字名":"厚別西五条","丁目名":"６丁目","小字名":null,"地番":"2512-44","精度区分":null,"座標系":"任意座標系"}},{"type":"Polygon","arcs":[[32,33,34,35]],"properties":{"市区町村名":"札幌市厚別区","大字名":"厚別西五条","丁目名":"６丁目","小字名":null,"地番":"2512-45","精度区分":null,"座標系":"任意座標系"}},{"type":"Polygon","arcs":[[36,-36,37,38,39,40]],"properties":{"市区町村名":"札幌市厚別区","大字名":"厚別西五条","丁目名":"６丁目","小字名":null,"地番":"2512-46","精度区分":null,"座標系":"任意座標系"}},{"type":"Polygon","arcs":[[41,42,43,44]],"properties":{"市区町村名":"札幌市厚別区","大字名":"厚別西五条","丁目名":"６丁目","小字名":null,"地番":"2512-47","精度区分":null,"座標系":"任意座標系"}},{"type":"Polygon","arcs":[[45,-45,46,47]],"properties":{"市区町村名":"札幌市厚別区","大字名":"厚別西五条","丁目名":"６丁目","小字名":null,"地番":"2512-48","精度区分":null,"座標系":"任意座標系"}},{"type":"Polygon","arcs":[[48,-48,49,50]],"properties":{"市区町村名":"札幌市厚別区","大字名":"厚別西五条","丁目名":"６丁目","小字名":null,"地番":"2512-49","精度区分":null,"座標系":"任意座標系"}},{"type":"Polygon","arcs":[[51,52,53,54,55]],"properties":{"市区町村名":"札幌市厚別区","大字名":"厚別西五条","丁目名":"６丁目","小字名":null,"地番":"2512-50","精度区分":null,"座標系":"任意座標系"}},{"type":"Polygon","arcs":[[56,-54,57,58,59]],"properties":{"市区町村名":"札幌市厚別区","大字名":"厚別西五条","丁目名":"６丁目","小字名":null,"地番":"2512-51","精度区分":null,"座標系":"任意座標系"}},{"type":"Polygon","arcs":[[60,61,-60,62,63,64]],"properties":{"市区町村名":"札幌市厚別区","大字名":"厚別西五条","丁目名":"６丁目","小字名":null,"地番":"2512-52","精度区分":null,"座標系":"任意座標系"}},{"type":"Polygon","arcs":[[-44,65,66,67]],"properties":{"市区町村名":"札幌市厚別区","大字名":"厚別西五条","丁目名":"６丁目","小字名":null,"地番":"2512-71","精度区分":null,"座標系":"任意座標系"}},{"type":"Polygon","arcs":[[-47,-68,68,69]],"properties":{"市区町村名":"札幌市厚別区","大字名":"厚別西五条","丁目名":"６丁目","小字名":null,"地番":"2512-72","精度区分":null,"座標系":"任意座標系"}},{"type":"Polygon","arcs":[[-50,-70,70,71]],"properties":{"市区町村名":"札幌市厚別区","大字名":"厚別西五条","丁目名":"６丁目","小字名":null,"地番":"2512-73","精度区分":null,"座標系":"任意座標系"}},{"type":"Polygon","arcs":[[72,73]],"properties":{"市区町村名":"札幌市厚別区","大字名":"厚別西五条","丁目名":"６丁目","小字名":null,"地番":"2512-78","精度区分":null,"座標系":"任意座標系"}},{"type":"Polygon","arcs":[[74,-20,75,76]],"properties":{"市区町村名":"札幌市厚別区","大字名":"厚別西五条","丁目名":"６丁目","小字名":null,"地番":"2512-89","精度区分":null,"座標系":"任意座標系"}},{"type":"Polygon","arcs":[[-28,-77,77,78,79,80]],"properties":{"市区町村名":"札幌市厚別区","大字名":"厚別西五条","丁目名":"６丁目","小字名":null,"地番":"2512-90","精度区分":null,"座標系":"任意座標系"}},{"type":"Polygon","arcs":[[81,-31,-81,82,83]],"properties":{"市区町村名":"札幌市厚別区","大字名":"厚別西五条","丁目名":"６丁目","小字名":null,"地番":"2512-91","精度区分":null,"座標系":"任意座標系"}},{"type":"Polygon","arcs":[[-38,-35,-84,84,85,86,87]],"properties":{"市区町村名":"札幌市厚別区","大字名":"厚別西五条","丁目名":"６丁目","小字名":null,"地番":"2512-92","精度区分":null,"座標系":"任意座標系"}},{"type":"Polygon","arcs":[[88,-39,-88,89,90]],"properties":{"市区町村名":"札幌市厚別区","大字名":"厚別西五条","丁目名":"６丁目","小字名":null,"地番":"2512-93","精度区分":null,"座標系":"任意座標系"}},{"type":"Polygon","arcs":[[-67,-91,91,92]],"properties":{"市区町村名":"札幌市厚別区","大字名":"厚別西五条","丁目名":"６丁目","小字名":null,"地番":"2512-94","精度区分":null,"座標系":"任意座標系"}},{"type":"Polygon","arcs":[[-69,-93,93,94]],"properties":{"市区町村名":"札幌市厚別区","大字名":"厚別西五条","丁目名":"６丁目","小字名":null,"地番":"2512-95","精度区分":null,"座標系":"任意座標系"}},{"type":"Polygon","arcs":[[-71,-95,95,96]],"properties":{"市区町村名":"札幌市厚別区","大字名":"厚別西五条","丁目名":"６丁目","小字名":null,"地番":"2512-96","精度区分":null,"座標系":"任意座標系"}},{"type":"Polygon","arcs":[[-52,97,-97,98,99]],"properties":{"市区町村名":"札幌市厚別区","大字名":"厚別西五条","丁目名":"６丁目","小字名":null,"地番":"2512-97","精度区分":null,"座標系":"任意座標系"}},{"type":"Polygon","arcs":[[-58,-53,-100,100,101]],"properties":{"市区町村名":"札幌市厚別区","大字名":"厚別西五条","丁目名":"６丁目","小字名":null,"地番":"2512-98","精度区分":null,"座標系":"任意座標系"}},{"type":"Polygon","arcs":[[-63,-59,-102,102,103]],"properties":{"市区町村名":"札幌市厚別区","大字名":"厚別西五条","丁目名":"６丁目","小字名":null,"地番":"2512-99","精度区分":null,"座標系":"任意座標系"}},{"type":"Polygon","arcs":[[104,105,106,107,108]],"properties":{"市区町村名":"札幌市厚別区","大字名":"厚別西五条","丁目名":"６丁目","小字名":null,"地番":"2512-100","精度区分":null,"座標系":"任意座標系"}},{"type":"Polygon","arcs":[[-74,109,110]],"properties":{"市区町村名":"札幌市厚別区","大字名":"厚別西五条","丁目名":"６丁目","小字名":null,"地番":"2512-101","精度区分":null,"座標系":"任意座標系"}},{"type":"Polygon","arcs":[[-76,111,-78]],"properties":{"市区町村名":"札幌市厚別区","大字名":"厚別西五条","丁目名":"６丁目","小字名":null,"地番":"2512-112","精度区分":null,"座標系":"任意座標系"}},{"type":"Polygon","arcs":[[-83,-80,112,-85]],"properties":{"市区町村名":"札幌市厚別区","大字名":"厚別西五条","丁目名":"６丁目","小字名":null,"地番":"2512-114","精度区分":null,"座標系":"任意座標系"}},{"type":"Polygon","arcs":[[-90,-87,113,114]],"properties":{"市区町村名":"札幌市厚別区","大字名":"厚別西五条","丁目名":"６丁目","小字名":null,"地番":"2512-116","精度区分":null,"座標系":"任意座標系"}},{"type":"Polygon","arcs":[[-92,-115,115,116]],"properties":{"市区町村名":"札幌市厚別区","大字名":"厚別西五条","丁目名":"６丁目","小字名":null,"地番":"2512-117","精度区分":null,"座標系":"任意座標系"}},{"type":"Polygon","arcs":[[-94,-117,117,118]],"properties":{"市区町村名":"札幌市厚別区","大字名":"厚別西五条","丁目名":"６丁目","小字名":null,"地番":"2512-118","精度区分":null,"座標系":"任意座標系"}},{"type":"Polygon","arcs":[[119,120,121]],"properties":{"市区町村名":"札幌市厚別区","大字名":"厚別西五条","丁目名":"６丁目","小字名":null,"地番":"2512-134","精度区分":null,"座標系":"任意座標系"}},{"type":"Polygon","arcs":[[122,-122,123,124]],"properties":{"市区町村名":"札幌市厚別区","大字名":"厚別西五条","丁目名":"６丁目","小字名":null,"地番":"2512-135","精度区分":null,"座標系":"任意座標系"}},{"type":"Polygon","arcs":[[125,-125,126,127]],"properties":{"市区町村名":"札幌市厚別区","大字名":"厚別西五条","丁目名":"６丁目","小字名":null,"地番":"2512-136","精度区分":null,"座標系":"任意座標系"}},{"type":"Polygon","arcs":[[128,-128,129,130]],"properties":{"市区町村名":"札幌市厚別区","大字名":"厚別西五条","丁目名":"６丁目","小字名":null,"地番":"2512-137","精度区分":null,"座標系":"任意座標系"}},{"type":"Polygon","arcs":[[131,-131,132,133,134]],"properties":{"市区町村名":"札幌市厚別区","大字名":"厚別西五条","丁目名":"６丁目","小字名":null,"地番":"2512-138","精度区分":null,"座標系":"任意座標系"}},{"type":"Polygon","arcs":[[135,-135,136,137]],"properties":{"市区町村名":"札幌市厚別区","大字名":"厚別西五条","丁目名":"６丁目","小字名":null,"地番":"2512-139","精度区分":null,"座標系":"任意座標系"}},{"type":"Polygon","arcs":[[138,-138,139,140]],"properties":{"市区町村名":"札幌市厚別区","大字名":"厚別西五条","丁目名":"６丁目","小字名":null,"地番":"2512-140","精度区分":null,"座標系":"任意座標系"}},{"type":"Polygon","arcs":[[141,-141,142,143]],"properties":{"市区町村名":"札幌市厚別区","大字名":"厚別西五条","丁目名":"６丁目","小字名":null,"地番":"2512-141","精度区分":null,"座標系":"任意座標系"}},{"type":"Polygon","arcs":[[144,-144,145,146]],"properties":{"市区町村名":"札幌市厚別区","大字名":"厚別西五条","丁目名":"６丁目","小字名":null,"地番":"2512-142","精度区分":null,"座標系":"任意座標系"}},{"type":"Polygon","arcs":[[147,-147,148,149]],"properties":{"市区町村名":"札幌市厚別区","大字名":"厚別西五条","丁目名":"６丁目","小字名":null,"地番":"2512-143","精度区分":null,"座標系":"任意座標系"}},{"type":"Polygon","arcs":[[-121,150,151]],"properties":{"市区町村名":"札幌市厚別区","大字名":"厚別西五条","丁目名":"６丁目","小字名":null,"地番":"2512-154","精度区分":null,"座標系":"任意座標系"}},{"type":"Polygon","arcs":[[-124,-152,152,153]],"properties":{"市区町村名":"札幌市厚別区","大字名":"厚別西五条","丁目名":"６丁目","小字名":null,"地番":"2512-155","精度区分":null,"座標系":"任意座標系"}},{"type":"Polygon","arcs":[[-127,-154,154,155]],"properties":{"市区町村名":"札幌市厚別区","大字名":"厚別西五条","丁目名":"６丁目","小字名":null,"地番":"2512-156","精度区分":null,"座標系":"任意座標系"}},{"type":"Polygon","arcs":[[-130,-156,156,157]],"properties":{"市区町村名":"札幌市厚別区","大字名":"厚別西五条","丁目名":"６丁目","小字名":null,"地番":"2512-157","精度区分":null,"座標系":"任意座標系"}},{"type":"Polygon","arcs":[[-137,158,159,160]],"properties":{"市区町村名":"札幌市厚別区","大字名":"厚別西五条","丁目名":"６丁目","小字名":null,"地番":"2512-159","精度区分":null,"座標系":"任意座標系"}},{"type":"Polygon","arcs":[[-140,-161,161,162]],"properties":{"市区町村名":"札幌市厚別区","大字名":"厚別西五条","丁目名":"６丁目","小字名":null,"地番":"2512-160","精度区分":null,"座標系":"任意座標系"}},{"type":"Polygon","arcs":[[-143,-163,163,164]],"properties":{"市区町村名":"札幌市厚別区","大字名":"厚別西五条","丁目名":"６丁目","小字名":null,"地番":"2512-161","精度区分":null,"座標系":"任意座標系"}},{"type":"Polygon","arcs":[[-146,-165,165,166,167]],"properties":{"市区町村名":"札幌市厚別区","大字名":"厚別西五条","丁目名":"６丁目","小字名":null,"地番":"2512-162","精度区分":null,"座標系":"任意座標系"}},{"type":"Polygon","arcs":[[-149,-168,168]],"properties":{"市区町村名":"札幌市厚別区","大字名":"厚別西五条","丁目名":"６丁目","小字名":null,"地番":"2512-163","精度区分":null,"座標系":"任意座標系"}},{"type":"Polygon","arcs":[[169,170,171]],"properties":{"市区町村名":"札幌市厚別区","大字名":"厚別西五条","丁目名":"６丁目","小字名":null,"地番":"2512-166","精度区分":null,"座標系":"任意座標系"}},{"type":"Polygon","arcs":[[172,-172,173,-2]],"properties":{"市区町村名":"札幌市厚別区","大字名":"厚別西五条","丁目名":"６丁目","小字名":null,"地番":"2512-167","精度区分":null,"座標系":"任意座標系"}},{"type":"Polygon","arcs":[[174,-5,175,176]],"properties":{"市区町村名":"札幌市厚別区","大字名":"厚別西五条","丁目名":"６丁目","小字名":null,"地番":"2512-169","精度区分":null,"座標系":"任意座標系"}},{"type":"Polygon","arcs":[[177,-177,178,179]],"properties":{"市区町村名":"札幌市厚別区","大字名":"厚別西五条","丁目名":"６丁目","小字名":null,"地番":"2512-170","精度区分":null,"座標系":"任意座標系"}},{"type":"Polygon","arcs":[[180,-180,181,182]],"properties":{"市区町村名":"札幌市厚別区","大字名":"厚別西五条","丁目名":"６丁目","小字名":null,"地番":"2512-171","精度区分":null,"座標系":"任意座標系"}},{"type":"Polygon","arcs":[[-4,183,184]],"properties":{"市区町村名":"札幌市厚別区","大字名":"厚別西五条","丁目名":"６丁目","小字名":null,"地番":"2512-174","精度区分":null,"座標系":"任意座標系"}},{"type":"Polygon","arcs":[[-176,-185,185,186,187]],"properties":{"市区町村名":"札幌市厚別区","大字名":"厚別西五条","丁目名":"６丁目","小字名":null,"地番":"2512-175","精度区分":null,"座標系":"任意座標系"}},{"type":"Polygon","arcs":[[-179,-188,188,189]],"properties":{"市区町村名":"札幌市厚別区","大字名":"厚別西五条","丁目名":"６丁目","小字名":null,"地番":"2512-176","精度区分":null,"座標系":"任意座標系"}},{"type":"Polygon","arcs":[[-182,-190,190,191]],"properties":{"市区町村名":"札幌市厚別区","大字名":"厚別西五条","丁目名":"６丁目","小字名":null,"地番":"2512-177","精度区分":null,"座標系":"任意座標系"}},{"type":"Polygon","arcs":[[192,-192,193,194]],"properties":{"市区町村名":"札幌市厚別区","大字名":"厚別西五条","丁目名":"６丁目","小字名":null,"地番":"2512-178","精度区分":null,"座標系":"任意座標系"}},{"type":"Polygon","arcs":[[195,-195,196]],"properties":{"市区町村名":"札幌市厚別区","大字名":"厚別西五条","丁目名":"６丁目","小字名":null,"地番":"2512-189","精度区分":null,"座標系":"任意座標系"}},{"type":"Polygon","arcs":[[197,-41,198,-43]],"properties":{"市区町村名":"札幌市厚別区","大字名":"厚別西五条","丁目名":"６丁目","小字名":null,"地番":"2512-190","精度区分":null,"座標系":"任意座標系"}},{"type":"Polygon","arcs":[[-199,-40,-89,-66]],"properties":{"市区町村名":"札幌市厚別区","大字名":"厚別西五条","丁目名":"６丁目","小字名":null,"地番":"2512-191","精度区分":null,"座標系":"任意座標系"}},{"type":"Polygon","arcs":[[199,-51,-72,-98,-56]],"properties":{"市区町村名":"札幌市厚別区","大字名":"厚別西五条","丁目名":"６丁目","小字名":null,"地番":"2512-192","精度区分":null,"座標系":"任意座標系"}},{"type":"Polygon","arcs":[[-65,200,201]],"properties":{"市区町村名":"札幌市厚別区","大字名":"厚別西五条","丁目名":"６丁目","小字名":null,"地番":"2512-197","精度区分":null,"座標系":"任意座標系"}},{"type":"Polygon","arcs":[[-201,-64,202,-106]],"properties":{"市区町村名":"札幌市厚別区","大字名":"厚別西五条","丁目名":"６丁目","小字名":null,"地番":"2512-198","精度区分":null,"座標系":"任意座標系"}},{"type":"Polygon","arcs":[[-203,-104,203,-107]],"properties":{"市区町村名":"札幌市厚別区","大字名":"厚別西五条","丁目名":"６丁目","小字名":null,"地番":"2512-199","精度区分":null,"座標系":"任意座標系"}},{"type":"Polygon","arcs":[[-150,204,205]],"properties":{"市区町村名":"札幌市厚別区","大字名":"厚別西五条","丁目名":"６丁目","小字名":null,"地番":"2512-201","精度区分":null,"座標系":"任意座標系"}},{"type":"Polygon","arcs":[[206,-196,207]],"properties":{"市区町村名":"札幌市厚別区","大字名":"厚別西五条","丁目名":"６丁目","小字名":null,"地番":"2512-202","精度区分":null,"座標系":"任意座標系"}},{"type":"Polygon","arcs":[[-205,-169,208,209]],"properties":{"市区町村名":"札幌市厚別区","大字名":"厚別西五条","丁目名":"６丁目","小字名":null,"地番":"2512-204","精度区分":null,"座標系":"任意座標系"}},{"type":"Polygon","arcs":[[210,-11,211,212]],"properties":{"市区町村名":"札幌市厚別区","大字名":"厚別西五条","丁目名":"６丁目","小字名":null,"地番":"2512-205","精度区分":null,"座標系":"任意座標系"}},{"type":"Polygon","arcs":[[-212,-10,213]],"properties":{"市区町村名":"札幌市厚別区","大字名":"厚別西五条","丁目名":"６丁目","小字名":null,"地番":"2512-206","精度区分":null,"座標系":"任意座標系"}},{"type":"Polygon","arcs":[[214,-213,-214,-9,-12,215]],"properties":{"市区町村名":"札幌市厚別区","大字名":"厚別西五条","丁目名":"６丁目","小字名":null,"地番":"2512-211","精度区分":null,"座標系":"任意座標系"}},{"type":"Polygon","arcs":[[-24,216,-17,217,-26,-30,218,-33,-37,-198,-42,-46,-49,-200,-55,-57,-62,219,-202,-105,220]],"properties":{"市区町村名":"札幌市厚別区","大字名":"厚別西五条","丁目名":"６丁目","小字名":null,"地番":"2512-212","精度区分":null,"座標系":"任意座標系"}},{"type":"Polygon","arcs":[[-61,-220]],"properties":{"市区町村名":"札幌市厚別区","大字名":"厚別西五条","丁目名":"６丁目","小字名":null,"地番":"2512-213","精度区分":null,"座標系":"任意座標系"}},{"type":"Polygon","arcs":[[-219,-32,-82,-34]],"properties":{"市区町村名":"札幌市厚別区","大字名":"厚別西五条","丁目名":"６丁目","小字名":null,"地番":"2512-216","精度区分":null,"座標系":"任意座標系"}},{"type":"Polygon","arcs":[[-134,221,222,-159]],"properties":{"市区町村名":"札幌市厚別区","大字名":"厚別西五条","丁目名":"６丁目","小字名":null,"地番":"2512-220","精度区分":null,"座標系":"任意座標系"}},{"type":"Polygon","arcs":[[223,224,225,226,227,228,229,230,231,232,233]],"properties":{"市区町村名":"札幌市厚別区","大字名":"厚別町小野幌","丁目名":null,"小字名":null,"地番":"2509-1","精度区分":null,"座標系":"任意座標系"}},{"type":"Polygon","arcs":[[234,235,236,237,238,239,-225,240,241]],"properties":{"市区町村名":"札幌市厚別区","大字名":"厚別町小野幌","丁目名":null,"小字名":null,"地番":"2509-2","精度区分":null,"座標系":"任意座標系"}},{"type":"Polygon","arcs":[[-240,242,243,244,245,246,247,248,249,250,251,-226]],"properties":{"市区町村名":"札幌市厚別区","大字名":"厚別町小野幌","丁目名":null,"小字名":null,"地番":"2509-3","精度区分":null,"座標系":"任意座標系"}},{"type":"Polygon","arcs":[[-241,-224,252]],"properties":{"市区町村名":"札幌市厚別区","大字名":"厚別町小野幌","丁目名":null,"小字名":null,"地番":"2509-4","精度区分":null,"座標系":"任意座標系"}},{"type":"Polygon","arcs":[[253,254,-250,255]],"properties":{"市区町村名":"札幌市厚別区","大字名":"厚別町小野幌","丁目名":null,"小字名":null,"地番":"2509-5","精度区分":null,"座標系":"任意座標系"}},{"type":"Polygon","arcs":[[256,257,-248,258]],"properties":{"市区町村名":"札幌市厚別区","大字名":"厚別町小野幌","丁目名":null,"小字名":null,"地番":"2509-6","精度区分":null,"座標系":"任意座標系"}},{"type":"Polygon","arcs":[[259,-259,-247,260,261,262]],"properties":{"市区町村名":"札幌市厚別区","大字名":"厚別町小野幌","丁目名":null,"小字名":null,"地番":"2509-7","精度区分":null,"座標系":"任意座標系"}},{"type":"Polygon","arcs":[[-261,-246,263,264]],"properties":{"市区町村名":"札幌市厚別区","大字名":"厚別町小野幌","丁目名":null,"小字名":null,"地番":"2509-8","精度区分":null,"座標系":"任意座標系"}},{"type":"Polygon","arcs":[[-262,-265,265,266]],"properties":{"市区町村名":"札幌市厚別区","大字名":"厚別町小野幌","丁目名":null,"小字名":null,"地番":"2509-9","精度区分":null,"座標系":"任意座標系"}},{"type":"Polygon","arcs":[[-233,267,268,269]],"properties":{"市区町村名":"札幌市厚別区","大字名":"厚別町小野幌","丁目名":null,"小字名":null,"地番":"2509-10","精度区分":null,"座標系":"任意座標系"}},{"type":"Polygon","arcs":[[-232,270,-263,-267,271,-268]],"properties":{"市区町村名":"札幌市厚別区","大字名":"厚別町小野幌","丁目名":null,"小字名":null,"地番":"2509-11","精度区分":null,"座標系":"任意座標系"}},{"type":"Polygon","arcs":[[272]],"properties":{"市区町村名":"札幌市厚別区","大字名":"厚別町小野幌","丁目名":null,"小字名":null,"地番":"2509-12","精度区分":null,"座標系":"任意座標系"}},{"type":"Polygon","arcs":[[-230,273,-257,274]],"properties":{"市区町村名":"札幌市厚別区","大字名":"厚別町小野幌","丁目名":null,"小字名":null,"地番":"2509-14","精度区分":null,"座標系":"任意座標系"}},{"type":"Polygon","arcs":[[-231,-275,-260,-271]],"properties":{"市区町村名":"札幌市厚別区","大字名":"厚別町小野幌","丁目名":null,"小字名":null,"地番":"2509-15","精度区分":null,"座標系":"任意座標系"}},{"type":"Polygon","arcs":[[275,276,-235,277]],"properties":{"市区町村名":"札幌市厚別区","大字名":"厚別町小野幌","丁目名":null,"小字名":null,"地番":"2509-16","精度区分":null,"座標系":"任意座標系"}},{"type":"Polygon","arcs":[[-277,278,279,-236]],"properties":{"市区町村名":"札幌市厚別区","大字名":"厚別町小野幌","丁目名":null,"小字名":null,"地番":"2509-17","精度区分":null,"座標系":"任意座標系"}},{"type":"Polygon","arcs":[[280,281,-237,-280]],"properties":{"市区町村名":"札幌市厚別区","大字名":"厚別町小野幌","丁目名":null,"小字名":null,"地番":"2509-18","精度区分":null,"座標系":"任意座標系"}},{"type":"Polygon","arcs":[[282,-238,-282]],"properties":{"市区町村名":"札幌市厚別区","大字名":"厚別町小野幌","丁目名":null,"小字名":null,"地番":"2509-19","精度区分":null,"座標系":"任意座標系"}},{"type":"Polygon","arcs":[[-227,-252,283,284]],"properties":{"市区町村名":"札幌市厚別区","大字名":"厚別町小野幌","丁目名":null,"小字名":null,"地番":"2509-20","精度区分":null,"座標系":"任意座標系"}},{"type":"Polygon","arcs":[[-284,-251,-255,285]],"properties":{"市区町村名":"札幌市厚別区","大字名":"厚別町小野幌","丁目名":null,"小字名":null,"地番":"2509-21","精度区分":null,"座標系":"任意座標系"}},{"type":"Polygon","arcs":[[286,-256,-249,-258]],"properties":{"市区町村名":"札幌市厚別区","大字名":"厚別町小野幌","丁目名":null,"小字名":null,"地番":"2509-22","精度区分":null,"座標系":"任意座標系"}},{"type":"Polygon","arcs":[[-229,287,-287,-274]],"properties":{"市区町村名":"札幌市厚別区","大字名":"厚別町小野幌","丁目名":null,"小字名":null,"地番":"2509-23","精度区分":null,"座標系":"任意座標系"}},{"type":"Polygon","arcs":[[288,-269,-272,-266,-264,-245,289,290,291]],"properties":{"市区町村名":"札幌市厚別区","大字名":"厚別町小野幌","丁目名":null,"小字名":null,"地番":"2510-1","精度区分":null,"座標系":"任意座標系"}},{"type":"Polygon","arcs":[[-290,-244,292]],"properties":{"市区町村名":"札幌市厚別区","大字名":"厚別町小野幌","丁目名":null,"小字名":null,"地番":"2510-2","精度区分":null,"座標系":"任意座標系"}},{"type":"Polygon","arcs":[[293,-278,-242,-253,-234,-270,-289,294,295,296]],"properties":{"市区町村名":"札幌市厚別区","大字名":"厚別町小野幌","丁目名":null,"小字名":null,"地番":"2510-3","精度区分":null,"座標系":"任意座標系"}},{"type":"Polygon","arcs":[[297,-297,298,299]],"properties":{"市区町村名":"札幌市厚別区","大字名":"厚別町小野幌","丁目名":null,"小字名":null,"地番":"2511-3","精度区分":null,"座標系":"任意座標系"}},{"type":"Polygon","arcs":[[300,-300,301,-14]],"properties":{"市区町村名":"札幌市厚別区","大字名":"厚別町小野幌","丁目名":null,"小字名":null,"地番":"2511-4","精度区分":null,"座標系":"任意座標系"}},{"type":"Polygon","arcs":[[-302,302,303,-22]],"properties":{"市区町村名":"札幌市厚別区","大字名":"厚別町小野幌","丁目名":null,"小字名":null,"地番":"2511-6","精度区分":null,"座標系":"任意座標系"}},{"type":"Polygon","arcs":[[-299,-296,304,-303]],"properties":{"市区町村名":"札幌市厚別区","大字名":"厚別町小野幌","丁目名":null,"小字名":null,"地番":"2511-8","精度区分":null,"座標系":"任意座標系"}},{"type":"Polygon","arcs":[[305,306,307,308,309,310]],"properties":{"市区町村名":"札幌市厚別区","大字名":"厚別町小野幌","丁目名":null,"小字名":null,"地番":"2513-5","精度区分":null,"座標系":"任意座標系"}},{"type":"Polygon","arcs":[[-311,311,312]],"properties":{"市区町村名":"札幌市厚別区","大字名":"厚別町小野幌","丁目名":null,"小字名":null,"地番":"2513-6","精度区分":null,"座標系":"任意座標系"}},{"type":"Polygon","arcs":[[313,314,315,316]],"properties":{"市区町村名":"札幌市厚別区","大字名":"厚別町小野幌","丁目名":null,"小字名":null,"地番":"2513-7","精度区分":null,"座標系":"任意座標系"}},{"type":"Polygon","arcs":[[-310,317,-314,318,319]],"properties":{"市区町村名":"札幌市厚別区","大字名":"厚別町小野幌","丁目名":null,"小字名":null,"地番":"2513-8","精度区分":null,"座標系":"任意座標系"}},{"type":"Polygon","arcs":[[-312,-320,320]],"properties":{"市区町村名":"札幌市厚別区","大字名":"厚別町小野幌","丁目名":null,"小字名":null,"地番":"2513-9","精度区分":null,"座標系":"任意座標系"}},{"type":"Polygon","arcs":[[-307,321,322,323]],"properties":{"市区町村名":"札幌市厚別区","大字名":"厚別町小野幌","丁目名":null,"小字名":null,"地番":"2513-10","精度区分":null,"座標系":"任意座標系"}},{"type":"Polygon","arcs":[[-316,324,325,326,327]],"properties":{"市区町村名":"札幌市厚別区","大字名":"厚別町小野幌","丁目名":null,"小字名":null,"地番":"2513-11","精度区分":null,"座標系":"任意座標系"}},{"type":"Polygon","arcs":[[-324,328,329,-308]],"properties":{"市区町村名":"札幌市厚別区","大字名":"厚別町小野幌","丁目名":null,"小字名":null,"地番":"2513-12","精度区分":null,"座標系":"任意座標系"}},{"type":"Polygon","arcs":[[330,331,332,-315]],"properties":{"市区町村名":"札幌市厚別区","大字名":"厚別町小野幌","丁目名":null,"小字名":null,"地番":"2513-13","精度区分":null,"座標系":"任意座標系"}},{"type":"Polygon","arcs":[[-333,333,334,-325]],"properties":{"市区町村名":"札幌市厚別区","大字名":"厚別町小野幌","丁目名":null,"小字名":null,"地番":"2513-14","精度区分":null,"座標系":"任意座標系"}},{"type":"Polygon","arcs":[[-330,335,336,-309]],"properties":{"市区町村名":"札幌市厚別区","大字名":"厚別町小野幌","丁目名":null,"小字名":null,"地番":"2513-15","精度区分":null,"座標系":"任意座標系"}},{"type":"Polygon","arcs":[[-337,337,-331,-318]],"properties":{"市区町村名":"札幌市厚別区","大字名":"厚別町小野幌","丁目名":null,"小字名":null,"地番":"2513-16","精度区分":null,"座標系":"任意座標系"}},{"type":"Polygon","arcs":[[-326,338,339,340]],"properties":{"市区町村名":"札幌市厚別区","大字名":"厚別町小野幌","丁目名":null,"小字名":null,"地番":"2514-2","精度区分":null,"座標系":"任意座標系"}},{"type":"Polygon","arcs":[[-327,-341,341]],"properties":{"市区町村名":"札幌市厚別区","大字名":"厚別町小野幌","丁目名":null,"小字名":null,"地番":"2514-3","精度区分":null,"座標系":"任意座標系"}},{"type":"Polygon","arcs":[[-335,342,343,344,-339]],"properties":{"市区町村名":"札幌市厚別区","大字名":"厚別町小野幌","丁目名":null,"小字名":null,"地番":"2514-4","精度区分":null,"座標系":"任意座標系"}},{"type":"Polygon","arcs":[[345,346,347,348]],"properties":{"市区町村名":"札幌市厚別区","大字名":"厚別北四条","丁目名":"２丁目","小字名":null,"地番":"2511-5","精度区分":null,"座標系":"任意座標系"}},{"type":"Polygon","arcs":[[349,350,351,352,-346]],"properties":{"市区町村名":"札幌市厚別区","大字名":"厚別北四条","丁目名":"２丁目","小字名":null,"地番":"2511-7","精度区分":null,"座標系":"任意座標系"}},{"type":"Polygon","arcs":[[353,-348,354,355]],"properties":{"市区町村名":"札幌市厚別区","大字名":"厚別北四条","丁目名":"２丁目","小字名":null,"地番":"2512-4","精度区分":null,"座標系":"任意座標系"}},{"type":"Polygon","arcs":[[-356,356,357,-110]],"properties":{"市区町村名":"札幌市厚別区","大字名":"厚別北四条","丁目名":"２丁目","小字名":null,"地番":"2512-5","精度区分":null,"座標系":"任意座標系"}},{"type":"Polygon","arcs":[[358,359,360,361]],"properties":{"市区町村名":"札幌市厚別区","大字名":"厚別北四条","丁目名":"２丁目","小字名":null,"地番":"2515-3","精度区分":null,"座標系":"任意座標系"}},{"type":"Polygon","arcs":[[362,363,-359,364]],"properties":{"市区町村名":"札幌市厚別区","大字名":"厚別北四条","丁目名":"２丁目","小字名":null,"地番":"2515-4","精度区分":null,"座標系":"任意座標系"}},{"type":"Polygon","arcs":[[365,-365,-362,366,367,368]],"properties":{"市区町村名":"札幌市厚別区","大字名":"厚別北四条","丁目名":"２丁目","小字名":null,"地番":"2516-2","精度区分":null,"座標系":"任意座標系"}},{"type":"Polygon","arcs":[[-369,369,370,371]],"properties":{"市区町村名":"札幌市厚別区","大字名":"厚別北四条","丁目名":"２丁目","小字名":null,"地番":"2517-2","精度区分":null,"座標系":"任意座標系"}},{"type":"Polygon","arcs":[[-371,372,373,374]],"properties":{"市区町村名":"札幌市厚別区","大字名":"厚別北四条","丁目名":"２丁目","小字名":null,"地番":"2518-2","精度区分":null,"座標系":"任意座標系"}},{"type":"Polygon","arcs":[[375,376,377]],"properties":{"市区町村名":"札幌市厚別区","大字名":"厚別北四条","丁目名":"２丁目","小字名":null,"地番":"2519-2","精度区分":null,"座標系":"任意座標系"}},{"type":"Polygon","arcs":[[-374,378,-376,379,380]],"properties":{"市区町村名":"札幌市厚別区","大字名":"厚別北四条","丁目名":"２丁目","小字名":null,"地番":"2519-3","精度区分":null,"座標系":"任意座標系"}},{"type":"Polygon","arcs":[[-380,-378,381,382]],"properties":{"市区町村名":"札幌市厚別区","大字名":"厚別北四条","丁目名":"２丁目","小字名":null,"地番":"2519-4","精度区分":null,"座標系":"任意座標系"}},{"type":"Polygon","arcs":[[-363,-366,-372,-375,-381,-383,383]],"properties":{"市区町村名":"札幌市厚別区","大字名":"厚別北四条","丁目名":"２丁目","小字名":null,"地番":"2520","精度区分":null,"座標系":"任意座標系"}},{"type":"Polygon","arcs":[[-355,-347,-353,384,-357]],"properties":{"市区町村名":"札幌市厚別区","大字名":"厚別北四条","丁目名":"２丁目","小字名":null,"地番":"2521","精度区分":null,"座標系":"任意座標系"}},{"type":"Polygon","arcs":[[-170,-173,-1,-175,-178,-181,385,-208,-197,-194,-191,-189,-187,386,-6,-211,-215,387,-108,388,389,390,391,392,-118,-116,-114,-86,-113,-79,-112,-19,393],[-120,-123,-126,-129,-132,-136,-139,-142,-145,-148,-206,-210,394,-166,-164,-162,-160,-223,395,-157,-155,-153,-151]],"properties":{"市区町村名":"札幌市厚別区","大字名":"厚別西五条","丁目名":"６丁目","小字名":null,"地番":"2512-210","精度区分":null,"座標系":"任意座標系"}},{"type":"Polygon","arcs":[[-286,-254,-288,-228,-285],[-273]],"properties":{"市区町村名":"札幌市厚別区","大字名":"厚別町小野幌","丁目名":null,"小字名":null,"地番":"2509-13","精度区分":null,"座標系":"任意座標系"}},{"type":"Polygon","arcs":[[-133,-158,-396,-222]],"properties":{"市区町村名":"札幌市厚別区","大字名":"厚別西五条","丁目名":"６丁目","小字名":null,"地番":"2512-158","精度区分":null,"座標系":"任意座標系"}},{"type":"Polygon","arcs":[[-167,-395,-209]],"properties":{"市区町村名":"札幌市厚別区","大字名":"厚別西五条","丁目名":"６丁目","小字名":null,"地番":"2512-203","精度区分":null,"座標系":"任意座標系"}},{"type":"Polygon","arcs":[[-99,396,-392,397]],"properties":{"市区町村名":"札幌市厚別区","大字名":"厚別西五条","丁目名":"６丁目","小字名":null,"地番":"2512-120","精度区分":null,"座標系":"任意座標系"}},{"type":"Polygon","arcs":[[-96,-119,-393,-397]],"properties":{"市区町村名":"札幌市厚別区","大字名":"厚別西五条","丁目名":"６丁目","小字名":null,"地番":"2512-119","精度区分":null,"座標系":"任意座標系"}},{"type":"Polygon","arcs":[[-204,398,-389]],"properties":{"市区町村名":"札幌市厚別区","大字名":"厚別西五条","丁目名":"６丁目","小字名":null,"地番":"2512-200","精度区分":null,"座標系":"任意座標系"}},{"type":"Polygon","arcs":[[-103,399,-390,-399]],"properties":{"市区町村名":"札幌市厚別区","大字名":"厚別西五条","丁目名":"６丁目","小字名":null,"地番":"2512-122","精度区分":null,"座標系":"任意座標系"}},{"type":"Polygon","arcs":[[-101,-398,-391,-400]],"properties":{"市区町村名":"札幌市厚別区","大字名":"厚別西五条","丁目名":"６丁目","小字名":null,"地番":"2512-121","精度区分":null,"座標系":"任意座標系"}},{"type":"Polygon","arcs":[[-361,400,-367]],"properties":{"市区町村名":"札幌市厚別区","大字名":"厚別北四条","丁目名":"２丁目","小字名":null,"地番":"2515-2","精度区分":null,"座標系":"任意座標系"}},{"type":"Polygon","arcs":[[-207,-386,-183,-193]],"properties":{"市区町村名":"札幌市厚別区","大字名":"厚別西五条","丁目名":"６丁目","小字名":null,"地番":"2512-172","精度区分":null,"座標系":"任意座標系"}},{"type":"Polygon","arcs":[[-344,401,402,403]],"properties":{"市区町村名":"札幌市厚別区","大字名":"厚別町小野幌","丁目名":null,"小字名":null,"地番":"2514-1","精度区分":null,"座標系":"任意座標系"}},{"type":"Polygon","arcs":[[-343,404,-402]],"properties":{"市区町村名":"札幌市厚別区","大字名":"厚別町小野幌","丁目名":null,"小字名":null,"地番":"2514-5","精度区分":null,"座標系":"任意座標系"}},{"type":"Polygon","arcs":[[405,-403,406,-338,-336,-329,-323]],"properties":{"市区町村名":"札幌市厚別区","大字名":"厚別町小野幌","丁目名":null,"小字名":null,"地番":"774-14X(2/2)","精度区分":null,"座標系":"任意座標系"}},{"type":"Polygon","arcs":[[-405,-334,-332,-407]],"properties":{"市区町村名":"札幌市厚別区","大字名":"厚別町小野幌","丁目名":null,"小字名":null,"地番":"774-144","精度区分":null,"座標系":"任意座標系"}},{"type":"Polygon","arcs":[[407,408,409,-305,-295,-292,410,-351]],"properties":{"市区町村名":"札幌市厚別区","大字名":"厚別町小野幌","丁目名":null,"小字名":null,"地番":"2511-1","精度区分":null,"座標系":"任意座標系"}},{"type":"Polygon","arcs":[[411,-409]],"properties":{"市区町村名":"札幌市厚別区","大字名":"厚別町小野幌","丁目名":null,"小字名":null,"地番":"2511-10","精度区分":null,"座標系":"任意座標系"}},{"type":"Polygon","arcs":[[-27,-218,-21,-75]],"properties":{"市区町村名":"札幌市厚別区","大字名":"厚別西五条","丁目名":"６丁目","小字名":null,"地番":"2512-42","精度区分":null,"座標系":"任意座標系"}}]}},"arcs":[[[214716,138848],[18959,2694]],[[233675,141542],[1357,-4562]],[[235032,136980],[5273,-19716],[-15731,-2312]],[[224574,114952],[-3241,-478]],[[221333,114474],[-6617,24374]],[[160325,69019],[55677,8361]],[[216002,77380],[33585,4900],[16608,-68718],[-56282,-12537]],[[209913,1025],[-10031,12002]],[[199882,13027],[-20012,23947]],[[179870,36974],[5578,760],[-7406,9223]],[[178042,46957],[-17717,22062]],[[198378,8410],[1504,4617]],[[209913,1025],[-4602,-1025],[-6933,8410]],[[20397,270718],[21235,3166]],[[41632,273884],[-31168,-43113]],[[10464,230771],[-10464,12274],[20397,27673]],[[265660,252069],[13815,2293]],[[279475,254362],[6230,-23349]],[[285705,231013],[-13804,-2353]],[[271901,228660],[-4382,16435]],[[267519,245095],[-1859,6974]],[[41632,273884],[4836,621]],[[46468,274505],[-21006,-29366]],[[25462,245139],[-12652,-17119]],[[12810,228020],[-2346,2751]],[[222545,263720],[19452,2862]],[[241997,266582],[4673,-17664],[1765,-6672]],[[248435,242246],[-19574,-2922]],[[228861,239324],[-6316,24396]],[[204599,261080],[17946,2640]],[[228861,239324],[-17926,-2677]],[[210935,236647],[-6336,24433]],[[186191,258371],[16265,2393]],[[202456,260764],[6527,-24409]],[[208983,236355],[-16397,-2447]],[[192586,233908],[-6395,24463]],[[168747,255761],[17444,2610]],[[192586,233908],[-3038,-454]],[[189548,233454],[-14916,-2226]],[[174632,231228],[-1265,5282]],[[173367,236510],[-4620,19251]],[[144233,252033],[19862,3031]],[[164095,255064],[4941,-19276]],[[169036,235788],[-19743,-3287]],[[149293,232501],[-5060,19532]],[[124668,249045],[19565,2988]],[[149293,232501],[-19624,-3269]],[[129669,229232],[-5001,19813]],[[105121,246062],[19547,2983]],[[129669,229232],[-19426,-3234]],[[110243,225998],[-5122,20064]],[[103984,220591],[-12353,-1868]],[[91631,218723],[-4117,-624]],[[87514,218099],[-1027,4106],[-5073,20237]],[[81414,242442],[3829,586],[12515,1910]],[[97758,244938],[6226,-24347]],[[60908,239314],[20506,3128]],[[87514,218099],[-16099,-2433]],[[71415,215666],[-4197,-635]],[[67218,215031],[-6310,24283]],[[33602,229382],[3102,4196],[4880,2787]],[[41584,236365],[19324,2949]],[[67218,215031],[-22002,-3326]],[[45216,211705],[-2683,3106]],[[42533,214811],[-8107,9388],[-824,5183]],[[169036,235788],[1331,-5197]],[[170367,230591],[-19814,-2959]],[[150553,227632],[-1260,4869]],[[150553,227632],[-19726,-2982]],[[130827,224650],[-1158,4582]],[[130827,224650],[-19487,-2947]],[[111340,221703],[-1097,4295]],[[480432,264789],[-3081,11394],[25288,3693],[332,-11305]],[[502971,268571],[-22539,-3782]],[[248435,242246],[19084,2849]],[[271901,228660],[-19014,-3242]],[[252887,225418],[-4452,16828]],[[252887,225418],[2068,-7816]],[[254955,217602],[-19716,-2903]],[[235239,214699],[-1871,7222]],[[233368,221921],[-4507,17403]],[[208983,236355],[1952,292]],[[233368,221921],[-19646,-3287]],[[213722,218634],[-4739,17721]],[[213722,218634],[1828,-6836]],[[215550,211798],[-19494,-2873]],[[196056,208925],[-1679,6332]],[[194377,215257],[-4829,18197]],[[170367,230591],[4265,637]],[[194377,215257],[-19234,-3295]],[[175143,211962],[-4776,18629]],[[175143,211962],[-19706,-3375]],[[155437,208587],[-4884,19045]],[[155437,208587],[-19703,-3376]],[[135734,205211],[-4907,19439]],[[135734,205211],[-19173,-3188]],[[116561,202023],[-5221,19680]],[[103984,220591],[7356,1112]],[[116561,202023],[-19611,-3312]],[[96950,198711],[-5319,20012]],[[96950,198711],[-20301,-3537]],[[76649,195174],[-5234,20492]],[[76649,195174],[-14886,-2632]],[[61763,192542],[-16547,19163]],[[26260,212243],[3599,568]],[[29859,212811],[2596,-3036]],[[32455,209775],[16606,-19408]],[[49061,190367],[-3620,-621]],[[45441,189746],[-19181,22497]],[[502971,268571],[1983,-13682]],[[504954,254889],[-21006,-3098],[-3516,12998]],[[271901,228660],[1463,-5491],[-3772,-3410],[-14637,-2157]],[[235239,214699],[-19689,-2901]],[[196056,208925],[-19532,-2877]],[[176524,206048],[-1381,5914]],[[176524,206048],[-19690,-2900]],[[156834,203148],[-1397,5439]],[[156834,203148],[-19829,-2970]],[[137005,200178],[-1271,5033]],[[257667,207116],[14734,2182],[5018,-2289],[5832,-21715]],[[283251,185294],[-19171,-2819]],[[264080,182475],[-6413,24641]],[[238021,204208],[19646,2908]],[[264080,182475],[-19593,-2882]],[[244487,179593],[-6466,24615]],[[218060,201252],[19961,2956]],[[244487,179593],[-19986,-2940]],[[224501,176653],[-6441,24599]],[[198871,198410],[19189,2842]],[[224501,176653],[-19062,-2804]],[[205439,173849],[-6568,24561]],[[178981,195644],[19890,2766]],[[205439,173849],[-3492,-514]],[[201947,173335],[-16406,-2412]],[[185541,170923],[-6560,24721]],[[160141,192505],[18840,3139]],[[185541,170923],[-18864,-2828]],[[166677,168095],[-6536,24410]],[[140921,189468],[19220,3037]],[[166677,168095],[-19371,-2951]],[[147306,165144],[-6385,24324]],[[121280,186507],[19641,2961]],[[147306,165144],[-19644,-2992]],[[127662,162152],[-6382,24355]],[[101633,183544],[19647,2963]],[[127662,162152],[-19622,-2989]],[[108040,159163],[-6407,24381]],[[78530,180059],[23103,3485]],[[108040,159163],[-15574,-2323]],[[92466,156840],[-16775,19430],[2839,3789]],[[283251,185294],[5840,-21755],[-3910,-3139],[-14800,-2140]],[[270381,158260],[-6301,24215]],[[270381,158260],[-19548,-2826]],[[250833,155434],[-6346,24159]],[[250833,155434],[-20020,-2896]],[[230813,152538],[-6312,24115]],[[230813,152538],[-18940,-2737]],[[211873,149801],[-6434,24048]],[[185541,170923],[6219,-24032]],[[191760,146891],[-18791,-2990]],[[172969,143901],[-6292,24194]],[[172969,143901],[-19343,-2832]],[[153626,141069],[-6320,24075]],[[153626,141069],[-19639,-3060]],[[133987,138009],[-6325,24143]],[[133987,138009],[-18532,-2745]],[[115455,135264],[-1216,313]],[[114239,135577],[-6199,23586]],[[114239,135577],[-4393,1132],[-17380,20131]],[[253889,144600],[19459,2749]],[[273348,147349],[580,-2513],[-19061,-3850]],[[254867,140986],[-978,3614]],[[233675,141542],[20214,3058]],[[254867,140986],[-19835,-4006]],[[195296,135976],[19420,2872]],[[221333,114474],[-19481,-2863]],[[201852,111611],[-6556,24365]],[[175927,133221],[19369,2755]],[[201852,111611],[-19351,-2845]],[[182501,108766],[-6574,24455]],[[156755,130172],[19172,3049]],[[182501,108766],[-19488,-2864]],[[163013,105902],[-6258,24270]],[[224574,114952],[-1525,-6684]],[[223049,108268],[-1716,6206]],[[223049,108268],[-4406,-19317]],[[218643,88951],[-10290,-1579]],[[208353,87372],[-6501,24239]],[[208353,87372],[-19367,-2972]],[[188986,84400],[-6485,24366]],[[188986,84400],[-19644,-3015]],[[169342,81385],[-6329,24517]],[[139371,102425],[3720,548],[19922,2929]],[[169342,81385],[-6915,-1061]],[[162427,80324],[-5846,2022],[-17210,20079]],[[126424,100523],[12947,1902]],[[162427,80324],[-13132,-2017],[-5587,2018],[-17284,20198]],[[164095,255064],[4652,697]],[[173367,236510],[-4331,-722]],[[97758,244938],[7363,1124]],[[42533,214811],[-12674,-2000]],[[29859,212811],[-2436,2845],[88,5487],[6091,8239]],[[45216,211705],[-12761,-1930]],[[61763,192542],[-12702,-2175]],[[92466,156840],[-12828,-1913]],[[79638,154927],[-16513,19261],[2509,3927],[12896,1944]],[[125315,125456],[-2110,-4171],[16166,-18860]],[[126424,100523],[-16503,19282],[2542,3759],[12852,1892]],[[114239,135577],[123,-474]],[[114362,135103],[-12934,-1915],[-4229,1257],[-17561,20482]],[[158876,68802],[1449,217]],[[178042,46957],[-5939,-694]],[[172103,46263],[-15135,18645],[1908,3894]],[[179870,36974],[-7767,9289]],[[149727,67428],[9149,1374]],[[198378,8410],[-48651,59018]],[[25462,245139],[265823,39860],[2981,-10812],[-15335,-2308],[-3117,-3800],[3661,-13717]],[[265660,252069],[-3747,14056],[-5457,2583],[-14459,-2126]],[[204599,261080],[-2143,-316]],[[41584,236365],[-2201,-332],[-4232,-2561],[-1820,-2379],[271,-1711]],[[26260,212243],[-13450,15777]],[[201947,173335],[6605,-24015]],[[208552,149320],[-16792,-2429]],[[270491,584967],[222089,284347]],[[492580,869314],[18135,-1966]],[[510715,867348],[2685,-11342]],[[513400,856006],[-86051,-85887]],[[427349,770119],[-10061,-1353],[-25561,-33465]],[[391727,735301],[-19197,-25134]],[[372530,710167],[-23280,-30480]],[[349250,679687],[-20320,-26603]],[[328930,653084],[-5094,-6672]],[[323836,646412],[-46047,-60284]],[[277789,586128],[-7298,-1161]],[[259721,583254],[103523,140577]],[[363244,723831],[18109,24954]],[[381353,748785],[83273,112500]],[[464626,861285],[47710,64003]],[[512336,925288],[32016,4047],[13137,-45249],[822,-1630]],[[558311,882456],[-47596,-15108]],[[492580,869314],[-4171,454],[-222489,-285528]],[[265920,584240],[-6199,-986]],[[558311,882456],[17359,-34388],[41591,-135964],[-13569,-74857]],[[603692,637247],[-37250,-5776]],[[566442,631471],[-21880,-3392]],[[544562,628079],[1760,9120],[1866,33151],[-297,13226]],[[547891,683576],[-1003,15539],[-1027,7774]],[[545861,706889],[-4278,25927]],[[541583,732816],[-4782,22364]],[[536801,755180],[-6354,28795]],[[530447,783975],[-9601,40572]],[[520846,824547],[-7446,31459]],[[270491,584967],[-4571,-727]],[[437022,741507],[41615,35505]],[[478637,777012],[51810,6963]],[[536801,755180],[-99779,-13673]],[[367529,682215],[37929,32362]],[[405458,714577],[136125,18239]],[[545861,706889],[-178332,-24674]],[[334254,653825],[33275,28390]],[[547891,683576],[-88706,-12354]],[[459185,671222],[-82174,-11443]],[[377011,659779],[-42757,-5954]],[[544562,628079],[-71765,-11128]],[[472797,616951],[-13612,54271]],[[472797,616951],[-81718,-12847]],[[391079,604104],[-14068,55675]],[[323836,646412],[12919,-50900]],[[336755,595512],[-56751,-9031]],[[280004,586481],[-2215,-353]],[[328930,653084],[5324,741]],[[391079,604104],[-54324,-8592]],[[425477,760822],[11968,9897],[13932,-8794],[-12509,-10330],[-13391,9227]],[[372530,710167],[32928,4410]],[[367529,682215],[-18279,-2528]],[[248069,581425],[118755,160804]],[[366824,742229],[-3580,-18398]],[[259721,583254],[-11652,-1829]],[[366824,742229],[3857,5393]],[[370681,747622],[10672,1163]],[[370681,747622],[87876,118460]],[[458557,866082],[6069,-4797]],[[458557,866082],[43366,57889],[10413,1317]],[[520846,824547],[-47750,-48279]],[[473096,776268],[-45747,-6149]],[[478637,777012],[-5541,-744]],[[405458,714577],[31564,26930]],[[391727,735301],[45295,6206]],[[163465,427689],[116539,158792]],[[566442,631471],[-1670,-26908],[-10784,-48377]],[[553988,556186],[-238754,-37417],[-17402,-71590]],[[297832,447179],[-134367,-19490]],[[603692,637247],[-13671,-75413],[-36033,-5648]],[[131510,422931],[116559,158494]],[[163465,427689],[-3455,-516]],[[160010,427173],[-4939,-735]],[[155071,426438],[-23561,-3507]],[[61155,326258],[70355,96673]],[[155071,426438],[-71692,-97004]],[[83379,329434],[-22224,-3176]],[[20397,270718],[40758,55540]],[[83379,329434],[-41747,-55550]],[[83379,329434],[4917,716]],[[88296,330150],[-41828,-55645]],[[160010,427173],[-71714,-97023]],[[598441,935209],[38618,6346]],[[637059,941555],[-1648,-7243]],[[635411,934312],[-508,-2220],[7293,-45102],[3470,-10599]],[[645666,876391],[4307,-12051]],[[649973,864340],[-36869,-6102]],[[613104,858238],[-4613,39949],[-10050,37022]],[[613104,858238],[-355,-59],[-3177,-526]],[[609572,857653],[-8624,27042],[6706,1329],[-14998,48345],[5785,840]],[[620876,820780],[41187,6321]],[[662063,827101],[11084,-37581]],[[673147,789520],[-40082,-6439]],[[633065,783081],[-12189,37699]],[[649973,864340],[12090,-37239]],[[620876,820780],[-5475,18759]],[[615401,839539],[-2297,18699]],[[615401,839539],[-5829,18114]],[[637059,941555],[19102,3139]],[[656161,944694],[-3441,-10249]],[[652720,934445],[-17309,-133]],[[673147,789520],[11327,-38403]],[[684474,751117],[-31415,-4981]],[[653059,746136],[-7655,-1214]],[[645404,744922],[-12339,38159]],[[652720,934445],[10163,-56019]],[[662883,878426],[-17217,-2035]],[[662063,827101],[11453,1795]],[[673516,828896],[3693,-18896],[6291,-18816]],[[683500,791184],[-10353,-1664]],[[683500,791184],[9348,-27976],[3016,-10251]],[[695864,752957],[-11390,-1840]],[[662883,878426],[2112,-11628]],[[664995,866798],[-15022,-2458]],[[664995,866798],[8521,-37902]],[[684474,751117],[6882,-35208],[1042,-40370],[-1848,-24972]],[[690550,650567],[-36453,-5897]],[[654097,644670],[5250,34781],[-509,37455],[-5779,29230]],[[654097,644670],[-14425,-2209],[13897,77214],[-8165,25247]],[[695864,752957],[1181,-9407],[3985,-83843]],[[701030,659707],[-5138,-8276]],[[695892,651431],[-5342,-864]],[[518086,392457],[44217,6400]],[[562303,398857],[-8478,-49966]],[[553825,348891],[-40118,-5893]],[[513707,342998],[-2919,-428],[7298,49887]],[[518086,392457],[3111,20350]],[[521197,412807],[377,2463]],[[521574,415270],[44454,5536]],[[566028,420806],[-3725,-21949]],[[502971,268571],[2875,23653],[3422,25152],[4439,25622]],[[553825,348891],[-13632,-72723]],[[540193,276168],[-37222,-7597]],[[540193,276168],[10398,-77190]],[[550591,198978],[-36503,-7128],[-9134,63039]],[[599786,354676],[11705,73238]],[[611491,427914],[29370,4142]],[[640861,432056],[-13793,-73470]],[[627068,358586],[-27282,-3910]],[[588871,353113],[12731,73407]],[[601602,426520],[9889,1394]],[[599786,354676],[-10915,-1563]],[[577547,293093],[11324,60020]],[[627068,358586],[7546,1080]],[[634614,359666],[-8350,-42642],[-2386,-17260]],[[623878,299764],[-46331,-6671]],[[623878,299764],[-2035,-12930],[-1580,-18374]],[[620263,268460],[-42409,-6144]],[[577854,262316],[-2563,18254],[2256,12523]],[[620263,268460],[-689,-20365],[2738,-20805]],[[622312,227290],[-38740,-5666]],[[583572,221624],[-5718,40692]],[[602990,151101],[30491,1560]],[[633481,152661],[5596,-35985],[-29914,-5899]],[[609163,110777],[-6173,40324]],[[622312,227290],[6896,-47630],[4273,-26999]],[[602990,151101],[-7415,50524],[-10824,11618]],[[584751,213243],[-1179,8381]],[[609163,110777],[-9793,-1929],[-13943,99575]],[[585427,208423],[-676,4820]],[[585427,208423],[-11795,-2047],[-9988,69829],[26808,148742],[11150,1573]],[[566028,420806],[10625,1322],[-26068,-148306],[9960,-72901],[-9954,-1943]],[[156755,130172],[-20041,-3038],[-11399,-1678]],[[218643,88951],[-2641,-11571]],[[149727,67428],[-104286,122318]],[[49061,190367],[965,-1130],[4721,-1375],[12781,1913]],[[67528,189775],[10117,1516]],[[77645,191291],[20395,3055]],[[98040,194346],[19543,2924]],[[117583,197270],[19422,2908]],[[285705,231013],[1388,-5198],[4994,-2556],[15564,2246],[2851,-10639],[-15522,-2236],[-3523,-4041],[11359,-42508],[4809,-2349],[16211,2372],[2962,-10923],[-15803,-2270],[-835,-1186],[-18492,-3590],[-2300,1472],[-16020,-2258]],[[114362,135103],[1093,161]],[[208552,149320],[3321,481]],[[116561,202023],[1022,-4753]],[[98040,194346],[-1090,4365]],[[61763,192542],[1075,-1244],[4690,-1523]],[[76649,195174],[996,-3883]],[[640861,432056],[8693,1225],[-14940,-73615]],[[701030,659707],[5697,53555],[-5380,31770],[-1762,8514]],[[699585,753546],[274870,43544]],[[974455,797090],[-11852,-36397],[12007,-25193],[-4208,-14762],[8325,-9062],[-13128,-16612],[-269707,-43633]],[[695864,752957],[3721,589]],[[656161,944694],[343838,55305],[-15740,-46773],[-32550,-28976],[3554,-29202],[15386,-14742],[-1016,-37944],[-8627,-17011],[13449,-28261]],[[699585,753546],[-15434,45004],[-8823,26265],[-1812,4081]],[[521197,412807],[-20616,-2853],[-64259,-15347]],[[436322,394607],[-15355,-2164],[136,-1471]],[[421103,390972],[-17804,-4250],[-18950,-4526],[-20603,-4920],[-22360,-5340],[-25256,-6031],[-29328,-6910],[-37284,-5418],[-161222,-23427]],[[297832,447179],[-14009,-61763],[237751,29854]],[[436322,394607],[-15219,-3635]]],"bbox":[389.436,15.697,935.509,747.074],"transform":{"scale":[0.0005460735460735462,0.0007313777313777313],"translate":[389.436,15.697]}}