{"type":"Topology","objects":{"01402-4334-14":{"type":"GeometryCollection","geometries":[{"type":"MultiPolygon","arcs":[[[0,1,2,3,4]]],"properties":{"筆ID":"H000000001","version":"ver1.0","座標系":"任意座標系","測地系判別":null,"地図名":"H21433401402014","地図番号":"附-64","縮尺分母":"3000","市区町村コード":"01402","市区町村名":"岩内郡岩内町","大字コード":"000","丁目コード":"000","小字コード":"0005","予備コード":"00","大字名":null,"丁目名":null,"小字名":"字敷島内","予備名":null,"地番":"水-4","精度区分":null,"座標値種別":"図上測量","筆界未定構成筆":null,"代表点緯度":666.4235,"代表点経度":4286.707420308}},{"type":"MultiPolygon","arcs":[[[5,6,7,8]]],"properties":{"筆ID":"H000000002","version":"ver1.0","座標系":"任意座標系","測地系判別":null,"地図名":"H21433401402014","地図番号":"附-62","縮尺分母":"3000","市区町村コード":"01402","市区町村名":"岩内郡岩内町","大字コード":"000","丁目コード":"000","小字コード":"0000","予備コード":"00","大字名":null,"丁目名":null,"小字名":null,"予備名":null,"地番":"地区外-879131","精度区分":null,"座標値種別":"図上測量","筆界未定構成筆":null,"代表点緯度":382.259,"代表点経度":2045.25}},{"type":"MultiPolygon","arcs":[[[-8,9,10,11,12,13,14]]],"properties":{"筆ID":"H000000003","version":"ver1.0","座標系":"任意座標系","測地系判別":null,"地図名":"H21433401402014","地図番号":"附-63","縮尺分母":"3000","市区町村コード":"01402","市区町村名":"岩内郡岩内町","大字コード":"000","丁目コード":"000","小字コード":"0000","予備コード":"00","大字名":null,"丁目名":null,"小字名":null,"予備名":null,"地番":"地区外-879132","精度区分":null,"座標値種別":"図上測量","筆界未定構成筆":null,"代表点緯度":199.737,"代表点経度":3408.75}},{"type":"MultiPolygon","arcs":[[[15,16,17,18,19,-1,20,-13]]],"properties":{"筆ID":"H000000004","version":"ver1.0","座標系":"任意座標系","測地系判別":null,"地図名":"H21433401402014","地図番号":"附-64","縮尺分母":"3000","市区町村コード":"01402","市区町村名":"岩内郡岩内町","大字コード":"000","丁目コード":"000","小字コード":"0005","予備コード":"00","大字名":null,"丁目名":null,"小字名":"字敷島内","予備名":null,"地番":"道-4","精度区分":null,"座標値種別":"図上測量","筆界未定構成筆":null,"代表点緯度":672.5615,"代表点経度":3294.519315694}},{"type":"MultiPolygon","arcs":[[[21,22,-3,23]]],"properties":{"筆ID":"H000000005","version":"ver1.0","座標系":"任意座標系","測地系判別":null,"地図名":"H21433401402014","地図番号":"附-64","縮尺分母":"3000","市区町村コード":"01402","市区町村名":"岩内郡岩内町","大字コード":"000","丁目コード":"000","小字コード":"0000","予備コード":"00","大字名":null,"丁目名":null,"小字名":null,"予備名":null,"地番":"地区外-879134","精度区分":null,"座標値種別":"図上測量","筆界未定構成筆":null,"代表点緯度":898.175,"代表点経度":4220.403}},{"type":"MultiPolygon","arcs":[[[24,25,-24,-2,-20]]],"properties":{"筆ID":"H000000006","version":"ver1.0","座標系":"任意座標系","測地系判別":null,"地図名":"H21433401402014","地図番号":"附-64","縮尺分母":"3000","市区町村コード":"01402","市区町村名":"岩内郡岩内町","大字コード":"000","丁目コード":"000","小字コード":"0005","予備コード":"00","大字名":null,"丁目名":null,"小字名":"字敷島内","予備名":null,"地番":"667","精度区分":null,"座標値種別":"図上測量","筆界未定構成筆":null,"代表点緯度":709.585,"代表点経度":4034.916871334}},{"type":"MultiPolygon","arcs":[[[-11,26,27,28,29,30,31]]],"properties":{"筆ID":"H000000007","version":"ver1.0","座標系":"任意座標系","測地系判別":null,"地図名":"H21433401402014","地図番号":"附-63-1","縮尺分母":"3000","市区町村コード":"01402","市区町村名":"岩内郡岩内町","大字コード":"000","丁目コード":"000","小字コード":"0005","予備コード":"00","大字名":null,"丁目名":null,"小字名":"字敷島内","予備名":null,"地番":"水-8","精度区分":null,"座標値種別":"図上測量","筆界未定構成筆":null,"代表点緯度":1181.022,"代表点経度":2853.649182608}},{"type":"MultiPolygon","arcs":[[[-10,-7,32,33,34,-29,35,-27]]],"properties":{"筆ID":"H000000008","version":"ver1.0","座標系":"任意座標系","測地系判別":null,"地図名":"H21433401402014","地図番号":"附-63-1","縮尺分母":"3000","市区町村コード":"01402","市区町村名":"岩内郡岩内町","大字コード":"000","丁目コード":"000","小字コード":"0005","予備コード":"00","大字名":null,"丁目名":null,"小字名":"字敷島内","予備名":null,"地番":"649-1","精度区分":null,"座標値種別":"図上測量","筆界未定構成筆":null,"代表点緯度":1173.0725,"代表点経度":2674.744739911}},{"type":"MultiPolygon","arcs":[[[-12,-32,36,37,38,-16]]],"properties":{"筆ID":"H000000009","version":"ver1.0","座標系":"任意座標系","測地系判別":null,"地図名":"H21433401402014","地図番号":"附-63-1","縮尺分母":"3000","市区町村コード":"01402","市区町村名":"岩内郡岩内町","大字コード":"000","丁目コード":"000","小字コード":"0005","予備コード":"00","大字名":null,"丁目名":null,"小字名":"字敷島内","予備名":null,"地番":"655","精度区分":null,"座標値種別":"図上測量","筆界未定構成筆":null,"代表点緯度":1135.1765,"代表点経度":3392.628533094}},{"type":"MultiPolygon","arcs":[[[39,-22,-26]]],"properties":{"筆ID":"H000000010","version":"ver1.0","座標系":"任意座標系","測地系判別":null,"地図名":"H21433401402014","地図番号":"附-63","縮尺分母":"3000","市区町村コード":"01402","市区町村名":"岩内郡岩内町","大字コード":"000","丁目コード":"000","小字コード":"0000","予備コード":"00","大字名":null,"丁目名":null,"小字名":null,"予備名":null,"地番":"地区外-879139","精度区分":null,"座標値種別":"図上測量","筆界未定構成筆":null,"代表点緯度":889.0495,"代表点経度":4039.906513956}},{"type":"MultiPolygon","arcs":[[[40,-38,41,-18]]],"properties":{"筆ID":"H000000011","version":"ver1.0","座標系":"任意座標系","測地系判別":null,"地図名":"H21433401402014","地図番号":"附-63-1","縮尺分母":"3000","市区町村コード":"01402","市区町村名":"岩内郡岩内町","大字コード":"000","丁目コード":"000","小字コード":"0005","予備コード":"00","大字名":null,"丁目名":null,"小字名":"字敷島内","予備名":null,"地番":"657","精度区分":null,"座標値種別":"図上測量","筆界未定構成筆":null,"代表点緯度":1223.926,"代表点経度":3727.329293621}},{"type":"MultiPolygon","arcs":[[[-39,-41,-17]]],"properties":{"筆ID":"H000000012","version":"ver1.0","座標系":"任意座標系","測地系判別":null,"地図名":"H21433401402014","地図番号":"附-63-1","縮尺分母":"3000","市区町村コード":"01402","市区町村名":"岩内郡岩内町","大字コード":"000","丁目コード":"000","小字コード":"0005","予備コード":"00","大字名":null,"丁目名":null,"小字名":"字敷島内","予備名":null,"地番":"672","精度区分":null,"座標値種別":"図上測量","筆界未定構成筆":null,"代表点緯度":687.751,"代表点経度":3531.264951908}},{"type":"MultiPolygon","arcs":[[[-14,-21,-5,42]]],"properties":{"筆ID":"H000000013","version":"ver1.0","座標系":"任意座標系","測地系判別":null,"地図名":"H21433401402014","地図番号":"附-64","縮尺分母":"3000","市区町村コード":"01402","市区町村名":"岩内郡岩内町","大字コード":"000","丁目コード":"000","小字コード":"0000","予備コード":"00","大字名":null,"丁目名":null,"小字名":null,"予備名":null,"地番":"地区外-879142","精度区分":null,"座標値種別":"図上測量","筆界未定構成筆":null,"代表点緯度":453.9675,"代表点経度":4882.522962072}},{"type":"MultiPolygon","arcs":[[[-25,-19,-42,-37,-31,43,-34,44,45,-40]]],"properties":{"筆ID":"H000000014","version":"ver1.0","座標系":"任意座標系","測地系判別":null,"地図名":"H21433401402014","地図番号":"附-63-1","縮尺分母":"3000","市区町村コード":"01402","市区町村名":"岩内郡岩内町","大字コード":"000","丁目コード":"000","小字コード":"0000","予備コード":"00","大字名":null,"丁目名":null,"小字名":null,"予備名":null,"地番":"地区外-879143","精度区分":null,"座標値種別":"図上測量","筆界未定構成筆":null,"代表点緯度":1328.4895,"代表点経度":3275.957038433}},{"type":"MultiPolygon","arcs":[[[-28,-36]]],"properties":{"筆ID":"H000000015","version":"ver1.0","座標系":"任意座標系","測地系判別":null,"地図名":"H21433401402014","地図番号":"附-63-1","縮尺分母":"3000","市区町村コード":"01402","市区町村名":"岩内郡岩内町","大字コード":"000","丁目コード":"000","小字コード":"0005","予備コード":"00","大字名":null,"丁目名":null,"小字名":"字敷島内","予備名":null,"地番":"649-3","精度区分":null,"座標値種別":"図上測量","筆界未定構成筆":null,"代表点緯度":1422.5025,"代表点経度":3069.209590296}},{"type":"MultiPolygon","arcs":[[[-35,-44,-30]]],"properties":{"筆ID":"H000000016","version":"ver1.0","座標系":"任意座標系","測地系判別":null,"地図名":"H21433401402014","地図番号":"附-63-1","縮尺分母":"3000","市区町村コード":"01402","市区町村名":"岩内郡岩内町","大字コード":"000","丁目コード":"000","小字コード":"0005","予備コード":"00","大字名":null,"丁目名":null,"小字名":"字敷島内","予備名":null,"地番":"649-2","精度区分":null,"座標値種別":"図上測量","筆界未定構成筆":null,"代表点緯度":1586.6615,"代表点経度":2972.018312599}},{"type":"MultiPolygon","arcs":[[[-6,46,-45,-33]]],"properties":{"筆ID":"H000000017","version":"ver1.0","座標系":"任意座標系","測地系判別":null,"地図名":"H21433401402014","地図番号":"附-62-1","縮尺分母":"3000","市区町村コード":"01402","市区町村名":"岩内郡岩内町","大字コード":"000","丁目コード":"000","小字コード":"0000","予備コード":"00","大字名":null,"丁目名":null,"小字名":null,"予備名":null,"地番":"地区外-879146","精度区分":null,"座標値種別":"図上測量","筆界未定構成筆":null,"代表点緯度":1336.9225,"代表点経度":1987.37175}}]}},"arcs":[[[717448,251980],[-232,2966]],[[717216,254946],[-4038,51477],[1192,28003],[-2820,30322],[4608,16189],[757,18746],[3724,17468],[2651,31243],[-1673,33444],[4961,6253]],[[726578,488091],[7204,11909]],[[733782,500000],[6740,0]],[[740522,500000],[-2518,-3789],[-3118,-6307],[-912,-1373],[-3128,-4357],[-1390,-4298],[-823,-3253],[-544,-2231],[-921,-8055],[-274,-6504],[-189,-18717],[-1714,-17674],[-2392,-17191],[-2821,-16950],[-1214,-8596],[-519,-5362],[-153,-3735],[-308,-3218],[-1000,-4701],[-276,-2249],[35,-3572],[194,-2844],[427,-3364],[469,-2962],[117,-5483],[-131,-7012],[242,-4509],[463,-3071],[140,-2040],[-218,-4700],[-1012,-5776],[-161,-3073],[842,-10194],[770,-22389],[564,-8676],[626,-6824],[809,-10995],[151,-6523],[540,-7254],[2524,-9110],[-6251,20911]],[[0,500000],[302059,0]],[[302059,500000],[12177,-79057],[15868,-416],[3229,339]],[[333333,420866],[0,-420866]],[[333333,0],[-333333,0],[0,500000]],[[333333,420866],[24277,2557],[30901,-8691]],[[388511,414732],[8188,-2523]],[[396699,412209],[18071,-1755],[12481,-21061],[12220,8190],[8103,-13055]],[[447574,384528],[865,-1394],[3244,521],[6488,-9086],[10327,1340],[5710,-12921],[15938,-23646],[3856,-21785],[-314,-24987],[3790,-14858],[-1291,-9756],[21400,-23274],[1423,-18545],[4369,-5362],[7282,5362],[3641,-6405],[10526,16385],[23005,13629],[58622,-3500],[39191,-4468],[1020,-205]],[[666666,241573],[0,-241573]],[[666666,0],[-333333,0]],[[447574,384528],[1270,1678]],[[448844,386206],[3176,511],[6496,-9098],[10505,1363],[6036,-13660],[16173,-23995],[4113,-23235],[-312,-24762],[3888,-15241],[-1130,-8543],[20995,-22834],[1430,-18635],[3298,-4048],[7410,5457],[3429,-6031],[9912,15429],[23415,13873],[48836,-2916],[-50459,249931]],[[566055,499772],[72805,24055]],[[638860,523827],[260,-2946]],[[639120,520881],[-71118,-23498],[49995,-247631],[8509,-508],[39233,-4474],[16251,-3256],[20818,4713],[14408,8719]],[[717448,251980],[-14398,-8713],[-21053,-4767],[-15331,3073]],[[666666,478052],[0,21948]],[[666666,500000],[67116,0]],[[726578,488091],[-11626,-4429],[-48286,-5610]],[[639120,520881],[1841,-20881]],[[640961,500000],[2181,-24723],[1170,178],[22354,2597]],[[388511,414732],[-12290,39768],[505,35010],[-5070,9530],[139,36668],[-8226,15453],[-2013,26150],[-5610,12735],[-1006,15736],[6465,26659],[76,36282],[4793,20458],[8900,7619],[17657,30149],[7352,-12843],[17923,49250],[-366,11448]],[[417740,774804],[-668,15340],[-1430,2711]],[[415642,792855],[-15319,29047],[-111,11913]],[[400212,833815],[-155,16629],[-11019,46929]],[[389038,897373],[6333,-5646],[4661,-1983],[5707,-36883],[-667,-24044],[13632,-25648],[3879,-7190],[2491,-39067],[-22528,-63741],[-6192,-2039],[-5675,11312],[-13642,-24653],[-8347,-5931],[-1455,-6330],[-173,-31807],[-7962,-33742],[8178,-15681],[1554,-24372],[8911,-15681]],[[377743,544247],[-25,-39310],[5460,-9360],[260,-39198],[13261,-44170]],[[302059,500000],[-24348,158067],[54646,154626],[976,1863]],[[333333,814556],[3580,6833],[9408,17653],[12961,24323],[5331,9999],[2132,2157],[7710,7558],[9470,9282]],[[383925,892361],[3192,-547],[9056,-38128],[4039,-19871]],[[415642,792855],[565,-2751],[750,-15456],[783,156]],[[377743,544247],[146964,160324]],[[524707,704571],[34767,-172201]],[[559474,532370],[-110630,-146164]],[[640961,500000],[25705,0]],[[566055,499772],[-6581,32598]],[[524707,704571],[-13458,64503],[43809,38522],[1518,1710],[47126,41138],[24746,-208563],[10412,-118054]],[[740522,500000],[259477,0],[0,-500000],[-333333,0]],[[389038,897373],[-5113,-5012]],[[333333,814556],[0,185443]],[[333333,999999],[333333,0],[0,-499999]],[[0,500000],[0,499999],[333333,0]]],"bbox":[1363.5,0,5454,1818],"transform":{"scale":[0.00409050409050409,0.0018180018180018178],"translate":[1363.5,0]}}
