{"type":"Topology","objects":{"01225-4315-20":{"type":"GeometryCollection","geometries":[{"type":"MultiPolygon","arcs":[[[0,1]]],"properties":{"筆ID":"H000000001","version":"ver1.0","座標系":"任意座標系","測地系判別":null,"地図名":"H20431501225027","地図番号":"開E-1","縮尺分母":"3000","市区町村コード":"01225","市区町村名":"滝川市","大字コード":"021","丁目コード":"000","小字コード":"0000","予備コード":"00","大字名":"江部乙町","丁目名":null,"小字名":null,"予備名":null,"地番":"4245-2","精度区分":null,"座標値種別":"図上測量","筆界未定構成筆":null,"代表点緯度":594.4805,"代表点経度":7343.743945184}},{"type":"MultiPolygon","arcs":[[[2,3,4,5]]],"properties":{"筆ID":"H000000002","version":"ver1.0","座標系":"任意座標系","測地系判別":null,"地図名":"H20431501225027","地図番号":"開E-1","縮尺分母":"3000","市区町村コード":"01225","市区町村名":"滝川市","大字コード":"021","丁目コード":"000","小字コード":"0000","予備コード":"00","大字名":"江部乙町","丁目名":null,"小字名":null,"予備名":null,"地番":"4263","精度区分":null,"座標値種別":"図上測量","筆界未定構成筆":null,"代表点緯度":1103.4705,"代表点経度":6654.020995493}},{"type":"MultiPolygon","arcs":[[[6,7,-3,8,9]]],"properties":{"筆ID":"H000000003","version":"ver1.0","座標系":"任意座標系","測地系判別":null,"地図名":"H20431501225027","地図番号":"開E-1","縮尺分母":"3000","市区町村コード":"01225","市区町村名":"滝川市","大字コード":"021","丁目コード":"000","小字コード":"0000","予備コード":"00","大字名":"江部乙町","丁目名":null,"小字名":null,"予備名":null,"地番":"4256","精度区分":null,"座標値種別":"図上測量","筆界未定構成筆":null,"代表点緯度":1026.0025,"代表点経度":6802.375331723}},{"type":"MultiPolygon","arcs":[[[10,11,-10,12,13,14]]],"properties":{"筆ID":"H000000004","version":"ver1.0","座標系":"任意座標系","測地系判別":null,"地図名":"H20431501225027","地図番号":"開E-1","縮尺分母":"3000","市区町村コード":"01225","市区町村名":"滝川市","大字コード":"021","丁目コード":"000","小字コード":"0000","予備コード":"00","大字名":"江部乙町","丁目名":null,"小字名":null,"予備名":null,"地番":"4253-1","精度区分":null,"座標値種別":"図上測量","筆界未定構成筆":null,"代表点緯度":930.9975,"代表点経度":6939.890183244}},{"type":"MultiPolygon","arcs":[[[15,16,17,18]]],"properties":{"筆ID":"H000000005","version":"ver1.0","座標系":"任意座標系","測地系判別":null,"地図名":"H20431501225027","地図番号":"開E-1","縮尺分母":"3000","市区町村コード":"01225","市区町村名":"滝川市","大字コード":"021","丁目コード":"000","小字コード":"0000","予備コード":"00","大字名":"江部乙町","丁目名":null,"小字名":null,"予備名":null,"地番":"4251","精度区分":null,"座標値種別":"図上測量","筆界未定構成筆":null,"代表点緯度":1011.8265,"代表点経度":7004.903073091}},{"type":"MultiPolygon","arcs":[[[-19,19]]],"properties":{"筆ID":"H000000006","version":"ver1.0","座標系":"任意座標系","測地系判別":null,"地図名":"H20431501225027","地図番号":"開E-1","縮尺分母":"3000","市区町村コード":"01225","市区町村名":"滝川市","大字コード":"021","丁目コード":"000","小字コード":"0000","予備コード":"00","大字名":"江部乙町","丁目名":null,"小字名":null,"予備名":null,"地番":"4252","精度区分":null,"座標値種別":"図上測量","筆界未定構成筆":null,"代表点緯度":1078.985,"代表点経度":6968.395356929}},{"type":"MultiPolygon","arcs":[[[20,21,22,23,24,25,26]]],"properties":{"筆ID":"H000000007","version":"ver1.0","座標系":"任意座標系","測地系判別":null,"地図名":"H20431501225027","地図番号":"開E-1","縮尺分母":"3000","市区町村コード":"01225","市区町村名":"滝川市","大字コード":"021","丁目コード":"000","小字コード":"0000","予備コード":"00","大字名":"江部乙町","丁目名":null,"小字名":null,"予備名":null,"地番":"4423","精度区分":null,"座標値種別":"図上測量","筆界未定構成筆":null,"代表点緯度":544.1355,"代表点経度":7027.128732369}},{"type":"MultiPolygon","arcs":[[[27,28,-2,29]]],"properties":{"筆ID":"H000000008","version":"ver1.0","座標系":"任意座標系","測地系判別":null,"地図名":"H20431501225027","地図番号":"開E-1","縮尺分母":"3000","市区町村コード":"01225","市区町村名":"滝川市","大字コード":"021","丁目コード":"000","小字コード":"0000","予備コード":"00","大字名":"江部乙町","丁目名":null,"小字名":null,"予備名":null,"地番":"4245-1","精度区分":null,"座標値種別":"図上測量","筆界未定構成筆":null,"代表点緯度":547.677,"代表点経度":7290.891088715}},{"type":"MultiPolygon","arcs":[[[-26,30,31,32,-28,33]]],"properties":{"筆ID":"H000000009","version":"ver1.0","座標系":"任意座標系","測地系判別":null,"地図名":"H20431501225027","地図番号":"開E-1","縮尺分母":"3000","市区町村コード":"01225","市区町村名":"滝川市","大字コード":"021","丁目コード":"000","小字コード":"0000","予備コード":"00","大字名":"江部乙町","丁目名":null,"小字名":null,"予備名":null,"地番":"4244","精度区分":null,"座標値種別":"図上測量","筆界未定構成筆":null,"代表点緯度":585.848,"代表点経度":7110.349782827}},{"type":"MultiPolygon","arcs":[[[34,35,36,37,38,39,40]]],"properties":{"筆ID":"H000000010","version":"ver1.0","座標系":"任意座標系","測地系判別":null,"地図名":"H20431501225027","地図番号":"開E-1","縮尺分母":"3000","市区町村コード":"01225","市区町村名":"滝川市","大字コード":"021","丁目コード":"000","小字コード":"0000","予備コード":"00","大字名":"江部乙町","丁目名":null,"小字名":null,"予備名":null,"地番":"4246-2","精度区分":null,"座標値種別":"図上測量","筆界未定構成筆":null,"代表点緯度":732.256,"代表点経度":7176.410130646}},{"type":"MultiPolygon","arcs":[[[-39,41,42]]],"properties":{"筆ID":"H000000011","version":"ver1.0","座標系":"任意座標系","測地系判別":null,"地図名":"H20431501225027","地図番号":"開E-1","縮尺分母":"3000","市区町村コード":"01225","市区町村名":"滝川市","大字コード":"021","丁目コード":"000","小字コード":"0000","予備コード":"00","大字名":"江部乙町","丁目名":null,"小字名":null,"予備名":null,"地番":"4246-1","精度区分":null,"座標値種別":"図上測量","筆界未定構成筆":null,"代表点緯度":750.3295,"代表点経度":7192.199493834}},{"type":"MultiPolygon","arcs":[[[-25,43,44,-37,45,46,47,-31]]],"properties":{"筆ID":"H000000012","version":"ver1.0","座標系":"任意座標系","測地系判別":null,"地図名":"H20431501225027","地図番号":"開E-1","縮尺分母":"3000","市区町村コード":"01225","市区町村名":"滝川市","大字コード":"021","丁目コード":"000","小字コード":"0000","予備コード":"00","大字名":"江部乙町","丁目名":null,"小字名":null,"予備名":null,"地番":"4248-1","精度区分":null,"座標値種別":"図上測量","筆界未定構成筆":null,"代表点緯度":720.8815,"代表点経度":7091.525786674}},{"type":"MultiPolygon","arcs":[[[-32,-48,-41,48]]],"properties":{"筆ID":"H000000013","version":"ver1.0","座標系":"任意座標系","測地系判別":null,"地図名":"H20431501225027","地図番号":"開E-1","縮尺分母":"3000","市区町村コード":"01225","市区町村名":"滝川市","大字コード":"021","丁目コード":"000","小字コード":"0000","予備コード":"00","大字名":"江部乙町","丁目名":null,"小字名":null,"予備名":null,"地番":"4246-3","精度区分":null,"座標値種別":"図上測量","筆界未定構成筆":null,"代表点緯度":698.24,"代表点経度":7154.357587828}},{"type":"MultiPolygon","arcs":[[[49,50,-42]]],"properties":{"筆ID":"H000000014","version":"ver1.0","座標系":"任意座標系","測地系判別":null,"地図名":"H20431501225027","地図番号":"開E-1","縮尺分母":"3000","市区町村コード":"01225","市区町村名":"滝川市","大字コード":"021","丁目コード":"000","小字コード":"0000","予備コード":"00","大字名":"江部乙町","丁目名":null,"小字名":null,"予備名":null,"地番":"4248-3","精度区分":null,"座標値種別":"図上測量","筆界未定構成筆":null,"代表点緯度":769.9385,"代表点経度":7146.566482143}},{"type":"MultiPolygon","arcs":[[[51,-50,-38,-45]]],"properties":{"筆ID":"H000000015","version":"ver1.0","座標系":"任意座標系","測地系判別":null,"地図名":"H20431501225027","地図番号":"開E-1","縮尺分母":"3000","市区町村コード":"01225","市区町村名":"滝川市","大字コード":"021","丁目コード":"000","小字コード":"0000","予備コード":"00","大字名":"江部乙町","丁目名":null,"小字名":null,"予備名":null,"地番":"4248-2","精度区分":null,"座標値種別":"図上測量","筆界未定構成筆":null,"代表点緯度":749.776,"代表点経度":7137.567919773}},{"type":"MultiPolygon","arcs":[[[-46,-36]]],"properties":{"筆ID":"H000000016","version":"ver1.0","座標系":"任意座標系","測地系判別":null,"地図名":"H20431501225027","地図番号":"開E-1","縮尺分母":"3000","市区町村コード":"01225","市区町村名":"滝川市","大字コード":"021","丁目コード":"000","小字コード":"0000","予備コード":"00","大字名":"江部乙町","丁目名":null,"小字名":null,"予備名":null,"地番":"4246-4","精度区分":null,"座標値種別":"図上測量","筆界未定構成筆":null,"代表点緯度":716.8945,"代表点経度":7147.759920838}},{"type":"MultiPolygon","arcs":[[[-35,-47]]],"properties":{"筆ID":"H000000017","version":"ver1.0","座標系":"任意座標系","測地系判別":null,"地図名":"H20431501225027","地図番号":"開E-1","縮尺分母":"3000","市区町村コード":"01225","市区町村名":"滝川市","大字コード":"021","丁目コード":"000","小字コード":"0000","予備コード":"00","大字名":"江部乙町","丁目名":null,"小字名":null,"予備名":null,"地番":"4248-4","精度区分":null,"座標値種別":"図上測量","筆界未定構成筆":null,"代表点緯度":710.772,"代表点経度":7145.583222687}},{"type":"MultiPolygon","arcs":[[[52,53,54,55]]],"properties":{"筆ID":"H000000018","version":"ver1.0","座標系":"任意座標系","測地系判別":null,"地図名":"H20431501225027","地図番号":"開E-1","縮尺分母":"3000","市区町村コード":"01225","市区町村名":"滝川市","大字コード":"021","丁目コード":"000","小字コード":"0000","予備コード":"00","大字名":"江部乙町","丁目名":null,"小字名":null,"予備名":null,"地番":"4240","精度区分":null,"座標値種別":"図上測量","筆界未定構成筆":null,"代表点緯度":570.7735,"代表点経度":6636.334932396}},{"type":"MultiPolygon","arcs":[[[-22,56,57,58,59]]],"properties":{"筆ID":"H000000019","version":"ver1.0","座標系":"任意座標系","測地系判別":null,"地図名":"H20431501225027","地図番号":"開E-1","縮尺分母":"3000","市区町村コード":"01225","市区町村名":"滝川市","大字コード":"021","丁目コード":"000","小字コード":"0000","予備コード":"00","大字名":"江部乙町","丁目名":null,"小字名":null,"予備名":null,"地番":"4242","精度区分":null,"座標値種別":"図上測量","筆界未定構成筆":null,"代表点緯度":670.354,"代表点経度":6861.161281255}},{"type":"MultiPolygon","arcs":[[[60,61,62,63,64]]],"properties":{"筆ID":"H000000020","version":"ver1.0","座標系":"任意座標系","測地系判別":null,"地図名":"H20431501225027","地図番号":"開E-1","縮尺分母":"3000","市区町村コード":"01225","市区町村名":"滝川市","大字コード":"021","丁目コード":"000","小字コード":"0000","予備コード":"00","大字名":"江部乙町","丁目名":null,"小字名":null,"予備名":null,"地番":"4257-1","精度区分":null,"座標値種別":"図上測量","筆界未定構成筆":null,"代表点緯度":789.696,"代表点経度":6631.047979849}},{"type":"MultiPolygon","arcs":[[[-61,65,-64,66,67,68]]],"properties":{"筆ID":"H000000021","version":"ver1.0","座標系":"任意座標系","測地系判別":null,"地図名":"H20431501225027","地図番号":"開E-1","縮尺分母":"3000","市区町村コード":"01225","市区町村名":"滝川市","大字コード":"021","丁目コード":"000","小字コード":"0000","予備コード":"00","大字名":"江部乙町","丁目名":null,"小字名":null,"予備名":null,"地番":"4257-2","精度区分":null,"座標値種別":"図上測量","筆界未定構成筆":null,"代表点緯度":781.237,"代表点経度":6693.006095106}},{"type":"MultiPolygon","arcs":[[[69,70,-68,71,72,73,74,75,76,-4,-8,77,78,79,80,81,82,83,84,85,86,87,88]]],"properties":{"筆ID":"H000000022","version":"ver1.0","座標系":"任意座標系","測地系判別":null,"地図名":"H20431501225027","地図番号":"開E-1","縮尺分母":"3000","市区町村コード":"01225","市区町村名":"滝川市","大字コード":"021","丁目コード":"000","小字コード":"0000","予備コード":"00","大字名":"江部乙町","丁目名":null,"小字名":null,"予備名":null,"地番":"4437","精度区分":null,"座標値種別":"図上測量","筆界未定構成筆":null,"代表点緯度":936.8795,"代表点経度":6739.982264872}},{"type":"MultiPolygon","arcs":[[[89,90,-80]]],"properties":{"筆ID":"H000000023","version":"ver1.0","座標系":"任意座標系","測地系判別":null,"地図名":"H20431501225027","地図番号":"開E-1","縮尺分母":"3000","市区町村コード":"01225","市区町村名":"滝川市","大字コード":"021","丁目コード":"000","小字コード":"0000","予備コード":"00","大字名":"江部乙町","丁目名":null,"小字名":null,"予備名":null,"地番":"4254-2","精度区分":null,"座標値種別":"図上測量","筆界未定構成筆":null,"代表点緯度":838.711,"代表点経度":6823.992179114}},{"type":"MultiPolygon","arcs":[[[-91,-15,91,-81]]],"properties":{"筆ID":"H000000024","version":"ver1.0","座標系":"任意座標系","測地系判別":null,"地図名":"H20431501225027","地図番号":"開E-1","縮尺分母":"3000","市区町村コード":"01225","市区町村名":"滝川市","大字コード":"021","丁目コード":"000","小字コード":"0000","予備コード":"00","大字名":"江部乙町","丁目名":null,"小字名":null,"予備名":null,"地番":"4253-2","精度区分":null,"座標値種別":"図上測量","筆界未定構成筆":null,"代表点緯度":868.441,"代表点経度":6911.073238427}},{"type":"MultiPolygon","arcs":[[[-92,92,93,-82]]],"properties":{"筆ID":"H000000025","version":"ver1.0","座標系":"任意座標系","測地系判別":null,"地図名":"H20431501225027","地図番号":"開E-1","縮尺分母":"3000","市区町村コード":"01225","市区町村名":"滝川市","大字コード":"021","丁目コード":"000","小字コード":"0000","予備コード":"00","大字名":"江部乙町","丁目名":null,"小字名":null,"予備名":null,"地番":"4250-2","精度区分":null,"座標値種別":"図上測量","筆界未定構成筆":null,"代表点緯度":845.3545,"代表点経度":7021.491792318}},{"type":"MultiPolygon","arcs":[[[-93,-14,-17,94]]],"properties":{"筆ID":"H000000026","version":"ver1.0","座標系":"任意座標系","測地系判別":null,"地図名":"H20431501225027","地図番号":"開E-1","縮尺分母":"3000","市区町村コード":"01225","市区町村名":"滝川市","大字コード":"021","丁目コード":"000","小字コード":"0000","予備コード":"00","大字名":"江部乙町","丁目名":null,"小字名":null,"予備名":null,"地番":"4250-1","精度区分":null,"座標値種別":"図上測量","筆界未定構成筆":null,"代表点緯度":913.8925,"代表点経度":7013.599566677}},{"type":"MultiPolygon","arcs":[[[-79,95,-11,-90]]],"properties":{"筆ID":"H000000027","version":"ver1.0","座標系":"任意座標系","測地系判別":null,"地図名":"H20431501225027","地図番号":"開E-1","縮尺分母":"3000","市区町村コード":"01225","市区町村名":"滝川市","大字コード":"021","丁目コード":"000","小字コード":"0000","予備コード":"00","大字名":"江部乙町","丁目名":null,"小字名":null,"予備名":null,"地番":"4254-1","精度区分":null,"座標値種別":"図上測量","筆界未定構成筆":null,"代表点緯度":858.822,"代表点経度":6803.138317177}},{"type":"MultiPolygon","arcs":[[[-96,-78,-7,-12]]],"properties":{"筆ID":"H000000028","version":"ver1.0","座標系":"任意座標系","測地系判別":null,"地図名":"H20431501225027","地図番号":"開E-1","縮尺分母":"3000","市区町村コード":"01225","市区町村名":"滝川市","大字コード":"021","丁目コード":"000","小字コード":"0000","予備コード":"00","大字名":"江部乙町","丁目名":null,"小字名":null,"予備名":null,"地番":"4255","精度区分":null,"座標値種別":"図上測量","筆界未定構成筆":null,"代表点緯度":941.8275,"代表点経度":6814.717016053}},{"type":"MultiPolygon","arcs":[[[96,97,-76,98]]],"properties":{"筆ID":"H000000029","version":"ver1.0","座標系":"任意座標系","測地系判別":null,"地図名":"H20431501225027","地図番号":"開E-1","縮尺分母":"3000","市区町村コード":"01225","市区町村名":"滝川市","大字コード":"021","丁目コード":"000","小字コード":"0000","予備コード":"00","大字名":"江部乙町","丁目名":null,"小字名":null,"予備名":null,"地番":"4261","精度区分":null,"座標値種別":"図上測量","筆界未定構成筆":null,"代表点緯度":993.389,"代表点経度":6645.175831449}},{"type":"MultiPolygon","arcs":[[[99,-5,-77,-98]]],"properties":{"筆ID":"H000000030","version":"ver1.0","座標系":"任意座標系","測地系判別":null,"地図名":"H20431501225027","地図番号":"開E-1","縮尺分母":"3000","市区町村コード":"01225","市区町村名":"滝川市","大字コード":"021","丁目コード":"000","小字コード":"0000","予備コード":"00","大字名":"江部乙町","丁目名":null,"小字名":null,"予備名":null,"地番":"4262","精度区分":null,"座標値種別":"図上測量","筆界未定構成筆":null,"代表点緯度":1047.577,"代表点経度":6646.541420788}},{"type":"MultiPolygon","arcs":[[[100,-99,-75,101]]],"properties":{"筆ID":"H000000031","version":"ver1.0","座標系":"任意座標系","測地系判別":null,"地図名":"H20431501225027","地図番号":"開E-1","縮尺分母":"3000","市区町村コード":"01225","市区町村名":"滝川市","大字コード":"021","丁目コード":"000","小字コード":"0000","予備コード":"00","大字名":"江部乙町","丁目名":null,"小字名":null,"予備名":null,"地番":"4260","精度区分":null,"座標値種別":"図上測量","筆界未定構成筆":null,"代表点緯度":938.8225,"代表点経度":6643.800284212}},{"type":"MultiPolygon","arcs":[[[102,-102,-74,103]]],"properties":{"筆ID":"H000000032","version":"ver1.0","座標系":"任意座標系","測地系判別":null,"地図名":"H20431501225027","地図番号":"開E-1","縮尺分母":"3000","市区町村コード":"01225","市区町村名":"滝川市","大字コード":"021","丁目コード":"000","小字コード":"0000","予備コード":"00","大字名":"江部乙町","丁目名":null,"小字名":null,"予備名":null,"地番":"4259","精度区分":null,"座標値種別":"図上測量","筆界未定構成筆":null,"代表点緯度":884.419,"代表点経度":6642.428959159}},{"type":"MultiPolygon","arcs":[[[104,-63,105,-104,-73]]],"properties":{"筆ID":"H000000033","version":"ver1.0","座標系":"任意座標系","測地系判別":null,"地図名":"H20431501225027","地図番号":"開E-1","縮尺分母":"3000","市区町村コード":"01225","市区町村名":"滝川市","大字コード":"021","丁目コード":"000","小字コード":"0000","予備コード":"00","大字名":"江部乙町","丁目名":null,"小字名":null,"予備名":null,"地番":"4258-1","精度区分":null,"座標値種別":"図上測量","筆界未定構成筆":null,"代表点緯度":830.92,"代表点経度":6641.080633021}},{"type":"MultiPolygon","arcs":[[[-105,-72,-67]]],"properties":{"筆ID":"H000000034","version":"ver1.0","座標系":"任意座標系","測地系判別":null,"地図名":"H20431501225027","地図番号":"開E-1","縮尺分母":"3000","市区町村コード":"01225","市区町村名":"滝川市","大字コード":"021","丁目コード":"000","小字コード":"0000","予備コード":"00","大字名":"江部乙町","丁目名":null,"小字名":null,"予備名":null,"地番":"4258-2","精度区分":null,"座標値種別":"図上測量","筆界未定構成筆":null,"代表点緯度":804.1475,"代表点経度":6728.329314269}},{"type":"MultiPolygon","arcs":[[[-66,-65]]],"properties":{"筆ID":"H000000035","version":"ver1.0","座標系":"任意座標系","測地系判別":null,"地図名":"H20431501225027","地図番号":"開E-1","縮尺分母":"3000","市区町村コード":"01225","市区町村名":"滝川市","大字コード":"021","丁目コード":"000","小字コード":"0000","予備コード":"00","大字名":"江部乙町","丁目名":null,"小字名":null,"予備名":null,"地番":"4257-3","精度区分":null,"座標値種別":"図上測量","筆界未定構成筆":null,"代表点緯度":767.01,"代表点経度":6652.031102103}},{"type":"MultiPolygon","arcs":[[[106,107,-84,108,-23,-60]]],"properties":{"筆ID":"H000000036","version":"ver1.0","座標系":"任意座標系","測地系判別":null,"地図名":"H20431501225027","地図番号":"開E-1","縮尺分母":"3000","市区町村コード":"01225","市区町村名":"滝川市","大字コード":"021","丁目コード":"000","小字コード":"0000","予備コード":"00","大字名":"江部乙町","丁目名":null,"小字名":null,"予備名":null,"地番":"4249-1","精度区分":null,"座標値種別":"図上測量","筆界未定構成筆":null,"代表点緯度":798.9325,"代表点経度":6992.45077378}},{"type":"MultiPolygon","arcs":[[[-108,109,-85]]],"properties":{"筆ID":"H000000037","version":"ver1.0","座標系":"任意座標系","測地系判別":null,"地図名":"H20431501225027","地図番号":"開E-1","縮尺分母":"3000","市区町村コード":"01225","市区町村名":"滝川市","大字コード":"021","丁目コード":"000","小字コード":"0000","予備コード":"00","大字名":"江部乙町","丁目名":null,"小字名":null,"予備名":null,"地番":"4249-2","精度区分":null,"座標値種別":"図上測量","筆界未定構成筆":null,"代表点緯度":861.655,"代表点経度":6958.374630345}},{"type":"MultiPolygon","arcs":[[[110,-86,-110]]],"properties":{"筆ID":"H000000038","version":"ver1.0","座標系":"任意座標系","測地系判別":null,"地図名":"H20431501225027","地図番号":"開E-1","縮尺分母":"3000","市区町村コード":"01225","市区町村名":"滝川市","大字コード":"021","丁目コード":"000","小字コード":"0000","予備コード":"00","大字名":"江部乙町","丁目名":null,"小字名":null,"予備名":null,"地番":"4243-4","精度区分":null,"座標値種別":"図上測量","筆界未定構成筆":null,"代表点緯度":861.778,"代表点経度":6952.321337591}},{"type":"MultiPolygon","arcs":[[[-88,111]]],"properties":{"筆ID":"H000000039","version":"ver1.0","座標系":"任意座標系","測地系判別":null,"地図名":"H20431501225027","地図番号":"開E-1","縮尺分母":"3000","市区町村コード":"01225","市区町村名":"滝川市","大字コード":"021","丁目コード":"000","小字コード":"0000","予備コード":"00","大字名":"江部乙町","丁目名":null,"小字名":null,"予備名":null,"地番":"4243-3","精度区分":null,"座標値種別":"図上測量","筆界未定構成筆":null,"代表点緯度":812.147,"代表点経度":6794.203222186}},{"type":"MultiPolygon","arcs":[[[112,-70,113]]],"properties":{"筆ID":"H000000040","version":"ver1.0","座標系":"任意座標系","測地系判別":null,"地図名":"H20431501225027","地図番号":"開E-1","縮尺分母":"3000","市区町村コード":"01225","市区町村名":"滝川市","大字コード":"021","丁目コード":"000","小字コード":"0000","予備コード":"00","大字名":"江部乙町","丁目名":null,"小字名":null,"予備名":null,"地番":"4243-2","精度区分":null,"座標値種別":"図上測量","筆界未定構成筆":null,"代表点緯度":779.226,"代表点経度":6723.578446142}},{"type":"MultiPolygon","arcs":[[[114,-114,-89,-112,-87,-111,-107,-59]]],"properties":{"筆ID":"H000000041","version":"ver1.0","座標系":"任意座標系","測地系判別":null,"地図名":"H20431501225027","地図番号":"開E-1","縮尺分母":"3000","市区町村コード":"01225","市区町村名":"滝川市","大字コード":"021","丁目コード":"000","小字コード":"0000","予備コード":"00","大字名":"江部乙町","丁目名":null,"小字名":null,"予備名":null,"地番":"4243-1","精度区分":null,"座標値種別":"図上測量","筆界未定構成筆":null,"代表点緯度":797.3725,"代表点経度":6858.647229248}},{"type":"MultiPolygon","arcs":[[[115,116]]],"properties":{"筆ID":"H000000042","version":"ver1.0","座標系":"任意座標系","測地系判別":null,"地図名":"H20431501225027","地図番号":"開E-1","縮尺分母":"3000","市区町村コード":"01225","市区町村名":"滝川市","大字コード":"021","丁目コード":"000","小字コード":"0000","予備コード":"00","大字名":"江部乙町","丁目名":null,"小字名":null,"予備名":null,"地番":"4247-2","精度区分":null,"座標値種別":"図上測量","筆界未定構成筆":null,"代表点緯度":691.0385,"代表点経度":7263.970046268}},{"type":"MultiPolygon","arcs":[[[-116,117]]],"properties":{"筆ID":"H000000043","version":"ver1.0","座標系":"任意座標系","測地系判別":null,"地図名":"H20431501225027","地図番号":"開E-1","縮尺分母":"3000","市区町村コード":"01225","市区町村名":"滝川市","大字コード":"021","丁目コード":"000","小字コード":"0000","予備コード":"00","大字名":"江部乙町","丁目名":null,"小字名":null,"予備名":null,"地番":"4247-1","精度区分":null,"座標値種別":"図上測量","筆界未定構成筆":null,"代表点緯度":677.714,"代表点経度":7319.281214821}},{"type":"MultiPolygon","arcs":[[[118,-53]]],"properties":{"筆ID":"H000000044","version":"ver1.0","座標系":"任意座標系","測地系判別":null,"地図名":"H20431501225027","地図番号":"開E-1","縮尺分母":"3000","市区町村コード":"01225","市区町村名":"滝川市","大字コード":"021","丁目コード":"000","小字コード":"0000","予備コード":"00","大字名":"江部乙町","丁目名":null,"小字名":null,"予備名":null,"地番":"4239","精度区分":null,"座標値種別":"図上測量","筆界未定構成筆":null,"代表点緯度":512.368,"代表点経度":6589.003815781}},{"type":"MultiPolygon","arcs":[[[119,120,-57,-21,121]]],"properties":{"筆ID":"H000000045","version":"ver1.0","座標系":"任意座標系","測地系判別":null,"地図名":"H20431501225027","地図番号":"開E-1","縮尺分母":"3000","市区町村コード":"01225","市区町村名":"滝川市","大字コード":"021","丁目コード":"000","小字コード":"0000","予備コード":"00","大字名":"江部乙町","丁目名":null,"小字名":null,"予備名":null,"地番":"4241","精度区分":null,"座標値種別":"図上測量","筆界未定構成筆":null,"代表点緯度":540.233,"代表点経度":6888.032302251}},{"type":"MultiPolygon","arcs":[[[-55,122,-120,123]]],"properties":{"筆ID":"H000000046","version":"ver1.0","座標系":"任意座標系","測地系判別":null,"地図名":"H20431501225027","地図番号":"開E-1","縮尺分母":"3000","市区町村コード":"01225","市区町村名":"滝川市","大字コード":"021","丁目コード":"000","小字コード":"0000","予備コード":"00","大字名":"江部乙町","丁目名":null,"小字名":null,"予備名":null,"地番":"4392","精度区分":null,"座標値種別":"図上測量","筆界未定構成筆":null,"代表点緯度":536.624,"代表点経度":6751.313484658}}]}},"arcs":[[[957933,232882],[39256,-14928],[-653,-26643]],[[996536,191311],[-21654,24441],[-16949,17130]],[[306779,914605],[-57791,2130]],[[248988,916735],[-13991,516]],[[234997,917251],[-226237,8338]],[[8760,925589],[1550,74410],[203245,-6581],[75177,-59212],[18047,-19601]],[[418085,773819],[-172061,6370]],[[246024,780189],[2964,136546]],[[306779,914605],[27612,-3809],[50016,-41377],[-1698,-42643],[35599,-41288]],[[418308,785488],[-223,-11669]],[[414913,608472],[1101,57439]],[[416014,665911],[2071,107908]],[[418308,785488],[62019,-5244],[78128,-33779]],[[558455,746465],[-2859,-129443]],[[555596,617022],[-13102,4475],[-26162,5778],[-27095,2167],[-51050,-11193],[-23274,-9777]],[[605944,894487],[-3219,-150233]],[[602725,744254],[-44270,2211]],[[558455,746465],[-2094,71036],[-48408,18843],[-787,11905],[-26460,13532],[-35587,37354]],[[445119,899135],[160825,-4648]],[[445119,899135],[-12334,356],[-15132,55494],[-93985,35135],[298069,-8952],[-2329,-87070],[-13464,389]],[[587004,10558],[5047,235546]],[[592051,246104],[3732,174196]],[[595783,420300],[1081,50408]],[[596864,470708],[13176,-242]],[[610040,470466],[-2747,-126496]],[[607293,343970],[-7250,-333801]],[[600043,10169],[-13039,389]],[[890042,2642],[2729,106325],[-37803,771],[1022,47766]],[[855990,157504],[39421,99153],[62522,-23775]],[[996536,191311],[-4687,-191311],[-101807,2642]],[[607293,343970],[136216,-4372]],[[743509,339598],[54121,-1736]],[[797630,337862],[-61760,-114092],[120120,-66266]],[[890042,2642],[-289999,7527]],[[744213,375042],[68,3391]],[[744281,378433],[9131,15897],[-8579,11911]],[[744833,406241],[17,823]],[[744850,407064],[1130,56866]],[[745980,463930],[7657,-6939],[20436,-11761],[19383,-17813],[26503,-15827]],[[819959,411590],[-684,-33741],[-6594,-12181]],[[812681,365668],[-4595,3414],[-7725,-14418],[-12891,7707],[-11056,-11899],[-32201,24570]],[[745980,463930],[66,3368]],[[746046,467298],[75008,-1748],[-1095,-53960]],[[610040,470466],[86394,-2012]],[[696434,468454],[48416,-61390]],[[744833,406241],[-552,-27808]],[[744281,378433],[-1374,-2393],[1306,-998]],[[744213,375042],[-704,-35444]],[[812681,365668],[-15051,-27806]],[[745980,463930],[-3457,3450]],[[742523,467380],[3523,-82]],[[696434,468454],[46089,-1074]],[[92550,25254],[2206,108606],[-88806,2969]],[[5950,136829],[4823,217306],[59900,-37716],[75740,-81072],[25142,-35936],[6402,25535]],[[177957,224946],[53074,-94408],[57167,-62695],[20482,-16766],[-22968,-31565]],[[285712,19512],[-193162,5742]],[[592051,246104],[-405174,14417]],[[186877,260521],[8014,31963],[-21294,48760],[-31065,24869],[16086,19962],[12089,48488]],[[170707,434563],[337631,-11328]],[[508338,423235],[87445,-2935]],[[106415,459581],[-67633,9352],[-15123,4600],[-9275,4007]],[[14384,477540],[381,26808],[-14765,572],[267,12846]],[[267,517766],[212647,-5803]],[[212914,511963],[-37454,-26060],[-29854,-19519],[-8040,-3487]],[[137566,462897],[-31151,-3316]],[[106415,459581],[20994,-1087],[10157,4403]],[[212914,511963],[13442,-368]],[[226356,511595],[-153,-7165],[-44397,-25353]],[[181806,479077],[-50175,-28651],[-117358,19319],[111,7795]],[[254685,501545],[-78276,-44118]],[[176409,457427],[5397,21650]],[[226356,511595],[210,9866]],[[226566,521461],[1502,70482]],[[228068,591943],[1755,82442]],[[229823,674385],[1730,81178]],[[231553,755563],[1725,80990]],[[233278,836553],[1719,80698]],[[246024,780189],[-2372,-109278]],[[243652,670911],[-3218,-148300]],[[240434,522611],[-226,-10403],[63699,36185],[110640,41058]],[[414547,589451],[95024,35264],[45520,-30502]],[[555091,594213],[43790,-29340]],[[598881,564873],[-379,-17737]],[[598502,547136],[-76156,49476]],[[522346,596612],[-14980,9732]],[[507366,606344],[-18730,-7098]],[[488636,599246],[-143934,-54547]],[[344702,544699],[-6015,-2280],[-34104,-12750],[-31989,-18031]],[[272594,511638],[-17909,-10093]],[[240434,522611],[33764,18873],[92655,46802],[48060,20186]],[[414913,608472],[-366,-19021]],[[555596,617022],[-505,-22809]],[[555596,617022],[11006,-3758],[32853,-21611]],[[599455,591653],[-574,-26780]],[[602725,744254],[-3270,-152601]],[[243652,670911],[172362,-5000]],[[5359,762212],[1690,81184]],[[7049,843396],[226229,-6843]],[[231553,755563],[-226194,6649]],[[7049,843396],[1711,82193]],[[3650,680189],[1709,82023]],[[229823,674385],[-226173,5804]],[[1956,598842],[1694,81347]],[[228068,591943],[-226112,6899]],[[226566,521461],[-13652,-9498]],[[267,517766],[1689,81076]],[[508338,423235],[-928,174923]],[[507410,598158],[4517,720],[10419,-2266]],[[598502,547136],[-1638,-76428]],[[507410,598158],[-44,8186]],[[507410,598158],[-18774,1088]],[[344702,544699],[-39158,-17047],[-32950,-16014]],[[175231,452706],[1178,4721]],[[254685,501545],[-79454,-48839]],[[170707,434563],[4524,18143]],[[878111,362120],[9732,-9122],[10489,-10475]],[[898332,342523],[-30417,19854],[10196,-257]],[[878111,362120],[121888,-3078],[-1000,-61589],[-53365,15739],[-47302,29331]],[[92550,25254],[-89016,2645],[2416,108930]],[[502042,13082],[-92413,41471],[-62666,49131],[-29923,-41119],[-26573,20817],[-51802,57937],[-56439,100651]],[[182226,241970],[4651,18551]],[[587004,10558],[-84962,2524]],[[177957,224946],[4269,17024]],[[502042,13082],[-216330,6430]]],"bbox":[6549.592,458.221,7350.735,1127.697],"transform":{"scale":[0.0008011438011438012,0.0006694766694766693],"translate":[6549.592,458.221]}}
