{"type":"Topology","objects":{"01225-4315-27.featurecollection":{"type":"GeometryCollection","geometries":[{"type":"Polygon","arcs":[[0,1,2,3,4]],"properties":{"市区町村名":"滝川市","大字名":"本町","丁目名":"２丁目","小字名":null,"地番":"342-1","精度区分":null,"座標系":"任意座標系"}},{"type":"Polygon","arcs":[[5,6,7,8,9,10,11,12,13,14,15,16,17,18,19,20,21,22,23,24]],"properties":{"市区町村名":"滝川市","大字名":"本町","丁目名":"３丁目","小字名":null,"地番":"道-6","精度区分":null,"座標系":"任意座標系"}},{"type":"Polygon","arcs":[[25,26,27,28,29,30,31,32,33,34,35,36]],"properties":{"市区町村名":"滝川市","大字名":"本町","丁目名":"３丁目","小字名":null,"地番":"道-5","精度区分":null,"座標系":"任意座標系"}},{"type":"Polygon","arcs":[[37,-6,38]],"properties":{"市区町村名":"滝川市","大字名":"本町","丁目名":"３丁目","小字名":null,"地番":"道-4","精度区分":null,"座標系":"任意座標系"}},{"type":"Polygon","arcs":[[39,40,41,42,43,44,45,46,47,48,49,50,51,-15,52,53,54,55,56,57,58,59,60,61,62,63]],"properties":{"市区町村名":"滝川市","大字名":"本町","丁目名":"３丁目","小字名":null,"地番":"道-3","精度区分":null,"座標系":"任意座標系"}},{"type":"Polygon","arcs":[[64,65,66,-28,67]],"properties":{"市区町村名":"滝川市","大字名":"本町","丁目名":"３丁目","小字名":null,"地番":"401-2","精度区分":null,"座標系":"任意座標系"}},{"type":"Polygon","arcs":[[68,-68,-27,69]],"properties":{"市区町村名":"滝川市","大字名":"本町","丁目名":"３丁目","小字名":null,"地番":"401-1","精度区分":null,"座標系":"任意座標系"}},{"type":"Polygon","arcs":[[70,-66,71]],"properties":{"市区町村名":"滝川市","大字名":"本町","丁目名":"３丁目","小字名":null,"地番":"400-2","精度区分":null,"座標系":"任意座標系"}},{"type":"Polygon","arcs":[[72,-72,-65,73]],"properties":{"市区町村名":"滝川市","大字名":"本町","丁目名":"３丁目","小字名":null,"地番":"400-1","精度区分":null,"座標系":"任意座標系"}},{"type":"Polygon","arcs":[[74,75,-74,-69,76]],"properties":{"市区町村名":"滝川市","大字名":"本町","丁目名":"３丁目","小字名":null,"地番":"399","精度区分":null,"座標系":"任意座標系"}},{"type":"Polygon","arcs":[[77,78,-75,79]],"properties":{"市区町村名":"滝川市","大字名":"本町","丁目名":"３丁目","小字名":null,"地番":"398","精度区分":null,"座標系":"任意座標系"}},{"type":"Polygon","arcs":[[80,81,-78,82,83]],"properties":{"市区町村名":"滝川市","大字名":"本町","丁目名":"３丁目","小字名":null,"地番":"397","精度区分":null,"座標系":"任意座標系"}},{"type":"Polygon","arcs":[[-83,-80,-77,-70,-26,84]],"properties":{"市区町村名":"滝川市","大字名":"本町","丁目名":"３丁目","小字名":null,"地番":"396","精度区分":null,"座標系":"任意座標系"}},{"type":"Polygon","arcs":[[-36,85,86,87]],"properties":{"市区町村名":"滝川市","大字名":"本町","丁目名":"３丁目","小字名":null,"地番":"336","精度区分":null,"座標系":"任意座標系"}},{"type":"Polygon","arcs":[[-86,-35,88,89]],"properties":{"市区町村名":"滝川市","大字名":"本町","丁目名":"３丁目","小字名":null,"地番":"334","精度区分":null,"座標系":"任意座標系"}},{"type":"Polygon","arcs":[[-89,-34,90,91,92]],"properties":{"市区町村名":"滝川市","大字名":"本町","丁目名":"３丁目","小字名":null,"地番":"333","精度区分":null,"座標系":"任意座標系"}},{"type":"Polygon","arcs":[[-87,-90,-93,93,-7,-38,94]],"properties":{"市区町村名":"滝川市","大字名":"本町","丁目名":"３丁目","小字名":null,"地番":"332-2","精度区分":null,"座標系":"任意座標系"}},{"type":"Polygon","arcs":[[-8,-94,-92,95,96]],"properties":{"市区町村名":"滝川市","大字名":"本町","丁目名":"３丁目","小字名":null,"地番":"332-1","精度区分":null,"座標系":"任意座標系"}},{"type":"Polygon","arcs":[[97,-32,98,99]],"properties":{"市区町村名":"滝川市","大字名":"本町","丁目名":"３丁目","小字名":null,"地番":"331-2","精度区分":null,"座標系":"任意座標系"}},{"type":"Polygon","arcs":[[-91,-33,-98,100,-96]],"properties":{"市区町村名":"滝川市","大字名":"本町","丁目名":"３丁目","小字名":null,"地番":"331-1","精度区分":null,"座標系":"任意座標系"}},{"type":"Polygon","arcs":[[-9,-97,-101,-100,101,102]],"properties":{"市区町村名":"滝川市","大字名":"本町","丁目名":"３丁目","小字名":null,"地番":"330","精度区分":null,"座標系":"任意座標系"}},{"type":"Polygon","arcs":[[-102,-99,-31,103,104]],"properties":{"市区町村名":"滝川市","大字名":"本町","丁目名":"３丁目","小字名":null,"地番":"329","精度区分":null,"座標系":"任意座標系"}},{"type":"Polygon","arcs":[[-103,-105,105,-10]],"properties":{"市区町村名":"滝川市","大字名":"本町","丁目名":"３丁目","小字名":null,"地番":"328-2","精度区分":null,"座標系":"任意座標系"}},{"type":"Polygon","arcs":[[-11,-106,106,107]],"properties":{"市区町村名":"滝川市","大字名":"本町","丁目名":"３丁目","小字名":null,"地番":"328-1","精度区分":null,"座標系":"任意座標系"}},{"type":"Polygon","arcs":[[-107,-104,-30,108,109]],"properties":{"市区町村名":"滝川市","大字名":"本町","丁目名":"３丁目","小字名":null,"地番":"327","精度区分":null,"座標系":"任意座標系"}},{"type":"Polygon","arcs":[[110,-13,111]],"properties":{"市区町村名":"滝川市","大字名":"本町","丁目名":"３丁目","小字名":null,"地番":"325-2","精度区分":null,"座標系":"任意座標系"}},{"type":"Polygon","arcs":[[-12,-108,-110,112,-112]],"properties":{"市区町村名":"滝川市","大字名":"本町","丁目名":"３丁目","小字名":null,"地番":"325-1","精度区分":null,"座標系":"任意座標系"}},{"type":"Polygon","arcs":[[-16,-52,113,114,115]],"properties":{"市区町村名":"滝川市","大字名":"本町","丁目名":"３丁目","小字名":null,"地番":"240","精度区分":null,"座標系":"任意座標系"}},{"type":"Polygon","arcs":[[116,117,-115,118,119]],"properties":{"市区町村名":"滝川市","大字名":"本町","丁目名":"３丁目","小字名":null,"地番":"239-4","精度区分":null,"座標系":"任意座標系"}},{"type":"Polygon","arcs":[[-119,-114,-51,120]],"properties":{"市区町村名":"滝川市","大字名":"本町","丁目名":"３丁目","小字名":null,"地番":"239-3","精度区分":null,"座標系":"任意座標系"}},{"type":"Polygon","arcs":[[121,122,-117,123,-49,124]],"properties":{"市区町村名":"滝川市","大字名":"本町","丁目名":"３丁目","小字名":null,"地番":"239-2","精度区分":null,"座標系":"任意座標系"}},{"type":"Polygon","arcs":[[-124,-120,-121,-50]],"properties":{"市区町村名":"滝川市","大字名":"本町","丁目名":"３丁目","小字名":null,"地番":"239-1","精度区分":null,"座標系":"任意座標系"}},{"type":"Polygon","arcs":[[-18,125,-122,126,127]],"properties":{"市区町村名":"滝川市","大字名":"本町","丁目名":"３丁目","小字名":null,"地番":"238-2","精度区分":null,"座標系":"任意座標系"}},{"type":"Polygon","arcs":[[-123,-126,-17,-116,-118]],"properties":{"市区町村名":"滝川市","大字名":"本町","丁目名":"３丁目","小字名":null,"地番":"238-1","精度区分":null,"座標系":"任意座標系"}},{"type":"Polygon","arcs":[[128,-47,129]],"properties":{"市区町村名":"滝川市","大字名":"本町","丁目名":"３丁目","小字名":null,"地番":"237-2","精度区分":null,"座標系":"任意座標系"}},{"type":"Polygon","arcs":[[130,-127,-125,-48,-129,131]],"properties":{"市区町村名":"滝川市","大字名":"本町","丁目名":"３丁目","小字名":null,"地番":"237-1","精度区分":null,"座標系":"任意座標系"}},{"type":"Polygon","arcs":[[-20,132,133,134,135]],"properties":{"市区町村名":"滝川市","大字名":"本町","丁目名":"３丁目","小字名":null,"地番":"236-2","精度区分":null,"座標系":"任意座標系"}},{"type":"Polygon","arcs":[[-133,-19,-128,-131,136]],"properties":{"市区町村名":"滝川市","大字名":"本町","丁目名":"３丁目","小字名":null,"地番":"236-1","精度区分":null,"座標系":"任意座標系"}},{"type":"Polygon","arcs":[[-134,-137,-132,-130,-46,137]],"properties":{"市区町村名":"滝川市","大字名":"本町","丁目名":"３丁目","小字名":null,"地番":"235-2","精度区分":null,"座標系":"任意座標系"}},{"type":"Polygon","arcs":[[138,139,-44,140]],"properties":{"市区町村名":"滝川市","大字名":"本町","丁目名":"３丁目","小字名":null,"地番":"234","精度区分":null,"座標系":"任意座標系"}},{"type":"Polygon","arcs":[[-21,-136,141,-139,142]],"properties":{"市区町村名":"滝川市","大字名":"本町","丁目名":"３丁目","小字名":null,"地番":"233","精度区分":null,"座標系":"任意座標系"}},{"type":"Polygon","arcs":[[-22,-143,143,144]],"properties":{"市区町村名":"滝川市","大字名":"本町","丁目名":"３丁目","小字名":null,"地番":"232","精度区分":null,"座標系":"任意座標系"}},{"type":"Polygon","arcs":[[-144,-141,-43,145]],"properties":{"市区町村名":"滝川市","大字名":"本町","丁目名":"３丁目","小字名":null,"地番":"231","精度区分":null,"座標系":"任意座標系"}},{"type":"Polygon","arcs":[[146,-146,-42,147]],"properties":{"市区町村名":"滝川市","大字名":"本町","丁目名":"３丁目","小字名":null,"地番":"230","精度区分":null,"座標系":"任意座標系"}},{"type":"Polygon","arcs":[[-23,-145,-147,148]],"properties":{"市区町村名":"滝川市","大字名":"本町","丁目名":"３丁目","小字名":null,"地番":"229","精度区分":null,"座標系":"任意座標系"}},{"type":"Polygon","arcs":[[-24,-149,149,150]],"properties":{"市区町村名":"滝川市","大字名":"本町","丁目名":"３丁目","小字名":null,"地番":"228","精度区分":null,"座標系":"任意座標系"}},{"type":"Polygon","arcs":[[-150,-148,-41,151]],"properties":{"市区町村名":"滝川市","大字名":"本町","丁目名":"３丁目","小字名":null,"地番":"227","精度区分":null,"座標系":"任意座標系"}},{"type":"Polygon","arcs":[[-64,152,153,154]],"properties":{"市区町村名":"滝川市","大字名":"本町","丁目名":"３丁目","小字名":null,"地番":"161","精度区分":null,"座標系":"任意座標系"}},{"type":"Polygon","arcs":[[-154,155,156,157,158,159,160,161]],"properties":{"市区町村名":"滝川市","大字名":"本町","丁目名":"３丁目","小字名":null,"地番":"160","精度区分":null,"座標系":"任意座標系"}},{"type":"Polygon","arcs":[[-161,162,163,164]],"properties":{"市区町村名":"滝川市","大字名":"本町","丁目名":"３丁目","小字名":null,"地番":"159","精度区分":null,"座標系":"任意座標系"}},{"type":"Polygon","arcs":[[-163,-160,165,166]],"properties":{"市区町村名":"滝川市","大字名":"本町","丁目名":"３丁目","小字名":null,"地番":"158","精度区分":null,"座標系":"任意座標系"}},{"type":"Polygon","arcs":[[-158,167,168,169]],"properties":{"市区町村名":"滝川市","大字名":"本町","丁目名":"３丁目","小字名":null,"地番":"157-3","精度区分":null,"座標系":"任意座標系"}},{"type":"Polygon","arcs":[[-166,-159,-170,170]],"properties":{"市区町村名":"滝川市","大字名":"本町","丁目名":"３丁目","小字名":null,"地番":"157-2","精度区分":null,"座標系":"任意座標系"}},{"type":"Polygon","arcs":[[171,-168,-157,172,173]],"properties":{"市区町村名":"滝川市","大字名":"本町","丁目名":"３丁目","小字名":null,"地番":"157-1","精度区分":null,"座標系":"任意座標系"}},{"type":"Polygon","arcs":[[-173,-156,-153,-63,174,175]],"properties":{"市区町村名":"滝川市","大字名":"本町","丁目名":"３丁目","小字名":null,"地番":"156","精度区分":null,"座標系":"任意座標系"}},{"type":"Polygon","arcs":[[176,-174,-176,177,178]],"properties":{"市区町村名":"滝川市","大字名":"本町","丁目名":"３丁目","小字名":null,"地番":"155","精度区分":null,"座標系":"任意座標系"}},{"type":"Polygon","arcs":[[-178,-175,-62,179,180]],"properties":{"市区町村名":"滝川市","大字名":"本町","丁目名":"３丁目","小字名":null,"地番":"154","精度区分":null,"座標系":"任意座標系"}},{"type":"Polygon","arcs":[[181,-179,-181,182,183]],"properties":{"市区町村名":"滝川市","大字名":"本町","丁目名":"３丁目","小字名":null,"地番":"153-2","精度区分":null,"座標系":"任意座標系"}},{"type":"Polygon","arcs":[[-184,184,185,186]],"properties":{"市区町村名":"滝川市","大字名":"本町","丁目名":"３丁目","小字名":null,"地番":"153-1","精度区分":null,"座標系":"任意座標系"}},{"type":"Polygon","arcs":[[-183,-180,-61,187,188,189,-185]],"properties":{"市区町村名":"滝川市","大字名":"本町","丁目名":"３丁目","小字名":null,"地番":"152","精度区分":null,"座標系":"任意座標系"}},{"type":"Polygon","arcs":[[190,-186,-190,191,192]],"properties":{"市区町村名":"滝川市","大字名":"本町","丁目名":"３丁目","小字名":null,"地番":"151-2","精度区分":null,"座標系":"任意座標系"}},{"type":"Polygon","arcs":[[193,-193,194,195]],"properties":{"市区町村名":"滝川市","大字名":"本町","丁目名":"３丁目","小字名":null,"地番":"151-1","精度区分":null,"座標系":"任意座標系"}},{"type":"Polygon","arcs":[[196,-196,197,198]],"properties":{"市区町村名":"滝川市","大字名":"本町","丁目名":"３丁目","小字名":null,"地番":"150-2","精度区分":null,"座標系":"任意座標系"}},{"type":"Polygon","arcs":[[-199,199,200,201,202,203]],"properties":{"市区町村名":"滝川市","大字名":"本町","丁目名":"３丁目","小字名":null,"地番":"150-1","精度区分":null,"座標系":"任意座標系"}},{"type":"Polygon","arcs":[[-192,-189,204,205,206,-200,-198,-195]],"properties":{"市区町村名":"滝川市","大字名":"本町","丁目名":"３丁目","小字名":null,"地番":"149-2","精度区分":null,"座標系":"任意座標系"}},{"type":"Polygon","arcs":[[-205,-188,-60,207]],"properties":{"市区町村名":"滝川市","大字名":"本町","丁目名":"３丁目","小字名":null,"地番":"149-1","精度区分":null,"座標系":"任意座標系"}},{"type":"Polygon","arcs":[[-208,-59,208,209]],"properties":{"市区町村名":"滝川市","大字名":"本町","丁目名":"３丁目","小字名":null,"地番":"148-2","精度区分":null,"座標系":"任意座標系"}},{"type":"Polygon","arcs":[[-209,-58,210]],"properties":{"市区町村名":"滝川市","大字名":"本町","丁目名":"３丁目","小字名":null,"地番":"148-1","精度区分":null,"座標系":"任意座標系"}},{"type":"Polygon","arcs":[[-206,-210,-211,-57,211]],"properties":{"市区町村名":"滝川市","大字名":"本町","丁目名":"３丁目","小字名":null,"地番":"147-1","精度区分":null,"座標系":"任意座標系"}},{"type":"Polygon","arcs":[[-207,-212,-56,212,-201]],"properties":{"市区町村名":"滝川市","大字名":"本町","丁目名":"３丁目","小字名":null,"地番":"146-3","精度区分":null,"座標系":"任意座標系"}},{"type":"Polygon","arcs":[[-202,-213,-55,213]],"properties":{"市区町村名":"滝川市","大字名":"本町","丁目名":"３丁目","小字名":null,"地番":"146-2","精度区分":null,"座標系":"任意座標系"}},{"type":"Polygon","arcs":[[-203,-214,-54,214]],"properties":{"市区町村名":"滝川市","大字名":"本町","丁目名":"３丁目","小字名":null,"地番":"146-1","精度区分":null,"座標系":"任意座標系"}},{"type":"Polygon","arcs":[[215,216,217,218,-5,219,220,221,222,223,-25,-151,-152,-40,-155,-162,-165,224,225,226,227,228,229,230,231]],"properties":{"市区町村名":"滝川市","大字名":"本町","丁目名":"２丁目","小字名":null,"地番":"道-2","精度区分":null,"座標系":"任意座標系"}},{"type":"Polygon","arcs":[[232,233,234,235,236,237,238,239,240,241,242,243,244,245,246,247,248,249,250,251,252,253,254,255,256,257,258,259,260,261,262,-84,-85,-37,-88,-95,-39,-224,263,264,265,266,267,268,269,270,271,272,273,274]],"properties":{"市区町村名":"滝川市","大字名":"本町","丁目名":"２丁目","小字名":null,"地番":"道-1","精度区分":null,"座標系":"任意座標系"}},{"type":"Polygon","arcs":[[275,276,277,278]],"properties":{"市区町村名":"滝川市","大字名":"本町","丁目名":"２丁目","小字名":null,"地番":"549","精度区分":null,"座標系":"任意座標系"}},{"type":"Polygon","arcs":[[279,-279,280,281]],"properties":{"市区町村名":"滝川市","大字名":"本町","丁目名":"２丁目","小字名":null,"地番":"548-2","精度区分":null,"座標系":"任意座標系"}},{"type":"Polygon","arcs":[[282,-282,283,-250]],"properties":{"市区町村名":"滝川市","大字名":"本町","丁目名":"２丁目","小字名":null,"地番":"548-1","精度区分":null,"座標系":"任意座標系"}},{"type":"Polygon","arcs":[[-251,-284,-281,-278,284,285]],"properties":{"市区町村名":"滝川市","大字名":"本町","丁目名":"２丁目","小字名":null,"地番":"547","精度区分":null,"座標系":"任意座標系"}},{"type":"Polygon","arcs":[[-285,-277,286,287,288,289]],"properties":{"市区町村名":"滝川市","大字名":"本町","丁目名":"２丁目","小字名":null,"地番":"546","精度区分":null,"座標系":"任意座標系"}},{"type":"Polygon","arcs":[[-288,290,291,292,293,294]],"properties":{"市区町村名":"滝川市","大字名":"本町","丁目名":"２丁目","小字名":null,"地番":"545","精度区分":null,"座標系":"任意座標系"}},{"type":"Polygon","arcs":[[295,296,297,-253,298]],"properties":{"市区町村名":"滝川市","大字名":"本町","丁目名":"２丁目","小字名":null,"地番":"544-5","精度区分":null,"座標系":"任意座標系"}},{"type":"Polygon","arcs":[[-294,299,300,-297,301]],"properties":{"市区町村名":"滝川市","大字名":"本町","丁目名":"２丁目","小字名":null,"地番":"544-4","精度区分":null,"座標系":"任意座標系"}},{"type":"Polygon","arcs":[[-289,-295,-302,-296,302]],"properties":{"市区町村名":"滝川市","大字名":"本町","丁目名":"２丁目","小字名":null,"地番":"544-3","精度区分":null,"座標系":"任意座標系"}},{"type":"Polygon","arcs":[[-298,-301,303,-254]],"properties":{"市区町村名":"滝川市","大字名":"本町","丁目名":"２丁目","小字名":null,"地番":"544-2","精度区分":null,"座標系":"任意座標系"}},{"type":"Polygon","arcs":[[-252,-286,-290,-303,-299]],"properties":{"市区町村名":"滝川市","大字名":"本町","丁目名":"２丁目","小字名":null,"地番":"544-1","精度区分":null,"座標系":"任意座標系"}},{"type":"Polygon","arcs":[[-255,-304,-300,-293,304,305]],"properties":{"市区町村名":"滝川市","大字名":"本町","丁目名":"２丁目","小字名":null,"地番":"543","精度区分":null,"座標系":"任意座標系"}},{"type":"Polygon","arcs":[[-305,-292,306,307,308]],"properties":{"市区町村名":"滝川市","大字名":"本町","丁目名":"２丁目","小字名":null,"地番":"542","精度区分":null,"座標系":"任意座標系"}},{"type":"Polygon","arcs":[[-308,309,310,311,312]],"properties":{"市区町村名":"滝川市","大字名":"本町","丁目名":"２丁目","小字名":null,"地番":"541","精度区分":null,"座標系":"任意座標系"}},{"type":"Polygon","arcs":[[-256,-306,-309,-313,313]],"properties":{"市区町村名":"滝川市","大字名":"本町","丁目名":"２丁目","小字名":null,"地番":"540","精度区分":null,"座標系":"任意座標系"}},{"type":"Polygon","arcs":[[-314,-312,314,315,-257]],"properties":{"市区町村名":"滝川市","大字名":"本町","丁目名":"２丁目","小字名":null,"地番":"539-2","精度区分":null,"座標系":"任意座標系"}},{"type":"Polygon","arcs":[[-316,316,317,318,-258]],"properties":{"市区町村名":"滝川市","大字名":"本町","丁目名":"２丁目","小字名":null,"地番":"539-1","精度区分":null,"座標系":"任意座標系"}},{"type":"Polygon","arcs":[[-311,319,320,-317,-315]],"properties":{"市区町村名":"滝川市","大字名":"本町","丁目名":"２丁目","小字名":null,"地番":"538","精度区分":null,"座標系":"任意座標系"}},{"type":"Polygon","arcs":[[-318,-321,321,322,323,324]],"properties":{"市区町村名":"滝川市","大字名":"本町","丁目名":"２丁目","小字名":null,"地番":"537","精度区分":null,"座標系":"任意座標系"}},{"type":"Polygon","arcs":[[-324,325,326,327,328,329]],"properties":{"市区町村名":"滝川市","大字名":"本町","丁目名":"２丁目","小字名":null,"地番":"536-2","精度区分":null,"座標系":"任意座標系"}},{"type":"Polygon","arcs":[[-326,-323,330,331]],"properties":{"市区町村名":"滝川市","大字名":"本町","丁目名":"２丁目","小字名":null,"地番":"536-1","精度区分":null,"座標系":"任意座標系"}},{"type":"Polygon","arcs":[[-319,-325,-330,332,-259]],"properties":{"市区町村名":"滝川市","大字名":"本町","丁目名":"２丁目","小字名":null,"地番":"535","精度区分":null,"座標系":"任意座標系"}},{"type":"Polygon","arcs":[[333,-262,334]],"properties":{"市区町村名":"滝川市","大字名":"本町","丁目名":"２丁目","小字名":null,"地番":"534","精度区分":null,"座標系":"任意座標系"}},{"type":"Polygon","arcs":[[-263,-334,335,336,-81]],"properties":{"市区町村名":"滝川市","大字名":"本町","丁目名":"２丁目","小字名":null,"地番":"533","精度区分":null,"座標系":"任意座標系"}},{"type":"Polygon","arcs":[[337,338,339,-336,340]],"properties":{"市区町村名":"滝川市","大字名":"本町","丁目名":"２丁目","小字名":null,"地番":"532","精度区分":null,"座標系":"任意座標系"}},{"type":"Polygon","arcs":[[-341,-335,-261,341]],"properties":{"市区町村名":"滝川市","大字名":"本町","丁目名":"２丁目","小字名":null,"地番":"531","精度区分":null,"座標系":"任意座標系"}},{"type":"Polygon","arcs":[[-333,-329,342,343,-342,-260]],"properties":{"市区町村名":"滝川市","大字名":"本町","丁目名":"２丁目","小字名":null,"地番":"530","精度区分":null,"座標系":"任意座標系"}},{"type":"Polygon","arcs":[[-343,-328,344,345]],"properties":{"市区町村名":"滝川市","大字名":"本町","丁目名":"２丁目","小字名":null,"地番":"526","精度区分":null,"座標系":"任意座標系"}},{"type":"Polygon","arcs":[[-327,-332,346,347,348,-345]],"properties":{"市区町村名":"滝川市","大字名":"本町","丁目名":"２丁目","小字名":null,"地番":"525","精度区分":null,"座標系":"任意座標系"}},{"type":"Polygon","arcs":[[-348,349,350,351,352]],"properties":{"市区町村名":"滝川市","大字名":"本町","丁目名":"２丁目","小字名":null,"地番":"524","精度区分":null,"座標系":"任意座標系"}},{"type":"Polygon","arcs":[[353,-351]],"properties":{"市区町村名":"滝川市","大字名":"本町","丁目名":"２丁目","小字名":null,"地番":"523","精度区分":null,"座標系":"任意座標系"}},{"type":"Polygon","arcs":[[354,-240,355]],"properties":{"市区町村名":"滝川市","大字名":"本町","丁目名":"２丁目","小字名":null,"地番":"394","精度区分":null,"座標系":"任意座標系"}},{"type":"Polygon","arcs":[[356,-241,-355,357]],"properties":{"市区町村名":"滝川市","大字名":"本町","丁目名":"２丁目","小字名":null,"地番":"393","精度区分":null,"座標系":"任意座標系"}},{"type":"Polygon","arcs":[[358,359,360,-242,-357,361,362]],"properties":{"市区町村名":"滝川市","大字名":"本町","丁目名":"２丁目","小字名":null,"地番":"392","精度区分":null,"座標系":"任意座標系"}},{"type":"Polygon","arcs":[[363,-362,-358,-356,-239,364]],"properties":{"市区町村名":"滝川市","大字名":"本町","丁目名":"２丁目","小字名":null,"地番":"391","精度区分":null,"座標系":"任意座標系"}},{"type":"Polygon","arcs":[[-365,-238,365]],"properties":{"市区町村名":"滝川市","大字名":"本町","丁目名":"２丁目","小字名":null,"地番":"390-2","精度区分":null,"座標系":"任意座標系"}},{"type":"Polygon","arcs":[[366,-364,-366,-237,367]],"properties":{"市区町村名":"滝川市","大字名":"本町","丁目名":"２丁目","小字名":null,"地番":"390-1","精度区分":null,"座標系":"任意座標系"}},{"type":"Polygon","arcs":[[-243,-361,368,369]],"properties":{"市区町村名":"滝川市","大字名":"本町","丁目名":"２丁目","小字名":null,"地番":"389-4","精度区分":null,"座標系":"任意座標系"}},{"type":"Polygon","arcs":[[-369,-360,370,371]],"properties":{"市区町村名":"滝川市","大字名":"本町","丁目名":"２丁目","小字名":null,"地番":"389-3","精度区分":null,"座標系":"任意座標系"}},{"type":"Polygon","arcs":[[-371,-359,372,373]],"properties":{"市区町村名":"滝川市","大字名":"本町","丁目名":"２丁目","小字名":null,"地番":"389-2","精度区分":null,"座標系":"任意座標系"}},{"type":"Polygon","arcs":[[-373,-363,-367,374]],"properties":{"市区町村名":"滝川市","大字名":"本町","丁目名":"２丁目","小字名":null,"地番":"389-1","精度区分":null,"座標系":"任意座標系"}},{"type":"Polygon","arcs":[[-245,375,376,377]],"properties":{"市区町村名":"滝川市","大字名":"本町","丁目名":"２丁目","小字名":null,"地番":"388-2","精度区分":null,"座標系":"任意座標系"}},{"type":"Polygon","arcs":[[-376,-244,-370,-372,-374,-375,378]],"properties":{"市区町村名":"滝川市","大字名":"本町","丁目名":"２丁目","小字名":null,"地番":"388-1","精度区分":null,"座標系":"任意座標系"}},{"type":"Polygon","arcs":[[-377,-379,-368,-236,379]],"properties":{"市区町村名":"滝川市","大字名":"本町","丁目名":"２丁目","小字名":null,"地番":"387","精度区分":null,"座標系":"任意座標系"}},{"type":"Polygon","arcs":[[380,381,382,-380,-235,383]],"properties":{"市区町村名":"滝川市","大字名":"本町","丁目名":"２丁目","小字名":null,"地番":"386","精度区分":null,"座標系":"任意座標系"}},{"type":"Polygon","arcs":[[384,385,-246,-378,-383,386]],"properties":{"市区町村名":"滝川市","大字名":"本町","丁目名":"２丁目","小字名":null,"地番":"385","精度区分":null,"座標系":"任意座標系"}},{"type":"Polygon","arcs":[[387,-247,-386,388]],"properties":{"市区町村名":"滝川市","大字名":"本町","丁目名":"２丁目","小字名":null,"地番":"384-2","精度区分":null,"座標系":"任意座標系"}},{"type":"Polygon","arcs":[[389,-248,-388,390]],"properties":{"市区町村名":"滝川市","大字名":"本町","丁目名":"２丁目","小字名":null,"地番":"384-1","精度区分":null,"座標系":"任意座標系"}},{"type":"Polygon","arcs":[[391,-391,-389,-385,392,393]],"properties":{"市区町村名":"滝川市","大字名":"本町","丁目名":"２丁目","小字名":null,"地番":"383-3","精度区分":null,"座標系":"任意座標系"}},{"type":"Polygon","arcs":[[394,-394,395,396]],"properties":{"市区町村名":"滝川市","大字名":"本町","丁目名":"２丁目","小字名":null,"地番":"383-2","精度区分":null,"座標系":"任意座標系"}},{"type":"Polygon","arcs":[[-382,-396,-393,-387]],"properties":{"市区町村名":"滝川市","大字名":"本町","丁目名":"２丁目","小字名":null,"地番":"383-1","精度区分":null,"座標系":"任意座標系"}},{"type":"Polygon","arcs":[[397,398,-384,-234]],"properties":{"市区町村名":"滝川市","大字名":"本町","丁目名":"２丁目","小字名":null,"地番":"382-2","精度区分":null,"座標系":"任意座標系"}},{"type":"Polygon","arcs":[[-399,399,-397,-381]],"properties":{"市区町村名":"滝川市","大字名":"本町","丁目名":"２丁目","小字名":null,"地番":"382-1","精度区分":null,"座標系":"任意座標系"}},{"type":"Polygon","arcs":[[400,401,402,403]],"properties":{"市区町村名":"滝川市","大字名":"本町","丁目名":"２丁目","小字名":null,"地番":"351-4","精度区分":null,"座標系":"任意座標系"}},{"type":"Polygon","arcs":[[404,-275,405,406]],"properties":{"市区町村名":"滝川市","大字名":"本町","丁目名":"２丁目","小字名":null,"地番":"351-3","精度区分":null,"座標系":"任意座標系"}},{"type":"Polygon","arcs":[[-402,407,-407,408]],"properties":{"市区町村名":"滝川市","大字名":"本町","丁目名":"２丁目","小字名":null,"地番":"351-2","精度区分":null,"座標系":"任意座標系"}},{"type":"Polygon","arcs":[[409,-404,410,411,412]],"properties":{"市区町村名":"滝川市","大字名":"本町","丁目名":"２丁目","小字名":null,"地番":"351-1","精度区分":null,"座標系":"任意座標系"}},{"type":"Polygon","arcs":[[-413,413,414]],"properties":{"市区町村名":"滝川市","大字名":"本町","丁目名":"２丁目","小字名":null,"地番":"350-2","精度区分":null,"座標系":"任意座標系"}},{"type":"Polygon","arcs":[[415,-414,-412,416,417,418,-217]],"properties":{"市区町村名":"滝川市","大字名":"本町","丁目名":"２丁目","小字名":null,"地番":"350-1","精度区分":null,"座標系":"任意座標系"}},{"type":"Polygon","arcs":[[-417,-411,-403,-409,-406,-274,419]],"properties":{"市区町村名":"滝川市","大字名":"本町","丁目名":"２丁目","小字名":null,"地番":"349","精度区分":null,"座標系":"任意座標系"}},{"type":"Polygon","arcs":[[-419,420,421,-218]],"properties":{"市区町村名":"滝川市","大字名":"本町","丁目名":"２丁目","小字名":null,"地番":"347","精度区分":null,"座標系":"任意座標系"}},{"type":"Polygon","arcs":[[-272,422,423]],"properties":{"市区町村名":"滝川市","大字名":"本町","丁目名":"２丁目","小字名":null,"地番":"346-2","精度区分":null,"座標系":"任意座標系"}},{"type":"Polygon","arcs":[[-418,-420,-273,-424,424,425,-421]],"properties":{"市区町村名":"滝川市","大字名":"本町","丁目名":"２丁目","小字名":null,"地番":"346-1","精度区分":null,"座標系":"任意座標系"}},{"type":"Polygon","arcs":[[426,-425,-423,-271,427,-2]],"properties":{"市区町村名":"滝川市","大字名":"本町","丁目名":"２丁目","小字名":null,"地番":"344","精度区分":null,"座標系":"任意座標系"}},{"type":"Polygon","arcs":[[-428,-270,428,429,-3]],"properties":{"市区町村名":"滝川市","大字名":"本町","丁目名":"２丁目","小字名":null,"地番":"343","精度区分":null,"座標系":"任意座標系"}},{"type":"Polygon","arcs":[[-220,-4,-430,430,431]],"properties":{"市区町村名":"滝川市","大字名":"本町","丁目名":"２丁目","小字名":null,"地番":"342-3","精度区分":null,"座標系":"任意座標系"}},{"type":"Polygon","arcs":[[-221,-432,432,433,434]],"properties":{"市区町村名":"滝川市","大字名":"本町","丁目名":"２丁目","小字名":null,"地番":"341","精度区分":null,"座標系":"任意座標系"}},{"type":"Polygon","arcs":[[-431,-429,-269,435,436,-433]],"properties":{"市区町村名":"滝川市","大字名":"本町","丁目名":"２丁目","小字名":null,"地番":"340","精度区分":null,"座標系":"任意座標系"}},{"type":"Polygon","arcs":[[-437,437,-267,438,439]],"properties":{"市区町村名":"滝川市","大字名":"本町","丁目名":"２丁目","小字名":null,"地番":"339-2","精度区分":null,"座標系":"任意座標系"}},{"type":"Polygon","arcs":[[-438,-436,-268]],"properties":{"市区町村名":"滝川市","大字名":"本町","丁目名":"２丁目","小字名":null,"地番":"339-1","精度区分":null,"座標系":"任意座標系"}},{"type":"Polygon","arcs":[[-439,-266,440]],"properties":{"市区町村名":"滝川市","大字名":"本町","丁目名":"２丁目","小字名":null,"地番":"338-4","精度区分":null,"座標系":"任意座標系"}},{"type":"Polygon","arcs":[[-435,441,442,-222]],"properties":{"市区町村名":"滝川市","大字名":"本町","丁目名":"２丁目","小字名":null,"地番":"338-3","精度区分":null,"座標系":"任意座標系"}},{"type":"Polygon","arcs":[[-442,-434,-440,-441,-265,443]],"properties":{"市区町村名":"滝川市","大字名":"本町","丁目名":"２丁目","小字名":null,"地番":"338-2","精度区分":null,"座標系":"任意座標系"}},{"type":"Polygon","arcs":[[-223,-443,-444,-264]],"properties":{"市区町村名":"滝川市","大字名":"本町","丁目名":"２丁目","小字名":null,"地番":"338-1","精度区分":null,"座標系":"任意座標系"}},{"type":"Polygon","arcs":[[444,-227,445]],"properties":{"市区町村名":"滝川市","大字名":"本町","丁目名":"２丁目","小字名":null,"地番":"226","精度区分":null,"座標系":"任意座標系"}},{"type":"Polygon","arcs":[[-228,-445,446,447]],"properties":{"市区町村名":"滝川市","大字名":"本町","丁目名":"２丁目","小字名":null,"地番":"225","精度区分":null,"座標系":"任意座標系"}},{"type":"Polygon","arcs":[[448,449,450,451,452]],"properties":{"市区町村名":"滝川市","大字名":"本町","丁目名":"２丁目","小字名":null,"地番":"224-2","精度区分":null,"座標系":"任意座標系"}},{"type":"Polygon","arcs":[[453,-451,-447,-446,-226]],"properties":{"市区町村名":"滝川市","大字名":"本町","丁目名":"２丁目","小字名":null,"地番":"224-1","精度区分":null,"座標系":"任意座標系"}},{"type":"Polygon","arcs":[[454,-453,455,456]],"properties":{"市区町村名":"滝川市","大字名":"本町","丁目名":"２丁目","小字名":null,"地番":"223-3","精度区分":null,"座標系":"任意座標系"}},{"type":"Polygon","arcs":[[457,458,-457]],"properties":{"市区町村名":"滝川市","大字名":"本町","丁目名":"２丁目","小字名":null,"地番":"223-2","精度区分":null,"座標系":"任意座標系"}},{"type":"Polygon","arcs":[[-459,459,460,461,-449,-455]],"properties":{"市区町村名":"滝川市","大字名":"本町","丁目名":"２丁目","小字名":null,"地番":"223-1","精度区分":null,"座標系":"任意座標系"}},{"type":"Polygon","arcs":[[-229,-448,-450,-462,462]],"properties":{"市区町村名":"滝川市","大字名":"本町","丁目名":"２丁目","小字名":null,"地番":"222","精度区分":null,"座標系":"任意座標系"}},{"type":"Polygon","arcs":[[-230,-463,-461,463,464]],"properties":{"市区町村名":"滝川市","大字名":"本町","丁目名":"２丁目","小字名":null,"地番":"221","精度区分":null,"座標系":"任意座標系"}},{"type":"Polygon","arcs":[[-231,-465,465,466]],"properties":{"市区町村名":"滝川市","大字名":"本町","丁目名":"２丁目","小字名":null,"地番":"220","精度区分":null,"座標系":"任意座標系"}},{"type":"Polygon","arcs":[[467,-232,-467]],"properties":{"市区町村名":"滝川市","大字名":"本町","丁目名":"２丁目","小字名":null,"地番":"215","精度区分":null,"座標系":"任意座標系"}},{"type":"Polygon","arcs":[[468,469,470,-352]],"properties":{"市区町村名":"滝川市","大字名":"本町","丁目名":"２丁目","小字名":null,"地番":"527","精度区分":null,"座標系":"任意座標系"}},{"type":"Polygon","arcs":[[471,-339,472,-470]],"properties":{"市区町村名":"滝川市","大字名":"本町","丁目名":"２丁目","小字名":null,"地番":"528","精度区分":null,"座標系":"任意座標系"}},{"type":"Polygon","arcs":[[-338,-344,-346,-349,-353,-471,-473]],"properties":{"市区町村名":"滝川市","大字名":"本町","丁目名":"２丁目","小字名":null,"地番":"529","精度区分":null,"座標系":"任意座標系"}},{"type":"Polygon","arcs":[[-219,-422,-426,-427,-1]],"properties":{"市区町村名":"滝川市","大字名":"本町","丁目名":"２丁目","小字名":null,"地番":"342-2","精度区分":null,"座標系":"任意座標系"}},{"type":"Polygon","arcs":[[-142,-135,-138,-45,-140]],"properties":{"市区町村名":"滝川市","大字名":"本町","丁目名":"３丁目","小字名":null,"地番":"235-1","精度区分":null,"座標系":"任意座標系"}}]}},"arcs":[[[489509,194451],[-62161,33441]],[[427348,227892],[452,1994]],[[427800,229886],[9953,43671]],[[437753,273557],[62017,-34231]],[[499770,239326],[-10261,-44875]],[[556113,487062],[3211,14221]],[[559324,501283],[29964,131796]],[[589288,633079],[11357,49710]],[[600645,682789],[16260,71351]],[[616905,754140],[3975,17535]],[[620880,771675],[8144,35530]],[[629024,807205],[1633,7214]],[[630657,814419],[6486,28603]],[[637143,843022],[17757,78370]],[[654900,921392],[44607,-28266]],[[699507,893126],[-11852,-8406],[-7574,-33321]],[[680081,851399],[-7263,-31959]],[[672818,819440],[-7291,-32079]],[[665527,787361],[-8098,-35975]],[[657429,751386],[-8002,-35185]],[[649427,716201],[-16182,-71115]],[[633245,645086],[-16209,-71239]],[[617036,573847],[-8034,-35302]],[[609002,538545],[-13071,-57584],[5866,-18793]],[[601797,462168],[-45684,24894]],[[386650,580359],[12367,9311],[16629,72967]],[[415646,662637],[4342,19155]],[[419988,681792],[8061,35572]],[[428049,717364],[48558,213049],[36567,-19720],[-6445,-28440],[-1618,-7131]],[[505111,875122],[-8143,-35527]],[[496968,839595],[-8063,-35576]],[[488905,804019],[-4511,-19897]],[[484394,784122],[-11723,-51325]],[[472671,732797],[-16206,-71102]],[[456465,661695],[-8090,-35697]],[[448375,625998],[-12966,-57214],[5710,-18498]],[[441119,550286],[-54469,30073]],[[547063,492054],[12261,9229]],[[556113,487062],[-9050,4992]],[[762205,374217],[-54838,30035]],[[707367,404252],[11803,8988],[13178,57654]],[[732348,470894],[8116,35684]],[[740464,506578],[16103,71160]],[[756567,577738],[8178,35929]],[[764745,613667],[10835,47891]],[[775580,661558],[2802,12173]],[[778382,673731],[12183,53729]],[[790565,727460],[3147,14075]],[[793712,741535],[6601,28682]],[[800313,770217],[9579,42433],[-5270,18610],[-30512,16663]],[[774110,847923],[-22888,12567]],[[751222,860490],[-51715,32636]],[[654900,921392],[17816,78607],[93879,-58983],[233404,-128757],[-20401,-92578]],[[979598,719681],[-5403,18822],[-23075,12535]],[[951120,751038],[-21692,11903]],[[929428,762941],[-12820,6977],[-11493,6333]],[[905115,776251],[-20503,11293]],[[884612,787544],[-25315,13780],[-12530,-9012],[-10063,-44539]],[[836704,747773],[-2743,-11924]],[[833961,735849],[-16156,-70985]],[[817805,664864],[-12204,-53439]],[[805601,611425],[-12178,-53319]],[[793423,558106],[-16265,-71484]],[[777158,486622],[-21099,-92881],[6146,-19524]],[[358097,715644],[4224,18237]],[[362321,733881],[3949,17414]],[[366270,751295],[61779,-33931]],[[419988,681792],[-61891,33852]],[[353809,696324],[4288,19320]],[[415646,662637],[-61837,33687]],[[300433,767737],[3976,17535],[61861,-33977]],[[362321,733881],[-61888,33856]],[[296346,749704],[4087,18033]],[[358097,715644],[-61751,34060]],[[350173,680276],[-61893,33852]],[[288280,714128],[8066,35576]],[[353809,696324],[-3636,-16048]],[[342024,644330],[-61912,34143]],[[280112,678473],[8168,35655]],[[350173,680276],[-8149,-35946]],[[285505,635962],[-4136,2404]],[[281369,638366],[-5991,19213],[4734,20894]],[[342024,644330],[-7977,-35202]],[[334047,609128],[-48542,26834]],[[386650,580359],[-52603,28769]],[[448375,625998],[61810,-33807]],[[510185,592191],[-16097,-71023]],[[494088,521168],[-52969,29118]],[[456465,661695],[61784,-33936]],[[518249,627759],[-8064,-35568]],[[472671,732797],[61811,-33811]],[[534482,698986],[-7355,-32046]],[[527127,666940],[-8878,-39181]],[[527127,666940],[62161,-33861]],[[547063,492054],[-52975,29114]],[[534482,698986],[4058,17913]],[[538540,716899],[62105,-34110]],[[546178,750186],[-61784,33936]],[[488905,804019],[61805,-34226]],[[550710,769793],[-4532,-19607]],[[546178,750186],[-7638,-33287]],[[550710,769793],[4088,18037]],[[554798,787830],[62107,-33690]],[[496968,839595],[61891,-33856]],[[558859,805739],[-4061,-17909]],[[558859,805739],[62021,-34064]],[[558859,805739],[8111,35406]],[[566970,841145],[62054,-33940]],[[505111,875122],[55058,-30256]],[[560169,844866],[6801,-3721]],[[607438,859273],[29705,-16251]],[[630657,814419],[-29865,16334],[6646,28520]],[[560169,844866],[1646,7110],[6601,28499],[39022,-21202]],[[751222,860490],[-6437,-28358]],[[744785,832132],[-3203,-14320]],[[741582,817812],[-61501,33587]],[[761189,791377],[-22914,12443]],[[738275,803820],[3307,13992]],[[744785,832132],[22890,-12563]],[[767675,819569],[-6486,-28192]],[[774110,847923],[-6435,-28354]],[[731888,775300],[2433,10558]],[[734321,785858],[3954,17962]],[[761189,791377],[39124,-21160]],[[793712,741535],[-61824,33765]],[[672818,819440],[61503,-33582]],[[731888,775300],[-4997,-21733]],[[726891,753567],[-61364,33794]],[[751786,715241],[6695,29891],[32084,-17672]],[[778382,673731],[-31972,17750],[5376,23760]],[[721969,731796],[4922,21771]],[[751786,715241],[-29817,16555]],[[657429,751386],[61479,-33291]],[[718908,718095],[-5229,-22726]],[[713679,695369],[-2775,-12460]],[[710904,682909],[-61477,33292]],[[721969,731796],[-3061,-13701]],[[775580,661558],[-61901,33811]],[[694665,611545],[8128,36100]],[[702793,647645],[61952,-33978]],[[756567,577738],[-61902,33807]],[[710904,682909],[-8111,-35264]],[[694665,611545],[-61420,33541]],[[694665,611545],[-16129,-71281]],[[678536,540264],[-61500,33583]],[[740464,506578],[-61928,33686]],[[670473,504830],[8063,35434]],[[732348,470894],[-61875,33936]],[[670473,504830],[-61471,33715]],[[670473,504830],[-16239,-71360]],[[654234,433470],[-52437,28698]],[[707367,404252],[-53133,29218]],[[777158,486622],[41326,-22942]],[[818484,463680],[-24280,-107089]],[[794204,356591],[-31999,17626]],[[818484,463680],[20380,-11317]],[[838864,452363],[20703,-11492]],[[859567,440871],[-2828,-12293]],[[856739,428578],[-2971,-12917]],[[853768,415661],[-9926,-43920]],[[843842,371741],[-8577,-37669]],[[835265,334072],[-41061,22519]],[[843842,371741],[50331,-27668]],[[894173,344073],[-5406,-23885],[-11878,-8946]],[[876889,311242],[-41624,22830]],[[853768,415661],[50326,-28084]],[[904094,387577],[-9921,-43504]],[[859567,440871],[50355,-27963]],[[909922,412908],[-2885,-12539]],[[907037,400369],[-50298,28209]],[[907037,400369],[-2943,-12792]],[[920183,457903],[-10261,-44995]],[[838864,452363],[10234,44870]],[[849098,497233],[71085,-39330]],[[793423,558106],[61682,-34379]],[[855105,523727],[-6007,-26494]],[[934627,521862],[-14444,-63959]],[[855105,523727],[8625,37498]],[[863730,561225],[70897,-39363]],[[805601,611425],[61620,-34633]],[[867221,576792],[-3491,-15567]],[[940375,547233],[-5748,-25371]],[[867221,576792],[2118,9186]],[[869339,585978],[71036,-38745]],[[869339,585978],[5659,25002]],[[874998,610980],[71013,-38865]],[[946011,572115],[-5636,-24882]],[[817805,664864],[34156,-19246]],[[851961,645618],[27467,-15392]],[[879428,630226],[-4430,-19246]],[[952529,600838],[-6518,-28723]],[[879428,630226],[2281,9935]],[[881709,640161],[70820,-39323]],[[953585,605436],[-1056,-4598]],[[881709,640161],[1088,4722]],[[882797,644883],[70788,-39447]],[[959648,632174],[-6063,-26738]],[[882797,644883],[6002,26489]],[[888799,671372],[70849,-39198]],[[888799,671372],[6919,30463]],[[895718,701835],[4088,17755],[4716,-2613],[12709,-7056]],[[917231,709921],[21770,-11948]],[[939001,697973],[31761,-17498]],[[970762,680475],[-11114,-48301]],[[851961,645618],[16399,71276]],[[868360,716894],[20249,-11147]],[[888609,705747],[7109,-3912]],[[833961,735849],[34399,-18955]],[[836704,747773],[34370,-19084]],[[871074,728689],[-2714,-11795]],[[884612,787544],[-13538,-58855]],[[905115,776251],[-16506,-70504]],[[929428,762941],[-12197,-53020]],[[951120,751038],[-12119,-53065]],[[979598,719681],[-8836,-39206]],[[493864,33798],[-36397,20069]],[[457467,53867],[12256,53688]],[[469723,107555],[8119,35816]],[[477842,143371],[11667,51080]],[[499770,239326],[10450,45706]],[[510220,285032],[12036,53115]],[[522256,338147],[6676,29059]],[[528932,367206],[6368,27694]],[[535300,394900],[20813,92162]],[[876889,311242],[-17913,-77851],[-123717,67988],[-3312,-14404],[-36744,20127]],[[695203,307102],[-5537,19034],[-53103,29346]],[[636563,355482],[-52117,28935],[-12335,-8551],[-13202,-57788]],[[558909,318078],[-11461,-50207]],[[547448,267871],[-11429,-49668]],[[536019,218203],[-13632,-59652]],[[522387,158551],[-8346,-36668]],[[514041,121883],[-20177,-88085]],[[326927,45303],[-54918,30459]],[[272009,75762],[11852,8618],[13019,57048]],[[296880,141428],[16292,71472]],[[313172,212900],[16204,71098]],[[329376,283998],[4903,21642]],[[334279,305640],[11194,49381]],[[345473,355021],[16204,71098]],[[361677,426119],[13164,57671],[-5627,18452],[-105789,58145],[-12157,-9565],[-12907,-56550]],[[238361,494272],[-8093,-35696]],[[230268,458576],[-8143,-35530]],[[222125,423046],[-16231,-71223]],[[205894,351823],[-7977,-35198]],[[197917,316625],[-8173,-35655]],[[189744,280970],[-8200,-35775]],[[181544,245195],[-11918,-52197]],[[169626,192998],[-9301,-40627],[6106,-18718]],[[166431,133653],[-54597,30281]],[[111834,163934],[11824,8493],[9606,41997]],[[133264,214424],[15530,68116]],[[148794,282540],[679,2986]],[[149473,285526],[7778,34330]],[[157251,319856],[7614,33578]],[[164865,353434],[8338,36399]],[[173203,389833],[12146,53189]],[[185349,443022],[8122,35634]],[[193471,478656],[8111,35593]],[[201582,514249],[13020,57044],[-5863,19005],[-12539,7002]],[[196200,597300],[113,498]],[[196313,597798],[33388,14308]],[[229701,612106],[11571,4992]],[[241272,617098],[44233,18864]],[[535300,394900],[-5644,19162],[-25780,14100]],[[503876,428162],[-1043,569]],[[502833,428731],[-26395,14578]],[[476438,443309],[-22227,12301]],[[454211,455610],[-30555,16854],[-12397,-9436],[-13073,-57297]],[[398186,405731],[-16209,-71098]],[[381977,334633],[-16124,-71144]],[[365853,263489],[-8036,-35447]],[[357817,228042],[-14370,-63016]],[[343447,165026],[-1890,-8335]],[[341557,156691],[-8120,-35821]],[[333437,120870],[-12766,-55927],[6256,-19640]],[[58642,192890],[-52386,28939],[-6256,19636],[9945,43488]],[[9945,284953],[62081,-33815]],[[72026,251138],[-620,-2737]],[[71406,248401],[-12764,-55511]],[[89708,175899],[-31066,16991]],[[71406,248401],[30795,-16987]],[[102201,231414],[-12493,-55515]],[[111834,163934],[-22126,11965]],[[102201,231414],[31063,-16990]],[[72026,251138],[14878,65254]],[[86904,316392],[61890,-33852]],[[9945,284953],[16234,71227]],[[26179,356180],[62080,-33816]],[[88259,322364],[-706,-3114]],[[87553,319250],[-649,-2858]],[[26179,356180],[16685,73216]],[[42864,429396],[62048,-33944]],[[104912,395452],[-1802,-7962]],[[103110,387490],[-7860,-34280]],[[95250,353210],[-6991,-30846]],[[120648,301291],[7587,33874]],[[128235,335165],[115,498]],[[128350,335663],[28901,-15807]],[[149473,285526],[-28825,15765]],[[103110,387490],[32798,-18078]],[[135908,369412],[-7558,-33749]],[[128235,335165],[-32985,18045]],[[120648,301291],[-33095,17959]],[[135908,369412],[28957,-15978]],[[104912,395452],[6539,28441]],[[111451,423893],[61752,-34060]],[[42864,429396],[9723,42491]],[[52587,471887],[62022,-34065]],[[114609,437822],[-3158,-13929]],[[52587,471887],[11384,49834]],[[63971,521721],[62021,-34065]],[[125992,487656],[-2368,-10449]],[[123624,477207],[-9015,-39385]],[[123624,477207],[61725,-34185]],[[125992,487656],[5692,24882]],[[131684,512538],[61787,-33882]],[[131684,512538],[4029,17609]],[[135713,530147],[4144,18283]],[[139857,548430],[61725,-34181]],[[63971,521721],[9696,42781]],[[73667,564502],[62046,-34355]],[[73667,564502],[9833,42994]],[[83500,607496],[31972,-17767]],[[115472,589729],[30047,-16717]],[[145519,573012],[-5662,-24582]],[[115472,589729],[10646,46183]],[[126118,635912],[802,-440]],[[126920,635472],[9448,-5167]],[[136368,630305],[19746,-10939]],[[156114,619366],[-10595,-46354]],[[83500,607496],[7216,31423]],[[90716,638919],[12613,9594],[22789,-12601]],[[156114,619366],[40086,-22066]],[[232014,622302],[9258,-5204]],[[229701,612106],[2313,10196]],[[232014,622302],[8849,38637]],[[240863,660939],[40506,-22573]],[[205381,637008],[7523,32798]],[[212904,669806],[1241,5474]],[[214145,675280],[21484,-11617],[5234,-2724]],[[232014,622302],[-26633,14706]],[[196313,597798],[9068,39210]],[[136368,630305],[8903,38886]],[[145271,669191],[44687,-23602],[15423,-8581]],[[126920,635472],[9555,42167],[9528,-5213]],[[146003,672426],[-732,-3235]],[[90716,638919],[8138,35115]],[[98854,674034],[54138,28823]],[[152992,702857],[-6989,-30431]],[[98854,674034],[6879,30343]],[[105733,704377],[37891,1225],[15142,108]],[[158766,705710],[-5478,-2741]],[[153288,702969],[-296,-112]],[[105733,704377],[6170,27240],[46863,-25907]],[[300056,459967],[-61695,34305]],[[361677,426119],[-61621,33848]],[[292049,424640],[-61781,33936]],[[300056,459967],[-8007,-35327]],[[263411,400324],[-13688,7488]],[[249723,407812],[-13905,7745]],[[235818,415557],[-13693,7489]],[[292049,424640],[-8167,-35650]],[[283882,388990],[-20471,11334]],[[318362,369989],[-34480,19001]],[[345473,355021],[-27111,14968]],[[334279,305640],[-27435,14731],[11518,49618]],[[267673,317887],[16209,71103]],[[329376,283998],[-61703,33889]],[[235818,415557],[-16313,-71177]],[[219505,344380],[-13611,7443]],[[249723,407812],[-16316,-71181]],[[233407,336631],[-13902,7749]],[[263411,400324],[-16153,-71269]],[[247258,329055],[-13851,7576]],[[267673,317887],[-20415,11168]],[[197917,316625],[61671,-34019]],[[259588,282606],[-8170,-35646]],[[251418,246960],[-61674,34010]],[[267673,317887],[-8085,-35281]],[[313172,212900],[-61754,34060]],[[265954,158626],[-30849,17148]],[[235105,175774],[8170,35655]],[[243275,211429],[8143,35531]],[[296880,141428],[-30926,17198]],[[227744,219923],[-15054,8235]],[[212690,228158],[-31146,17037]],[[243275,211429],[-15531,8494]],[[200713,175712],[-31087,17286]],[[212690,228158],[-11977,-52446]],[[188370,121650],[-21939,12003]],[[200713,175712],[-12343,-54062]],[[203504,113377],[-15134,8273]],[[227744,219923],[-8063,-35572]],[[219681,184351],[-16177,-70974]],[[218877,104967],[-15373,8410]],[[219681,184351],[15424,-8577]],[[235105,175774],[-16228,-70807]],[[272009,75762],[-22016,12044]],[[249993,87806],[15961,70820]],[[249993,87806],[-31116,17161]],[[361918,26165],[-13771,7534]],[[348147,33699],[16174,70558]],[[364321,104257],[13718,-7364]],[[378039,96893],[-16121,-70728]],[[333202,42013],[-6275,3290]],[[333437,120870],[15881,-8548]],[[349318,112322],[-16116,-70309]],[[348147,33699],[-14945,8314]],[[349318,112322],[15003,-8065]],[[387273,52280],[-8170,-35655],[-17185,9540]],[[378039,96893],[17241,-9290]],[[395280,87603],[-733,-3231]],[[394547,84372],[-7274,-32092]],[[394547,84372],[62212,-33616]],[[456759,50756],[-7325,-31921],[-62161,33445]],[[457467,53867],[-708,-3111]],[[395280,87603],[8143,35530]],[[403423,123133],[4088,18033]],[[407511,141166],[62212,-33611]],[[341557,156691],[61866,-33558]],[[407511,141166],[8117,35406]],[[415628,176572],[62214,-33201]],[[357817,228042],[29785,-16293]],[[387602,211749],[-14293,-63057],[-29862,16334]],[[387602,211749],[32028,-17518]],[[419630,194231],[-4002,-17659]],[[427348,227892],[-7718,-33661]],[[365853,263489],[61947,-33603]],[[381977,334633],[62027,-33649]],[[444004,300984],[-6251,-27427]],[[444004,300984],[4029,17784]],[[448033,318768],[62187,-33736]],[[448033,318768],[12145,53194]],[[460178,371962],[27221,-14894]],[[487399,357068],[34857,-18921]],[[398186,405731],[39789,-21763]],[[437975,383968],[22203,-12006]],[[437975,383968],[16236,71642]],[[476438,443309],[-8507,-37142]],[[467931,406167],[-7753,-34205]],[[502833,428731],[-8619,-37225],[-26283,14661]],[[487399,357068],[6759,29018]],[[494158,386086],[34774,-18880]],[[503876,428162],[-9718,-42076]],[[620354,284243],[-61445,33835]],[[636563,355482],[-16209,-71239]],[[620354,284243],[-11288,-49469]],[[609066,234774],[-61618,33097]],[[635197,196740],[-31021,16807]],[[604176,213547],[4890,21227]],[[609066,234774],[62091,-33354]],[[671157,201420],[-4889,-21650]],[[666268,179770],[-31071,16970]],[[695203,307102],[-24046,-105682]],[[633563,189247],[1634,7493]],[[666268,179770],[-1687,-7322]],[[664581,172448],[-31018,16799]],[[664581,172448],[-6462,-28483],[-30911,16883]],[[627208,160848],[6355,28399]],[[627208,160848],[-31148,17015]],[[596060,177863],[1484,6459]],[[597544,184322],[6632,29225]],[[597544,184322],[-61525,33881]],[[596060,177863],[-12033,-52691]],[[584027,125172],[-61640,33379]],[[584027,125172],[-8435,-37050]],[[575592,88122],[-61551,33761]],[[575592,88122],[-20094,-88122],[-61634,33798]],[[158766,705710],[16402,-9012]],[[175168,696698],[-206,-5786]],[[174962,690912],[-21674,12057]],[[175168,696698],[38977,-21418]],[[212904,669806],[-37942,21106]]],"bbox":[-27902.119,-48871.752,-27528.073,-48630.972],"transform":{"scale":[0.0003740463740463725,0.00024078024078023964],"translate":[-27902.119,-48871.752]}}