{"type":"Topology","objects":{"01208-4603-14.featurecollection":{"type":"GeometryCollection","geometries":[{"type":"Polygon","arcs":[[0,1]],"properties":{"市区町村名":"北見市","大字名":"富里","丁目名":null,"小字名":null,"地番":"238","精度区分":null,"座標系":"任意座標系"}},{"type":"Polygon","arcs":[[2,3]],"properties":{"市区町村名":"北見市","大字名":"富里","丁目名":null,"小字名":null,"地番":"293","精度区分":null,"座標系":"任意座標系"}},{"type":"Polygon","arcs":[[4,-2,5,-3]],"properties":{"市区町村名":"北見市","大字名":"富里","丁目名":null,"小字名":null,"地番":"道-1","精度区分":null,"座標系":"任意座標系"}}]}},"arcs":[[[778627,908252],[221372,-454099],[-439070,-34759]],[[560929,419394],[-8452,82580],[-242957,202604],[469107,203674]],[[53394,592742],[211704,92445],[245927,-202003],[6472,-66678]],[[517497,416506],[-464103,176236]],[[53394,592742],[-53394,20882],[266529,116435],[397720,171562],[223556,98378],[21114,-35217],[-130292,-56530]],[[560929,419394],[32257,-416114],[-43484,-3280],[-32205,416506]]],"bbox":[60.57,347.238,326.181,628.348],"transform":{"scale":[0.00026561126561126564,0.00028111028111028105],"translate":[60.57,347.238]}}