{"type":"Topology","objects":{"01202-4400-115":{"type":"GeometryCollection","geometries":[{"type":"MultiPolygon","arcs":[[[0,1,2,3]]],"properties":{"筆ID":"H000000001","version":"ver1.0","座標系":"任意座標系","測地系判別":null,"地図名":"中島町","地図番号":"6-1","縮尺分母":"500","市区町村コード":"01202","市区町村名":"函館市","大字コード":"043","丁目コード":"000","小字コード":"0000","予備コード":"00","大字名":"中島町","丁目名":null,"小字名":null,"予備名":null,"地番":"無地番-255","精度区分":null,"座標値種別":"図上測量","筆界未定構成筆":null,"代表点緯度":949.2025,"代表点経度":748.638979848}},{"type":"MultiPolygon","arcs":[[[4,5,-1,6]]],"properties":{"筆ID":"H000000002","version":"ver1.0","座標系":"任意座標系","測地系判別":null,"地図名":"中島町","地図番号":"6-2","縮尺分母":"500","市区町村コード":"01202","市区町村名":"函館市","大字コード":"043","丁目コード":"000","小字コード":"0000","予備コード":"00","大字名":"中島町","丁目名":null,"小字名":null,"予備名":null,"地番":"無地番-254","精度区分":null,"座標値種別":"図上測量","筆界未定構成筆":null,"代表点緯度":1006.3185,"代表点経度":775.155054482}},{"type":"MultiPolygon","arcs":[[[7,8,-5,9]]],"properties":{"筆ID":"H000000003","version":"ver1.0","座標系":"任意座標系","測地系判別":null,"地図名":"中島町","地図番号":"6-3","縮尺分母":"500","市区町村コード":"01202","市区町村名":"函館市","大字コード":"043","丁目コード":"000","小字コード":"0000","予備コード":"00","大字名":"中島町","丁目名":null,"小字名":null,"予備名":null,"地番":"無地番-253","精度区分":null,"座標値種別":"図上測量","筆界未定構成筆":null,"代表点緯度":1090.836,"代表点経度":818.007522948}},{"type":"MultiPolygon","arcs":[[[10,11,-8,12]]],"properties":{"筆ID":"H000000004","version":"ver1.0","座標系":"任意座標系","測地系判別":null,"地図名":"中島町","地図番号":"6-4","縮尺分母":"500","市区町村コード":"01202","市区町村名":"函館市","大字コード":"043","丁目コード":"000","小字コード":"0000","予備コード":"00","大字名":"中島町","丁目名":null,"小字名":null,"予備名":null,"地番":"無地番-252","精度区分":null,"座標値種別":"図上測量","筆界未定構成筆":null,"代表点緯度":1184.424,"代表点経度":873.212190332}},{"type":"MultiPolygon","arcs":[[[-3,13,14,15]]],"properties":{"筆ID":"H000000005","version":"ver1.0","座標系":"任意座標系","測地系判別":null,"地図名":"中島町","地図番号":"6-5","縮尺分母":"500","市区町村コード":"01202","市区町村名":"函館市","大字コード":"043","丁目コード":"000","小字コード":"0000","予備コード":"00","大字名":"中島町","丁目名":null,"小字名":null,"予備名":null,"地番":"無地番-256","精度区分":null,"座標値種別":"図上測量","筆界未定構成筆":null,"代表点緯度":820.485,"代表点経度":692.945094846}},{"type":"MultiPolygon","arcs":[[[-15,16]]],"properties":{"筆ID":"H000000006","version":"ver1.0","座標系":"任意座標系","測地系判別":null,"地図名":"中島町","地図番号":"6-5","縮尺分母":"500","市区町村コード":"01202","市区町村名":"函館市","大字コード":"043","丁目コード":"000","小字コード":"0000","予備コード":"00","大字名":"中島町","丁目名":null,"小字名":null,"予備名":null,"地番":"無地番-257","精度区分":null,"座標値種別":"図上測量","筆界未定構成筆":null,"代表点緯度":696.523,"代表点経度":669.179421639}},{"type":"MultiPolygon","arcs":[[[-11,17]]],"properties":{"筆ID":"H000000007","version":"ver1.0","座標系":"任意座標系","測地系判別":null,"地図名":"中島町","地図番号":"6-4","縮尺分母":"500","市区町村コード":"01202","市区町村名":"函館市","大字コード":"043","丁目コード":"000","小字コード":"0000","予備コード":"00","大字名":"中島町","丁目名":null,"小字名":null,"予備名":null,"地番":"無地番-251","精度区分":null,"座標値種別":"図上測量","筆界未定構成筆":null,"代表点緯度":1230.907,"代表点経度":908.181195747}}]}},"arcs":[[[357446,523246],[17299,-6452]],[[374745,516794],[-11578,-11618],[-74356,-78415],[-15517,-16301]],[[273294,410460],[-18792,4436]],[[254502,414896],[102944,108350]],[[462657,617780],[17284,-5407]],[[479941,612373],[-12071,-10783],[-82442,-74076],[-10683,-10720]],[[357446,523246],[105211,94534]],[[709470,822990],[17697,-4964]],[[727167,818026],[-13515,-10051],[-66318,-50050],[-33540,-25421],[-49163,-44145],[-73093,-65630],[-11597,-10356]],[[462657,617780],[132928,119440],[113885,85770]],[[816133,903321],[18732,-6188]],[[834865,897133],[-15259,-9756],[-41099,-30820],[-37821,-28477],[-13519,-10054]],[[709470,822990],[106663,80331]],[[273294,410460],[-15642,-16430],[-89485,-94015],[-20764,-21910],[-68430,-72003],[-22171,-29552],[-5512,-9671],[-11805,-20722],[-8834,-23153],[11775,-4376],[1502,-19468]],[[43928,99160],[-43928,-16318]],[[0,82842],[6824,33477],[12124,31652],[17542,31122],[22849,30399],[80565,84799],[114598,120605]],[[43928,99160],[1797,-23308],[26,-5169],[-8735,-6478],[-13310,-9970],[1376,-48798],[80,-4774],[-21818,-663],[-3344,82842]],[[816133,903321],[176610,96445],[7256,233],[-12067,-22114],[-13398,-3165],[-82938,-45043],[-41638,-22894],[-15093,-9650]]],"bbox":[665.68,679.237,929.454,1258.601],"transform":{"scale":[0.0002637742637742638,0.0005793645793645795],"translate":[665.68,679.237]}}
