{"type":"Topology","objects":{"01202-4400-148":{"type":"GeometryCollection","geometries":[{"type":"MultiPolygon","arcs":[[[0,1,2]]],"properties":{"筆ID":"H000000001","version":"ver1.0","座標系":"任意座標系","測地系判別":null,"地図名":"弥生町","地図番号":"1","縮尺分母":"500","市区町村コード":"01202","市区町村名":"函館市","大字コード":"003","丁目コード":"000","小字コード":"0000","予備コード":"00","大字名":"弥生町","丁目名":null,"小字名":null,"予備名":null,"地番":"9-1","精度区分":null,"座標値種別":null,"筆界未定構成筆":null,"代表点緯度":-17736.3835,"代表点経度":18270.270456418}},{"type":"MultiPolygon","arcs":[[[3,4,-3,5]]],"properties":{"筆ID":"H000000002","version":"ver1.0","座標系":"任意座標系","測地系判別":null,"地図名":"弥生町","地図番号":"1","縮尺分母":"500","市区町村コード":"01202","市区町村名":"函館市","大字コード":"003","丁目コード":"000","小字コード":"0000","予備コード":"00","大字名":"弥生町","丁目名":null,"小字名":null,"予備名":null,"地番":"9-2","精度区分":null,"座標値種別":null,"筆界未定構成筆":null,"代表点緯度":-17727.898,"代表点経度":18276.617666918}},{"type":"MultiPolygon","arcs":[[[6,7,8,-6,-2]]],"properties":{"筆ID":"H000000003","version":"ver1.0","座標系":"任意座標系","測地系判別":null,"地図名":"弥生町","地図番号":"1","縮尺分母":"500","市区町村コード":"01202","市区町村名":"函館市","大字コード":"003","丁目コード":"000","小字コード":"0000","予備コード":"00","大字名":"弥生町","丁目名":null,"小字名":null,"予備名":null,"地番":"9-3","精度区分":null,"座標値種別":null,"筆界未定構成筆":null,"代表点緯度":-17722.3945,"代表点経度":18264.07032208}},{"type":"MultiPolygon","arcs":[[[9,10,-8,11]]],"properties":{"筆ID":"H000000004","version":"ver1.0","座標系":"任意座標系","測地系判別":null,"地図名":"弥生町","地図番号":"1","縮尺分母":"500","市区町村コード":"01202","市区町村名":"函館市","大字コード":"003","丁目コード":"000","小字コード":"0000","予備コード":"00","大字名":"弥生町","丁目名":null,"小字名":null,"予備名":null,"地番":"9-4","精度区分":null,"座標値種別":null,"筆界未定構成筆":null,"代表点緯度":-17720.1745,"代表点経度":18255.519107942}},{"type":"MultiPolygon","arcs":[[[12,13,14]]],"properties":{"筆ID":"H000000005","version":"ver1.0","座標系":"任意座標系","測地系判別":null,"地図名":"弥生町","地図番号":"1","縮尺分母":"500","市区町村コード":"01202","市区町村名":"函館市","大字コード":"003","丁目コード":"000","小字コード":"0000","予備コード":"00","大字名":"弥生町","丁目名":null,"小字名":null,"予備名":null,"地番":"9-11","精度区分":null,"座標値種別":null,"筆界未定構成筆":null,"代表点緯度":-17686.2865,"代表点経度":18249.026796299}},{"type":"MultiPolygon","arcs":[[[-14,15,16,17]]],"properties":{"筆ID":"H000000006","version":"ver1.0","座標系":"任意座標系","測地系判別":null,"地図名":"弥生町","地図番号":"1","縮尺分母":"500","市区町村コード":"01202","市区町村名":"函館市","大字コード":"003","丁目コード":"000","小字コード":"0000","予備コード":"00","大字名":"弥生町","丁目名":null,"小字名":null,"予備名":null,"地番":"9-12","精度区分":null,"座標値種別":null,"筆界未定構成筆":null,"代表点緯度":-17692.349,"代表点経度":18257.164158441}},{"type":"MultiPolygon","arcs":[[[-17,18,19,20]]],"properties":{"筆ID":"H000000007","version":"ver1.0","座標系":"任意座標系","測地系判別":null,"地図名":"弥生町","地図番号":"1","縮尺分母":"500","市区町村コード":"01202","市区町村名":"函館市","大字コード":"003","丁目コード":"000","小字コード":"0000","予備コード":"00","大字名":"弥生町","丁目名":null,"小字名":null,"予備名":null,"地番":"9-13","精度区分":null,"座標値種別":null,"筆界未定構成筆":null,"代表点緯度":-17698.8915,"代表点経度":18265.976168949}},{"type":"MultiPolygon","arcs":[[[-20,21,22,23]]],"properties":{"筆ID":"H000000008","version":"ver1.0","座標系":"任意座標系","測地系判別":null,"地図名":"弥生町","地図番号":"1","縮尺分母":"500","市区町村コード":"01202","市区町村名":"函館市","大字コード":"003","丁目コード":"000","小字コード":"0000","予備コード":"00","大字名":"弥生町","丁目名":null,"小字名":null,"予備名":null,"地番":"9-14","精度区分":null,"座標値種別":null,"筆界未定構成筆":null,"代表点緯度":-17704.851,"代表点経度":18274.006979744}},{"type":"MultiPolygon","arcs":[[[24,25,-23]]],"properties":{"筆ID":"H000000009","version":"ver1.0","座標系":"任意座標系","測地系判別":null,"地図名":"弥生町","地図番号":"1","縮尺分母":"500","市区町村コード":"01202","市区町村名":"函館市","大字コード":"003","丁目コード":"000","小字コード":"0000","予備コード":"00","大字名":"弥生町","丁目名":null,"小字名":null,"予備名":null,"地番":"9-15","精度区分":null,"座標値種別":null,"筆界未定構成筆":null,"代表点緯度":-17713.759,"代表点経度":18285.966778031}},{"type":"MultiPolygon","arcs":[[[26,27,28,29,30]]],"properties":{"筆ID":"H000000010","version":"ver1.0","座標系":"任意座標系","測地系判別":null,"地図名":"弥生町","地図番号":"1","縮尺分母":"500","市区町村コード":"01202","市区町村名":"函館市","大字コード":"003","丁目コード":"000","小字コード":"0000","予備コード":"00","大字名":"弥生町","丁目名":null,"小字名":null,"予備名":null,"地番":"10-1","精度区分":null,"座標値種別":null,"筆界未定構成筆":null,"代表点緯度":-17684.028,"代表点経度":18303.807601079}},{"type":"MultiPolygon","arcs":[[[31,32,33,34,-27,35]]],"properties":{"筆ID":"H000000011","version":"ver1.0","座標系":"任意座標系","測地系判別":null,"地図名":"弥生町","地図番号":"1","縮尺分母":"500","市区町村コード":"01202","市区町村名":"函館市","大字コード":"003","丁目コード":"000","小字コード":"0000","予備コード":"00","大字名":"弥生町","丁目名":null,"小字名":null,"予備名":null,"地番":"10-2","精度区分":null,"座標値種別":null,"筆界未定構成筆":null,"代表点緯度":-17676.3975,"代表点経度":18287.468078305}},{"type":"MultiPolygon","arcs":[[[36,-33,37]]],"properties":{"筆ID":"H000000012","version":"ver1.0","座標系":"任意座標系","測地系判別":null,"地図名":"弥生町","地図番号":"1","縮尺分母":"500","市区町村コード":"01202","市区町村名":"函館市","大字コード":"003","丁目コード":"000","小字コード":"0000","予備コード":"00","大字名":"弥生町","丁目名":null,"小字名":null,"予備名":null,"地番":"10-3","精度区分":null,"座標値種別":null,"筆界未定構成筆":null,"代表点緯度":-17668.867,"代表点経度":18268.550045082}},{"type":"MultiPolygon","arcs":[[[38,-34,-37,39]]],"properties":{"筆ID":"H000000013","version":"ver1.0","座標系":"任意座標系","測地系判別":null,"地図名":"弥生町","地図番号":"1","縮尺分母":"500","市区町村コード":"01202","市区町村名":"函館市","大字コード":"003","丁目コード":"000","小字コード":"0000","予備コード":"00","大字名":"弥生町","丁目名":null,"小字名":null,"予備名":null,"地番":"10-4","精度区分":null,"座標値種別":null,"筆界未定構成筆":null,"代表点緯度":-17660.8365,"代表点経度":18274.56356784}},{"type":"MultiPolygon","arcs":[[[40,41,42,43]]],"properties":{"筆ID":"H000000014","version":"ver1.0","座標系":"任意座標系","測地系判別":null,"地図名":"弥生町","地図番号":"1","縮尺分母":"500","市区町村コード":"01202","市区町村名":"函館市","大字コード":"003","丁目コード":"000","小字コード":"0000","予備コード":"00","大字名":"弥生町","丁目名":null,"小字名":null,"予備名":null,"地番":"10-5","精度区分":null,"座標値種別":null,"筆界未定構成筆":null,"代表点緯度":-17645.008,"代表点経度":18279.750238643}},{"type":"MultiPolygon","arcs":[[[-43,44,45]]],"properties":{"筆ID":"H000000015","version":"ver1.0","座標系":"任意座標系","測地系判別":null,"地図名":"弥生町","地図番号":"1","縮尺分母":"500","市区町村コード":"01202","市区町村名":"函館市","大字コード":"003","丁目コード":"000","小字コード":"0000","予備コード":"00","大字名":"弥生町","丁目名":null,"小字名":null,"予備名":null,"地番":"10-6","精度区分":null,"座標値種別":null,"筆界未定構成筆":null,"代表点緯度":-17646.633,"代表点経度":18287.215602964}},{"type":"MultiPolygon","arcs":[[[46,47,-44,-46,48]]],"properties":{"筆ID":"H000000016","version":"ver1.0","座標系":"任意座標系","測地系判別":null,"地図名":"弥生町","地図番号":"1","縮尺分母":"500","市区町村コード":"01202","市区町村名":"函館市","大字コード":"003","丁目コード":"000","小字コード":"0000","予備コード":"00","大字名":"弥生町","丁目名":null,"小字名":null,"予備名":null,"地番":"10-7","精度区分":null,"座標値種別":null,"筆界未定構成筆":null,"代表点緯度":-17651.0655,"代表点経度":18291.276020206}},{"type":"MultiPolygon","arcs":[[[-47,49,50,51]]],"properties":{"筆ID":"H000000017","version":"ver1.0","座標系":"任意座標系","測地系判別":null,"地図名":"弥生町","地図番号":"1","縮尺分母":"500","市区町村コード":"01202","市区町村名":"函館市","大字コード":"003","丁目コード":"000","小字コード":"0000","予備コード":"00","大字名":"弥生町","丁目名":null,"小字名":null,"予備名":null,"地番":"10-8","精度区分":null,"座標値種別":null,"筆界未定構成筆":null,"代表点緯度":-17658.588,"代表点経度":18298.063352341}},{"type":"MultiPolygon","arcs":[[[-51,52,53,54]]],"properties":{"筆ID":"H000000018","version":"ver1.0","座標系":"任意座標系","測地系判別":null,"地図名":"弥生町","地図番号":"1","縮尺分母":"500","市区町村コード":"01202","市区町村名":"函館市","大字コード":"003","丁目コード":"000","小字コード":"0000","予備コード":"00","大字名":"弥生町","丁目名":null,"小字名":null,"予備名":null,"地番":"10-9","精度区分":null,"座標値種別":null,"筆界未定構成筆":null,"代表点緯度":-17665.2875,"代表点経度":18307.12918755}},{"type":"MultiPolygon","arcs":[[[-54,55,56,57]]],"properties":{"筆ID":"H000000019","version":"ver1.0","座標系":"任意座標系","測地系判別":null,"地図名":"弥生町","地図番号":"1","縮尺分母":"500","市区町村コード":"01202","市区町村名":"函館市","大字コード":"003","丁目コード":"000","小字コード":"0000","予備コード":"00","大字名":"弥生町","丁目名":null,"小字名":null,"予備名":null,"地番":"10-10","精度区分":null,"座標値種別":null,"筆界未定構成筆":null,"代表点緯度":-17670.695,"代表点経度":18314.437920825}},{"type":"MultiPolygon","arcs":[[[58,59,-57]]],"properties":{"筆ID":"H000000020","version":"ver1.0","座標系":"任意座標系","測地系判別":null,"地図名":"弥生町","地図番号":"1","縮尺分母":"500","市区町村コード":"01202","市区町村名":"函館市","大字コード":"003","丁目コード":"000","小字コード":"0000","予備コード":"00","大字名":"弥生町","丁目名":null,"小字名":null,"予備名":null,"地番":"10-11","精度区分":null,"座標値種別":null,"筆界未定構成筆":null,"代表点緯度":-17676.1035,"代表点経度":18321.724476244}},{"type":"MultiPolygon","arcs":[[[-41,-48,-52,-55,-58,-60,60,61,-28,-35,-39,62]]],"properties":{"筆ID":"H000000021","version":"ver1.0","座標系":"任意座標系","測地系判別":null,"地図名":"弥生町","地図番号":"1","縮尺分母":"500","市区町村コード":"01202","市区町村名":"函館市","大字コード":"003","丁目コード":"000","小字コード":"0000","予備コード":"00","大字名":"弥生町","丁目名":null,"小字名":null,"予備名":null,"地番":"10-12","精度区分":null,"座標値種別":null,"筆界未定構成筆":null,"代表点緯度":-17665.9555,"代表点経度":18291.904936039}},{"type":"MultiPolygon","arcs":[[[63,-29,-62,64,65]]],"properties":{"筆ID":"H000000022","version":"ver1.0","座標系":"任意座標系","測地系判別":null,"地図名":"弥生町","地図番号":"1","縮尺分母":"500","市区町村コード":"01202","市区町村名":"函館市","大字コード":"003","丁目コード":"000","小字コード":"0000","予備コード":"00","大字名":"弥生町","丁目名":null,"小字名":null,"予備名":null,"地番":"10-13","精度区分":null,"座標値種別":null,"筆界未定構成筆":null,"代表点緯度":-17691.751,"代表点経度":18312.803890244}},{"type":"MultiPolygon","arcs":[[[-36,-31,66]]],"properties":{"筆ID":"H000000023","version":"ver1.0","座標系":"任意座標系","測地系判別":null,"地図名":"弥生町","地図番号":"1","縮尺分母":"500","市区町村コード":"01202","市区町村名":"函館市","大字コード":"003","丁目コード":"000","小字コード":"0000","予備コード":"00","大字名":"弥生町","丁目名":null,"小字名":null,"予備名":null,"地番":"10-14","精度区分":null,"座標値種別":null,"筆界未定構成筆":null,"代表点緯度":-17688.596,"代表点経度":18296.356154081}},{"type":"MultiPolygon","arcs":[[[67,-66]]],"properties":{"筆ID":"H000000024","version":"ver1.0","座標系":"任意座標系","測地系判別":null,"地図名":"弥生町","地図番号":"1","縮尺分母":"500","市区町村コード":"01202","市区町村名":"函館市","大字コード":"003","丁目コード":"000","小字コード":"0000","予備コード":"00","大字名":"弥生町","丁目名":null,"小字名":null,"予備名":null,"地番":"10-15","精度区分":null,"座標値種別":null,"筆界未定構成筆":null,"代表点緯度":-17696.2795,"代表点経度":18306.631956712}},{"type":"MultiPolygon","arcs":[[[68,69,70]]],"properties":{"筆ID":"H000000025","version":"ver1.0","座標系":"任意座標系","測地系判別":null,"地図名":"弥生町","地図番号":"1","縮尺分母":"500","市区町村コード":"01202","市区町村名":"函館市","大字コード":"003","丁目コード":"000","小字コード":"0000","予備コード":"00","大字名":"弥生町","丁目名":null,"小字名":null,"予備名":null,"地番":"14-1","精度区分":null,"座標値種別":null,"筆界未定構成筆":null,"代表点緯度":-17611.35,"代表点経度":18274.046767743}},{"type":"MultiPolygon","arcs":[[[71,72,73,74,75]]],"properties":{"筆ID":"H000000026","version":"ver1.0","座標系":"任意座標系","測地系判別":null,"地図名":"弥生町","地図番号":"1","縮尺分母":"500","市区町村コード":"01202","市区町村名":"函館市","大字コード":"003","丁目コード":"000","小字コード":"0000","予備コード":"00","大字名":"弥生町","丁目名":null,"小字名":null,"予備名":null,"地番":"14-2","精度区分":null,"座標値種別":null,"筆界未定構成筆":null,"代表点緯度":-17604.7495,"代表点経度":18278.979711341}},{"type":"MultiPolygon","arcs":[[[-70,76,77,78,79,-76,80]]],"properties":{"筆ID":"H000000027","version":"ver1.0","座標系":"任意座標系","測地系判別":null,"地図名":"弥生町","地図番号":"1","縮尺分母":"500","市区町村コード":"01202","市区町村名":"函館市","大字コード":"003","丁目コード":"000","小字コード":"0000","予備コード":"00","大字名":"弥生町","丁目名":null,"小字名":null,"予備名":null,"地番":"14-3","精度区分":null,"座標値種別":null,"筆界未定構成筆":null,"代表点緯度":-17601.0975,"代表点経度":18266.590864411}},{"type":"MultiPolygon","arcs":[[[81,82,83]]],"properties":{"筆ID":"H000000028","version":"ver1.0","座標系":"任意座標系","測地系判別":null,"地図名":"弥生町","地図番号":"1","縮尺分母":"500","市区町村コード":"01202","市区町村名":"函館市","大字コード":"003","丁目コード":"000","小字コード":"0000","予備コード":"00","大字名":"弥生町","丁目名":null,"小字名":null,"予備名":null,"地番":"14-6","精度区分":null,"座標値種別":null,"筆界未定構成筆":null,"代表点緯度":-17573.5425,"代表点経度":18230.541398}},{"type":"MultiPolygon","arcs":[[[84,85,-82]]],"properties":{"筆ID":"H000000029","version":"ver1.0","座標系":"任意座標系","測地系判別":null,"地図名":"弥生町","地図番号":"1","縮尺分母":"500","市区町村コード":"01202","市区町村名":"函館市","大字コード":"003","丁目コード":"000","小字コード":"0000","予備コード":"00","大字名":"弥生町","丁目名":null,"小字名":null,"予備名":null,"地番":"14-7","精度区分":null,"座標値種別":null,"筆界未定構成筆":null,"代表点緯度":-17562.896,"代表点経度":18238.538501173}},{"type":"MultiPolygon","arcs":[[[86,87]]],"properties":{"筆ID":"H000000030","version":"ver1.0","座標系":"任意座標系","測地系判別":null,"地図名":"弥生町","地図番号":"1","縮尺分母":"500","市区町村コード":"01202","市区町村名":"函館市","大字コード":"003","丁目コード":"000","小字コード":"0000","予備コード":"00","大字名":"弥生町","丁目名":null,"小字名":null,"予備名":null,"地番":"14-12","精度区分":null,"座標値種別":null,"筆界未定構成筆":null,"代表点緯度":-17559.4635,"代表点経度":18267.903124764}},{"type":"MultiPolygon","arcs":[[[88,89,90,91]]],"properties":{"筆ID":"H000000031","version":"ver1.0","座標系":"任意座標系","測地系判別":null,"地図名":"弥生町","地図番号":"1","縮尺分母":"500","市区町村コード":"01202","市区町村名":"函館市","大字コード":"003","丁目コード":"000","小字コード":"0000","予備コード":"00","大字名":"弥生町","丁目名":null,"小字名":null,"予備名":null,"地番":"14-13","精度区分":null,"座標値種別":null,"筆界未定構成筆":null,"代表点緯度":-17571.1485,"代表点経度":18274.517391884}},{"type":"MultiPolygon","arcs":[[[92,-91,93,94,95,96]]],"properties":{"筆ID":"H000000032","version":"ver1.0","座標系":"任意座標系","測地系判別":null,"地図名":"弥生町","地図番号":"1","縮尺分母":"500","市区町村コード":"01202","市区町村名":"函館市","大字コード":"003","丁目コード":"000","小字コード":"0000","予備コード":"00","大字名":"弥生町","丁目名":null,"小字名":null,"予備名":null,"地番":"14-14","精度区分":null,"座標値種別":null,"筆界未定構成筆":null,"代表点緯度":-17575.709,"代表点経度":18283.02188041}},{"type":"MultiPolygon","arcs":[[[97,98,-95]]],"properties":{"筆ID":"H000000033","version":"ver1.0","座標系":"任意座標系","測地系判別":null,"地図名":"弥生町","地図番号":"1","縮尺分母":"500","市区町村コード":"01202","市区町村名":"函館市","大字コード":"003","丁目コード":"000","小字コード":"0000","予備コード":"00","大字名":"弥生町","丁目名":null,"小字名":null,"予備名":null,"地番":"14-15","精度区分":null,"座標値種別":null,"筆界未定構成筆":null,"代表点緯度":-17580.3205,"代表点経度":18295.454027613}},{"type":"MultiPolygon","arcs":[[[99,-96,-99,100]]],"properties":{"筆ID":"H000000034","version":"ver1.0","座標系":"任意座標系","測地系判別":null,"地図名":"弥生町","地図番号":"1","縮尺分母":"500","市区町村コード":"01202","市区町村名":"函館市","大字コード":"003","丁目コード":"000","小字コード":"0000","予備コード":"00","大字名":"弥生町","丁目名":null,"小字名":null,"予備名":null,"地番":"14-16","精度区分":null,"座標値種別":null,"筆界未定構成筆":null,"代表点緯度":-17588.501,"代表点経度":18289.315887501}},{"type":"MultiPolygon","arcs":[[[-80,101,-97,-100,102,103,-72]]],"properties":{"筆ID":"H000000035","version":"ver1.0","座標系":"任意座標系","測地系判別":null,"地図名":"弥生町","地図番号":"1","縮尺分母":"500","市区町村コード":"01202","市区町村名":"函館市","大字コード":"003","丁目コード":"000","小字コード":"0000","予備コード":"00","大字名":"弥生町","丁目名":null,"小字名":null,"予備名":null,"地番":"14-17","精度区分":null,"座標値種別":null,"筆界未定構成筆":null,"代表点緯度":-17594.5225,"代表点経度":18277.308995737}},{"type":"MultiPolygon","arcs":[[[-71,-81,-75,104]]],"properties":{"筆ID":"H000000036","version":"ver1.0","座標系":"任意座標系","測地系判別":null,"地図名":"弥生町","地図番号":"1","縮尺分母":"500","市区町村コード":"01202","市区町村名":"函館市","大字コード":"003","丁目コード":"000","小字コード":"0000","予備コード":"00","大字名":"弥生町","丁目名":null,"小字名":null,"予備名":null,"地番":"14-18","精度区分":null,"座標値種別":null,"筆界未定構成筆":null,"代表点緯度":-17607.504,"代表点経度":18276.926747467}},{"type":"MultiPolygon","arcs":[[[-73,-104,105]]],"properties":{"筆ID":"H000000037","version":"ver1.0","座標系":"任意座標系","測地系判別":null,"地図名":"弥生町","地図番号":"1","縮尺分母":"500","市区町村コード":"01202","市区町村名":"函館市","大字コード":"003","丁目コード":"000","小字コード":"0000","予備コード":"00","大字名":"弥生町","丁目名":null,"小字名":null,"予備名":null,"地番":"14-20","精度区分":null,"座標値種別":null,"筆界未定構成筆":null,"代表点緯度":-17599.9565,"代表点経度":18284.45534705}},{"type":"MultiPolygon","arcs":[[[106,107,108]]],"properties":{"筆ID":"H000000038","version":"ver1.0","座標系":"任意座標系","測地系判別":null,"地図名":"弥生町","地図番号":"1","縮尺分母":"500","市区町村コード":"01202","市区町村名":"函館市","大字コード":"003","丁目コード":"000","小字コード":"0000","予備コード":"00","大字名":"弥生町","丁目名":null,"小字名":null,"予備名":null,"地番":"15-1","精度区分":null,"座標値種別":null,"筆界未定構成筆":null,"代表点緯度":-17659.38,"代表点経度":18335.914115365}},{"type":"MultiPolygon","arcs":[[[-109,109,110,111]]],"properties":{"筆ID":"H000000039","version":"ver1.0","座標系":"任意座標系","測地系判別":null,"地図名":"弥生町","地図番号":"1","縮尺分母":"500","市区町村コード":"01202","市区町村名":"函館市","大字コード":"003","丁目コード":"000","小字コード":"0000","予備コード":"00","大字名":"弥生町","丁目名":null,"小字名":null,"予備名":null,"地番":"15-2","精度区分":null,"座標値種別":null,"筆界未定構成筆":null,"代表点緯度":-17645.8995,"代表点経度":18341.884521014}},{"type":"MultiPolygon","arcs":[[[-108,112,113,114,-110]]],"properties":{"筆ID":"H000000040","version":"ver1.0","座標系":"任意座標系","測地系判別":null,"地図名":"弥生町","地図番号":"1","縮尺分母":"500","市区町村コード":"01202","市区町村名":"函館市","大字コード":"003","丁目コード":"000","小字コード":"0000","予備コード":"00","大字名":"弥生町","丁目名":null,"小字名":null,"予備名":null,"地番":"15-3","精度区分":null,"座標値種別":null,"筆界未定構成筆":null,"代表点緯度":-17645.514,"代表点経度":18328.210716512}},{"type":"MultiPolygon","arcs":[[[-114,115,116,117]]],"properties":{"筆ID":"H000000041","version":"ver1.0","座標系":"任意座標系","測地系判別":null,"地図名":"弥生町","地図番号":"1","縮尺分母":"500","市区町村コード":"01202","市区町村名":"函館市","大字コード":"003","丁目コード":"000","小字コード":"0000","予備コード":"00","大字名":"弥生町","丁目名":null,"小字名":null,"予備名":null,"地番":"15-4","精度区分":null,"座標値種別":null,"筆界未定構成筆":null,"代表点緯度":-17641.0945,"代表点経度":18320.185064246}},{"type":"MultiPolygon","arcs":[[[-117,118,119,120]]],"properties":{"筆ID":"H000000042","version":"ver1.0","座標系":"任意座標系","測地系判別":null,"地図名":"弥生町","地図番号":"1","縮尺分母":"500","市区町村コード":"01202","市区町村名":"函館市","大字コード":"003","丁目コード":"000","小字コード":"0000","予備コード":"00","大字名":"弥生町","丁目名":null,"小字名":null,"予備名":null,"地番":"15-5","精度区分":null,"座標値種別":null,"筆界未定構成筆":null,"代表点緯度":-17635.3915,"代表点経度":18312.530026419}},{"type":"MultiPolygon","arcs":[[[121,122,-120,123]]],"properties":{"筆ID":"H000000043","version":"ver1.0","座標系":"任意座標系","測地系判別":null,"地図名":"弥生町","地図番号":"1","縮尺分母":"500","市区町村コード":"01202","市区町村名":"函館市","大字コード":"003","丁目コード":"000","小字コード":"0000","予備コード":"00","大字名":"弥生町","丁目名":null,"小字名":null,"予備名":null,"地番":"15-6","精度区分":null,"座標値種別":null,"筆界未定構成筆":null,"代表点緯度":-17628.875,"代表点経度":18303.780835265}},{"type":"MultiPolygon","arcs":[[[124,-122,125]]],"properties":{"筆ID":"H000000044","version":"ver1.0","座標系":"任意座標系","測地系判別":null,"地図名":"弥生町","地図番号":"1","縮尺分母":"500","市区町村コード":"01202","市区町村名":"函館市","大字コード":"003","丁目コード":"000","小字コード":"0000","予備コード":"00","大字名":"弥生町","丁目名":null,"小字名":null,"予備名":null,"地番":"15-7","精度区分":null,"座標値種別":null,"筆界未定構成筆":null,"代表点緯度":-17623.01,"代表点経度":18295.924252125}},{"type":"MultiPolygon","arcs":[[[126,127,128,129,-111,-115,-118,-121,-123,-125,130,131,132]]],"properties":{"筆ID":"H000000045","version":"ver1.0","座標系":"任意座標系","測地系判別":null,"地図名":"弥生町","地図番号":"1","縮尺分母":"500","市区町村コード":"01202","市区町村名":"函館市","大字コード":"003","丁目コード":"000","小字コード":"0000","予備コード":"00","大字名":"弥生町","丁目名":null,"小字名":null,"予備名":null,"地番":"15-8","精度区分":null,"座標値種別":null,"筆界未定構成筆":null,"代表点緯度":-17628.012,"代表点経度":18320.105773656}},{"type":"MultiPolygon","arcs":[[[133,-133,134,135]]],"properties":{"筆ID":"H000000046","version":"ver1.0","座標系":"任意座標系","測地系判別":null,"地図名":"弥生町","地図番号":"1","縮尺分母":"500","市区町村コード":"01202","市区町村名":"函館市","大字コード":"003","丁目コード":"000","小字コード":"0000","予備コード":"00","大字名":"弥生町","丁目名":null,"小字名":null,"予備名":null,"地番":"15-9","精度区分":null,"座標値種別":null,"筆界未定構成筆":null,"代表点緯度":-17618.3035,"代表点経度":18315.098177878}},{"type":"MultiPolygon","arcs":[[[136,137,138]]],"properties":{"筆ID":"H000000047","version":"ver1.0","座標系":"任意座標系","測地系判別":null,"地図名":"弥生町","地図番号":"1","縮尺分母":"500","市区町村コード":"01202","市区町村名":"函館市","大字コード":"003","丁目コード":"000","小字コード":"0000","予備コード":"00","大字名":"弥生町","丁目名":null,"小字名":null,"予備名":null,"地番":"15-10","精度区分":null,"座標値種別":null,"筆界未定構成筆":null,"代表点緯度":-17600.386,"代表点経度":18314.7202526}},{"type":"MultiPolygon","arcs":[[[139,140,141,142]]],"properties":{"筆ID":"H000000048","version":"ver1.0","座標系":"任意座標系","測地系判別":null,"地図名":"弥生町","地図番号":"1","縮尺分母":"500","市区町村コード":"01202","市区町村名":"函館市","大字コード":"003","丁目コード":"000","小字コード":"0000","予備コード":"00","大字名":"弥生町","丁目名":null,"小字名":null,"予備名":null,"地番":"15-11","精度区分":null,"座標値種別":null,"筆界未定構成筆":null,"代表点緯度":-17610.657,"代表点経度":18333.950212208}},{"type":"MultiPolygon","arcs":[[[-134,143,-143,144,-127]]],"properties":{"筆ID":"H000000049","version":"ver1.0","座標系":"任意座標系","測地系判別":null,"地図名":"弥生町","地図番号":"1","縮尺分母":"500","市区町村コード":"01202","市区町村名":"函館市","大字コード":"003","丁目コード":"000","小字コード":"0000","予備コード":"00","大字名":"弥生町","丁目名":null,"小字名":null,"予備名":null,"地番":"15-12","精度区分":null,"座標値種別":null,"筆界未定構成筆":null,"代表点緯度":-17621.011,"代表点経度":18326.253026013}},{"type":"MultiPolygon","arcs":[[[145,146,-128,-145]]],"properties":{"筆ID":"H000000050","version":"ver1.0","座標系":"任意座標系","測地系判別":null,"地図名":"弥生町","地図番号":"1","縮尺分母":"500","市区町村コード":"01202","市区町村名":"函館市","大字コード":"003","丁目コード":"000","小字コード":"0000","予備コード":"00","大字名":"弥生町","丁目名":null,"小字名":null,"予備名":null,"地番":"15-13","精度区分":null,"座標値種別":null,"筆界未定構成筆":null,"代表点緯度":-17628.0645,"代表点経度":18335.73554742}},{"type":"MultiPolygon","arcs":[[[147,-146,-142,148]]],"properties":{"筆ID":"H000000051","version":"ver1.0","座標系":"任意座標系","測地系判別":null,"地図名":"弥生町","地図番号":"1","縮尺分母":"500","市区町村コード":"01202","市区町村名":"函館市","大字コード":"003","丁目コード":"000","小字コード":"0000","予備コード":"00","大字名":"弥生町","丁目名":null,"小字名":null,"予備名":null,"地番":"15-14","精度区分":null,"座標値種別":null,"筆界未定構成筆":null,"代表点緯度":-17617.7105,"代表点経度":18343.43255751}},{"type":"MultiPolygon","arcs":[[[149,-129,-147,-148]]],"properties":{"筆ID":"H000000052","version":"ver1.0","座標系":"任意座標系","測地系判別":null,"地図名":"弥生町","地図番号":"1","縮尺分母":"500","市区町村コード":"01202","市区町村名":"函館市","大字コード":"003","丁目コード":"000","小字コード":"0000","予備コード":"00","大字名":"弥生町","丁目名":null,"小字名":null,"予備名":null,"地番":"15-15","精度区分":null,"座標値種別":null,"筆界未定構成筆":null,"代表点緯度":-17629.145,"代表点経度":18352.584654045}},{"type":"MultiPolygon","arcs":[[[150,-139,151,-135,-132]]],"properties":{"筆ID":"H000000053","version":"ver1.0","座標系":"任意座標系","測地系判別":null,"地図名":"弥生町","地図番号":"1","縮尺分母":"500","市区町村コード":"01202","市区町村名":"函館市","大字コード":"003","丁目コード":"000","小字コード":"0000","予備コード":"00","大字名":"弥生町","丁目名":null,"小字名":null,"予備名":null,"地番":"15-16","精度区分":null,"座標値種別":null,"筆界未定構成筆":null,"代表点緯度":-17612.0695,"代表点経度":18306.707779892}},{"type":"MultiPolygon","arcs":[[[-138,152,-140,-144,-136,-152]]],"properties":{"筆ID":"H000000054","version":"ver1.0","座標系":"任意座標系","測地系判別":null,"地図名":"弥生町","地図番号":"1","縮尺分母":"500","市区町村コード":"01202","市区町村名":"函館市","大字コード":"003","丁目コード":"000","小字コード":"0000","予備コード":"00","大字名":"弥生町","丁目名":null,"小字名":null,"予備名":null,"地番":"15-17","精度区分":null,"座標値種別":null,"筆界未定構成筆":null,"代表点緯度":-17606.611,"代表点経度":18323.098073289}},{"type":"MultiPolygon","arcs":[[[153,154,155,156,157]]],"properties":{"筆ID":"H000000055","version":"ver1.0","座標系":"任意座標系","測地系判別":null,"地図名":"弥生町","地図番号":"1","縮尺分母":"500","市区町村コード":"01202","市区町村名":"函館市","大字コード":"003","丁目コード":"000","小字コード":"0000","予備コード":"00","大字名":"弥生町","丁目名":null,"小字名":null,"予備名":null,"地番":"9-9","精度区分":null,"座標値種別":"図上測量","筆界未定構成筆":null,"代表点緯度":-17699.516,"代表点経度":18239.048442673}},{"type":"MultiPolygon","arcs":[[[-157,158,159]]],"properties":{"筆ID":"H000000056","version":"ver1.0","座標系":"任意座標系","測地系判別":null,"地図名":"弥生町","地図番号":"1","縮尺分母":"500","市区町村コード":"01202","市区町村名":"函館市","大字コード":"003","丁目コード":"000","小字コード":"0000","予備コード":"00","大字名":"弥生町","丁目名":null,"小字名":null,"予備名":null,"地番":"9-8","精度区分":null,"座標値種別":"図上測量","筆界未定構成筆":null,"代表点緯度":-17706.27,"代表点経度":18230.608034201}},{"type":"MultiPolygon","arcs":[[[-156,160,161,-159]]],"properties":{"筆ID":"H000000057","version":"ver1.0","座標系":"任意座標系","測地系判別":null,"地図名":"弥生町","地図番号":"1","縮尺分母":"500","市区町村コード":"01202","市区町村名":"函館市","大字コード":"003","丁目コード":"000","小字コード":"0000","予備コード":"00","大字名":"弥生町","丁目名":null,"小字名":null,"予備名":null,"地番":"9-7","精度区分":null,"座標値種別":"図上測量","筆界未定構成筆":null,"代表点緯度":-17709.119,"代表点経度":18234.329594415}},{"type":"MultiPolygon","arcs":[[[-161,-155,162,163,164]]],"properties":{"筆ID":"H000000058","version":"ver1.0","座標系":"任意座標系","測地系判別":null,"地図名":"弥生町","地図番号":"1","縮尺分母":"500","市区町村コード":"01202","市区町村名":"函館市","大字コード":"003","丁目コード":"000","小字コード":"0000","予備コード":"00","大字名":"弥生町","丁目名":null,"小字名":null,"予備名":null,"地番":"9-6","精度区分":null,"座標値種別":null,"筆界未定構成筆":null,"代表点緯度":-17710.714,"代表点経度":18241.879667102}},{"type":"MultiPolygon","arcs":[[[165,166,167,-164]]],"properties":{"筆ID":"H000000059","version":"ver1.0","座標系":"任意座標系","測地系判別":null,"地図名":"弥生町","地図番号":"1","縮尺分母":"500","市区町村コード":"01202","市区町村名":"函館市","大字コード":"003","丁目コード":"000","小字コード":"0000","予備コード":"00","大字名":"弥生町","丁目名":null,"小字名":null,"予備名":null,"地番":"9-5","精度区分":null,"座標値種別":"図上測量","筆界未定構成筆":null,"代表点緯度":-17715.2325,"代表点経度":18248.906347102}},{"type":"MultiPolygon","arcs":[[[168,-10,-167]]],"properties":{"筆ID":"H000000060","version":"ver1.0","座標系":"任意座標系","測地系判別":null,"地図名":"弥生町","地図番号":"1","縮尺分母":"500","市区町村コード":"01202","市区町村名":"函館市","大字コード":"003","丁目コード":"000","小字コード":"0000","予備コード":"00","大字名":"弥生町","丁目名":null,"小字名":null,"予備名":null,"地番":"9-16","精度区分":null,"座標値種別":"図上測量","筆界未定構成筆":null,"代表点緯度":-17717.7455,"代表点経度":18252.155788716}},{"type":"MultiPolygon","arcs":[[[169,-15,-18,-21,-24,-26,170,-4,-9,-11,-169,-166,-163,-154]]],"properties":{"筆ID":"H000000061","version":"ver1.0","座標系":"任意座標系","測地系判別":null,"地図名":"弥生町","地図番号":"1","縮尺分母":"500","市区町村コード":"01202","市区町村名":"函館市","大字コード":"003","丁目コード":"000","小字コード":"0000","予備コード":"00","大字名":"弥生町","丁目名":null,"小字名":null,"予備名":null,"地番":"9-10","精度区分":null,"座標値種別":null,"筆界未定構成筆":null,"代表点緯度":-17712.0825,"代表点経度":18264.794834264}},{"type":"MultiPolygon","arcs":[[[171,172,173,-83,-86,174]]],"properties":{"筆ID":"H000000062","version":"ver1.0","座標系":"任意座標系","測地系判別":null,"地図名":"弥生町","地図番号":"1","縮尺分母":"500","市区町村コード":"01202","市区町村名":"函館市","大字コード":"003","丁目コード":"000","小字コード":"0000","予備コード":"00","大字名":"弥生町","丁目名":null,"小字名":null,"予備名":null,"地番":"14-22","精度区分":null,"座標値種別":null,"筆界未定構成筆":null,"代表点緯度":-17578.054,"代表点経度":18243.123251806}},{"type":"MultiPolygon","arcs":[[[175,176,177,-173]]],"properties":{"筆ID":"H000000063","version":"ver1.0","座標系":"任意座標系","測地系判別":null,"地図名":"弥生町","地図番号":"1","縮尺分母":"500","市区町村コード":"01202","市区町村名":"函館市","大字コード":"003","丁目コード":"000","小字コード":"0000","予備コード":"00","大字名":"弥生町","丁目名":null,"小字名":null,"予備名":null,"地番":"14-5","精度区分":null,"座標値種別":null,"筆界未定構成筆":null,"代表点緯度":-17583.758,"代表点経度":18252.439056574}},{"type":"MultiPolygon","arcs":[[[-89,-176,-172,178,-87,179]]],"properties":{"筆ID":"H000000064","version":"ver1.0","座標系":"任意座標系","測地系判別":null,"地図名":"弥生町","地図番号":"1","縮尺分母":"500","市区町村コード":"01202","市区町村名":"函館市","大字コード":"003","丁目コード":"000","小字コード":"0000","予備コード":"00","大字名":"弥生町","丁目名":null,"小字名":null,"予備名":null,"地番":"14-21","精度区分":null,"座標値種別":null,"筆界未定構成筆":null,"代表点緯度":-17567.612,"代表点経度":18263.534017969}},{"type":"MultiPolygon","arcs":[[[-93,-102,-79,180,181,-177,-92]]],"properties":{"筆ID":"H000000065","version":"ver1.0","座標系":"任意座標系","測地系判別":null,"地図名":"弥生町","地図番号":"1","縮尺分母":"500","市区町村コード":"01202","市区町村名":"函館市","大字コード":"003","丁目コード":"000","小字コード":"0000","予備コード":"00","大字名":"弥生町","丁目名":null,"小字名":null,"予備名":null,"地番":"14-4","精度区分":null,"座標値種別":null,"筆界未定構成筆":null,"代表点緯度":-17589.6645,"代表点経度":18269.383017019}},{"type":"MultiPolygon","arcs":[[[-78,182,-181]]],"properties":{"筆ID":"H000000066","version":"ver1.0","座標系":"任意座標系","測地系判別":null,"地図名":"弥生町","地図番号":"1","縮尺分母":"500","市区町村コード":"01202","市区町村名":"函館市","大字コード":"003","丁目コード":"000","小字コード":"0000","予備コード":"00","大字名":"弥生町","丁目名":null,"小字名":null,"予備名":null,"地番":"14-23","精度区分":null,"座標値種別":null,"筆界未定構成筆":null,"代表点緯度":-17595.601,"代表点経度":18258.629626193}},{"type":"MultiPolygon","arcs":[[[183,184]]],"properties":{"筆ID":"H000000067","version":"ver1.0","座標系":"任意座標系","測地系判別":null,"地図名":"弥生町","地図番号":"1","縮尺分母":"500","市区町村コード":"01202","市区町村名":"函館市","大字コード":"003","丁目コード":"000","小字コード":"0000","予備コード":"00","大字名":"弥生町","丁目名":null,"小字名":null,"予備名":null,"地番":"11-2","精度区分":null,"座標値種別":null,"筆界未定構成筆":null,"代表点緯度":-17664.234,"代表点経度":18241.626135645}},{"type":"MultiPolygon","arcs":[[[185,186,187]]],"properties":{"筆ID":"H000000068","version":"ver1.0","座標系":"任意座標系","測地系判別":null,"地図名":"弥生町","地図番号":"1","縮尺分母":"500","市区町村コード":"01202","市区町村名":"函館市","大字コード":"003","丁目コード":"000","小字コード":"0000","予備コード":"00","大字名":"弥生町","丁目名":null,"小字名":null,"予備名":null,"地番":"12-1","精度区分":null,"座標値種別":"図上測量","筆界未定構成筆":null,"代表点緯度":-17565.774,"代表点経度":18150.027946334}},{"type":"MultiPolygon","arcs":[[[-187,188,189,190,191]]],"properties":{"筆ID":"H000000069","version":"ver1.0","座標系":"任意座標系","測地系判別":null,"地図名":"弥生町","地図番号":"1","縮尺分母":"500","市区町村コード":"01202","市区町村名":"函館市","大字コード":"003","丁目コード":"000","小字コード":"0000","予備コード":"00","大字名":"弥生町","丁目名":null,"小字名":null,"予備名":null,"地番":"12-2","精度区分":null,"座標値種別":"図上測量","筆界未定構成筆":null,"代表点緯度":-17601.605,"代表点経度":18119.235044246}},{"type":"MultiPolygon","arcs":[[[192,193,-191]]],"properties":{"筆ID":"H000000070","version":"ver1.0","座標系":"任意座標系","測地系判別":null,"地図名":"弥生町","地図番号":"1","縮尺分母":"500","市区町村コード":"01202","市区町村名":"函館市","大字コード":"003","丁目コード":"000","小字コード":"0000","予備コード":"00","大字名":"弥生町","丁目名":null,"小字名":null,"予備名":null,"地番":"12-3","精度区分":null,"座標値種別":"図上測量","筆界未定構成筆":null,"代表点緯度":-17624.4535,"代表点経度":18110.696585581}},{"type":"MultiPolygon","arcs":[[[194,195,-193,-190]]],"properties":{"筆ID":"H000000071","version":"ver1.0","座標系":"任意座標系","測地系判別":null,"地図名":"弥生町","地図番号":"1","縮尺分母":"500","市区町村コード":"01202","市区町村名":"函館市","大字コード":"003","丁目コード":"000","小字コード":"0000","予備コード":"00","大字名":"弥生町","丁目名":null,"小字名":null,"予備名":null,"地番":"12-4","精度区分":null,"座標値種別":"図上測量","筆界未定構成筆":null,"代表点緯度":-17632.1415,"代表点経度":18133.462804093}},{"type":"MultiPolygon","arcs":[[[196,-185,197,-195,-189,-186]]],"properties":{"筆ID":"H000000072","version":"ver1.0","座標系":"任意座標系","測地系判別":null,"地図名":"弥生町","地図番号":"1","縮尺分母":"500","市区町村コード":"01202","市区町村名":"函館市","大字コード":"003","丁目コード":"000","小字コード":"0000","予備コード":"00","大字名":"弥生町","丁目名":null,"小字名":null,"予備名":null,"地番":"11-1","精度区分":null,"座標値種別":null,"筆界未定構成筆":null,"代表点緯度":-17640.009,"代表点経度":18201.597965605}}]}},"arcs":[[[715631,46335],[-26053,-46335],[-50078,50191]],[[639500,50191],[25822,46558]],[[665322,96749],[50309,-50414]],[[682361,127458],[50645,-50232]],[[733006,77226],[-17375,-30891]],[[665322,96749],[17039,30709]],[[639500,50191],[-22267,22325]],[[617233,72516],[42776,77117]],[[660009,149633],[22352,-22175]],[[594962,94837],[42694,76966]],[[637656,171803],[22353,-22170]],[[617233,72516],[-22271,22321]],[[572607,253346],[40562,72160],[24963,-25077]],[[638132,300429],[-40152,-72256]],[[597980,228173],[-25373,25173]],[[638132,300429],[30031,-30161]],[[668163,270268],[-40022,-72010]],[[628141,198258],[-30161,29915]],[[668163,270268],[29668,-29801]],[[697831,240467],[-39887,-71772]],[[657944,168695],[-29803,29563]],[[697831,240467],[24725,-24830]],[[722556,215637],[-39778,-71577]],[[682778,144060],[-24834,24635]],[[722556,215637],[56421,-56672],[-39826,-70823]],[[739151,88142],[-56373,55918]],[[765621,299503],[17976,32338]],[[783597,331841],[29926,-29541]],[[813523,302300],[-41465,-74237]],[[772058,228063],[-5537,5564]],[[766521,233627],[23370,41259],[-24270,24617]],[[742447,257809],[-54145,54385]],[[688302,312194],[19650,35346]],[[707952,347540],[21167,38079]],[[729119,385619],[54478,-53778]],[[765621,299503],[-23174,-41694]],[[655293,400446],[52659,-52906]],[[688302,312194],[-52808,53034],[19799,35218]],[[676277,437777],[52842,-52158]],[[655293,400446],[20984,37331]],[[703752,421986],[-23381,23074]],[[680371,445060],[35654,63426],[22953,-23010]],[[738978,485476],[-22464,-40489]],[[716514,444987],[-12762,-23001]],[[738978,485476],[14713,-14759]],[[753691,470717],[-22508,-40457],[-14669,14727]],[[771134,453234],[-35042,-63170]],[[736092,390064],[-32340,31922]],[[753691,470717],[17443,-17483]],[[771134,453234],[36614,-36710]],[[807748,416524],[-34842,-62801]],[[772906,353723],[-36814,36341]],[[807748,416524],[24739,-24808]],[[832487,391716],[-34696,-62545]],[[797791,329171],[-24885,24552]],[[832487,391716],[24742,-24804]],[[857229,366912],[-34563,-62303]],[[822666,304609],[-24875,24562]],[[857229,366912],[24742,-24803],[-34730,-61755]],[[847241,280354],[-24575,24255]],[[847241,280354],[-4094,-7284]],[[843147,273070],[-29624,29230]],[[676277,437777],[4094,7283]],[[777486,222614],[-5428,5449]],[[843147,273070],[-18628,-33118]],[[824519,239952],[-23723,23995],[-23310,-41333]],[[766521,233627],[-24074,24182]],[[824519,239952],[-23207,-41265],[-23826,23927]],[[714989,616758],[-16224,-28860],[-33002,33086]],[[665763,620984],[16194,29189]],[[681957,650173],[33032,-33415]],[[695798,675118],[8134,-8155]],[[703932,666963],[25126,-25178]],[[729058,641785],[-10745,-19113]],[[718313,622672],[-33009,33530]],[[685304,656202],[10494,18916]],[[665763,620984],[-32904,32991]],[[632859,653975],[30779,53390]],[[663638,707365],[16927,-16968]],[[680565,690397],[15233,-15279]],[[685304,656202],[-3347,-6029]],[[539442,842384],[40498,-41364]],[[579940,801020],[-33508,-60396]],[[546432,740624],[-41069,41178],[34079,60582]],[[539442,842384],[20478,36405],[40314,-41178]],[[600234,837611],[-20294,-36591]],[[693408,858581],[-18727,-34296],[-28972,28459]],[[645709,852744],[18438,35094],[29261,-29257]],[[659061,777594],[41086,74251]],[[700147,851845],[24759,-24767]],[[724906,827078],[-41252,-74547]],[[683654,752531],[-24593,25063]],[[703701,732095],[-20047,20436]],[[724906,827078],[27237,-27245]],[[752143,799833],[-20261,-36619]],[[731882,763214],[-21174,-38257]],[[710708,724957],[-7007,7138]],[[752143,799833],[42097,-42090],[-20468,-36409]],[[773772,721334],[-41890,41880]],[[752096,682771],[-41388,42186]],[[773772,721334],[-21676,-38563]],[[680565,690397],[23136,41698]],[[752096,682771],[-4499,-8000]],[[747597,674771],[-25319,26163],[-18346,-33971]],[[718313,622672],[-3324,-5914]],[[747597,674771],[-18539,-32986]],[[924398,417541],[-20091,-35724],[-35912,35998]],[[868395,417815],[18801,33867]],[[887196,451682],[37202,-34141]],[[887196,451682],[12514,22553]],[[899710,474235],[17596,31704],[36936,-35222]],[[954242,470717],[-29844,-53176]],[[868395,417815],[-24647,24717]],[[843748,442532],[31284,56384]],[[875032,498916],[24678,-24681]],[[843748,442532],[-24739,24808]],[[819009,467340],[31261,56338]],[[850270,523678],[5068,9150],[24766,-24762],[-5072,-9150]],[[819009,467340],[-27213,27290]],[[791796,494630],[31233,56288]],[[823029,550918],[27241,-27240]],[[759632,526868],[31203,56242]],[[790835,583110],[32194,-32192]],[[791796,494630],[-32164,32238]],[[769797,604149],[21038,-21039]],[[759632,526868],[-21279,21340],[31444,55941]],[[838282,566932],[32194,-32187]],[[870476,534745],[32191,-32192],[12351,22330]],[[915018,524883],[45451,-43195]],[[960469,481688],[-6227,-10971]],[[769797,604149],[6141,10920]],[[775938,615069],[31858,-31867]],[[807796,583202],[25424,-25425],[5062,9155]],[[851634,591074],[-13352,-24142]],[[807796,583202],[18804,32903]],[[826600,616105],[25034,-25031]],[[794542,648170],[39320,69951],[28473,-28477]],[[862335,689644],[-39191,-70079]],[[823144,619565],[-28602,28605]],[[864766,614823],[25784,46609]],[[890550,661432],[32188,-32188]],[[922738,629244],[-25778,-46613]],[[896960,582631],[-32194,32192]],[[851634,591074],[13132,23749]],[[896960,582631],[-26484,-47886]],[[896960,582631],[32191,-32192]],[[929151,550439],[-14133,-25556]],[[954928,597057],[-25777,-46618]],[[922738,629244],[32190,-32187]],[[954928,597057],[45071,-45075],[-39530,-70294]],[[775938,615069],[18604,33101]],[[823144,619565],[3456,-3460]],[[862335,689644],[28215,-28212]],[[566465,242425],[25251,-25050]],[[591716,217375],[-15124,-27267]],[[576592,190108],[-14764,14978]],[[561828,205086],[-10413,10564]],[[551415,215650],[15050,26775]],[[561828,205086],[-27156,-49817]],[[534672,155269],[-11000,11026],[27743,49355]],[[576592,190108],[-27397,-49397]],[[549195,140711],[-14523,14558]],[[591716,217375],[23599,-23402]],[[615315,193973],[-42620,-76824]],[[572695,117149],[-23500,23562]],[[615315,193973],[21713,-21545]],[[637028,172428],[-42066,-77591]],[[594962,94837],[-22267,22312]],[[637028,172428],[628,-625]],[[566465,242425],[6142,10921]],[[739151,88142],[-6145,-10916]],[[624657,812666],[3938,-4016]],[[628595,808650],[-53598,-96662]],[[574997,711988],[-28565,28636]],[[600234,837611],[24423,-24945]],[[628595,808650],[30466,-31056]],[[659061,777594],[-53415,-96333]],[[605646,681261],[-30649,30727]],[[624657,812666],[21052,40078]],[[693408,858581],[6739,-6736]],[[663638,707365],[-20645,20942],[-30231,-54184]],[[612762,674123],[-7116,7138]],[[632859,653975],[-20097,20148]],[[676212,548404],[228,-228],[-192003,-341571],[-271,274]],[[484166,206879],[192046,341525]],[[421720,803552],[-92206,-166070]],[[329514,637482],[-212576,212693]],[[116938,850175],[108841,149824],[195941,-196447]],[[329514,637482],[-67040,-120745]],[[262474,516737],[-71388,70741],[-27651,-50693]],[[163435,536785],[-51335,51049],[-3843,-6476]],[[108257,581358],[-108257,107848],[116938,160969]],[[163435,536785],[9556,-9506],[-3839,-6586]],[[169152,520693],[-60895,60665]],[[262474,516737],[-31820,-57311]],[[230654,459426],[-61502,61267]],[[421720,803552],[254492,-255148]],[[484166,206879],[-253512,252547]]],"bbox":[18070.688,-17746.959,18365.246,-17527.836],"transform":{"scale":[0.00029455829455829545,0.0002191232191232187],"translate":[18070.688,-17746.959]}}
