{"type":"Topology","objects":{"01202-4400-9.featurecollection":{"type":"GeometryCollection","geometries":[{"type":"Polygon","arcs":[[0,1]],"properties":{"市区町村名":"函館市","大字名":"東畑町","丁目名":null,"小字名":null,"地番":"181","精度区分":null,"座標系":"任意座標系"}},{"type":"Polygon","arcs":[[2,3,4,5]],"properties":{"市区町村名":"函館市","大字名":"東畑町","丁目名":null,"小字名":null,"地番":"182-4","精度区分":null,"座標系":"任意座標系"}},{"type":"Polygon","arcs":[[6,7]],"properties":{"市区町村名":"函館市","大字名":"東畑町","丁目名":null,"小字名":null,"地番":"182-12","精度区分":null,"座標系":"任意座標系"}},{"type":"Polygon","arcs":[[8,9,10,11]],"properties":{"市区町村名":"函館市","大字名":"東畑町","丁目名":null,"小字名":null,"地番":"水-10","精度区分":null,"座標系":"任意座標系"}},{"type":"Polygon","arcs":[[12,13,-2,14,15,16,17,18,19,-8,20,21]],"properties":{"市区町村名":"函館市","大字名":"東畑町","丁目名":null,"小字名":null,"地番":"水-14","精度区分":null,"座標系":"任意座標系"}},{"type":"Polygon","arcs":[[22,23]],"properties":{"市区町村名":"函館市","大字名":"鉄山町","丁目名":null,"小字名":null,"地番":"45-3","精度区分":null,"座標系":"任意座標系"}},{"type":"Polygon","arcs":[[24,25,-20,-24,-10,26,27,28]],"properties":{"市区町村名":"函館市","大字名":"鉄山町","丁目名":null,"小字名":null,"地番":"水-11","精度区分":null,"座標系":"任意座標系"}},{"type":"Polygon","arcs":[[-21,29]],"properties":{"市区町村名":"函館市","大字名":"鉄山町","丁目名":null,"小字名":null,"地番":"水-12","精度区分":null,"座標系":"任意座標系"}},{"type":"Polygon","arcs":[[30,31]],"properties":{"市区町村名":"函館市","大字名":"蛾眉野町","丁目名":null,"小字名":null,"地番":"76W2","精度区分":null,"座標系":"任意座標系"}},{"type":"Polygon","arcs":[[32,33,34,35]],"properties":{"市区町村名":"函館市","大字名":"蛾眉野町","丁目名":null,"小字名":null,"地番":"77W1","精度区分":null,"座標系":"任意座標系"}},{"type":"Polygon","arcs":[[36,37,38,39,40]],"properties":{"市区町村名":"函館市","大字名":"蛾眉野町","丁目名":null,"小字名":null,"地番":"89-1W4","精度区分":null,"座標系":"任意座標系"}},{"type":"Polygon","arcs":[[41,42,43,44,45]],"properties":{"市区町村名":"函館市","大字名":"蛾眉野町","丁目名":null,"小字名":null,"地番":"90-1W1","精度区分":null,"座標系":"任意座標系"}},{"type":"Polygon","arcs":[[46,47,48]],"properties":{"市区町村名":"函館市","大字名":"蛾眉野町","丁目名":null,"小字名":null,"地番":"90-1W2","精度区分":null,"座標系":"任意座標系"}},{"type":"Polygon","arcs":[[-43,49]],"properties":{"市区町村名":"函館市","大字名":"蛾眉野町","丁目名":null,"小字名":null,"地番":"90-3W2","精度区分":null,"座標系":"任意座標系"}},{"type":"Polygon","arcs":[[50,51,52,-46,53,54,55]],"properties":{"市区町村名":"函館市","大字名":"蛾眉野町","丁目名":null,"小字名":null,"地番":"91W1","精度区分":null,"座標系":"任意座標系"}},{"type":"Polygon","arcs":[[56,57,58]],"properties":{"市区町村名":"函館市","大字名":"蛾眉野町","丁目名":null,"小字名":null,"地番":"92","精度区分":null,"座標系":"任意座標系"}},{"type":"Polygon","arcs":[[59,60,61,62]],"properties":{"市区町村名":"函館市","大字名":"蛾眉野町","丁目名":null,"小字名":null,"地番":"93W1","精度区分":null,"座標系":"任意座標系"}},{"type":"Polygon","arcs":[[63,64]],"properties":{"市区町村名":"函館市","大字名":"蛾眉野町","丁目名":null,"小字名":null,"地番":"94W5","精度区分":null,"座標系":"任意座標系"}},{"type":"Polygon","arcs":[[65,66]],"properties":{"市区町村名":"函館市","大字名":"蛾眉野町","丁目名":null,"小字名":null,"地番":"94W11","精度区分":null,"座標系":"任意座標系"}},{"type":"Polygon","arcs":[[67,68]],"properties":{"市区町村名":"函館市","大字名":"蛾眉野町","丁目名":null,"小字名":null,"地番":"123-1W1","精度区分":null,"座標系":"任意座標系"}},{"type":"Polygon","arcs":[[69,70,71,-68]],"properties":{"市区町村名":"函館市","大字名":"蛾眉野町","丁目名":null,"小字名":null,"地番":"123-4W1","精度区分":null,"座標系":"任意座標系"}},{"type":"Polygon","arcs":[[72,73,74,75]],"properties":{"市区町村名":"函館市","大字名":"蛾眉野町","丁目名":null,"小字名":null,"地番":"130-5","精度区分":null,"座標系":"任意座標系"}},{"type":"Polygon","arcs":[[76,-74,77,78]],"properties":{"市区町村名":"函館市","大字名":"蛾眉野町","丁目名":null,"小字名":null,"地番":"130-6","精度区分":null,"座標系":"任意座標系"}},{"type":"Polygon","arcs":[[-71,79,-78,80,81]],"properties":{"市区町村名":"函館市","大字名":"蛾眉野町","丁目名":null,"小字名":null,"地番":"130-1W2","精度区分":null,"座標系":"任意座標系"}},{"type":"Polygon","arcs":[[82,-76,83,84]],"properties":{"市区町村名":"函館市","大字名":"蛾眉野町","丁目名":null,"小字名":null,"地番":"130-2W1","精度区分":null,"座標系":"任意座標系"}},{"type":"Polygon","arcs":[[85,86,-81,-73]],"properties":{"市区町村名":"函館市","大字名":"蛾眉野町","丁目名":null,"小字名":null,"地番":"130-3W1","精度区分":null,"座標系":"任意座標系"}},{"type":"Polygon","arcs":[[-86,-83,87]],"properties":{"市区町村名":"函館市","大字名":"蛾眉野町","丁目名":null,"小字名":null,"地番":"130-4W2","精度区分":null,"座標系":"任意座標系"}},{"type":"Polygon","arcs":[[88,89,90,91]],"properties":{"市区町村名":"函館市","大字名":"蛾眉野町","丁目名":null,"小字名":null,"地番":"132-2","精度区分":null,"座標系":"任意座標系"}},{"type":"Polygon","arcs":[[-75,92,93,94]],"properties":{"市区町村名":"函館市","大字名":"蛾眉野町","丁目名":null,"小字名":null,"地番":"132-3","精度区分":null,"座標系":"任意座標系"}},{"type":"Polygon","arcs":[[-89,-93,-77,95]],"properties":{"市区町村名":"函館市","大字名":"蛾眉野町","丁目名":null,"小字名":null,"地番":"132-4","精度区分":null,"座標系":"任意座標系"}},{"type":"Polygon","arcs":[[96,97,-94,-92]],"properties":{"市区町村名":"函館市","大字名":"蛾眉野町","丁目名":null,"小字名":null,"地番":"132-5","精度区分":null,"座標系":"任意座標系"}},{"type":"Polygon","arcs":[[-98,98,99,100,101]],"properties":{"市区町村名":"函館市","大字名":"蛾眉野町","丁目名":null,"小字名":null,"地番":"132-6","精度区分":null,"座標系":"任意座標系"}},{"type":"Polygon","arcs":[[-84,-95,-102,102]],"properties":{"市区町村名":"函館市","大字名":"蛾眉野町","丁目名":null,"小字名":null,"地番":"132-1W1","精度区分":null,"座標系":"任意座標系"}},{"type":"Polygon","arcs":[[103,104,105]],"properties":{"市区町村名":"函館市","大字名":"蛾眉野町","丁目名":null,"小字名":null,"地番":"135W3","精度区分":null,"座標系":"任意座標系"}},{"type":"Polygon","arcs":[[106,107,-91,108]],"properties":{"市区町村名":"函館市","大字名":"蛾眉野町","丁目名":null,"小字名":null,"地番":"136-1","精度区分":null,"座標系":"任意座標系"}},{"type":"Polygon","arcs":[[109,110,-97,-108]],"properties":{"市区町村名":"函館市","大字名":"蛾眉野町","丁目名":null,"小字名":null,"地番":"136-7","精度区分":null,"座標系":"任意座標系"}},{"type":"Polygon","arcs":[[-99,-111,111,112]],"properties":{"市区町村名":"函館市","大字名":"蛾眉野町","丁目名":null,"小字名":null,"地番":"136-8","精度区分":null,"座標系":"任意座標系"}},{"type":"Polygon","arcs":[[113,-107,114]],"properties":{"市区町村名":"函館市","大字名":"蛾眉野町","丁目名":null,"小字名":null,"地番":"136-3W1","精度区分":null,"座標系":"任意座標系"}},{"type":"Polygon","arcs":[[-114,115,116,-110]],"properties":{"市区町村名":"函館市","大字名":"蛾眉野町","丁目名":null,"小字名":null,"地番":"136-9W1","精度区分":null,"座標系":"任意座標系"}},{"type":"Polygon","arcs":[[117,118,-112,-117]],"properties":{"市区町村名":"函館市","大字名":"蛾眉野町","丁目名":null,"小字名":null,"地番":"136-10W1","精度区分":null,"座標系":"任意座標系"}},{"type":"Polygon","arcs":[[119,120,121,122]],"properties":{"市区町村名":"函館市","大字名":"蛾眉野町","丁目名":null,"小字名":null,"地番":"153-5","精度区分":null,"座標系":"任意座標系"}},{"type":"Polygon","arcs":[[123,124,125,126]],"properties":{"市区町村名":"函館市","大字名":"蛾眉野町","丁目名":null,"小字名":null,"地番":"153-6","精度区分":null,"座標系":"任意座標系"}},{"type":"Polygon","arcs":[[127,128,129]],"properties":{"市区町村名":"函館市","大字名":"蛾眉野町","丁目名":null,"小字名":null,"地番":"153-7","精度区分":null,"座標系":"任意座標系"}},{"type":"Polygon","arcs":[[130,131]],"properties":{"市区町村名":"函館市","大字名":"蛾眉野町","丁目名":null,"小字名":null,"地番":"153-8","精度区分":null,"座標系":"任意座標系"}},{"type":"Polygon","arcs":[[132,-123,133,134]],"properties":{"市区町村名":"函館市","大字名":"蛾眉野町","丁目名":null,"小字名":null,"地番":"153-13","精度区分":null,"座標系":"任意座標系"}},{"type":"Polygon","arcs":[[135,136]],"properties":{"市区町村名":"函館市","大字名":"蛾眉野町","丁目名":null,"小字名":null,"地番":"153-15","精度区分":null,"座標系":"任意座標系"}},{"type":"Polygon","arcs":[[137,-126,138,139]],"properties":{"市区町村名":"函館市","大字名":"蛾眉野町","丁目名":null,"小字名":null,"地番":"153-16","精度区分":null,"座標系":"任意座標系"}},{"type":"Polygon","arcs":[[-140,140]],"properties":{"市区町村名":"函館市","大字名":"蛾眉野町","丁目名":null,"小字名":null,"地番":"153-17","精度区分":null,"座標系":"任意座標系"}},{"type":"Polygon","arcs":[[141,142,143,-130]],"properties":{"市区町村名":"函館市","大字名":"蛾眉野町","丁目名":null,"小字名":null,"地番":"153-18","精度区分":null,"座標系":"任意座標系"}},{"type":"Polygon","arcs":[[144,145,-143]],"properties":{"市区町村名":"函館市","大字名":"蛾眉野町","丁目名":null,"小字名":null,"地番":"153-19","精度区分":null,"座標系":"任意座標系"}},{"type":"Polygon","arcs":[[146,-135,147,148,149,-136]],"properties":{"市区町村名":"函館市","大字名":"蛾眉野町","丁目名":null,"小字名":null,"地番":"153-14W1","精度区分":null,"座標系":"任意座標系"}},{"type":"Polygon","arcs":[[150,151,152,153]],"properties":{"市区町村名":"函館市","大字名":"蛾眉野町","丁目名":null,"小字名":null,"地番":"154-3W2","精度区分":null,"座標系":"任意座標系"}},{"type":"Polygon","arcs":[[154,-153,155,156,157,158]],"properties":{"市区町村名":"函館市","大字名":"蛾眉野町","丁目名":null,"小字名":null,"地番":"155-1","精度区分":null,"座標系":"任意座標系"}},{"type":"Polygon","arcs":[[159,160,-159,161]],"properties":{"市区町村名":"函館市","大字名":"蛾眉野町","丁目名":null,"小字名":null,"地番":"155-2","精度区分":null,"座標系":"任意座標系"}},{"type":"Polygon","arcs":[[-160,162]],"properties":{"市区町村名":"函館市","大字名":"蛾眉野町","丁目名":null,"小字名":null,"地番":"155-3","精度区分":null,"座標系":"任意座標系"}},{"type":"Polygon","arcs":[[163,164]],"properties":{"市区町村名":"函館市","大字名":"蛾眉野町","丁目名":null,"小字名":null,"地番":"94W3","精度区分":null,"座標系":"任意座標系"}},{"type":"Polygon","arcs":[[165,166,167,168]],"properties":{"市区町村名":"函館市","大字名":"蛾眉野町","丁目名":null,"小字名":null,"地番":"無地番-5","精度区分":null,"座標系":"任意座標系"}},{"type":"Polygon","arcs":[[-168,169,170]],"properties":{"市区町村名":"函館市","大字名":"蛾眉野町","丁目名":null,"小字名":null,"地番":"無地番-6","精度区分":null,"座標系":"任意座標系"}},{"type":"Polygon","arcs":[[171,172,173,174,-169,-171]],"properties":{"市区町村名":"函館市","大字名":"蛾眉野町","丁目名":null,"小字名":null,"地番":"無地番-9","精度区分":null,"座標系":"任意座標系"}},{"type":"Polygon","arcs":[[175,176,-174]],"properties":{"市区町村名":"函館市","大字名":"蛾眉野町","丁目名":null,"小字名":null,"地番":"無地番-324","精度区分":null,"座標系":"任意座標系"}},{"type":"Polygon","arcs":[[177,178]],"properties":{"市区町村名":"函館市","大字名":"蛾眉野町","丁目名":null,"小字名":null,"地番":"筆界未定地-208","精度区分":null,"座標系":"任意座標系"}},{"type":"Polygon","arcs":[[179,-34,180,-37]],"properties":{"市区町村名":"函館市","大字名":"蛾眉野町","丁目名":null,"小字名":null,"地番":"道-9","精度区分":null,"座標系":"任意座標系"}},{"type":"Polygon","arcs":[[181,-39,182,-47]],"properties":{"市区町村名":"函館市","大字名":"蛾眉野町","丁目名":null,"小字名":null,"地番":"道-10","精度区分":null,"座標系":"任意座標系"}},{"type":"Polygon","arcs":[[-172,-170,-167,183,184]],"properties":{"市区町村名":"函館市","大字名":"蛾眉野町","丁目名":null,"小字名":null,"地番":"道-11","精度区分":null,"座標系":"任意座標系"}},{"type":"Polygon","arcs":[[-152,185,-132,186,-156]],"properties":{"市区町村名":"函館市","大字名":"蛾眉野町","丁目名":null,"小字名":null,"地番":"道-165","精度区分":null,"座標系":"任意座標系"}},{"type":"Polygon","arcs":[[-113,-119,187,-104,188,189,190,191,-100]],"properties":{"市区町村名":"函館市","大字名":"蛾眉野町","丁目名":null,"小字名":null,"地番":"道-169","精度区分":null,"座標系":"任意座標系"}},{"type":"Polygon","arcs":[[192,193,194,-165,195,-66]],"properties":{"市区町村名":"函館市","大字名":"蛾眉野町","丁目名":null,"小字名":null,"地番":"道-178","精度区分":null,"座標系":"任意座標系"}},{"type":"Polygon","arcs":[[-31,196,-36,197]],"properties":{"市区町村名":"函館市","大字名":"蛾眉野町","丁目名":null,"小字名":null,"地番":"道-184","精度区分":null,"座標系":"任意座標系"}},{"type":"Polygon","arcs":[[-59,198,-57,199,-60,200,-62,201,-64,202,203,-51,204,205]],"properties":{"市区町村名":"函館市","大字名":"蛾眉野町","丁目名":null,"小字名":null,"地番":"道-185","精度区分":null,"座標系":"任意座標系"}},{"type":"Polygon","arcs":[[206,-54,-45]],"properties":{"市区町村名":"函館市","大字名":"蛾眉野町","丁目名":null,"小字名":null,"地番":"道-187","精度区分":null,"座標系":"任意座標系"}},{"type":"Polygon","arcs":[[-161,-163,-162,-158,207,-128,-144,-146,208,-127,-138,-141,-139,-125,-120,-133,-147,-137,-150,209,-154,-155]],"properties":{"市区町村名":"函館市","大字名":"蛾眉野町","丁目名":null,"小字名":null,"地番":"水-1","精度区分":null,"座標系":"任意座標系"}},{"type":"Polygon","arcs":[[-204,210,-52]],"properties":{"市区町村名":"函館市","大字名":"蛾眉野町","丁目名":null,"小字名":null,"地番":"水-4","精度区分":null,"座標系":"任意座標系"}},{"type":"Polygon","arcs":[[-201,-63]],"properties":{"市区町村名":"函館市","大字名":"蛾眉野町","丁目名":null,"小字名":null,"地番":"水-5","精度区分":null,"座標系":"任意座標系"}},{"type":"Polygon","arcs":[[-199,-58]],"properties":{"市区町村名":"函館市","大字名":"蛾眉野町","丁目名":null,"小字名":null,"地番":"水-6","精度区分":null,"座標系":"任意座標系"}},{"type":"Polygon","arcs":[[-56,211,-205]],"properties":{"市区町村名":"函館市","大字名":"蛾眉野町","丁目名":null,"小字名":null,"地番":"水-7","精度区分":null,"座標系":"任意座標系"}},{"type":"Polygon","arcs":[[-122,212,-148,-134]],"properties":{"市区町村名":"函館市","大字名":"蛾眉野町","丁目名":null,"小字名":null,"地番":"水-8","精度区分":null,"座標系":"任意座標系"}},{"type":"Polygon","arcs":[[213,-191]],"properties":{"市区町村名":"函館市","大字名":"蛾眉野町","丁目名":null,"小字名":null,"地番":"水-13","精度区分":null,"座標系":"任意座標系"}},{"type":"Polygon","arcs":[[-179,214,-189,-106,215]],"properties":{"市区町村名":"函館市","大字名":"蛾眉野町","丁目名":null,"小字名":null,"地番":"水-87","精度区分":null,"座標系":"任意座標系"}},{"type":"Polygon","arcs":[[-182,-49,216,-194,217,-176,-173,-185,218,-40]],"properties":{"市区町村名":"函館市","大字名":"蛾眉野町","丁目名":null,"小字名":null,"地番":"水-92","精度区分":null,"座標系":"任意座標系"}},{"type":"Polygon","arcs":[[-22,219]],"properties":{"市区町村名":"函館市","大字名":"東畑町","丁目名":null,"小字名":null,"地番":"180","精度区分":null,"座標系":"任意座標系"}},{"type":"Polygon","arcs":[[-19,220,-11,-23]],"properties":{"市区町村名":"函館市","大字名":"東畑町","丁目名":null,"小字名":null,"地番":"無地番-1","精度区分":null,"座標系":"任意座標系"}},{"type":"Polygon","arcs":[[221,222]],"properties":{"市区町村名":"函館市","大字名":"東畑町","丁目名":null,"小字名":null,"地番":"182-5","精度区分":null,"座標系":"任意座標系"}},{"type":"Polygon","arcs":[[223,-223,224,-4,225]],"properties":{"市区町村名":"函館市","大字名":"東畑町","丁目名":null,"小字名":null,"地番":"182-8","精度区分":null,"座標系":"任意座標系"}},{"type":"Polygon","arcs":[[226,-226,-3]],"properties":{"市区町村名":"函館市","大字名":"東畑町","丁目名":null,"小字名":null,"地番":"182-9","精度区分":null,"座標系":"任意座標系"}},{"type":"Polygon","arcs":[[-17,227,-227,-6,228]],"properties":{"市区町村名":"函館市","大字名":"東畑町","丁目名":null,"小字名":null,"地番":"182-3","精度区分":null,"座標系":"任意座標系"}},{"type":"Polygon","arcs":[[229,-15,-1,-14,230]],"properties":{"市区町村名":"函館市","大字名":"東畑町","丁目名":null,"小字名":null,"地番":"181-2","精度区分":null,"座標系":"任意座標系"}},{"type":"Polygon","arcs":[[231,-9,232]],"properties":{"市区町村名":"函館市","大字名":"東畑町","丁目名":null,"小字名":null,"地番":"無地番-10","精度区分":null,"座標系":"任意座標系"}},{"type":"Polygon","arcs":[[233,234,235,-25,236]],"properties":{"市区町村名":"函館市","大字名":"鉄山町","丁目名":null,"小字名":null,"地番":"45","精度区分":null,"座標系":"任意座標系"}},{"type":"Polygon","arcs":[[237,-231,238,-234]],"properties":{"市区町村名":"函館市","大字名":"鉄山町","丁目名":null,"小字名":null,"地番":"45-5","精度区分":null,"座標系":"任意座標系"}},{"type":"Polygon","arcs":[[239,-235,-239,-13]],"properties":{"市区町村名":"函館市","大字名":"鉄山町","丁目名":null,"小字名":null,"地番":"水-9","精度区分":null,"座標系":"任意座標系"}},{"type":"Polygon","arcs":[[-236,-240,-220,-30,-7,-26]],"properties":{"市区町村名":"函館市","大字名":"鉄山町","丁目名":null,"小字名":null,"地番":"45-4","精度区分":null,"座標系":"任意座標系"}},{"type":"Polygon","arcs":[[-28,240,241]],"properties":{"市区町村名":"函館市","大字名":"鉄山町","丁目名":null,"小字名":null,"地番":"無地番-303","精度区分":null,"座標系":"任意座標系"}},{"type":"Polygon","arcs":[[-232,242,-241,-27]],"properties":{"市区町村名":"函館市","大字名":"鉄山町","丁目名":null,"小字名":null,"地番":"45-2W1","精度区分":null,"座標系":"任意座標系"}}]}},"arcs":[[[79528,851627],[-1191,-12058],[-3434,-34447],[-2146,-21961],[-3086,-32049]],[[69671,751112],[325,13079],[413,20539],[120,23494],[597,18051],[5246,14810],[3156,10542]],[[55607,822111],[-3321,-8813],[-3939,-10435],[-2966,-18271],[-556,-3294],[-579,-8535],[-2005,-1504],[-961,4087],[-1996,-2090],[-2113,686],[-4924,-4213],[-2875,-1494]],[[29372,768235],[-74,542],[-4429,33639]],[[24869,802416],[2754,5047],[3473,5499],[2420,2420],[1081,3660],[2083,6614],[2755,5287],[7962,15561],[2450,7270],[4753,-6920],[8778,-1630]],[[63378,845224],[697,-5402],[-591,-5880],[-1581,-4919],[-2546,-2856],[-3750,-4056]],[[90299,956232],[-1197,-11898]],[[89102,944334],[279,8743],[918,3155]],[[92220,980519],[334,-1376]],[[92554,979143],[-326,-3042]],[[92228,976101],[-339,1507]],[[91889,977608],[-2367,9810],[991,544],[1707,-7443]],[[80976,861551],[-728,-7614]],[[80248,853937],[-720,-2310]],[[69671,751112],[-71,-1808]],[[69600,749304],[-994,-8]],[[68606,749296],[323,14882],[493,20428],[89,23544],[744,19270],[1234,3400]],[[71489,830820],[4119,11840],[4622,15369],[102,2358],[-2346,5205],[598,13268],[4390,15873],[2002,13419],[2995,32035],[511,13873],[1641,5363]],[[90123,959423],[713,2280]],[[90836,961703],[-537,-5471]],[[89102,944334],[-4173,-42766]],[[84929,901568],[-1123,-7889],[-284,-1163],[-3994,-14405],[-560,-11422],[1611,-4116],[397,-1022]],[[90836,961703],[1392,14398]],[[92228,976101],[66,-437],[-826,-12185],[-632,-1776]],[[93201,974469],[-139,-1489],[-823,-9824],[-1203,-4316]],[[91036,958840],[-737,-2608]],[[92554,979143],[364,-1615]],[[92918,977528],[281,-1277]],[[93199,976251],[2,-1782]],[[89102,944334],[-173,-4725],[-1566,-15417],[-1488,-16282],[-946,-6342]],[[672501,719911],[-3957,19728]],[[668544,739639],[2002,5850],[1939,-9803],[16,-15775]],[[672504,716860],[13,-12367]],[[672517,704493],[-7128,3290],[-6076,27856]],[[659313,735639],[8910,2765]],[[668223,738404],[4281,-21544]],[[606320,753235],[372,-2034],[2532,-6410],[8622,-8801],[5377,-996],[2774,-1518],[2358,-2647],[5643,-1867],[5305,2340],[4861,6036],[7114,-3661],[7720,493],[6040,-27825],[7090,-3131],[392,-1483]],[[672520,701731],[203,-196231],[-10175,-75]],[[662548,505425],[-887,7566],[-1023,18535],[-6927,10778],[-14798,18765],[-4557,4501],[-5523,5142],[-5485,1608],[-5404,8163],[-20485,22799],[-12520,2323],[-2311,5401],[-2141,4359],[-15665,3183],[-9446,-7094],[-2315,152],[-8959,10349]],[[544102,621955],[1283,6337],[4940,6023],[2933,25393],[5385,9749],[-4337,15386]],[[554306,684843],[31771,19428],[2179,-118],[22104,-1173],[501,-61],[-6017,40446],[-385,9856],[1861,14]],[[588184,256660],[7425,54]],[[595609,256714],[995,-3352],[9737,-1283],[-622,4709]],[[605719,256788],[67262,493],[131,-126735]],[[673112,130546],[-185,-20]],[[672927,130526],[-668,29517],[-3878,19875],[-6828,4225],[-4731,2718],[-5632,14435],[-4671,3496],[-1635,1931],[-3142,10179],[-5993,9769],[-9746,9742],[-1038,1579],[-3592,-1808],[-5366,-8135],[-4058,747],[-8025,6192],[-1695,1477],[-2672,3284],[-11373,16911]],[[543712,620761],[9216,-10690],[2461,-178],[9459,7088],[15374,-2990],[2039,-4065],[2491,-5794],[12609,-2264],[20309,-22829],[5569,-8074],[5357,-1708],[5572,-4896],[4525,-4618],[14720,-18766],[6735,-10285],[977,-17935],[862,-7336]],[[661987,505421],[-115943,-849]],[[546044,504572],[48,281],[-5296,18213],[-2252,7604],[215,15897],[150,22516],[1291,8929],[1480,29276],[2032,13473]],[[595609,256714],[10110,74]],[[561280,147167],[-1552,1558],[1902,15814],[-3989,9462],[-14069,32906]],[[543572,206907],[-114,8663],[-1883,4664],[1751,13954],[2736,4994],[1555,2877],[2165,9584],[-1381,4725]],[[548401,256368],[39783,292]],[[672927,130526],[186,-639]],[[673113,129887],[88,-85083]],[[673201,44804],[-476,1337],[-3606,1022],[-21411,37886],[-4286,3208],[-6280,10175],[-2816,-1593],[-6171,7238],[-6143,348],[-14960,19324],[-3488,892],[-2654,5185],[-3612,-1880],[-3131,4133],[-7541,3016],[-14642,11519],[-1830,5116],[-8874,-4563]],[[626222,13595],[-4751,8037],[-10341,17415],[-8027,9536],[-12750,16172],[-4370,1701],[-3703,6994]],[[582280,73450],[-10718,22666]],[[571562,96116],[-1884,33867],[-4823,13357],[2219,981],[13807,-12253],[13522,-8165],[13426,-13835],[14536,-14991],[4228,1162],[12354,-11332],[18907,-25900],[4373,-11790],[-2086,-5568],[-5213,-13577],[-2304,-5092],[-5130,-10420],[-982,-3694],[-1662,-6235],[-1131,-1654],[-7363,4148],[-4798,3631],[-5336,4839]],[[570165,78213],[-4041,-2245],[40,-13220],[-1267,-9436],[-587,-4489],[-1208,-9028],[-3825,-13461],[-4818,3076],[-2925,-917],[-2243,-558],[-2508,-1315],[-1956,-3267],[-1691,-2698],[-2593,-4403],[-1329,-8172],[-425,-2139],[-5634,-3935]],[[533155,2006],[-6,6029],[-194,187346]],[[532955,195381],[7558,15947]],[[540513,211328],[-49,-13819],[4864,-14877],[7401,-17637],[-2878,-7449],[1330,-11047],[9973,-12262],[5120,-11345],[-93,-15482],[1298,-13791],[2686,-15406]],[[543509,256332],[1764,-6264],[-5370,-9661],[-1905,-18222],[1841,-8499],[-6888,-14537]],[[532951,199149],[-59,57106],[10617,77]],[[538935,752741],[31,-17817],[3041,-4081],[-5244,-35589],[14794,-22639],[-11715,-47194],[-7238,-91793]],[[532604,533628],[-227,219065],[6558,48]],[[739635,915806],[-4380,-12694]],[[735255,903112],[-40090,-293],[116,3153],[2427,34455],[4040,17955],[1434,18220],[746,10878],[5625,562],[4260,2365],[7723,-14966],[9068,-17026],[6615,-31300],[2416,-11309]],[[739635,915806],[15484,18353]],[[755119,934159],[1218,-30892]],[[756337,903267],[-21082,-155]],[[765497,906350],[-748,4840]],[[764749,911190],[2482,3358],[2186,2858],[3739,4921],[1564,1330]],[[774720,923657],[1128,-5453]],[[775848,918204],[-5540,-5331],[-1632,-2197],[-3179,-4326]],[[770934,942124],[3786,-18467]],[[764749,911190],[-3759,24883]],[[760990,936073],[5114,-2043],[4830,8094]],[[755119,934159],[3787,2748],[2084,-834]],[[764749,911190],[-2970,-3576],[-3567,-4333]],[[758212,903281],[-1875,-14]],[[765946,903337],[-449,3013]],[[775848,918204],[3072,-14772]],[[778920,903432],[-12974,-95]],[[765497,906350],[-847,-1184],[-1932,-1852]],[[762718,903314],[-4506,-33]],[[765946,903337],[-3228,-23]],[[777766,925769],[-5373,16905]],[[772393,942674],[13616,4962],[2051,-2273],[11535,-13263]],[[799595,932100],[1999,-12514]],[[801594,919586],[-7922,1771],[-7745,3742],[-5220,1685],[-2941,-1015]],[[774720,923657],[2458,1931],[588,181]],[[777766,925769],[1901,-5996]],[[779667,919773],[-339,49],[-3480,-1618]],[[770934,942124],[1459,550]],[[801594,919586],[1239,-7828]],[[802833,911758],[-1088,1273],[-4323,790],[-4361,2000],[-3687,2106],[-5840,2203],[-1974,-1853],[-1893,1496]],[[802833,911758],[732,-4544]],[[803565,907214],[-3833,-3529],[-3399,3312],[-3214,-1325],[-1199,-624],[-2088,-1536]],[[789832,903512],[-4957,-36]],[[784875,903476],[-5208,16297]],[[784875,903476],[-5955,-44]],[[817461,916670],[2910,2707],[1350,2306]],[[821721,921683],[11,-10353]],[[821732,911330],[-4271,5340]],[[816348,942613],[338,-12020]],[[816686,930593],[-2028,-1046],[-1325,-3230],[-2547,-409],[-3623,-3655],[-3844,-1319],[-1725,-1348]],[[799595,932100],[4816,3167],[4681,3253],[7256,4093]],[[816686,930593],[244,-7448]],[[816930,923145],[-2483,-2638],[-1259,-4488],[-3128,-3406],[-6150,-2318],[-1077,1463]],[[816930,923145],[155,-4742]],[[817085,918403],[-10280,-11643],[-3240,454]],[[821708,934482],[-4766,-5125],[-256,1236]],[[816348,942613],[5348,3085],[12,-11216]],[[821708,934482],[6,-5792]],[[821714,928690],[-4784,-5545]],[[821714,928690],[4,-4604]],[[821718,924086],[-1670,-2932],[-2963,-2751]],[[970691,730403],[-38,-9240]],[[970653,721163],[-5113,3698],[-1260,7712]],[[964280,732573],[2067,-986],[-445,2066]],[[965902,733653],[1154,700],[1408,-873],[2227,-3077]],[[976027,700261],[2100,9345],[-7474,11557]],[[970653,721163],[7092,-1071]],[[977745,720092],[1913,-7352],[1983,-6843]],[[981641,705897],[-5614,-5636]],[[987081,708309],[-74,7277],[-1523,9534],[2051,1148]],[[987535,726268],[2766,-32758]],[[990301,693510],[-314,-151],[-2543,9086],[-110,5249],[-253,615]],[[969170,780321],[14206,-794],[6801,-11578],[3900,-18487]],[[994077,749462],[-4202,546],[-5619,13575],[-6046,5613],[-9040,11125]],[[970744,739953],[-53,-9550]],[[965902,733653],[-3027,14245]],[[962875,747898],[446,-140],[3643,-4977],[2160,-1189],[1620,-1639]],[[967899,753292],[-1119,1499]],[[966780,754791],[828,-462],[291,-1037]],[[983882,708091],[-2241,-2194]],[[977745,720092],[3439,-541]],[[981184,719551],[1705,-6787],[993,-4673]],[[981184,719551],[2095,-287],[1158,-4877],[-171,-5864],[-384,-432]],[[990301,693510],[169,-1876],[-1632,-613]],[[988838,691021],[-2537,9425],[-1071,-1695],[-170,2218]],[[985060,700969],[2033,2576],[-12,4764]],[[988838,691021],[-3057,-1209]],[[985781,689812],[-407,174],[-3427,2525],[-2686,989],[5799,7469]],[[967899,753292],[2863,-10841],[-18,-2498]],[[962875,747898],[-888,4253]],[[961987,752151],[-6,5819]],[[961981,757970],[4799,-3179]],[[961973,765849],[-14,12977]],[[961959,778826],[3498,-1914],[3619,1334]],[[969076,778246],[1254,-17840]],[[970330,760406],[-8357,5443]],[[973725,745547],[-20,491],[-3375,14368]],[[969076,778246],[8869,-10841],[5927,-5430],[5733,-13891],[4511,-624]],[[994116,747460],[3499,-8735]],[[997615,738725],[-10577,-4930],[-6340,-6142]],[[980698,727653],[-165,561],[-1008,1723],[-1358,5040],[-1063,3849],[-3379,6721]],[[978464,726680],[-2923,6464],[-2178,2468]],[[973363,735612],[362,9935]],[[980698,727653],[-1267,-1257],[-967,284]],[[978464,726680],[-5325,1906],[224,7026]],[[540846,504534],[-8211,-60],[-24,22817]],[[532611,527291],[8235,-22757]],[[547800,752806],[1312,10]],[[549112,752816],[1094,-10901]],[[550206,741915],[-1664,1608]],[[548542,743523],[-742,9283]],[[550206,741915],[-1080,-5377]],[[549126,736538],[-188,2050],[-396,4935]],[[549126,736538],[-216,-1066]],[[548910,735472],[-313,3160],[-456,5217]],[[548141,743849],[-718,8955]],[[547423,752804],[377,2]],[[548141,743849],[-2351,2255],[-924,6681]],[[544866,752785],[2557,19]],[[817778,903717],[-1092,-8]],[[816686,903709],[553,450],[539,-442]],[[606320,753235],[608,4],[281,-1535],[2248,-5679],[8475,-8567],[5304,-933],[2750,-1354],[2390,-2911],[5491,-1823],[5243,2434],[4947,6011],[7302,-3832],[7954,589]],[[672517,704493],[3,-2762]],[[543712,620761],[390,1194]],[[662548,505425],[-561,-4]],[[549112,752816],[577,4],[1116,-11068],[-8338,-42305]],[[542467,699447],[-507,625],[6950,35400]],[[961959,778826],[0,172],[224,697],[96,982],[3155,-1800],[3736,1444]],[[994077,749462],[-6,-882],[45,-1120]],[[821718,924086],[3,-2403]],[[817461,916670],[-10460,-11937],[-3331,412],[-1725,-1544]],[[801945,903601],[-4269,-31]],[[797676,903570],[-1363,1345],[-3255,-1379]],[[793058,903536],[-3226,-24]],[[538935,752741],[1108,8]],[[540043,752749],[59,-15683],[3298,-4777],[-5290,-35493],[15186,-22882],[-12403,-50072],[-7478,-94189],[9029,-25107]],[[542444,504546],[-1598,-12]],[[532611,527291],[-7,6337]],[[672501,719911],[3,-3051]],[[668223,738404],[-2492,2072],[175,1110],[2638,-1947]],[[571562,96116],[639,-11811],[5286,-5207],[4793,-5648]],[[626222,13595],[-110,-668],[-2094,3520],[-6431,10693],[-2664,4453],[-2241,3780],[-1698,2806],[-4975,6011],[-2935,3547],[-4027,5190],[-6018,7477],[-2741,3367],[-2268,790],[-2163,1045],[-1098,2100],[-1230,2344],[-1357,2653],[-2893,3335],[-1883,2184],[-5308,5034],[-1407,-5178],[-619,-1503],[-3422,-1970],[49,-13220],[-1206,-8611],[-2077,-14980],[-3799,-13083],[-5253,3473],[-2765,-987],[-2172,-464],[-2446,-1301],[-3612,-5718],[-1195,-2081],[-1272,-2178],[-1174,-7372],[-591,-2894],[-5970,-4254],[-2,1071]],[[570165,78213],[1032,4177],[-2637,46578],[-5076,14018],[-4733,4432],[1952,16514],[-20190,47396]],[[532955,195381],[-4,3768]],[[543509,256332],[1483,11]],[[544992,256343],[2015,-6938],[-6149,-11259],[-1689,-15367],[2333,-10665],[2070,-5207]],[[561280,147167],[2432,-2401],[3398,1475],[13863,-12128],[13588,-8265],[13523,-13916],[14429,-14792],[4215,1112],[12493,-11581],[19113,-26014],[4969,-13349],[9906,-10617]],[[673209,36691],[1,-632],[-10399,11206],[-1237,-3178],[-3016,-7956],[-3366,-8787],[-2187,-4954],[-3322,-6832],[-1895,-4047],[-729,-2642],[-1794,-6488],[-1437,-2381],[-7515,4307],[-3998,2928],[-1661,1514],[-2124,1947],[-2418,2231],[110,668]],[[673112,130546],[1,-659]],[[997615,738725],[2384,-5844],[-12464,-6613]],[[985781,689812],[-3768,-3222],[-8009,4786],[2023,8885]],[[961981,757970],[-8,7879]],[[544992,256343],[3409,25]],[[673201,44804],[8,-8113]],[[964280,732573],[-2278,5154],[-15,14424]],[[797676,903570],[-4618,-34]],[[816686,903709],[-14741,-108]],[[821732,911330],[8,-7584],[-3962,-29]],[[546044,504572],[-3600,-26]],[[540043,752749],[4823,36]],[[542467,699447],[11839,-14604]],[[84929,901568],[-3953,-40017]],[[90123,959423],[1766,18185]],[[20874,704248],[-19728,10476],[-1146,3921],[14157,30253],[2841,5639],[2017,4010]],[[19015,758547],[826,-9608],[2620,-32611],[-1587,-12080]],[[39398,701343],[-8161,-19849],[-8308,3306],[-2055,19448]],[[19015,758547],[-1003,25198],[499,7033],[6358,11638]],[[29372,768235],[545,-3969],[562,-4363],[869,-6671],[662,-4204],[7388,-47685]],[[55607,822111],[2326,-17836],[-1993,-4744],[-935,-5622],[-400,-2261],[-1017,-15327],[-305,-4794],[-2999,-9451],[-4133,-12944],[-824,-4672],[-2139,-19697],[-3790,-23420]],[[68606,749296],[-92,-13808],[-10393,-105806],[-3693,-9255],[-3624,-17824],[4277,16667],[2625,6431],[-5292,-53146],[-15584,11377],[3898,20840],[195,9702],[11391,46642],[-4033,152],[-3818,29683],[-5065,10392]],[[63378,845224],[-397,2989],[119,3066],[3136,4974],[5253,-25433]],[[69656,742190],[-56,7114]],[[80248,853937],[-2828,-29480],[-7397,-75153],[-367,-7114]],[[93190,985252],[-636,-6109]],[[92220,980519],[883,9059],[82,-59],[5,-4267]],[[69471,735424],[978,13885],[10500,107164]],[[80949,856473],[885,3003],[-494,1243]],[[81340,860719],[4411,44906],[3372,33980],[1913,19235]],[[93201,974469],[1822,15010],[8044,1603],[6069,1083],[2695,1890],[4004,3808],[1859,2136],[990,-2115],[10144,-21556],[8837,-34306],[10157,-3692],[16172,-6188],[2147,-34842],[6517,-30376],[11407,-27753],[8690,-10796],[2636,24316],[28153,-10925],[2650,-23430],[-944,-11424],[-1811,-38703],[136,-4330],[1227,-9991],[603,-3443],[5316,-32076],[-41710,-49365],[-29807,-21411],[-17321,8847],[-48265,-84127],[-42227,-71363],[-5948,-10250],[13554,138048],[3462,8104],[2558,27192],[3698,22489],[967,17670],[2633,21701],[-2844,9520]],[[69471,735424],[185,6766]],[[80248,853937],[701,2536]],[[80976,861551],[364,-832]],[[92918,977528],[277,2950]],[[93195,980478],[4,-4227]],[[93190,985252],[5,-4774]]],"bbox":[52139.54,-247784.757,61873.017,-244122.606],"transform":{"scale":[0.009733486733486733,0.0036621546621546748],"translate":[52139.54,-247784.757]}}