{"type":"Topology","objects":{"01202-4400-91.featurecollection":{"type":"GeometryCollection","geometries":[{"type":"Polygon","arcs":[[0,1,2,3,4]],"properties":{"市区町村名":"函館市","大字名":"銅山町","丁目名":null,"小字名":null,"地番":"68","精度区分":null,"座標系":"任意座標系"}},{"type":"Polygon","arcs":[[5,-1,6,7]],"properties":{"市区町村名":"函館市","大字名":"銅山町","丁目名":null,"小字名":null,"地番":"69","精度区分":null,"座標系":"任意座標系"}},{"type":"Polygon","arcs":[[-8,8]],"properties":{"市区町村名":"函館市","大字名":"銅山町","丁目名":null,"小字名":null,"地番":"70","精度区分":null,"座標系":"任意座標系"}},{"type":"Polygon","arcs":[[9,-6,10]],"properties":{"市区町村名":"函館市","大字名":"銅山町","丁目名":null,"小字名":null,"地番":"71","精度区分":null,"座標系":"任意座標系"}},{"type":"Polygon","arcs":[[11,12,-2,-10]],"properties":{"市区町村名":"函館市","大字名":"銅山町","丁目名":null,"小字名":null,"地番":"72","精度区分":null,"座標系":"任意座標系"}},{"type":"Polygon","arcs":[[-3,-13,13,14]],"properties":{"市区町村名":"函館市","大字名":"銅山町","丁目名":null,"小字名":null,"地番":"73","精度区分":null,"座標系":"任意座標系"}},{"type":"Polygon","arcs":[[15,16,17]],"properties":{"市区町村名":"函館市","大字名":"銅山町","丁目名":null,"小字名":null,"地番":"74","精度区分":null,"座標系":"任意座標系"}},{"type":"Polygon","arcs":[[18,19,20,21,22,-18,23]],"properties":{"市区町村名":"函館市","大字名":"銅山町","丁目名":null,"小字名":null,"地番":"75","精度区分":null,"座標系":"任意座標系"}},{"type":"Polygon","arcs":[[24,-19,25]],"properties":{"市区町村名":"函館市","大字名":"銅山町","丁目名":null,"小字名":null,"地番":"76","精度区分":null,"座標系":"任意座標系"}},{"type":"Polygon","arcs":[[26,27,28,29]],"properties":{"市区町村名":"函館市","大字名":"銅山町","丁目名":null,"小字名":null,"地番":"78","精度区分":null,"座標系":"任意座標系"}},{"type":"Polygon","arcs":[[30,31,32,33,34,35]],"properties":{"市区町村名":"函館市","大字名":"銅山町","丁目名":null,"小字名":null,"地番":"79-1","精度区分":null,"座標系":"任意座標系"}},{"type":"Polygon","arcs":[[-27,36,-36,37]],"properties":{"市区町村名":"函館市","大字名":"銅山町","丁目名":null,"小字名":null,"地番":"79-2","精度区分":null,"座標系":"任意座標系"}},{"type":"Polygon","arcs":[[38,39,40,41,42,43]],"properties":{"市区町村名":"函館市","大字名":"銅山町","丁目名":null,"小字名":null,"地番":"80-1","精度区分":null,"座標系":"任意座標系"}},{"type":"Polygon","arcs":[[-43,-21,44,45]],"properties":{"市区町村名":"函館市","大字名":"銅山町","丁目名":null,"小字名":null,"地番":"80-2","精度区分":null,"座標系":"任意座標系"}},{"type":"Polygon","arcs":[[-25,-34,46,-45,-20]],"properties":{"市区町村名":"函館市","大字名":"銅山町","丁目名":null,"小字名":null,"地番":"80-3","精度区分":null,"座標系":"任意座標系"}},{"type":"Polygon","arcs":[[-22,-42,47]],"properties":{"市区町村名":"函館市","大字名":"銅山町","丁目名":null,"小字名":null,"地番":"81","精度区分":null,"座標系":"任意座標系"}},{"type":"Polygon","arcs":[[48,49,-39,50,51,52,53]],"properties":{"市区町村名":"函館市","大字名":"銅山町","丁目名":null,"小字名":null,"地番":"82-1","精度区分":null,"座標系":"任意座標系"}},{"type":"Polygon","arcs":[[54,-53,55,56]],"properties":{"市区町村名":"函館市","大字名":"銅山町","丁目名":null,"小字名":null,"地番":"82-2","精度区分":null,"座標系":"任意座標系"}},{"type":"Polygon","arcs":[[57,-54,-55]],"properties":{"市区町村名":"函館市","大字名":"銅山町","丁目名":null,"小字名":null,"地番":"82-4","精度区分":null,"座標系":"任意座標系"}},{"type":"Polygon","arcs":[[58,-40,-50]],"properties":{"市区町村名":"函館市","大字名":"銅山町","丁目名":null,"小字名":null,"地番":"82-5","精度区分":null,"座標系":"任意座標系"}},{"type":"Polygon","arcs":[[59,60,61]],"properties":{"市区町村名":"函館市","大字名":"銅山町","丁目名":null,"小字名":null,"地番":"83-1","精度区分":null,"座標系":"任意座標系"}},{"type":"Polygon","arcs":[[62,63,64,65,-56,-52,66,67,68]],"properties":{"市区町村名":"函館市","大字名":"銅山町","丁目名":null,"小字名":null,"地番":"83-2","精度区分":null,"座標系":"任意座標系"}},{"type":"Polygon","arcs":[[69,70,71,-68]],"properties":{"市区町村名":"函館市","大字名":"銅山町","丁目名":null,"小字名":null,"地番":"83-3","精度区分":null,"座標系":"任意座標系"}},{"type":"Polygon","arcs":[[-70,-67,-51,-44,-46,-47,-33,72]],"properties":{"市区町村名":"函館市","大字名":"銅山町","丁目名":null,"小字名":null,"地番":"83-4","精度区分":null,"座標系":"任意座標系"}},{"type":"Polygon","arcs":[[-72,73,74,-69]],"properties":{"市区町村名":"函館市","大字名":"銅山町","丁目名":null,"小字名":null,"地番":"83-5","精度区分":null,"座標系":"任意座標系"}},{"type":"Polygon","arcs":[[75,-61,76,-63,-75,77]],"properties":{"市区町村名":"函館市","大字名":"銅山町","丁目名":null,"小字名":null,"地番":"83-6","精度区分":null,"座標系":"任意座標系"}},{"type":"Polygon","arcs":[[-74,78,-78]],"properties":{"市区町村名":"函館市","大字名":"銅山町","丁目名":null,"小字名":null,"地番":"83-7","精度区分":null,"座標系":"任意座標系"}},{"type":"Polygon","arcs":[[-32,79,-62,-76,-79,-71,-73]],"properties":{"市区町村名":"函館市","大字名":"銅山町","丁目名":null,"小字名":null,"地番":"83-8","精度区分":null,"座標系":"任意座標系"}},{"type":"Polygon","arcs":[[80,81,82]],"properties":{"市区町村名":"函館市","大字名":"銅山町","丁目名":null,"小字名":null,"地番":"84","精度区分":null,"座標系":"任意座標系"}},{"type":"Polygon","arcs":[[83,84,85,86,-82,87]],"properties":{"市区町村名":"函館市","大字名":"銅山町","丁目名":null,"小字名":null,"地番":"85","精度区分":null,"座標系":"任意座標系"}},{"type":"Polygon","arcs":[[-86,88,89,90]],"properties":{"市区町村名":"函館市","大字名":"銅山町","丁目名":null,"小字名":null,"地番":"86-1","精度区分":null,"座標系":"任意座標系"}},{"type":"Polygon","arcs":[[91,92,93,94,95,96]],"properties":{"市区町村名":"函館市","大字名":"銅山町","丁目名":null,"小字名":null,"地番":"86-2","精度区分":null,"座標系":"任意座標系"}},{"type":"Polygon","arcs":[[97,98,99,100,-97]],"properties":{"市区町村名":"函館市","大字名":"銅山町","丁目名":null,"小字名":null,"地番":"86-3","精度区分":null,"座標系":"任意座標系"}},{"type":"Polygon","arcs":[[-89,-85,101,-92,102,103]],"properties":{"市区町村名":"函館市","大字名":"銅山町","丁目名":null,"小字名":null,"地番":"86-4","精度区分":null,"座標系":"任意座標系"}},{"type":"Polygon","arcs":[[104,105,106,107]],"properties":{"市区町村名":"函館市","大字名":"銅山町","丁目名":null,"小字名":null,"地番":"86-5","精度区分":null,"座標系":"任意座標系"}},{"type":"Polygon","arcs":[[-101,108,-108,109,-103]],"properties":{"市区町村名":"函館市","大字名":"銅山町","丁目名":null,"小字名":null,"地番":"86-6","精度区分":null,"座標系":"任意座標系"}},{"type":"Polygon","arcs":[[-93,-102,110,111]],"properties":{"市区町村名":"函館市","大字名":"銅山町","丁目名":null,"小字名":null,"地番":"86-7","精度区分":null,"座標系":"任意座標系"}},{"type":"Polygon","arcs":[[112,-95,113,-111,-84]],"properties":{"市区町村名":"函館市","大字名":"銅山町","丁目名":null,"小字名":null,"地番":"88-1","精度区分":null,"座標系":"任意座標系"}},{"type":"Polygon","arcs":[[-94,-112,-114]],"properties":{"市区町村名":"函館市","大字名":"銅山町","丁目名":null,"小字名":null,"地番":"88-2","精度区分":null,"座標系":"任意座標系"}},{"type":"Polygon","arcs":[[-113,-88,114,115,116,117,-98,-96]],"properties":{"市区町村名":"函館市","大字名":"銅山町","丁目名":null,"小字名":null,"地番":"89","精度区分":null,"座標系":"任意座標系"}},{"type":"Polygon","arcs":[[118,-65,119,120]],"properties":{"市区町村名":"函館市","大字名":"銅山町","丁目名":null,"小字名":null,"地番":"90","精度区分":null,"座標系":"任意座標系"}},{"type":"Polygon","arcs":[[121,-121]],"properties":{"市区町村名":"函館市","大字名":"銅山町","丁目名":null,"小字名":null,"地番":"91","精度区分":null,"座標系":"任意座標系"}},{"type":"Polygon","arcs":[[122,123]],"properties":{"市区町村名":"函館市","大字名":"銅山町","丁目名":null,"小字名":null,"地番":"92","精度区分":null,"座標系":"任意座標系"}},{"type":"Polygon","arcs":[[124,125,126,127,128,-117,129,130,131,132,133,134,135,136]],"properties":{"市区町村名":"函館市","大字名":"銅山町","丁目名":null,"小字名":null,"地番":"93-1","精度区分":null,"座標系":"任意座標系"}},{"type":"Polygon","arcs":[[137,138,-100,139,140,141]],"properties":{"市区町村名":"函館市","大字名":"銅山町","丁目名":null,"小字名":null,"地番":"93-2","精度区分":null,"座標系":"任意座標系"}},{"type":"Polygon","arcs":[[142,143,-105]],"properties":{"市区町村名":"函館市","大字名":"銅山町","丁目名":null,"小字名":null,"地番":"93-3","精度区分":null,"座標系":"任意座標系"}},{"type":"Polygon","arcs":[[-125,144,-143,-109,-139,145]],"properties":{"市区町村名":"函館市","大字名":"銅山町","丁目名":null,"小字名":null,"地番":"93-4","精度区分":null,"座標系":"任意座標系"}},{"type":"Polygon","arcs":[[-144,-145,-137,146]],"properties":{"市区町村名":"函館市","大字名":"銅山町","丁目名":null,"小字名":null,"地番":"93-5","精度区分":null,"座標系":"任意座標系"}},{"type":"Polygon","arcs":[[-141,-128]],"properties":{"市区町村名":"函館市","大字名":"銅山町","丁目名":null,"小字名":null,"地番":"93-6","精度区分":null,"座標系":"任意座標系"}},{"type":"Polygon","arcs":[[-126,-146,-138]],"properties":{"市区町村名":"函館市","大字名":"銅山町","丁目名":null,"小字名":null,"地番":"93-7","精度区分":null,"座標系":"任意座標系"}},{"type":"Polygon","arcs":[[-142,-127]],"properties":{"市区町村名":"函館市","大字名":"銅山町","丁目名":null,"小字名":null,"地番":"93-8","精度区分":null,"座標系":"任意座標系"}},{"type":"Polygon","arcs":[[-99,-118,-129,-140]],"properties":{"市区町村名":"函館市","大字名":"銅山町","丁目名":null,"小字名":null,"地番":"93-9","精度区分":null,"座標系":"任意座標系"}},{"type":"Polygon","arcs":[[147,148,-106]],"properties":{"市区町村名":"函館市","大字名":"銅山町","丁目名":null,"小字名":null,"地番":"95","精度区分":null,"座標系":"任意座標系"}},{"type":"Polygon","arcs":[[-133,149,150,151]],"properties":{"市区町村名":"函館市","大字名":"銅山町","丁目名":null,"小字名":null,"地番":"96-1","精度区分":null,"座標系":"任意座標系"}},{"type":"Polygon","arcs":[[152,-134,-152]],"properties":{"市区町村名":"函館市","大字名":"銅山町","丁目名":null,"小字名":null,"地番":"96-2","精度区分":null,"座標系":"任意座標系"}},{"type":"Polygon","arcs":[[-132,153,154,155,-150]],"properties":{"市区町村名":"函館市","大字名":"銅山町","丁目名":null,"小字名":null,"地番":"96-3","精度区分":null,"座標系":"任意座標系"}},{"type":"Polygon","arcs":[[-151,156,157,158,159]],"properties":{"市区町村名":"函館市","大字名":"銅山町","丁目名":null,"小字名":null,"地番":"97-1","精度区分":null,"座標系":"任意座標系"}},{"type":"Polygon","arcs":[[160,-148,-147,161,162,163]],"properties":{"市区町村名":"函館市","大字名":"銅山町","丁目名":null,"小字名":null,"地番":"97-2","精度区分":null,"座標系":"任意座標系"}},{"type":"Polygon","arcs":[[164,165,166]],"properties":{"市区町村名":"函館市","大字名":"銅山町","丁目名":null,"小字名":null,"地番":"97-3","精度区分":null,"座標系":"任意座標系"}},{"type":"Polygon","arcs":[[167,168,169,-164,170,-166]],"properties":{"市区町村名":"函館市","大字名":"銅山町","丁目名":null,"小字名":null,"地番":"97-4","精度区分":null,"座標系":"任意座標系"}},{"type":"Polygon","arcs":[[171,172,-162,-136,173,-159]],"properties":{"市区町村名":"函館市","大字名":"銅山町","丁目名":null,"小字名":null,"地番":"97-5","精度区分":null,"座標系":"任意座標系"}},{"type":"Polygon","arcs":[[-174,-135,-153,-160]],"properties":{"市区町村名":"函館市","大字名":"銅山町","丁目名":null,"小字名":null,"地番":"97-6","精度区分":null,"座標系":"任意座標系"}},{"type":"Polygon","arcs":[[174,175,176,177,178,179]],"properties":{"市区町村名":"函館市","大字名":"銅山町","丁目名":null,"小字名":null,"地番":"97-7","精度区分":null,"座標系":"任意座標系"}},{"type":"Polygon","arcs":[[180,-177,181]],"properties":{"市区町村名":"函館市","大字名":"銅山町","丁目名":null,"小字名":null,"地番":"97-8","精度区分":null,"座標系":"任意座標系"}},{"type":"Polygon","arcs":[[-178,-181,182,-172,-158,183]],"properties":{"市区町村名":"函館市","大字名":"銅山町","丁目名":null,"小字名":null,"地番":"97-9","精度区分":null,"座標系":"任意座標系"}},{"type":"Polygon","arcs":[[-156,184,185,-180,186,187,-157]],"properties":{"市区町村名":"函館市","大字名":"銅山町","丁目名":null,"小字名":null,"地番":"97-10","精度区分":null,"座標系":"任意座標系"}},{"type":"Polygon","arcs":[[-188,188,-184]],"properties":{"市区町村名":"函館市","大字名":"銅山町","丁目名":null,"小字名":null,"地番":"97-11","精度区分":null,"座標系":"任意座標系"}},{"type":"Polygon","arcs":[[189,190]],"properties":{"市区町村名":"函館市","大字名":"銅山町","丁目名":null,"小字名":null,"地番":"97-12","精度区分":null,"座標系":"任意座標系"}},{"type":"Polygon","arcs":[[191,192,193,-190,194,-175,-186]],"properties":{"市区町村名":"函館市","大字名":"銅山町","丁目名":null,"小字名":null,"地番":"97-13","精度区分":null,"座標系":"任意座標系"}},{"type":"Polygon","arcs":[[-179,-189,-187]],"properties":{"市区町村名":"函館市","大字名":"銅山町","丁目名":null,"小字名":null,"地番":"97-14","精度区分":null,"座標系":"任意座標系"}},{"type":"Polygon","arcs":[[195,-182,196,197,198,-167,199]],"properties":{"市区町村名":"函館市","大字名":"銅山町","丁目名":null,"小字名":null,"地番":"98-1","精度区分":null,"座標系":"任意座標系"}},{"type":"Polygon","arcs":[[200,-163]],"properties":{"市区町村名":"函館市","大字名":"銅山町","丁目名":null,"小字名":null,"地番":"98-2","精度区分":null,"座標系":"任意座標系"}},{"type":"Polygon","arcs":[[-201,-173,201,-200,-171]],"properties":{"市区町村名":"函館市","大字名":"銅山町","丁目名":null,"小字名":null,"地番":"98-3","精度区分":null,"座標系":"任意座標系"}},{"type":"Polygon","arcs":[[-197,-176,202,-191,-194,203,204]],"properties":{"市区町村名":"函館市","大字名":"銅山町","丁目名":null,"小字名":null,"地番":"98-4","精度区分":null,"座標系":"任意座標系"}},{"type":"Polygon","arcs":[[-202,-183,-196]],"properties":{"市区町村名":"函館市","大字名":"銅山町","丁目名":null,"小字名":null,"地番":"98-5","精度区分":null,"座標系":"任意座標系"}},{"type":"Polygon","arcs":[[-203,-195]],"properties":{"市区町村名":"函館市","大字名":"銅山町","丁目名":null,"小字名":null,"地番":"98-6","精度区分":null,"座標系":"任意座標系"}},{"type":"Polygon","arcs":[[205,-199,206]],"properties":{"市区町村名":"函館市","大字名":"銅山町","丁目名":null,"小字名":null,"地番":"99-1","精度区分":null,"座標系":"任意座標系"}},{"type":"Polygon","arcs":[[-207,-198,-205,207]],"properties":{"市区町村名":"函館市","大字名":"銅山町","丁目名":null,"小字名":null,"地番":"99-2","精度区分":null,"座標系":"任意座標系"}},{"type":"Polygon","arcs":[[-168,-165,-206,208,209,210,211]],"properties":{"市区町村名":"函館市","大字名":"銅山町","丁目名":null,"小字名":null,"地番":"100-1","精度区分":null,"座標系":"任意座標系"}},{"type":"Polygon","arcs":[[212,-169,-212]],"properties":{"市区町村名":"函館市","大字名":"銅山町","丁目名":null,"小字名":null,"地番":"100-2","精度区分":null,"座標系":"任意座標系"}},{"type":"Polygon","arcs":[[213,214,215,-209,-208,-204]],"properties":{"市区町村名":"函館市","大字名":"銅山町","丁目名":null,"小字名":null,"地番":"100-3","精度区分":null,"座標系":"任意座標系"}},{"type":"Polygon","arcs":[[216,217,-214,-193,218]],"properties":{"市区町村名":"函館市","大字名":"銅山町","丁目名":null,"小字名":null,"地番":"100-4","精度区分":null,"座標系":"任意座標系"}},{"type":"Polygon","arcs":[[219,220,-217]],"properties":{"市区町村名":"函館市","大字名":"銅山町","丁目名":null,"小字名":null,"地番":"101-1","精度区分":null,"座標系":"任意座標系"}},{"type":"Polygon","arcs":[[221,222,223,-210]],"properties":{"市区町村名":"函館市","大字名":"銅山町","丁目名":null,"小字名":null,"地番":"101-2","精度区分":null,"座標系":"任意座標系"}},{"type":"Polygon","arcs":[[224,225,-222,-216,226]],"properties":{"市区町村名":"函館市","大字名":"銅山町","丁目名":null,"小字名":null,"地番":"101-3","精度区分":null,"座標系":"任意座標系"}},{"type":"Polygon","arcs":[[-215,-218,-221,227,-227]],"properties":{"市区町村名":"函館市","大字名":"銅山町","丁目名":null,"小字名":null,"地番":"101-4","精度区分":null,"座標系":"任意座標系"}},{"type":"Polygon","arcs":[[228,229,-223,-226]],"properties":{"市区町村名":"函館市","大字名":"銅山町","丁目名":null,"小字名":null,"地番":"102-1","精度区分":null,"座標系":"任意座標系"}},{"type":"Polygon","arcs":[[230,231,232,233,-230]],"properties":{"市区町村名":"函館市","大字名":"銅山町","丁目名":null,"小字名":null,"地番":"102-2","精度区分":null,"座標系":"任意座標系"}},{"type":"Polygon","arcs":[[234,235]],"properties":{"市区町村名":"函館市","大字名":"銅山町","丁目名":null,"小字名":null,"地番":"102-3","精度区分":null,"座標系":"任意座標系"}},{"type":"Polygon","arcs":[[236,-233,237,-235]],"properties":{"市区町村名":"函館市","大字名":"銅山町","丁目名":null,"小字名":null,"地番":"102-4","精度区分":null,"座標系":"任意座標系"}},{"type":"Polygon","arcs":[[-229,-225,238]],"properties":{"市区町村名":"函館市","大字名":"銅山町","丁目名":null,"小字名":null,"地番":"102-5","精度区分":null,"座標系":"任意座標系"}},{"type":"Polygon","arcs":[[-124,239,240,-122,-120,-64,241]],"properties":{"市区町村名":"函館市","大字名":"銅山町","丁目名":null,"小字名":null,"地番":"無地番-4","精度区分":null,"座標系":"任意座標系"}},{"type":"Polygon","arcs":[[242,-131,243]],"properties":{"市区町村名":"函館市","大字名":"銅山町","丁目名":null,"小字名":null,"地番":"無地番-5","精度区分":null,"座標系":"任意座標系"}},{"type":"Polygon","arcs":[[244,-154,-243]],"properties":{"市区町村名":"函館市","大字名":"銅山町","丁目名":null,"小字名":null,"地番":"無地番-266","精度区分":null,"座標系":"任意座標系"}},{"type":"Polygon","arcs":[[-81,245,-115]],"properties":{"市区町村名":"函館市","大字名":"銅山町","丁目名":null,"小字名":null,"地番":"無地番-267","精度区分":null,"座標系":"任意座標系"}},{"type":"Polygon","arcs":[[-4,-15,246,247]],"properties":{"市区町村名":"函館市","大字名":"銅山町","丁目名":null,"小字名":null,"地番":"無地番-268","精度区分":null,"座標系":"任意座標系"}},{"type":"Polygon","arcs":[[-38,-35,-26,-24,-17,-28]],"properties":{"市区町村名":"函館市","大字名":"銅山町","丁目名":null,"小字名":null,"地番":"筆界未定地-157","精度区分":null,"座標系":"任意座標系"}},{"type":"Polygon","arcs":[[-119,-241,248,249,250,-247,-14,251,-29,-16,-23,-48,-41,-59,-49,-58,-57,-66]],"properties":{"市区町村名":"函館市","大字名":"銅山町","丁目名":null,"小字名":null,"地番":"道-105","精度区分":null,"座標系":"任意座標系"}},{"type":"Polygon","arcs":[[-250,252,-130,-116,-246,-83,253,254,255,256]],"properties":{"市区町村名":"函館市","大字名":"銅山町","丁目名":null,"小字名":null,"地番":"水-1","精度区分":null,"座標系":"任意座標系"}},{"type":"Polygon","arcs":[[257,-255,258]],"properties":{"市区町村名":"函館市","大字名":"銅山町","丁目名":null,"小字名":null,"地番":"82-3","精度区分":null,"座標系":"任意座標系"}},{"type":"Polygon","arcs":[[259,-256,-258]],"properties":{"市区町村名":"函館市","大字名":"銅山町","丁目名":null,"小字名":null,"地番":"82-6","精度区分":null,"座標系":"任意座標系"}},{"type":"Polygon","arcs":[[260,261]],"properties":{"市区町村名":"函館市","大字名":"銅山町","丁目名":null,"小字名":null,"地番":"103-10","精度区分":null,"座標系":"任意座標系"}},{"type":"Polygon","arcs":[[-107,-149,-161,-170,-213,-211,-224,-234,-237,-236,-238,-232,262,-262,263,-90,-104,-110]],"properties":{"市区町村名":"函館市","大字名":"銅山町","丁目名":null,"小字名":null,"地番":"道-107","精度区分":null,"座標系":"任意座標系"}}]}},"arcs":[[[103740,0],[-3138,44442]],[[100602,44442],[50605,32250]],[[151207,76692],[9323,-23571]],[[160530,53121],[-10426,-16958]],[[150104,36163],[-20872,-16284],[-25492,-19879]],[[100010,116710],[592,-72268]],[[103740,0],[-45912,42034]],[[57828,42034],[42182,74676]],[[57828,42034],[-9466,16064],[-11338,-6546],[-37024,-2121],[6325,32761],[47462,17546],[46223,16972]],[[172679,144907],[-31999,-44699],[-40078,-55766]],[[100010,116710],[17560,53492],[39484,14882],[15625,-40177]],[[172679,144907],[17303,-43134]],[[189982,101773],[-38775,-25081]],[[189982,101773],[3800,-15928]],[[193782,85845],[-33252,-32724]],[[226803,103227],[-12186,-9257],[-14774,-11243],[-13602,56736],[-13450,56225]],[[172791,195688],[740,-857],[17946,-23004],[12042,-15565]],[[203519,156262],[23284,-53035]],[[220102,180645],[8678,-70],[8133,7006],[825,900],[6128,9235],[4357,10887]],[[248223,208603],[8432,-6454]],[[256655,202149],[21728,-16851],[797,-345]],[[279180,184953],[14138,-22489]],[[293318,162464],[-7955,-3670],[-29821,-24361],[-28739,-31206]],[[203519,156262],[16583,24383]],[[242130,213119],[6093,-4516]],[[220102,180645],[22028,32474]],[[207457,285293],[-10456,-40195]],[[197001,245098],[-10563,6745],[-4891,-24333],[4208,-6402],[-12964,-25420]],[[172791,195688],[-15880,27188]],[[156911,222876],[19273,43391],[13855,31062],[17418,-12036]],[[234298,331443],[7116,10168],[12469,12000],[25371,24620]],[[279254,378231],[17832,-2249]],[[297086,375982],[-14873,-43945],[-15631,-46938]],[[266582,285099],[-10689,-31619],[-13763,-40361]],[[242130,213119],[-27452,19409]],[[214678,232528],[12005,49330],[11166,45734],[-3551,3851]],[[207457,285293],[10837,23536],[16004,22614]],[[214678,232528],[-17677,12570]],[[352448,274563],[-11383,-25151],[-8769,-39233],[184,-12325]],[[332480,197854],[82,-1762]],[[332562,196092],[-16588,-22989],[-14126,-6657],[-725,-104]],[[301123,166342],[-1424,7457],[19648,19502],[-6855,6969],[3765,14573],[-10124,-1115],[-26953,-28775]],[[279180,184953],[7453,14045],[15794,28920],[23518,43963]],[[325945,271881],[19231,12120],[7272,-9438]],[[256655,202149],[12181,27806]],[[268836,229955],[21488,19346],[35621,22580]],[[266582,285099],[4650,-3409],[-9320,-50934],[6924,-801]],[[301123,166342],[-856,-665],[-6949,-3213]],[[373457,253001],[-25506,-35447]],[[347951,217554],[-197,198],[-3108,-2792],[-6714,-8956],[-3379,-4579],[-2073,-3571]],[[352448,274563],[2826,5760],[25246,34916],[9592,9147]],[[390112,324386],[18631,18070],[20567,9999],[8853,-15593]],[[438163,336862],[-23719,-25031],[-20014,-27127]],[[394430,284704],[-7705,-11623],[-11337,-16782],[-1931,-3298]],[[395449,283533],[-1019,1171]],[[438163,336862],[2279,-4165]],[[440442,332697],[-4527,-7342],[-29557,-26367],[-10909,-15455]],[[395449,283533],[-21992,-30532]],[[347951,217554],[-15389,-21462]],[[390188,490907],[12842,40488],[10736,-6172]],[[413766,525223],[-15170,-39869]],[[398596,485354],[-8408,5553]],[[424640,509026],[2518,7464],[479,870]],[[427637,517360],[11721,-10347]],[[439358,507013],[319,-813],[8553,-12709],[4927,595],[10663,7094],[8538,-3189],[494,281],[2306,-3149]],[[475158,495123],[-312,-769],[-4767,-29251],[-6861,-41956],[-7935,-49148],[-7495,-29205],[-7346,-12097]],[[390112,324386],[-5970,7655]],[[384142,332041],[21982,20357],[37246,58276]],[[443370,410674],[12386,55222],[-5350,19137],[-25766,23993]],[[384142,332041],[-15805,20295],[14035,31206]],[[382372,383542],[19986,59479]],[[402358,443021],[41012,-32347]],[[297086,375982],[34833,-4259],[41672,-7],[8058,11467],[723,359]],[[402358,443021],[16879,50216]],[[419237,493237],[5403,15789]],[[408901,478871],[-10305,6483]],[[413766,525223],[13871,-7863]],[[419237,493237],[-119,71],[-10045,-13969],[-172,-468]],[[402358,443021],[6543,35850]],[[279254,378231],[18234,19925],[76883,43893],[15817,48858]],[[479241,491124],[7799,-8012]],[[487040,483112],[-13,-1009],[3242,-35925],[2932,-33272],[-17930,-33493],[-24352,-39225]],[[450919,340188],[9352,32547],[7893,49612],[11077,68777]],[[506578,463539],[4127,-43358]],[[510705,420181],[-11246,-26614]],[[499459,393567],[-12090,-28788]],[[487369,364779],[-19604,-13429],[-16846,-11162]],[[487040,483112],[19538,-19573]],[[499459,393567],[360,121],[5245,4756],[5986,5303],[3069,2880],[3417,4337],[1834,3002],[3494,5564],[5125,8221],[2440,2986],[9871,11479]],[[540300,442216],[-13149,-33507],[-16900,-42914],[-7838,-20113]],[[502413,345682],[-15044,19097]],[[573158,537722],[-1101,-3146],[-2311,-1394],[-7449,-22553],[690,-2226],[-6548,-12503]],[[556439,495900],[-7037,-14812],[-3553,-7813],[-7259,-12534],[-5338,-9710]],[[533252,451031],[278,1864]],[[533530,452895],[2583,16140],[10105,26159]],[[546218,495194],[7469,12508],[14026,23839],[3482,8407]],[[571195,539948],[1963,-2226]],[[571195,539948],[8438,20377]],[[579633,560325],[6957,18959]],[[586590,579284],[8992,24320],[9524,40258],[300,989],[12780,27346],[2425,5234]],[[620611,677431],[-2095,-7037],[-5595,-19761],[-4152,-12782],[-8946,-25955],[-9841,-27588],[-8046,-21492],[-8778,-25094]],[[510705,420181],[638,-980],[3618,-3750],[837,1082],[22458,27050],[585,76],[180,525],[7208,20714],[10702,30724],[-492,278]],[[573158,537722],[3229,-3634]],[[576387,534088],[-21053,-53438],[-15034,-38434]],[[638168,717455],[5579,12899]],[[643747,730354],[6729,-5712]],[[650476,724642],[-17223,-43865]],[[633253,680777],[1738,14858],[3177,21820]],[[620611,677431],[2603,5776],[493,1038],[14461,33210]],[[633253,680777],[-24811,-63970],[-24589,-63521],[-7466,-19198]],[[510705,420181],[10402,10183]],[[521107,430364],[10580,10581],[1565,10086]],[[506578,463539],[374,795],[13728,24494],[15955,14134],[790,16],[8793,-7784]],[[533530,452895],[-4281,-7504],[-8142,-15027]],[[487040,483112],[1620,63531],[-22,1138]],[[488638,547781],[17451,50529]],[[506089,598310],[41141,-21239],[30714,-15915]],[[577944,561156],[1689,-831]],[[484411,549468],[-302,-1055],[-9007,-52146],[56,-1144]],[[439358,507013],[1460,1588]],[[440818,508601],[25003,23681],[18590,17186]],[[440818,508601],[-3412,4994],[7154,20189],[38736,15156],[1115,528]],[[448295,593161],[10082,27657],[25540,6263]],[[483917,627081],[-234,-1083],[-4671,-38180],[-3723,-31933],[-20974,5502],[7731,26888],[-13751,4886]],[[636683,723125],[-2016,-1877]],[[634667,721248],[-17332,3363],[-7362,-2266],[-4694,-2233],[-4454,-3921],[-8051,-2408],[-14869,1036]],[[577905,714819],[-12679,9354],[-20776,-16926],[-4377,-9850],[1659,-26467],[2138,-5677]],[[543870,665253],[-340,-505],[1835,-20123],[3727,-19481],[7153,-20327],[7121,-11623],[6646,-5635],[11338,-5625]],[[581350,581934],[-3406,-20778]],[[506089,598310],[6736,67913]],[[512825,666223],[24590,36965],[21536,32152],[734,793]],[[559685,736133],[11857,-5586]],[[571542,730547],[4571,-2129],[8110,186]],[[584223,728604],[10663,224]],[[594886,728828],[36045,1109]],[[630931,729937],[7389,197]],[[638320,730134],[-1637,-7009]],[[577905,714819],[1878,-1460],[22059,-6100],[15623,11769],[11875,-2934],[3897,3637]],[[633237,719731],[-7440,-25010],[-5186,-17290]],[[586590,579284],[-5240,2650]],[[581350,581934],[1142,28066],[-19281,11842],[-10356,19909],[-8985,23502]],[[543870,665253],[1571,2515],[3946,6183],[9949,15363],[16240,25529],[2329,-24]],[[638168,717455],[2172,9203]],[[640340,726658],[2973,2892],[434,804]],[[636683,723125],[3657,3533]],[[633237,719731],[1430,1517]],[[638320,730134],[5427,220]],[[643747,730354],[672,935],[23173,37867]],[[667592,769156],[-399,-1726],[-16717,-42788]],[[571542,730547],[21570,30519],[1485,1938],[19751,23927],[15102,18285]],[[629450,805216],[4846,-8153],[-7366,-11724],[-405,-891]],[[626525,784448],[-354,-1103],[-16022,-21053],[-25926,-33688]],[[626525,784448],[6488,-8651],[-33010,-38416],[-5117,-8553]],[[559685,736133],[6643,18075],[23187,36197],[537,928]],[[590052,791333],[13584,21196],[31997,37124],[26892,30785]],[[662525,880438],[6637,-9940],[-14155,-15551],[-31461,-39794],[5904,-9937]],[[629450,805216],[28438,33106],[21952,25474]],[[679840,863796],[13880,-32461],[13730,-32355]],[[707450,798980],[-11869,960],[-3291,281],[-11301,-1025],[-9729,-4046],[-1137,580],[-3234,-2108]],[[666889,793622],[-7785,34354],[-19845,-26821],[-11997,-16161],[-737,-546]],[[818215,792663],[-39893,-35875],[-47726,-21],[-36901,16141],[-26103,-3752]],[[638320,730134],[8113,26910],[5878,11622],[4497,6241],[10029,9297],[6614,4585],[8473,1936],[9953,452],[14027,-853],[9765,-633]],[[715669,789691],[13420,-17488],[9089,12336]],[[738178,784539],[6566,-760],[26302,-3310],[16224,2865],[2396,749],[20516,5730],[7435,2827],[598,23]],[[804502,837852],[4858,-13284],[8952,-21186]],[[818312,803382],[-29091,-10972],[-20759,-739],[-17353,1150],[-6686,499]],[[744423,793320],[7305,10070],[35596,23162],[17178,11300]],[[818312,803382],[338,-829]],[[818650,802553],[2532,-5916],[619,-893]],[[821801,795744],[-3586,-3081]],[[738178,784539],[6245,8781]],[[707450,798980],[2868,-328]],[[710318,798652],[2605,-5309],[2746,-3652]],[[630931,729937],[4886,13814],[6288,18046],[3947,8975],[6026,9049],[629,2731],[6132,5822],[8050,5248]],[[695260,881826],[4068,4810]],[[699328,886636],[16493,-33824],[-8526,-6705],[2542,-5861]],[[709837,840246],[-12446,-10229]],[[697391,830017],[-8785,20342],[-6782,15839]],[[681824,866198],[6999,8169]],[[688823,874367],[7196,5135],[-759,2324]],[[704094,814395],[-6703,15622]],[[709837,840246],[1431,-3447],[-7330,-6036],[6194,-11204],[-6038,-5164]],[[704094,814395],[-1304,-1132],[7528,-14611]],[[679840,863796],[1984,2402]],[[662525,880438],[22996,26682]],[[685521,907120],[9739,-25294]],[[688823,874367],[-8015,-5744]],[[680808,868623],[-2341,-1703],[1373,-3124]],[[680808,868623],[1016,-2425]],[[730423,923622],[5311,6271],[7391,5222]],[[743125,935115],[514,-210],[851,-2532],[-7633,-4772],[-6434,-3979]],[[685521,907120],[4514,5154],[29325,26201],[25011,22513],[523,451]],[[744894,961439],[7669,-19991]],[[752563,941448],[-8893,-5528],[-545,-805]],[[730423,923622],[-2853,-1982],[-14882,-11521],[-9473,-6229],[-9581,-5500],[5694,-11754]],[[710718,798999],[-3694,8531],[-2930,6865]],[[709837,840246],[11003,9083],[1491,-1730],[21953,15373],[36476,25784]],[[780760,888756],[7263,-14125]],[[788023,874631],[8856,-17168],[307,-877],[7316,-18734]],[[744423,793320],[-14980,2350],[-18472,2823],[-253,506]],[[715669,789691],[22509,-5152]],[[710318,798652],[400,347]],[[699328,886636],[15054,17911],[14258,17060],[1783,2015]],[[752563,941448],[3238,-8828]],[[755801,932620],[3998,-6546],[9993,-16177],[10968,-21141]],[[816146,898872],[13572,-29546],[1512,-13449],[-5061,-2146],[-641,-585],[-21026,-15294]],[[788023,874631],[28123,24241]],[[755801,932620],[11644,7589],[3447,-8802],[9492,7749],[-1448,2924],[13062,9296],[24148,-52504]],[[816146,898872],[5381,4601]],[[821527,903473],[14825,-32647],[14032,-51889]],[[850384,818937],[-2720,-2081]],[[847664,816856],[-1114,555],[-18378,-9849],[-1327,-1621],[-8195,-3388]],[[847664,816856],[-25863,-21112]],[[752563,941448],[22567,9067],[21090,8820]],[[796220,959335],[166,-355]],[[796386,958980],[25141,-55507]],[[787109,991055],[-28,-12912]],[[787081,978143],[9139,-18808]],[[744894,961439],[2188,990],[-3729,11337],[23145,9273],[19795,7922],[816,94]],[[787109,991055],[23255,8944],[29613,-1897],[29411,-34865],[-9674,-7318],[-2634,-2052]],[[857080,953867],[-6746,3484],[-18759,7704],[15,19545],[-13033,1486],[-613,488],[-25301,-6259],[-5562,-2172]],[[821527,903473],[30369,26021]],[[851896,929494],[1367,-20087],[5395,-56884],[2780,-24911]],[[861438,827612],[-807,-327],[-10247,-8348]],[[859828,952685],[-3335,-4930]],[[856493,947755],[-5155,-7328],[558,-10933]],[[796386,958980],[17193,-1682],[21257,-2264],[24084,-2579],[908,230]],[[857080,953867],[2748,-1182]],[[856493,947755],[22949,-11678],[6484,-1405]],[[885926,934672],[-2888,101],[-22716,1062],[391,-32590],[561,-40100],[313,-34359],[-149,-1174]],[[885926,934672],[49435,-1918],[30991,-1261],[23831,-5061],[-426,-526]],[[989757,925906],[-7792,-9447]],[[981965,916459],[-21686,2083],[-23549,2428],[-9416,-4046],[-9505,-8766],[-4887,-8917],[-8762,-16968],[-13319,-26998],[-11913,-18891],[-1026,-1670]],[[877902,834714],[-16464,-7102]],[[889739,839664],[2875,5489],[4709,8601],[10504,17632],[1401,2857],[9121,18313],[6400,11418],[5882,5852],[6595,2086],[6725,635],[9679,-575],[22936,-2165]],[[976566,909807],[-44234,-54081],[-27939,-9761],[-14654,-6301]],[[889739,839664],[-11837,-4950]],[[981965,916459],[-5399,-6652]],[[859828,952685],[829,32],[13629,4704],[11640,-22749]],[[483917,627081],[19813,166]],[[503730,627247],[-2530,-26918],[-16789,-50861]],[[427637,517360],[10196,37442],[10462,38359]],[[532453,730077],[20815,9037],[6417,-2981]],[[512825,666223],[969,4189],[9725,38606],[8934,21059]],[[532453,730077],[57599,61256]],[[479241,491124],[9397,56657]],[[193782,85845],[212,-1242]],[[193994,84603],[-33251,-32452],[-10241,-16601],[-398,613]],[[503730,627247],[3804,37830],[1484,104]],[[509018,665181],[-2427,-25169],[-3911,-40650],[-6884,-20637],[-9895,-30146],[-3748,-20755],[-7754,-44910],[-11074,-68889],[-6431,-40093],[-7518,-29777],[-7575,-13579],[-3656,-6133],[-30008,-27341],[-91555,-126457],[-29941,-14109],[-29909,-23866],[-28634,-31495],[-31345,-23372],[-35972,-33501],[-5364,-10794],[-1862,-3257]],[[153555,30251],[26,3487],[6217,12385],[35628,33396],[-1432,5084]],[[189982,101773],[-21836,91071],[-16267,27677],[5032,2355]],[[509018,665181],[3807,1042]],[[450919,340188],[-7278,-12650],[-4178,-6835],[-29934,-26850],[-14176,-19397]],[[395353,274456],[-4246,-5931],[-14230,-19523],[-13897,-19073],[-21743,-29724],[-15608,-21464]],[[325629,178741],[-7163,-9564]],[[318466,169177],[-31587,-14868],[-29688,-23899],[-27982,-30687],[-31300,-23444],[-35725,-33733],[-6320,-12173],[-2309,-122]],[[398616,272637],[-298,-784],[-6855,-9605],[-5312,-6538],[-6526,-7907],[-6013,-7825],[-9573,-12621],[-9607,-12685],[-3687,-5320],[-9851,-14082],[-2417,-2587],[-2679,-2985],[-10169,-10957]],[[395353,274456],[3263,-1819]],[[398616,272637],[38,-1081],[-4316,-11188],[-3946,-10110],[-10190,-20237],[-24948,-27884],[-17847,-16065],[-18941,-16895]],[[562075,487285],[1927,-2071],[-10645,-19998]],[[553357,465216],[7198,18212],[1520,3857]],[[989757,925906],[7582,6002],[2660,-667],[-27445,-33273],[-21426,-25817],[-17467,-21078],[-26645,-8946],[-43655,-18432],[-40422,-32469],[-44597,-39502],[-48284,215],[-36689,16216],[-23247,-3180],[-20605,-55848],[-36039,-91473],[-51403,-130369]],[[553357,465216],[-26707,-67572],[-21634,-54705],[-18641,-22860],[-3966,1167],[20004,24436]]],"bbox":[1271.077,3354.274,2304.133,4168.637],"transform":{"scale":[0.0010330570330570328,0.0008143638143638141],"translate":[1271.077,3354.274]}}