{"type":"Topology","objects":{"01202-4400-31.featurecollection":{"type":"GeometryCollection","geometries":[{"type":"Polygon","arcs":[[0,1,2,3,4,5]],"properties":{"市区町村名":"函館市","大字名":"蛾眉野町","丁目名":null,"小字名":null,"地番":"65","精度区分":null,"座標系":"任意座標系"}},{"type":"Polygon","arcs":[[6,7,8]],"properties":{"市区町村名":"函館市","大字名":"蛾眉野町","丁目名":null,"小字名":null,"地番":"66","精度区分":null,"座標系":"任意座標系"}},{"type":"Polygon","arcs":[[9,10,-6,-9,11,12]],"properties":{"市区町村名":"函館市","大字名":"蛾眉野町","丁目名":null,"小字名":null,"地番":"67","精度区分":null,"座標系":"任意座標系"}},{"type":"Polygon","arcs":[[-13,13,14]],"properties":{"市区町村名":"函館市","大字名":"蛾眉野町","丁目名":null,"小字名":null,"地番":"70","精度区分":null,"座標系":"任意座標系"}},{"type":"Polygon","arcs":[[15,-10,-15,16,17]],"properties":{"市区町村名":"函館市","大字名":"蛾眉野町","丁目名":null,"小字名":null,"地番":"71","精度区分":null,"座標系":"任意座標系"}},{"type":"Polygon","arcs":[[18,19,20,-18]],"properties":{"市区町村名":"函館市","大字名":"蛾眉野町","丁目名":null,"小字名":null,"地番":"72","精度区分":null,"座標系":"任意座標系"}},{"type":"Polygon","arcs":[[21,22,23,24,25]],"properties":{"市区町村名":"函館市","大字名":"蛾眉野町","丁目名":null,"小字名":null,"地番":"73-1","精度区分":null,"座標系":"任意座標系"}},{"type":"Polygon","arcs":[[26,-26,27]],"properties":{"市区町村名":"函館市","大字名":"蛾眉野町","丁目名":null,"小字名":null,"地番":"73-2","精度区分":null,"座標系":"任意座標系"}},{"type":"Polygon","arcs":[[-23,28,29,30]],"properties":{"市区町村名":"函館市","大字名":"蛾眉野町","丁目名":null,"小字名":null,"地番":"73-3","精度区分":null,"座標系":"任意座標系"}},{"type":"Polygon","arcs":[[31,32,-30]],"properties":{"市区町村名":"函館市","大字名":"蛾眉野町","丁目名":null,"小字名":null,"地番":"76W1","精度区分":null,"座標系":"任意座標系"}},{"type":"Polygon","arcs":[[-20,33,34,35]],"properties":{"市区町村名":"函館市","大字名":"蛾眉野町","丁目名":null,"小字名":null,"地番":"77W3","精度区分":null,"座標系":"任意座標系"}},{"type":"Polygon","arcs":[[36,37]],"properties":{"市区町村名":"函館市","大字名":"蛾眉野町","丁目名":null,"小字名":null,"地番":"89-1W3","精度区分":null,"座標系":"任意座標系"}},{"type":"Polygon","arcs":[[-25,38,39,-28]],"properties":{"市区町村名":"函館市","大字名":"蛾眉野町","丁目名":null,"小字名":null,"地番":"無地番-311","精度区分":null,"座標系":"任意座標系"}},{"type":"Polygon","arcs":[[40]],"properties":{"市区町村名":"函館市","大字名":"蛾眉野町","丁目名":null,"小字名":null,"地番":"筆界未定地-201","精度区分":null,"座標系":"任意座標系"}},{"type":"Polygon","arcs":[[41,-37,42,43,44,45,46,47,-39,-24,-31,-33,48,-34,-19,-17,-14,-12,-8,49,50,51,52,53,54,55,-1,-11,-16,-21,-36]],"properties":{"市区町村名":"函館市","大字名":"蛾眉野町","丁目名":null,"小字名":null,"地番":"道-154","精度区分":null,"座標系":"任意座標系"}},{"type":"Polygon","arcs":[[56,-2,57,-53]],"properties":{"市区町村名":"函館市","大字名":"蛾眉野町","丁目名":null,"小字名":null,"地番":"61","精度区分":null,"座標系":"任意座標系"}},{"type":"Polygon","arcs":[[58,-3,-57,-52]],"properties":{"市区町村名":"函館市","大字名":"蛾眉野町","丁目名":null,"小字名":null,"地番":"64-1","精度区分":null,"座標系":"任意座標系"}},{"type":"Polygon","arcs":[[-5,59,-50,-7]],"properties":{"市区町村名":"函館市","大字名":"蛾眉野町","丁目名":null,"小字名":null,"地番":"64-3","精度区分":null,"座標系":"任意座標系"}},{"type":"Polygon","arcs":[[60,-47]],"properties":{"市区町村名":"函館市","大字名":"蛾眉野町","丁目名":null,"小字名":null,"地番":"68","精度区分":null,"座標系":"任意座標系"}},{"type":"Polygon","arcs":[[-60,-4,-59,-51]],"properties":{"市区町村名":"函館市","大字名":"蛾眉野町","丁目名":null,"小字名":null,"地番":"64-2","精度区分":null,"座標系":"任意座標系"}},{"type":"Polygon","arcs":[[-44,61,62]],"properties":{"市区町村名":"函館市","大字名":"蛾眉野町","丁目名":null,"小字名":null,"地番":"54","精度区分":null,"座標系":"任意座標系"}},{"type":"Polygon","arcs":[[63,-45,-63]],"properties":{"市区町村名":"函館市","大字名":"蛾眉野町","丁目名":null,"小字名":null,"地番":"56","精度区分":null,"座標系":"任意座標系"}},{"type":"Polygon","arcs":[[64,-55]],"properties":{"市区町村名":"函館市","大字名":"蛾眉野町","丁目名":null,"小字名":null,"地番":"59","精度区分":null,"座標系":"任意座標系"}},{"type":"Polygon","arcs":[[-56,-65,-54,-58]],"properties":{"市区町村名":"函館市","大字名":"蛾眉野町","丁目名":null,"小字名":null,"地番":"60","精度区分":null,"座標系":"任意座標系"}}]}},"arcs":[[[543682,39450],[-16934,19947],[-4258,5249],[-962,658],[-4956,2855],[-16745,10175],[-3815,2540],[-50028,7736],[-53798,60924],[-23777,28139],[-21440,61546]],[[346969,239219],[3388,13798],[8448,36105],[1558,6636]],[[360363,295758],[1867,-5038]],[[362230,290720],[15396,-41670],[1894,-2635],[15208,-17492],[6423,-6982],[32226,-39418]],[[433377,182523],[14219,-17379],[4658,-839],[4001,-843],[37893,-6648],[3792,-852],[3266,-557],[7562,-6402],[7787,-6541],[6716,-5536],[11957,-9586],[2411,-2515]],[[537639,124825],[405,-4076],[1986,-29039],[724,-10602],[268,-3719],[2294,-33537],[366,-4402]],[[537639,124825],[649,4475],[3793,22831],[45202,274997],[1203,7081]],[[588486,434209],[10312,-5818]],[[598798,428391],[-40731,-289515],[-3456,-23812],[-1854,1038],[-14062,8523],[-1056,200]],[[571846,109435],[-211,-3030],[-209,-5215],[-2877,-71561]],[[568549,29629],[-3706,1477],[-9296,3615],[-11865,4729]],[[598798,428391],[1305,-728],[8141,-4726]],[[608244,422937],[-24796,-220678],[-11602,-92824]],[[608244,422937],[48613,-27790],[3231,-1696],[856,110]],[[660944,393561],[25311,-233278],[-26333,-7351],[-27146,-7792],[-4642,-1313],[-17489,-12676],[-22380,-15364],[-8660,-6243],[-7759,-109]],[[756512,65999],[-5707,2672],[-30806,18021],[-30297,17556],[-3883,-4344],[-17854,-23767],[-24498,-32544],[-38519,-20166],[-6893,-3502],[-3247,-1992],[-26259,11696]],[[660944,393561],[6053,6846],[17263,21489],[52626,65206],[18810,23289],[106,-20203],[1761,-239039]],[[757563,251149],[-1051,-185150]],[[757563,251149],[989,-419],[9206,-6881],[21418,-16242],[5172,-3525],[11589,-7685],[18202,-12493],[4253,-5384],[12446,-17199],[22459,-30616],[2592,-3325],[13275,-16991],[9355,-12000],[22080,-17458]],[[910599,100931],[-28458,-9739],[-39467,-13038],[-10787,-3592],[-2768,-1111]],[[829119,73451],[-72607,-7452]],[[786888,611538],[8144,-16419],[27835,-54992],[10854,-51419],[-494,-10945],[-6910,-118077],[7185,-122422]],[[833502,237264],[-7925,-19191]],[[825577,218073],[-4591,2982],[-12654,8965],[-17665,11801],[-2003,1381],[-26017,20364],[-132,6768],[-1731,263894]],[[760784,534228],[-254,3806],[-287,7778],[-1137,30960]],[[759106,576772],[2946,3618],[24836,31148]],[[640248,643272],[3185,7201],[4787,10980],[32417,75636],[5549,6940],[8977,11015],[33756,42682],[1115,-4636],[2285,-13921],[14605,-86959],[3592,-7317],[36372,-73355]],[[759106,576772],[-8109,-9567],[-51967,-60480],[-1370,-1260],[-10951,-6188],[-62040,-34527],[15579,178522]],[[833502,237264],[3941,-2515],[7225,-4889],[27077,-17688],[5911,-3848],[54856,-35911]],[[932512,172413],[-18188,-57124]],[[914324,115289],[-20617,15935],[-3621,2521],[-12136,15744],[-6652,8366],[-4639,6459],[-1504,1651],[-31312,41470],[-7385,9738],[-881,900]],[[932512,172413],[1625,-9131],[16638,-95649],[11075,-62567],[-26604,-216]],[[935246,4850],[-1799,8979],[-19123,101460]],[[910599,100931],[18198,-96135]],[[928797,4796],[-86284,-706]],[[842513,4090],[-12363,63526],[-1031,5835]],[[317433,385288],[1598,-9987],[23579,-143300],[23366,-67732],[78969,-90132],[4889,-557],[15324,-2205],[17421,-2510],[11496,-2135],[3798,-2275],[18714,-11033],[2800,-1339],[14758,-18577],[6937,-8622],[27178,-11010],[18954,-7761],[6800,-2771],[14326,6760],[29502,14728],[7253,3570],[14482,19658],[20931,28442],[9150,12158],[28701,-16003],[31650,-17804],[6998,-3843],[30358,2898],[24930,2554],[13331,1086],[8014,-40735],[2508,-12774]],[[836148,4037],[-319461,-2616],[-173536,-1421],[-18193,145236],[-540,10982],[-1097,40142],[-1952,63495],[-1870,59225],[-2066,66208]],[[760784,534228],[-14958,-18661],[-1866,-2335],[-4150,-5249],[-23155,-28805],[-24187,-30091],[-4233,-5249],[-25664,-31844],[-2145,-3080],[-13804,7770],[-27555,15550],[-5497,2847],[-4219,2219]],[[609351,437300],[-65,8650],[-686,99367],[-5831,27227],[-3512,16566],[756,1353],[11802,15385],[28433,37424]],[[957410,467796],[42589,-12467],[-3198,-8369],[-49705,-136074],[-65802,125840],[-3848,7747],[2362,11435],[6744,32800],[3600,-1024],[57947,-16965],[9311,-2923]],[[842513,4090],[-6365,-53]],[[317433,385288],[-5070,9263],[-7469,14605],[-14923,28496],[-31108,59799],[-4636,-10574],[-17895,-43678],[-12039,-29070],[-4260,-10014],[-11019,11216],[-28508,29176],[-10876,11179],[-24366,24946],[-2708,2653],[-43668,2329],[-22539,1226],[-58237,2788],[-11246,613],[-6850,366],[-16,16833],[13401,-259]],[[13401,507181],[27096,788],[94931,-4836],[4845,40]],[[140273,503173],[24299,-24820],[7485,-7876],[37743,-38879],[7358,-7010],[-2030,71257],[-346,12892],[-2071,66651],[-1684,58027],[-302,3269],[-4653,16206],[-24660,88165],[-1340,4079],[-34009,52168],[-32851,49976],[-3722,5921],[-11988,14839],[-19640,24208],[-2719,3328],[-27043,22538],[-22382,18321],[-1934,1882],[-11174,30941],[-4224,11674],[-2812,7634]],[[5574,988564],[3081,11435],[2947,-8327],[5140,-13786],[9424,-25995],[1783,-1007],[4849,-4043],[10627,-8951],[16543,-14287],[16261,-14051],[2029,-2239],[33136,-39866],[1644,-2476],[58689,-90837],[11244,-17157],[1554,-4959],[28992,-100844],[2135,-2971],[6466,-10056],[767,-1334],[2574,-6129],[9151,-21292],[16775,-39543],[1393,3891],[9440,23615],[19590,49245],[1799,2959],[20131,28459],[2127,169],[24048,2605],[1726,-4400],[23041,-58308],[18888,-15910],[1720,-1350],[4484,-4715],[22555,-24178],[3493,-3148],[23708,-22352],[2665,760],[41357,14290],[3632,281],[34779,-87],[679,5],[945,-694]],[[513585,560986],[2530,602],[9203,-6],[1312,-1480],[2318,-4284],[25186,-44462],[4246,-7413],[31722,-55613],[5114,-2830]],[[595216,445500],[4331,-2368],[9804,-5832]],[[935246,4850],[-6449,-54]],[[588486,434209],[-44198,77296],[-10014,17590],[-9093,15868],[-1190,1966],[-7863,6],[-22076,498],[-17264,104],[-2852,154],[-6620,-1960],[-16939,-6428],[-3815,-1466]],[[446562,537837],[-14303,-5212],[-2771,-1274],[-1608,1178],[-22199,21241],[-4023,3725],[-1346,883],[-8257,8779],[-15491,16862],[-4590,4793]],[[371974,588812],[-7948,6107],[-11661,8602]],[[352365,603521],[-2627,6768],[-3672,9171],[-3781,9693]],[[342285,629153],[-10922,27537],[-3222,8231]],[[328141,664921],[-5785,-774],[-15826,-1600],[-1791,-931],[-5496,-7753],[-1206,-2121],[-11423,-16977],[-1604,-2396],[-19355,-47329],[-7279,-18043],[-6847,-16389],[-22027,50474],[-7661,17599],[-3118,7223],[-4728,6172],[387,-12023],[2377,-71782],[1326,-40373],[2566,-81099],[2541,5933],[34856,84899],[866,-790],[1541,-3269],[61462,-117781]],[[321917,395791],[25052,-156572]],[[352365,603521],[2488,-94146],[5340,-200835],[170,-12782]],[[346969,239219],[-100,13252],[-3912,321961],[-672,54721]],[[371974,588812],[-9744,-298092]],[[433377,182523],[13185,355314]],[[513585,560986],[-36013,119992],[-5034,16897],[-13771,69414],[14071,25602],[1158,2076],[28269,-105441],[10322,-39300],[6089,-10510],[35325,-59759],[5530,-712],[24364,-4152],[1371,-5896],[8198,-37832],[239,-7829],[1513,-78036]],[[13401,507181],[-1486,189063],[-173,16946]],[[11742,713190],[20280,-17922],[9163,-8605],[33248,-61327],[51115,-94464],[7941,-15032],[6784,-12667]],[[11742,713190],[-6168,275374]],[[328141,664921],[5,-4774],[-654,-28999],[-5379,-225621],[-196,-9736]]],"bbox":[57684.79,-245117.179,58741.369,-244761.689],"transform":{"scale":[0.0010565800565800543,0.00035549035549034617],"translate":[57684.79,-245117.179]}}