{"type":"Topology","objects":{"01202-4400-34.featurecollection":{"type":"GeometryCollection","geometries":[{"type":"Polygon","arcs":[[0,1]],"properties":{"市区町村名":"函館市","大字名":"蛾眉野町","丁目名":null,"小字名":null,"地番":"94W2","精度区分":null,"座標系":"任意座標系"}},{"type":"Polygon","arcs":[[2,-1]],"properties":{"市区町村名":"函館市","大字名":"蛾眉野町","丁目名":null,"小字名":null,"地番":"道-150","精度区分":null,"座標系":"任意座標系"}}]}},"arcs":[[[17502,16],[251650,279168],[-47568,24260],[-16119,38903],[-67018,29170],[11616,33833],[-42936,27270],[86548,78496],[135036,67099],[101728,179559],[112929,80023],[322384,70104],[39638,85971],[-15019,6037]],[[890371,999909],[101099,90],[8529,-999110],[-982497,-873]],[[17502,16],[-17502,-16],[251791,279478],[-43236,22908],[-16229,38027],[-66374,30033],[10010,32819],[-42353,29349],[82001,75957],[138187,69969],[102641,178830],[113441,82728],[319699,70029],[40793,89782]]],"bbox":[56582.583,-246848.362,56962.822,-245670.06],"transform":{"scale":[0.00038023938023938164,0.0011783031783031744],"translate":[56582.583,-246848.362]}}