{"type":"Topology","objects":{"01202-4400-80.featurecollection":{"type":"GeometryCollection","geometries":[{"type":"Polygon","arcs":[[0,1,2]],"properties":{"市区町村名":"函館市","大字名":"瀬田来町","丁目名":null,"小字名":null,"地番":"758","精度区分":null,"座標系":"任意座標系"}},{"type":"Polygon","arcs":[[3,4]],"properties":{"市区町村名":"函館市","大字名":"瀬田来町","丁目名":null,"小字名":null,"地番":"759-1","精度区分":null,"座標系":"任意座標系"}},{"type":"Polygon","arcs":[[-4,5,6,7,8]],"properties":{"市区町村名":"函館市","大字名":"瀬田来町","丁目名":null,"小字名":null,"地番":"759-2","精度区分":null,"座標系":"任意座標系"}},{"type":"Polygon","arcs":[[-8,9,10,11,12,13]],"properties":{"市区町村名":"函館市","大字名":"瀬田来町","丁目名":null,"小字名":null,"地番":"761","精度区分":null,"座標系":"任意座標系"}},{"type":"Polygon","arcs":[[-13,14,15]],"properties":{"市区町村名":"函館市","大字名":"瀬田来町","丁目名":null,"小字名":null,"地番":"762","精度区分":null,"座標系":"任意座標系"}},{"type":"Polygon","arcs":[[16,17,-15,-12]],"properties":{"市区町村名":"函館市","大字名":"瀬田来町","丁目名":null,"小字名":null,"地番":"763","精度区分":null,"座標系":"任意座標系"}},{"type":"Polygon","arcs":[[18,19]],"properties":{"市区町村名":"函館市","大字名":"瀬田来町","丁目名":null,"小字名":null,"地番":"764","精度区分":null,"座標系":"任意座標系"}},{"type":"Polygon","arcs":[[-2,20,21,22]],"properties":{"市区町村名":"函館市","大字名":"瀬田来町","丁目名":null,"小字名":null,"地番":"765","精度区分":null,"座標系":"任意座標系"}},{"type":"Polygon","arcs":[[23,-22,24]],"properties":{"市区町村名":"函館市","大字名":"瀬田来町","丁目名":null,"小字名":null,"地番":"766","精度区分":null,"座標系":"任意座標系"}},{"type":"Polygon","arcs":[[25,26]],"properties":{"市区町村名":"函館市","大字名":"瀬田来町","丁目名":null,"小字名":null,"地番":"768","精度区分":null,"座標系":"任意座標系"}},{"type":"Polygon","arcs":[[27,28]],"properties":{"市区町村名":"函館市","大字名":"瀬田来町","丁目名":null,"小字名":null,"地番":"770","精度区分":null,"座標系":"任意座標系"}},{"type":"Polygon","arcs":[[29,30,-29,31,32,33]],"properties":{"市区町村名":"函館市","大字名":"瀬田来町","丁目名":null,"小字名":null,"地番":"771","精度区分":null,"座標系":"任意座標系"}},{"type":"Polygon","arcs":[[-33,34,35,36]],"properties":{"市区町村名":"函館市","大字名":"瀬田来町","丁目名":null,"小字名":null,"地番":"772","精度区分":null,"座標系":"任意座標系"}},{"type":"Polygon","arcs":[[37,38,-36,39]],"properties":{"市区町村名":"函館市","大字名":"瀬田来町","丁目名":null,"小字名":null,"地番":"773","精度区分":null,"座標系":"任意座標系"}},{"type":"Polygon","arcs":[[-34,-37,-39,40,41,42,43]],"properties":{"市区町村名":"函館市","大字名":"瀬田来町","丁目名":null,"小字名":null,"地番":"774","精度区分":null,"座標系":"任意座標系"}},{"type":"Polygon","arcs":[[44,45,-43,46,47]],"properties":{"市区町村名":"函館市","大字名":"瀬田来町","丁目名":null,"小字名":null,"地番":"775","精度区分":null,"座標系":"任意座標系"}},{"type":"Polygon","arcs":[[48,49,50,51,-19,52,-17,-11,53,-24]],"properties":{"市区町村名":"函館市","大字名":"瀬田来町","丁目名":null,"小字名":null,"地番":"775-1","精度区分":null,"座標系":"任意座標系"}},{"type":"Polygon","arcs":[[54,55,56,57]],"properties":{"市区町村名":"函館市","大字名":"瀬田来町","丁目名":null,"小字名":null,"地番":"776","精度区分":null,"座標系":"任意座標系"}},{"type":"Polygon","arcs":[[58]],"properties":{"市区町村名":"函館市","大字名":"瀬田来町","丁目名":null,"小字名":null,"地番":"777","精度区分":null,"座標系":"任意座標系"}},{"type":"Polygon","arcs":[[59,60,61,62,63,64,65,66,67]],"properties":{"市区町村名":"函館市","大字名":"瀬田来町","丁目名":null,"小字名":null,"地番":"778","精度区分":null,"座標系":"任意座標系"}},{"type":"Polygon","arcs":[[68,69,70,71,72,-61,73,74]],"properties":{"市区町村名":"函館市","大字名":"瀬田来町","丁目名":null,"小字名":null,"地番":"779","精度区分":null,"座標系":"任意座標系"}},{"type":"Polygon","arcs":[[75,76,-62,-73]],"properties":{"市区町村名":"函館市","大字名":"瀬田来町","丁目名":null,"小字名":null,"地番":"780","精度区分":null,"座標系":"任意座標系"}},{"type":"Polygon","arcs":[[77,78,-63,-77]],"properties":{"市区町村名":"函館市","大字名":"瀬田来町","丁目名":null,"小字名":null,"地番":"781","精度区分":null,"座標系":"任意座標系"}},{"type":"Polygon","arcs":[[79,-78,-76,-72]],"properties":{"市区町村名":"函館市","大字名":"瀬田来町","丁目名":null,"小字名":null,"地番":"782","精度区分":null,"座標系":"任意座標系"}},{"type":"Polygon","arcs":[[80,-64,-79,-80,-71]],"properties":{"市区町村名":"函館市","大字名":"瀬田来町","丁目名":null,"小字名":null,"地番":"783","精度区分":null,"座標系":"任意座標系"}},{"type":"Polygon","arcs":[[81,-81,-70]],"properties":{"市区町村名":"函館市","大字名":"瀬田来町","丁目名":null,"小字名":null,"地番":"784","精度区分":null,"座標系":"任意座標系"}},{"type":"Polygon","arcs":[[-69,82,83,84,-65,-82]],"properties":{"市区町村名":"函館市","大字名":"瀬田来町","丁目名":null,"小字名":null,"地番":"785","精度区分":null,"座標系":"任意座標系"}},{"type":"Polygon","arcs":[[85,86,87,88,-67,89,-84,90,91,92]],"properties":{"市区町村名":"函館市","大字名":"瀬田来町","丁目名":null,"小字名":null,"地番":"787","精度区分":null,"座標系":"任意座標系"}},{"type":"Polygon","arcs":[[93,94,95,96,-87]],"properties":{"市区町村名":"函館市","大字名":"瀬田来町","丁目名":null,"小字名":null,"地番":"787-1","精度区分":null,"座標系":"任意座標系"}},{"type":"Polygon","arcs":[[97,98,99]],"properties":{"市区町村名":"函館市","大字名":"瀬田来町","丁目名":null,"小字名":null,"地番":"788","精度区分":null,"座標系":"任意座標系"}},{"type":"Polygon","arcs":[[100,-99,101]],"properties":{"市区町村名":"函館市","大字名":"瀬田来町","丁目名":null,"小字名":null,"地番":"789","精度区分":null,"座標系":"任意座標系"}},{"type":"Polygon","arcs":[[102,103,104,-94,-86]],"properties":{"市区町村名":"函館市","大字名":"瀬田来町","丁目名":null,"小字名":null,"地番":"790","精度区分":null,"座標系":"任意座標系"}},{"type":"Polygon","arcs":[[105,-103,-93,106]],"properties":{"市区町村名":"函館市","大字名":"瀬田来町","丁目名":null,"小字名":null,"地番":"791","精度区分":null,"座標系":"任意座標系"}},{"type":"Polygon","arcs":[[107,108,-106,109]],"properties":{"市区町村名":"函館市","大字名":"瀬田来町","丁目名":null,"小字名":null,"地番":"792","精度区分":null,"座標系":"任意座標系"}},{"type":"Polygon","arcs":[[-109,110,111,112,-104]],"properties":{"市区町村名":"函館市","大字名":"瀬田来町","丁目名":null,"小字名":null,"地番":"792-1","精度区分":null,"座標系":"任意座標系"}},{"type":"Polygon","arcs":[[-110,-107,-92,113,114]],"properties":{"市区町村名":"函館市","大字名":"瀬田来町","丁目名":null,"小字名":null,"地番":"793","精度区分":null,"座標系":"任意座標系"}},{"type":"Polygon","arcs":[[115,116]],"properties":{"市区町村名":"函館市","大字名":"瀬田来町","丁目名":null,"小字名":null,"地番":"794","精度区分":null,"座標系":"任意座標系"}},{"type":"Polygon","arcs":[[-117,117]],"properties":{"市区町村名":"函館市","大字名":"瀬田来町","丁目名":null,"小字名":null,"地番":"795","精度区分":null,"座標系":"任意座標系"}},{"type":"Polygon","arcs":[[118,-95,-105,-113]],"properties":{"市区町村名":"函館市","大字名":"瀬田来町","丁目名":null,"小字名":null,"地番":"国有地-1","精度区分":null,"座標系":"任意座標系"}},{"type":"Polygon","arcs":[[119,120]],"properties":{"市区町村名":"函館市","大字名":"瀬田来町","丁目名":null,"小字名":null,"地番":"無地番-1","精度区分":null,"座標系":"任意座標系"}},{"type":"Polygon","arcs":[[-115,121,-111,-108]],"properties":{"市区町村名":"函館市","大字名":"瀬田来町","丁目名":null,"小字名":null,"地番":"無地番-3","精度区分":null,"座標系":"任意座標系"}},{"type":"Polygon","arcs":[[122,-88,-97,123,124]],"properties":{"市区町村名":"函館市","大字名":"瀬田来町","丁目名":null,"小字名":null,"地番":"無地番-4","精度区分":null,"座標系":"任意座標系"}},{"type":"Polygon","arcs":[[-125,125]],"properties":{"市区町村名":"函館市","大字名":"瀬田来町","丁目名":null,"小字名":null,"地番":"無地番-5","精度区分":null,"座標系":"任意座標系"}},{"type":"Polygon","arcs":[[-51,126,-45,127]],"properties":{"市区町村名":"函館市","大字名":"瀬田来町","丁目名":null,"小字名":null,"地番":"無地番-6","精度区分":null,"座標系":"任意座標系"}},{"type":"Polygon","arcs":[[128,129]],"properties":{"市区町村名":"函館市","大字名":"瀬田来町","丁目名":null,"小字名":null,"地番":"無地番-13","精度区分":null,"座標系":"任意座標系"}},{"type":"Polygon","arcs":[[-47,-42,130,131]],"properties":{"市区町村名":"函館市","大字名":"瀬田来町","丁目名":null,"小字名":null,"地番":"無地番-17","精度区分":null,"座標系":"任意座標系"}},{"type":"Polygon","arcs":[[-85,-90,-66]],"properties":{"市区町村名":"函館市","大字名":"瀬田来町","丁目名":null,"小字名":null,"地番":"無地番-10000","精度区分":null,"座標系":"任意座標系"}},{"type":"Polygon","arcs":[[-60,132,133,-57,134,135,-135,-56,136,-131,-41,-38,137,-74]],"properties":{"市区町村名":"函館市","大字名":"瀬田来町","丁目名":null,"小字名":null,"地番":"道-7","精度区分":null,"座標系":"任意座標系"}},{"type":"Polygon","arcs":[[138,-3,-23,-54,-10,-7]],"properties":{"市区町村名":"函館市","大字名":"瀬田来町","丁目名":null,"小字名":null,"地番":"道-11","精度区分":null,"座標系":"任意座標系"}},{"type":"Polygon","arcs":[[-134,139,-18,-53,-20,140,-58]],"properties":{"市区町村名":"函館市","大字名":"瀬田来町","丁目名":null,"小字名":null,"地番":"道-12","精度区分":null,"座標系":"任意座標系"}},{"type":"Polygon","arcs":[[-98,141,-129,-120,142,-102]],"properties":{"市区町村名":"函館市","大字名":"瀬田来町","丁目名":null,"小字名":null,"地番":"道-34","精度区分":null,"座標系":"任意座標系"}},{"type":"Polygon","arcs":[[-128,-48,-132,-137,-55,-141,-52]],"properties":{"市区町村名":"函館市","大字名":"瀬田来町","丁目名":null,"小字名":null,"地番":"道-100001","精度区分":null,"座標系":"任意座標系"}},{"type":"Polygon","arcs":[[-68,-89,143,-133]],"properties":{"市区町村名":"函館市","大字名":"瀬田来町","丁目名":null,"小字名":null,"地番":"河川-6","精度区分":null,"座標系":"任意座標系"}},{"type":"Polygon","arcs":[[144,-26,145,-30,-44,-46,-127,-50]],"properties":{"市区町村名":"函館市","大字名":"瀬田来町","丁目名":null,"小字名":null,"地番":"筆界未定地-767","精度区分":null,"座標系":"任意座標系"}},{"type":"Polygon","arcs":[[146]],"properties":{"市区町村名":"函館市","大字名":"瀬田来町","丁目名":null,"小字名":null,"地番":"760","精度区分":null,"座標系":"任意座標系"}}]}},"arcs":[[[730246,7864],[-24507,24493],[17637,13700]],[[723376,46057],[28162,725],[-11640,-29608]],[[739898,17174],[-9652,-9310]],[[755596,326],[12469,12730],[4239,-437],[-5903,-10657]],[[766401,1962],[-10805,-1636]],[[755596,326],[-2153,-326],[-18608,1239]],[[734835,1239],[170,6213],[8818,8192],[12967,3962]],[[756790,19606],[19807,-1062]],[[776597,18544],[-6579,-16035],[-3617,-547]],[[756790,19606],[18143,52143]],[[774933,71749],[1211,34472],[-8178,9149],[-1990,7234]],[[765976,122604],[26632,13345],[22074,8643]],[[814682,144592],[36747,-16290],[11281,-2352]],[[862710,125950],[-29710,-7639],[1790,-17899],[-11887,-21271],[2953,-15142],[-16351,-6552],[-5068,-15612],[-23591,-13789],[-274,-613],[-3975,-8889]],[[814682,144592],[29406,12117],[45589,25229]],[[889677,181938],[-9567,-30892],[-17400,-25096]],[[765976,122604],[47245,70079]],[[813221,192683],[41831,-8354],[34625,-2391]],[[810053,190399],[-60959,-66846],[-91274,51039]],[[657820,174592],[152233,15807]],[[723376,46057],[1429,11270],[-12201,4675],[-20702,4135]],[[691902,66137],[25975,997],[54616,4477]],[[772493,71611],[-19682,-50632],[-12913,-3805]],[[639472,64072],[32689,60762],[74640,-2666],[25692,-50557]],[[691902,66137],[-52430,-2065]],[[447110,138795],[63188,-3572]],[[510298,135223],[-23488,-4823],[-38785,1630],[-915,6765]],[[266370,225744],[-3968,7946]],[[262402,233690],[41771,11396],[12725,-14188],[-43011,-19255],[-7517,14101]],[[464169,238444],[-140643,-33533],[-34913,-1972],[-58852,224]],[[229761,203163],[30100,13193],[6509,9388]],[[262402,233690],[2248,18609],[-20983,23155],[-25529,17825],[-20979,5669],[16833,10849]],[[213992,309797],[154441,-49572]],[[368433,260225],[95736,-21781]],[[213992,309797],[67677,43433]],[[281669,353230],[119638,-29776]],[[401307,323454],[-32874,-63229]],[[433403,450265],[29160,-10101]],[[462563,440164],[-61256,-116710]],[[281669,353230],[151734,97035]],[[462563,440164],[94930,-61116]],[[557493,379048],[-17339,-114191]],[[540154,264857],[-25249,-15597]],[[514905,249260],[-50736,-10816]],[[604452,215963],[-65635,-11027]],[[538817,204936],[-23912,44324]],[[540154,264857],[50442,18]],[[590596,264875],[3589,-47],[-416,-30475],[13390,-17944],[-2707,-446]],[[639472,64072],[-37628,37878]],[[601844,101950],[65209,36042],[-25953,14350],[-42179,15895]],[[598921,168237],[48447,5102]],[[647368,173339],[10452,1253]],[[810053,190399],[3168,2284]],[[774933,71749],[-2440,-138]],[[653858,177359],[-24650,19029],[-29127,38419],[382,77708]],[[600463,312515],[694,20570]],[[601157,333085],[260156,-17398],[2623,-15194]],[[863936,300493],[18530,-114953],[-25793,1887],[-43276,8463],[-159539,-18531]],[[601173,336107],[-35198,45121],[-96961,62335],[-6945,2495],[79607,9044],[264745,-20175],[54571,-116221],[-259819,17401]],[[804740,438254],[-262710,19872]],[[542030,458126],[4363,43069]],[[546393,501195],[2733,9613]],[[549126,510808],[19962,-1448],[3387,10253],[-13349,2238]],[[559126,521851],[-2358,10425]],[[556768,532276],[44632,4821],[-12921,38177]],[[588479,575274],[-14963,11743]],[[573516,587017],[230789,-51957]],[[804305,535060],[-14089,-22492],[4722,-45709],[9802,-28605]],[[416162,537641],[26995,-3148]],[[443157,534493],[36086,-2448]],[[479243,532045],[847,-8898]],[[480090,523147],[993,-9958]],[[481083,513189],[13266,-13740],[52044,1746]],[[542030,458126],[-89363,-10067]],[[452667,448059],[-36505,89582]],[[481083,513189],[68819,1494]],[[549902,514683],[-776,-3875]],[[549902,514683],[2333,7967]],[[552235,522650],[6891,-799]],[[480090,523147],[72145,-497]],[[479243,532045],[77525,231]],[[443157,534493],[26692,45136],[87161,-26734],[-242,-20619]],[[416162,537641],[11290,14414]],[[427452,552055],[40689,52897],[39182,-2217]],[[507323,602735],[26132,-9882],[55024,-17579]],[[542691,649480],[38677,47826]],[[581368,697306],[22800,9755],[62408,6898]],[[666576,713959],[43277,-47152],[64753,-25988],[488,-28841],[51971,-27566]],[[827065,584412],[-22760,-49352]],[[573516,587017],[5624,18872],[-71817,-3154]],[[427452,552055],[-29157,34936]],[[398295,586991],[32896,44117]],[[431191,631108],[58755,-7858],[47470,20973],[5275,5257]],[[581368,697306],[-40265,19508],[-22714,3125]],[[518389,719939],[-9549,11219]],[[508840,731158],[57206,3607],[106617,-17840]],[[672663,716925],[-6087,-2966]],[[866174,701803],[-114876,73717],[-85655,14473]],[[665643,789993],[91435,201103]],[[757078,991096],[73955,-4058],[120939,-82093],[41038,-45892],[6989,-17452],[-2385,-24316],[-5301,-10083],[-24331,-7487],[-3212,-16564],[-47134,-28112],[-7994,-13152],[-13282,-16730],[-20623,-16785],[-9563,-6569]],[[500648,996402],[96870,3597],[159560,-8903]],[[665643,789993],[-20799,3626],[-58149,-3893],[-58635,-25321],[-117455,39748],[30400,108226],[59643,84023]],[[542691,649480],[-112304,38035]],[[430387,687515],[34857,12824]],[[465244,700339],[53145,19600]],[[356122,657987],[74265,29528]],[[431191,631108],[-75247,9069],[178,17810]],[[306614,682509],[18096,64396]],[[324710,746905],[105677,-59390]],[[356122,657987],[-49508,24522]],[[324710,746905],[375,898]],[[325085,747803],[124297,-41910]],[[449382,705893],[15862,-5554]],[[398295,586991],[-133200,82172],[-80808,97220],[26283,23133],[22846,-10812]],[[233416,778704],[-4189,-30335],[48126,-44228],[19994,-17147],[9267,-4485]],[[40019,820563],[18405,6914],[45386,-47895],[6594,-30858],[-19038,2243]],[[91366,750967],[-7599,28324],[-43748,41272]],[[91366,750967],[-28900,3235],[-6964,30067],[-55502,21132],[40019,15162]],[[449382,705893],[59458,25265]],[[401916,802455],[127045,-42640],[61286,26371],[54190,3436],[100594,-16909]],[[745031,772713],[-62917,-6933],[-22324,-9585],[-40161,19437],[-23068,3078],[-86648,-32532],[-74295,-29413],[-50635,24786],[16933,60904]],[[233416,778704],[91669,-30901]],[[826564,588604],[501,-4192]],[[672663,716925],[114653,-73573]],[[787316,643352],[-7372,-4067],[-2527,-25579],[3900,-3640],[5862,-2440],[14339,-4320],[7622,-3409],[6475,-3983],[10949,-7310]],[[787316,643352],[6739,-30065],[31046,-13856],[1463,-10827]],[[598921,168237],[-60104,36699]],[[604452,215963],[16015,-21493],[26901,-21131]],[[745031,772713],[1389,-439],[111967,-72002]],[[858387,700272],[-4997,-662],[-65008,26116],[-43351,46987]],[[557493,379048],[33809,-43912],[-617,-23008]],[[590685,312128],[-89,-47253]],[[804740,438254],[6871,-216],[55914,-119551],[3282,-18210]],[[870807,300277],[-6871,216]],[[601157,333085],[16,3022]],[[601173,336107],[259819,-17401],[-54571,116221],[-264745,20175],[-79607,-9044],[6945,-2495],[96961,-62335],[35198,-45121]],[[600463,312515],[-9778,-387]],[[433403,450265],[19264,-2206]],[[734835,1239],[-4679,-23],[90,6648]],[[870807,300277],[18870,-118339]],[[657820,174592],[-3962,2767]],[[866174,701803],[-7787,-1531]],[[401916,802455],[30853,110797],[61705,86564],[6174,-3414]],[[827065,584412],[57,-4746],[-22005,-61533],[10203,-16465],[-2506,-30812],[-6014,-19602],[17642,-23885],[17857,-23619],[45682,-56285],[17218,-49436],[-34392,2248]],[[601844,101950],[-41881,6226],[-12955,8335],[-35667,18818],[-1043,-106]],[[447110,138795],[-8532,20530],[-40056,12113],[-51527,18954],[-51302,2019],[-29960,8031],[-31280,-2991],[-59607,-11872],[-1066,7093],[19342,4898],[36639,5593]],[[807440,34900],[-13905,-1691],[8922,6145],[4983,-4454]]],"bbox":[-498.886,-1634.947,629.853,761.397],"transform":{"scale":[0.0011287401287401288,0.0023963463963463964],"translate":[-498.886,-1634.947]}}