{"type":"Topology","objects":{"01202-4400-171.featurecollection":{"type":"GeometryCollection","geometries":[{"type":"Polygon","arcs":[[0,1,2,3,4]],"properties":{"市区町村名":"函館市","大字名":"寅沢町","丁目名":null,"小字名":null,"地番":"2","精度区分":null,"座標系":"任意座標系"}},{"type":"Polygon","arcs":[[-3,5,6]],"properties":{"市区町村名":"函館市","大字名":"寅沢町","丁目名":null,"小字名":null,"地番":"4","精度区分":null,"座標系":"任意座標系"}},{"type":"Polygon","arcs":[[7,8,-6,-2]],"properties":{"市区町村名":"函館市","大字名":"寅沢町","丁目名":null,"小字名":null,"地番":"5","精度区分":null,"座標系":"任意座標系"}},{"type":"Polygon","arcs":[[9,10,11,-8]],"properties":{"市区町村名":"函館市","大字名":"寅沢町","丁目名":null,"小字名":null,"地番":"6","精度区分":null,"座標系":"任意座標系"}},{"type":"Polygon","arcs":[[12,13,-10,14]],"properties":{"市区町村名":"函館市","大字名":"寅沢町","丁目名":null,"小字名":null,"地番":"7","精度区分":null,"座標系":"任意座標系"}},{"type":"Polygon","arcs":[[15,16]],"properties":{"市区町村名":"函館市","大字名":"寅沢町","丁目名":null,"小字名":null,"地番":"10","精度区分":null,"座標系":"任意座標系"}},{"type":"Polygon","arcs":[[17,18,19,20,21,22]],"properties":{"市区町村名":"函館市","大字名":"寅沢町","丁目名":null,"小字名":null,"地番":"11","精度区分":null,"座標系":"任意座標系"}},{"type":"Polygon","arcs":[[23,24,25]],"properties":{"市区町村名":"函館市","大字名":"寅沢町","丁目名":null,"小字名":null,"地番":"26","精度区分":null,"座標系":"任意座標系"}},{"type":"Polygon","arcs":[[26,27]],"properties":{"市区町村名":"函館市","大字名":"寅沢町","丁目名":null,"小字名":null,"地番":"無地番-4","精度区分":null,"座標系":"任意座標系"}},{"type":"Polygon","arcs":[[28,29,30,31,-4,-7,-9,-12,32,33,34,35,36]],"properties":{"市区町村名":"函館市","大字名":"寅沢町","丁目名":null,"小字名":null,"地番":"無地番-396","精度区分":null,"座標系":"任意座標系"}},{"type":"Polygon","arcs":[[-27,37]],"properties":{"市区町村名":"函館市","大字名":"鈴蘭丘町","丁目名":null,"小字名":null,"地番":"110","精度区分":null,"座標系":"任意座標系"}},{"type":"Polygon","arcs":[[38]],"properties":{"市区町村名":"函館市","大字名":"鈴蘭丘町","丁目名":null,"小字名":null,"地番":"111","精度区分":null,"座標系":"任意座標系"}},{"type":"Polygon","arcs":[[39,40]],"properties":{"市区町村名":"函館市","大字名":"鈴蘭丘町","丁目名":null,"小字名":null,"地番":"112","精度区分":null,"座標系":"任意座標系"}},{"type":"Polygon","arcs":[[41,42,43,44,45]],"properties":{"市区町村名":"函館市","大字名":"寅沢町","丁目名":null,"小字名":null,"地番":"29","精度区分":null,"座標系":"任意座標系"}},{"type":"Polygon","arcs":[[-45,46,47,-25,48]],"properties":{"市区町村名":"函館市","大字名":"寅沢町","丁目名":null,"小字名":null,"地番":"28","精度区分":null,"座標系":"任意座標系"}},{"type":"Polygon","arcs":[[49,-37,50,-23]],"properties":{"市区町村名":"函館市","大字名":"寅沢町","丁目名":null,"小字名":null,"地番":"12","精度区分":null,"座標系":"任意座標系"}},{"type":"Polygon","arcs":[[-1,51,-15]],"properties":{"市区町村名":"函館市","大字名":"寅沢町","丁目名":null,"小字名":null,"地番":"1","精度区分":null,"座標系":"任意座標系"}},{"type":"Polygon","arcs":[[52,53,-34,54]],"properties":{"市区町村名":"函館市","大字名":"寅沢町","丁目名":null,"小字名":null,"地番":"9","精度区分":null,"座標系":"任意座標系"}},{"type":"Polygon","arcs":[[-35,-54,55]],"properties":{"市区町村名":"函館市","大字名":"寅沢町","丁目名":null,"小字名":null,"地番":"3","精度区分":null,"座標系":"任意座標系"}},{"type":"Polygon","arcs":[[-11,-14,56]],"properties":{"市区町村名":"函館市","大字名":"寅沢町","丁目名":null,"小字名":null,"地番":"8","精度区分":null,"座標系":"任意座標系"}},{"type":"Polygon","arcs":[[57,58]],"properties":{"市区町村名":"函館市","大字名":"寅沢町","丁目名":null,"小字名":null,"地番":"25-2","精度区分":null,"座標系":"任意座標系"}},{"type":"Polygon","arcs":[[59,-59,60,61,62]],"properties":{"市区町村名":"函館市","大字名":"寅沢町","丁目名":null,"小字名":null,"地番":"25-3","精度区分":null,"座標系":"任意座標系"}},{"type":"Polygon","arcs":[[-62,63,-46,-49,-24,64,-31,65]],"properties":{"市区町村名":"函館市","大字名":"寅沢町","丁目名":null,"小字名":null,"地番":"25-1","精度区分":null,"座標系":"任意座標系"}},{"type":"Polygon","arcs":[[66,67,68]],"properties":{"市区町村名":"函館市","大字名":"寅沢町","丁目名":null,"小字名":null,"地番":"30-2","精度区分":null,"座標系":"任意座標系"}},{"type":"Polygon","arcs":[[69,-67,70,71]],"properties":{"市区町村名":"函館市","大字名":"寅沢町","丁目名":null,"小字名":null,"地番":"30-3","精度区分":null,"座標系":"任意座標系"}},{"type":"Polygon","arcs":[[72,-72,73,74]],"properties":{"市区町村名":"函館市","大字名":"寅沢町","丁目名":null,"小字名":null,"地番":"30-1","精度区分":null,"座標系":"任意座標系"}},{"type":"Polygon","arcs":[[75,76]],"properties":{"市区町村名":"函館市","大字名":"寅沢町","丁目名":null,"小字名":null,"地番":"31-2","精度区分":null,"座標系":"任意座標系"}},{"type":"Polygon","arcs":[[77,78]],"properties":{"市区町村名":"函館市","大字名":"寅沢町","丁目名":null,"小字名":null,"地番":"31-3","精度区分":null,"座標系":"任意座標系"}},{"type":"Polygon","arcs":[[79,80,-76,81,-78]],"properties":{"市区町村名":"函館市","大字名":"寅沢町","丁目名":null,"小字名":null,"地番":"31-1","精度区分":null,"座標系":"任意座標系"}},{"type":"Polygon","arcs":[[82,-66,83,84]],"properties":{"市区町村名":"函館市","大字名":"寅沢町","丁目名":null,"小字名":null,"地番":"24-1","精度区分":null,"座標系":"任意座標系"}},{"type":"Polygon","arcs":[[85,-63,-83]],"properties":{"市区町村名":"函館市","大字名":"寅沢町","丁目名":null,"小字名":null,"地番":"24-2","精度区分":null,"座標系":"任意座標系"}},{"type":"Polygon","arcs":[[86,-85,87]],"properties":{"市区町村名":"函館市","大字名":"寅沢町","丁目名":null,"小字名":null,"地番":"32-1","精度区分":null,"座標系":"任意座標系"}},{"type":"Polygon","arcs":[[88,-86,-87]],"properties":{"市区町村名":"函館市","大字名":"寅沢町","丁目名":null,"小字名":null,"地番":"32-2","精度区分":null,"座標系":"任意座標系"}},{"type":"Polygon","arcs":[[89,-21,90,91]],"properties":{"市区町村名":"函館市","大字名":"寅沢町","丁目名":null,"小字名":null,"地番":"無地番-397","精度区分":null,"座標系":"任意座標系"}},{"type":"Polygon","arcs":[[-22,-90,92,-29,-50]],"properties":{"市区町村名":"函館市","大字名":"寅沢町","丁目名":null,"小字名":null,"地番":"13","精度区分":null,"座標系":"任意座標系"}},{"type":"Polygon","arcs":[[-48,93]],"properties":{"市区町村名":"函館市","大字名":"寅沢町","丁目名":null,"小字名":null,"地番":"27","精度区分":null,"座標系":"任意座標系"}},{"type":"Polygon","arcs":[[94,-43,95,-74,-71,-69]],"properties":{"市区町村名":"函館市","大字名":"寅沢町","丁目名":null,"小字名":null,"地番":"無地番-395","精度区分":null,"座標系":"任意座標系"}},{"type":"Polygon","arcs":[[96,-18,-51,-36,97]],"properties":{"市区町村名":"函館市","大字名":"寅沢町","丁目名":null,"小字名":null,"地番":"無地番-399","精度区分":null,"座標系":"任意座標系"}},{"type":"Polygon","arcs":[[98,-41,99,-17,100,-91,-20]],"properties":{"市区町村名":"函館市","大字名":"寅沢町","丁目名":null,"小字名":null,"地番":"無地番-400","精度区分":null,"座標系":"任意座標系"}}]}},"arcs":[[[446174,89072],[-25353,62120]],[[420821,151192],[49327,33404]],[[470148,184596],[60272,41667]],[[530420,226263],[15167,10211]],[[545587,236474],[7159,-34586],[-1542,-52538],[-9676,-38904],[-95354,-21374]],[[470148,184596],[-62708,69284]],[[407440,253880],[20452,-3767],[27842,5692],[57116,-20305],[17570,-9237]],[[420821,151192],[-84325,65438]],[[336496,216630],[70944,37250]],[[420821,151192],[-116636,51072]],[[304185,202264],[-4180,19770]],[[300005,222034],[36491,-5404]],[[312953,115871],[-506,13778],[-51659,30582]],[[260788,160231],[21907,23581],[21490,18452]],[[420821,151192],[-107868,-35321]],[[5946,429410],[40196,29119]],[[46142,458529],[24284,-19238],[47597,-24317],[37718,-39795],[32352,-8013],[29571,-24507],[-3047,-21567],[-41166,-6248],[-147938,97345],[-19567,17221]],[[321595,246605],[-17185,-8455]],[[304410,238150],[-29686,37736],[-32402,22510],[-20950,25427]],[[221372,323823],[2438,20793],[-32439,26644],[-32419,6745],[-37719,40070],[-47747,23709],[-22115,17817]],[[51371,459601],[4432,48196]],[[55803,507797],[133272,-76685]],[[189075,431112],[66476,-77315],[66044,-107192]],[[639270,378337],[17408,35907]],[[656678,414244],[48880,-30208]],[[705558,384036],[-66288,-5699]],[[175362,69889],[-25123,-25854]],[[150239,44035],[-68253,-44035],[10596,11438],[8585,15384],[10791,10976],[19906,6186],[34930,26037],[8568,-132]],[[458051,580264],[-15167,69605],[5276,28980]],[[448160,678849],[9626,126]],[[457786,678975],[-3894,-28687],[14291,-70840],[-17668,-78929],[-23905,-47331],[656,-8386],[18401,-139156]],[[445667,305646],[126566,-76495],[931,-9477],[-27577,16800]],[[300005,222034],[-4582,4279]],[[295423,226313],[38495,-5505],[72250,37586]],[[406168,258394],[22995,-3811],[28690,5586],[59976,-21339],[11461,-6619],[10874,7546],[-100382,60295]],[[439782,300052],[-2866,1861]],[[436916,301913],[-18659,142242],[-1353,7547],[24857,48821],[16290,79741]],[[175362,69889],[45491,-3655],[8352,-3600],[-10376,-20496],[-68590,1897]],[[215867,81150],[-1362,23697],[38185,38756],[14307,-50096],[-51130,-12357]],[[286887,233165],[-35581,-36981],[-2701,-8446],[-71154,48520]],[[177451,236258],[-4870,72189],[35245,5063],[6150,1406],[-1895,-12301],[44740,-32267],[30066,-37183]],[[765742,550499],[53702,20]],[[819444,550519],[-2854,-87713]],[[816590,462806],[-15063,-13076]],[[801527,449730],[-80437,-195]],[[721090,449535],[-166,36435],[18841,12928],[25977,51601]],[[801527,449730],[-45020,-41378]],[[756507,408352],[-50949,-24316]],[[656678,414244],[28600,24053],[35812,11238]],[[189075,431112],[268976,149152]],[[436916,301913],[-115321,-55308]],[[446174,89072],[-207839,-48280],[4090,16830],[41132,10106],[29396,48143]],[[292482,227733],[141316,69293]],[[433798,297026],[-27630,-38632]],[[295423,226313],[-2941,1420]],[[433798,297026],[5984,3026]],[[260788,160231],[39217,61803]],[[822667,647812],[11479,-80788],[-14663,-16240],[-30324,-119]],[[789159,550665],[-3462,8623],[23270,78841],[13700,9683]],[[819355,661968],[3312,-14156]],[[789159,550665],[-19727,-42]],[[769432,550623],[-3691,7571],[8995,48721],[-9655,20438]],[[765081,627353],[54274,34615]],[[769432,550623],[-3690,-124]],[[639270,378337],[-40509,-31902],[-69058,-21384],[10577,-28562],[-14697,-38905],[-79916,48062]],[[457786,678975],[190641,-142413],[71082,60264],[45572,30527]],[[824541,474588],[8157,-6227]],[[832698,468361],[-8555,-4490],[45,2387]],[[824188,466258],[353,8330]],[[856070,494766],[-14188,-21584],[-9184,-4821]],[[824541,474588],[1345,31802]],[[825886,506390],[8190,-4071],[21994,-7553]],[[842872,567716],[40207,-31862],[-27009,-41088]],[[825886,506390],[1878,44386]],[[827764,550776],[15108,16940]],[[878997,683378],[-38355,-20112],[-11720,-7756]],[[828922,655510],[-702,4426],[30719,15952],[20058,7490]],[[965674,697926],[-64302,-6193]],[[901372,691733],[40527,15133],[23775,-8940]],[[965674,697926],[34325,-12908],[-157127,-117302]],[[842872,567716],[-13950,87794]],[[878997,683378],[22375,8355]],[[805816,681486],[-9748,-9170],[-31559,-43189],[572,-1774]],[[457786,678975],[-53430,97082],[90480,124028]],[[494836,900085],[53989,-14274],[66590,-21682],[47404,-24240],[73739,-66526],[29533,-31917],[39725,-59960]],[[805816,681486],[13539,-19518]],[[945493,757633],[-30500,-3930],[-70116,-35534],[-39061,-36683]],[[494836,900085],[18981,99914],[84835,-7065],[90993,-2139],[42823,-16269],[7063,-2917],[57311,-21324],[72160,-33770],[47623,-27417],[53147,-10436],[-24279,-121029]],[[945493,757633],[-10109,-47739],[-82932,-29174],[-33097,-18752]],[[51171,510592],[4632,-2795]],[[51371,459601],[-4807,3505]],[[46564,463106],[4607,47486]],[[51171,510592],[301384,294308],[40646,-30810],[54959,-95241]],[[756507,408352],[-32261,-34838],[-18688,10522]],[[824188,466258],[-7598,-3452]],[[819444,550519],[8320,257]],[[292482,227733],[2568,5910],[9360,4507]],[[439782,300052],[-147300,-72319]],[[221372,323823],[-801,-5130],[-969,-3807],[-1523,-10921],[43502,-31611],[28441,-36529],[-3135,-2660]],[[177451,236258],[-18834,3939],[-3260,73188],[-155357,108612],[5946,7413]],[[46142,458529],[422,4577]]],"bbox":[1008.837,5535.537,1745.997,6565.922],"transform":{"scale":[0.0007371607371607372,0.0010303860303860297],"translate":[1008.837,5535.537]}}