{"type":"Topology","objects":{"01202-4400-32":{"type":"GeometryCollection","geometries":[{"type":"MultiPolygon","arcs":[[[0,1]]],"properties":{"筆ID":"H000000001","version":"ver1.0","座標系":"任意座標系","測地系判別":null,"地図名":"蛾眉野・糸川","地図番号":"亀47-1-2","縮尺分母":"1200","市区町村コード":"01202","市区町村名":"函館市","大字コード":"083","丁目コード":"000","小字コード":"0000","予備コード":"00","大字名":"蛾眉野町","丁目名":null,"小字名":null,"予備名":null,"地番":"119-1W2","精度区分":null,"座標値種別":"図上測量","筆界未定構成筆":null,"代表点緯度":-244776.683,"代表点経度":58778.261943688}},{"type":"MultiPolygon","arcs":[[[-1,2]]],"properties":{"筆ID":"H000000002","version":"ver1.0","座標系":"任意座標系","測地系判別":null,"地図名":"蛾眉野・糸川","地図番号":"亀47-1-2","縮尺分母":"1200","市区町村コード":"01202","市区町村名":"函館市","大字コード":"083","丁目コード":"000","小字コード":"0000","予備コード":"00","大字名":"蛾眉野町","丁目名":null,"小字名":null,"予備名":null,"地番":"120","精度区分":null,"座標値種別":"図上測量","筆界未定構成筆":null,"代表点緯度":-244760.778,"代表点経度":58801.243081346}},{"type":"MultiPolygon","arcs":[[[3,4,5,6]]],"properties":{"筆ID":"H000000003","version":"ver1.0","座標系":"任意座標系","測地系判別":null,"地図名":"蛾眉野・糸川","地図番号":"亀47-1-2","縮尺分母":"1200","市区町村コード":"01202","市区町村名":"函館市","大字コード":"083","丁目コード":"000","小字コード":"0000","予備コード":"00","大字名":"蛾眉野町","丁目名":null,"小字名":null,"予備名":null,"地番":"121-2","精度区分":null,"座標値種別":"図上測量","筆界未定構成筆":null,"代表点緯度":-244588.6195,"代表点経度":58832.480053068}},{"type":"MultiPolygon","arcs":[[[-4,7,8,9]]],"properties":{"筆ID":"H000000004","version":"ver1.0","座標系":"任意座標系","測地系判別":null,"地図名":"蛾眉野・糸川","地図番号":"亀47-1-2","縮尺分母":"1200","市区町村コード":"01202","市区町村名":"函館市","大字コード":"083","丁目コード":"000","小字コード":"0000","予備コード":"00","大字名":"蛾眉野町","丁目名":null,"小字名":null,"予備名":null,"地番":"121-4W2","精度区分":null,"座標値種別":"図上測量","筆界未定構成筆":null,"代表点緯度":-244593.59,"代表点経度":58797.877397201}},{"type":"MultiPolygon","arcs":[[[10,-8,-7,11,12]]],"properties":{"筆ID":"H000000005","version":"ver1.0","座標系":"任意座標系","測地系判別":null,"地図名":"蛾眉野・糸川","地図番号":"亀47-1-2","縮尺分母":"1200","市区町村コード":"01202","市区町村名":"函館市","大字コード":"083","丁目コード":"000","小字コード":"0000","予備コード":"00","大字名":"蛾眉野町","丁目名":null,"小字名":null,"予備名":null,"地番":"121-5W1","精度区分":null,"座標値種別":"図上測量","筆界未定構成筆":null,"代表点緯度":-244600.7075,"代表点経度":58791.494331254}},{"type":"MultiPolygon","arcs":[[[-13,13]]],"properties":{"筆ID":"H000000006","version":"ver1.0","座標系":"任意座標系","測地系判別":null,"地図名":"蛾眉野・糸川","地図番号":"亀47-1-2","縮尺分母":"1200","市区町村コード":"01202","市区町村名":"函館市","大字コード":"083","丁目コード":"000","小字コード":"0000","予備コード":"00","大字名":"蛾眉野町","丁目名":null,"小字名":null,"予備名":null,"地番":"121-6W2","精度区分":null,"座標値種別":"図上測量","筆界未定構成筆":null,"代表点緯度":-244622.8475,"代表点経度":58803.382277405}},{"type":"MultiPolygon","arcs":[[[14,15,16,17,18]]],"properties":{"筆ID":"H000000007","version":"ver1.0","座標系":"任意座標系","測地系判別":null,"地図名":"蛾眉野・糸川","地図番号":"亀47-2-2","縮尺分母":"1200","市区町村コード":"01202","市区町村名":"函館市","大字コード":"083","丁目コード":"000","小字コード":"0000","予備コード":"00","大字名":"蛾眉野町","丁目名":null,"小字名":null,"予備名":null,"地番":"122-1","精度区分":null,"座標値種別":"図上測量","筆界未定構成筆":null,"代表点緯度":-244388.8015,"代表点経度":58862.225891266}},{"type":"MultiPolygon","arcs":[[[19,-15,20]]],"properties":{"筆ID":"H000000008","version":"ver1.0","座標系":"任意座標系","測地系判別":null,"地図名":"蛾眉野・糸川","地図番号":"亀47-2-2","縮尺分母":"1200","市区町村コード":"01202","市区町村名":"函館市","大字コード":"083","丁目コード":"000","小字コード":"0000","予備コード":"00","大字名":"蛾眉野町","丁目名":null,"小字名":null,"予備名":null,"地番":"122-4","精度区分":null,"座標値種別":"図上測量","筆界未定構成筆":null,"代表点緯度":-244501.949,"代表点経度":58862.359697631}},{"type":"MultiPolygon","arcs":[[[21,22,23,24,-16]]],"properties":{"筆ID":"H000000009","version":"ver1.0","座標系":"任意座標系","測地系判別":null,"地図名":"蛾眉野・糸川","地図番号":"亀47-2-2","縮尺分母":"1200","市区町村コード":"01202","市区町村名":"函館市","大字コード":"083","丁目コード":"000","小字コード":"0000","予備コード":"00","大字名":"蛾眉野町","丁目名":null,"小字名":null,"予備名":null,"地番":"122-6","精度区分":null,"座標値種別":"図上測量","筆界未定構成筆":null,"代表点緯度":-244438.4545,"代表点経度":58832.445780468}},{"type":"MultiPolygon","arcs":[[[-24,25,26]]],"properties":{"筆ID":"H000000010","version":"ver1.0","座標系":"任意座標系","測地系判別":null,"地図名":"蛾眉野・糸川","地図番号":"亀47-2-2","縮尺分母":"1200","市区町村コード":"01202","市区町村名":"函館市","大字コード":"083","丁目コード":"000","小字コード":"0000","予備コード":"00","大字名":"蛾眉野町","丁目名":null,"小字名":null,"予備名":null,"地番":"122-7","精度区分":null,"座標値種別":"図上測量","筆界未定構成筆":null,"代表点緯度":-244424.889,"代表点経度":58833.312567838}},{"type":"MultiPolygon","arcs":[[[-27,27,-17,-25]]],"properties":{"筆ID":"H000000011","version":"ver1.0","座標系":"任意座標系","測地系判別":null,"地図名":"蛾眉野・糸川","地図番号":"亀47-2-2","縮尺分母":"1200","市区町村コード":"01202","市区町村名":"函館市","大字コード":"083","丁目コード":"000","小字コード":"0000","予備コード":"00","大字名":"蛾眉野町","丁目名":null,"小字名":null,"予備名":null,"地番":"122-8","精度区分":null,"座標値種別":"図上測量","筆界未定構成筆":null,"代表点緯度":-244406.698,"代表点経度":58849.527172809}},{"type":"MultiPolygon","arcs":[[[28,29,30]]],"properties":{"筆ID":"H000000012","version":"ver1.0","座標系":"任意座標系","測地系判別":null,"地図名":"蛾眉野・糸川","地図番号":"亀47-2-2","縮尺分母":"1200","市区町村コード":"01202","市区町村名":"函館市","大字コード":"083","丁目コード":"000","小字コード":"0000","予備コード":"00","大字名":"蛾眉野町","丁目名":null,"小字名":null,"予備名":null,"地番":"187-33","精度区分":null,"座標値種別":"図上測量","筆界未定構成筆":null,"代表点緯度":-244427.0425,"代表点経度":58797.23778077}},{"type":"MultiPolygon","arcs":[[[31,32,33]]],"properties":{"筆ID":"H000000013","version":"ver1.0","座標系":"任意座標系","測地系判別":null,"地図名":"蛾眉野・糸川","地図番号":"亀47-2-2","縮尺分母":"1200","市区町村コード":"01202","市区町村名":"函館市","大字コード":"083","丁目コード":"000","小字コード":"0000","予備コード":"00","大字名":"蛾眉野町","丁目名":null,"小字名":null,"予備名":null,"地番":"187-40","精度区分":null,"座標値種別":"図上測量","筆界未定構成筆":null,"代表点緯度":-244357.1545,"代表点経度":58852.840528426}},{"type":"MultiPolygon","arcs":[[[-33,34,35,36,37,38,39]]],"properties":{"筆ID":"H000000014","version":"ver1.0","座標系":"任意座標系","測地系判別":null,"地図名":"蛾眉野・糸川","地図番号":"亀47-2-2","縮尺分母":"1200","市区町村コード":"01202","市区町村名":"函館市","大字コード":"083","丁目コード":"000","小字コード":"0000","予備コード":"00","大字名":"蛾眉野町","丁目名":null,"小字名":null,"予備名":null,"地番":"187-41","精度区分":null,"座標値種別":"図上測量","筆界未定構成筆":null,"代表点緯度":-244283.324,"代表点経度":58822.635290551}},{"type":"MultiPolygon","arcs":[[[40,41,-36]]],"properties":{"筆ID":"H000000015","version":"ver1.0","座標系":"任意座標系","測地系判別":null,"地図名":"蛾眉野・糸川","地図番号":"亀47-2-2","縮尺分母":"1200","市区町村コード":"01202","市区町村名":"函館市","大字コード":"083","丁目コード":"000","小字コード":"0000","予備コード":"00","大字名":"蛾眉野町","丁目名":null,"小字名":null,"予備名":null,"地番":"187-44","精度区分":null,"座標値種別":"図上測量","筆界未定構成筆":null,"代表点緯度":-244305.863,"代表点経度":58799.248885434}},{"type":"MultiPolygon","arcs":[[[42,43,-29]]],"properties":{"筆ID":"H000000016","version":"ver1.0","座標系":"任意座標系","測地系判別":null,"地図名":"蛾眉野・糸川","地図番号":"亀47-2-2","縮尺分母":"1200","市区町村コード":"01202","市区町村名":"函館市","大字コード":"083","丁目コード":"000","小字コード":"0000","予備コード":"00","大字名":"蛾眉野町","丁目名":null,"小字名":null,"予備名":null,"地番":"187-45","精度区分":null,"座標値種別":"図上測量","筆界未定構成筆":null,"代表点緯度":-244432.6575,"代表点経度":58790.686702605}},{"type":"MultiPolygon","arcs":[[[44,-44,45,46]]],"properties":{"筆ID":"H000000017","version":"ver1.0","座標系":"任意座標系","測地系判別":null,"地図名":"蛾眉野・糸川","地図番号":"亀47-2-2","縮尺分母":"1200","市区町村コード":"01202","市区町村名":"函館市","大字コード":"083","丁目コード":"000","小字コード":"0000","予備コード":"00","大字名":"蛾眉野町","丁目名":null,"小字名":null,"予備名":null,"地番":"187-20W1","精度区分":null,"座標値種別":"図上測量","筆界未定構成筆":null,"代表点緯度":-244451.76,"代表点経度":58785.661071285}},{"type":"MultiPolygon","arcs":[[[-45,47,48,-41,-35,-32,49,-30]]],"properties":{"筆ID":"H000000018","version":"ver1.0","座標系":"任意座標系","測地系判別":null,"地図名":"蛾眉野・糸川","地図番号":"亀47-2-2","縮尺分母":"1200","市区町村コード":"01202","市区町村名":"函館市","大字コード":"083","丁目コード":"000","小字コード":"0000","予備コード":"00","大字名":"蛾眉野町","丁目名":null,"小字名":null,"予備名":null,"地番":"187-39W1","精度区分":null,"座標値種別":"図上測量","筆界未定構成筆":null,"代表点緯度":-244398.0385,"代表点経度":58810.276450865}},{"type":"MultiPolygon","arcs":[[[-39,50,51,52]]],"properties":{"筆ID":"H000000019","version":"ver1.0","座標系":"任意座標系","測地系判別":null,"地図名":"蛾眉野・糸川","地図番号":"亀47-2-2","縮尺分母":"1200","市区町村コード":"01202","市区町村名":"函館市","大字コード":"083","丁目コード":"000","小字コード":"0000","予備コード":"00","大字名":"蛾眉野町","丁目名":null,"小字名":null,"予備名":null,"地番":"187-42W3","精度区分":null,"座標値種別":"図上測量","筆界未定構成筆":null,"代表点緯度":-244211.7045,"代表点経度":58782.873121175}},{"type":"MultiPolygon","arcs":[[[53,54,-51,-38]]],"properties":{"筆ID":"H000000020","version":"ver1.0","座標系":"任意座標系","測地系判別":null,"地図名":"蛾眉野・糸川","地図番号":"亀47-2-2","縮尺分母":"1200","市区町村コード":"01202","市区町村名":"函館市","大字コード":"083","丁目コード":"000","小字コード":"0000","予備コード":"00","大字名":"蛾眉野町","丁目名":null,"小字名":null,"予備名":null,"地番":"187-43W2","精度区分":null,"座標値種別":"図上測量","筆界未定構成筆":null,"代表点緯度":-244222.5285,"代表点経度":58775.286640404}},{"type":"MultiPolygon","arcs":[[[-18,-28,-26,-23,55,56,-46,-43,-31,-50,-34,-40,-53,57]]],"properties":{"筆ID":"H000000021","version":"ver1.0","座標系":"任意座標系","測地系判別":null,"地図名":"蛾眉野・糸川","地図番号":"亀47-2-2","縮尺分母":"1200","市区町村コード":"01202","市区町村名":"函館市","大字コード":"083","丁目コード":"000","小字コード":"0000","予備コード":"00","大字名":"蛾眉野町","丁目名":null,"小字名":null,"予備名":null,"地番":"道-151","精度区分":null,"座標値種別":"図上測量","筆界未定構成筆":null,"代表点緯度":-244371.9305,"代表点経度":58855.021406126}},{"type":"MultiPolygon","arcs":[[[58,59,60,61]]],"properties":{"筆ID":"H000000022","version":"ver1.0","座標系":"任意座標系","測地系判別":null,"地図名":"蛾眉野・糸川","地図番号":"亀47-2-2","縮尺分母":"1200","市区町村コード":"01202","市区町村名":"函館市","大字コード":"083","丁目コード":"000","小字コード":"0000","予備コード":"00","大字名":"蛾眉野町","丁目名":null,"小字名":null,"予備名":null,"地番":"121-7","精度区分":null,"座標値種別":"図上測量","筆界未定構成筆":null,"代表点緯度":-244550.3085,"代表点経度":58836.86670323}},{"type":"MultiPolygon","arcs":[[[-61,62,63,64]]],"properties":{"筆ID":"H000000023","version":"ver1.0","座標系":"任意座標系","測地系判別":null,"地図名":"蛾眉野・糸川","地図番号":"亀47-2-2","縮尺分母":"1200","市区町村コード":"01202","市区町村名":"函館市","大字コード":"083","丁目コード":"000","小字コード":"0000","予備コード":"00","大字名":"蛾眉野町","丁目名":null,"小字名":null,"予備名":null,"地番":"121-1W1","精度区分":null,"座標値種別":"図上測量","筆界未定構成筆":null,"代表点緯度":-244564.82,"代表点経度":58794.247386125}},{"type":"MultiPolygon","arcs":[[[-10,65,-63,-60,66,-5]]],"properties":{"筆ID":"H000000024","version":"ver1.0","座標系":"任意座標系","測地系判別":null,"地図名":"蛾眉野・糸川","地図番号":"亀47-1-2","縮尺分母":"1200","市区町村コード":"01202","市区町村名":"函館市","大字コード":"083","丁目コード":"000","小字コード":"0000","予備コード":"00","大字名":"蛾眉野町","丁目名":null,"小字名":null,"予備名":null,"地番":"121-3W2","精度区分":null,"座標値種別":"図上測量","筆界未定構成筆":null,"代表点緯度":-244588.342,"代表点経度":58786.281436016}},{"type":"MultiPolygon","arcs":[[[67,-56,-22,-20,-62,-65]]],"properties":{"筆ID":"H000000025","version":"ver1.0","座標系":"任意座標系","測地系判別":null,"地図名":"蛾眉野・糸川","地図番号":"亀47-2-2","縮尺分母":"1200","市区町村コード":"01202","市区町村名":"函館市","大字コード":"083","丁目コード":"000","小字コード":"0000","予備コード":"00","大字名":"蛾眉野町","丁目名":null,"小字名":null,"予備名":null,"地番":"122-5W2","精度区分":null,"座標値種別":"図上測量","筆界未定構成筆":null,"代表点緯度":-244498.7895,"代表点経度":58820.380099591}},{"type":"MultiPolygon","arcs":[[[-42,-49,68,-54,-37]]],"properties":{"筆ID":"H000000026","version":"ver1.0","座標系":"任意座標系","測地系判別":null,"地図名":"蛾眉野・糸川","地図番号":"亀47-2-2","縮尺分母":"1200","市区町村コード":"01202","市区町村名":"函館市","大字コード":"083","丁目コード":"000","小字コード":"0000","予備コード":"00","大字名":"蛾眉野町","丁目名":null,"小字名":null,"予備名":null,"地番":"187-1W5","精度区分":null,"座標値種別":"図上測量","筆界未定構成筆":null,"代表点緯度":-244326.703,"代表点経度":58788.301727384}}]}},"arcs":[[[214428,324406],[-65705,-68789],[-36645,-37426],[-1804,-1178],[-15145,-16108],[-27839,-27723],[-18345,-18819],[-1992,-1886],[-4746,-5529],[33505,-9288],[92661,-25549],[294857,-81435],[15757,-3807]],[[478987,26869],[-271524,-15659],[-174772,-10158],[-18481,-1052],[-4664,327956],[6203,-752],[187088,-2730],[11591,-68]],[[214428,324406],[59405,-68211],[120869,-135244],[2264,-2653],[76127,-84298],[5894,-7131]],[[338475,430137],[-1351,16335]],[[337124,446472],[385,804],[61977,-1079],[75614,-1185],[68581,-1112],[17727,-181]],[[561408,443719],[-21726,-9571],[-16670,-7985]],[[523012,426163],[-24473,1608],[-44304,2682],[-67675,-65],[-48085,-251]],[[338475,430137],[-15870,-463],[-130989,-4019],[-72309,-2126],[-53232,-3258],[-57789,-3538]],[[8286,416733],[-196,13980]],[[8090,430713],[39218,1896],[31091,1621],[58800,3019],[91741,4181],[72369,3494],[35815,1548]],[[8376,410289],[-90,6444]],[[523012,426163],[-7652,-3705]],[[515360,422458],[-27484,1339],[-87461,4543],[-99763,-1179],[-29000,-97],[-67992,-4840],[-195284,-11935]],[[515360,422458],[-36132,-16087],[-77561,-35035],[-30751,-13756],[-26253,-3169],[-85440,-10573],[-68007,-8878],[-167573,3235],[-14248,739],[-1019,71355]],[[690570,609357],[-61721,7282]],[[628849,616639],[-17560,30746],[-9954,18836],[-8905,16598],[-9304,17610]],[[583126,700429],[-4385,6710]],[[578741,707139],[97514,84878],[18503,15298],[-2143,15541],[-4958,36394],[-1388,1229],[-45,3923]],[[686224,864402],[254733,910],[20420,-72],[-120952,-46527],[-53360,-20140],[-11818,-13094],[-11583,-14229],[-21824,-26421],[-22194,-27072],[-8897,-11205],[-8052,-42252],[-4747,-22387],[-5591,-23337],[-1789,-9219]],[[677168,530087],[-3479,4722],[-9953,19576],[-13380,22717],[-14165,25931],[-7342,13606]],[[690570,609357],[-3486,-19921],[-8331,-40483],[-2966,-13205],[1381,-5661]],[[628849,616639],[-337305,40928],[-18217,2155]],[[273327,659722],[26759,4209],[54145,8586]],[[354231,672517],[103302,-11026],[27038,8771],[87145,31058]],[[571716,701320],[11410,-891]],[[354231,672517],[77923,11951],[84685,13224],[35438,5385]],[[552277,703077],[19439,-1757]],[[552277,703077],[26464,4062]],[[229793,660249],[-159114,20425]],[[70679,680674],[80647,13386],[119300,-24051]],[[270626,670009],[-29333,-4626],[-11500,-5134]],[[556510,723949],[-86669,5826],[50764,22528],[33188,14884]],[[553793,767187],[100525,45352]],[[654318,812539],[513,-4868],[-24043,-19665],[-74278,-64057]],[[553793,767187],[-252409,5231]],[[301384,772418],[-20344,15127],[-53308,42390],[-75327,60552],[-43504,26771]],[[108901,917258],[-56318,39830],[-14919,12128],[-7079,923]],[[30585,970139],[-7033,5331]],[[23552,975470],[76014,9729],[79795,10419]],[[179361,995618],[23544,-6789],[92442,-25471],[141033,-38473],[53157,-14541],[6942,-1596],[102607,-27994],[48832,-13263],[6400,-54952]],[[301384,772418],[-27008,-3466]],[[274376,768952],[-110749,106399],[-54726,41907]],[[229793,660249],[-24466,-9674]],[[205327,650575],[-175557,23429],[40909,6670]],[[4407,689369],[66272,-8695]],[[205327,650575],[-57555,-22796],[-119466,-48108],[-22193,-10158]],[[6113,569513],[-1706,119856]],[[4407,689369],[-573,40662]],[[3834,730031],[275500,34732],[-4958,4189]],[[556510,723949],[-14670,-12342],[-27250,-4107],[-94570,-14505],[-50055,-7633],[-99339,-15353]],[[23552,975470],[-23243,2497]],[[309,977967],[-309,21472],[166434,61]],[[166434,999500],[12927,-3882]],[[30585,970139],[-30215,3535]],[[370,973674],[-61,4293]],[[273327,659722],[-19273,-7355],[-86262,-34467],[-65117,-25791],[-23024,-9002],[-15477,-6998],[-25650,-11485],[-20503,-9330],[-11629,-5100]],[[6392,550194],[-279,19319]],[[166434,999500],[49496,43],[75780,-20947],[247511,-67519],[121156,-33363],[44026,45042],[29332,28718],[4747,4631],[81326,17441],[17953,3674],[107188,22747],[55050,32],[-86752,-18554],[-113882,-24128],[-28751,-6105],[-10203,-10367],[-47858,-48405],[-25862,-25854],[-467,-2184]],[[677168,530087],[-6052,-7710],[-7909,-8004],[-37354,-38771],[-2317,-3392],[-8542,-4458],[-45006,-20650]],[[569988,447102],[-16670,283],[-116832,2698],[-33657,-453],[-106312,-843]],[[296517,448787],[19666,67548]],[[316183,516335],[161966,18613],[37860,-894],[161159,-3967]],[[296517,448787],[-41142,-326],[-172290,-820],[-52107,-3101],[-23069,-1376]],[[7909,443164],[-333,23363],[-203,14456]],[[7373,480983],[46576,5216],[262234,30136]],[[8090,430713],[-181,12451]],[[569988,447102],[-8580,-3383]],[[7373,480983],[-981,69211]],[[3834,730031],[-3464,243643]]],"bbox":[58773.624,-244888.616,58906.139,-244205.15],"transform":{"scale":[0.00013251513251513194,0.0006834666834666984],"translate":[58773.624,-244888.616]}}
