{"type":"Topology","objects":{"01202-4400-179":{"type":"GeometryCollection","geometries":[{"type":"MultiPolygon","arcs":[[[0,1,2,3]]],"properties":{"筆ID":"H000000001","version":"ver1.0","座標系":"任意座標系","測地系判別":null,"地図名":"小安村字イツムラ・スケマ・ナカトロ・他","地図番号":"小安35-1-6","縮尺分母":"600","市区町村コード":"01202","市区町村名":"函館市","大字コード":"132","丁目コード":"000","小字コード":"0000","予備コード":"00","大字名":"瀬田来町","丁目名":null,"小字名":null,"予備名":null,"地番":"605","精度区分":null,"座標値種別":"図上測量","筆界未定構成筆":null,"代表点緯度":-253697.913,"代表点経度":61012.852976807}},{"type":"MultiPolygon","arcs":[[[4,-4,5,6]]],"properties":{"筆ID":"H000000002","version":"ver1.0","座標系":"任意座標系","測地系判別":null,"地図名":"小安村字イツムラ・スケマ・ナカトロ・他","地図番号":"小安35-1-6","縮尺分母":"600","市区町村コード":"01202","市区町村名":"函館市","大字コード":"132","丁目コード":"000","小字コード":"0000","予備コード":"00","大字名":"瀬田来町","丁目名":null,"小字名":null,"予備名":null,"地番":"606","精度区分":null,"座標値種別":"図上測量","筆界未定構成筆":null,"代表点緯度":-253715.429,"代表点経度":61006.750096178}},{"type":"MultiPolygon","arcs":[[[7,8]]],"properties":{"筆ID":"H000000003","version":"ver1.0","座標系":"任意座標系","測地系判別":null,"地図名":"小安村字イツムラ・スケマ・ナカトロ・他","地図番号":"小安34-2-6","縮尺分母":"600","市区町村コード":"01202","市区町村名":"函館市","大字コード":"132","丁目コード":"000","小字コード":"0000","予備コード":"00","大字名":"瀬田来町","丁目名":null,"小字名":null,"予備名":null,"地番":"609","精度区分":null,"座標値種別":"図上測量","筆界未定構成筆":null,"代表点緯度":-253701.3595,"代表点経度":60972.586550223}},{"type":"MultiPolygon","arcs":[[[9,10,11,12]]],"properties":{"筆ID":"H000000004","version":"ver1.0","座標系":"任意座標系","測地系判別":null,"地図名":"小安村字イツムラ・スケマ・ナカトロ・他","地図番号":"小安34-2-6","縮尺分母":"600","市区町村コード":"01202","市区町村名":"函館市","大字コード":"132","丁目コード":"000","小字コード":"0000","予備コード":"00","大字名":"瀬田来町","丁目名":null,"小字名":null,"予備名":null,"地番":"610","精度区分":null,"座標値種別":"図上測量","筆界未定構成筆":null,"代表点緯度":-253705.08,"代表点経度":60956.039734884}},{"type":"MultiPolygon","arcs":[[[13,14,15]]],"properties":{"筆ID":"H000000005","version":"ver1.0","座標系":"任意座標系","測地系判別":null,"地図名":"小安村字イツムラ・スケマ・ナカトロ・他","地図番号":"小安34-2-6","縮尺分母":"600","市区町村コード":"01202","市区町村名":"函館市","大字コード":"132","丁目コード":"000","小字コード":"0000","予備コード":"00","大字名":"瀬田来町","丁目名":null,"小字名":null,"予備名":null,"地番":"611-1","精度区分":null,"座標値種別":"図上測量","筆界未定構成筆":null,"代表点緯度":-253691.8055,"代表点経度":60922.41255122}},{"type":"MultiPolygon","arcs":[[[-15,16,17,18,-10]]],"properties":{"筆ID":"H000000006","version":"ver1.0","座標系":"任意座標系","測地系判別":null,"地図名":"小安村字イツムラ・スケマ・ナカトロ・他","地図番号":"小安34-2-6","縮尺分母":"600","市区町村コード":"01202","市区町村名":"函館市","大字コード":"132","丁目コード":"000","小字コード":"0000","予備コード":"00","大字名":"瀬田来町","丁目名":null,"小字名":null,"予備名":null,"地番":"611-2","精度区分":null,"座標値種別":"図上測量","筆界未定構成筆":null,"代表点緯度":-253691.715,"代表点経度":60936.424047004}},{"type":"MultiPolygon","arcs":[[[19,-18]]],"properties":{"筆ID":"H000000007","version":"ver1.0","座標系":"任意座標系","測地系判別":null,"地図名":"小安村字イツムラ・スケマ・ナカトロ・他","地図番号":"小安34-2-6","縮尺分母":"600","市区町村コード":"01202","市区町村名":"函館市","大字コード":"132","丁目コード":"000","小字コード":"0000","予備コード":"00","大字名":"瀬田来町","丁目名":null,"小字名":null,"予備名":null,"地番":"612","精度区分":null,"座標値種別":"図上測量","筆界未定構成筆":null,"代表点緯度":-253681.9775,"代表点経度":60926.369943656}},{"type":"MultiPolygon","arcs":[[[20,-16,21,22]]],"properties":{"筆ID":"H000000008","version":"ver1.0","座標系":"任意座標系","測地系判別":null,"地図名":"小安村字イツムラ・スケマ・ナカトロ・他","地図番号":"小安34-2-6","縮尺分母":"600","市区町村コード":"01202","市区町村名":"函館市","大字コード":"132","丁目コード":"000","小字コード":"0000","予備コード":"00","大字名":"瀬田来町","丁目名":null,"小字名":null,"予備名":null,"地番":"613","精度区分":null,"座標値種別":"図上測量","筆界未定構成筆":null,"代表点緯度":-253697.045,"代表点経度":60903.140176476}},{"type":"MultiPolygon","arcs":[[[23,24,25,26,27,28,29,30,-22]]],"properties":{"筆ID":"H000000009","version":"ver1.0","座標系":"任意座標系","測地系判別":null,"地図名":"小安村字イツムラ・スケマ・ナカトロ・他","地図番号":"小安34-2-6","縮尺分母":"600","市区町村コード":"01202","市区町村名":"函館市","大字コード":"132","丁目コード":"000","小字コード":"0000","予備コード":"00","大字名":"瀬田来町","丁目名":null,"小字名":null,"予備名":null,"地番":"614-1","精度区分":null,"座標値種別":"図上測量","筆界未定構成筆":null,"代表点緯度":-253724.6075,"代表点経度":60933.151136258}},{"type":"MultiPolygon","arcs":[[[-13,31,32,-24]]],"properties":{"筆ID":"H000000010","version":"ver1.0","座標系":"任意座標系","測地系判別":null,"地図名":"小安村字イツムラ・スケマ・ナカトロ・他","地図番号":"小安34-2-6","縮尺分母":"600","市区町村コード":"01202","市区町村名":"函館市","大字コード":"132","丁目コード":"000","小字コード":"0000","予備コード":"00","大字名":"瀬田来町","丁目名":null,"小字名":null,"予備名":null,"地番":"614-2","精度区分":null,"座標値種別":"図上測量","筆界未定構成筆":null,"代表点緯度":-253707.644,"代表点経度":60946.782107497}},{"type":"MultiPolygon","arcs":[[[33,34,35,-27]]],"properties":{"筆ID":"H000000011","version":"ver1.0","座標系":"任意座標系","測地系判別":null,"地図名":"小安村字イツムラ・スケマ・ナカトロ・他","地図番号":"小安34-2-6","縮尺分母":"600","市区町村コード":"01202","市区町村名":"函館市","大字コード":"132","丁目コード":"000","小字コード":"0000","予備コード":"00","大字名":"瀬田来町","丁目名":null,"小字名":null,"予備名":null,"地番":"615-1","精度区分":null,"座標値種別":"図上測量","筆界未定構成筆":null,"代表点緯度":-253757.5565,"代表点経度":60951.189672342}},{"type":"MultiPolygon","arcs":[[[36,37,-34,-26]]],"properties":{"筆ID":"H000000012","version":"ver1.0","座標系":"任意座標系","測地系判別":null,"地図名":"小安村字イツムラ・スケマ・ナカトロ・他","地図番号":"小安34-2-6","縮尺分母":"600","市区町村コード":"01202","市区町村名":"函館市","大字コード":"132","丁目コード":"000","小字コード":"0000","予備コード":"00","大字名":"瀬田来町","丁目名":null,"小字名":null,"予備名":null,"地番":"615-2","精度区分":null,"座標値種別":"図上測量","筆界未定構成筆":null,"代表点緯度":-253754.606,"代表点経度":60978.590465057}},{"type":"MultiPolygon","arcs":[[[38,39,40,41,-23,-31,42,43]]],"properties":{"筆ID":"H000000013","version":"ver1.0","座標系":"任意座標系","測地系判別":null,"地図名":"小安村字イツムラ・スケマ・ナカトロ・他","地図番号":"小安34-2-6","縮尺分母":"600","市区町村コード":"01202","市区町村名":"函館市","大字コード":"132","丁目コード":"000","小字コード":"0000","予備コード":"00","大字名":"瀬田来町","丁目名":null,"小字名":null,"予備名":null,"地番":"619","精度区分":null,"座標値種別":"図上測量","筆界未定構成筆":null,"代表点緯度":-253725.471,"代表点経度":60883.330146236}},{"type":"MultiPolygon","arcs":[[[-39,44]]],"properties":{"筆ID":"H000000014","version":"ver1.0","座標系":"任意座標系","測地系判別":null,"地図名":"小安村字イツムラ・スケマ・ナカトロ・他","地図番号":"小安34-2-6","縮尺分母":"600","市区町村コード":"01202","市区町村名":"函館市","大字コード":"132","丁目コード":"000","小字コード":"0000","予備コード":"00","大字名":"瀬田来町","丁目名":null,"小字名":null,"予備名":null,"地番":"620","精度区分":null,"座標値種別":"図上測量","筆界未定構成筆":null,"代表点緯度":-253748.5415,"代表点経度":60867.104797444}},{"type":"MultiPolygon","arcs":[[[-40,-45,-44,45,46]]],"properties":{"筆ID":"H000000015","version":"ver1.0","座標系":"任意座標系","測地系判別":null,"地図名":"小安村字イツムラ・スケマ・ナカトロ・他","地図番号":"小安34-2-6","縮尺分母":"600","市区町村コード":"01202","市区町村名":"函館市","大字コード":"132","丁目コード":"000","小字コード":"0000","予備コード":"00","大字名":"瀬田来町","丁目名":null,"小字名":null,"予備名":null,"地番":"621","精度区分":null,"座標値種別":"図上測量","筆界未定構成筆":null,"代表点緯度":-253762.077,"代表点経度":60844.468843015}},{"type":"MultiPolygon","arcs":[[[47,48,49,-41,-47,50,51]]],"properties":{"筆ID":"H000000016","version":"ver1.0","座標系":"任意座標系","測地系判別":null,"地図名":"小安村字イツムラ・スケマ・ナカトロ・他","地図番号":"小安34-1-6","縮尺分母":"600","市区町村コード":"01202","市区町村名":"函館市","大字コード":"132","丁目コード":"000","小字コード":"0000","予備コード":"00","大字名":"瀬田来町","丁目名":null,"小字名":null,"予備名":null,"地番":"622","精度区分":null,"座標値種別":"図上測量","筆界未定構成筆":null,"代表点緯度":-253773.985,"代表点経度":60761.530275899}},{"type":"MultiPolygon","arcs":[[[52,53,54,55,56,57,58,59,60,61,62,63,64]]],"properties":{"筆ID":"H000000017","version":"ver1.0","座標系":"任意座標系","測地系判別":null,"地図名":"小安村字イツムラ・スケマ・ナカトロ・他","地図番号":"小安34-2-6","縮尺分母":"600","市区町村コード":"01202","市区町村名":"函館市","大字コード":"132","丁目コード":"000","小字コード":"0000","予備コード":"00","大字名":"瀬田来町","丁目名":null,"小字名":null,"予備名":null,"地番":"625","精度区分":null,"座標値種別":"図上測量","筆界未定構成筆":null,"代表点緯度":-253841.7305,"代表点経度":60774.966486161}},{"type":"MultiPolygon","arcs":[[[-53,65,66]]],"properties":{"筆ID":"H000000018","version":"ver1.0","座標系":"任意座標系","測地系判別":null,"地図名":"小安村字イツムラ・スケマ・ナカトロ・他","地図番号":"小安34-3-6","縮尺分母":"600","市区町村コード":"01202","市区町村名":"函館市","大字コード":"132","丁目コード":"000","小字コード":"0000","予備コード":"00","大字名":"瀬田来町","丁目名":null,"小字名":null,"予備名":null,"地番":"626","精度区分":null,"座標値種別":"図上測量","筆界未定構成筆":null,"代表点緯度":-253909.707,"代表点経度":60689.740761958}},{"type":"MultiPolygon","arcs":[[[67,68,-56,69,70]]],"properties":{"筆ID":"H000000019","version":"ver1.0","座標系":"任意座標系","測地系判別":null,"地図名":"小安村字イツムラ・スケマ・ナカトロ・他","地図番号":"小安34-2-6","縮尺分母":"600","市区町村コード":"01202","市区町村名":"函館市","大字コード":"132","丁目コード":"000","小字コード":"0000","予備コード":"00","大字名":"瀬田来町","丁目名":null,"小字名":null,"予備名":null,"地番":"629","精度区分":null,"座標値種別":"図上測量","筆界未定構成筆":null,"代表点緯度":-253853.196,"代表点経度":60704.45813848}},{"type":"MultiPolygon","arcs":[[[71,72,73]]],"properties":{"筆ID":"H000000020","version":"ver1.0","座標系":"任意座標系","測地系判別":null,"地図名":"小安村字イツムラ・スケマ・ナカトロ・他","地図番号":"小安34-3-6","縮尺分母":"600","市区町村コード":"01202","市区町村名":"函館市","大字コード":"132","丁目コード":"000","小字コード":"0000","予備コード":"00","大字名":"瀬田来町","丁目名":null,"小字名":null,"予備名":null,"地番":"630","精度区分":null,"座標値種別":"図上測量","筆界未定構成筆":null,"代表点緯度":-253871.11,"代表点経度":60669.65110017}},{"type":"MultiPolygon","arcs":[[[74,-52,75,76]]],"properties":{"筆ID":"H000000021","version":"ver1.0","座標系":"任意座標系","測地系判別":null,"地図名":"小安村字イツムラ・スケマ・ナカトロ・他","地図番号":"小安34-3-6","縮尺分母":"600","市区町村コード":"01202","市区町村名":"函館市","大字コード":"132","丁目コード":"000","小字コード":"0000","予備コード":"00","大字名":"瀬田来町","丁目名":null,"小字名":null,"予備名":null,"地番":"634","精度区分":null,"座標値種別":"図上測量","筆界未定構成筆":null,"代表点緯度":-253859.2565,"代表点経度":60664.890026998}},{"type":"MultiPolygon","arcs":[[[77,78,-48,-75,79]]],"properties":{"筆ID":"H000000022","version":"ver1.0","座標系":"任意座標系","測地系判別":null,"地図名":"小安村字イツムラ・スケマ・ナカトロ・他","地図番号":"小安34-1-6","縮尺分母":"600","市区町村コード":"01202","市区町村名":"函館市","大字コード":"132","丁目コード":"000","小字コード":"0000","予備コード":"00","大字名":"瀬田来町","丁目名":null,"小字名":null,"予備名":null,"地番":"635","精度区分":null,"座標値種別":"図上測量","筆界未定構成筆":null,"代表点緯度":-253844.393,"代表点経度":60659.386730564}},{"type":"MultiPolygon","arcs":[[[80,-49,-79,81]]],"properties":{"筆ID":"H000000023","version":"ver1.0","座標系":"任意座標系","測地系判別":null,"地図名":"小安村字イツムラ・スケマ・ナカトロ・他","地図番号":"小安34-1-6","縮尺分母":"600","市区町村コード":"01202","市区町村名":"函館市","大字コード":"132","丁目コード":"000","小字コード":"0000","予備コード":"00","大字名":"瀬田来町","丁目名":null,"小字名":null,"予備名":null,"地番":"636","精度区分":null,"座標値種別":"図上測量","筆界未定構成筆":null,"代表点緯度":-253818.5605,"代表点経度":60650.827800948}},{"type":"MultiPolygon","arcs":[[[82,83,-82,-78,84]]],"properties":{"筆ID":"H000000024","version":"ver1.0","座標系":"任意座標系","測地系判別":null,"地図名":"小安村字イツムラ・スケマ・ナカトロ・他","地図番号":"小安34-1-6","縮尺分母":"600","市区町村コード":"01202","市区町村名":"函館市","大字コード":"132","丁目コード":"000","小字コード":"0000","予備コード":"00","大字名":"瀬田来町","丁目名":null,"小字名":null,"予備名":null,"地番":"637","精度区分":null,"座標値種別":"図上測量","筆界未定構成筆":null,"代表点緯度":-253843.204,"代表点経度":60607.551095259}},{"type":"MultiPolygon","arcs":[[[85,86,-83,87]]],"properties":{"筆ID":"H000000025","version":"ver1.0","座標系":"任意座標系","測地系判別":null,"地図名":"小安村字イツムラ・スケマ・ナカトロ・他","地図番号":"小安34-1-6","縮尺分母":"600","市区町村コード":"01202","市区町村名":"函館市","大字コード":"132","丁目コード":"000","小字コード":"0000","予備コード":"00","大字名":"瀬田来町","丁目名":null,"小字名":null,"予備名":null,"地番":"638","精度区分":null,"座標値種別":"図上測量","筆界未定構成筆":null,"代表点緯度":-253843.837,"代表点経度":60582.313969568}},{"type":"MultiPolygon","arcs":[[[88,-86,89]]],"properties":{"筆ID":"H000000026","version":"ver1.0","座標系":"任意座標系","測地系判別":null,"地図名":"小安村字イツムラ・スケマ・ナカトロ・他","地図番号":"小安34-1-6","縮尺分母":"600","市区町村コード":"01202","市区町村名":"函館市","大字コード":"132","丁目コード":"000","小字コード":"0000","予備コード":"00","大字名":"瀬田来町","丁目名":null,"小字名":null,"予備名":null,"地番":"639","精度区分":null,"座標値種別":"図上測量","筆界未定構成筆":null,"代表点緯度":-253830.9545,"代表点経度":60542.549824314}},{"type":"MultiPolygon","arcs":[[[90,91,92]]],"properties":{"筆ID":"H000000027","version":"ver1.0","座標系":"任意座標系","測地系判別":null,"地図名":"小安村字イツムラ・スケマ・ナカトロ・他","地図番号":"小安34-3-6","縮尺分母":"600","市区町村コード":"01202","市区町村名":"函館市","大字コード":"132","丁目コード":"000","小字コード":"0000","予備コード":"00","大字名":"瀬田来町","丁目名":null,"小字名":null,"予備名":null,"地番":"640","精度区分":null,"座標値種別":"図上測量","筆界未定構成筆":null,"代表点緯度":-253844.038,"代表点経度":60549.033940838}},{"type":"MultiPolygon","arcs":[[[93,-92,94,95,96]]],"properties":{"筆ID":"H000000028","version":"ver1.0","座標系":"任意座標系","測地系判別":null,"地図名":"小安村字イツムラ・スケマ・ナカトロ・他","地図番号":"小安34-3-6","縮尺分母":"600","市区町村コード":"01202","市区町村名":"函館市","大字コード":"132","丁目コード":"000","小字コード":"0000","予備コード":"00","大字名":"瀬田来町","丁目名":null,"小字名":null,"予備名":null,"地番":"641","精度区分":null,"座標値種別":"図上測量","筆界未定構成筆":null,"代表点緯度":-253859.1495,"代表点経度":60567.946096208}},{"type":"MultiPolygon","arcs":[[[97,98]]],"properties":{"筆ID":"H000000029","version":"ver1.0","座標系":"任意座標系","測地系判別":null,"地図名":"小安村字イツムラ・スケマ・ナカトロ・他","地図番号":"小安34-3-6","縮尺分母":"600","市区町村コード":"01202","市区町村名":"函館市","大字コード":"132","丁目コード":"000","小字コード":"0000","予備コード":"00","大字名":"瀬田来町","丁目名":null,"小字名":null,"予備名":null,"地番":"642","精度区分":null,"座標値種別":"図上測量","筆界未定構成筆":null,"代表点緯度":-253871.9215,"代表点経度":60612.245160377}},{"type":"MultiPolygon","arcs":[[[-96,-99,99,100]]],"properties":{"筆ID":"H000000030","version":"ver1.0","座標系":"任意座標系","測地系判別":null,"地図名":"小安村字イツムラ・スケマ・ナカトロ・他","地図番号":"小安34-3-6","縮尺分母":"600","市区町村コード":"01202","市区町村名":"函館市","大字コード":"132","丁目コード":"000","小字コード":"0000","予備コード":"00","大字名":"瀬田来町","丁目名":null,"小字名":null,"予備名":null,"地番":"643","精度区分":null,"座標値種別":"図上測量","筆界未定構成筆":null,"代表点緯度":-253876.184,"代表点経度":60587.337437944}},{"type":"MultiPolygon","arcs":[[[101,-97,-101,102]]],"properties":{"筆ID":"H000000031","version":"ver1.0","座標系":"任意座標系","測地系判別":null,"地図名":"小安村字イツムラ・スケマ・ナカトロ・他","地図番号":"小安34-3-6","縮尺分母":"600","市区町村コード":"01202","市区町村名":"函館市","大字コード":"132","丁目コード":"000","小字コード":"0000","予備コード":"00","大字名":"瀬田来町","丁目名":null,"小字名":null,"予備名":null,"地番":"644","精度区分":null,"座標値種別":"図上測量","筆界未定構成筆":null,"代表点緯度":-253882.5095,"代表点経度":60554.061133285}},{"type":"MultiPolygon","arcs":[[[103,104,105,106,107,108]]],"properties":{"筆ID":"H000000032","version":"ver1.0","座標系":"任意座標系","測地系判別":null,"地図名":"小安村字イツムラ・スケマ・ナカトロ・他","地図番号":"小安33","縮尺分母":"600","市区町村コード":"01202","市区町村名":"函館市","大字コード":"132","丁目コード":"000","小字コード":"0000","予備コード":"00","大字名":"瀬田来町","丁目名":null,"小字名":null,"予備名":null,"地番":"650","精度区分":null,"座標値種別":"図上測量","筆界未定構成筆":null,"代表点緯度":-253991.8755,"代表点経度":60542.974740265}},{"type":"MultiPolygon","arcs":[[[109,110,111,112]]],"properties":{"筆ID":"H000000033","version":"ver1.0","座標系":"任意座標系","測地系判別":null,"地図名":"小安村字イツムラ・スケマ・ナカトロ・他","地図番号":"小安34-3-6","縮尺分母":"600","市区町村コード":"01202","市区町村名":"函館市","大字コード":"132","丁目コード":"000","小字コード":"0000","予備コード":"00","大字名":"瀬田来町","丁目名":null,"小字名":null,"予備名":null,"地番":"651","精度区分":null,"座標値種別":"図上測量","筆界未定構成筆":null,"代表点緯度":-253966.658,"代表点経度":60517.663997491}},{"type":"MultiPolygon","arcs":[[[113,114,-113,115,116,117]]],"properties":{"筆ID":"H000000034","version":"ver1.0","座標系":"任意座標系","測地系判別":null,"地図名":"小安村字イツムラ・スケマ・ナカトロ・他","地図番号":"小安31-4-4","縮尺分母":"600","市区町村コード":"01202","市区町村名":"函館市","大字コード":"132","丁目コード":"000","小字コード":"0000","予備コード":"00","大字名":"瀬田来町","丁目名":null,"小字名":null,"予備名":null,"地番":"652","精度区分":null,"座標値種別":"図上測量","筆界未定構成筆":null,"代表点緯度":-253979.651,"代表点経度":60454.542848346}},{"type":"MultiPolygon","arcs":[[[118,-114,119]]],"properties":{"筆ID":"H000000035","version":"ver1.0","座標系":"任意座標系","測地系判別":null,"地図名":"小安村字イツムラ・スケマ・ナカトロ・他","地図番号":"小安31-4-4","縮尺分母":"600","市区町村コード":"01202","市区町村名":"函館市","大字コード":"132","丁目コード":"000","小字コード":"0000","予備コード":"00","大字名":"瀬田来町","丁目名":null,"小字名":null,"予備名":null,"地番":"653","精度区分":null,"座標値種別":"図上測量","筆界未定構成筆":null,"代表点緯度":-253964.567,"代表点経度":60394.661575656}},{"type":"MultiPolygon","arcs":[[[120,121,122]]],"properties":{"筆ID":"H000000036","version":"ver1.0","座標系":"任意座標系","測地系判別":null,"地図名":"小安村字イツムラ・スケマ・ナカトロ・他","地図番号":"小安34-3-6","縮尺分母":"600","市区町村コード":"01202","市区町村名":"函館市","大字コード":"132","丁目コード":"000","小字コード":"0000","予備コード":"00","大字名":"瀬田来町","丁目名":null,"小字名":null,"予備名":null,"地番":"656","精度区分":null,"座標値種別":"図上測量","筆界未定構成筆":null,"代表点緯度":-253910.625,"代表点経度":60489.960457772}},{"type":"MultiPolygon","arcs":[[[123,124,125,-93,-94,126]]],"properties":{"筆ID":"H000000037","version":"ver1.0","座標系":"任意座標系","測地系判別":null,"地図名":"小安村字イツムラ・スケマ・ナカトロ・他","地図番号":"小安34-1-6","縮尺分母":"600","市区町村コード":"01202","市区町村名":"函館市","大字コード":"132","丁目コード":"000","小字コード":"0000","予備コード":"00","大字名":"瀬田来町","丁目名":null,"小字名":null,"予備名":null,"地番":"659-2","精度区分":null,"座標値種別":"図上測量","筆界未定構成筆":null,"代表点緯度":-253846.7815,"代表点経度":60516.71562148}},{"type":"MultiPolygon","arcs":[[[127,128,129]]],"properties":{"筆ID":"H000000038","version":"ver1.0","座標系":"任意座標系","測地系判別":null,"地図名":"小安村字イツムラ・スケマ・ナカトロ・他","地図番号":"小安31-2-4","縮尺分母":"600","市区町村コード":"01202","市区町村名":"函館市","大字コード":"132","丁目コード":"000","小字コード":"0000","予備コード":"00","大字名":"瀬田来町","丁目名":null,"小字名":null,"予備名":null,"地番":"660","精度区分":null,"座標値種別":"図上測量","筆界未定構成筆":null,"代表点緯度":-253828.8455,"代表点経度":60478.458403102}},{"type":"MultiPolygon","arcs":[[[130,131,132,-130,133]]],"properties":{"筆ID":"H000000039","version":"ver1.0","座標系":"任意座標系","測地系判別":null,"地図名":"小安村字イツムラ・スケマ・ナカトロ・他","地図番号":"小安31-4-4","縮尺分母":"600","市区町村コード":"01202","市区町村名":"函館市","大字コード":"132","丁目コード":"000","小字コード":"0000","予備コード":"00","大字名":"瀬田来町","丁目名":null,"小字名":null,"予備名":null,"地番":"661","精度区分":null,"座標値種別":"図上測量","筆界未定構成筆":null,"代表点緯度":-253864.1425,"代表点経度":60428.168341725}},{"type":"MultiPolygon","arcs":[[[-132,134,135,136,137]]],"properties":{"筆ID":"H000000040","version":"ver1.0","座標系":"任意座標系","測地系判別":null,"地図名":"小安村字イツムラ・スケマ・ナカトロ・他","地図番号":"小安31-4-4","縮尺分母":"600","市区町村コード":"01202","市区町村名":"函館市","大字コード":"132","丁目コード":"000","小字コード":"0000","予備コード":"00","大字名":"瀬田来町","丁目名":null,"小字名":null,"予備名":null,"地番":"662","精度区分":null,"座標値種別":"図上測量","筆界未定構成筆":null,"代表点緯度":-253915.3575,"代表点経度":60428.647411665}},{"type":"MultiPolygon","arcs":[[[138,139,140,141,142,143,-138]]],"properties":{"筆ID":"H000000041","version":"ver1.0","座標系":"任意座標系","測地系判別":null,"地図名":"小安村字イツムラ・スケマ・ナカトロ・他","地図番号":"小安31-4-4","縮尺分母":"600","市区町村コード":"01202","市区町村名":"函館市","大字コード":"132","丁目コード":"000","小字コード":"0000","予備コード":"00","大字名":"瀬田来町","丁目名":null,"小字名":null,"予備名":null,"地番":"665","精度区分":null,"座標値種別":"図上測量","筆界未定構成筆":null,"代表点緯度":-253926.8705,"代表点経度":60360.887020932}},{"type":"MultiPolygon","arcs":[[[144,145,146,147]]],"properties":{"筆ID":"H000000042","version":"ver1.0","座標系":"任意座標系","測地系判別":null,"地図名":"小安村字イツムラ・スケマ・ナカトロ・他","地図番号":"小安31-4-4","縮尺分母":"600","市区町村コード":"01202","市区町村名":"函館市","大字コード":"132","丁目コード":"000","小字コード":"0000","予備コード":"00","大字名":"瀬田来町","丁目名":null,"小字名":null,"予備名":null,"地番":"667","精度区分":null,"座標値種別":"図上測量","筆界未定構成筆":null,"代表点緯度":-253957.097,"代表点経度":60363.446305782}},{"type":"MultiPolygon","arcs":[[[148,149,-148,150]]],"properties":{"筆ID":"H000000043","version":"ver1.0","座標系":"任意座標系","測地系判別":null,"地図名":"小安村字イツムラ・スケマ・ナカトロ・他","地図番号":"小安31-4-4","縮尺分母":"600","市区町村コード":"01202","市区町村名":"函館市","大字コード":"132","丁目コード":"000","小字コード":"0000","予備コード":"00","大字名":"瀬田来町","丁目名":null,"小字名":null,"予備名":null,"地番":"668","精度区分":null,"座標値種別":"図上測量","筆界未定構成筆":null,"代表点緯度":-253960.996,"代表点経度":60332.74883674}},{"type":"MultiPolygon","arcs":[[[151,152,153]]],"properties":{"筆ID":"H000000044","version":"ver1.0","座標系":"任意座標系","測地系判別":null,"地図名":"小安村字イツムラ・スケマ・ナカトロ・他","地図番号":"小安31-4-4","縮尺分母":"600","市区町村コード":"01202","市区町村名":"函館市","大字コード":"132","丁目コード":"000","小字コード":"0000","予備コード":"00","大字名":"瀬田来町","丁目名":null,"小字名":null,"予備名":null,"地番":"669","精度区分":null,"座標値種別":"図上測量","筆界未定構成筆":null,"代表点緯度":-253985.3585,"代表点経度":60272.444816108}},{"type":"MultiPolygon","arcs":[[[154,155,156]]],"properties":{"筆ID":"H000000045","version":"ver1.0","座標系":"任意座標系","測地系判別":null,"地図名":"小安村字イツムラ・スケマ・ナカトロ・他","地図番号":"小安31-4-4","縮尺分母":"600","市区町村コード":"01202","市区町村名":"函館市","大字コード":"132","丁目コード":"000","小字コード":"0000","予備コード":"00","大字名":"瀬田来町","丁目名":null,"小字名":null,"予備名":null,"地番":"670","精度区分":null,"座標値種別":"図上測量","筆界未定構成筆":null,"代表点緯度":-253972.541,"代表点経度":60242.025694193}},{"type":"MultiPolygon","arcs":[[[-155,157,-141,158]]],"properties":{"筆ID":"H000000046","version":"ver1.0","座標系":"任意座標系","測地系判別":null,"地図名":"小安村字イツムラ・スケマ・ナカトロ・他","地図番号":"小安31-4-4","縮尺分母":"600","市区町村コード":"01202","市区町村名":"函館市","大字コード":"132","丁目コード":"000","小字コード":"0000","予備コード":"00","大字名":"瀬田来町","丁目名":null,"小字名":null,"予備名":null,"地番":"671","精度区分":null,"座標値種別":"図上測量","筆界未定構成筆":null,"代表点緯度":-253959.451,"代表点経度":60284.21321434}},{"type":"MultiPolygon","arcs":[[[159,160,161,-142,-158,162]]],"properties":{"筆ID":"H000000047","version":"ver1.0","座標系":"任意座標系","測地系判別":null,"地図名":"小安村字イツムラ・スケマ・ナカトロ・他","地図番号":"小安31-4-4","縮尺分母":"600","市区町村コード":"01202","市区町村名":"函館市","大字コード":"132","丁目コード":"000","小字コード":"0000","予備コード":"00","大字名":"瀬田来町","丁目名":null,"小字名":null,"予備名":null,"地番":"672","精度区分":null,"座標値種別":"図上測量","筆界未定構成筆":null,"代表点緯度":-253899.4475,"代表点経度":60290.60528921}},{"type":"MultiPolygon","arcs":[[[163,164,-161,165]]],"properties":{"筆ID":"H000000048","version":"ver1.0","座標系":"任意座標系","測地系判別":null,"地図名":"小安村字イツムラ・スケマ・ナカトロ・他","地図番号":"小安31-4-4","縮尺分母":"600","市区町村コード":"01202","市区町村名":"函館市","大字コード":"132","丁目コード":"000","小字コード":"0000","予備コード":"00","大字名":"瀬田来町","丁目名":null,"小字名":null,"予備名":null,"地番":"673","精度区分":null,"座標値種別":"図上測量","筆界未定構成筆":null,"代表点緯度":-253855.683,"代表点経度":60296.942694555}},{"type":"MultiPolygon","arcs":[[[166,167,-166,-160,168]]],"properties":{"筆ID":"H000000049","version":"ver1.0","座標系":"任意座標系","測地系判別":null,"地図名":"小安村字イツムラ・スケマ・ナカトロ・他","地図番号":"小安31-2-4","縮尺分母":"600","市区町村コード":"01202","市区町村名":"函館市","大字コード":"132","丁目コード":"000","小字コード":"0000","予備コード":"00","大字名":"瀬田来町","丁目名":null,"小字名":null,"予備名":null,"地番":"674","精度区分":null,"座標値種別":"図上測量","筆界未定構成筆":null,"代表点緯度":-253902.383,"代表点経度":60236.573054032}},{"type":"MultiPolygon","arcs":[[[169,170]]],"properties":{"筆ID":"H000000050","version":"ver1.0","座標系":"任意座標系","測地系判別":null,"地図名":"小安村字イツムラ・スケマ・ナカトロ・他","地図番号":"小安31-1-4","縮尺分母":"600","市区町村コード":"01202","市区町村名":"函館市","大字コード":"132","丁目コード":"000","小字コード":"0000","予備コード":"00","大字名":"瀬田来町","丁目名":null,"小字名":null,"予備名":null,"地番":"675","精度区分":null,"座標値種別":"図上測量","筆界未定構成筆":null,"代表点緯度":-253816.2505,"代表点経度":60055.572512881}},{"type":"MultiPolygon","arcs":[[[171]]],"properties":{"筆ID":"H000000051","version":"ver1.0","座標系":"任意座標系","測地系判別":null,"地図名":"小安村字イツムラ・スケマ・ナカトロ・他","地図番号":"小安30-1-4","縮尺分母":"600","市区町村コード":"01202","市区町村名":"函館市","大字コード":"132","丁目コード":"000","小字コード":"0000","予備コード":"00","大字名":"瀬田来町","丁目名":null,"小字名":null,"予備名":null,"地番":"677","精度区分":null,"座標値種別":"図上測量","筆界未定構成筆":null,"代表点緯度":-253750.117,"代表点経度":59822.61828558}},{"type":"MultiPolygon","arcs":[[[172,173,174,175]]],"properties":{"筆ID":"H000000052","version":"ver1.0","座標系":"任意座標系","測地系判別":null,"地図名":"小安村字イツムラ・スケマ・ナカトロ・他","地図番号":"小安31-1-4","縮尺分母":"600","市区町村コード":"01202","市区町村名":"函館市","大字コード":"132","丁目コード":"000","小字コード":"0000","予備コード":"00","大字名":"瀬田来町","丁目名":null,"小字名":null,"予備名":null,"地番":"678","精度区分":null,"座標値種別":"図上測量","筆界未定構成筆":null,"代表点緯度":-253775.117,"代表点経度":60197.838014923}},{"type":"MultiPolygon","arcs":[[[176,177,178,179,180]]],"properties":{"筆ID":"H000000053","version":"ver1.0","座標系":"任意座標系","測地系判別":null,"地図名":"小安村字イツムラ・スケマ・ナカトロ・他","地図番号":"小安31-2-4","縮尺分母":"600","市区町村コード":"01202","市区町村名":"函館市","大字コード":"132","丁目コード":"000","小字コード":"0000","予備コード":"00","大字名":"瀬田来町","丁目名":null,"小字名":null,"予備名":null,"地番":"679","精度区分":null,"座標値種別":"図上測量","筆界未定構成筆":null,"代表点緯度":-253825.8285,"代表点経度":60436.613569833}},{"type":"MultiPolygon","arcs":[[[181,182,183,184,185,-177,186]]],"properties":{"筆ID":"H000000054","version":"ver1.0","座標系":"任意座標系","測地系判別":null,"地図名":"小安村字イツムラ・スケマ・ナカトロ・他","地図番号":"小安34-1-6","縮尺分母":"600","市区町村コード":"01202","市区町村名":"函館市","大字コード":"132","丁目コード":"000","小字コード":"0000","予備コード":"00","大字名":"瀬田来町","丁目名":null,"小字名":null,"予備名":null,"地番":"682","精度区分":null,"座標値種別":"図上測量","筆界未定構成筆":null,"代表点緯度":-253787.476,"代表点経度":60492.435415004}},{"type":"MultiPolygon","arcs":[[[187,-185]]],"properties":{"筆ID":"H000000055","version":"ver1.0","座標系":"任意座標系","測地系判別":null,"地図名":"小安村字イツムラ・スケマ・ナカトロ・他","地図番号":"小安34-1-6","縮尺分母":"600","市区町村コード":"01202","市区町村名":"函館市","大字コード":"132","丁目コード":"000","小字コード":"0000","予備コード":"00","大字名":"瀬田来町","丁目名":null,"小字名":null,"予備名":null,"地番":"683","精度区分":null,"座標値種別":"図上測量","筆界未定構成筆":null,"代表点緯度":-253805.9445,"代表点経度":60505.773261241}},{"type":"MultiPolygon","arcs":[[[188,189]]],"properties":{"筆ID":"H000000056","version":"ver1.0","座標系":"任意座標系","測地系判別":null,"地図名":"小安村字イツムラ・スケマ・ナカトロ・他","地図番号":"小安34-1-6","縮尺分母":"600","市区町村コード":"01202","市区町村名":"函館市","大字コード":"132","丁目コード":"000","小字コード":"0000","予備コード":"00","大字名":"瀬田来町","丁目名":null,"小字名":null,"予備名":null,"地番":"684","精度区分":null,"座標値種別":"図上測量","筆界未定構成筆":null,"代表点緯度":-253816.4265,"代表点経度":60548.755644465}},{"type":"MultiPolygon","arcs":[[[190,191,192,193,194]]],"properties":{"筆ID":"H000000057","version":"ver1.0","座標系":"任意座標系","測地系判別":null,"地図名":"小安村字イツムラ・スケマ・ナカトロ・他","地図番号":"小安34-1-6","縮尺分母":"600","市区町村コード":"01202","市区町村名":"函館市","大字コード":"132","丁目コード":"000","小字コード":"0000","予備コード":"00","大字名":"瀬田来町","丁目名":null,"小字名":null,"予備名":null,"地番":"686","精度区分":null,"座標値種別":"図上測量","筆界未定構成筆":null,"代表点緯度":-253783.8435,"代表点経度":60618.580605951}},{"type":"MultiPolygon","arcs":[[[195,196]]],"properties":{"筆ID":"H000000058","version":"ver1.0","座標系":"任意座標系","測地系判別":null,"地図名":"小安村字イツムラ・スケマ・ナカトロ・他","地図番号":"小安34-1-6","縮尺分母":"600","市区町村コード":"01202","市区町村名":"函館市","大字コード":"132","丁目コード":"000","小字コード":"0000","予備コード":"00","大字名":"瀬田来町","丁目名":null,"小字名":null,"予備名":null,"地番":"687","精度区分":null,"座標値種別":"図上測量","筆界未定構成筆":null,"代表点緯度":-253705.223,"代表点経度":60597.803926016}},{"type":"MultiPolygon","arcs":[[[-192,197,-196,198,199,200]]],"properties":{"筆ID":"H000000059","version":"ver1.0","座標系":"任意座標系","測地系判別":null,"地図名":"小安村字イツムラ・スケマ・ナカトロ・他","地図番号":"小安34-1-6","縮尺分母":"600","市区町村コード":"01202","市区町村名":"函館市","大字コード":"132","丁目コード":"000","小字コード":"0000","予備コード":"00","大字名":"瀬田来町","丁目名":null,"小字名":null,"予備名":null,"地番":"688","精度区分":null,"座標値種別":"図上測量","筆界未定構成筆":null,"代表点緯度":-253719.7035,"代表点経度":60675.035313812}},{"type":"MultiPolygon","arcs":[[[201,202,203,204,205]]],"properties":{"筆ID":"H000000060","version":"ver1.0","座標系":"任意座標系","測地系判別":null,"地図名":"小安村字イツムラ・スケマ・ナカトロ・他","地図番号":"小安34-5-6","縮尺分母":"600","市区町村コード":"01202","市区町村名":"函館市","大字コード":"132","丁目コード":"000","小字コード":"0000","予備コード":"00","大字名":"瀬田来町","丁目名":null,"小字名":null,"予備名":null,"地番":"691-1","精度区分":null,"座標値種別":"図上測量","筆界未定構成筆":null,"代表点緯度":-253661.628,"代表点経度":60877.228641022}},{"type":"MultiPolygon","arcs":[[[-202,206]]],"properties":{"筆ID":"H000000061","version":"ver1.0","座標系":"任意座標系","測地系判別":null,"地図名":"小安村字イツムラ・スケマ・ナカトロ・他","地図番号":"小安34-2-6","縮尺分母":"600","市区町村コード":"01202","市区町村名":"函館市","大字コード":"132","丁目コード":"000","小字コード":"0000","予備コード":"00","大字名":"瀬田来町","丁目名":null,"小字名":null,"予備名":null,"地番":"691-2","精度区分":null,"座標値種別":"図上測量","筆界未定構成筆":null,"代表点緯度":-253678.842,"代表点経度":60894.856985193}},{"type":"MultiPolygon","arcs":[[[207]]],"properties":{"筆ID":"H000000062","version":"ver1.0","座標系":"任意座標系","測地系判別":null,"地図名":"小安村字イツムラ・スケマ・ナカトロ・他","地図番号":"小安34-3-6","縮尺分母":"600","市区町村コード":"01202","市区町村名":"函館市","大字コード":"132","丁目コード":"000","小字コード":"0000","予備コード":"00","大字名":"瀬田来町","丁目名":null,"小字名":null,"予備名":null,"地番":"国有地-7","精度区分":null,"座標値種別":"図上測量","筆界未定構成筆":null,"代表点緯度":-254003.6095,"代表点経度":60710.105184377}},{"type":"MultiPolygon","arcs":[[[-1,-5,208,209,210]]],"properties":{"筆ID":"H000000063","version":"ver1.0","座標系":"任意座標系","測地系判別":null,"地図名":"小安村字イツムラ・スケマ・ナカトロ・他","地図番号":"小安34-2-6","縮尺分母":"600","市区町村コード":"01202","市区町村名":"函館市","大字コード":"132","丁目コード":"000","小字コード":"0000","予備コード":"00","大字名":"瀬田来町","丁目名":null,"小字名":null,"予備名":null,"地番":"無地番-34","精度区分":null,"座標値種別":"図上測量","筆界未定構成筆":null,"代表点緯度":-253708.329,"代表点経度":60994.430757238}},{"type":"MultiPolygon","arcs":[[[211]]],"properties":{"筆ID":"H000000064","version":"ver1.0","座標系":"任意座標系","測地系判別":null,"地図名":"小安村字イツムラ・スケマ・ナカトロ・他","地図番号":"小安34-4-6","縮尺分母":"600","市区町村コード":"01202","市区町村名":"函館市","大字コード":"132","丁目コード":"000","小字コード":"0000","予備コード":"00","大字名":"瀬田来町","丁目名":null,"小字名":null,"予備名":null,"地番":"無地番-55","精度区分":null,"座標値種別":"図上測量","筆界未定構成筆":null,"代表点緯度":-253978.87,"代表点経度":60820.981008142}},{"type":"MultiPolygon","arcs":[[[212,-57,-69]]],"properties":{"筆ID":"H000000065","version":"ver1.0","座標系":"任意座標系","測地系判別":null,"地図名":"小安村字イツムラ・スケマ・ナカトロ・他","地図番号":"小安34-2-6","縮尺分母":"600","市区町村コード":"01202","市区町村名":"函館市","大字コード":"132","丁目コード":"000","小字コード":"0000","予備コード":"00","大字名":"瀬田来町","丁目名":null,"小字名":null,"予備名":null,"地番":"無地番-60","精度区分":null,"座標値種別":"図上測量","筆界未定構成筆":null,"代表点緯度":-253822.892,"代表点経度":60753.666204277}},{"type":"MultiPolygon","arcs":[[[213,214,-110,-122]]],"properties":{"筆ID":"H000000066","version":"ver1.0","座標系":"任意座標系","測地系判別":null,"地図名":"小安村字イツムラ・スケマ・ナカトロ・他","地図番号":"小安34-3-6","縮尺分母":"600","市区町村コード":"01202","市区町村名":"函館市","大字コード":"132","丁目コード":"000","小字コード":"0000","予備コード":"00","大字名":"瀬田来町","丁目名":null,"小字名":null,"予備名":null,"地番":"無地番-62","精度区分":null,"座標値種別":"図上測量","筆界未定構成筆":null,"代表点緯度":-253914.354,"代表点経度":60524.444649401}},{"type":"MultiPolygon","arcs":[[[215,216,-74,217,218]]],"properties":{"筆ID":"H000000067","version":"ver1.0","座標系":"任意座標系","測地系判別":null,"地図名":"小安村字イツムラ・スケマ・ナカトロ・他","地図番号":"小安34-3-6","縮尺分母":"600","市区町村コード":"01202","市区町村名":"函館市","大字コード":"132","丁目コード":"000","小字コード":"0000","予備コード":"00","大字名":"瀬田来町","丁目名":null,"小字名":null,"予備名":null,"地番":"無地番-63","精度区分":null,"座標値種別":"図上測量","筆界未定構成筆":null,"代表点緯度":-253876.619,"代表点経度":60653.272099062}},{"type":"MultiPolygon","arcs":[[[219,220,-123,-115,-119,-146]]],"properties":{"筆ID":"H000000068","version":"ver1.0","座標系":"任意座標系","測地系判別":null,"地図名":"小安村字イツムラ・スケマ・ナカトロ・他","地図番号":"小安31-4-4","縮尺分母":"600","市区町村コード":"01202","市区町村名":"函館市","大字コード":"132","丁目コード":"000","小字コード":"0000","予備コード":"00","大字名":"瀬田来町","丁目名":null,"小字名":null,"予備名":null,"地番":"無地番-64","精度区分":null,"座標値種別":"図上測量","筆界未定構成筆":null,"代表点緯度":-253943.3695,"代表点経度":60425.40477325}},{"type":"MultiPolygon","arcs":[[[-112,221,222,223,-106,224]]],"properties":{"筆ID":"H000000069","version":"ver1.0","座標系":"任意座標系","測地系判別":null,"地図名":"小安村字イツムラ・スケマ・ナカトロ・他","地図番号":"小安34-3-6","縮尺分母":"600","市区町村コード":"01202","市区町村名":"函館市","大字コード":"132","丁目コード":"000","小字コード":"0000","予備コード":"00","大字名":"瀬田来町","丁目名":null,"小字名":null,"予備名":null,"地番":"無地番-65","精度区分":null,"座標値種別":"図上測量","筆界未定構成筆":null,"代表点緯度":-253974.996,"代表点経度":60539.518572858}},{"type":"MultiPolygon","arcs":[[[-224,225,226,-107]]],"properties":{"筆ID":"H000000070","version":"ver1.0","座標系":"任意座標系","測地系判別":null,"地図名":"小安村字イツムラ・スケマ・ナカトロ・他","地図番号":"小安34-3-6","縮尺分母":"600","市区町村コード":"01202","市区町村名":"函館市","大字コード":"132","丁目コード":"000","小字コード":"0000","予備コード":"00","大字名":"瀬田来町","丁目名":null,"小字名":null,"予備名":null,"地番":"無地番-66","精度区分":null,"座標値種別":"図上測量","筆界未定構成筆":null,"代表点緯度":-253979.608,"代表点経度":60577.596500449}},{"type":"MultiPolygon","arcs":[[[-108,227,228,229]]],"properties":{"筆ID":"H000000071","version":"ver1.0","座標系":"任意座標系","測地系判別":null,"地図名":"小安村字イツムラ・スケマ・ナカトロ・他","地図番号":"小安34-3-6","縮尺分母":"600","市区町村コード":"01202","市区町村名":"函館市","大字コード":"132","丁目コード":"000","小字コード":"0000","予備コード":"00","大字名":"瀬田来町","丁目名":null,"小字名":null,"予備名":null,"地番":"無地番-67","精度区分":null,"座標値種別":"図上測量","筆界未定構成筆":null,"代表点緯度":-254004.1935,"代表点経度":60560.248056871}},{"type":"MultiPolygon","arcs":[[[-229,230,231]]],"properties":{"筆ID":"H000000072","version":"ver1.0","座標系":"任意座標系","測地系判別":null,"地図名":"小安村字イツムラ・スケマ・ナカトロ・他","地図番号":"小安34-3-6","縮尺分母":"600","市区町村コード":"01202","市区町村名":"函館市","大字コード":"132","丁目コード":"000","小字コード":"0000","予備コード":"00","大字名":"瀬田来町","丁目名":null,"小字名":null,"予備名":null,"地番":"無地番-68","精度区分":null,"座標値種別":"図上測量","筆界未定構成筆":null,"代表点緯度":-254007.3495,"代表点経度":60561.626785941}},{"type":"MultiPolygon","arcs":[[[-66,-65,232]]],"properties":{"筆ID":"H000000073","version":"ver1.0","座標系":"任意座標系","測地系判別":null,"地図名":"小安村字イツムラ・スケマ・ナカトロ・他","地図番号":"小安34-3-6","縮尺分母":"600","市区町村コード":"01202","市区町村名":"函館市","大字コード":"132","丁目コード":"000","小字コード":"0000","予備コード":"00","大字名":"瀬田来町","丁目名":null,"小字名":null,"予備名":null,"地番":"無地番-70","精度区分":null,"座標値種別":"図上測量","筆界未定構成筆":null,"代表点緯度":-253923.2675,"代表点経度":60704.77332403}},{"type":"MultiPolygon","arcs":[[[-73,233,-70,-55,234,-218]]],"properties":{"筆ID":"H000000074","version":"ver1.0","座標系":"任意座標系","測地系判別":null,"地図名":"小安村字イツムラ・スケマ・ナカトロ・他","地図番号":"小安34-3-6","縮尺分母":"600","市区町村コード":"01202","市区町村名":"函館市","大字コード":"132","丁目コード":"000","小字コード":"0000","予備コード":"00","大字名":"瀬田来町","丁目名":null,"小字名":null,"予備名":null,"地番":"無地番-71","精度区分":null,"座標値種別":"図上測量","筆界未定構成筆":null,"代表点緯度":-253873.2695,"代表点経度":60683.168298814}},{"type":"MultiPolygon","arcs":[[[235,-176,236,237,-178,-186,-188,-184,238,-190,239,-195,240,-193,-201,241,242,-203,-207,-206,243,244,-11,-19,-20,-17,-14,-21,-42,-50,-81,-84,-87,-89,245,-125,246,-128,247,248,-164,-168]]],"properties":{"筆ID":"H000000075","version":"ver1.0","座標系":"任意座標系","測地系判別":null,"地図名":"小安村字イツムラ・スケマ・ナカトロ・他","地図番号":"小安31-2-4","縮尺分母":"600","市区町村コード":"01202","市区町村名":"函館市","大字コード":"132","丁目コード":"000","小字コード":"0000","予備コード":"00","大字名":"瀬田来町","丁目名":null,"小字名":null,"予備名":null,"地番":"無地番-72","精度区分":null,"座標値種別":"図上測量","筆界未定構成筆":null,"代表点緯度":-253756.6875,"代表点経度":60708.768348965}},{"type":"MultiPolygon","arcs":[[[-29,249]]],"properties":{"筆ID":"H000000076","version":"ver1.0","座標系":"任意座標系","測地系判別":null,"地図名":"小安村字イツムラ・スケマ・ナカトロ・他","地図番号":"小安34-2-6","縮尺分母":"600","市区町村コード":"01202","市区町村名":"函館市","大字コード":"132","丁目コード":"000","小字コード":"0000","予備コード":"00","大字名":"瀬田来町","丁目名":null,"小字名":null,"予備名":null,"地番":"無地番-73","精度区分":null,"座標値種別":"図上測量","筆界未定構成筆":null,"代表点緯度":-253749.2845,"代表点経度":60922.350178922}},{"type":"MultiPolygon","arcs":[[[-28,-36,250]]],"properties":{"筆ID":"H000000077","version":"ver1.0","座標系":"任意座標系","測地系判別":null,"地図名":"小安村字イツムラ・スケマ・ナカトロ・他","地図番号":"小安34-2-6","縮尺分母":"600","市区町村コード":"01202","市区町村名":"函館市","大字コード":"132","丁目コード":"000","小字コード":"0000","予備コード":"00","大字名":"瀬田来町","丁目名":null,"小字名":null,"予備名":null,"地番":"無地番-74","精度区分":null,"座標値種別":"図上測量","筆界未定構成筆":null,"代表点緯度":-253755.8445,"代表点経度":60931.468604112}},{"type":"MultiPolygon","arcs":[[[251,-59]]],"properties":{"筆ID":"H000000078","version":"ver1.0","座標系":"任意座標系","測地系判別":null,"地図名":"小安村字イツムラ・スケマ・ナカトロ・他","地図番号":"小安34-2-6","縮尺分母":"600","市区町村コード":"01202","市区町村名":"函館市","大字コード":"132","丁目コード":"000","小字コード":"0000","予備コード":"00","大字名":"瀬田来町","丁目名":null,"小字名":null,"予備名":null,"地番":"無地番-75","精度区分":null,"座標値種別":"図上測量","筆界未定構成筆":null,"代表点緯度":-253749.052,"代表点経度":60912.999792248}},{"type":"MultiPolygon","arcs":[[[-61,252,253]]],"properties":{"筆ID":"H000000079","version":"ver1.0","座標系":"任意座標系","測地系判別":null,"地図名":"小安村字イツムラ・スケマ・ナカトロ・他","地図番号":"小安34-2-6","縮尺分母":"600","市区町村コード":"01202","市区町村名":"函館市","大字コード":"132","丁目コード":"000","小字コード":"0000","予備コード":"00","大字名":"瀬田来町","丁目名":null,"小字名":null,"予備名":null,"地番":"無地番-76","精度区分":null,"座標値種別":"図上測量","筆界未定構成筆":null,"代表点緯度":-253760.654,"代表点経度":60925.25686357}},{"type":"MultiPolygon","arcs":[[[-254,254,255]]],"properties":{"筆ID":"H000000080","version":"ver1.0","座標系":"任意座標系","測地系判別":null,"地図名":"小安村字イツムラ・スケマ・ナカトロ・他","地図番号":"小安34-2-6","縮尺分母":"600","市区町村コード":"01202","市区町村名":"函館市","大字コード":"132","丁目コード":"000","小字コード":"0000","予備コード":"00","大字名":"瀬田来町","丁目名":null,"小字名":null,"予備名":null,"地番":"無地番-78","精度区分":null,"座標値種別":"図上測量","筆界未定構成筆":null,"代表点緯度":-253768.8025,"代表点経度":60931.757459961}},{"type":"MultiPolygon","arcs":[[[256,-187,-181]]],"properties":{"筆ID":"H000000081","version":"ver1.0","座標系":"任意座標系","測地系判別":null,"地図名":"小安村字イツムラ・スケマ・ナカトロ・他","地図番号":"小安34-1-6","縮尺分母":"600","市区町村コード":"01202","市区町村名":"函館市","大字コード":"132","丁目コード":"000","小字コード":"0000","予備コード":"00","大字名":"瀬田来町","丁目名":null,"小字名":null,"予備名":null,"地番":"無地番-79","精度区分":null,"座標値種別":"図上測量","筆界未定構成筆":null,"代表点緯度":-253821.6615,"代表点経度":60450.847912928}},{"type":"MultiPolygon","arcs":[[[-139,-137,257]]],"properties":{"筆ID":"H000000082","version":"ver1.0","座標系":"任意座標系","測地系判別":null,"地図名":"小安村字イツムラ・スケマ・ナカトロ・他","地図番号":"小安31-4-4","縮尺分母":"600","市区町村コード":"01202","市区町村名":"函館市","大字コード":"132","丁目コード":"000","小字コード":"0000","予備コード":"00","大字名":"瀬田来町","丁目名":null,"小字名":null,"予備名":null,"地番":"無地番-107","精度区分":null,"座標値種別":"図上測量","筆界未定構成筆":null,"代表点緯度":-253939.9505,"代表点経度":60380.724301598}},{"type":"MultiPolygon","arcs":[[[258,259]]],"properties":{"筆ID":"H000000083","version":"ver1.0","座標系":"任意座標系","測地系判別":null,"地図名":"小安村字イツムラ・スケマ・ナカトロ・他","地図番号":"小安35-5-6","縮尺分母":"600","市区町村コード":"01202","市区町村名":"函館市","大字コード":"132","丁目コード":"000","小字コード":"0000","予備コード":"00","大字名":"瀬田来町","丁目名":null,"小字名":null,"予備名":null,"地番":"無地番-1038","精度区分":null,"座標値種別":"図上測量","筆界未定構成筆":null,"代表点緯度":-253682.6065,"代表点経度":61059.173647794}},{"type":"MultiPolygon","arcs":[[[260,261,-244,262]]],"properties":{"筆ID":"H000000084","version":"ver1.0","座標系":"任意座標系","測地系判別":null,"地図名":"小安村字イツムラ・スケマ・ナカトロ・他","地図番号":"小安34-2-6","縮尺分母":"600","市区町村コード":"01202","市区町村名":"函館市","大字コード":"132","丁目コード":"000","小字コード":"0000","予備コード":"00","大字名":"瀬田来町","丁目名":null,"小字名":null,"予備名":null,"地番":"道-1","精度区分":null,"座標値種別":"図上測量","筆界未定構成筆":null,"代表点緯度":-253672.374,"代表点経度":60934.271867673}},{"type":"MultiPolygon","arcs":[[[-253,-60,-252,-58,-213,-68,263,-51,-46,-43,-30,-250,-251,264]]],"properties":{"筆ID":"H000000085","version":"ver1.0","座標系":"任意座標系","測地系判別":null,"地図名":"小安村字イツムラ・スケマ・ナカトロ・他","地図番号":"小安34-2-6","縮尺分母":"600","市区町村コード":"01202","市区町村名":"函館市","大字コード":"132","丁目コード":"000","小字コード":"0000","予備コード":"00","大字名":"瀬田来町","丁目名":null,"小字名":null,"予備名":null,"地番":"道-6","精度区分":null,"座標値種別":"図上測量","筆界未定構成筆":null,"代表点緯度":-253787.528,"代表点経度":60824.505870064}},{"type":"MultiPolygon","arcs":[[[-145,-150,265,-152,266,-156,-159,-140,-258,267,-220]]],"properties":{"筆ID":"H000000086","version":"ver1.0","座標系":"任意座標系","測地系判別":null,"地図名":"小安村字イツムラ・スケマ・ナカトロ・他","地図番号":"小安31-4-4","縮尺分母":"600","市区町村コード":"01202","市区町村名":"函館市","大字コード":"132","丁目コード":"000","小字コード":"0000","予備コード":"00","大字名":"瀬田来町","丁目名":null,"小字名":null,"予備名":null,"地番":"道-8","精度区分":null,"座標値種別":"図上測量","筆界未定構成筆":null,"代表点緯度":-253955.642,"代表点経度":60315.872721966}},{"type":"MultiPolygon","arcs":[[[268,269,270,271,272]]],"properties":{"筆ID":"H000000087","version":"ver1.0","座標系":"任意座標系","測地系判別":null,"地図名":"小安村字イツムラ・スケマ・ナカトロ・他","地図番号":"小安34-3-6","縮尺分母":"600","市区町村コード":"01202","市区町村名":"函館市","大字コード":"132","丁目コード":"000","小字コード":"0000","予備コード":"00","大字名":"瀬田来町","丁目名":null,"小字名":null,"予備名":null,"地番":"道-9","精度区分":null,"座標値種別":"図上測量","筆界未定構成筆":null,"代表点緯度":-253909.0135,"代表点経度":60626.372333399}},{"type":"MultiPolygon","arcs":[[[-76,-264,-71,-234,-72,-217,273,274,275]]],"properties":{"筆ID":"H000000088","version":"ver1.0","座標系":"任意座標系","測地系判別":null,"地図名":"小安村字イツムラ・スケマ・ナカトロ・他","地図番号":"小安34-3-6","縮尺分母":"600","市区町村コード":"01202","市区町村名":"函館市","大字コード":"132","丁目コード":"000","小字コード":"0000","予備コード":"00","大字名":"瀬田来町","丁目名":null,"小字名":null,"予備名":null,"地番":"道-10","精度区分":null,"座標値種別":"図上測量","筆界未定構成筆":null,"代表点緯度":-253864.912,"代表点経度":60665.667664817}},{"type":"MultiPolygon","arcs":[[[276,-255,-265,-35,-38]]],"properties":{"筆ID":"H000000089","version":"ver1.0","座標系":"任意座標系","測地系判別":null,"地図名":"小安村字イツムラ・スケマ・ナカトロ・他","地図番号":"小安34-2-6","縮尺分母":"600","市区町村コード":"01202","市区町村名":"函館市","大字コード":"132","丁目コード":"000","小字コード":"0000","予備コード":"00","大字名":"瀬田来町","丁目名":null,"小字名":null,"予備名":null,"地番":"道-17","精度区分":null,"座標値種別":"図上測量","筆界未定構成筆":null,"代表点緯度":-253764.756,"代表点経度":60958.062321588}},{"type":"MultiPolygon","arcs":[[[277,278,-6,-3,279,280,-259]]],"properties":{"筆ID":"H000000090","version":"ver1.0","座標系":"任意座標系","測地系判別":null,"地図名":"小安村字イツムラ・スケマ・ナカトロ・他","地図番号":"小安35-5-6","縮尺分母":"600","市区町村コード":"01202","市区町村名":"函館市","大字コード":"132","丁目コード":"000","小字コード":"0000","予備コード":"00","大字名":"瀬田来町","丁目名":null,"小字名":null,"予備名":null,"地番":"道-17-1","精度区分":null,"座標値種別":"図上測量","筆界未定構成筆":null,"代表点緯度":-253690.37,"代表点経度":61020.772654828}},{"type":"MultiPolygon","arcs":[[[-153,-266,-149,281]]],"properties":{"筆ID":"H000000091","version":"ver1.0","座標系":"任意座標系","測地系判別":null,"地図名":"小安村字イツムラ・スケマ・ナカトロ・他","地図番号":"小安31-4-4","縮尺分母":"600","市区町村コード":"01202","市区町村名":"函館市","大字コード":"132","丁目コード":"000","小字コード":"0000","予備コード":"00","大字名":"瀬田来町","丁目名":null,"小字名":null,"予備名":null,"地番":"道-20","精度区分":null,"座標値種別":"図上測量","筆界未定構成筆":null,"代表点緯度":-253977.409,"代表点経度":60305.538466521}},{"type":"MultiPolygon","arcs":[[[282,-263,-205]]],"properties":{"筆ID":"H000000092","version":"ver1.0","座標系":"任意座標系","測地系判別":null,"地図名":"小安村字イツムラ・スケマ・ナカトロ・他","地図番号":"小安34-5-6","縮尺分母":"600","市区町村コード":"01202","市区町村名":"函館市","大字コード":"132","丁目コード":"000","小字コード":"0000","予備コード":"00","大字名":"瀬田来町","丁目名":null,"小字名":null,"予備名":null,"地番":"道-36","精度区分":null,"座標値種別":"図上測量","筆界未定構成筆":null,"代表点緯度":-253645.3295,"代表点経度":60879.125369895}},{"type":"MultiPolygon","arcs":[[[283,-231,-228,-227,284,-273,285]]],"properties":{"筆ID":"H000000093","version":"ver1.0","座標系":"任意座標系","測地系判別":null,"地図名":"小安村字イツムラ・スケマ・ナカトロ・他","地図番号":"小安34-3-6","縮尺分母":"600","市区町村コード":"01202","市区町村名":"函館市","大字コード":"132","丁目コード":"000","小字コード":"0000","予備コード":"00","大字名":"瀬田来町","丁目名":null,"小字名":null,"予備名":null,"地番":"道-37","精度区分":null,"座標値種別":"図上測量","筆界未定構成筆":null,"代表点緯度":-253977.078,"代表点経度":60586.450726618}},{"type":"MultiPolygon","arcs":[[[286,-169,-163,-157,-267,-154,-282,-151,-147,-120,-118,287,288]]],"properties":{"筆ID":"H000000094","version":"ver1.0","座標系":"任意座標系","測地系判別":null,"地図名":"小安村字イツムラ・スケマ・ナカトロ・他","地図番号":"小安31-4-4","縮尺分母":"600","市区町村コード":"01202","市区町村名":"函館市","大字コード":"000","丁目コード":"000","小字コード":"0000","予備コード":"00","大字名":null,"丁目名":null,"小字名":null,"予備名":null,"地番":"地区外-2034089","精度区分":null,"座標値種別":"図上測量","筆界未定構成筆":null,"代表点緯度":-253932.9685,"代表点経度":60182.072245595}},{"type":"MultiPolygon","arcs":[[[289,-173,-236,-167,-287,290]]],"properties":{"筆ID":"H000000095","version":"ver1.0","座標系":"任意座標系","測地系判別":null,"地図名":"小安村字イツムラ・スケマ・ナカトロ・他","地図番号":"小安31-2-4","縮尺分母":"600","市区町村コード":"01202","市区町村名":"函館市","大字コード":"000","丁目コード":"000","小字コード":"0000","予備コード":"00","大字名":null,"丁目名":null,"小字名":null,"予備名":null,"地番":"地区外-2034090","精度区分":null,"座標値種別":"図上測量","筆界未定構成筆":null,"代表点緯度":-253814.3655,"代表点経度":60190.872351504}},{"type":"MultiPolygon","arcs":[[[291]]],"properties":{"筆ID":"H000000096","version":"ver1.0","座標系":"任意座標系","測地系判別":null,"地図名":"小安村字イツムラ・スケマ・ナカトロ・他","地図番号":"小安22-4","縮尺分母":"600","市区町村コード":"01202","市区町村名":"函館市","大字コード":"000","丁目コード":"000","小字コード":"0000","予備コード":"00","大字名":null,"丁目名":null,"小字名":null,"予備名":null,"地番":"地区外-2034091","精度区分":null,"座標値種別":"図上測量","筆界未定構成筆":null,"代表点緯度":-253204.3065,"代表点経度":59207.47725103}},{"type":"MultiPolygon","arcs":[[[292,293,-280,-2,294]]],"properties":{"筆ID":"H000000097","version":"ver1.0","座標系":"任意座標系","測地系判別":null,"地図名":"小安村字イツムラ・スケマ・ナカトロ・他","地図番号":"小安35-1-6","縮尺分母":"600","市区町村コード":"01202","市区町村名":"函館市","大字コード":"000","丁目コード":"000","小字コード":"0000","予備コード":"00","大字名":null,"丁目名":null,"小字名":null,"予備名":null,"地番":"地区外-2034092","精度区分":null,"座標値種別":"図上測量","筆界未定構成筆":null,"代表点緯度":-253677.5835,"代表点経度":60991.588787085}},{"type":"MultiPolygon","arcs":[[[295,-33,296,-209,-7,-279]]],"properties":{"筆ID":"H000000098","version":"ver1.0","座標系":"任意座標系","測地系判別":null,"地図名":"小安村字イツムラ・スケマ・ナカトロ・他","地図番号":"小安35-1-6","縮尺分母":"600","市区町村コード":"01202","市区町村名":"函館市","大字コード":"000","丁目コード":"000","小字コード":"0000","予備コード":"00","大字名":null,"丁目名":null,"小字名":null,"予備名":null,"地番":"地区外-2034093","精度区分":null,"座標値種別":"図上測量","筆界未定構成筆":null,"代表点緯度":-253725.7035,"代表点経度":60993.95169643}},{"type":"MultiPolygon","arcs":[[[-63,297,298]]],"properties":{"筆ID":"H000000099","version":"ver1.0","座標系":"任意座標系","測地系判別":null,"地図名":"小安村字イツムラ・スケマ・ナカトロ・他","地図番号":"小安34-4-6","縮尺分母":"600","市区町村コード":"01202","市区町村名":"函館市","大字コード":"000","丁目コード":"000","小字コード":"0000","予備コード":"00","大字名":null,"丁目名":null,"小字名":null,"予備名":null,"地番":"地区外-2034094","精度区分":null,"座標値種別":"図上測量","筆界未定構成筆":null,"代表点緯度":-253940.1705,"代表点経度":60727.622374222}},{"type":"MultiPolygon","arcs":[[[-286,-272,299,-235,-54,-67,-233,-64,-299,300]]],"properties":{"筆ID":"H000000100","version":"ver1.0","座標系":"任意座標系","測地系判別":null,"地図名":"小安村字イツムラ・スケマ・ナカトロ・他","地図番号":"小安34-3-6","縮尺分母":"600","市区町村コード":"01202","市区町村名":"函館市","大字コード":"000","丁目コード":"000","小字コード":"0000","予備コード":"00","大字名":null,"丁目名":null,"小字名":null,"予備名":null,"地番":"地区外-2034095","精度区分":null,"座標値種別":"図上測量","筆界未定構成筆":null,"代表点緯度":-253943.6865,"代表点経度":60660.801980241}},{"type":"MultiPolygon","arcs":[[[-117,301,-288]]],"properties":{"筆ID":"H000000101","version":"ver1.0","座標系":"任意座標系","測地系判別":null,"地図名":"小安村字イツムラ・スケマ・ナカトロ・他","地図番号":"小安34-3-6","縮尺分母":"600","市区町村コード":"01202","市区町村名":"函館市","大字コード":"000","丁目コード":"000","小字コード":"0000","予備コード":"00","大字名":null,"丁目名":null,"小字名":null,"予備名":null,"地番":"地区外-2034096","精度区分":null,"座標値種別":"図上測量","筆界未定構成筆":null,"代表点緯度":-254007.777,"代表点経度":60462.404094925}},{"type":"MultiPolygon","arcs":[[[-104,302]]],"properties":{"筆ID":"H000000102","version":"ver1.0","座標系":"任意座標系","測地系判別":null,"地図名":"小安村字イツムラ・スケマ・ナカトロ・他","地図番号":"小安34-3-6","縮尺分母":"600","市区町村コード":"01202","市区町村名":"函館市","大字コード":"000","丁目コード":"000","小字コード":"0000","予備コード":"00","大字名":null,"丁目名":null,"小字名":null,"予備名":null,"地番":"地区外-2034097","精度区分":null,"座標値種別":"図上測量","筆界未定構成筆":null,"代表点緯度":-254018.063,"代表点経度":60511.007569667}},{"type":"MultiPolygon","arcs":[[[303,-237,-175]]],"properties":{"筆ID":"H000000103","version":"ver1.0","座標系":"任意座標系","測地系判別":null,"地図名":"小安村字イツムラ・スケマ・ナカトロ・他","地図番号":"小安31-4-4","縮尺分母":"600","市区町村コード":"01202","市区町村名":"函館市","大字コード":"000","丁目コード":"000","小字コード":"0000","予備コード":"00","大字名":null,"丁目名":null,"小字名":null,"予備名":null,"地番":"地区外-2034099","精度区分":null,"座標値種別":"図上測量","筆界未定構成筆":null,"代表点緯度":-253840.504,"代表点経度":60313.393985955}},{"type":"MultiPolygon","arcs":[[[-291,304,-170]]],"properties":{"筆ID":"H000000104","version":"ver1.0","座標系":"任意座標系","測地系判別":null,"地図名":"小安村字イツムラ・スケマ・ナカトロ・他","地図番号":"小安31-1-4","縮尺分母":"600","市区町村コード":"01202","市区町村名":"函館市","大字コード":"000","丁目コード":"000","小字コード":"0000","予備コード":"00","大字名":null,"丁目名":null,"小字名":null,"予備名":null,"地番":"地区外-2034100","精度区分":null,"座標値種別":"図上測量","筆界未定構成筆":null,"代表点緯度":-253836.444,"代表点経度":60163.375964861}},{"type":"MultiPolygon","arcs":[[[-275,305,-219,-300,-271]]],"properties":{"筆ID":"H000000105","version":"ver1.0","座標系":"任意座標系","測地系判別":null,"地図名":"小安村字イツムラ・スケマ・ナカトロ・他","地図番号":"小安34-3-6","縮尺分母":"600","市区町村コード":"01202","市区町村名":"函館市","大字コード":"132","丁目コード":"000","小字コード":"0000","予備コード":"00","大字名":"瀬田来町","丁目名":null,"小字名":null,"予備名":null,"地番":"633","精度区分":null,"座標値種別":"図上測量","筆界未定構成筆":null,"代表点緯度":-253883.0655,"代表点経度":60637.504868107}},{"type":"MultiPolygon","arcs":[[[-274,-216,-306]]],"properties":{"筆ID":"H000000106","version":"ver1.0","座標系":"任意座標系","測地系判別":null,"地図名":"小安村字イツムラ・スケマ・ナカトロ・他","地図番号":"小安34-3-6","縮尺分母":"600","市区町村コード":"01202","市区町村名":"函館市","大字コード":"132","丁目コード":"000","小字コード":"0000","予備コード":"00","大字名":"瀬田来町","丁目名":null,"小字名":null,"予備名":null,"地番":"632","精度区分":null,"座標値種別":"図上測量","筆界未定構成筆":null,"代表点緯度":-253877.5385,"代表点経度":60647.532718702}},{"type":"MultiPolygon","arcs":[[[-182,-257,-180,306]]],"properties":{"筆ID":"H000000107","version":"ver1.0","座標系":"任意座標系","測地系判別":null,"地図名":"小安村字イツムラ・スケマ・ナカトロ・他","地図番号":"小安31-2-4","縮尺分母":"600","市区町村コード":"01202","市区町村名":"函館市","大字コード":"132","丁目コード":"000","小字コード":"0000","予備コード":"00","大字名":"瀬田来町","丁目名":null,"小字名":null,"予備名":null,"地番":"681","精度区分":null,"座標値種別":"図上測量","筆界未定構成筆":null,"代表点緯度":-253797.5855,"代表点経度":60427.80517868}},{"type":"MultiPolygon","arcs":[[[-223,307,-285,-226]]],"properties":{"筆ID":"H000000108","version":"ver1.0","座標系":"任意座標系","測地系判別":null,"地図名":"小安村字イツムラ・スケマ・ナカトロ・他","地図番号":"小安34-3-6","縮尺分母":"600","市区町村コード":"01202","市区町村名":"函館市","大字コード":"132","丁目コード":"000","小字コード":"0000","予備コード":"00","大字名":"瀬田来町","丁目名":null,"小字名":null,"予備名":null,"地番":"646","精度区分":null,"座標値種別":"図上測量","筆界未定構成筆":null,"代表点緯度":-253957.6215,"代表点経度":60584.096141105}},{"type":"MultiPolygon","arcs":[[[-222,-111,-215,308,-269,-308]]],"properties":{"筆ID":"H000000109","version":"ver1.0","座標系":"任意座標系","測地系判別":null,"地図名":"小安村字イツムラ・スケマ・ナカトロ・他","地図番号":"小安34-3-6","縮尺分母":"600","市区町村コード":"01202","市区町村名":"函館市","大字コード":"132","丁目コード":"000","小字コード":"0000","予備コード":"00","大字名":"瀬田来町","丁目名":null,"小字名":null,"予備名":null,"地番":"645","精度区分":null,"座標値種別":"図上測量","筆界未定構成筆":null,"代表点緯度":-253917.635,"代表点経度":60601.922925817}},{"type":"MultiPolygon","arcs":[[[-103,-100,-98,-95,-91,-126,-246,-90,-88,-85,-80,-77,-276,-270,-309,-214,-121,-221,-268,-136,309]]],"properties":{"筆ID":"H000000110","version":"ver1.0","座標系":"任意座標系","測地系判別":null,"地図名":"小安村字イツムラ・スケマ・ナカトロ・他","地図番号":"小安31-4-4","縮尺分母":"600","市区町村コード":"01202","市区町村名":"函館市","大字コード":"132","丁目コード":"000","小字コード":"0000","予備コード":"00","大字名":"瀬田来町","丁目名":null,"小字名":null,"予備名":null,"地番":"道-81","精度区分":null,"座標値種別":"図上測量","筆界未定構成筆":null,"代表点緯度":-253880.3175,"代表点経度":60621.142819738}},{"type":"MultiPolygon","arcs":[[[-129,-247,-124,310,-134]]],"properties":{"筆ID":"H000000111","version":"ver1.0","座標系":"任意座標系","測地系判別":null,"地図名":"小安村字イツムラ・スケマ・ナカトロ・他","地図番号":"小安34-1-6","縮尺分母":"600","市区町村コード":"01202","市区町村名":"函館市","大字コード":"132","丁目コード":"000","小字コード":"0000","予備コード":"00","大字名":"瀬田来町","丁目名":null,"小字名":null,"予備名":null,"地番":"659-1","精度区分":null,"座標値種別":"図上測量","筆界未定構成筆":null,"代表点緯度":-253858.906,"代表点経度":60472.906686815}},{"type":"MultiPolygon","arcs":[[[-127,-102,-310,-135,-131,-311]]],"properties":{"筆ID":"H000000112","version":"ver1.0","座標系":"任意座標系","測地系判別":null,"地図名":"小安村字イツムラ・スケマ・ナカトロ・他","地図番号":"小安34-3-6","縮尺分母":"600","市区町村コード":"01202","市区町村名":"函館市","大字コード":"132","丁目コード":"000","小字コード":"0000","予備コード":"00","大字名":"瀬田来町","丁目名":null,"小字名":null,"予備名":null,"地番":"筆界未定地-200","精度区分":null,"座標値種別":"図上測量","筆界未定構成筆":[{"大字コード":"132","丁目コード":"000","小字コード":"0000","予備コード":"00","大字名":"瀬田来町","地番":"658"},{"大字コード":"132","丁目コード":"000","小字コード":"0000","予備コード":"00","大字名":"瀬田来町","地番":"657"}],"代表点緯度":-253901.038,"代表点経度":60466.023107795}},{"type":"MultiPolygon","arcs":[[[-133,-144,311,-248]]],"properties":{"筆ID":"H000000113","version":"ver1.0","座標系":"任意座標系","測地系判別":null,"地図名":"小安村字イツムラ・スケマ・ナカトロ・他","地図番号":"小安31-2-4","縮尺分母":"600","市区町村コード":"01202","市区町村名":"函館市","大字コード":"132","丁目コード":"000","小字コード":"0000","予備コード":"00","大字名":"瀬田来町","丁目名":null,"小字名":null,"予備名":null,"地番":"663","精度区分":null,"座標値種別":"図上測量","筆界未定構成筆":null,"代表点緯度":-253870.2535,"代表点経度":60378.727419663}},{"type":"MultiPolygon","arcs":[[[-312,-143,-162,-165,-249]]],"properties":{"筆ID":"H000000114","version":"ver1.0","座標系":"任意座標系","測地系判別":null,"地図名":"小安村字イツムラ・スケマ・ナカトロ・他","地図番号":"小安31-2-4","縮尺分母":"600","市区町村コード":"01202","市区町村名":"函館市","大字コード":"132","丁目コード":"000","小字コード":"0000","予備コード":"00","大字名":"瀬田来町","丁目名":null,"小字名":null,"予備名":null,"地番":"664","精度区分":null,"座標値種別":"図上測量","筆界未定構成筆":null,"代表点緯度":-253889.9385,"代表点経度":60332.91747851}},{"type":"MultiPolygon","arcs":[[[-194,-241]]],"properties":{"筆ID":"H000000115","version":"ver1.0","座標系":"任意座標系","測地系判別":null,"地図名":"小安村字イツムラ・スケマ・ナカトロ・他","地図番号":"小安34-1-6","縮尺分母":"600","市区町村コード":"01202","市区町村名":"函館市","大字コード":"132","丁目コード":"000","小字コード":"0000","予備コード":"00","大字名":"瀬田来町","丁目名":null,"小字名":null,"予備名":null,"地番":"685","精度区分":null,"座標値種別":"図上測量","筆界未定構成筆":null,"代表点緯度":-253826.129,"代表点経度":60589.458578674}},{"type":"MultiPolygon","arcs":[[[-12,-245,-262,312,-293,313,-8,314,-210,-297,-32]]],"properties":{"筆ID":"H000000116","version":"ver1.0","座標系":"任意座標系","測地系判別":null,"地図名":"小安村字イツムラ・スケマ・ナカトロ・他","地図番号":"小安34-5-6","縮尺分母":"600","市区町村コード":"01202","市区町村名":"函館市","大字コード":"000","丁目コード":"000","小字コード":"0000","予備コード":"00","大字名":null,"丁目名":null,"小字名":null,"予備名":null,"地番":"地区外-2034098","精度区分":null,"座標値種別":"図上測量","筆界未定構成筆":null,"代表点緯度":-253691.1295,"代表点経度":60959.396300565}},{"type":"MultiPolygon","arcs":[[[-200,315,-242]]],"properties":{"筆ID":"H000000117","version":"ver1.0","座標系":"任意座標系","測地系判別":null,"地図名":"小安村字イツムラ・スケマ・ナカトロ・他","地図番号":"小安34-5-6","縮尺分母":"600","市区町村コード":"01202","市区町村名":"函館市","大字コード":"132","丁目コード":"000","小字コード":"0000","予備コード":"00","大字名":"瀬田来町","丁目名":null,"小字名":null,"予備名":null,"地番":"689","精度区分":null,"座標値種別":"図上測量","筆界未定構成筆":null,"代表点緯度":-253666.9015,"代表点経度":60746.751036398}}]}},"arcs":[[[958060,348188],[-5550,12162]],[[952510,360350],[4927,15828]],[[957437,376178],[12142,-19349],[-6566,-16768]],[[963013,340061],[-4953,8127]],[[952779,338701],[5281,9487]],[[963013,340061],[-6028,-9724]],[[956985,330337],[-4206,8364]],[[943751,349068],[-1539,-1652],[-5014,13135],[185,10528],[1456,1527],[2254,-10821]],[[941093,361785],[2658,-12717]],[[922352,361338],[5171,8097]],[[927523,369435],[2270,1782]],[[929793,371217],[10787,-31095],[-1240,-7331]],[[939340,332791],[-16988,28547]],[[911260,369237],[1662,2131]],[[912922,371368],[6780,-587],[2650,-9443]],[[922352,361338],[-11559,-618],[467,8517]],[[912922,371368],[1839,2356]],[[914761,373724],[6909,-2951],[987,3310]],[[922657,374083],[4866,-4648]],[[914761,373724],[839,4323],[1289,2890],[5768,-6854]],[[889261,358363],[21999,10874]],[[922352,361338],[-5990,-13750]],[[916362,347588],[-24132,1179],[-2969,9596]],[[922352,361338],[7427,-26840],[-1521,-6418],[3967,-7579],[6265,10049],[3950,-7435],[5038,-1037]],[[947478,322078],[-2046,-17119],[-709,-5923]],[[944723,299036],[-4650,2582]],[[940073,301618],[-3387,1880],[-7653,-4583],[-6791,4284]],[[922242,303199],[-1488,3067]],[[920754,306266],[-7657,6037]],[[913097,312303],[-318,2517]],[[912779,314820],[3583,32768]],[[939340,332791],[6067,-7988]],[[945407,324803],[2071,-2725]],[[940073,301618],[-104,-14170]],[[939969,287448],[-20144,-529]],[[919825,286919],[2417,16280]],[[944723,299036],[717,-599],[4814,-4040],[248,-6670]],[[950502,287727],[-5049,-136],[-5484,-143]],[[884588,293339],[9962,11162],[-3105,8216],[-8224,-11082]],[[883221,301635],[-1032,6456]],[[882189,308091],[-4734,33825]],[[877455,341916],[11806,16447]],[[912779,314820],[-5795,-15464],[-10467,-5847],[-10269,-10400]],[[886248,283109],[-1660,10230]],[[884588,293339],[-1367,8296]],[[886248,283109],[-13359,-14747]],[[872889,268362],[-4210,26524],[13510,13205]],[[806474,203673],[-620,2915],[-4417,20762]],[[801437,227350],[-6989,32853]],[[794448,260203],[9923,21766],[6141,7717],[18921,23783],[48022,28447]],[[872889,268362],[-14452,-16097],[-12400,-15603],[-3388,5658],[-26920,-35672],[-5106,-6771],[-1830,-2460],[-800,-976]],[[807993,196441],[-1519,7232]],[[805859,121033],[-5841,17715]],[[800018,138748],[-6468,19878]],[[793550,158626],[13785,19596]],[[807335,178222],[3307,6537],[3580,7080],[9795,14105]],[[824017,205944],[529,758],[18654,26768],[2733,-1711]],[[845933,231759],[13333,16939],[27762,30799],[10064,10153],[10963,6137]],[[908055,295787],[3251,2883],[2631,-6683]],[[913937,291987],[2593,3652]],[[916530,295639],[769,-11708]],[[917299,283931],[-9218,-14740],[-15143,-23554],[-717,2771],[-8743,-13467],[-4890,-8278],[-9702,-19693],[-5506,-11169],[946,-2980],[2068,-6293],[-6701,-16933],[-3217,-5768],[-11849,-16995],[-8105,-7900],[-22363,-26032]],[[814159,112900],[-3422,-4239]],[[810737,108661],[-572,-710]],[[810165,107951],[-4306,13082]],[[805859,121033],[-3846,-4376]],[[802013,116657],[-6331,14963],[4336,7128]],[[809600,193735],[1030,1393],[8585,11541],[3444,4635]],[[822659,211304],[1167,-4606],[191,-754]],[[807335,178222],[-8419,-7645]],[[798916,170577],[-1826,10640],[12510,12518]],[[783419,167536],[12816,12788],[1863,-10553]],[[798098,169771],[-3010,-6971],[-9080,-4386]],[[786008,158414],[-2589,9122]],[[768896,166292],[37578,37381]],[[807993,196441],[-29775,-29577],[-8844,-5832]],[[769374,161032],[-478,5260]],[[766577,179684],[-1174,12548]],[[765403,192232],[14570,14198],[21464,20920]],[[768896,166292],[-1283,12845],[-1036,547]],[[762202,225213],[32246,34990]],[[765403,192232],[-1369,14102],[-1832,18879]],[[757120,184911],[-1699,21370],[-617,7748]],[[754804,214029],[7398,11184]],[[766577,179684],[-9457,5227]],[[729089,208513],[6959,11035]],[[736048,219548],[4701,1278],[6782,-12461],[7273,5664]],[[757120,184911],[-10832,6070],[-13194,15162],[-761,876],[-3244,1494]],[[721269,216398],[14779,3150]],[[729089,208513],[-1055,469],[-6765,7416]],[[727486,205280],[4181,-2262],[8251,-9352]],[[739918,193666],[312,-10701],[-14142,2421]],[[726088,185386],[1398,19894]],[[726247,168271],[-159,17115]],[[739918,193666],[5537,-6260],[12036,-6831]],[[757491,180575],[-16209,-11200]],[[741282,169375],[-15035,-1104]],[[757491,180575],[8610,-4812],[1545,-15999],[-8334,-2961]],[[759312,156803],[-1821,23772]],[[759312,156803],[-7270,-1956],[-7380,-10223],[-1025,-590]],[[743637,144034],[-2355,25341]],[[723891,139472],[2356,28799]],[[743637,144034],[-9504,-5365],[-10242,803]],[[713433,6650],[-367,1695]],[[713066,8345],[-5226,23975]],[[707840,32320],[17287,12361],[12358,20092]],[[737485,64773],[8649,-24661]],[[746134,40112],[-15731,-23320]],[[730403,16792],[-9333,-10097],[-460,-496],[-5740,-6199],[-1437,6650]],[[692368,99061],[51038,29457]],[[743406,128518],[12580,-39748]],[[755986,88770],[-49614,-49798]],[[706372,38972],[-14004,60089]],[[663298,60273],[-3634,18224]],[[659664,78497],[16158,10159],[16546,10405]],[[706372,38972],[-8703,-7607]],[[697669,31365],[-21755,-16080]],[[675914,15285],[-3289,-2426],[-9327,47414]],[[646593,72055],[13071,6442]],[[663298,60273],[-12965,-5059],[-3740,16841]],[[691363,106066],[9211,31098],[5541,-467]],[[706115,136697],[2303,-22755],[-16050,-14881]],[[692368,99061],[-1005,7005]],[[704773,158235],[-1231,60829]],[[703542,219064],[8933,1551],[7151,-6946]],[[719626,213669],[7088,-7564],[772,-825]],[[726247,168271],[-21474,-10036]],[[660095,204496],[3963,1229],[11616,2453],[16584,3502],[3819,7393],[3211,-748]],[[699288,218325],[-836,-8886],[-15215,-2632]],[[683237,206807],[-5609,-1002],[-1950,-348],[-15583,-961]],[[683067,148092],[-411,-15898]],[[682656,132194],[-6888,758],[-15823,1737]],[[659945,134689],[150,69807]],[[683237,206807],[-4,-968],[-166,-57747]],[[682656,132194],[365,-25412]],[[683021,106782],[-7222,1283],[-5105,-3026]],[[670694,105039],[-8833,-1961]],[[661861,103078],[-1916,31611]],[[661861,103078],[-24364,-13889],[-14843,-2838]],[[622654,86351],[-5562,-6869]],[[617092,79482],[-1285,16978]],[[615807,96460],[-1119,15469]],[[614688,111929],[20405,5635]],[[635093,117564],[24852,17125]],[[631067,76657],[22791,13507]],[[653858,90164],[1810,-3677],[-9075,-14432]],[[646593,72055],[-11896,-11568]],[[634697,60487],[-3490,4427],[-140,11743]],[[617979,64096],[-687,11150]],[[617292,75246],[5489,6788],[8286,-5377]],[[634697,60487],[-4084,-2370],[-1352,5195],[-10640,-10371],[-642,11155]],[[583718,46660],[7063,13214],[9967,-4852],[15770,19253]],[[616518,74275],[550,-9137],[-13217,-25072],[-5593,-13118]],[[598258,26948],[-9439,-8613],[-5604,21066],[503,7259]],[[589293,84866],[1065,-20799]],[[590358,64067],[-7289,-13296]],[[583069,50771],[-9590,-7769],[-1905,22569],[9180,1673],[8539,17622]],[[589293,84866],[26514,11594]],[[617092,79482],[-16579,-20182],[-10155,4767]],[[588015,96142],[7449,67083],[3164,8111]],[[598628,171336],[15402,7111]],[[614030,178447],[658,-66518]],[[589293,84866],[-1278,11276]],[[599718,192696],[14183,305]],[[613901,193001],[129,-14554]],[[598628,171336],[1090,21360]],[[575284,205181],[1911,9693]],[[577195,214874],[9770,-9621],[12753,-12557]],[[588015,96142],[-22752,-4961],[-9633,14310],[19654,99690]],[[540736,208370],[-660,-3402]],[[540076,204968],[-20147,-103995],[-53916,103542],[-25212,48422],[15031,59315],[2275,13621],[26166,-41290],[7598,-15599],[9594,-19724],[39271,-40890]],[[349442,290477],[1326,21727],[45069,33344],[-4742,-104141],[-41653,49070]],[[578951,221504],[-4848,11269],[-4727,-3782],[-28705,31390]],[[540671,260381],[-3479,3803],[-14245,-3578],[-11401,14528],[-7170,-2893],[-11992,473],[9429,78160],[38783,-29564],[71274,-54338],[328,-61567]],[[612198,205405],[33,-6376]],[[612231,199029],[-10248,-625],[-6876,6899],[-16156,16201]],[[684914,221760],[10457,1413]],[[695371,223173],[-3653,-8319],[-16050,-1514],[-19636,-1849],[-344,3607]],[[655688,215098],[5233,6427]],[[660921,221525],[14735,2335],[872,142]],[[676528,224002],[8386,-2242]],[[684887,225573],[-2832,47422]],[[682055,272995],[42006,753],[-310,-47120]],[[723751,226628],[-7627,6911]],[[716124,233539],[-2665,13156],[-9106,1051],[2478,-22609]],[[706831,225137],[-11460,-1964]],[[684914,221760],[-27,3813]],[[716124,233539],[-9293,-8402]],[[726755,226231],[2693,8501],[5190,-3719],[794,-5191]],[[735432,225822],[-7850,-3023],[-827,3432]],[[742234,227755],[-1047,31330],[31762,43645]],[[772949,302730],[5467,16448]],[[778416,319178],[23720,-31815],[-6125,-15879],[-7751,-1861],[-5243,-16573],[-8128,-5711],[-15121,-16633],[-4619,-10527]],[[755149,220179],[-417,2323],[-7054,-6718]],[[747678,215784],[-5444,11971]],[[764733,354278],[-6890,-20939]],[[757843,333339],[-12007,13530],[12651,27490],[6246,-20081]],[[772949,302730],[-17106,24719],[2000,5890]],[[764733,354278],[22534,7127],[18889,17857]],[[806156,379262],[4255,-7825],[19249,-35390]],[[829660,336047],[-8952,-26010],[-10206,-11681],[-7376,-8443],[-24710,29265]],[[903720,381401],[-4488,-3814],[423,-2915]],[[899655,374672],[-9796,-7801]],[[889859,366871],[-7093,39563],[-3934,22380]],[[878832,428814],[17763,-2799],[-4885,-19527],[-986,-3944],[13333,-2089],[-1385,-4147],[1456,-10821]],[[904128,385487],[-408,-4086]],[[903720,381401],[-378,-3795],[-3687,-2934]],[[808485,22854],[2357,988],[3007,1268],[-18,-965],[-2986,-1822],[-2112,-1284],[-248,1815]],[[952779,338701],[-2226,-3953],[-5169,8837]],[[945384,343585],[-803,1398]],[[944581,344983],[799,1163],[5106,7606],[2024,6598]],[[865396,52493],[360,294],[754,-4323],[-342,-334],[-772,4363]],[[822659,211304],[19774,26072],[3500,-5617]],[[706115,136697],[28143,-2102],[11079,6310]],[[745337,140905],[-1931,-12387]],[[779487,158295],[1996,1932],[-708,4770]],[[780775,164997],[2644,2539]],[[786008,158414],[-5832,-4677]],[[780176,153737],[-689,4558]],[[653858,90164],[6667,-2270],[8649,4518],[2623,9068]],[[671797,101480],[4007,2522],[152,97],[13988,-2807],[1419,4774]],[[755986,88770],[-3811,-4580]],[[752175,84190],[-10257,-12500]],[[741918,71690],[-4433,-6917]],[[707840,32320],[-1468,6652]],[[741918,71690],[2643,-12463],[7404,6924]],[[751965,66151],[-5831,-26039]],[[746134,40112],[-1924,-11488]],[[744210,28624],[-12680,-15911]],[[731530,12713],[-1127,4079]],[[744210,28624],[-505,-2844]],[[743705,25780],[-11695,-14726],[-480,1659]],[[810165,107951],[-781,-1017],[-3749,11425],[-3047,-3400],[-575,1698]],[[798098,169771],[818,806]],[[793550,158626],[-13374,-4889]],[[577195,214874],[1756,6630]],[[612231,199029],[10418,6442]],[[622649,205471],[12381,7654],[20658,1973]],[[723751,226628],[3004,-397]],[[735432,225822],[6802,1933]],[[747678,215784],[829,-1846],[6642,6241]],[[829660,336047],[3997,-7347],[13501,2923],[13911,12430]],[[861069,344053],[16170,5914],[12620,16904]],[[904128,385487],[12266,5139],[10091,-9190]],[[926485,381436],[3308,-10219]],[[721269,216398],[-1643,-2729]],[[703542,219064],[-4254,-739]],[[660095,204496],[-19645,1082],[-6813,380]],[[633637,205958],[-641,-425],[-19095,-12532]],[[920754,306266],[-5843,-8026],[-1814,14063]],[[919825,286919],[929,19347]],[[908055,295787],[3864,10559],[2018,-14359]],[[916530,295639],[2100,2942],[-789,-15699]],[[917841,282882],[-542,1049]],[[917841,282882],[11595,340]],[[929436,283222],[-10965,-4407],[-1172,5116]],[[676528,224002],[8359,1571]],[[670694,105039],[-2800,-9024],[-7497,-3928],[-6818,2146],[-22562,-13386],[-8363,5504]],[[959419,329330],[4894,7819],[7896,20397]],[[972209,357546],[4732,16279],[7220,21984],[8,11245],[14,18749],[15816,-14359],[-1257,-4304],[-8840,-30215],[1126,-6351],[-7954,-9489],[-4231,7543],[-1265,-6729],[-5604,-19158],[-5422,-16284],[-7133,2873]],[[904867,387707],[11645,4928]],[[916512,392635],[9995,-9017],[-22,-2182]],[[904128,385487],[739,2220]],[[809600,193735],[-1607,2706]],[[919825,286919],[-1984,-4037]],[[617292,75246],[-774,-971]],[[583718,46660],[-649,4111]],[[670694,105039],[1103,-3559]],[[754373,75872],[13379,30873],[1970,40683],[-1286,8778]],[[768436,156206],[1727,1142]],[[770163,157348],[1434,-9371]],[[771597,147977],[-2081,-43107],[-13760,-31615],[-311,-1287]],[[755445,71968],[-1072,3904]],[[780775,164997],[-1996,-2017]],[[778779,162980],[-8616,-5632]],[[770163,157348],[-789,3684]],[[950502,287727],[-3267,-4074],[-1777,-26],[-3401,-50],[-12621,-355]],[[959419,329330],[-1044,-3440]],[[958375,325890],[-1390,4447]],[[957437,376178],[-4059,9412],[-4047,20278],[-188,972]],[[949143,406840],[-2720,15713],[4316,-13904],[352,-1796],[3749,-19142],[2427,-5529],[1315,-3000],[13627,-21636]],[[617979,64096],[-13445,-25498],[-5574,-12865],[-702,1215]],[[878832,428814],[2131,5874],[17069,-7557],[-5189,-20636],[-549,-2185],[13408,-2261],[-1955,-6164],[1120,-8178]],[[745336,19731],[-1783,-581],[152,6630]],[[751965,66151],[2408,9721]],[[755445,71968],[-1767,-7192],[-5871,-26284],[-2308,-13220],[-163,-5541]],[[540740,204970],[34544,211]],[[675914,15285],[11,-8866]],[[675925,6419],[-134938,-822],[-247,199373]],[[540736,208370],[-65,52011]],[[540740,204970],[-4,3400]],[[135185,800626],[-134938,-821],[-247,199373],[134937,821],[248,-199373]],[[945350,370272],[-45,36543]],[[945305,406815],[3838,25]],[[952510,360350],[-7160,9922]],[[958375,325890],[-3278,-10458],[-7619,6646]],[[945407,324803],[-23,18782]],[[814159,112900],[1078,-5960],[3538,1456],[1799,-8037],[3122,1736],[9182,-16617],[-1136,-9693],[-6644,-372],[-6114,-2354],[-4845,-2795],[-3349,-4034]],[[810790,66230],[-53,42431]],[[771597,147977],[8579,5760]],[[810790,66230],[-25203,-30355],[-12595,6303],[-6534,-17948],[-12977,-17336],[-2901,15236],[-5244,-2399]],[[697669,31365],[1547,-9094],[-8503,-10633],[1050,-5123],[-15838,-96]],[[713433,6650],[-2699,-16],[2332,1711]],[[612198,205405],[10451,66]],[[540740,204970],[-664,-2]],[[778779,162980],[708,-4685]],[[660921,221525],[-3627,64204],[18272,10393],[4930,2806],[1559,-25933]],[[752175,84190],[2198,-8318]],[[745337,140905],[7267,10102],[7250,1913],[8582,3286]],[[683021,106782],[5993,-1008],[10366,35090],[78,266],[7,23],[24426,-1681]],[[704773,158235],[-6929,-3237],[-519,-242],[-14258,-6664]],[[635093,117564],[-1456,88394]],[[916512,392635],[1391,7587],[-10887,6361],[38289,232]],[[945350,370272],[-4257,-8487]],[[943751,349068],[830,-4085]],[[806156,379262],[-5394,26672],[-4946,24461],[8725,18645],[2234,4853],[41967,-14598],[2412,-16023],[2130,-17017],[7785,-62202]]],"bbox":[59070.872,-254024.9,61091.885,-253113.031],"transform":{"scale":[0.00202101502101502,0.0009118699118699178],"translate":[59070.872,-254024.9]}}
