{"type":"Topology","objects":{"01202-4400-64.featurecollection":{"type":"GeometryCollection","geometries":[{"type":"Polygon","arcs":[[0,1,2,3,4,5]],"properties":{"市区町村名":"函館市","大字名":"原木町","丁目名":null,"小字名":null,"地番":"314","精度区分":null,"座標系":"任意座標系"}},{"type":"Polygon","arcs":[[6,7]],"properties":{"市区町村名":"函館市","大字名":"原木町","丁目名":null,"小字名":null,"地番":"322","精度区分":null,"座標系":"任意座標系"}},{"type":"Polygon","arcs":[[8,9,10,11,12]],"properties":{"市区町村名":"函館市","大字名":"原木町","丁目名":null,"小字名":null,"地番":"368","精度区分":null,"座標系":"任意座標系"}},{"type":"Polygon","arcs":[[13,14,-12,15]],"properties":{"市区町村名":"函館市","大字名":"原木町","丁目名":null,"小字名":null,"地番":"369","精度区分":null,"座標系":"任意座標系"}},{"type":"Polygon","arcs":[[16,-16,-11,17,18,19]],"properties":{"市区町村名":"函館市","大字名":"原木町","丁目名":null,"小字名":null,"地番":"370","精度区分":null,"座標系":"任意座標系"}},{"type":"Polygon","arcs":[[-10,20,-18]],"properties":{"市区町村名":"函館市","大字名":"原木町","丁目名":null,"小字名":null,"地番":"371","精度区分":null,"座標系":"任意座標系"}},{"type":"Polygon","arcs":[[21,22,23,24,25,26,27]],"properties":{"市区町村名":"函館市","大字名":"原木町","丁目名":null,"小字名":null,"地番":"378","精度区分":null,"座標系":"任意座標系"}},{"type":"Polygon","arcs":[[28,-23,29]],"properties":{"市区町村名":"函館市","大字名":"原木町","丁目名":null,"小字名":null,"地番":"379","精度区分":null,"座標系":"任意座標系"}},{"type":"Polygon","arcs":[[30,-30,-22,31]],"properties":{"市区町村名":"函館市","大字名":"原木町","丁目名":null,"小字名":null,"地番":"380","精度区分":null,"座標系":"任意座標系"}},{"type":"Polygon","arcs":[[32,-24,-29,-31,33]],"properties":{"市区町村名":"函館市","大字名":"原木町","丁目名":null,"小字名":null,"地番":"381","精度区分":null,"座標系":"任意座標系"}},{"type":"Polygon","arcs":[[34,-34,-32,35,36]],"properties":{"市区町村名":"函館市","大字名":"原木町","丁目名":null,"小字名":null,"地番":"382","精度区分":null,"座標系":"任意座標系"}},{"type":"Polygon","arcs":[[-35,37,38,-25,-33]],"properties":{"市区町村名":"函館市","大字名":"原木町","丁目名":null,"小字名":null,"地番":"383","精度区分":null,"座標系":"任意座標系"}},{"type":"Polygon","arcs":[[-26,-39,39,40,41,42,43,44]],"properties":{"市区町村名":"函館市","大字名":"原木町","丁目名":null,"小字名":null,"地番":"384","精度区分":null,"座標系":"任意座標系"}},{"type":"Polygon","arcs":[[45,46,47,48,49]],"properties":{"市区町村名":"函館市","大字名":"原木町","丁目名":null,"小字名":null,"地番":"385","精度区分":null,"座標系":"任意座標系"}},{"type":"Polygon","arcs":[[50,51,52,53]],"properties":{"市区町村名":"函館市","大字名":"原木町","丁目名":null,"小字名":null,"地番":"386","精度区分":null,"座標系":"任意座標系"}},{"type":"Polygon","arcs":[[54,55,56,-54,57,-42]],"properties":{"市区町村名":"函館市","大字名":"原木町","丁目名":null,"小字名":null,"地番":"387","精度区分":null,"座標系":"任意座標系"}},{"type":"Polygon","arcs":[[58,59,-55,-41]],"properties":{"市区町村名":"函館市","大字名":"原木町","丁目名":null,"小字名":null,"地番":"388","精度区分":null,"座標系":"任意座標系"}},{"type":"Polygon","arcs":[[60,-60,61,62]],"properties":{"市区町村名":"函館市","大字名":"原木町","丁目名":null,"小字名":null,"地番":"389","精度区分":null,"座標系":"任意座標系"}},{"type":"Polygon","arcs":[[63,-56,-61,64]],"properties":{"市区町村名":"函館市","大字名":"原木町","丁目名":null,"小字名":null,"地番":"390","精度区分":null,"座標系":"任意座標系"}},{"type":"Polygon","arcs":[[65,66,67,68,-51,-57,-64,69]],"properties":{"市区町村名":"函館市","大字名":"原木町","丁目名":null,"小字名":null,"地番":"391","精度区分":null,"座標系":"任意座標系"}},{"type":"Polygon","arcs":[[70,-66,71,72,73]],"properties":{"市区町村名":"函館市","大字名":"原木町","丁目名":null,"小字名":null,"地番":"392-1","精度区分":null,"座標系":"任意座標系"}},{"type":"Polygon","arcs":[[74,-67,-71,75]],"properties":{"市区町村名":"函館市","大字名":"原木町","丁目名":null,"小字名":null,"地番":"392-2","精度区分":null,"座標系":"任意座標系"}},{"type":"Polygon","arcs":[[-68,-75,76]],"properties":{"市区町村名":"函館市","大字名":"原木町","丁目名":null,"小字名":null,"地番":"392-3","精度区分":null,"座標系":"任意座標系"}},{"type":"Polygon","arcs":[[77,-72,-70,-65,-63,78]],"properties":{"市区町村名":"函館市","大字名":"原木町","丁目名":null,"小字名":null,"地番":"393","精度区分":null,"座標系":"任意座標系"}},{"type":"Polygon","arcs":[[79,80,81,82]],"properties":{"市区町村名":"函館市","大字名":"原木町","丁目名":null,"小字名":null,"地番":"395","精度区分":null,"座標系":"任意座標系"}},{"type":"Polygon","arcs":[[83,84,-80,85]],"properties":{"市区町村名":"函館市","大字名":"原木町","丁目名":null,"小字名":null,"地番":"396","精度区分":null,"座標系":"任意座標系"}},{"type":"Polygon","arcs":[[86,-84,87]],"properties":{"市区町村名":"函館市","大字名":"原木町","丁目名":null,"小字名":null,"地番":"397","精度区分":null,"座標系":"任意座標系"}},{"type":"Polygon","arcs":[[88,89]],"properties":{"市区町村名":"函館市","大字名":"原木町","丁目名":null,"小字名":null,"地番":"398","精度区分":null,"座標系":"任意座標系"}},{"type":"Polygon","arcs":[[90,91,92,93,-89,94]],"properties":{"市区町村名":"函館市","大字名":"原木町","丁目名":null,"小字名":null,"地番":"399-1","精度区分":null,"座標系":"任意座標系"}},{"type":"Polygon","arcs":[[95,96,97,-91,98,99]],"properties":{"市区町村名":"函館市","大字名":"原木町","丁目名":null,"小字名":null,"地番":"399-2","精度区分":null,"座標系":"任意座標系"}},{"type":"Polygon","arcs":[[100,101,-96,102]],"properties":{"市区町村名":"函館市","大字名":"原木町","丁目名":null,"小字名":null,"地番":"399-3","精度区分":null,"座標系":"任意座標系"}},{"type":"Polygon","arcs":[[103,104,105,106,-92,-98]],"properties":{"市区町村名":"函館市","大字名":"原木町","丁目名":null,"小字名":null,"地番":"400","精度区分":null,"座標系":"任意座標系"}},{"type":"Polygon","arcs":[[107,108]],"properties":{"市区町村名":"函館市","大字名":"原木町","丁目名":null,"小字名":null,"地番":"無地番-10","精度区分":null,"座標系":"任意座標系"}},{"type":"Polygon","arcs":[[-5,109,110,111]],"properties":{"市区町村名":"函館市","大字名":"原木町","丁目名":null,"小字名":null,"地番":"国有地-9","精度区分":null,"座標系":"任意座標系"}},{"type":"Polygon","arcs":[[-108,112,113,114,115]],"properties":{"市区町村名":"函館市","大字名":"原木町","丁目名":null,"小字名":null,"地番":"国有地-12","精度区分":null,"座標系":"任意座標系"}},{"type":"Polygon","arcs":[[116,-27,-45,117]],"properties":{"市区町村名":"函館市","大字名":"原木町","丁目名":null,"小字名":null,"地番":"無地番-47","精度区分":null,"座標系":"任意座標系"}},{"type":"Polygon","arcs":[[-20,118]],"properties":{"市区町村名":"函館市","大字名":"原木町","丁目名":null,"小字名":null,"地番":"無地番-52","精度区分":null,"座標系":"任意座標系"}},{"type":"Polygon","arcs":[[119,120,-103,-100,121]],"properties":{"市区町村名":"函館市","大字名":"原木町","丁目名":null,"小字名":null,"地番":"無地番-86","精度区分":null,"座標系":"任意座標系"}},{"type":"Polygon","arcs":[[122,-120,123]],"properties":{"市区町村名":"函館市","大字名":"原木町","丁目名":null,"小字名":null,"地番":"無地番-89","精度区分":null,"座標系":"任意座標系"}},{"type":"Polygon","arcs":[[-111,124,-3,125,-113,-109,-116,126]],"properties":{"市区町村名":"函館市","大字名":"原木町","丁目名":null,"小字名":null,"地番":"道-4","精度区分":null,"座標系":"任意座標系"}},{"type":"Polygon","arcs":[[127,-50,128,-58]],"properties":{"市区町村名":"函館市","大字名":"原木町","丁目名":null,"小字名":null,"地番":"道-7","精度区分":null,"座標系":"任意座標系"}},{"type":"Polygon","arcs":[[129,-46,-128,-53]],"properties":{"市区町村名":"函館市","大字名":"原木町","丁目名":null,"小字名":null,"地番":"道-8","精度区分":null,"座標系":"任意座標系"}},{"type":"Polygon","arcs":[[130,131,132]],"properties":{"市区町村名":"函館市","大字名":"原木町","丁目名":null,"小字名":null,"地番":"道-48","精度区分":null,"座標系":"任意座標系"}},{"type":"Polygon","arcs":[[-132,133,-1,134,135,-118,-44,136,-48,137]],"properties":{"市区町村名":"函館市","大字名":"原木町","丁目名":null,"小字名":null,"地番":"道-51","精度区分":null,"座標系":"任意座標系"}},{"type":"Polygon","arcs":[[-49,-137,-43,-129]],"properties":{"市区町村名":"函館市","大字名":"原木町","丁目名":null,"小字名":null,"地番":"道-85","精度区分":null,"座標系":"任意座標系"}},{"type":"Polygon","arcs":[[138,-81,-85,-87,139,-124,-122,-99,-95,-90,-94,140,-73,-78,141]],"properties":{"市区町村名":"函館市","大字名":"原木町","丁目名":null,"小字名":null,"地番":"道-97","精度区分":null,"座標系":"任意座標系"}},{"type":"Polygon","arcs":[[142,143,144,145]],"properties":{"市区町村名":"函館市","大字名":"原木町","丁目名":null,"小字名":null,"地番":"375-3","精度区分":null,"座標系":"任意座標系"}},{"type":"Polygon","arcs":[[146,147,148]],"properties":{"市区町村名":"函館市","大字名":"原木町","丁目名":null,"小字名":null,"地番":"373-2","精度区分":null,"座標系":"任意座標系"}},{"type":"Polygon","arcs":[[149,150,151,-148]],"properties":{"市区町村名":"函館市","大字名":"原木町","丁目名":null,"小字名":null,"地番":"373-1","精度区分":null,"座標系":"任意座標系"}},{"type":"Polygon","arcs":[[152,-13,-15]],"properties":{"市区町村名":"函館市","大字名":"原木町","丁目名":null,"小字名":null,"地番":"367","精度区分":null,"座標系":"任意座標系"}},{"type":"Polygon","arcs":[[-152,153,154]],"properties":{"市区町村名":"函館市","大字名":"原木町","丁目名":null,"小字名":null,"地番":"372-1","精度区分":null,"座標系":"任意座標系"}},{"type":"Polygon","arcs":[[-155,155,-145,156,-149]],"properties":{"市区町村名":"函館市","大字名":"原木町","丁目名":null,"小字名":null,"地番":"372-2","精度区分":null,"座標系":"任意座標系"}},{"type":"Polygon","arcs":[[157,-147,158]],"properties":{"市区町村名":"函館市","大字名":"原木町","丁目名":null,"小字名":null,"地番":"374-2","精度区分":null,"座標系":"任意座標系"}},{"type":"Polygon","arcs":[[-158,159,-150]],"properties":{"市区町村名":"函館市","大字名":"原木町","丁目名":null,"小字名":null,"地番":"374-1","精度区分":null,"座標系":"任意座標系"}},{"type":"Polygon","arcs":[[-82,-139,160]],"properties":{"市区町村名":"函館市","大字名":"原木町","丁目名":null,"小字名":null,"地番":"国有地-13","精度区分":null,"座標系":"任意座標系"}},{"type":"Polygon","arcs":[[-106,161,162]],"properties":{"市区町村名":"函館市","大字名":"原木町","丁目名":null,"小字名":null,"地番":"401","精度区分":null,"座標系":"任意座標系"}},{"type":"Polygon","arcs":[[-52,-69,-77,-76,-74,-141,-93,-107,-163,163,-130]],"properties":{"市区町村名":"函館市","大字名":"原木町","丁目名":null,"小字名":null,"地番":"道-78","精度区分":null,"座標系":"任意座標系"}},{"type":"Polygon","arcs":[[-97,-102,164,-104]],"properties":{"市区町村名":"函館市","大字名":"原木町","丁目名":null,"小字名":null,"地番":"402","精度区分":null,"座標系":"任意座標系"}},{"type":"Polygon","arcs":[[-131,165,-114,-126,-2,-134]],"properties":{"市区町村名":"函館市","大字名":"原木町","丁目名":null,"小字名":null,"地番":"376","精度区分":null,"座標系":"任意座標系"}},{"type":"Polygon","arcs":[[-117,-136,166,167,168,-146,-156,-154,-151,-160,169,-36,-28]],"properties":{"市区町村名":"函館市","大字名":"原木町","丁目名":null,"小字名":null,"地番":"375-1","精度区分":null,"座標系":"任意座標系"}},{"type":"Polygon","arcs":[[-6,170,-7,171,-167,-135]],"properties":{"市区町村名":"函館市","大字名":"原木町","丁目名":null,"小字名":null,"地番":"375-2","精度区分":null,"座標系":"任意座標系"}},{"type":"Polygon","arcs":[[-168,172,173,174]],"properties":{"市区町村名":"函館市","大字名":"原木町","丁目名":null,"小字名":null,"地番":"334-3","精度区分":null,"座標系":"任意座標系"}},{"type":"Polygon","arcs":[[-143,-169,-175,175,176]],"properties":{"市区町村名":"函館市","大字名":"原木町","丁目名":null,"小字名":null,"地番":"無地番-80","精度区分":null,"座標系":"任意座標系"}},{"type":"Polygon","arcs":[[-176,-174,177]],"properties":{"市区町村名":"函館市","大字名":"原木町","丁目名":null,"小字名":null,"地番":"334-2","精度区分":null,"座標系":"任意座標系"}},{"type":"Polygon","arcs":[[-4,-125,-110]],"properties":{"市区町村名":"函館市","大字名":"原木町","丁目名":null,"小字名":null,"地番":"270","精度区分":null,"座標系":"任意座標系"}}]}},"arcs":[[[317822,280784],[2110,2786]],[[319932,283570],[32072,-69062]],[[352004,214508],[-33673,-59084]],[[318331,155424],[-14435,-25063],[-13315,-13088]],[[290581,117273],[-13643,-13393]],[[276938,103880],[4672,129052],[36212,47852]],[[197468,125938],[3373,56898],[63048,-13269],[-5160,-62556]],[[258729,107011],[-19762,1553],[-21421,14797],[-20078,2577]],[[105141,482613],[25473,12405],[34710,-8710]],[[165324,486308],[-10815,-16659]],[[154509,469649],[-3152,24]],[[151357,469673],[-45965,-1456]],[[105392,468217],[-251,14396]],[[108318,440568],[-2514,1367]],[[105804,441935],[-412,26282]],[[151357,469673],[-6347,-47616],[-36692,18511]],[[141758,389709],[-38714,22286],[-7585,21647],[13191,-6751],[-332,13677]],[[154509,469649],[-1179,-8270],[-6636,-62904],[3445,-3179]],[[150139,395296],[-1999,-9152]],[[148140,386144],[-6382,3565]],[[165324,486308],[25329,-30135],[-32883,-26576],[-7631,-34301]],[[266163,486931],[472,481],[13935,14232]],[[280570,501644],[8950,9231]],[[289520,510875],[3699,22072]],[[293219,532947],[19128,73733]],[[312347,606680],[9204,-1194],[25772,-19584],[29548,-16903]],[[376871,568999],[8034,-35620],[2968,-13157],[-41676,-100641]],[[346197,419581],[-79560,66953],[-474,397]],[[276079,514303],[8814,9412],[4627,-12840]],[[280570,501644],[-4491,12659]],[[258996,502206],[7601,8958],[7453,8785],[2029,-5646]],[[266163,486931],[-7167,15275]],[[243858,587689],[22643,-16532],[7626,-5568],[19092,-32642]],[[258996,502206],[-7914,16627],[-4540,13891],[-3467,10608],[783,44357]],[[229931,590949],[13927,-3260]],[[266163,486931],[-6401,-7226]],[[259762,479705],[-29694,52942],[-674,2171],[537,56131]],[[229931,590949],[6270,26487]],[[236201,617436],[19766,4946],[10458,-3996],[22781,-8709],[23141,-2997]],[[236201,617436],[14271,27609]],[[250472,645045],[15917,-4753],[16782,-5016],[45467,24671],[5853,45600]],[[334491,705547],[6170,24240],[20334,-16031],[17627,-5224],[45844,-15845]],[[424466,692687],[57381,7470],[1156,182]],[[483003,700339],[276,-25506],[-7467,-24980],[-20222,-34326],[-27024,-23960],[-21935,-33929]],[[406631,557638],[-29760,11361]],[[408091,760840],[3497,29957]],[[411588,790797],[70146,29927]],[[481734,820724],[1212,-115953]],[[482946,704771],[-56855,-7463]],[[426091,697308],[-18000,63532]],[[307678,779053],[2464,35381],[7147,15015]],[[317289,829449],[12501,25066],[29710,-18108],[11000,-20182],[16949,-21786],[21093,-7628]],[[408542,786811],[-3237,-27786]],[[405305,759025],[-24096,7435],[-50395,22529],[-23136,-9936]],[[334491,705547],[-62166,8886]],[[272325,714433],[-6080,16201],[-10568,28164]],[[255677,758798],[10515,5153],[11410,5594],[30076,9508]],[[405305,759025],[19161,-66338]],[[250472,645045],[-10019,10844]],[[240453,655889],[25837,47456],[6035,11088]],[[217650,658842],[48631,49444],[6044,6147]],[[240453,655889],[-13895,-10045]],[[226558,645844],[-8908,12998]],[[201758,724500],[15472,12392],[38447,21906]],[[217650,658842],[-15892,65658]],[[190804,766090],[20647,55136]],[[211451,821226],[5979,15968],[36280,42717]],[[253710,879911],[12273,14451],[12330,14525]],[[278313,908887],[38976,-79438]],[[201758,724500],[-10954,41590]],[[191527,834290],[19924,-13064]],[[190804,766090],[-18477,-20192],[-15133,-28530]],[[157194,717368],[-1835,2725]],[[155359,720093],[31652,72739],[-4087,6383],[8603,35075]],[[204030,911042],[49680,-31131]],[[191527,834290],[8247,33625],[4189,23651],[67,19476]],[[204030,911042],[106,30841],[-3745,15719],[65556,-40322],[12366,-8393]],[[183161,679652],[-25967,37716]],[[226558,645844],[-2478,-5599],[-19119,7506],[-21800,31901]],[[123934,712574],[14024,27655]],[[137958,740229],[17552,-26024],[16202,-23429]],[[171712,690776],[-7426,-17160]],[[164286,673616],[-18588,10930],[-21764,28028]],[[107124,741687],[12920,25104]],[[120044,766791],[17914,-26562]],[[123934,712574],[-16810,29113]],[[90992,795270],[9612,471],[19440,-28950]],[[107124,741687],[-21571,37064],[5439,16519]],[[128175,760430],[12155,11200],[9542,-10429],[-11430,-15903]],[[138442,745298],[-10267,15132]],[[108138,790385],[30073,63876]],[[138211,854261],[41295,-56099]],[[179506,798162],[3828,-5647],[-30021,-69428]],[[153313,723087],[-14871,22211]],[[128175,760430],[-20037,29955]],[[68934,828687],[35530,71187]],[[104464,899874],[5657,-7455]],[[110121,892419],[28090,-38158]],[[108138,790385],[-6423,9603],[-11503,-370]],[[90212,799618],[-8144,-298],[-13134,29367]],[[49669,961595],[2678,13],[25930,-27224]],[[78277,934384],[26187,-34510]],[[68934,828687],[-11930,26678],[-10319,40958],[2984,65272]],[[110121,892419],[17776,27269]],[[127897,919688],[18054,10657]],[[145951,930345],[51252,-61716]],[[197203,868629],[-17697,-70467]],[[355008,201326],[-15098,-25168],[-5905,-37167],[-10928,-11818]],[[323077,127173],[-1963,27128],[30604,53595],[3290,-6570]],[[290581,117273],[6642,-14113],[5542,-11767]],[[302765,91393],[5786,-61421]],[[308551,29972],[-1401,4838],[-16017,55550],[-11507,-56336],[5854,-9783],[-18118,8964],[-10605,5244],[3066,8067],[-24335,-1202],[567,16198],[23286,1930],[7979,-4049],[11183,-5678],[-1538,49349],[-27,816]],[[355008,201326],[1693,2788]],[[356701,204114],[34372,-47644],[48525,-52634]],[[439598,103836],[-68773,-328],[-3,3536],[-44839,3595],[-10003,5013],[-1404,-12409],[-5690,-27]],[[308886,103216],[3356,12195],[10835,11762]],[[335599,393907],[10598,25674]],[[406631,557638],[-10065,-24203],[-45557,-109567],[-15410,-29961]],[[148140,386144],[-2824,-35221],[-1781,-19854],[-226,-3683],[-1555,-7094],[2,11599],[0,20953],[2,36865]],[[5196,959839],[7143,1577]],[[12339,961416],[37330,179]],[[90212,799618],[-6682,-6010],[-19584,36587],[-9575,21635],[-19921,45229],[-17987,16522],[-11267,46258]],[[4043,961378],[8296,38]],[[5196,959839],[-1153,1539]],[[302765,91393],[3222,11810],[4180,15315],[10298,10956],[-2134,25950]],[[352004,214508],[4697,-10394]],[[308886,103216],[-3494,-12694],[5626,-62043],[-13054,-26248],[-1354,3370],[11941,24371]],[[405305,759025],[2786,1815]],[[426091,697308],[-1625,-4621]],[[408542,786811],[3046,3986]],[[696695,84238],[5807,20841],[5523,19825],[15413,34663],[58848,39503],[37969,20899],[76043,77716]],[[896298,297685],[1464,-3560]],[[897762,294125],[-76564,-78005],[-38122,-21264],[-58122,-38846],[-14849,-33461],[-4982,-17459],[-6711,-23501],[-1717,2649]],[[896298,297685],[-5879,72770],[-61029,103293],[-16412,61658],[-13197,49580],[-17100,40305],[-49874,31206],[-33538,8610],[-10535,20300],[-21629,73345],[-26259,50700],[-68995,133207],[-19552,-7569],[-8660,-19135],[-22990,-30509],[-36597,-66706],[1698,-144988],[-8044,-26607],[-20853,-35142],[-26815,-23687],[-21515,-33380],[-8910,-21486],[-46249,-111518],[-16149,-31041],[-39090,-50615],[2928,-29763],[18879,-26943]],[[317822,280784],[-19142,27766],[-3442,33121]],[[295238,341671],[40361,52236]],[[483003,700339],[-57,4432]],[[481734,820724],[37334,67972],[22940,30512],[8397,18951],[-12252,16697],[-3628,9034],[2104,11],[2890,-6868],[13199,-18232],[19658,7480],[68462,-132034],[27748,-53517],[21825,-73790],[9962,-18945],[32853,-8432],[50557,-30961],[17730,-42335],[13573,-50849],[15959,-59796],[61139,-103652],[5832,-73039],[80078,-192544],[21905,-52670],[-2745,890],[-21505,51768],[-77987,187750]],[[185494,661347],[-4230,15332],[-9552,14097]],[[90992,795270],[-8050,-6999],[-20944,38941],[-6643,15569],[-22435,50940],[-18562,16621],[-11374,47052],[-2984,3964],[4043,20]],[[153313,723087],[2046,-2994]],[[183161,679652],[6733,-24315],[-2993,1291],[-1407,4719]],[[160768,317132],[-10005,68623]],[[150763,385755],[6242,28765]],[[157005,414520],[120,-72],[3963,-2388]],[[161088,412060],[-3178,-19387],[-2089,-22515],[5540,-51716],[-593,-1310]],[[180657,443473],[6833,-12956]],[[187490,430517],[-17237,-7033]],[[170253,423484],[10404,19989]],[[187490,430517],[15932,-30216]],[[203422,400301],[-15272,-23433],[-24841,33274]],[[163309,410142],[6944,13342]],[[105804,441935],[154,-9087],[-12304,6207],[2342,33460],[9145,10098]],[[163309,410142],[-1614,1395]],[[161695,411537],[2165,7620],[6393,4327]],[[161695,411537],[-607,523]],[[157005,414520],[33,148],[2547,11595],[21072,17210]],[[206254,438335],[-18764,-7818]],[[180657,443473],[10975,8649],[14622,-13787]],[[206254,438335],[-946,-7640],[-1886,-30394]],[[185494,661347],[-21208,12269]],[[145951,930345],[3950,2909],[25380,18693],[15567,10315],[5117,3468]],[[195965,965730],[448,-3443],[5359,-21415],[-695,-48874],[-3874,-23369]],[[195965,965730],[4701,-3420],[65273,-39928],[12891,-7882],[38562,-78260],[11711,23434],[32182,-19830],[11263,-20899],[16053,-20338],[22987,-7810]],[[78277,934384],[511,730],[18659,26706],[26336,38179],[1166,-21239],[797,-16807],[2151,-42265]],[[696695,84238],[-24530,-41867],[-30059,-24542],[-3601,-2941],[-34520,-14888],[-29139,11649],[-38083,19956],[-19569,-8017],[-2626,-1077],[-74970,81325]],[[295238,341671],[-122789,-80084]],[[172449,261587],[-9260,38946]],[[163189,300533],[-2421,16599]],[[206254,438335],[34692,-19829],[25777,13912],[1056,570],[-1067,6212],[-6950,40505]],[[276938,103880],[-9695,3936],[-3839,1563],[-365,-2697],[-4310,329]],[[197468,125938],[-13839,12027],[12684,86475],[-14271,9589],[-9593,27558]],[[172449,261587],[-11512,-4825],[-15394,-39535]],[[145543,217227],[10153,41727],[2885,28296]],[[158581,287250],[4608,13283]],[[158581,287250],[-30879,-89002]],[[127702,198248],[-1306,5490],[-3126,13676],[-1199,4950],[23699,103825],[336,4312],[1616,18775],[3041,36479]],[[145543,217227],[-3127,-8030],[-435,-17578],[2613,-1870],[-3702,-1123],[5443,-17203],[3483,-14586],[-2177,-1870],[-19939,43281]]],"bbox":[64950.749,-251911.043,66406.29,-251065.049],"transform":{"scale":[0.0014555424555424456,0.0008459948459948521],"translate":[64950.749,-251911.043]}}