{"type":"Topology","objects":{"01202-4400-102":{"type":"GeometryCollection","geometries":[{"type":"MultiPolygon","arcs":[[[0]]],"properties":{"筆ID":"H000000001","version":"ver1.0","座標系":"任意座標系","測地系判別":null,"地図名":"青柳町","地図番号":"16","縮尺分母":"500","市区町村コード":"01202","市区町村名":"函館市","大字コード":"008","丁目コード":"000","小字コード":"0000","予備コード":"00","大字名":"青柳町","丁目名":null,"小字名":null,"予備名":null,"地番":"37-26","精度区分":null,"座標値種別":null,"筆界未定構成筆":null,"代表点緯度":-430.9355,"代表点経度":412.860458662}}]}},"arcs":[[[402326,834487],[61501,23040],[88974,142472],[245721,-17124],[4141,5955],[197336,-135772],[-47204,-221358],[-19153,5082],[8649,42703],[-253897,175906],[-145586,-50327],[-106260,-165564],[34222,-22629],[-214468,-346907],[268341,-183822],[8674,-13344],[-99489,-72798],[-433828,299554],[6052,6773],[30698,30776],[38910,26821],[52513,45982],[54115,158761],[40405,61826],[41184,49779],[27913,-15356],[110536,169571]]],"bbox":[345.873,-545.228,590.744,-311.638],"transform":{"scale":[0.00024487124487124494,0.00023359023359023357],"translate":[345.873,-545.228]}}
