{"type":"Topology","objects":{"01202-4400-60":{"type":"GeometryCollection","geometries":[{"type":"MultiPolygon","arcs":[[[0,1]]],"properties":{"筆ID":"H000000001","version":"ver1.0","座標系":"任意座標系","測地系判別":null,"地図名":"戸井村字丸山・左又・丸山ノ腰・他","地図番号":"戸井46-3-3","縮尺分母":"1200","市区町村コード":"01202","市区町村名":"函館市","大字コード":"135","丁目コード":"000","小字コード":"0000","予備コード":"00","大字名":"浜町","丁目名":null,"小字名":null,"予備名":null,"地番":"968","精度区分":null,"座標値種別":"図上測量","筆界未定構成筆":null,"代表点緯度":-251600.065,"代表点経度":64372.103508066}},{"type":"MultiPolygon","arcs":[[[2,3,4,5,-1,6]]],"properties":{"筆ID":"H000000002","version":"ver1.0","座標系":"任意座標系","測地系判別":null,"地図名":"戸井村字丸山・左又・丸山ノ腰・他","地図番号":"戸井46-3-3","縮尺分母":"1200","市区町村コード":"01202","市区町村名":"函館市","大字コード":"135","丁目コード":"000","小字コード":"0000","予備コード":"00","大字名":"浜町","丁目名":null,"小字名":null,"予備名":null,"地番":"969","精度区分":null,"座標値種別":"図上測量","筆界未定構成筆":null,"代表点緯度":-251486.261,"代表点経度":64317.752080905}},{"type":"MultiPolygon","arcs":[[[7,8,9,-5]]],"properties":{"筆ID":"H000000003","version":"ver1.0","座標系":"任意座標系","測地系判別":null,"地図名":"戸井村字丸山・左又・丸山ノ腰・他","地図番号":"戸井46-2-3","縮尺分母":"1200","市区町村コード":"01202","市区町村名":"函館市","大字コード":"135","丁目コード":"000","小字コード":"0000","予備コード":"00","大字名":"浜町","丁目名":null,"小字名":null,"予備名":null,"地番":"970","精度区分":null,"座標値種別":"図上測量","筆界未定構成筆":null,"代表点緯度":-251400.897,"代表点経度":64285.579949926}},{"type":"MultiPolygon","arcs":[[[10,-9,11]]],"properties":{"筆ID":"H000000004","version":"ver1.0","座標系":"任意座標系","測地系判別":null,"地図名":"戸井村字丸山・左又・丸山ノ腰・他","地図番号":"戸井46-2-3","縮尺分母":"1200","市区町村コード":"01202","市区町村名":"函館市","大字コード":"135","丁目コード":"000","小字コード":"0000","予備コード":"00","大字名":"浜町","丁目名":null,"小字名":null,"予備名":null,"地番":"971","精度区分":null,"座標値種別":"図上測量","筆界未定構成筆":null,"代表点緯度":-251377.8145,"代表点経度":64276.507813546}},{"type":"MultiPolygon","arcs":[[[12,13,14,15]]],"properties":{"筆ID":"H000000005","version":"ver1.0","座標系":"任意座標系","測地系判別":null,"地図名":"戸井村字丸山・左又・丸山ノ腰・他","地図番号":"戸井46-2-3","縮尺分母":"1200","市区町村コード":"01202","市区町村名":"函館市","大字コード":"135","丁目コード":"000","小字コード":"0000","予備コード":"00","大字名":"浜町","丁目名":null,"小字名":null,"予備名":null,"地番":"972","精度区分":null,"座標値種別":"図上測量","筆界未定構成筆":null,"代表点緯度":-251361.2885,"代表点経度":64249.793175518}},{"type":"MultiPolygon","arcs":[[[-14,16,17,18]]],"properties":{"筆ID":"H000000006","version":"ver1.0","座標系":"任意座標系","測地系判別":null,"地図名":"戸井村字丸山・左又・丸山ノ腰・他","地図番号":"戸井46-2-3","縮尺分母":"1200","市区町村コード":"01202","市区町村名":"函館市","大字コード":"135","丁目コード":"000","小字コード":"0000","予備コード":"00","大字名":"浜町","丁目名":null,"小字名":null,"予備名":null,"地番":"973","精度区分":null,"座標値種別":"図上測量","筆界未定構成筆":null,"代表点緯度":-251320.6925,"代表点経度":64275.376628447}},{"type":"MultiPolygon","arcs":[[[19,-17,-13,20]]],"properties":{"筆ID":"H000000007","version":"ver1.0","座標系":"任意座標系","測地系判別":null,"地図名":"戸井村字丸山・左又・丸山ノ腰・他","地図番号":"戸井46-2-3","縮尺分母":"1200","市区町村コード":"01202","市区町村名":"函館市","大字コード":"135","丁目コード":"000","小字コード":"0000","予備コード":"00","大字名":"浜町","丁目名":null,"小字名":null,"予備名":null,"地番":"974","精度区分":null,"座標値種別":"図上測量","筆界未定構成筆":null,"代表点緯度":-251310.857,"代表点経度":64235.598023902}},{"type":"MultiPolygon","arcs":[[[21,-21,22]]],"properties":{"筆ID":"H000000008","version":"ver1.0","座標系":"任意座標系","測地系判別":null,"地図名":"戸井村字丸山・左又・丸山ノ腰・他","地図番号":"戸井46-2-3","縮尺分母":"1200","市区町村コード":"01202","市区町村名":"函館市","大字コード":"135","丁目コード":"000","小字コード":"0000","予備コード":"00","大字名":"浜町","丁目名":null,"小字名":null,"予備名":null,"地番":"975","精度区分":null,"座標値種別":"図上測量","筆界未定構成筆":null,"代表点緯度":-251311.0985,"代表点経度":64206.888193255}},{"type":"MultiPolygon","arcs":[[[23,24,-23,-16,25,-12,-8,-4]]],"properties":{"筆ID":"H000000009","version":"ver1.0","座標系":"任意座標系","測地系判別":null,"地図名":"戸井村字丸山・左又・丸山ノ腰・他","地図番号":"戸井46-2-3","縮尺分母":"1200","市区町村コード":"01202","市区町村名":"函館市","大字コード":"135","丁目コード":"000","小字コード":"0000","予備コード":"00","大字名":"浜町","丁目名":null,"小字名":null,"予備名":null,"地番":"976","精度区分":null,"座標値種別":"図上測量","筆界未定構成筆":null,"代表点緯度":-251343.252,"代表点経度":64196.090776293}},{"type":"MultiPolygon","arcs":[[[26,-20,-22,-25]]],"properties":{"筆ID":"H000000010","version":"ver1.0","座標系":"任意座標系","測地系判別":null,"地図名":"戸井村字丸山・左又・丸山ノ腰・他","地図番号":"戸井46-2-3","縮尺分母":"1200","市区町村コード":"01202","市区町村名":"函館市","大字コード":"135","丁目コード":"000","小字コード":"0000","予備コード":"00","大字名":"浜町","丁目名":null,"小字名":null,"予備名":null,"地番":"978","精度区分":null,"座標値種別":"図上測量","筆界未定構成筆":null,"代表点緯度":-251257.3345,"代表点経度":64207.764273884}},{"type":"MultiPolygon","arcs":[[[27,28,29,30,-18,-27,31]]],"properties":{"筆ID":"H000000011","version":"ver1.0","座標系":"任意座標系","測地系判別":null,"地図名":"戸井村字丸山・左又・丸山ノ腰・他","地図番号":"戸井47-3-3","縮尺分母":"1200","市区町村コード":"01202","市区町村名":"函館市","大字コード":"135","丁目コード":"000","小字コード":"0000","予備コード":"00","大字名":"浜町","丁目名":null,"小字名":null,"予備名":null,"地番":"979","精度区分":null,"座標値種別":"図上測量","筆界未定構成筆":null,"代表点緯度":-251171.564,"代表点経度":64236.653146966}},{"type":"MultiPolygon","arcs":[[[32,33,34,35]]],"properties":{"筆ID":"H000000012","version":"ver1.0","座標系":"任意座標系","測地系判別":null,"地図名":"戸井村字丸山・左又・丸山ノ腰・他","地図番号":"戸井47-3-3","縮尺分母":"1200","市区町村コード":"01202","市区町村名":"函館市","大字コード":"135","丁目コード":"000","小字コード":"0000","予備コード":"00","大字名":"浜町","丁目名":null,"小字名":null,"予備名":null,"地番":"980","精度区分":null,"座標値種別":"図上測量","筆界未定構成筆":null,"代表点緯度":-251095.6995,"代表点経度":64316.946965341}},{"type":"MultiPolygon","arcs":[[[36,37,-34,38,39,40]]],"properties":{"筆ID":"H000000013","version":"ver1.0","座標系":"任意座標系","測地系判別":null,"地図名":"戸井村字丸山・左又・丸山ノ腰・他","地図番号":"戸井47-3-3","縮尺分母":"1200","市区町村コード":"01202","市区町村名":"函館市","大字コード":"135","丁目コード":"000","小字コード":"0000","予備コード":"00","大字名":"浜町","丁目名":null,"小字名":null,"予備名":null,"地番":"982-1","精度区分":null,"座標値種別":"図上測量","筆界未定構成筆":null,"代表点緯度":-251049.7135,"代表点経度":64334.745834166}},{"type":"MultiPolygon","arcs":[[[41,-40,42]]],"properties":{"筆ID":"H000000014","version":"ver1.0","座標系":"任意座標系","測地系判別":null,"地図名":"戸井村字丸山・左又・丸山ノ腰・他","地図番号":"戸井47-3-3","縮尺分母":"1200","市区町村コード":"01202","市区町村名":"函館市","大字コード":"135","丁目コード":"000","小字コード":"0000","予備コード":"00","大字名":"浜町","丁目名":null,"小字名":null,"予備名":null,"地番":"983","精度区分":null,"座標値種別":"図上測量","筆界未定構成筆":null,"代表点緯度":-251025.981,"代表点経度":64276.362114638}},{"type":"MultiPolygon","arcs":[[[43,44,-43,-39,-33,45]]],"properties":{"筆ID":"H000000015","version":"ver1.0","座標系":"任意座標系","測地系判別":null,"地図名":"戸井村字丸山・左又・丸山ノ腰・他","地図番号":"戸井47-3-3","縮尺分母":"1200","市区町村コード":"01202","市区町村名":"函館市","大字コード":"135","丁目コード":"000","小字コード":"0000","予備コード":"00","大字名":"浜町","丁目名":null,"小字名":null,"予備名":null,"地番":"984","精度区分":null,"座標値種別":"図上測量","筆界未定構成筆":null,"代表点緯度":-251059.07,"代表点経度":64251.601859659}},{"type":"MultiPolygon","arcs":[[[46,-44,47,48]]],"properties":{"筆ID":"H000000016","version":"ver1.0","座標系":"任意座標系","測地系判別":null,"地図名":"戸井村字丸山・左又・丸山ノ腰・他","地図番号":"戸井47-3-3","縮尺分母":"1200","市区町村コード":"01202","市区町村名":"函館市","大字コード":"135","丁目コード":"000","小字コード":"0000","予備コード":"00","大字名":"浜町","丁目名":null,"小字名":null,"予備名":null,"地番":"985","精度区分":null,"座標値種別":"図上測量","筆界未定構成筆":null,"代表点緯度":-251127.793,"代表点経度":64186.416371039}},{"type":"MultiPolygon","arcs":[[[49,-49,50,-30,51]]],"properties":{"筆ID":"H000000017","version":"ver1.0","座標系":"任意座標系","測地系判別":null,"地図名":"戸井村字丸山・左又・丸山ノ腰・他","地図番号":"戸井47-3-3","縮尺分母":"1200","市区町村コード":"01202","市区町村名":"函館市","大字コード":"135","丁目コード":"000","小字コード":"0000","予備コード":"00","大字名":"浜町","丁目名":null,"小字名":null,"予備名":null,"地番":"986","精度区分":null,"座標値種別":"図上測量","筆界未定構成筆":null,"代表点緯度":-251133.48,"代表点経度":64133.020807824}},{"type":"MultiPolygon","arcs":[[[52,53,-45,-47,-50,54]]],"properties":{"筆ID":"H000000018","version":"ver1.0","座標系":"任意座標系","測地系判別":null,"地図名":"戸井村字丸山・左又・丸山ノ腰・他","地図番号":"戸井47-2-3","縮尺分母":"1200","市区町村コード":"01202","市区町村名":"函館市","大字コード":"135","丁目コード":"000","小字コード":"0000","予備コード":"00","大字名":"浜町","丁目名":null,"小字名":null,"予備名":null,"地番":"987","精度区分":null,"座標値種別":"図上測量","筆界未定構成筆":null,"代表点緯度":-251044.482,"代表点経度":64099.607977159}},{"type":"MultiPolygon","arcs":[[[55,-55,-52,-29,56,57]]],"properties":{"筆ID":"H000000019","version":"ver1.0","座標系":"任意座標系","測地系判別":null,"地図名":"戸井村字丸山・左又・丸山ノ腰・他","地図番号":"戸井47-2-3","縮尺分母":"1200","市区町村コード":"01202","市区町村名":"函館市","大字コード":"135","丁目コード":"000","小字コード":"0000","予備コード":"00","大字名":"浜町","丁目名":null,"小字名":null,"予備名":null,"地番":"988","精度区分":null,"座標値種別":"図上測量","筆界未定構成筆":null,"代表点緯度":-251130.542,"代表点経度":64037.522573162}},{"type":"MultiPolygon","arcs":[[[58,59,60,61]]],"properties":{"筆ID":"H000000020","version":"ver1.0","座標系":"任意座標系","測地系判別":null,"地図名":"戸井村字丸山・左又・丸山ノ腰・他","地図番号":"戸井46-2-3","縮尺分母":"1200","市区町村コード":"01202","市区町村名":"函館市","大字コード":"135","丁目コード":"000","小字コード":"0000","予備コード":"00","大字名":"浜町","丁目名":null,"小字名":null,"予備名":null,"地番":"989","精度区分":null,"座標値種別":"図上測量","筆界未定構成筆":null,"代表点緯度":-251265.0255,"代表点経度":64070.875903269}},{"type":"MultiPolygon","arcs":[[[62,-58,63,-62,64]]],"properties":{"筆ID":"H000000021","version":"ver1.0","座標系":"任意座標系","測地系判別":null,"地図名":"戸井村字丸山・左又・丸山ノ腰・他","地図番号":"戸井46-1-3","縮尺分母":"1200","市区町村コード":"01202","市区町村名":"函館市","大字コード":"135","丁目コード":"000","小字コード":"0000","予備コード":"00","大字名":"浜町","丁目名":null,"小字名":null,"予備名":null,"地番":"990","精度区分":null,"座標値種別":"図上測量","筆界未定構成筆":null,"代表点緯度":-251241.379,"代表点経度":63945.75617634}},{"type":"MultiPolygon","arcs":[[[65,66,67,68,69,70,-53,-56,-63,71]]],"properties":{"筆ID":"H000000022","version":"ver1.0","座標系":"任意座標系","測地系判別":null,"地図名":"戸井村字丸山・左又・丸山ノ腰・他","地図番号":"戸井47-2-3","縮尺分母":"1200","市区町村コード":"01202","市区町村名":"函館市","大字コード":"135","丁目コード":"000","小字コード":"0000","予備コード":"00","大字名":"浜町","丁目名":null,"小字名":null,"予備名":null,"地番":"992-1","精度区分":null,"座標値種別":"図上測量","筆界未定構成筆":null,"代表点緯度":-251070.806,"代表点経度":63931.185556935}},{"type":"MultiPolygon","arcs":[[[-69,72]]],"properties":{"筆ID":"H000000023","version":"ver1.0","座標系":"任意座標系","測地系判別":null,"地図名":"戸井村字丸山・左又・丸山ノ腰・他","地図番号":"戸井47-2-3","縮尺分母":"1200","市区町村コード":"01202","市区町村名":"函館市","大字コード":"135","丁目コード":"000","小字コード":"0000","予備コード":"00","大字名":"浜町","丁目名":null,"小字名":null,"予備名":null,"地番":"992-2","精度区分":null,"座標値種別":"図上測量","筆界未定構成筆":null,"代表点緯度":-250881.2975,"代表点経度":64002.858409074}},{"type":"MultiPolygon","arcs":[[[73,74,75]]],"properties":{"筆ID":"H000000024","version":"ver1.0","座標系":"任意座標系","測地系判別":null,"地図名":"戸井村字丸山・左又・丸山ノ腰・他","地図番号":"戸井47-2-3","縮尺分母":"1200","市区町村コード":"01202","市区町村名":"函館市","大字コード":"135","丁目コード":"000","小字コード":"0000","予備コード":"00","大字名":"浜町","丁目名":null,"小字名":null,"予備名":null,"地番":"993-1","精度区分":null,"座標値種別":"図上測量","筆界未定構成筆":null,"代表点緯度":-250830.7345,"代表点経度":64007.858086437}},{"type":"MultiPolygon","arcs":[[[76,-73,-68,77,78,-75,79]]],"properties":{"筆ID":"H000000025","version":"ver1.0","座標系":"任意座標系","測地系判別":null,"地図名":"戸井村字丸山・左又・丸山ノ腰・他","地図番号":"戸井47-2-3","縮尺分母":"1200","市区町村コード":"01202","市区町村名":"函館市","大字コード":"135","丁目コード":"000","小字コード":"0000","予備コード":"00","大字名":"浜町","丁目名":null,"小字名":null,"予備名":null,"地番":"993-2","精度区分":null,"座標値種別":"図上測量","筆界未定構成筆":null,"代表点緯度":-250849.7475,"代表点経度":63985.481086669}},{"type":"MultiPolygon","arcs":[[[-78,-67,80]]],"properties":{"筆ID":"H000000026","version":"ver1.0","座標系":"任意座標系","測地系判別":null,"地図名":"戸井村字丸山・左又・丸山ノ腰・他","地図番号":"戸井47-2-3","縮尺分母":"1200","市区町村コード":"01202","市区町村名":"函館市","大字コード":"135","丁目コード":"000","小字コード":"0000","予備コード":"00","大字名":"浜町","丁目名":null,"小字名":null,"予備名":null,"地番":"993-3","精度区分":null,"座標値種別":"図上測量","筆界未定構成筆":null,"代表点緯度":-250849.045,"代表点経度":63972.904161087}},{"type":"MultiPolygon","arcs":[[[-70,-77,81]]],"properties":{"筆ID":"H000000027","version":"ver1.0","座標系":"任意座標系","測地系判別":null,"地図名":"戸井村字丸山・左又・丸山ノ腰・他","地図番号":"戸井47-2-3","縮尺分母":"1200","市区町村コード":"01202","市区町村名":"函館市","大字コード":"135","丁目コード":"000","小字コード":"0000","予備コード":"00","大字名":"浜町","丁目名":null,"小字名":null,"予備名":null,"地番":"993-4","精度区分":null,"座標値種別":"図上測量","筆界未定構成筆":null,"代表点緯度":-250903.2985,"代表点経度":64034.641416214}},{"type":"MultiPolygon","arcs":[[[82,83]]],"properties":{"筆ID":"H000000028","version":"ver1.0","座標系":"任意座標系","測地系判別":null,"地図名":"戸井村字丸山・左又・丸山ノ腰・他","地図番号":"戸井47-2-3","縮尺分母":"1200","市区町村コード":"01202","市区町村名":"函館市","大字コード":"135","丁目コード":"000","小字コード":"0000","予備コード":"00","大字名":"浜町","丁目名":null,"小字名":null,"予備名":null,"地番":"994-1","精度区分":null,"座標値種別":"図上測量","筆界未定構成筆":null,"代表点緯度":-250797.392,"代表点経度":63961.784658946}},{"type":"MultiPolygon","arcs":[[[-83,84,85,86]]],"properties":{"筆ID":"H000000029","version":"ver1.0","座標系":"任意座標系","測地系判別":null,"地図名":"戸井村字丸山・左又・丸山ノ腰・他","地図番号":"戸井47-2-3","縮尺分母":"1200","市区町村コード":"01202","市区町村名":"函館市","大字コード":"135","丁目コード":"000","小字コード":"0000","予備コード":"00","大字名":"浜町","丁目名":null,"小字名":null,"予備名":null,"地番":"994-2","精度区分":null,"座標値種別":"図上測量","筆界未定構成筆":null,"代表点緯度":-250804.025,"代表点経度":63946.360516624}},{"type":"MultiPolygon","arcs":[[[-86,87]]],"properties":{"筆ID":"H000000030","version":"ver1.0","座標系":"任意座標系","測地系判別":null,"地図名":"戸井村字丸山・左又・丸山ノ腰・他","地図番号":"戸井47-2-3","縮尺分母":"1200","市区町村コード":"01202","市区町村名":"函館市","大字コード":"135","丁目コード":"000","小字コード":"0000","予備コード":"00","大字名":"浜町","丁目名":null,"小字名":null,"予備名":null,"地番":"994-3","精度区分":null,"座標値種別":"図上測量","筆界未定構成筆":null,"代表点緯度":-250808.354,"代表点経度":63929.650190664}},{"type":"MultiPolygon","arcs":[[[88,89,90,-41,-42,-54,-71,-82,-80,-74,91]]],"properties":{"筆ID":"H000000031","version":"ver1.0","座標系":"任意座標系","測地系判別":null,"地図名":"戸井村字丸山・左又・丸山ノ腰・他","地図番号":"戸井47-2-3","縮尺分母":"1200","市区町村コード":"01202","市区町村名":"函館市","大字コード":"135","丁目コード":"000","小字コード":"0000","予備コード":"00","大字名":"浜町","丁目名":null,"小字名":null,"予備名":null,"地番":"無地番-10","精度区分":null,"座標値種別":"図上測量","筆界未定構成筆":null,"代表点緯度":-250903.2985,"代表点経度":64043.926494685}},{"type":"MultiPolygon","arcs":[[[-57,-28,-59,-64]]],"properties":{"筆ID":"H000000032","version":"ver1.0","座標系":"任意座標系","測地系判別":null,"地図名":"戸井村字丸山・左又・丸山ノ腰・他","地図番号":"戸井46-2-3","縮尺分母":"1200","市区町村コード":"01202","市区町村名":"函館市","大字コード":"135","丁目コード":"000","小字コード":"0000","予備コード":"00","大字名":"浜町","丁目名":null,"小字名":null,"予備名":null,"地番":"道-11","精度区分":null,"座標値種別":"図上測量","筆界未定構成筆":null,"代表点緯度":-251240.263,"代表点経度":64105.743271029}},{"type":"MultiPolygon","arcs":[[[92,93,94]]],"properties":{"筆ID":"H000000033","version":"ver1.0","座標系":"任意座標系","測地系判別":null,"地図名":"戸井村字丸山・左又・丸山ノ腰・他","地図番号":"戸井49-1-2","縮尺分母":"1200","市区町村コード":"01202","市区町村名":"函館市","大字コード":"136","丁目コード":"000","小字コード":"0000","予備コード":"00","大字名":"原木町","丁目名":null,"小字名":null,"予備名":null,"地番":"354","精度区分":null,"座標値種別":"図上測量","筆界未定構成筆":null,"代表点緯度":-251326.641,"代表点経度":64718.159692149}},{"type":"MultiPolygon","arcs":[[[95,96,97]]],"properties":{"筆ID":"H000000034","version":"ver1.0","座標系":"任意座標系","測地系判別":null,"地図名":"戸井村字丸山・左又・丸山ノ腰・他","地図番号":"戸井49-1-2","縮尺分母":"1200","市区町村コード":"01202","市区町村名":"函館市","大字コード":"136","丁目コード":"000","小字コード":"0000","予備コード":"00","大字名":"原木町","丁目名":null,"小字名":null,"予備名":null,"地番":"356-2","精度区分":null,"座標値種別":"図上測量","筆界未定構成筆":null,"代表点緯度":-251219.259,"代表点経度":65020.934422375}},{"type":"MultiPolygon","arcs":[[[98,99,100,101]]],"properties":{"筆ID":"H000000035","version":"ver1.0","座標系":"任意座標系","測地系判別":null,"地図名":"戸井村字丸山・左又・丸山ノ腰・他","地図番号":"戸井49-1-2","縮尺分母":"1200","市区町村コード":"01202","市区町村名":"函館市","大字コード":"136","丁目コード":"000","小字コード":"0000","予備コード":"00","大字名":"原木町","丁目名":null,"小字名":null,"予備名":null,"地番":"406-1","精度区分":null,"座標値種別":"図上測量","筆界未定構成筆":null,"代表点緯度":-251126.809,"代表点経度":64985.468773094}},{"type":"MultiPolygon","arcs":[[[-101,102,103]]],"properties":{"筆ID":"H000000036","version":"ver1.0","座標系":"任意座標系","測地系判別":null,"地図名":"戸井村字丸山・左又・丸山ノ腰・他","地図番号":"戸井49-1-2","縮尺分母":"1200","市区町村コード":"01202","市区町村名":"函館市","大字コード":"136","丁目コード":"000","小字コード":"0000","予備コード":"00","大字名":"原木町","丁目名":null,"小字名":null,"予備名":null,"地番":"406-2","精度区分":null,"座標値種別":"図上測量","筆界未定構成筆":null,"代表点緯度":-251118.2995,"代表点経度":64966.139339246}},{"type":"MultiPolygon","arcs":[[[104,105,106,107,108]]],"properties":{"筆ID":"H000000037","version":"ver1.0","座標系":"任意座標系","測地系判別":null,"地図名":"戸井村字丸山・左又・丸山ノ腰・他","地図番号":"戸井49-1-2","縮尺分母":"1200","市区町村コード":"01202","市区町村名":"函館市","大字コード":"136","丁目コード":"000","小字コード":"0000","予備コード":"00","大字名":"原木町","丁目名":null,"小字名":null,"予備名":null,"地番":"407-1","精度区分":null,"座標値種別":"図上測量","筆界未定構成筆":null,"代表点緯度":-251135.3075,"代表点経度":64964.950911679}},{"type":"MultiPolygon","arcs":[[[109,110,-107,111]]],"properties":{"筆ID":"H000000038","version":"ver1.0","座標系":"任意座標系","測地系判別":null,"地図名":"戸井村字丸山・左又・丸山ノ腰・他","地図番号":"戸井49-1-2","縮尺分母":"1200","市区町村コード":"01202","市区町村名":"函館市","大字コード":"136","丁目コード":"000","小字コード":"0000","予備コード":"00","大字名":"原木町","丁目名":null,"小字名":null,"予備名":null,"地番":"407-2","精度区分":null,"座標値種別":"図上測量","筆界未定構成筆":null,"代表点緯度":-251151.6075,"代表点経度":64980.107722604}},{"type":"MultiPolygon","arcs":[[[112,-105,113]]],"properties":{"筆ID":"H000000039","version":"ver1.0","座標系":"任意座標系","測地系判別":null,"地図名":"戸井村字丸山・左又・丸山ノ腰・他","地図番号":"戸井49-1-2","縮尺分母":"1200","市区町村コード":"01202","市区町村名":"函館市","大字コード":"136","丁目コード":"000","小字コード":"0000","予備コード":"00","大字名":"原木町","丁目名":null,"小字名":null,"予備名":null,"地番":"407-3","精度区分":null,"座標値種別":"図上測量","筆界未定構成筆":null,"代表点緯度":-251117.8305,"代表点経度":64959.646985982}},{"type":"MultiPolygon","arcs":[[[114,-110,115]]],"properties":{"筆ID":"H000000040","version":"ver1.0","座標系":"任意座標系","測地系判別":null,"地図名":"戸井村字丸山・左又・丸山ノ腰・他","地図番号":"戸井49-1-2","縮尺分母":"1200","市区町村コード":"01202","市区町村名":"函館市","大字コード":"136","丁目コード":"000","小字コード":"0000","予備コード":"00","大字名":"原木町","丁目名":null,"小字名":null,"予備名":null,"地番":"407-4","精度区分":null,"座標値種別":"図上測量","筆界未定構成筆":null,"代表点緯度":-251150.3045,"代表点経度":64985.906829511}},{"type":"MultiPolygon","arcs":[[[116,117,118,119,120]]],"properties":{"筆ID":"H000000041","version":"ver1.0","座標系":"任意座標系","測地系判別":null,"地図名":"戸井村字丸山・左又・丸山ノ腰・他","地図番号":"戸井48-2-2","縮尺分母":"1200","市区町村コード":"01202","市区町村名":"函館市","大字コード":"136","丁目コード":"000","小字コード":"0000","予備コード":"00","大字名":"原木町","丁目名":null,"小字名":null,"予備名":null,"地番":"408-1","精度区分":null,"座標値種別":"図上測量","筆界未定構成筆":null,"代表点緯度":-251087.126,"代表点経度":64885.909824465}},{"type":"MultiPolygon","arcs":[[[121,122,123,-117,124]]],"properties":{"筆ID":"H000000042","version":"ver1.0","座標系":"任意座標系","測地系判別":null,"地図名":"戸井村字丸山・左又・丸山ノ腰・他","地図番号":"戸井48-2-2","縮尺分母":"1200","市区町村コード":"01202","市区町村名":"函館市","大字コード":"136","丁目コード":"000","小字コード":"0000","予備コード":"00","大字名":"原木町","丁目名":null,"小字名":null,"予備名":null,"地番":"408-2","精度区分":null,"座標値種別":"図上測量","筆界未定構成筆":null,"代表点緯度":-251080.3755,"代表点経度":64906.150347818}},{"type":"MultiPolygon","arcs":[[[125,-122,126]]],"properties":{"筆ID":"H000000043","version":"ver1.0","座標系":"任意座標系","測地系判別":null,"地図名":"戸井村字丸山・左又・丸山ノ腰・他","地図番号":"戸井48-2-2","縮尺分母":"1200","市区町村コード":"01202","市区町村名":"函館市","大字コード":"136","丁目コード":"000","小字コード":"0000","予備コード":"00","大字名":"原木町","丁目名":null,"小字名":null,"予備名":null,"地番":"408-3","精度区分":null,"座標値種別":"図上測量","筆界未定構成筆":null,"代表点緯度":-251055.9775,"代表点経度":64897.735489994}},{"type":"MultiPolygon","arcs":[[[-118,-124,-114,-109]]],"properties":{"筆ID":"H000000044","version":"ver1.0","座標系":"任意座標系","測地系判別":null,"地図名":"戸井村字丸山・左又・丸山ノ腰・他","地図番号":"戸井48-2-2","縮尺分母":"1200","市区町村コード":"01202","市区町村名":"函館市","大字コード":"136","丁目コード":"000","小字コード":"0000","予備コード":"00","大字名":"原木町","丁目名":null,"小字名":null,"予備名":null,"地番":"408-4","精度区分":null,"座標値種別":"図上測量","筆界未定構成筆":null,"代表点緯度":-251099.358,"代表点経度":64947.010898387}},{"type":"MultiPolygon","arcs":[[[127,128,129,-121,130,131]]],"properties":{"筆ID":"H000000045","version":"ver1.0","座標系":"任意座標系","測地系判別":null,"地図名":"戸井村字丸山・左又・丸山ノ腰・他","地図番号":"戸井48-2-2","縮尺分母":"1200","市区町村コード":"01202","市区町村名":"函館市","大字コード":"136","丁目コード":"000","小字コード":"0000","予備コード":"00","大字名":"原木町","丁目名":null,"小字名":null,"予備名":null,"地番":"409-1","精度区分":null,"座標値種別":"図上測量","筆界未定構成筆":null,"代表点緯度":-251098.8425,"代表点経度":64765.895270737}},{"type":"MultiPolygon","arcs":[[[-130,132,133,-125]]],"properties":{"筆ID":"H000000046","version":"ver1.0","座標系":"任意座標系","測地系判別":null,"地図名":"戸井村字丸山・左又・丸山ノ腰・他","地図番号":"戸井48-2-2","縮尺分母":"1200","市区町村コード":"01202","市区町村名":"函館市","大字コード":"136","丁目コード":"000","小字コード":"0000","予備コード":"00","大字名":"原木町","丁目名":null,"小字名":null,"予備名":null,"地番":"409-2","精度区分":null,"座標値種別":"図上測量","筆界未定構成筆":null,"代表点緯度":-251067.271,"代表点経度":64843.705874312}},{"type":"MultiPolygon","arcs":[[[134,-128,135]]],"properties":{"筆ID":"H000000047","version":"ver1.0","座標系":"任意座標系","測地系判別":null,"地図名":"戸井村字丸山・左又・丸山ノ腰・他","地図番号":"戸井48-2-2","縮尺分母":"1200","市区町村コード":"01202","市区町村名":"函館市","大字コード":"136","丁目コード":"000","小字コード":"0000","予備コード":"00","大字名":"原木町","丁目名":null,"小字名":null,"予備名":null,"地番":"409-3","精度区分":null,"座標値種別":"図上測量","筆界未定構成筆":null,"代表点緯度":-251084.3075,"代表点経度":64749.145317042}},{"type":"MultiPolygon","arcs":[[[-127,-134,136]]],"properties":{"筆ID":"H000000048","version":"ver1.0","座標系":"任意座標系","測地系判別":null,"地図名":"戸井村字丸山・左又・丸山ノ腰・他","地図番号":"戸井48-2-2","縮尺分母":"1200","市区町村コード":"01202","市区町村名":"函館市","大字コード":"136","丁目コード":"000","小字コード":"0000","予備コード":"00","大字名":"原木町","丁目名":null,"小字名":null,"予備名":null,"地番":"409-4","精度区分":null,"座標値種別":"図上測量","筆界未定構成筆":null,"代表点緯度":-251025.3325,"代表点経度":64885.866843234}},{"type":"MultiPolygon","arcs":[[[137,138,139,140]]],"properties":{"筆ID":"H000000049","version":"ver1.0","座標系":"任意座標系","測地系判別":null,"地図名":"戸井村字丸山・左又・丸山ノ腰・他","地図番号":"戸井48-2-2","縮尺分母":"1200","市区町村コード":"01202","市区町村名":"函館市","大字コード":"136","丁目コード":"000","小字コード":"0000","予備コード":"00","大字名":"原木町","丁目名":null,"小字名":null,"予備名":null,"地番":"410-1","精度区分":null,"座標値種別":"図上測量","筆界未定構成筆":null,"代表点緯度":-251022.28,"代表点経度":64919.223749059}},{"type":"MultiPolygon","arcs":[[[-140,141,142]]],"properties":{"筆ID":"H000000050","version":"ver1.0","座標系":"任意座標系","測地系判別":null,"地図名":"戸井村字丸山・左又・丸山ノ腰・他","地図番号":"戸井48-2-2","縮尺分母":"1200","市区町村コード":"01202","市区町村名":"函館市","大字コード":"136","丁目コード":"000","小字コード":"0000","予備コード":"00","大字名":"原木町","丁目名":null,"小字名":null,"予備名":null,"地番":"410-2","精度区分":null,"座標値種別":"図上測量","筆界未定構成筆":null,"代表点緯度":-251015.504,"代表点経度":64900.236826419}},{"type":"MultiPolygon","arcs":[[[143,-142,-139,144,-102,-104]]],"properties":{"筆ID":"H000000051","version":"ver1.0","座標系":"任意座標系","測地系判別":null,"地図名":"戸井村字丸山・左又・丸山ノ腰・他","地図番号":"戸井48-2-2","縮尺分母":"1200","市区町村コード":"01202","市区町村名":"函館市","大字コード":"136","丁目コード":"000","小字コード":"0000","予備コード":"00","大字名":"原木町","丁目名":null,"小字名":null,"予備名":null,"地番":"411","精度区分":null,"座標値種別":"図上測量","筆界未定構成筆":null,"代表点緯度":-251059.58,"代表点経度":64944.886405359}},{"type":"MultiPolygon","arcs":[[[145,146,-138]]],"properties":{"筆ID":"H000000052","version":"ver1.0","座標系":"任意座標系","測地系判別":null,"地図名":"戸井村字丸山・左又・丸山ノ腰・他","地図番号":"戸井48-2-2","縮尺分母":"1200","市区町村コード":"01202","市区町村名":"函館市","大字コード":"136","丁目コード":"000","小字コード":"0000","予備コード":"00","大字名":"原木町","丁目名":null,"小字名":null,"予備名":null,"地番":"412","精度区分":null,"座標値種別":"図上測量","筆界未定構成筆":null,"代表点緯度":-250963.8215,"代表点経度":64932.697263713}},{"type":"MultiPolygon","arcs":[[[147,148,149,150,151]]],"properties":{"筆ID":"H000000053","version":"ver1.0","座標系":"任意座標系","測地系判別":null,"地図名":"戸井村字丸山・左又・丸山ノ腰・他","地図番号":"戸井48-2-2","縮尺分母":"1200","市区町村コード":"01202","市区町村名":"函館市","大字コード":"136","丁目コード":"000","小字コード":"0000","予備コード":"00","大字名":"原木町","丁目名":null,"小字名":null,"予備名":null,"地番":"413-1","精度区分":null,"座標値種別":"図上測量","筆界未定構成筆":null,"代表点緯度":-250862.8725,"代表点経度":64858.044461998}},{"type":"MultiPolygon","arcs":[[[-152,152,153]]],"properties":{"筆ID":"H000000054","version":"ver1.0","座標系":"任意座標系","測地系判別":null,"地図名":"戸井村字丸山・左又・丸山ノ腰・他","地図番号":"戸井48-2-2","縮尺分母":"1200","市区町村コード":"01202","市区町村名":"函館市","大字コード":"136","丁目コード":"000","小字コード":"0000","予備コード":"00","大字名":"原木町","丁目名":null,"小字名":null,"予備名":null,"地番":"413-2","精度区分":null,"座標値種別":"図上測量","筆界未定構成筆":null,"代表点緯度":-250908.019,"代表点経度":64863.677822722}},{"type":"MultiPolygon","arcs":[[[154,155,156]]],"properties":{"筆ID":"H000000055","version":"ver1.0","座標系":"任意座標系","測地系判別":null,"地図名":"戸井村字丸山・左又・丸山ノ腰・他","地図番号":"戸井48-2-2","縮尺分母":"1200","市区町村コード":"01202","市区町村名":"函館市","大字コード":"136","丁目コード":"000","小字コード":"0000","予備コード":"00","大字名":"原木町","丁目名":null,"小字名":null,"予備名":null,"地番":"415","精度区分":null,"座標値種別":"図上測量","筆界未定構成筆":null,"代表点緯度":-250919.082,"代表点経度":64796.211119391}},{"type":"MultiPolygon","arcs":[[[157,158,159,-155,160]]],"properties":{"筆ID":"H000000056","version":"ver1.0","座標系":"任意座標系","測地系判別":null,"地図名":"戸井村字丸山・左又・丸山ノ腰・他","地図番号":"戸井48-2-2","縮尺分母":"1200","市区町村コード":"01202","市区町村名":"函館市","大字コード":"136","丁目コード":"000","小字コード":"0000","予備コード":"00","大字名":"原木町","丁目名":null,"小字名":null,"予備名":null,"地番":"416","精度区分":null,"座標値種別":"図上測量","筆界未定構成筆":null,"代表点緯度":-250809.9175,"代表点経度":64770.874593382}},{"type":"MultiPolygon","arcs":[[[161,162,163]]],"properties":{"筆ID":"H000000057","version":"ver1.0","座標系":"任意座標系","測地系判別":null,"地図名":"戸井村字丸山・左又・丸山ノ腰・他","地図番号":"戸井47-3-3","縮尺分母":"1200","市区町村コード":"01202","市区町村名":"函館市","大字コード":"136","丁目コード":"000","小字コード":"0000","予備コード":"00","大字名":"原木町","丁目名":null,"小字名":null,"予備名":null,"地番":"418","精度区分":null,"座標値種別":"図上測量","筆界未定構成筆":null,"代表点緯度":-250955.377,"代表点経度":64584.755015212}},{"type":"MultiPolygon","arcs":[[[164,165,-164,166,167]]],"properties":{"筆ID":"H000000058","version":"ver1.0","座標系":"任意座標系","測地系判別":null,"地図名":"戸井村字丸山・左又・丸山ノ腰・他","地図番号":"戸井47-3-3","縮尺分母":"1200","市区町村コード":"01202","市区町村名":"函館市","大字コード":"136","丁目コード":"000","小字コード":"0000","予備コード":"00","大字名":"原木町","丁目名":null,"小字名":null,"予備名":null,"地番":"419","精度区分":null,"座標値種別":"図上測量","筆界未定構成筆":null,"代表点緯度":-251082.2185,"代表点経度":64516.055412317}},{"type":"MultiPolygon","arcs":[[[168,-162,-166,169]]],"properties":{"筆ID":"H000000059","version":"ver1.0","座標系":"任意座標系","測地系判別":null,"地図名":"戸井村字丸山・左又・丸山ノ腰・他","地図番号":"戸井47-3-3","縮尺分母":"1200","市区町村コード":"01202","市区町村名":"函館市","大字コード":"136","丁目コード":"000","小字コード":"0000","予備コード":"00","大字名":"原木町","丁目名":null,"小字名":null,"予備名":null,"地番":"420","精度区分":null,"座標値種別":"図上測量","筆界未定構成筆":null,"代表点緯度":-250902.8555,"代表点経度":64552.537540178}},{"type":"MultiPolygon","arcs":[[[170,171,172,173]]],"properties":{"筆ID":"H000000060","version":"ver1.0","座標系":"任意座標系","測地系判別":null,"地図名":"戸井村字丸山・左又・丸山ノ腰・他","地図番号":"戸井47-3-3","縮尺分母":"1200","市区町村コード":"01202","市区町村名":"函館市","大字コード":"136","丁目コード":"000","小字コード":"0000","予備コード":"00","大字名":"原木町","丁目名":null,"小字名":null,"予備名":null,"地番":"425-1","精度区分":null,"座標値種別":"図上測量","筆界未定構成筆":null,"代表点緯度":-251009.236,"代表点経度":64363.763096747}},{"type":"MultiPolygon","arcs":[[[-173,174,175]]],"properties":{"筆ID":"H000000061","version":"ver1.0","座標系":"任意座標系","測地系判別":null,"地図名":"戸井村字丸山・左又・丸山ノ腰・他","地図番号":"戸井47-3-3","縮尺分母":"1200","市区町村コード":"01202","市区町村名":"函館市","大字コード":"136","丁目コード":"000","小字コード":"0000","予備コード":"00","大字名":"原木町","丁目名":null,"小字名":null,"予備名":null,"地番":"425-2","精度区分":null,"座標値種別":"図上測量","筆界未定構成筆":null,"代表点緯度":-251008.317,"代表点経度":64318.566862997}},{"type":"MultiPolygon","arcs":[[[-172,176,177,178,179,180]]],"properties":{"筆ID":"H000000062","version":"ver1.0","座標系":"任意座標系","測地系判別":null,"地図名":"戸井村字丸山・左又・丸山ノ腰・他","地図番号":"戸井47-3-3","縮尺分母":"1200","市区町村コード":"01202","市区町村名":"函館市","大字コード":"136","丁目コード":"000","小字コード":"0000","予備コード":"00","大字名":"原木町","丁目名":null,"小字名":null,"予備名":null,"地番":"426-1","精度区分":null,"座標値種別":"図上測量","筆界未定構成筆":null,"代表点緯度":-251017.16,"代表点経度":64336.867648443}},{"type":"MultiPolygon","arcs":[[[-179,181]]],"properties":{"筆ID":"H000000063","version":"ver1.0","座標系":"任意座標系","測地系判別":null,"地図名":"戸井村字丸山・左又・丸山ノ腰・他","地図番号":"戸井47-3-3","縮尺分母":"1200","市区町村コード":"01202","市区町村名":"函館市","大字コード":"136","丁目コード":"000","小字コード":"0000","予備コード":"00","大字名":"原木町","丁目名":null,"小字名":null,"予備名":null,"地番":"426-2","精度区分":null,"座標値種別":"図上測量","筆界未定構成筆":null,"代表点緯度":-251030.6875,"代表点経度":64348.452213363}},{"type":"MultiPolygon","arcs":[[[-181,182,-175]]],"properties":{"筆ID":"H000000064","version":"ver1.0","座標系":"任意座標系","測地系判別":null,"地図名":"戸井村字丸山・左又・丸山ノ腰・他","地図番号":"戸井47-3-3","縮尺分母":"1200","市区町村コード":"01202","市区町村名":"函館市","大字コード":"136","丁目コード":"000","小字コード":"0000","予備コード":"00","大字名":"原木町","丁目名":null,"小字名":null,"予備名":null,"地番":"426-3","精度区分":null,"座標値種別":"図上測量","筆界未定構成筆":null,"代表点緯度":-251017.16,"代表点経度":64328.00590902}},{"type":"MultiPolygon","arcs":[[[183,184,185]]],"properties":{"筆ID":"H000000065","version":"ver1.0","座標系":"任意座標系","測地系判別":null,"地図名":"戸井村字丸山・左又・丸山ノ腰・他","地図番号":"戸井47-3-3","縮尺分母":"1200","市区町村コード":"01202","市区町村名":"函館市","大字コード":"136","丁目コード":"000","小字コード":"0000","予備コード":"00","大字名":"原木町","丁目名":null,"小字名":null,"予備名":null,"地番":"428-1","精度区分":null,"座標値種別":"図上測量","筆界未定構成筆":null,"代表点緯度":-250946.2175,"代表点経度":64228.918861845}},{"type":"MultiPolygon","arcs":[[[-185,186,187,188]]],"properties":{"筆ID":"H000000066","version":"ver1.0","座標系":"任意座標系","測地系判別":null,"地図名":"戸井村字丸山・左又・丸山ノ腰・他","地図番号":"戸井47-3-3","縮尺分母":"1200","市区町村コード":"01202","市区町村名":"函館市","大字コード":"136","丁目コード":"000","小字コード":"0000","予備コード":"00","大字名":"原木町","丁目名":null,"小字名":null,"予備名":null,"地番":"428-2","精度区分":null,"座標値種別":"図上測量","筆界未定構成筆":null,"代表点緯度":-250975.75,"代表点経度":64225.506319137}},{"type":"MultiPolygon","arcs":[[[189,190]]],"properties":{"筆ID":"H000000067","version":"ver1.0","座標系":"任意座標系","測地系判別":null,"地図名":"戸井村字丸山・左又・丸山ノ腰・他","地図番号":"戸井47-3-3","縮尺分母":"1200","市区町村コード":"01202","市区町村名":"函館市","大字コード":"136","丁目コード":"000","小字コード":"0000","予備コード":"00","大字名":"原木町","丁目名":null,"小字名":null,"予備名":null,"地番":"429","精度区分":null,"座標値種別":"図上測量","筆界未定構成筆":null,"代表点緯度":-250665.003,"代表点経度":64232.279525993}},{"type":"MultiPolygon","arcs":[[[191,-190,192,193]]],"properties":{"筆ID":"H000000068","version":"ver1.0","座標系":"任意座標系","測地系判別":null,"地図名":"戸井村字丸山・左又・丸山ノ腰・他","地図番号":"戸井47-3-3","縮尺分母":"1200","市区町村コード":"01202","市区町村名":"函館市","大字コード":"136","丁目コード":"000","小字コード":"0000","予備コード":"00","大字名":"原木町","丁目名":null,"小字名":null,"予備名":null,"地番":"430","精度区分":null,"座標値種別":"図上測量","筆界未定構成筆":null,"代表点緯度":-250635.1245,"代表点経度":64142.629430043}},{"type":"MultiPolygon","arcs":[[[194,195,196,197,198,199,200,201]]],"properties":{"筆ID":"H000000069","version":"ver1.0","座標系":"任意座標系","測地系判別":null,"地図名":"戸井村字丸山・左又・丸山ノ腰・他","地図番号":"戸井47-5-5","縮尺分母":"1200","市区町村コード":"01202","市区町村名":"函館市","大字コード":"136","丁目コード":"000","小字コード":"0000","予備コード":"00","大字名":"原木町","丁目名":null,"小字名":null,"予備名":null,"地番":"431","精度区分":null,"座標値種別":"図上測量","筆界未定構成筆":null,"代表点緯度":-250453.112,"代表点経度":64343.533145166}},{"type":"MultiPolygon","arcs":[[[-199,202,203,204]]],"properties":{"筆ID":"H000000070","version":"ver1.0","座標系":"任意座標系","測地系判別":null,"地図名":"戸井村字丸山・左又・丸山ノ腰・他","地図番号":"戸井47-1-5","縮尺分母":"1200","市区町村コード":"01202","市区町村名":"函館市","大字コード":"136","丁目コード":"000","小字コード":"0000","予備コード":"00","大字名":"原木町","丁目名":null,"小字名":null,"予備名":null,"地番":"432","精度区分":null,"座標値種別":"図上測量","筆界未定構成筆":null,"代表点緯度":-250495.405,"代表点経度":64545.576883241}},{"type":"MultiPolygon","arcs":[[[205,206,207,208,-200,-205]]],"properties":{"筆ID":"H000000071","version":"ver1.0","座標系":"任意座標系","測地系判別":null,"地図名":"戸井村字丸山・左又・丸山ノ腰・他","地図番号":"戸井47-1-5","縮尺分母":"1200","市区町村コード":"01202","市区町村名":"函館市","大字コード":"136","丁目コード":"000","小字コード":"0000","予備コード":"00","大字名":"原木町","丁目名":null,"小字名":null,"予備名":null,"地番":"433-1","精度区分":null,"座標値種別":"図上測量","筆界未定構成筆":null,"代表点緯度":-250554.725,"代表点経度":64478.455405774}},{"type":"MultiPolygon","arcs":[[[209,-206,-204]]],"properties":{"筆ID":"H000000072","version":"ver1.0","座標系":"任意座標系","測地系判別":null,"地図名":"戸井村字丸山・左又・丸山ノ腰・他","地図番号":"戸井47-1-5","縮尺分母":"1200","市区町村コード":"01202","市区町村名":"函館市","大字コード":"136","丁目コード":"000","小字コード":"0000","予備コード":"00","大字名":"原木町","丁目名":null,"小字名":null,"予備名":null,"地番":"433-2","精度区分":null,"座標値種別":"図上測量","筆界未定構成筆":null,"代表点緯度":-250531.6115,"代表点経度":64564.305522405}},{"type":"MultiPolygon","arcs":[[[210,211,-158,212,213,-208,214]]],"properties":{"筆ID":"H000000073","version":"ver1.0","座標系":"任意座標系","測地系判別":null,"地図名":"戸井村字丸山・左又・丸山ノ腰・他","地図番号":"戸井47-3-3","縮尺分母":"1200","市区町村コード":"01202","市区町村名":"函館市","大字コード":"136","丁目コード":"000","小字コード":"0000","予備コード":"00","大字名":"原木町","丁目名":null,"小字名":null,"予備名":null,"地番":"434-1","精度区分":null,"座標値種別":"図上測量","筆界未定構成筆":null,"代表点緯度":-250700.8215,"代表点経度":64629.149375712}},{"type":"MultiPolygon","arcs":[[[-211,215]]],"properties":{"筆ID":"H000000074","version":"ver1.0","座標系":"任意座標系","測地系判別":null,"地図名":"戸井村字丸山・左又・丸山ノ腰・他","地図番号":"戸井48-1-2","縮尺分母":"1200","市区町村コード":"01202","市区町村名":"函館市","大字コード":"136","丁目コード":"000","小字コード":"0000","予備コード":"00","大字名":"原木町","丁目名":null,"小字名":null,"予備名":null,"地番":"434-2","精度区分":null,"座標値種別":"図上測量","筆界未定構成筆":null,"代表点緯度":-250580.3705,"代表点経度":64642.254860306}},{"type":"MultiPolygon","arcs":[[[216,217,218,219]]],"properties":{"筆ID":"H000000075","version":"ver1.0","座標系":"任意座標系","測地系判別":null,"地図名":"戸井村字丸山・左又・丸山ノ腰・他","地図番号":"戸井47-1-5","縮尺分母":"1200","市区町村コード":"01202","市区町村名":"函館市","大字コード":"136","丁目コード":"000","小字コード":"0000","予備コード":"00","大字名":"原木町","丁目名":null,"小字名":null,"予備名":null,"地番":"435-1","精度区分":null,"座標値種別":"図上測量","筆界未定構成筆":null,"代表点緯度":-250603.1635,"代表点経度":64671.473330851}},{"type":"MultiPolygon","arcs":[[[-219,220,221,222,223,224]]],"properties":{"筆ID":"H000000076","version":"ver1.0","座標系":"任意座標系","測地系判別":null,"地図名":"戸井村字丸山・左又・丸山ノ腰・他","地図番号":"戸井47-1-5","縮尺分母":"1200","市区町村コード":"01202","市区町村名":"函館市","大字コード":"136","丁目コード":"000","小字コード":"0000","予備コード":"00","大字名":"原木町","丁目名":null,"小字名":null,"予備名":null,"地番":"435-2","精度区分":null,"座標値種別":"図上測量","筆界未定構成筆":null,"代表点緯度":-250623.1315,"代表点経度":64682.181713681}},{"type":"MultiPolygon","arcs":[[[-223,225]]],"properties":{"筆ID":"H000000077","version":"ver1.0","座標系":"任意座標系","測地系判別":null,"地図名":"戸井村字丸山・左又・丸山ノ腰・他","地図番号":"戸井48-1-2","縮尺分母":"1200","市区町村コード":"01202","市区町村名":"函館市","大字コード":"136","丁目コード":"000","小字コード":"0000","予備コード":"00","大字名":"原木町","丁目名":null,"小字名":null,"予備名":null,"地番":"435-3","精度区分":null,"座標値種別":"図上測量","筆界未定構成筆":null,"代表点緯度":-250600.3925,"代表点経度":64658.823059755}},{"type":"MultiPolygon","arcs":[[[-218,226,227,-148,228]]],"properties":{"筆ID":"H000000078","version":"ver1.0","座標系":"任意座標系","測地系判別":null,"地図名":"戸井村字丸山・左又・丸山ノ腰・他","地図番号":"戸井48-1-2","縮尺分母":"1200","市区町村コード":"01202","市区町村名":"函館市","大字コード":"136","丁目コード":"000","小字コード":"0000","予備コード":"00","大字名":"原木町","丁目名":null,"小字名":null,"予備名":null,"地番":"436-1","精度区分":null,"座標値種別":"図上測量","筆界未定構成筆":null,"代表点緯度":-250639.5965,"代表点経度":64743.76568339}},{"type":"MultiPolygon","arcs":[[[-229,-154,229,-221]]],"properties":{"筆ID":"H000000079","version":"ver1.0","座標系":"任意座標系","測地系判別":null,"地図名":"戸井村字丸山・左又・丸山ノ腰・他","地図番号":"戸井48-1-2","縮尺分母":"1200","市区町村コード":"01202","市区町村名":"函館市","大字コード":"136","丁目コード":"000","小字コード":"0000","予備コード":"00","大字名":"原木町","丁目名":null,"小字名":null,"予備名":null,"地番":"436-2","精度区分":null,"座標値種別":"図上測量","筆界未定構成筆":null,"代表点緯度":-250728.8035,"代表点経度":64755.19273431}},{"type":"MultiPolygon","arcs":[[[-228,230,-149]]],"properties":{"筆ID":"H000000080","version":"ver1.0","座標系":"任意座標系","測地系判別":null,"地図名":"戸井村字丸山・左又・丸山ノ腰・他","地図番号":"戸井48-2-2","縮尺分母":"1200","市区町村コード":"01202","市区町村名":"函館市","大字コード":"136","丁目コード":"000","小字コード":"0000","予備コード":"00","大字名":"原木町","丁目名":null,"小字名":null,"予備名":null,"地番":"437","精度区分":null,"座標値種別":"図上測量","筆界未定構成筆":null,"代表点緯度":-250810.717,"代表点経度":64864.12395589}},{"type":"MultiPolygon","arcs":[[[231,232,233,-170,-165,234]]],"properties":{"筆ID":"H000000081","version":"ver1.0","座標系":"任意座標系","測地系判別":null,"地図名":"戸井村字丸山・左又・丸山ノ腰・他","地図番号":"戸井47-3-3","縮尺分母":"1200","市区町村コード":"01202","市区町村名":"函館市","大字コード":"136","丁目コード":"000","小字コード":"0000","予備コード":"00","大字名":"原木町","丁目名":null,"小字名":null,"予備名":null,"地番":"筆界未定地-1","精度区分":null,"座標値種別":"図上測量","筆界未定構成筆":[{"大字コード":"136","丁目コード":"000","小字コード":"0000","予備コード":"00","大字名":"原木町","地番":"421"},{"大字コード":"136","丁目コード":"000","小字コード":"0000","予備コード":"00","大字名":"原木町","地番":"422"},{"大字コード":"136","丁目コード":"000","小字コード":"0000","予備コード":"00","大字名":"原木町","地番":"423"},{"大字コード":"136","丁目コード":"000","小字コード":"0000","予備コード":"00","大字名":"原木町","地番":"424"}],"代表点緯度":-250857.3165,"代表点経度":64456.009307495}},{"type":"MultiPolygon","arcs":[[[235,236,237,238,239]]],"properties":{"筆ID":"H000000082","version":"ver1.0","座標系":"任意座標系","測地系判別":null,"地図名":"戸井村字丸山・左又・丸山ノ腰・他","地図番号":"戸井47-3-3","縮尺分母":"1200","市区町村コード":"01202","市区町村名":"函館市","大字コード":"136","丁目コード":"000","小字コード":"0000","予備コード":"00","大字名":"原木町","丁目名":null,"小字名":null,"予備名":null,"地番":"417-1","精度区分":null,"座標値種別":"図上測量","筆界未定構成筆":null,"代表点緯度":-250771.7045,"代表点経度":64315.964794238}},{"type":"MultiPolygon","arcs":[[[240,-237,241,242]]],"properties":{"筆ID":"H000000083","version":"ver1.0","座標系":"任意座標系","測地系判別":null,"地図名":"戸井村字丸山・左又・丸山ノ腰・他","地図番号":"戸井47-1-5","縮尺分母":"1200","市区町村コード":"01202","市区町村名":"函館市","大字コード":"136","丁目コード":"000","小字コード":"0000","予備コード":"00","大字名":"原木町","丁目名":null,"小字名":null,"予備名":null,"地番":"417-3","精度区分":null,"座標値種別":"図上測量","筆界未定構成筆":null,"代表点緯度":-250577.841,"代表点経度":64239.443060363}},{"type":"MultiPolygon","arcs":[[[-240,243,-186,244,245]]],"properties":{"筆ID":"H000000084","version":"ver1.0","座標系":"任意座標系","測地系判別":null,"地図名":"戸井村字丸山・左又・丸山ノ腰・他","地図番号":"戸井47-3-3","縮尺分母":"1200","市区町村コード":"01202","市区町村名":"函館市","大字コード":"136","丁目コード":"000","小字コード":"0000","予備コード":"00","大字名":"原木町","丁目名":null,"小字名":null,"予備名":null,"地番":"417-4","精度区分":null,"座標値種別":"図上測量","筆界未定構成筆":null,"代表点緯度":-250870.001,"代表点経度":64201.249844703}},{"type":"MultiPolygon","arcs":[[[-244,-239,246,-174,-176,247,-187,-184]]],"properties":{"筆ID":"H000000085","version":"ver1.0","座標系":"任意座標系","測地系判別":null,"地図名":"戸井村字丸山・左又・丸山ノ腰・他","地図番号":"戸井47-3-3","縮尺分母":"1200","市区町村コード":"01202","市区町村名":"函館市","大字コード":"136","丁目コード":"000","小字コード":"0000","予備コード":"00","大字名":"原木町","丁目名":null,"小字名":null,"予備名":null,"地番":"417-5","精度区分":null,"座標値種別":"図上測量","筆界未定構成筆":null,"代表点緯度":-250919.3135,"代表点経度":64314.428622461}},{"type":"MultiPolygon","arcs":[[[-245,-189,248,249,250]]],"properties":{"筆ID":"H000000086","version":"ver1.0","座標系":"任意座標系","測地系判別":null,"地図名":"戸井村字丸山・左又・丸山ノ腰・他","地図番号":"戸井47-3-3","縮尺分母":"1200","市区町村コード":"01202","市区町村名":"函館市","大字コード":"136","丁目コード":"000","小字コード":"0000","予備コード":"00","大字名":"原木町","丁目名":null,"小字名":null,"予備名":null,"地番":"417-8","精度区分":null,"座標値種別":"図上測量","筆界未定構成筆":null,"代表点緯度":-250950.902,"代表点経度":64156.427469823}},{"type":"MultiPolygon","arcs":[[[-250,251,252,253]]],"properties":{"筆ID":"H000000087","version":"ver1.0","座標系":"任意座標系","測地系判別":null,"地図名":"戸井村字丸山・左又・丸山ノ腰・他","地図番号":"戸井47-3-3","縮尺分母":"1200","市区町村コード":"01202","市区町村名":"函館市","大字コード":"136","丁目コード":"000","小字コード":"0000","予備コード":"00","大字名":"原木町","丁目名":null,"小字名":null,"予備名":null,"地番":"417-9","精度区分":null,"座標値種別":"図上測量","筆界未定構成筆":null,"代表点緯度":-250953.8935,"代表点経度":64126.759397506}},{"type":"MultiPolygon","arcs":[[[254,255,256,257,-252]]],"properties":{"筆ID":"H000000088","version":"ver1.0","座標系":"任意座標系","測地系判別":null,"地図名":"戸井村字丸山・左又・丸山ノ腰・他","地図番号":"戸井47-3-3","縮尺分母":"1200","市区町村コード":"01202","市区町村名":"函館市","大字コード":"136","丁目コード":"000","小字コード":"0000","予備コード":"00","大字名":"原木町","丁目名":null,"小字名":null,"予備名":null,"地番":"427-1","精度区分":null,"座標値種別":"図上測量","筆界未定構成筆":null,"代表点緯度":-250993.8655,"代表点経度":64178.231137075}},{"type":"MultiPolygon","arcs":[[[258,-255,-249]]],"properties":{"筆ID":"H000000089","version":"ver1.0","座標系":"任意座標系","測地系判別":null,"地図名":"戸井村字丸山・左又・丸山ノ腰・他","地図番号":"戸井47-3-3","縮尺分母":"1200","市区町村コード":"01202","市区町村名":"函館市","大字コード":"136","丁目コード":"000","小字コード":"0000","予備コード":"00","大字名":"原木町","丁目名":null,"小字名":null,"予備名":null,"地番":"427-2","精度区分":null,"座標値種別":"図上測量","筆界未定構成筆":null,"代表点緯度":-250979.718,"代表点経度":64186.033678398}},{"type":"MultiPolygon","arcs":[[[-258,259]]],"properties":{"筆ID":"H000000090","version":"ver1.0","座標系":"任意座標系","測地系判別":null,"地図名":"戸井村字丸山・左又・丸山ノ腰・他","地図番号":"戸井47-3-3","縮尺分母":"1200","市区町村コード":"01202","市区町村名":"函館市","大字コード":"136","丁目コード":"000","小字コード":"0000","予備コード":"00","大字名":"原木町","丁目名":null,"小字名":null,"予備名":null,"地番":"無地番-19","精度区分":null,"座標値種別":"図上測量","筆界未定構成筆":null,"代表点緯度":-250997.6065,"代表点経度":64160.025570944}},{"type":"MultiPolygon","arcs":[[[260,-247,-238,-241,261,-201,-209,-214,262,-233]]],"properties":{"筆ID":"H000000091","version":"ver1.0","座標系":"任意座標系","測地系判別":null,"地図名":"戸井村字丸山・左又・丸山ノ腰・他","地図番号":"戸井47-3-3","縮尺分母":"1200","市区町村コード":"01202","市区町村名":"函館市","大字コード":"136","丁目コード":"000","小字コード":"0000","予備コード":"00","大字名":"原木町","丁目名":null,"小字名":null,"予備名":null,"地番":"無地番-31","精度区分":null,"座標値種別":"図上測量","筆界未定構成筆":null,"代表点緯度":-250799.277,"代表点経度":64394.285880421}},{"type":"MultiPolygon","arcs":[[[-193,-191,-192,263,264,265,-242,-236,266]]],"properties":{"筆ID":"H000000092","version":"ver1.0","座標系":"任意座標系","測地系判別":null,"地図名":"戸井村字丸山・左又・丸山ノ腰・他","地図番号":"戸井47-3-3","縮尺分母":"1200","市区町村コード":"01202","市区町村名":"函館市","大字コード":"136","丁目コード":"000","小字コード":"0000","予備コード":"00","大字名":"原木町","丁目名":null,"小字名":null,"予備名":null,"地番":"無地番-41","精度区分":null,"座標値種別":"図上測量","筆界未定構成筆":null,"代表点緯度":-250616.3175,"代表点経度":64249.671691852}},{"type":"MultiPolygon","arcs":[[[-188,267,-256,-259]]],"properties":{"筆ID":"H000000093","version":"ver1.0","座標系":"任意座標系","測地系判別":null,"地図名":"戸井村字丸山・左又・丸山ノ腰・他","地図番号":"戸井47-3-3","縮尺分母":"1200","市区町村コード":"01202","市区町村名":"函館市","大字コード":"136","丁目コード":"000","小字コード":"0000","予備コード":"00","大字名":"原木町","丁目名":null,"小字名":null,"予備名":null,"地番":"無地番-48","精度区分":null,"座標値種別":"図上測量","筆界未定構成筆":null,"代表点緯度":-250992.2935,"代表点経度":64210.221159952}},{"type":"MultiPolygon","arcs":[[[-266,268,-202,-262,-243]]],"properties":{"筆ID":"H000000094","version":"ver1.0","座標系":"任意座標系","測地系判別":null,"地図名":"戸井村字丸山・左又・丸山ノ腰・他","地図番号":"戸井47-1-5","縮尺分母":"1200","市区町村コード":"01202","市区町村名":"函館市","大字コード":"136","丁目コード":"000","小字コード":"0000","予備コード":"00","大字名":"原木町","丁目名":null,"小字名":null,"予備名":null,"地番":"道-9","精度区分":null,"座標値種別":"図上測量","筆界未定構成筆":null,"代表点緯度":-250503.354,"代表点経度":64186.038273129}},{"type":"MultiPolygon","arcs":[[[269,270,271,-197]]],"properties":{"筆ID":"H000000095","version":"ver1.0","座標系":"任意座標系","測地系判別":null,"地図名":"戸井村字丸山・左又・丸山ノ腰・他","地図番号":"戸井47-5-5","縮尺分母":"1200","市区町村コード":"01202","市区町村名":"函館市","大字コード":"136","丁目コード":"000","小字コード":"0000","予備コード":"00","大字名":"原木町","丁目名":null,"小字名":null,"予備名":null,"地番":"道-50","精度区分":null,"座標値種別":"図上測量","筆界未定構成筆":null,"代表点緯度":-250364.6155,"代表点経度":64463.601397509}},{"type":"MultiPolygon","arcs":[[[-216,-215,-207,-210,272,273,-224,-226,-222,-230,274,-212]]],"properties":{"筆ID":"H000000096","version":"ver1.0","座標系":"任意座標系","測地系判別":null,"地図名":"戸井村字丸山・左又・丸山ノ腰・他","地図番号":"戸井47-1-5","縮尺分母":"1200","市区町村コード":"01202","市区町村名":"函館市","大字コード":"136","丁目コード":"000","小字コード":"0000","予備コード":"00","大字名":"原木町","丁目名":null,"小字名":null,"予備名":null,"地番":"道-60","精度区分":null,"座標値種別":"図上測量","筆界未定構成筆":null,"代表点緯度":-250657.5135,"代表点経度":64703.873577555}},{"type":"MultiPolygon","arcs":[[[-232,275,-171,-261]]],"properties":{"筆ID":"H000000097","version":"ver1.0","座標系":"任意座標系","測地系判別":null,"地図名":"戸井村字丸山・左又・丸山ノ腰・他","地図番号":"戸井47-3-3","縮尺分母":"1200","市区町村コード":"01202","市区町村名":"函館市","大字コード":"136","丁目コード":"000","小字コード":"0000","予備コード":"00","大字名":"原木町","丁目名":null,"小字名":null,"予備名":null,"地番":"道-82","精度区分":null,"座標値種別":"図上測量","筆界未定構成筆":null,"代表点緯度":-251010.868,"代表点経度":64409.244467049}},{"type":"MultiPolygon","arcs":[[[-198,-272,276,-273,-203]]],"properties":{"筆ID":"H000000098","version":"ver1.0","座標系":"任意座標系","測地系判別":null,"地図名":"戸井村字丸山・左又・丸山ノ腰・他","地図番号":"戸井47-1-5","縮尺分母":"1200","市区町村コード":"01202","市区町村名":"函館市","大字コード":"136","丁目コード":"000","小字コード":"0000","予備コード":"00","大字名":"原木町","丁目名":null,"小字名":null,"予備名":null,"地番":"道-89","精度区分":null,"座標値種別":"図上測量","筆界未定構成筆":null,"代表点緯度":-250468.9475,"代表点経度":64549.135752871}},{"type":"MultiPolygon","arcs":[[[277,278,279,280,281,282,283]]],"properties":{"筆ID":"H000000099","version":"ver1.0","座標系":"任意座標系","測地系判別":null,"地図名":"戸井村字丸山・左又・丸山ノ腰・他","地図番号":"戸井46-3-3","縮尺分母":"1200","市区町村コード":"01202","市区町村名":"函館市","大字コード":"137","丁目コード":"000","小字コード":"0000","予備コード":"00","大字名":"新二見町","丁目名":null,"小字名":null,"予備名":null,"地番":"230","精度区分":null,"座標値種別":"図上測量","筆界未定構成筆":null,"代表点緯度":-251615.3795,"代表点経度":64430.883330858}},{"type":"MultiPolygon","arcs":[[[-282,284,285,286,287,288]]],"properties":{"筆ID":"H000000100","version":"ver1.0","座標系":"任意座標系","測地系判別":null,"地図名":"戸井村字丸山・左又・丸山ノ腰・他","地図番号":"戸井46-3-3","縮尺分母":"1200","市区町村コード":"01202","市区町村名":"函館市","大字コード":"137","丁目コード":"000","小字コード":"0000","予備コード":"00","大字名":"新二見町","丁目名":null,"小字名":null,"予備名":null,"地番":"231","精度区分":null,"座標値種別":"図上測量","筆界未定構成筆":null,"代表点緯度":-251651.9195,"代表点経度":64531.553467333}},{"type":"MultiPolygon","arcs":[[[289,290,291,292]]],"properties":{"筆ID":"H000000101","version":"ver1.0","座標系":"任意座標系","測地系判別":null,"地図名":"戸井村字丸山・左又・丸山ノ腰・他","地図番号":"戸井49-2-2","縮尺分母":"1200","市区町村コード":"01202","市区町村名":"函館市","大字コード":"137","丁目コード":"000","小字コード":"0000","予備コード":"00","大字名":"新二見町","丁目名":null,"小字名":null,"予備名":null,"地番":"238","精度区分":null,"座標値種別":"図上測量","筆界未定構成筆":null,"代表点緯度":-251601.3825,"代表点経度":64689.736529404}},{"type":"MultiPolygon","arcs":[[[293,-291]]],"properties":{"筆ID":"H000000102","version":"ver1.0","座標系":"任意座標系","測地系判別":null,"地図名":"戸井村字丸山・左又・丸山ノ腰・他","地図番号":"戸井49-2-2","縮尺分母":"1200","市区町村コード":"01202","市区町村名":"函館市","大字コード":"137","丁目コード":"000","小字コード":"0000","予備コード":"00","大字名":"新二見町","丁目名":null,"小字名":null,"予備名":null,"地番":"239","精度区分":null,"座標値種別":"図上測量","筆界未定構成筆":null,"代表点緯度":-251601.3825,"代表点経度":64722.499029113}},{"type":"MultiPolygon","arcs":[[[294,295]]],"properties":{"筆ID":"H000000103","version":"ver1.0","座標系":"任意座標系","測地系判別":null,"地図名":"戸井村字丸山・左又・丸山ノ腰・他","地図番号":"戸井49-2-2","縮尺分母":"1200","市区町村コード":"01202","市区町村名":"函館市","大字コード":"137","丁目コード":"000","小字コード":"0000","予備コード":"00","大字名":"新二見町","丁目名":null,"小字名":null,"予備名":null,"地番":"240","精度区分":null,"座標値種別":"図上測量","筆界未定構成筆":null,"代表点緯度":-251530.8415,"代表点経度":64735.206226073}},{"type":"MultiPolygon","arcs":[[[296,297,298,-296,299,-287]]],"properties":{"筆ID":"H000000104","version":"ver1.0","座標系":"任意座標系","測地系判別":null,"地図名":"戸井村字丸山・左又・丸山ノ腰・他","地図番号":"戸井46-3-3","縮尺分母":"1200","市区町村コード":"01202","市区町村名":"函館市","大字コード":"137","丁目コード":"000","小字コード":"0000","予備コード":"00","大字名":"新二見町","丁目名":null,"小字名":null,"予備名":null,"地番":"241","精度区分":null,"座標値種別":"図上測量","筆界未定構成筆":null,"代表点緯度":-251518.5645,"代表点経度":64614.3576404}},{"type":"MultiPolygon","arcs":[[[300,301,-285,-281]]],"properties":{"筆ID":"H000000105","version":"ver1.0","座標系":"任意座標系","測地系判別":null,"地図名":"戸井村字丸山・左又・丸山ノ腰・他","地図番号":"戸井46-3-3","縮尺分母":"1200","市区町村コード":"01202","市区町村名":"函館市","大字コード":"137","丁目コード":"000","小字コード":"0000","予備コード":"00","大字名":"新二見町","丁目名":null,"小字名":null,"予備名":null,"地番":"242","精度区分":null,"座標値種別":"図上測量","筆界未定構成筆":null,"代表点緯度":-251558.96,"代表点経度":64477.028995982}},{"type":"MultiPolygon","arcs":[[[302,303,304,-301,-280]]],"properties":{"筆ID":"H000000106","version":"ver1.0","座標系":"任意座標系","測地系判別":null,"地図名":"戸井村字丸山・左又・丸山ノ腰・他","地図番号":"戸井46-3-3","縮尺分母":"1200","市区町村コード":"01202","市区町村名":"函館市","大字コード":"137","丁目コード":"000","小字コード":"0000","予備コード":"00","大字名":"新二見町","丁目名":null,"小字名":null,"予備名":null,"地番":"243","精度区分":null,"座標値種別":"図上測量","筆界未定構成筆":null,"代表点緯度":-251489.7525,"代表点経度":64475.301650773}},{"type":"MultiPolygon","arcs":[[[305,306,307,-303,-279]]],"properties":{"筆ID":"H000000107","version":"ver1.0","座標系":"任意座標系","測地系判別":null,"地図名":"戸井村字丸山・左又・丸山ノ腰・他","地図番号":"戸井46-3-3","縮尺分母":"1200","市区町村コード":"01202","市区町村名":"函館市","大字コード":"137","丁目コード":"000","小字コード":"0000","予備コード":"00","大字名":"新二見町","丁目名":null,"小字名":null,"予備名":null,"地番":"244","精度区分":null,"座標値種別":"図上測量","筆界未定構成筆":null,"代表点緯度":-251466.6305,"代表点経度":64399.063627292}},{"type":"MultiPolygon","arcs":[[[308,309,-304,-308,310]]],"properties":{"筆ID":"H000000108","version":"ver1.0","座標系":"任意座標系","測地系判別":null,"地図名":"戸井村字丸山・左又・丸山ノ腰・他","地図番号":"戸井46-2-3","縮尺分母":"1200","市区町村コード":"01202","市区町村名":"函館市","大字コード":"137","丁目コード":"000","小字コード":"0000","予備コード":"00","大字名":"新二見町","丁目名":null,"小字名":null,"予備名":null,"地番":"245","精度区分":null,"座標値種別":"図上測量","筆界未定構成筆":null,"代表点緯度":-251397.249,"代表点経度":64408.178779382}},{"type":"MultiPolygon","arcs":[[[311,312,-309]]],"properties":{"筆ID":"H000000109","version":"ver1.0","座標系":"任意座標系","測地系判別":null,"地図名":"戸井村字丸山・左又・丸山ノ腰・他","地図番号":"戸井46-2-3","縮尺分母":"1200","市区町村コード":"01202","市区町村名":"函館市","大字コード":"137","丁目コード":"000","小字コード":"0000","予備コード":"00","大字名":"新二見町","丁目名":null,"小字名":null,"予備名":null,"地番":"246","精度区分":null,"座標値種別":"図上測量","筆界未定構成筆":null,"代表点緯度":-251324.525,"代表点経度":64450.353299767}},{"type":"MultiPolygon","arcs":[[[313,314,-312,-311,-307,315]]],"properties":{"筆ID":"H000000110","version":"ver1.0","座標系":"任意座標系","測地系判別":null,"地図名":"戸井村字丸山・左又・丸山ノ腰・他","地図番号":"戸井46-2-3","縮尺分母":"1200","市区町村コード":"01202","市区町村名":"函館市","大字コード":"137","丁目コード":"000","小字コード":"0000","予備コード":"00","大字名":"新二見町","丁目名":null,"小字名":null,"予備名":null,"地番":"247","精度区分":null,"座標値種別":"図上測量","筆界未定構成筆":null,"代表点緯度":-251363.352,"代表点経度":64381.356507225}},{"type":"MultiPolygon","arcs":[[[316,317,318,-314,319]]],"properties":{"筆ID":"H000000111","version":"ver1.0","座標系":"任意座標系","測地系判別":null,"地図名":"戸井村字丸山・左又・丸山ノ腰・他","地図番号":"戸井46-2-3","縮尺分母":"1200","市区町村コード":"01202","市区町村名":"函館市","大字コード":"137","丁目コード":"000","小字コード":"0000","予備コード":"00","大字名":"新二見町","丁目名":null,"小字名":null,"予備名":null,"地番":"248","精度区分":null,"座標値種別":"図上測量","筆界未定構成筆":null,"代表点緯度":-251300.1225,"代表点経度":64317.204964482}},{"type":"MultiPolygon","arcs":[[[320,321,322,-317,323]]],"properties":{"筆ID":"H000000112","version":"ver1.0","座標系":"任意座標系","測地系判別":null,"地図名":"戸井村字丸山・左又・丸山ノ腰・他","地図番号":"戸井46-2-3","縮尺分母":"1200","市区町村コード":"01202","市区町村名":"函館市","大字コード":"137","丁目コード":"000","小字コード":"0000","予備コード":"00","大字名":"新二見町","丁目名":null,"小字名":null,"予備名":null,"地番":"250","精度区分":null,"座標値種別":"図上測量","筆界未定構成筆":null,"代表点緯度":-251209.4435,"代表点経度":64285.570366956}},{"type":"MultiPolygon","arcs":[[[324,-321,325]]],"properties":{"筆ID":"H000000113","version":"ver1.0","座標系":"任意座標系","測地系判別":null,"地図名":"戸井村字丸山・左又・丸山ノ腰・他","地図番号":"戸井47-3-3","縮尺分母":"1200","市区町村コード":"01202","市区町村名":"函館市","大字コード":"137","丁目コード":"000","小字コード":"0000","予備コード":"00","大字名":"新二見町","丁目名":null,"小字名":null,"予備名":null,"地番":"251","精度区分":null,"座標値種別":"図上測量","筆界未定構成筆":null,"代表点緯度":-251113.1375,"代表点経度":64359.715069207}},{"type":"MultiPolygon","arcs":[[[326,327,328,329]]],"properties":{"筆ID":"H000000114","version":"ver1.0","座標系":"任意座標系","測地系判別":null,"地図名":"戸井村字丸山・左又・丸山ノ腰・他","地図番号":"戸井47-3-3","縮尺分母":"1200","市区町村コード":"01202","市区町村名":"函館市","大字コード":"137","丁目コード":"000","小字コード":"0000","予備コード":"00","大字名":"新二見町","丁目名":null,"小字名":null,"予備名":null,"地番":"252-1","精度区分":null,"座標値種別":"図上測量","筆界未定構成筆":null,"代表点緯度":-251091.092,"代表点経度":64415.598289808}},{"type":"MultiPolygon","arcs":[[[-328,330,331,332,333]]],"properties":{"筆ID":"H000000115","version":"ver1.0","座標系":"任意座標系","測地系判別":null,"地図名":"戸井村字丸山・左又・丸山ノ腰・他","地図番号":"戸井47-3-3","縮尺分母":"1200","市区町村コード":"01202","市区町村名":"函館市","大字コード":"137","丁目コード":"000","小字コード":"0000","予備コード":"00","大字名":"新二見町","丁目名":null,"小字名":null,"予備名":null,"地番":"252-2","精度区分":null,"座標値種別":"図上測量","筆界未定構成筆":null,"代表点緯度":-251092.908,"代表点経度":64430.646650975}},{"type":"MultiPolygon","arcs":[[[334,335,336,337,338,339]]],"properties":{"筆ID":"H000000116","version":"ver1.0","座標系":"任意座標系","測地系判別":null,"地図名":"戸井村字丸山・左又・丸山ノ腰・他","地図番号":"戸井46-2-3","縮尺分母":"1200","市区町村コード":"01202","市区町村名":"函館市","大字コード":"137","丁目コード":"000","小字コード":"0000","予備コード":"00","大字名":"新二見町","丁目名":null,"小字名":null,"予備名":null,"地番":"253-1","精度区分":null,"座標値種別":"図上測量","筆界未定構成筆":null,"代表点緯度":-251143.974,"代表点経度":64457.960485106}},{"type":"MultiPolygon","arcs":[[[340,341,342,-335,343]]],"properties":{"筆ID":"H000000117","version":"ver1.0","座標系":"任意座標系","測地系判別":null,"地図名":"戸井村字丸山・左又・丸山ノ腰・他","地図番号":"戸井46-2-3","縮尺分母":"1200","市区町村コード":"01202","市区町村名":"函館市","大字コード":"137","丁目コード":"000","小字コード":"0000","予備コード":"00","大字名":"新二見町","丁目名":null,"小字名":null,"予備名":null,"地番":"253-2","精度区分":null,"座標値種別":"図上測量","筆界未定構成筆":null,"代表点緯度":-251138.4035,"代表点経度":64488.198647981}},{"type":"MultiPolygon","arcs":[[[-341,344]]],"properties":{"筆ID":"H000000118","version":"ver1.0","座標系":"任意座標系","測地系判別":null,"地図名":"戸井村字丸山・左又・丸山ノ腰・他","地図番号":"戸井46-2-3","縮尺分母":"1200","市区町村コード":"01202","市区町村名":"函館市","大字コード":"137","丁目コード":"000","小字コード":"0000","予備コード":"00","大字名":"新二見町","丁目名":null,"小字名":null,"予備名":null,"地番":"253-3","精度区分":null,"座標値種別":"図上測量","筆界未定構成筆":null,"代表点緯度":-251117.833,"代表点経度":64470.969370445}},{"type":"MultiPolygon","arcs":[[[345,-338,346,-318,-323]]],"properties":{"筆ID":"H000000119","version":"ver1.0","座標系":"任意座標系","測地系判別":null,"地図名":"戸井村字丸山・左又・丸山ノ腰・他","地図番号":"戸井46-2-3","縮尺分母":"1200","市区町村コード":"01202","市区町村名":"函館市","大字コード":"137","丁目コード":"000","小字コード":"0000","予備コード":"00","大字名":"新二見町","丁目名":null,"小字名":null,"予備名":null,"地番":"255","精度区分":null,"座標値種別":"図上測量","筆界未定構成筆":null,"代表点緯度":-251182.7765,"代表点経度":64343.60170905}},{"type":"MultiPolygon","arcs":[[[-319,-347,-337,347,-315]]],"properties":{"筆ID":"H000000120","version":"ver1.0","座標系":"任意座標系","測地系判別":null,"地図名":"戸井村字丸山・左又・丸山ノ腰・他","地図番号":"戸井46-2-3","縮尺分母":"1200","市区町村コード":"01202","市区町村名":"函館市","大字コード":"137","丁目コード":"000","小字コード":"0000","予備コード":"00","大字名":"新二見町","丁目名":null,"小字名":null,"予備名":null,"地番":"256","精度区分":null,"座標値種別":"図上測量","筆界未定構成筆":null,"代表点緯度":-251217.541,"代表点経度":64406.564738364}},{"type":"MultiPolygon","arcs":[[[348,349,350,351,-298]]],"properties":{"筆ID":"H000000121","version":"ver1.0","座標系":"任意座標系","測地系判別":null,"地図名":"戸井村字丸山・左又・丸山ノ腰・他","地図番号":"戸井46-2-3","縮尺分母":"1200","市区町村コード":"01202","市区町村名":"函館市","大字コード":"137","丁目コード":"000","小字コード":"0000","予備コード":"00","大字名":"新二見町","丁目名":null,"小字名":null,"予備名":null,"地番":"258","精度区分":null,"座標値種別":"図上測量","筆界未定構成筆":null,"代表点緯度":-251345.0625,"代表点経度":64566.457210841}},{"type":"MultiPolygon","arcs":[[[352,353,-350,354]]],"properties":{"筆ID":"H000000122","version":"ver1.0","座標系":"任意座標系","測地系判別":null,"地図名":"戸井村字丸山・左又・丸山ノ腰・他","地図番号":"戸井46-2-3","縮尺分母":"1200","市区町村コード":"01202","市区町村名":"函館市","大字コード":"137","丁目コード":"000","小字コード":"0000","予備コード":"00","大字名":"新二見町","丁目名":null,"小字名":null,"予備名":null,"地番":"259","精度区分":null,"座標値種別":"図上測量","筆界未定構成筆":null,"代表点緯度":-251298.6755,"代表点経度":64543.27695972}},{"type":"MultiPolygon","arcs":[[[355,356,357,-353,358]]],"properties":{"筆ID":"H000000123","version":"ver1.0","座標系":"任意座標系","測地系判別":null,"地図名":"戸井村字丸山・左又・丸山ノ腰・他","地図番号":"戸井46-2-3","縮尺分母":"1200","市区町村コード":"01202","市区町村名":"函館市","大字コード":"137","丁目コード":"000","小字コード":"0000","予備コード":"00","大字名":"新二見町","丁目名":null,"小字名":null,"予備名":null,"地番":"260-1","精度区分":null,"座標値種別":"図上測量","筆界未定構成筆":null,"代表点緯度":-251241.233,"代表点経度":64541.279605482}},{"type":"MultiPolygon","arcs":[[[359,-356,360]]],"properties":{"筆ID":"H000000124","version":"ver1.0","座標系":"任意座標系","測地系判別":null,"地図名":"戸井村字丸山・左又・丸山ノ腰・他","地図番号":"戸井46-2-3","縮尺分母":"1200","市区町村コード":"01202","市区町村名":"函館市","大字コード":"137","丁目コード":"000","小字コード":"0000","予備コード":"00","大字名":"新二見町","丁目名":null,"小字名":null,"予備名":null,"地番":"260-2","精度区分":null,"座標値種別":"図上測量","筆界未定構成筆":null,"代表点緯度":-251158.865,"代表点経度":64525.491203506}},{"type":"MultiPolygon","arcs":[[[361,362,363,364,-354,-358,365]]],"properties":{"筆ID":"H000000125","version":"ver1.0","座標系":"任意座標系","測地系判別":null,"地図名":"戸井村字丸山・左又・丸山ノ腰・他","地図番号":"戸井46-2-3","縮尺分母":"1200","市区町村コード":"01202","市区町村名":"函館市","大字コード":"137","丁目コード":"000","小字コード":"0000","予備コード":"00","大字名":"新二見町","丁目名":null,"小字名":null,"予備名":null,"地番":"261-1","精度区分":null,"座標値種別":"図上測量","筆界未定構成筆":null,"代表点緯度":-251200.0845,"代表点経度":64606.761918914}},{"type":"MultiPolygon","arcs":[[[366,367,-362,368]]],"properties":{"筆ID":"H000000126","version":"ver1.0","座標系":"任意座標系","測地系判別":null,"地図名":"戸井村字丸山・左又・丸山ノ腰・他","地図番号":"戸井46-2-3","縮尺分母":"1200","市区町村コード":"01202","市区町村名":"函館市","大字コード":"137","丁目コード":"000","小字コード":"0000","予備コード":"00","大字名":"新二見町","丁目名":null,"小字名":null,"予備名":null,"地番":"261-2","精度区分":null,"座標値種別":"図上測量","筆界未定構成筆":null,"代表点緯度":-251129.275,"代表点経度":64579.623980477}},{"type":"MultiPolygon","arcs":[[[-367,369]]],"properties":{"筆ID":"H000000127","version":"ver1.0","座標系":"任意座標系","測地系判別":null,"地図名":"戸井村字丸山・左又・丸山ノ腰・他","地図番号":"戸井46-2-3","縮尺分母":"1200","市区町村コード":"01202","市区町村名":"函館市","大字コード":"137","丁目コード":"000","小字コード":"0000","予備コード":"00","大字名":"新二見町","丁目名":null,"小字名":null,"予備名":null,"地番":"261-3","精度区分":null,"座標値種別":"図上測量","筆界未定構成筆":null,"代表点緯度":-251129.275,"代表点経度":64570.949136558}},{"type":"MultiPolygon","arcs":[[[-365,370,371,-351]]],"properties":{"筆ID":"H000000128","version":"ver1.0","座標系":"任意座標系","測地系判別":null,"地図名":"戸井村字丸山・左又・丸山ノ腰・他","地図番号":"戸井49-1-2","縮尺分母":"1200","市区町村コード":"01202","市区町村名":"函館市","大字コード":"137","丁目コード":"000","小字コード":"0000","予備コード":"00","大字名":"新二見町","丁目名":null,"小字名":null,"予備名":null,"地番":"262","精度区分":null,"座標値種別":"図上測量","筆界未定構成筆":null,"代表点緯度":-251268.1305,"代表点経度":64662.171119468}},{"type":"MultiPolygon","arcs":[[[-283,-289,372,373]]],"properties":{"筆ID":"H000000129","version":"ver1.0","座標系":"任意座標系","測地系判別":null,"地図名":"戸井村字丸山・左又・丸山ノ腰・他","地図番号":"戸井46-3-3","縮尺分母":"1200","市区町村コード":"01202","市区町村名":"函館市","大字コード":"137","丁目コード":"000","小字コード":"0000","予備コード":"00","大字名":"新二見町","丁目名":null,"小字名":null,"予備名":null,"地番":"232","精度区分":null,"座標値種別":"図上測量","筆界未定構成筆":null,"代表点緯度":-251740.256,"代表点経度":64445.060705706}},{"type":"MultiPolygon","arcs":[[[-293,374,375]]],"properties":{"筆ID":"H000000130","version":"ver1.0","座標系":"任意座標系","測地系判別":null,"地図名":"戸井村字丸山・左又・丸山ノ腰・他","地図番号":"戸井46-3-3","縮尺分母":"1200","市区町村コード":"01202","市区町村名":"函館市","大字コード":"137","丁目コード":"000","小字コード":"0000","予備コード":"00","大字名":"新二見町","丁目名":null,"小字名":null,"予備名":null,"地番":"無地番-3","精度区分":null,"座標値種別":"図上測量","筆界未定構成筆":null,"代表点緯度":-251659.414,"代表点経度":64614.007214305}},{"type":"MultiPolygon","arcs":[[[-302,-305,-310,-313,-348,-336,-343,376,-361,-359,-355,-349,-297,-286]]],"properties":{"筆ID":"H000000131","version":"ver1.0","座標系":"任意座標系","測地系判別":null,"地図名":"戸井村字丸山・左又・丸山ノ腰・他","地図番号":"戸井46-3-3","縮尺分母":"1200","市区町村コード":"01202","市区町村名":"函館市","大字コード":"137","丁目コード":"000","小字コード":"0000","予備コード":"00","大字名":"新二見町","丁目名":null,"小字名":null,"予備名":null,"地番":"無地番-10","精度区分":null,"座標値種別":"図上測量","筆界未定構成筆":null,"代表点緯度":-251393.779,"代表点経度":64470.412714821}},{"type":"MultiPolygon","arcs":[[[-322,-325,377,-330,378,-339,-346]]],"properties":{"筆ID":"H000000132","version":"ver1.0","座標系":"任意座標系","測地系判別":null,"地図名":"戸井村字丸山・左又・丸山ノ腰・他","地図番号":"戸井46-2-3","縮尺分母":"1200","市区町村コード":"01202","市区町村名":"函館市","大字コード":"137","丁目コード":"000","小字コード":"0000","予備コード":"00","大字名":"新二見町","丁目名":null,"小字名":null,"予備名":null,"地番":"無地番-11","精度区分":null,"座標値種別":"図上測量","筆界未定構成筆":null,"代表点緯度":-251124.354,"代表点経度":64368.489622161}},{"type":"MultiPolygon","arcs":[[[379,380,381,-119,-108,-111,-115,382,-99,383,384,385,386,387,388,-98]]],"properties":{"筆ID":"H000000133","version":"ver1.0","座標系":"任意座標系","測地系判別":null,"地図名":"戸井村字丸山・左又・丸山ノ腰・他","地図番号":"戸井48-2-2","縮尺分母":"1200","市区町村コード":"01202","市区町村名":"函館市","大字コード":"000","丁目コード":"000","小字コード":"0000","予備コード":"00","大字名":null,"丁目名":null,"小字名":null,"予備名":null,"地番":"地区外-385516","精度区分":null,"座標値種別":"図上測量","筆界未定構成筆":null,"代表点緯度":-251304.1495,"代表点経度":65128.081402065}},{"type":"MultiPolygon","arcs":[[[389,390,391,392,-385,393]]],"properties":{"筆ID":"H000000134","version":"ver1.0","座標系":"任意座標系","測地系判別":null,"地図名":"戸井村字丸山・左又・丸山ノ腰・他","地図番号":"戸井48-2-2","縮尺分母":"1200","市区町村コード":"01202","市区町村名":"函館市","大字コード":"000","丁目コード":"000","小字コード":"0000","予備コード":"00","大字名":null,"丁目名":null,"小字名":null,"予備名":null,"地番":"地区外-385517","精度区分":null,"座標値種別":"図上測量","筆界未定構成筆":null,"代表点緯度":-250929.2155,"代表点経度":65052.853792642}},{"type":"MultiPolygon","arcs":[[[394,395,-392,396]]],"properties":{"筆ID":"H000000135","version":"ver1.0","座標系":"任意座標系","測地系判別":null,"地図名":"戸井村字丸山・左又・丸山ノ腰・他","地図番号":"戸井48-1-2","縮尺分母":"1200","市区町村コード":"01202","市区町村名":"函館市","大字コード":"000","丁目コード":"000","小字コード":"0000","予備コード":"00","大字名":null,"丁目名":null,"小字名":null,"予備名":null,"地番":"地区外-385518","精度区分":null,"座標値種別":"図上測量","筆界未定構成筆":null,"代表点緯度":-250548.238,"代表点経度":64925.827397915}},{"type":"MultiPolygon","arcs":[[[397,398,399,-92,-76,-79,400,-85,-84,-87,-88,-401,-81,-66,401,402]]],"properties":{"筆ID":"H000000136","version":"ver1.0","座標系":"任意座標系","測地系判別":null,"地図名":"戸井村字丸山・左又・丸山ノ腰・他","地図番号":"戸井47-2-3","縮尺分母":"1200","市区町村コード":"01202","市区町村名":"函館市","大字コード":"000","丁目コード":"000","小字コード":"0000","予備コード":"00","大字名":null,"丁目名":null,"小字名":null,"予備名":null,"地番":"地区外-385519","精度区分":null,"座標値種別":"図上測量","筆界未定構成筆":null,"代表点緯度":-250887.3705,"代表点経度":63736.217012012}},{"type":"MultiPolygon","arcs":[[[403,-195,-269,-265,404]]],"properties":{"筆ID":"H000000137","version":"ver1.0","座標系":"任意座標系","測地系判別":null,"地図名":"戸井村字丸山・左又・丸山ノ腰・他","地図番号":"戸井47-1-5","縮尺分母":"1200","市区町村コード":"01202","市区町村名":"函館市","大字コード":"000","丁目コード":"000","小字コード":"0000","予備コード":"00","大字名":null,"丁目名":null,"小字名":null,"予備名":null,"地番":"地区外-385520","精度区分":null,"座標値種別":"図上測量","筆界未定構成筆":null,"代表点緯度":-250585.712,"代表点経度":64088.855461154}},{"type":"MultiPolygon","arcs":[[[-277,-271,405,-395,406,-220,-225,-274]]],"properties":{"筆ID":"H000000138","version":"ver1.0","座標系":"任意座標系","測地系判別":null,"地図名":"戸井村字丸山・左又・丸山ノ腰・他","地図番号":"戸井47-5-5","縮尺分母":"1200","市区町村コード":"01202","市区町村名":"函館市","大字コード":"000","丁目コード":"000","小字コード":"0000","予備コード":"00","大字名":null,"丁目名":null,"小字名":null,"予備名":null,"地番":"地区外-385521","精度区分":null,"座標値種別":"図上測量","筆界未定構成筆":null,"代表点緯度":-250468.9475,"代表点経度":64594.391279363}},{"type":"MultiPolygon","arcs":[[[-405,-264,407,-398,408]]],"properties":{"筆ID":"H000000139","version":"ver1.0","座標系":"任意座標系","測地系判別":null,"地図名":"戸井村字丸山・左又・丸山ノ腰・他","地図番号":"戸井47-4-5","縮尺分母":"1200","市区町村コード":"01202","市区町村名":"函館市","大字コード":"000","丁目コード":"000","小字コード":"0000","予備コード":"00","大字名":null,"丁目名":null,"小字名":null,"予備名":null,"地番":"地区外-385522","精度区分":null,"座標値種別":"図上測量","筆界未定構成筆":null,"代表点緯度":-250520.88,"代表点経度":63790.771282043}},{"type":"MultiPolygon","arcs":[[[-406,-270,-196,-404,409]]],"properties":{"筆ID":"H000000140","version":"ver1.0","座標系":"任意座標系","測地系判別":null,"地図名":"戸井村字丸山・左又・丸山ノ腰・他","地図番号":"戸井47-5-5","縮尺分母":"1200","市区町村コード":"01202","市区町村名":"函館市","大字コード":"000","丁目コード":"000","小字コード":"0000","予備コード":"00","大字名":null,"丁目名":null,"小字名":null,"予備名":null,"地番":"地区外-385523","精度区分":null,"座標値種別":"図上測量","筆界未定構成筆":null,"代表点緯度":-250152.704,"代表点経度":64335.186717761}},{"type":"MultiPolygon","arcs":[[[-60,-32,-24,-3,410,411,412]]],"properties":{"筆ID":"H000000141","version":"ver1.0","座標系":"任意座標系","測地系判別":null,"地図名":"戸井村字丸山・左又・丸山ノ腰・他","地図番号":"戸井46-2-3","縮尺分母":"1200","市区町村コード":"01202","市区町村名":"函館市","大字コード":"000","丁目コード":"000","小字コード":"0000","予備コード":"00","大字名":null,"丁目名":null,"小字名":null,"予備名":null,"地番":"地区外-385525","精度区分":null,"座標値種別":"図上測量","筆界未定構成筆":null,"代表点緯度":-251352.293,"代表点経度":64123.228561664}},{"type":"MultiPolygon","arcs":[[[-402,-72,-65,-61,-413,413]]],"properties":{"筆ID":"H000000142","version":"ver1.0","座標系":"任意座標系","測地系判別":null,"地図名":"戸井村字丸山・左又・丸山ノ腰・他","地図番号":"戸井46-1-3","縮尺分母":"1200","市区町村コード":"01202","市区町村名":"函館市","大字コード":"000","丁目コード":"000","小字コード":"0000","予備コード":"00","大字名":null,"丁目名":null,"小字名":null,"予備名":null,"地番":"地区外-385526","精度区分":null,"座標値種別":"図上測量","筆界未定構成筆":null,"代表点緯度":-251286.2545,"代表点経度":63700.176235404}},{"type":"MultiPolygon","arcs":[[[414,415,-331,-327,-378,-326,-324,-320,-316,-306,-278,416]]],"properties":{"筆ID":"H000000143","version":"ver1.0","座標系":"任意座標系","測地系判別":null,"地図名":"戸井村字丸山・左又・丸山ノ腰・他","地図番号":"戸井46-3-3","縮尺分母":"1200","市区町村コード":"01202","市区町村名":"函館市","大字コード":"137","丁目コード":"000","小字コード":"0000","予備コード":"00","大字名":"新二見町","丁目名":null,"小字名":null,"予備名":null,"地番":"道-18","精度区分":null,"座標値種別":"図上測量","筆界未定構成筆":null,"代表点緯度":-251394.9755,"代表点経度":64329.457236791}},{"type":"MultiPolygon","arcs":[[[417,418]]],"properties":{"筆ID":"H000000144","version":"ver1.0","座標系":"任意座標系","測地系判別":null,"地図名":"戸井村字丸山・左又・丸山ノ腰・他","地図番号":"戸井47-3-3","縮尺分母":"1200","市区町村コード":"01202","市区町村名":"函館市","大字コード":"135","丁目コード":"000","小字コード":"0000","予備コード":"00","大字名":"浜町","丁目名":null,"小字名":null,"予備名":null,"地番":"981-3","精度区分":null,"座標値種別":"図上測量","筆界未定構成筆":null,"代表点緯度":-251058.4295,"代表点経度":64392.803545539}},{"type":"MultiPolygon","arcs":[[[419,420,421,422,423,-418]]],"properties":{"筆ID":"H000000145","version":"ver1.0","座標系":"任意座標系","測地系判別":null,"地図名":"戸井村字丸山・左又・丸山ノ腰・他","地図番号":"戸井47-3-3","縮尺分母":"1200","市区町村コード":"01202","市区町村名":"函館市","大字コード":"135","丁目コード":"000","小字コード":"0000","予備コード":"00","大字名":"浜町","丁目名":null,"小字名":null,"予備名":null,"地番":"981-2","精度区分":null,"座標値種別":"図上測量","筆界未定構成筆":null,"代表点緯度":-251068.318,"代表点経度":64394.449841065}},{"type":"MultiPolygon","arcs":[[[-422,424,-35,-38]]],"properties":{"筆ID":"H000000146","version":"ver1.0","座標系":"任意座標系","測地系判別":null,"地図名":"戸井村字丸山・左又・丸山ノ腰・他","地図番号":"戸井47-3-3","縮尺分母":"1200","市区町村コード":"01202","市区町村名":"函館市","大字コード":"135","丁目コード":"000","小字コード":"0000","予備コード":"00","大字名":"浜町","丁目名":null,"小字名":null,"予備名":null,"地番":"981-1","精度区分":null,"座標値種別":"図上測量","筆界未定構成筆":null,"代表点緯度":-251086.7225,"代表点経度":64387.679984278}},{"type":"MultiPolygon","arcs":[[[-411,-7,-2,-6,-10,-11,-26,-15,-19,-31,-51,-48,-46,-36,-425,-421,425,-415,426]]],"properties":{"筆ID":"H000000147","version":"ver1.0","座標系":"任意座標系","測地系判別":null,"地図名":"戸井村字丸山・左又・丸山ノ腰・他","地図番号":"戸井46-3-3","縮尺分母":"1200","市区町村コード":"01202","市区町村名":"函館市","大字コード":"135","丁目コード":"000","小字コード":"0000","予備コード":"00","大字名":"浜町","丁目名":null,"小字名":null,"予備名":null,"地番":"道-8","精度区分":null,"座標値種別":"図上測量","筆界未定構成筆":null,"代表点緯度":-251388.4185,"代表点経度":64241.957297118}},{"type":"MultiPolygon","arcs":[[[-423,-37,-91]]],"properties":{"筆ID":"H000000148","version":"ver1.0","座標系":"任意座標系","測地系判別":null,"地図名":"戸井村字丸山・左又・丸山ノ腰・他","地図番号":"戸井47-3-3","縮尺分母":"1200","市区町村コード":"01202","市区町村名":"函館市","大字コード":"135","丁目コード":"000","小字コード":"0000","予備コード":"00","大字名":"浜町","丁目名":null,"小字名":null,"予備名":null,"地番":"982-2","精度区分":null,"座標値種別":"図上測量","筆界未定構成筆":null,"代表点緯度":-251055.3605,"代表点経度":64372.352349866}},{"type":"MultiPolygon","arcs":[[[427,428,-426,-420,-419,-424,-90]]],"properties":{"筆ID":"H000000149","version":"ver1.0","座標系":"任意座標系","測地系判別":null,"地図名":"戸井村字丸山・左又・丸山ノ腰・他","地図番号":"戸井47-3-3","縮尺分母":"1200","市区町村コード":"01202","市区町村名":"函館市","大字コード":"135","丁目コード":"000","小字コード":"0000","予備コード":"00","大字名":"浜町","丁目名":null,"小字名":null,"予備名":null,"地番":"無地番-14","精度区分":null,"座標値種別":"図上測量","筆界未定構成筆":null,"代表点緯度":-251068.318,"代表点経度":64405.343678738}},{"type":"MultiPolygon","arcs":[[[429,430,431,432,433,-428,434,-177,-276,-235,-168,435,436,-136,-132]]],"properties":{"筆ID":"H000000150","version":"ver1.0","座標系":"任意座標系","測地系判別":null,"地図名":"戸井村字丸山・左又・丸山ノ腰・他","地図番号":"戸井47-3-3","縮尺分母":"1200","市区町村コード":"01202","市区町村名":"函館市","大字コード":"136","丁目コード":"000","小字コード":"0000","予備コード":"00","大字名":"原木町","丁目名":null,"小字名":null,"予備名":null,"地番":"無地番-4","精度区分":null,"座標値種別":"図上測量","筆界未定構成筆":null,"代表点緯度":-251075.7225,"代表点経度":64595.776934978}},{"type":"MultiPolygon","arcs":[[[437,-363,-368,-370,-369,-366,-357,-360,-377,-342,-345,-344,-340,-379,-329,-334,438,-332,-416,-429,-434,439,440]]],"properties":{"筆ID":"H000000151","version":"ver1.0","座標系":"任意座標系","測地系判別":null,"地図名":"戸井村字丸山・左又・丸山ノ腰・他","地図番号":"戸井47-3-3","縮尺分母":"1200","市区町村コード":"01202","市区町村名":"函館市","大字コード":"137","丁目コード":"000","小字コード":"0000","予備コード":"00","大字名":"新二見町","丁目名":null,"小字名":null,"予備名":null,"地番":"無地番-15","精度区分":null,"座標値種別":"図上測量","筆界未定構成筆":null,"代表点緯度":-251105.51,"代表点経度":64580.892958156}},{"type":"MultiPolygon","arcs":[[[441,442,443]]],"properties":{"筆ID":"H000000152","version":"ver1.0","座標系":"任意座標系","測地系判別":null,"地図名":"戸井村字丸山・左又・丸山ノ腰・他","地図番号":"戸井49-1-2","縮尺分母":"1200","市区町村コード":"01202","市区町村名":"函館市","大字コード":"137","丁目コード":"000","小字コード":"0000","予備コード":"00","大字名":"新二見町","丁目名":null,"小字名":null,"予備名":null,"地番":"353","精度区分":null,"座標値種別":"図上測量","筆界未定構成筆":null,"代表点緯度":-251483.3715,"代表点経度":64740.178017199}},{"type":"MultiPolygon","arcs":[[[-373,-288,-300,-295,-299,-352,-372,444,-93,445,-443,446,447,-294,-290,-376,448]]],"properties":{"筆ID":"H000000153","version":"ver1.0","座標系":"任意座標系","測地系判別":null,"地図名":"戸井村字丸山・左又・丸山ノ腰・他","地図番号":"戸井46-3-3","縮尺分母":"1200","市区町村コード":"01202","市区町村名":"函館市","大字コード":"137","丁目コード":"000","小字コード":"0000","予備コード":"00","大字名":"新二見町","丁目名":null,"小字名":null,"予備名":null,"地番":"道-3","精度区分":null,"座標値種別":"図上測量","筆界未定構成筆":null,"代表点緯度":-251533.9375,"代表点経度":64754.790398319}},{"type":"MultiPolygon","arcs":[[[-333,-439]]],"properties":{"筆ID":"H000000154","version":"ver1.0","座標系":"任意座標系","測地系判別":null,"地図名":"戸井村字丸山・左又・丸山ノ腰・他","地図番号":"戸井47-3-3","縮尺分母":"1200","市区町村コード":"01202","市区町村名":"函館市","大字コード":"137","丁目コード":"000","小字コード":"0000","予備コード":"00","大字名":"新二見町","丁目名":null,"小字名":null,"予備名":null,"地番":"252-3","精度区分":null,"座標値種別":"図上測量","筆界未定構成筆":null,"代表点緯度":-251091.0375,"代表点経度":64434.965107325}},{"type":"MultiPolygon","arcs":[[[-97,449,-388,450,-444,-446,-95,451,452,453,-380]]],"properties":{"筆ID":"H000000155","version":"ver1.0","座標系":"任意座標系","測地系判別":null,"地図名":"戸井村字丸山・左又・丸山ノ腰・他","地図番号":"戸井49-1-2","縮尺分母":"1200","市区町村コード":"01202","市区町村名":"函館市","大字コード":"136","丁目コード":"000","小字コード":"0000","予備コード":"00","大字名":"原木町","丁目名":null,"小字名":null,"予備名":null,"地番":"356-1","精度区分":null,"座標値種別":"図上測量","筆界未定構成筆":null,"代表点緯度":-251297.9495,"代表点経度":64897.927358104}},{"type":"MultiPolygon","arcs":[[[-387,454,-447,-442,-451]]],"properties":{"筆ID":"H000000156","version":"ver1.0","座標系":"任意座標系","測地系判別":null,"地図名":"戸井村字丸山・左又・丸山ノ腰・他","地図番号":"戸井49-1-2","縮尺分母":"1200","市区町村コード":"01202","市区町村名":"函館市","大字コード":"136","丁目コード":"000","小字コード":"0000","予備コード":"00","大字名":"原木町","丁目名":null,"小字名":null,"予備名":null,"地番":"道-53","精度区分":null,"座標値種別":"図上測量","筆界未定構成筆":null,"代表点緯度":-251443.058,"代表点経度":64787.622501117}},{"type":"MultiPolygon","arcs":[[[-94,-445,-371,-364,455,456,-452]]],"properties":{"筆ID":"H000000157","version":"ver1.0","座標系":"任意座標系","測地系判別":null,"地図名":"戸井村字丸山・左又・丸山ノ腰・他","地図番号":"戸井46-2-3","縮尺分母":"1200","市区町村コード":"01202","市区町村名":"函館市","大字コード":"137","丁目コード":"000","小字コード":"0000","予備コード":"00","大字名":"新二見町","丁目名":null,"小字名":null,"予備名":null,"地番":"263","精度区分":null,"座標値種別":"図上測量","筆界未定構成筆":null,"代表点緯度":-251190.5125,"代表点経度":64699.918291076}},{"type":"MultiPolygon","arcs":[[[-267,-246,457,458,-399,-408,-194]]],"properties":{"筆ID":"H000000158","version":"ver1.0","座標系":"任意座標系","測地系判別":null,"地図名":"戸井村字丸山・左又・丸山ノ腰・他","地図番号":"戸井47-2-3","縮尺分母":"1200","市区町村コード":"01202","市区町村名":"函館市","大字コード":"136","丁目コード":"000","小字コード":"0000","予備コード":"00","大字名":"原木町","丁目名":null,"小字名":null,"予備名":null,"地番":"417-2","精度区分":null,"座標値種別":"図上測量","筆界未定構成筆":null,"代表点緯度":-250837.047,"代表点経度":64107.139986543}},{"type":"MultiPolygon","arcs":[[[-251,459,460,-458]]],"properties":{"筆ID":"H000000159","version":"ver1.0","座標系":"任意座標系","測地系判別":null,"地図名":"戸井村字丸山・左又・丸山ノ腰・他","地図番号":"戸井47-2-3","縮尺分母":"1200","市区町村コード":"01202","市区町村名":"函館市","大字コード":"136","丁目コード":"000","小字コード":"0000","予備コード":"00","大字名":"原木町","丁目名":null,"小字名":null,"予備名":null,"地番":"417-6","精度区分":null,"座標値種別":"図上測量","筆界未定構成筆":null,"代表点緯度":-250902.87,"代表点経度":64084.921474919}},{"type":"MultiPolygon","arcs":[[[-254,461,-460]]],"properties":{"筆ID":"H000000160","version":"ver1.0","座標系":"任意座標系","測地系判別":null,"地図名":"戸井村字丸山・左又・丸山ノ腰・他","地図番号":"戸井47-2-3","縮尺分母":"1200","市区町村コード":"01202","市区町村名":"函館市","大字コード":"136","丁目コード":"000","小字コード":"0000","予備コード":"00","大字名":"原木町","丁目名":null,"小字名":null,"予備名":null,"地番":"417-7","精度区分":null,"座標値種別":"図上測量","筆界未定構成筆":null,"代表点緯度":-250929.867,"代表点経度":64073.779063861}},{"type":"MultiPolygon","arcs":[[[-459,-461,-462,-253,-260,-257,-268,-248,-183,-180,-182,-178,-435,-89,-400]]],"properties":{"筆ID":"H000000161","version":"ver1.0","座標系":"任意座標系","測地系判別":null,"地図名":"戸井村字丸山・左又・丸山ノ腰・他","地図番号":"戸井47-2-3","縮尺分母":"1200","市区町村コード":"01202","市区町村名":"函館市","大字コード":"136","丁目コード":"000","小字コード":"0000","予備コード":"00","大字名":"原木町","丁目名":null,"小字名":null,"予備名":null,"地番":"無地番-91","精度区分":null,"座標値種別":"図上測量","筆界未定構成筆":null,"代表点緯度":-250893.438,"代表点経度":64055.122777218}},{"type":"MultiPolygon","arcs":[[[462,-381,-454]]],"properties":{"筆ID":"H000000162","version":"ver1.0","座標系":"任意座標系","測地系判別":null,"地図名":"戸井村字丸山・左又・丸山ノ腰・他","地図番号":"戸井49-1-2","縮尺分母":"1200","市区町村コード":"01202","市区町村名":"函館市","大字コード":"136","丁目コード":"000","小字コード":"0000","予備コード":"00","大字名":"原木町","丁目名":null,"小字名":null,"予備名":null,"地番":"355","精度区分":null,"座標値種別":"図上測量","筆界未定構成筆":null,"代表点緯度":-251167.534,"代表点経度":64894.506526045}},{"type":"MultiPolygon","arcs":[[[-463,-453,463,-430,-131,-120,-382]]],"properties":{"筆ID":"H000000163","version":"ver1.0","座標系":"任意座標系","測地系判別":null,"地図名":"戸井村字丸山・左又・丸山ノ腰・他","地図番号":"戸井48-2-2","縮尺分母":"1200","市区町村コード":"01202","市区町村名":"函館市","大字コード":"136","丁目コード":"000","小字コード":"0000","予備コード":"00","大字名":"原木町","丁目名":null,"小字名":null,"予備名":null,"地番":"水-51","精度区分":null,"座標値種別":"図上測量","筆界未定構成筆":null,"代表点緯度":-251117.5605,"代表点経度":64844.881840473}},{"type":"MultiPolygon","arcs":[[[-147,464,-394,-384,-145]]],"properties":{"筆ID":"H000000164","version":"ver1.0","座標系":"任意座標系","測地系判別":null,"地図名":"戸井村字丸山・左又・丸山ノ腰・他","地図番号":"戸井48-2-2","縮尺分母":"1200","市区町村コード":"01202","市区町村名":"函館市","大字コード":"136","丁目コード":"000","小字コード":"0000","予備コード":"00","大字名":"原木町","丁目名":null,"小字名":null,"予備名":null,"地番":"水-84","精度区分":null,"座標値種別":"図上測量","筆界未定構成筆":null,"代表点緯度":-250988.9495,"代表点経度":64983.10041374}},{"type":"MultiPolygon","arcs":[[[-263,-213,-161,-157,465,466,467,-436,-167,-163,-169,-234]]],"properties":{"筆ID":"H000000165","version":"ver1.0","座標系":"任意座標系","測地系判別":null,"地図名":"戸井村字丸山・左又・丸山ノ腰・他","地図番号":"戸井47-3-3","縮尺分母":"1200","市区町村コード":"01202","市区町村名":"函館市","大字コード":"136","丁目コード":"000","小字コード":"0000","予備コード":"00","大字名":"原木町","丁目名":null,"小字名":null,"予備名":null,"地番":"道-20","精度区分":null,"座標値種別":"図上測量","筆界未定構成筆":null,"代表点緯度":-250902.773,"代表点経度":64680.612508319}},{"type":"MultiPolygon","arcs":[[[468,469,-467]]],"properties":{"筆ID":"H000000166","version":"ver1.0","座標系":"任意座標系","測地系判別":null,"地図名":"戸井村字丸山・左又・丸山ノ腰・他","地図番号":"戸井48-2-2","縮尺分母":"1200","市区町村コード":"01202","市区町村名":"函館市","大字コード":"136","丁目コード":"000","小字コード":"0000","予備コード":"00","大字名":"原木町","丁目名":null,"小字名":null,"予備名":null,"地番":"414-2","精度区分":null,"座標値種別":"図上測量","筆界未定構成筆":null,"代表点緯度":-251073.438,"代表点経度":64770.0668346}},{"type":"MultiPolygon","arcs":[[[470,471]]],"properties":{"筆ID":"H000000167","version":"ver1.0","座標系":"任意座標系","測地系判別":null,"地図名":"戸井村字丸山・左又・丸山ノ腰・他","地図番号":"戸井48-2-2","縮尺分母":"1200","市区町村コード":"01202","市区町村名":"函館市","大字コード":"136","丁目コード":"000","小字コード":"0000","予備コード":"00","大字名":"原木町","丁目名":null,"小字名":null,"予備名":null,"地番":"414-3","精度区分":null,"座標値種別":"図上測量","筆界未定構成筆":null,"代表点緯度":-250841.8305,"代表点経度":64836.197629694}},{"type":"MultiPolygon","arcs":[[[472,-469,-466,-156,-160,473,-471]]],"properties":{"筆ID":"H000000168","version":"ver1.0","座標系":"任意座標系","測地系判別":null,"地図名":"戸井村字丸山・左又・丸山ノ腰・他","地図番号":"戸井48-2-2","縮尺分母":"1200","市区町村コード":"01202","市区町村名":"函館市","大字コード":"136","丁目コード":"000","小字コード":"0000","予備コード":"00","大字名":"原木町","丁目名":null,"小字名":null,"予備名":null,"地番":"414-1","精度区分":null,"座標値種別":"図上測量","筆界未定構成筆":null,"代表点緯度":-250919.082,"代表点経度":64843.443493188}},{"type":"MultiPolygon","arcs":[[[-100,-383,-116,-112,-106,-113,-123,-126,-137,-133,-129,-135,-437,-468,-470,-473,-472,-474,-159,-275,-153,-151,474,475,-146,-141,-143,-144,-103]]],"properties":{"筆ID":"H000000169","version":"ver1.0","座標系":"任意座標系","測地系判別":null,"地図名":"戸井村字丸山・左又・丸山ノ腰・他","地図番号":"戸井48-2-2","縮尺分母":"1200","市区町村コード":"01202","市区町村名":"函館市","大字コード":"136","丁目コード":"000","小字コード":"0000","予備コード":"00","大字名":"原木町","丁目名":null,"小字名":null,"予備名":null,"地番":"道-77","精度区分":null,"座標値種別":"図上測量","筆界未定構成筆":null,"代表点緯度":-250966.127,"代表点経度":64880.700040326}},{"type":"MultiPolygon","arcs":[[[476,-440,-433]]],"properties":{"筆ID":"H000000170","version":"ver1.0","座標系":"任意座標系","測地系判別":null,"地図名":"戸井村字丸山・左又・丸山ノ腰・他","地図番号":"戸井47-3-3","縮尺分母":"1200","市区町村コード":"01202","市区町村名":"函館市","大字コード":"137","丁目コード":"000","小字コード":"0000","予備コード":"00","大字名":"新二見町","丁目名":null,"小字名":null,"予備名":null,"地番":"263-1","精度区分":null,"座標値種別":"図上測量","筆界未定構成筆":null,"代表点緯度":-251064.3945,"代表点経度":64663.541866535}},{"type":"MultiPolygon","arcs":[[[477,478,-441,-477,-432]]],"properties":{"筆ID":"H000000171","version":"ver1.0","座標系":"任意座標系","測地系判別":null,"地図名":"戸井村字丸山・左又・丸山ノ腰・他","地図番号":"戸井47-3-3","縮尺分母":"1200","市区町村コード":"01202","市区町村名":"函館市","大字コード":"137","丁目コード":"000","小字コード":"0000","予備コード":"00","大字名":"新二見町","丁目名":null,"小字名":null,"予備名":null,"地番":"263-2","精度区分":null,"座標値種別":"図上測量","筆界未定構成筆":null,"代表点緯度":-251094.539,"代表点経度":64627.714002886}},{"type":"MultiPolygon","arcs":[[[-479,-456,-438]]],"properties":{"筆ID":"H000000172","version":"ver1.0","座標系":"任意座標系","測地系判別":null,"地図名":"戸井村字丸山・左又・丸山ノ腰・他","地図番号":"戸井46-2-3","縮尺分母":"1200","市区町村コード":"01202","市区町村名":"函館市","大字コード":"137","丁目コード":"000","小字コード":"0000","予備コード":"00","大字名":"新二見町","丁目名":null,"小字名":null,"予備名":null,"地番":"263-3","精度区分":null,"座標値種別":"図上測量","筆界未定構成筆":null,"代表点緯度":-251102.9805,"代表点経度":64619.423075194}},{"type":"MultiPolygon","arcs":[[[-431,-464,-457,-478]]],"properties":{"筆ID":"H000000173","version":"ver1.0","座標系":"任意座標系","測地系判別":null,"地図名":"戸井村字丸山・左又・丸山ノ腰・他","地図番号":"戸井48-2-2","縮尺分母":"1200","市区町村コード":"01202","市区町村名":"函館市","大字コード":"137","丁目コード":"000","小字コード":"0000","予備コード":"00","大字名":"新二見町","丁目名":null,"小字名":null,"予備名":null,"地番":"263-4","精度区分":null,"座標値種別":"図上測量","筆界未定構成筆":null,"代表点緯度":-251109.5335,"代表点経度":64722.040971551}},{"type":"MultiPolygon","arcs":[[[479,480,-475,-150,-231,-227,-217,-407,-397,-391,481]]],"properties":{"筆ID":"H000000174","version":"ver1.0","座標系":"任意座標系","測地系判別":null,"地図名":"戸井村字丸山・左又・丸山ノ腰・他","地図番号":"戸井48-1-2","縮尺分母":"1200","市区町村コード":"01202","市区町村名":"函館市","大字コード":"136","丁目コード":"000","小字コード":"0000","予備コード":"00","大字名":"原木町","丁目名":null,"小字名":null,"予備名":null,"地番":"水-82","精度区分":null,"座標値種別":"図上測量","筆界未定構成筆":null,"代表点緯度":-250721.704,"代表点経度":64837.137331335}},{"type":"MultiPolygon","arcs":[[[482,-480]]],"properties":{"筆ID":"H000000175","version":"ver1.0","座標系":"任意座標系","測地系判別":null,"地図名":"戸井村字丸山・左又・丸山ノ腰・他","地図番号":"戸井48-2-2","縮尺分母":"1200","市区町村コード":"01202","市区町村名":"函館市","大字コード":"136","丁目コード":"000","小字コード":"0000","予備コード":"00","大字名":"原木町","丁目名":null,"小字名":null,"予備名":null,"地番":"438","精度区分":null,"座標値種別":"図上測量","筆界未定構成筆":null,"代表点緯度":-250806.3025,"代表点経度":64931.896874464}},{"type":"MultiPolygon","arcs":[[[-481,-483,-482,-390,-465,-476]]],"properties":{"筆ID":"H000000176","version":"ver1.0","座標系":"任意座標系","測地系判別":null,"地図名":"戸井村字丸山・左又・丸山ノ腰・他","地図番号":"戸井48-2-2","縮尺分母":"1200","市区町村コード":"01202","市区町村名":"函館市","大字コード":"136","丁目コード":"000","小字コード":"0000","予備コード":"00","大字名":"原木町","丁目名":null,"小字名":null,"予備名":null,"地番":"道-73","精度区分":null,"座標値種別":"図上測量","筆界未定構成筆":null,"代表点緯度":-250835.58,"代表点経度":64927.660557595}}]}},"arcs":[[[512948,119773],[10236,7017]],[[523184,126790],[3608,-12590],[-502,-4964],[-13342,10537]],[[425567,204468],[-6866,10515],[-900,10008]],[[417801,224991],[14018,3579],[796,-3858]],[[432615,224712],[10911,-6806],[52121,7133]],[[495647,225039],[2523,-5977],[486,-12721],[4296,-5337],[2533,-8011],[1516,-4787],[11859,-26648],[-1336,-15312],[5660,-19456]],[[512948,119773],[-26391,18869],[-5979,15341],[-8262,18011],[-14879,17826],[-6608,3036],[-25262,11612]],[[432615,224712],[18116,5131]],[[450731,229843],[23753,6621]],[[474484,236464],[14440,4864],[6723,-16289]],[[448675,235948],[8193,8073],[12113,4825],[5503,-12382]],[[450731,229843],[-2056,6105]],[[438091,253905],[16539,5086]],[[454630,258991],[1773,-14081]],[[456403,244910],[-8056,-8031],[-13459,-4103]],[[434888,232776],[3203,21129]],[[454630,258991],[-22306,53279]],[[432324,312270],[28446,-813]],[[460770,311457],[-2398,-13017],[9868,-13588],[16814,-31050],[3310,-10480],[-12484,-4272],[-5317,11536],[-14160,-5676]],[[421869,295761],[10455,16509]],[[438091,253905],[-16222,41856]],[[409571,292201],[12298,3560]],[[438091,253905],[-6522,-1283],[-9223,12293],[-10150,6535],[-685,11584],[-1940,9167]],[[417801,224991],[-475,7383],[-2661,6107],[-20402,31831],[-552,6621],[-5424,13117],[-46,128],[5326,11669]],[[393567,301847],[15265,-6124],[739,-3522]],[[434888,232776],[-185,-1190],[13972,4362]],[[393567,301847],[38757,10423]],[[383183,321583],[-888,1868]],[[382295,323451],[-794,1443]],[[381501,324894],[78019,69636],[7240,6462]],[[466760,400992],[2654,-6436],[6201,-15039],[-5444,-8365],[-15536,-33053],[6135,-26642]],[[393567,301847],[-6556,15494],[-3828,4242]],[[468577,402573],[13276,9160]],[[481853,411733],[28567,3315]],[[510420,415048],[11358,-16293]],[[521778,398755],[-14093,7750],[-4168,-11864],[-1664,-5219],[-24422,-8885],[-5636,14025],[-3218,8011]],[[520570,419405],[1229,-1034]],[[521799,418371],[-11379,-3323]],[[481853,411733],[6018,13264]],[[487871,424997],[1626,3657]],[[489497,428654],[4327,-1975],[26746,-7274]],[[419940,435633],[18016,9344],[13615,1158],[20020,-4803],[17906,-12678]],[[487871,424997],[-16533,10095],[-51398,541]],[[450046,409499],[-32207,-5453],[-4866,1158]],[[412973,405204],[-2559,17087],[9526,13342]],[[468577,402573],[-18531,6926]],[[374204,417279],[38769,-12075]],[[450046,409499],[-1065,-1827]],[[448981,407672],[-6489,-11356],[-2220,-1834],[-37576,-31030],[-16352,30895],[-12140,22932]],[[348082,388040],[5563,6226],[20559,23013]],[[448981,407672],[17779,-6680]],[[381501,324894],[-33419,63146]],[[327639,426885],[6185,6879],[27388,30467]],[[361212,464231],[17415,-11663],[-13170,-15981],[19022,-13267],[35461,12313]],[[348082,388040],[-7214,6194],[-6508,5585],[-440,2182],[-6281,24884]],[[270394,366710],[26078,27412],[31167,32763]],[[382295,323451],[-48101,-11982],[-19064,-4750]],[[315130,306719],[-44736,59991]],[[316522,304875],[17679,4433],[48982,12275]],[[383183,321583],[-29236,-20872],[-19678,-13851]],[[334269,286860],[-2706,-1906]],[[331563,284954],[-15041,19921]],[[201721,306434],[24243,18661],[44430,41615]],[[315130,306719],[1392,-1844]],[[331563,284954],[-10406,-12096],[-21351,-12031],[-35356,2778],[-11527,3362],[-17622,14492],[-20301,13721],[-13279,11254]],[[176892,393824],[88402,94630],[1005,47558]],[[266299,536012],[13845,-5049],[11689,-10834]],[[291833,520129],[581,-539]],[[292414,519590],[5896,-8273],[4580,-995]],[[302890,510322],[14968,-10322]],[[317858,500000],[-4342,-14064],[12777,-15156],[7423,-1392],[27496,-5157]],[[201721,306434],[-6471,-6471],[-21831,14325],[-20045,9482],[-18729,2809],[-13551,-6212],[-1224,9302],[2073,5334],[54949,58821]],[[292414,519590],[8605,-7977],[1871,-1291]],[[295657,579149],[20019,-12100],[1790,-30361],[254,-23797]],[[317720,512891],[-18386,4176],[-23110,33530]],[[276224,550597],[19433,28552]],[[317786,506800],[-14896,3522]],[[291833,520129],[-18691,25939]],[[273142,546068],[3082,4529]],[[317720,512891],[66,-6091]],[[266299,536012],[6843,10056]],[[317786,506800],[72,-6800]],[[274421,553077],[-23654,18113]],[[250767,571190],[3014,6018],[16782,-579],[15535,-1732],[-11677,-21820]],[[274421,553077],[-2569,-4801]],[[271852,548276],[-24769,15557]],[[247083,563833],[3684,7357]],[[271852,548276],[-4335,-8100],[-28458,7632],[8024,16025]],[[298767,583698],[21927,-14437],[3784,-69960],[-5298,-12616],[9840,-13074],[40118,-5047],[16652,-14221],[-10849,-16974],[10849,-6537],[57274,20873],[10849,918],[19176,-7111],[19175,-11240],[15139,-7798],[16817,-1632]],[[524220,424842],[-1180,-6109]],[[523040,418733],[-2470,672]],[[295657,579149],[3110,4549]],[[695082,242676],[1634,39680],[21703,32193]],[[718419,314549],[35455,-8785]],[[753874,305764],[-242,-16846],[12316,-5911],[5037,-28118],[-31939,-16187],[-43964,3974]],[[937827,303515],[-2945,-2876]],[[934882,300639],[-9256,15259],[-20796,24552],[-9150,13308]],[[895680,353758],[2727,971],[39420,-51214]],[[885765,395597],[11031,-8146],[9039,-302],[-5078,-19903]],[[900757,367246],[-9506,4496]],[[891251,371742],[-13056,23307]],[[878195,395049],[7570,548]],[[891251,371742],[-3297,1559],[-10048,21727]],[[877906,395028],[289,21]],[[874212,392030],[9592,-15211]],[[883804,376819],[2390,-5176],[601,-293]],[[886795,371350],[4561,-9777]],[[891356,361573],[-11583,-3987],[2084,15059],[-7844,19199]],[[874013,391844],[199,186]],[[893411,368129],[2838,-4872]],[[896249,363257],[-4893,-1684]],[[886795,371350],[6616,-3221]],[[876006,393712],[7798,-16893]],[[874212,392030],[1794,1682]],[[900449,364702],[-4200,-1445]],[[893411,368129],[7038,-3427]],[[811727,410117],[20962,-2838],[37204,-11653]],[[869893,395626],[4120,-3782]],[[874013,391844],[-6621,3136]],[[867392,394980],[-9075,548],[-13345,-1964],[-17773,60],[-2129,1822],[-15925,13622]],[[809145,409068],[2582,1049]],[[818916,413041],[14723,-2067],[28645,-7860]],[[862284,403114],[11048,-7548],[2674,-1854]],[[876006,393712],[-6113,1914]],[[811727,410117],[7189,2924]],[[846885,424413],[14463,-20660],[936,-639]],[[818916,413041],[27969,11372]],[[736826,397577],[27219,8620],[29024,5613]],[[793069,411810],[4292,385]],[[797361,412195],[14366,-2078]],[[809145,409068],[-15928,-5668],[-9298,-8057],[-835,-722],[-4230,-14009],[-6432,-2769],[-16347,11853]],[[756075,389696],[-16356,4984],[-550,550],[-2343,2347]],[[797361,412195],[5978,537],[3782,2308]],[[807121,415040],[11795,-1999]],[[734571,399835],[48385,11067],[10113,908]],[[736826,397577],[-2255,2258]],[[807121,415040],[17860,10897],[3401,19571],[6363,10977],[12140,-32072]],[[844048,475622],[27073,-26426]],[[871121,449196],[-13249,-24131],[4166,-16672]],[[862038,408393],[-4609,5411],[-7638,11830],[-12227,32291]],[[837564,457925],[6484,17697]],[[862038,408393],[788,-3150]],[[862826,405243],[-13991,20030],[-11715,31439],[444,1213]],[[877906,395028],[-808,547],[-14272,9668]],[[871121,449196],[15559,-91],[-7585,-21677],[6670,-31831]],[[844048,475622],[8943,15354]],[[852991,490976],[29873,-26928],[-11743,-14852]],[[778186,572823],[14598,12233]],[[792784,585056],[8921,-4577],[1070,-7587],[-1301,-7596],[3828,-21104],[8798,-5943],[18158,-24859]],[[832258,513390],[8895,-295],[2978,-6177],[1878,-23951]],[[846009,482967],[-3966,-6594],[-5596,-14882]],[[836447,461491],[-29666,78582],[-28595,32750]],[[836447,461491],[-556,-1479],[-30427,81126],[-27509,31492]],[[777955,572630],[231,193]],[[752678,525314],[31927,2653]],[[784605,527967],[1560,-3214],[21663,-60213]],[[807828,464540],[-32469,-7239],[-22681,68013]],[[722352,545567],[53843,25568]],[[776195,571135],[5675,-6328]],[[781870,564807],[9220,-19670],[190,-13020],[-6675,-4150]],[[752678,525314],[-21327,53],[-9328,14218],[329,5982]],[[636078,443631],[-3599,35201],[17992,49627]],[[650471,528459],[15932,-46391],[4073,-11863],[4289,-9185],[-4650,-23655],[-3571,-1718],[-14523,-6990]],[[652021,428657],[-15943,14974]],[[564410,425126],[23914,2099],[19086,11721]],[[607410,438946],[19122,2131],[9546,2554]],[[652021,428657],[-2274,-820]],[[649747,427837],[-9469,-3449],[-13673,-29439],[-3067,-6386],[-9893,-11520],[-22852,17816],[-841,887],[-5486,16857],[-20056,12523]],[[633865,563674],[16606,-35215]],[[607410,438946],[26455,124728]],[[544582,456316],[-5309,-24995]],[[539273,431321],[-47887,12310]],[[491386,443631],[-2390,2036],[-1078,802]],[[487918,446469],[3398,12462],[53266,-2615]],[[491386,443631],[-3964,1019]],[[487422,444650],[496,1819]],[[539273,431321],[-13861,-305]],[[525412,431016],[-8756,-178]],[[516656,430838],[-14957,3829]],[[501699,434667],[-3163,2211]],[[498536,436878],[-7150,6753]],[[516656,430838],[-9215,-187],[-5742,4016]],[[498536,436878],[-11114,7772]],[[429772,488096],[30057,-16996],[-4729,-6112]],[[455100,464988],[-43491,391]],[[411609,465379],[18163,22717]],[[455100,464988],[-4014,-5188]],[[451086,459800],[-42617,1651]],[[408469,461451],[3140,3928]],[[393680,616847],[34931,53474]],[[428611,670321],[32893,-16060],[9221,-38550],[-29567,-19575],[-15961,-10566],[-10579,10500],[-20938,20777]],[[321342,616720],[11876,17207],[50301,72883],[45092,-36489]],[[393680,616847],[-1174,-1687]],[[392506,615160],[-13351,-19179],[-3026,-4345],[-16045,-1961],[-14974,4701],[-1628,1514],[-10178,9616],[-11962,11214]],[[386462,777288],[51544,20492]],[[438006,797780],[106613,42384],[13716,-117]],[[558335,840047],[4081,-13518],[10047,-20383],[6383,-8014],[9637,-12097],[12925,-4082],[10588,-4459],[7536,-9903]],[[619532,767591],[1583,-4299]],[[621115,763292],[-8971,-21209]],[[612144,742083],[-121677,-66772]],[[490467,675311],[-5419,-3323]],[[485048,671988],[-35742,24695],[-15554,4004],[-13009,12101],[-28077,30049],[-6204,34451]],[[621115,763292],[16839,-46156]],[[637954,717136],[-1738,-381]],[[636216,716755],[-5797,-1274],[-18275,26602]],[[636216,716755],[2761,-15201],[7563,-9684],[2914,-604]],[[649454,691266],[7680,-1655]],[[657134,689611],[-69242,-42286]],[[587892,647325],[-8568,7252],[-88857,20734]],[[637954,717136],[2892,-14830],[8608,-11040]],[[683176,684014],[3792,-2430]],[[686968,681584],[7828,-15526],[16193,-10868],[39520,-54281],[3442,-3990],[22244,-25784]],[[722352,545567],[-1522,4532],[-6381,6844],[-48345,23785],[-20584,10127],[-6789,5775],[-39771,33840]],[[598960,630470],[-11068,16855]],[[657134,689611],[8645,-1858],[17397,-3739]],[[683176,684014],[2880,-619],[912,-1811]],[[665753,696682],[12143,10371]],[[677896,707053],[24114,-16362],[-1198,-14754],[7680,-12176],[14340,-5182],[13847,-17425],[-393,-15890]],[[736286,625264],[-38038,51047],[-10186,9535],[-26842,6965]],[[661220,692811],[4533,3871]],[[736286,625264],[-26,-1039]],[[736260,624225],[-23616,32426],[-6359,4248]],[[706285,660899],[-11926,14527],[-3926,4254]],[[690433,679680],[-2666,5301],[-21994,4863],[-6378,1409]],[[659395,691253],[1825,1558]],[[706285,660899],[-9647,6446],[-6205,12335]],[[677896,707053],[13002,8016],[6793,-14799],[19273,-16181],[15011,-3703],[20465,-22252],[32563,-20413],[-8675,-26636],[17007,-14068],[13555,-11212]],[[806890,585805],[-14106,-749]],[[778186,572823],[-20937,25445],[-20963,26996]],[[777955,572630],[-21057,24296],[-4461,5149],[-16177,22150]],[[806890,585805],[36915,-5276],[-11547,-67139]],[[543981,429102],[3496,27065]],[[547477,456167],[1976,14615],[-13956,31070],[-11071,6599],[-12551,9862],[12948,21175],[1629,11258],[18969,19755],[-4853,9861],[-5309,16009],[-4972,14992],[23535,15855]],[[553822,627218],[30474,-18276],[13595,-12414],[35974,-32854]],[[564410,425126],[-20429,3976]],[[425044,582793],[47988,31741],[-2873,12629]],[[470159,627163],[67747,-8138]],[[537906,619025],[-10370,-6998],[10710,-30685],[4709,-9925],[-18738,-19741],[-1463,-11767],[-13281,-22092]],[[509473,517817],[-33957,26133]],[[475516,543950],[-50472,38843]],[[483119,670811],[1602,-1128],[5766,3194],[87512,-19999],[4397,-3832],[-44490,-30021]],[[470159,627163],[-6285,27624],[-32038,16270],[-44894,37303],[10243,16884],[-2520,12371]],[[394665,737615],[24529,-26131],[13292,-12530],[15837,-4047],[34796,-24096]],[[475516,543950],[-45744,-55854]],[[411609,465379],[-8366,-437],[-23170,26932],[-18269,6117],[-2775,1791]],[[359029,499782],[66015,83011]],[[509473,517817],[13798,-10580],[10878,-6296],[13231,-29069],[-2798,-15556]],[[487422,444650],[-36336,15150]],[[408469,461451],[-3379,-864]],[[405090,460587],[-4958,719],[-23786,27315],[-18735,4406],[-2624,1672]],[[354987,494699],[4042,5083]],[[405090,460587],[-9893,-2530]],[[395197,458057],[-25204,16188],[-29530,2191]],[[340463,476436],[14524,18263]],[[405090,460587],[4091,-617]],[[409181,459970],[5611,-11680]],[[414792,448290],[-19772,-6270]],[[395020,442020],[-4684,2120],[4861,13917]],[[408469,461451],[712,-1481]],[[395020,442020],[-11887,-3770],[12064,19807]],[[547477,456167],[-2895,149]],[[483119,670811],[1929,1177]],[[598960,630470],[-3310,437],[-10785,16854],[-31043,-20543]],[[321342,616720],[11876,17560]],[[333218,634280],[61192,90495],[-2380,15646]],[[392030,740421],[2635,-2806]],[[425044,582793],[-32538,32367]],[[451086,459800],[-36294,-11510]],[[392030,740421],[-1426,1540],[-6196,35131],[2054,196]],[[558335,840047],[2285,63],[3854,-12924],[9910,-19958],[7268,-9088]],[[581652,798140],[8301,-10380],[12553,-3949],[10959,-4628],[8042,-10541]],[[621507,768642],[-1080,-377],[-895,-674]],[[637954,717136],[2060,626]],[[640014,717762],[2841,-14575],[8010,-10146],[8530,-1788]],[[777955,572630],[-695,-767],[-1065,-728]],[[543981,429102],[-4708,2219]],[[621507,768642],[17256,-47222],[6303,20049],[2556,8522],[4832,15519],[1811,-1114],[-5360,-17300],[-2600,-8689],[-6291,-20645]],[[525387,61304],[1994,4711],[784,37666],[1002,10778],[-9453,32174],[1381,15270],[-12046,27071]],[[509049,188974],[32087,-38273]],[[541136,150701],[11907,-22385]],[[553043,128316],[15308,-15010],[17136,4881]],[[585487,118187],[475,-54092]],[[585962,64095],[-12325,-11755],[-19418,-8704],[-18160,-8793]],[[536059,34843],[-8103,23833],[-2569,2628]],[[585487,118187],[13403,9565]],[[598890,127752],[16355,-21822],[30468,-11551]],[[645713,94379],[2753,-592],[5581,-11116]],[[654047,82671],[-32227,-8435],[-27873,-17473]],[[593947,56763],[-7985,7332]],[[677124,93437],[39113,33860]],[[716237,127297],[20553,-22082]],[[736790,105215],[-50377,-19097]],[[686413,86118],[-9289,7319]],[[716237,127297],[38728,8025],[-18175,-30107]],[[741088,173530],[10580,-3194],[3805,-32765],[-40404,-8496]],[[715069,129075],[9565,11343],[16454,33112]],[[645713,94379],[-26095,15292],[-8421,15094],[-9730,26075],[4163,42404],[608,6188],[-17322,27383],[-3039,23689]],[[585877,250504],[81300,-24385],[15278,-4583]],[[682455,221536],[38052,-28004],[9187,-6760],[11394,-13242]],[[715069,129075],[-39394,-34073],[-8086,-4611],[-13542,-7720]],[[553043,128316],[41526,22933]],[[594569,151249],[4321,-23497]],[[541136,150701],[36222,18945],[-11465,23498],[-16717,34260]],[[549176,227404],[22730,8558]],[[571906,235962],[20352,-42752],[3108,-6529],[-797,-35432]],[[509049,188974],[-1263,4026],[-2833,9025],[-4061,5166]],[[500892,207191],[12567,6514],[9217,4846]],[[522676,218551],[26500,8853]],[[565195,241260],[9970,-168]],[[575165,241092],[-3259,-5130]],[[522676,218551],[10889,12974],[31630,9735]],[[565195,241260],[-4815,57071]],[[560380,298331],[14756,1671],[29,-58910]],[[487150,254521],[22347,38492]],[[509497,293013],[4844,-377],[37150,3672],[8889,2023]],[[500892,207191],[-440,12254],[-9292,22560],[-4010,12516]],[[470197,285957],[3949,20745]],[[474146,306702],[29877,3813]],[[504023,310515],[5474,-17502]],[[487150,254521],[-14114,26180],[-2839,5256]],[[475154,374937],[15458,-4635]],[[490612,370302],[8614,-894]],[[499226,369408],[-12537,-16018],[-15146,-9966],[10565,-14074],[-6841,-5894],[-1121,-16754]],[[470197,285957],[-2934,4029],[-6611,8875],[1668,8563],[778,3985],[-6088,26477],[15164,32338],[2980,4713]],[[533510,386110],[-830,-3218],[-18756,-536],[-23312,-12054]],[[475154,374937],[2279,3521],[26191,9486],[2079,6702],[3237,8934],[13350,-7410],[677,-1481],[3935,-9146],[6608,567]],[[542342,389481],[589,5259],[1241,9027]],[[544172,403767],[20868,-12058]],[[565040,391709],[-2768,-5419]],[[562272,386290],[-19930,3191]],[[544172,403767],[267,1944]],[[544439,405711],[9433,-3719]],[[553872,401992],[12594,-7492]],[[566466,394500],[-1426,-2791]],[[568402,386630],[31481,-21112]],[[599883,365518],[-11728,-8737]],[[588155,356781],[-19413,5290],[-12387,6049]],[[556355,368120],[-4891,3612]],[[551464,371732],[13145,11541]],[[564609,383273],[3793,3357]],[[572128,389927],[16667,-11008]],[[588795,378919],[13226,-11808]],[[602021,367111],[-2138,-1593]],[[568402,386630],[3726,3297]],[[572128,389927],[2178,1928],[14489,-12936]],[[499226,369408],[16054,9850],[33225,4342],[2959,-11868]],[[556355,368120],[-46306,-32865],[746,-12256],[-3469,-12007],[-3303,-477]],[[588155,356781],[-25092,-49342],[-2683,-9108]],[[585877,250504],[643,15805]],[[586520,266309],[37111,6211],[6413,6868],[36100,11213],[838,252],[8437,-3298]],[[675419,287555],[19013,-4605]],[[694432,282950],[-1679,-39640],[-9691,-10741],[-607,-11033]],[[596886,280708],[58888,22132]],[[655774,302840],[11198,-8713],[8447,-6572]],[[586520,266309],[10366,14399]],[[611622,360510],[11191,2315]],[[622813,362825],[4575,-124]],[[627388,362701],[28386,-59861]],[[596886,280708],[-5018,13224],[11916,35203],[2944,24029],[4894,7346]],[[613334,363081],[9479,-256]],[[611622,360510],[1712,2571]],[[628476,364027],[14612,3358],[13829,19707]],[[656917,387092],[4095,627]],[[661012,387719],[5704,-9205],[37370,-63599]],[[704086,314915],[-28667,-27360]],[[627388,362701],[1088,1326]],[[633457,370096],[7172,1648],[8869,12667],[1572,1786]],[[651070,386197],[5847,895]],[[628476,364027],[4981,6069]],[[633457,370096],[12582,15331],[5031,770]],[[704086,314915],[11913,-328]],[[715999,314587],[-21567,-31637]],[[593947,56763],[805,-5983]],[[594752,50780],[-14504,-19904],[-40844,-15080],[-3345,19047]],[[686413,86118],[-18799,-4090],[-44995,-9785]],[[622619,72243],[32274,8603],[12702,7194],[9529,5397]],[[602021,367111],[11313,-4030]],[[533510,386110],[8515,785],[317,2586]],[[562272,386290],[2337,-3017]],[[895680,353758],[-21617,-7695]],[[874063,346063],[-5925,21594],[-8168,18411]],[[859970,386068],[7422,8912]],[[900449,364702],[308,2544]],[[885765,395597],[7917,21]],[[893682,395618],[105706,265]],[[999388,395883],[611,-201652],[-239588,-599]],[[760411,193632],[711,2589],[29334,14239],[88735,19790],[18888,9810],[43227,-15214],[18678,-3344],[10815,-6403],[1440,1785],[-11282,6613]],[[960957,223497],[5853,6543]],[[966810,230040],[24851,27919],[638,717],[-54472,44839]],[[858518,507114],[-11130,26109],[25244,12950],[3114,28255],[691,16369],[173,2505],[-29105,-377]],[[847505,592925],[-8438,4207]],[[839067,597132],[159711,399]],[[998778,597531],[610,-201648]],[[893682,395618],[8645,2005],[-9975,32418],[19842,13992],[-1095,18570],[-15426,9120],[-13509,8305],[-16506,17997],[-7140,9089]],[[665659,727686],[-214,70664]],[[665445,798350],[332722,833],[611,-201652]],[[839067,597132],[-31417,15660],[-9183,27936],[-18710,18967],[-20146,10438],[-12201,13181],[-16416,9988],[-22843,14015],[-2361,11838],[-13051,10827],[-24997,-5856],[-2083,3560]],[[611,595033],[306430,766]],[[307041,595799],[-5182,-7578]],[[301859,588221],[-3092,-4523]],[[273142,546068],[-1290,2208]],[[176892,393824],[-175670,-440]],[[1222,393384],[-611,201649]],[[332722,797517],[105284,263]],[[333218,634280],[-496,163237]],[[581652,798140],[83793,210]],[[665659,727686],[94,-31004]],[[321342,616720],[-14301,-20921]],[[611,595033],[-611,201651],[332722,833]],[[332722,797517],[-610,201650],[332722,832],[611,-201649]],[[425567,204468],[-8161,4788],[-1535,-1572],[8766,-4996],[21435,-9843]],[[446072,192845],[-111518,-279]],[[334554,192566],[-285,94294]],[[334554,192566],[-332721,-832],[-611,201650]],[[522289,56421],[3759,9788],[973,37834],[815,10298],[-9301,32305],[1193,14851],[-11925,27102],[-4054,13171],[-3816,4878],[-715,12684],[-9182,22820],[-4054,12032],[-16575,31167],[-9778,13009],[2027,13171],[-5604,26289],[15025,32738],[5882,9124],[25598,9034],[5629,15967],[15281,-7953],[4050,-10210],[13337,1423],[2644,18205]],[[543498,406148],[941,-437]],[[525387,61304],[-2273,-5389],[-825,506]],[[534258,417127],[-1503,597]],[[532755,417724],[1129,-117],[374,-480]],[[534258,417127],[8182,-10488]],[[542440,406639],[-291,-2041]],[[542149,404598],[-20350,13773]],[[521799,418371],[1241,362]],[[523040,418733],[9715,-1009]],[[542149,404598],[-1405,-9865],[-728,-5976],[-11725,-1098],[-2811,7037],[-1142,2666],[-2560,1393]],[[542440,406639],[1058,-491]],[[522289,56421],[-1041,637],[3757,9081],[691,37583],[319,3180],[-14136,11129],[-27183,19294],[-6353,16149],[-8215,17626],[-14227,17233],[-9829,4512]],[[524220,424842],[14469,-1924],[7519,-3577]],[[546208,419341],[-2710,-13193]],[[756075,389696],[949,-6615]],[[757024,383081],[-41087,18874]],[[715937,401955],[-2965,1362],[-538,5382]],[[712434,408699],[-1069,10712],[-18869,6605],[-12372,-23272],[-30588,4111]],[[649536,406855],[-26071,-36235],[-11101,-229],[-26746,20414],[-10092,13763],[-15138,8028],[-14180,6745]],[[524220,424842],[1192,6174]],[[649747,427837],[16858,-12591],[9074,-5472],[15192,35253],[24342,-6406],[10203,-18754],[-2851,-4340],[708,-12216]],[[723273,403311],[-4848,575],[-89,-509],[852,-1780],[15383,-1762]],[[659434,390349],[1578,-2630]],[[566466,394500],[151,298],[991,1777],[-13736,5417]],[[649536,406855],[7408,-12352]],[[656944,394503],[2490,-4154]],[[758980,197659],[-1080,-4034],[-5679,-21209]],[[752221,172416],[-9833,2772],[-11114,13029]],[[731274,188217],[12472,2491],[6353,2897],[8881,4054]],[[715999,314587],[2420,-38]],[[695082,242676],[-10017,-10997],[-421,-9208],[39383,-28931],[7247,-5323]],[[752221,172416],[1636,-2668]],[[753857,169748],[3994,-33740],[-18685,-31169],[9611,-45052],[-2374,-516],[-9613,45944]],[[622619,72243],[-24426,-17767],[14087,-29647],[-2267,-24829],[-5042,2672],[-1590,1186],[3406,17826],[-12035,29096]],[[934882,300639],[-14925,-14578],[46853,-56021]],[[960957,223497],[-18957,3302],[-44156,15551],[-19447,-10148],[-89059,-19792],[-30358,-14751]],[[753874,305764],[2851,67554]],[[756725,373318],[30038,-11785],[5403,19653]],[[792166,381186],[36813,-54075],[45084,18952]],[[760411,193632],[-6554,-23884]],[[661012,387719],[5669,2113],[13779,5139]],[[680460,394971],[303,113],[18838,6813],[13454,-6731],[43670,-21848]],[[359029,499782],[-13565,9027],[-15514,3138]],[[329950,511947],[-701,1182],[-2343,54025],[-11998,16263],[-13049,4804]],[[354987,494699],[-11607,8021],[-9042,1835]],[[334338,504555],[-733,1234],[-3655,6158]],[[340463,476436],[-6769,503],[-3079,228],[-7643,9330],[10679,4337],[7116,2889],[-6429,10832]],[[792166,381186],[67804,4882]],[[756725,373318],[299,9763]],[[852991,490976],[2424,6710],[1278,3948],[1825,5480]],[[807828,464540],[7621,-21599],[-5962,-13047],[-12450,-9766],[-12811,-5105],[-17996,-3193],[-25528,-6637]],[[740702,405193],[-6255,-1626],[106,-1653]],[[734553,401914],[-11280,1397]],[[740702,405193],[828,-540],[55482,11710],[7200,-683]],[[804212,415680],[-1634,-998],[-20104,-1788],[-47921,-10980]],[[805477,534867],[-3347,6824]],[[802130,541691],[1385,-1580],[1962,-5244]],[[805477,534867],[28370,-75799],[-7658,-12852],[-3266,-19102],[-18711,-11434]],[[781870,564807],[20260,-23116]],[[846009,482967],[5161,8848]],[[851170,491815],[1821,-839]],[[712434,408699],[-13901,8],[-20324,-8995],[-21265,-5209]],[[715937,401955],[-15036,2099],[-20441,-9083]],[[680460,394971],[-21026,-4622]],[[873184,571184],[-15218,-7051],[-8266,-13882],[-1981,-14514]],[[847719,535737],[-3084,-1594],[11695,-27083],[-1095,-3268],[-1231,-3950],[-2834,-8027]],[[847505,592925],[199,-1906],[26542,278],[-689,-16793],[-373,-3320]],[[873184,571184],[-2659,-23661],[-22806,-11786]]],"bbox":[63517.653,-251811.011,65156.932,-250007.849],"transform":{"scale":[0.0016392806392806413,0.0018031638031638143],"translate":[63517.653,-251811.011]}}
