{"type":"Topology","objects":{"当別出張所管内":{"type":"GeometryCollection","geometries":[{"type":"Polygon","arcs":[[0]],"properties":{"路線名":"1139 江別奈井江線"}},{"type":"Point","coordinates":[0,1697],"properties":{"路線名":"1139 江別奈井江線","図面番号":"51-1","座標番号":"L-1","X座標":-96369.503,"Y座標":-57431.845,"L側幅員":34.25,"備考":""}},{"type":"Point","coordinates":[3669,2187],"properties":{"路線名":"1139 江別奈井江線","図面番号":"51-1","座標番号":"L-2","X座標":-96367.443,"Y座標":-57412.355,"L側幅員":15.51,"備考":"L-1(51-2)座標欠損"}},{"type":"Point","coordinates":[7481,22478],"properties":{"路線名":"1139 江別奈井江線","図面番号":"51-2","座標番号":"L-2","X座標":-96275.444,"Y座標":-57391.355,"L側幅員":"","備考":"L-1座標欠損"}},{"type":"Point","coordinates":[8689,27443],"properties":{"路線名":"1139 江別奈井江線","図面番号":"51-2","座標番号":"L-3","X座標":-96252.944,"Y座標":-57384.755,"L側幅員":"","備考":""}},{"type":"Point","coordinates":[10207,36429],"properties":{"路線名":"1139 江別奈井江線","図面番号":"51-2","座標番号":"L-4","X座標":-96212.194,"Y座標":-57376.354,"L側幅員":"","備考":""}},{"type":"Point","coordinates":[11332,43870],"properties":{"路線名":"1139 江別奈井江線","図面番号":"51-2","座標番号":"L-5","X座標":-96178.444,"Y座標":-57370.104,"L側幅員":"","備考":""}},{"type":"Point","coordinates":[10591,45140],"properties":{"路線名":"1139 江別奈井江線","図面番号":"51-2","座標番号":"L-6","X座標":-96172.644,"Y座標":-57373.984,"L側幅員":"","備考":""}},{"type":"Point","coordinates":[10326,45181],"properties":{"路線名":"1139 江別奈井江線","図面番号":"51-2","座標番号":"L-7","X座標":-96172.447,"Y座標":-57375.391,"L側幅員":"","備考":""}},{"type":"Point","coordinates":[11003,51130],"properties":{"路線名":"1139 江別奈井江線","図面番号":"51-2","座標番号":"L-8","X座標":-96145.455,"Y座標":-57371.569,"L側幅員":"","備考":""}},{"type":"Point","coordinates":[12157,50950],"properties":{"路線名":"1139 江別奈井江線","図面番号":"51-2","座標番号":"L-9","X座標":-96146.324,"Y座標":-57365.454,"L側幅員":"","備考":""}},{"type":"Point","coordinates":[12519,53318],"properties":{"路線名":"1139 江別奈井江線","図面番号":"51-2","座標番号":"L-10","X座標":-96135.584,"Y座標":-57363.444,"L側幅員":"","備考":""}},{"type":"Point","coordinates":[13289,58367],"properties":{"路線名":"1139 江別奈井江線","図面番号":"51-2","座標番号":"L-11","X座標":-96112.684,"Y座標":-57359.164,"L側幅員":"","備考":""}},{"type":"Point","coordinates":[12987,58413],"properties":{"路線名":"1139 江別奈井江線","図面番号":"51-2","座標番号":"L-12","X座標":-96112.459,"Y座標":-57360.766,"L側幅員":"","備考":""}},{"type":"Point","coordinates":[13480,62134],"properties":{"路線名":"1139 江別奈井江線","図面番号":"51-2","座標番号":"L-13","X座標":-96095.581,"Y座標":-57358.008,"L側幅員":"","備考":""}},{"type":"Point","coordinates":[15555,73887],"properties":{"路線名":"1139 江別奈井江線","図面番号":"51-2","座標番号":"L-14","X座標":-96042.287,"Y座標":-57346.55,"L側幅員":"","備考":""}},{"type":"Point","coordinates":[15654,73875],"properties":{"路線名":"1139 江別奈井江線","図面番号":"51-2","座標番号":"L-15","X座標":-96042.345,"Y座標":-57346.024,"L側幅員":"","備考":""}},{"type":"Point","coordinates":[16159,77193],"properties":{"路線名":"1139 江別奈井江線","図面番号":"51-2","座標番号":"L-16","X座標":-96027.295,"Y座標":-57343.214,"L側幅員":"","備考":""}},{"type":"Point","coordinates":[18566,92958],"properties":{"路線名":"1139 江別奈井江線","図面番号":"51-2","座標番号":"L-17","X座標":-95955.795,"Y座標":-57329.843,"L側幅員":"","備考":""}},{"type":"Point","coordinates":[21837,100706],"properties":{"路線名":"1139 江別奈井江線","図面番号":"51-2","座標番号":"L-18","X座標":-95920.745,"Y座標":-57312.193,"L側幅員":"","備考":""}},{"type":"Point","coordinates":[25428,104039],"properties":{"路線名":"1139 江別奈井江線","図面番号":"51-2","座標番号":"L-19","X座標":-95905.765,"Y座標":-57293.013,"L側幅員":"","備考":""}},{"type":"Point","coordinates":[27930,106217],"properties":{"路線名":"1139 江別奈井江線","図面番号":"51-2","座標番号":"L-20","X座標":-95895.986,"Y座標":-57279.653,"L側幅員":"","備考":""}},{"type":"Point","coordinates":[29865,107647],"properties":{"路線名":"1139 江別奈井江線","図面番号":"51-2","座標番号":"L-21","X座標":-95889.576,"Y座標":-57269.333,"L側幅員":"","備考":""}},{"type":"Point","coordinates":[32290,108701],"properties":{"路線名":"1139 江別奈井江線","図面番号":"51-2","座標番号":"L-22","X座標":-95884.896,"Y座標":-57256.423,"L側幅員":"","備考":""}},{"type":"Point","coordinates":[36020,109792],"properties":{"路線名":"1139 江別奈井江線","図面番号":"51-2","座標番号":"L-23","X座標":-95880.106,"Y座標":-57236.593,"L側幅員":"","備考":""}},{"type":"Point","coordinates":[38451,110340],"properties":{"路線名":"1139 江別奈井江線","図面番号":"51-2","座標番号":"L-24","X座標":-95877.726,"Y座標":-57223.673,"L側幅員":"","備考":""}},{"type":"Point","coordinates":[40869,110654],"properties":{"路線名":"1139 江別奈井江線","図面番号":"51-2","座標番号":"L-25","X座標":-95876.406,"Y座標":-57210.833,"L側幅員":"","備考":""}},{"type":"Point","coordinates":[44211,110819],"properties":{"路線名":"1139 江別奈井江線","図面番号":"51-2","座標番号":"L-26","X座標":-95875.806,"Y座標":-57193.093,"L側幅員":"","備考":""}},{"type":"Point","coordinates":[53579,112016],"properties":{"路線名":"1139 江別奈井江線","図面番号":"51-2","座標番号":"L-27","X座標":-95870.786,"Y座標":-57143.343,"L側幅員":"","備考":""}},{"type":"Point","coordinates":[62944,113213],"properties":{"路線名":"1139 江別奈井江線","図面番号":"51-2","座標番号":"L-28","X座標":-95865.766,"Y座標":-57093.604,"L側幅員":"","備考":""}},{"type":"Point","coordinates":[72312,114412],"properties":{"路線名":"1139 江別奈井江線","図面番号":"51-2","座標番号":"L-29","X座標":-95860.736,"Y座標":-57043.854,"L側幅員":"","備考":""}},{"type":"Point","coordinates":[81680,115609],"properties":{"路線名":"1139 江別奈井江線","図面番号":"51-3","座標番号":"L-1","X座標":-95855.715,"Y座標":-56994.104,"L側幅員":"","備考":""}},{"type":"Point","coordinates":[91048,116805],"properties":{"路線名":"1139 江別奈井江線","図面番号":"51-3","座標番号":"L-2","X座標":-95850.695,"Y座標":-56944.354,"L側幅員":"","備考":""}},{"type":"Point","coordinates":[100416,118002],"properties":{"路線名":"1139 江別奈井江線","図面番号":"51-3","座標番号":"L-3","X座標":-95845.675,"Y座標":-56894.604,"L側幅員":"","備考":""}},{"type":"Point","coordinates":[109782,119198],"properties":{"路線名":"1139 江別奈井江線","図面番号":"51-3","座標番号":"L-4","X座標":-95840.655,"Y座標":-56844.864,"L側幅員":"","備考":""}},{"type":"Point","coordinates":[119150,120397],"properties":{"路線名":"1139 江別奈井江線","図面番号":"51-3","座標番号":"L-5","X座標":-95835.625,"Y座標":-56795.114,"L側幅員":"","備考":""}},{"type":"Point","coordinates":[128518,121593],"properties":{"路線名":"1139 江別奈井江線","図面番号":"51-3","座標番号":"L-6","X座標":-95830.605,"Y座標":-56745.365,"L側幅員":"","備考":""}},{"type":"Point","coordinates":[136807,122657],"properties":{"路線名":"1139 江別奈井江線","図面番号":"51-3","座標番号":"L-7","X座標":-95826.138,"Y座標":-56701.341,"L側幅員":"","備考":""}},{"type":"Point","coordinates":[137269,122826],"properties":{"路線名":"1139 江別奈井江線","図面番号":"51-3","座標番号":"L-8","X座標":-95825.393,"Y座標":-56698.887,"L側幅員":"","備考":""}},{"type":"Point","coordinates":[143132,123893],"properties":{"路線名":"1139 江別奈井江線","図面番号":"51-3","座標番号":"L-9","X座標":-95820.805,"Y座標":-56667.737,"L側幅員":"","備考":""}},{"type":"Point","coordinates":[143157,123469],"properties":{"路線名":"1139 江別奈井江線","図面番号":"51-3","座標番号":"L-10","X座標":-95822.733,"Y座標":-56667.618,"L側幅員":"","備考":""}},{"type":"Point","coordinates":[145339,123747],"properties":{"路線名":"1139 江別奈井江線","図面番号":"51-3","座標番号":"L-11","X座標":-95821.565,"Y座標":-56656.035,"L側幅員":"","備考":""}},{"type":"Point","coordinates":[146283,125121],"properties":{"路線名":"1139 江別奈井江線","図面番号":"51-3","座標番号":"L-12","X座標":-95815.366,"Y座標":-56650.975,"L側幅員":"","備考":""}},{"type":"Point","coordinates":[145962,128556],"properties":{"路線名":"1139 江別奈井江線","図面番号":"51-3","座標番号":"L-13","X座標":-95799.749,"Y座標":-56652.546,"L側幅員":"","備考":""}},{"type":"Point","coordinates":[145803,128528],"properties":{"路線名":"1139 江別奈井江線","図面番号":"51-3","座標番号":"L-14","X座標":-95799.87,"Y座標":-56653.388,"L側幅員":"","備考":""}},{"type":"Point","coordinates":[144808,139495],"properties":{"路線名":"1139 江別奈井江線","図面番号":"51-3","座標番号":"L-15","X座標":-95750.01,"Y座標":-56658.258,"L側幅員":"","備考":""}},{"type":"Point","coordinates":[144131,147603],"properties":{"路線名":"1139 江別奈井江線","図面番号":"51-3","座標番号":"L-16","X座標":-95713.152,"Y座標":-56661.541,"L側幅員":"","備考":""}},{"type":"Point","coordinates":[144168,147718],"properties":{"路線名":"1139 江別奈井江線","図面番号":"51-3","座標番号":"L-17","X座標":-95712.628,"Y座標":-56661.342,"L側幅員":"","備考":""}},{"type":"Point","coordinates":[143199,158072],"properties":{"路線名":"1139 江別奈井江線","図面番号":"51-3","座標番号":"L-18","X座標":-95665.556,"Y座標":-56666.094,"L側幅員":"","備考":""}},{"type":"Point","coordinates":[142174,169014],"properties":{"路線名":"1139 江別奈井江線","図面番号":"51-3","座標番号":"L-19","X座標":-95615.807,"Y座標":-56671.114,"L側幅員":"","備考":""}},{"type":"Point","coordinates":[141150,179954],"properties":{"路線名":"1139 江別奈井江線","図面番号":"51-3","座標番号":"L-20","X座標":-95566.067,"Y座標":-56676.134,"L側幅員":"","備考":""}},{"type":"Point","coordinates":[140125,190897],"properties":{"路線名":"1139 江別奈井江線","図面番号":"51-3","座標番号":"L-21","X座標":-95516.317,"Y座標":-56681.163,"L側幅員":"","備考":""}},{"type":"Point","coordinates":[139101,201839],"properties":{"路線名":"1139 江別奈井江線","図面番号":"51-4","座標番号":"L-1","X座標":-95466.568,"Y座標":-56686.183,"L側幅員":"","備考":""}},{"type":"Point","coordinates":[138077,212782],"properties":{"路線名":"1139 江別奈井江線","図面番号":"51-4","座標番号":"L-2","X座標":-95416.818,"Y座標":-56691.203,"L側幅員":"","備考":""}},{"type":"Point","coordinates":[137256,221534],"properties":{"路線名":"1139 江別奈井江線","図面番号":"51-4","座標番号":"L-3","X座標":-95377.028,"Y座標":-56695.223,"L側幅員":"","備考":""}},{"type":"Point","coordinates":[136232,232476],"properties":{"路線名":"1139 江別奈井江線","図面番号":"51-4","座標番号":"L-4","X座標":-95327.278,"Y座標":-56700.243,"L側幅員":"","備考":""}},{"type":"Point","coordinates":[135208,243419],"properties":{"路線名":"1139 江別奈井江線","図面番号":"51-4","座標番号":"L-5","X座標":-95277.529,"Y座標":-56705.262,"L側幅員":"","備考":""}},{"type":"Point","coordinates":[134186,254343],"properties":{"路線名":"1139 江別奈井江線","図面番号":"51-4","座標番号":"L-6","X座標":-95227.863,"Y座標":-56710.272,"L側幅員":"","備考":""}},{"type":"Point","coordinates":[133162,265285],"properties":{"路線名":"1139 江別奈井江線","図面番号":"51-4","座標番号":"L-7","X座標":-95178.116,"Y座標":-56715.294,"L側幅員":"","備考":""}},{"type":"Point","coordinates":[132137,276227],"properties":{"路線名":"1139 江別奈井江線","図面番号":"51-4","座標番号":"L-8","X座標":-95128.369,"Y座標":-56720.316,"L側幅員":"","備考":""}},{"type":"Point","coordinates":[131113,287169],"properties":{"路線名":"1139 江別奈井江線","図面番号":"51-4","座標番号":"L-9","X座標":-95078.622,"Y座標":-56725.338,"L側幅員":"","備考":""}},{"type":"Point","coordinates":[130088,298111],"properties":{"路線名":"1139 江別奈井江線","図面番号":"51-4","座標番号":"L-10","X座標":-95028.875,"Y座標":-56730.36,"L側幅員":"","備考":""}},{"type":"Point","coordinates":[129063,309052],"properties":{"路線名":"1139 江別奈井江線","図面番号":"51-4","座標番号":"L-I1","X座標":-94979.128,"Y座標":-56735.382,"L側幅員":"","備考":""}},{"type":"Point","coordinates":[128039,319994],"properties":{"路線名":"1139 江別奈井江線","図面番号":"51-4","座標番号":"L-12","X座標":-94929.381,"Y座標":-56740.404,"L側幅員":"","備考":""}},{"type":"Point","coordinates":[127014,330936],"properties":{"路線名":"1139 江別奈井江線","図面番号":"51-4","座標番号":"L-13","X座標":-94879.634,"Y座標":-56745.426,"L側幅員":"","備考":""}},{"type":"Point","coordinates":[125989,341878],"properties":{"路線名":"1139 江別奈井江線","図面番号":"51-4","座標番号":"L-14","X座標":-94829.887,"Y座標":-56750.448,"L側幅員":"","備考":""}},{"type":"Point","coordinates":[124965,352820],"properties":{"路線名":"1139 江別奈井江線","図面番号":"51-4","座標番号":"L-15","X座標":-94780.14,"Y座標":-56755.47,"L側幅員":"","備考":""}},{"type":"Point","coordinates":[123982,363320],"properties":{"路線名":"1139 江別奈井江線","図面番号":"51-4","座標番号":"L-16","X座標":-94732.402,"Y座標":-56760.289,"L側幅員":"","備考":""}},{"type":"Point","coordinates":[123759,363291],"properties":{"路線名":"1139 江別奈井江線","図面番号":"51-4","座標番号":"L-17","X座標":-94732.522,"Y座標":-56761.469,"L側幅員":"","備考":""}},{"type":"Point","coordinates":[123319,366856],"properties":{"路線名":"1139 江別奈井江線","図面番号":"51-4","座標番号":"L-18","X座標":-94716.312,"Y座標":-56763.669,"L側幅員":"","備考":""}},{"type":"Point","coordinates":[123647,366899],"properties":{"路線名":"1139 江別奈井江線","図面番号":"51-4","座標番号":"L-19","X座標":-94716.13,"Y座標":-56761.93,"L側幅員":"","備考":""}},{"type":"Point","coordinates":[122421,379991],"properties":{"路線名":"1139 江別奈井江線","図面番号":"51-4","座標番号":"L-20","X座標":-94656.606,"Y座標":-56767.938,"L側幅員":"","備考":""}},{"type":"Point","coordinates":[122485,381265],"properties":{"路線名":"1139 江別奈井江線","図面番号":"51-4","座標番号":"L-21","X座標":-94650.825,"Y座標":-56767.548,"L側幅員":"","備考":""}},{"type":"Point","coordinates":[123030,382098],"properties":{"路線名":"1139 江別奈井江線","図面番号":"51-4","座標番号":"L-22","X座標":-94647.063,"Y座標":-56764.624,"L側幅員":"","備考":""}},{"type":"Point","coordinates":[121962,393417],"properties":{"路線名":"1139 江別奈井江線","図面番号":"51-4","座標番号":"L-23","X座標":-94595.603,"Y座標":-56769.862,"L側幅員":"","備考":""}},{"type":"Point","coordinates":[120490,394452],"properties":{"路線名":"1139 江別奈井江線","図面番号":"51-4","座標番号":"L-24","X座標":-94590.837,"Y座標":-56777.632,"L側幅員":"","備考":""}},{"type":"Point","coordinates":[119527,403199],"properties":{"路線名":"1139 江別奈井江線","図面番号":"51-4","座標番号":"L-25","X座標":-94551.063,"Y座標":-56782.408,"L側幅員":"","備考":""}},{"type":"Point","coordinates":[119531,410838],"properties":{"路線名":"1139 江別奈井江線","図面番号":"51-4","座標番号":"L-26","X座標":-94516.363,"Y座標":-56782.098,"L側幅員":"","備考":""}},{"type":"Point","coordinates":[118230,424747],"properties":{"路線名":"1139 江別奈井江線","図面番号":"51-5","座標番号":"L-1","X座標":-94453.127,"Y座標":-56788.477,"L側幅員":"","備考":""}},{"type":"Point","coordinates":[117205,435689],"properties":{"路線名":"1139 江別奈井江線","図面番号":"51-5","座標番号":"L-2","X座標":-94403.38,"Y座標":-56793.498,"L側幅員":"","備考":""}},{"type":"Point","coordinates":[116180,446630],"properties":{"路線名":"1139 江別奈井江線","図面番号":"51-5","座標番号":"L-3","X座標":-94353.633,"Y座標":-56798.52,"L側幅員":"","備考":""}},{"type":"Point","coordinates":[115156,457572],"properties":{"路線名":"1139 江別奈井江線","図面番号":"51-5","座標番号":"L-4","X座標":-94303.886,"Y座標":-56803.541,"L側幅員":"","備考":""}},{"type":"Point","coordinates":[114131,468514],"properties":{"路線名":"1139 江別奈井江線","図面番号":"51-5","座標番号":"L-5","X座標":-94254.138,"Y座標":-56808.563,"L側幅員":"","備考":""}},{"type":"Point","coordinates":[113106,479456],"properties":{"路線名":"1139 江別奈井江線","図面番号":"51-5","座標番号":"L-6","X座標":-94204.391,"Y座標":-56813.584,"L側幅員":"","備考":""}},{"type":"Point","coordinates":[112081,490398],"properties":{"路線名":"1139 江別奈井江線","図面番号":"51-5","座標番号":"L-7","X座標":-94154.644,"Y座標":-56818.606,"L側幅員":"","備考":""}},{"type":"Point","coordinates":[111709,494377],"properties":{"路線名":"1139 江別奈井江線","図面番号":"51-5","座標番号":"L-8","X座標":-94136.556,"Y座標":-56820.432,"L側幅員":"","備考":""}},{"type":"Point","coordinates":[110684,505318],"properties":{"路線名":"1139 江別奈井江線","図面番号":"51-5","座標番号":"L-9","X座標":-94086.809,"Y座標":-56825.453,"L側幅員":"","備考":""}},{"type":"Point","coordinates":[109659,516260],"properties":{"路線名":"1139 江別奈井江線","図面番号":"51-5","座標番号":"L-10","X座標":-94037.062,"Y座標":-56830.475,"L側幅員":"","備考":""}},{"type":"Point","coordinates":[108634,527202],"properties":{"路線名":"1139 江別奈井江線","図面番号":"51-5","座標番号":"L-11","X座標":-93987.314,"Y座標":-56835.496,"L側幅員":"","備考":""}},{"type":"Point","coordinates":[107861,535452],"properties":{"路線名":"1139 江別奈井江線","図面番号":"51-5","座標番号":"L-12","X座標":-93949.805,"Y座標":-56839.283,"L側幅員":"","備考":""}},{"type":"Point","coordinates":[106585,549086],"properties":{"路線名":"1139 江別奈井江線","図面番号":"51-5","座標番号":"L-13","X座標":-93887.82,"Y座標":-56845.539,"L側幅員":"","備考":""}},{"type":"Point","coordinates":[105560,560028],"properties":{"路線名":"1139 江別奈井江線","図面番号":"51-5","座標番号":"L-14","X座標":-93838.073,"Y座標":-56850.56,"L側幅員":"","備考":""}},{"type":"Point","coordinates":[104851,567600],"properties":{"路線名":"1139 江別奈井江線","図面番号":"51-5","座標番号":"L-15","X座標":-93803.648,"Y座標":-56854.035,"L側幅員":"","備考":""}},{"type":"Point","coordinates":[103639,580533],"properties":{"路線名":"1139 江別奈井江線","図面番号":"51-5","座標番号":"L-16","X座標":-93744.847,"Y座標":-56859.971,"L側幅員":"","備考":""}},{"type":"Point","coordinates":[102504,592657],"properties":{"路線名":"1139 江別奈井江線","図面番号":"51-5","座標番号":"L-17","X座標":-93689.727,"Y座標":-56865.534,"L側幅員":"","備考":""}},{"type":"Point","coordinates":[101542,602920],"properties":{"路線名":"1139 江別奈井江線","図面番号":"51-5","座標番号":"L-18","X座標":-93643.064,"Y座標":-56870.244,"L側幅員":"","備考":""}},{"type":"Point","coordinates":[100514,613898],"properties":{"路線名":"1139 江別奈井江線","図面番号":"51-5","座標番号":"L-19","X座標":-93593.155,"Y座標":-56875.282,"L側幅員":"","備考":""}},{"type":"Point","coordinates":[100141,617876],"properties":{"路線名":"1139 江別奈井江線","図面番号":"51-5","座標番号":"L-20","X座標":-93575.067,"Y座標":-56877.107,"L側幅員":"","備考":""}},{"type":"Point","coordinates":[103548,618314],"properties":{"路線名":"1139 江別奈井江線","図面番号":"51-5","座標番号":"L-21","X座標":-93573.228,"Y座標":-56859.021,"L側幅員":"","備考":""}},{"type":"Point","coordinates":[112919,619512],"properties":{"路線名":"1139 江別奈井江線","図面番号":"51-5","座標番号":"L-22","X座標":-93568.201,"Y座標":-56809.274,"L側幅員":"","備考":""}},{"type":"Point","coordinates":[122289,620710],"properties":{"路線名":"1139 江別奈井江線","図面番号":"51-6","座標番号":"L-1","X座標":-93563.173,"Y座標":-56759.528,"L側幅員":"","備考":""}},{"type":"Point","coordinates":[131659,621908],"properties":{"路線名":"1139 江別奈井江線","図面番号":"51-6","座標番号":"L-2","X座標":-93558.146,"Y座標":-56709.781,"L側幅員":"","備考":""}},{"type":"Point","coordinates":[141030,623106],"properties":{"路線名":"1139 江別奈井江線","図面番号":"51-6","座標番号":"L-3","X座標":-93553.119,"Y座標":-56660.035,"L側幅員":"","備考":""}},{"type":"Point","coordinates":[150400,624304],"properties":{"路線名":"1139 江別奈井江線","図面番号":"51-6","座標番号":"L-4","X座標":-93548.091,"Y座標":-56610.288,"L側幅員":"","備考":""}},{"type":"Point","coordinates":[159771,625501],"properties":{"路線名":"1139 江別奈井江線","図面番号":"51-6","座標番号":"L-5","X座標":-93543.064,"Y座標":-56560.541,"L側幅員":"","備考":""}},{"type":"Point","coordinates":[169141,626699],"properties":{"路線名":"1139 江別奈井江線","図面番号":"51-6","座標番号":"L-6","X座標":-93538.037,"Y座標":-56510.795,"L側幅員":"","備考":""}},{"type":"Point","coordinates":[178605,627908],"properties":{"路線名":"1139 江別奈井江線","図面番号":"51-6","座標番号":"L-7","X座標":-93532.959,"Y座標":-56460.551,"L側幅員":"","備考":""}},{"type":"Point","coordinates":[187882,629094],"properties":{"路線名":"1139 江別奈井江線","図面番号":"51-6","座標番号":"L-8","X座標":-93527.982,"Y座標":-56411.301,"L側幅員":"","備考":""}},{"type":"Point","coordinates":[197253,630291],"properties":{"路線名":"1139 江別奈井江線","図面番号":"51-6","座標番号":"L-9","X座標":-93522.955,"Y座標":-56361.555,"L側幅員":"","備考":""}},{"type":"Point","coordinates":[205860,631391],"properties":{"路線名":"1139 江別奈井江線","図面番号":"51-6","座標番号":"L-10","X座標":-93518.337,"Y座標":-56315.86,"L側幅員":"","備考":""}},{"type":"Point","coordinates":[209270,631833],"properties":{"路線名":"1139 江別奈井江線","図面番号":"51-6","座標番号":"L-11","X座標":-93516.48,"Y座標":-56297.756,"L側幅員":"","備考":""}},{"type":"Point","coordinates":[215697,632659],"properties":{"路線名":"1139 江別奈井江線","図面番号":"51-6","座標番号":"L-12","X座標":-93513.007,"Y座標":-56263.636,"L側幅員":"","備考":""}},{"type":"Point","coordinates":[215680,633256],"properties":{"路線名":"1139 江別奈井江線","図面番号":"51-6","座標番号":"L-13","X座標":-93510.297,"Y座標":-56263.706,"L側幅員":"","備考":""}},{"type":"Point","coordinates":[217268,633482],"properties":{"路線名":"1139 江別奈井江線","図面番号":"51-6","座標番号":"L-14","X座標":-93509.337,"Y座標":-56255.276,"L側幅員":"","備考":""}},{"type":"Point","coordinates":[220827,633994],"properties":{"路線名":"1139 江別奈井江線","図面番号":"51-6","座標番号":"L-15","X座標":-93507.167,"Y座標":-56236.376,"L側幅員":"","備考":""}},{"type":"Point","coordinates":[228927,634968],"properties":{"路線名":"1139 江別奈井江線","図面番号":"51-6","座標番号":"L-16","X座標":-93503.098,"Y座標":-56193.377,"L側幅員":"","備考":""}},{"type":"Point","coordinates":[235453,635727],"properties":{"路線名":"1139 江別奈井江線","図面番号":"51-6","座標番号":"L-17","X座標":-93499.938,"Y座標":-56158.737,"L側幅員":"","備考":""}},{"type":"Point","coordinates":[242202,636560],"properties":{"路線名":"1139 江別奈井江線","図面番号":"51-6","座標番号":"L-18","X座標":-93496.448,"Y座標":-56122.908,"L側幅員":"","備考":""}},{"type":"Point","coordinates":[245878,636985],"properties":{"路線名":"1139 江別奈井江線","図面番号":"51-6","座標番号":"L-19","X座標":-93494.678,"Y座標":-56103.398,"L側幅員":"","備考":""}},{"type":"Point","coordinates":[247460,637167],"properties":{"路線名":"1139 江別奈井江線","図面番号":"51-6","座標番号":"L-20","X座標":-93493.918,"Y座標":-56094.998,"L側幅員":"","備考":""}},{"type":"Point","coordinates":[251024,637578],"properties":{"路線名":"1139 江別奈井江線","図面番号":"51-6","座標番号":"L-21","X座標":-93492.208,"Y座標":-56076.078,"L側幅員":"","備考":""}},{"type":"Point","coordinates":[256653,638229],"properties":{"路線名":"1139 江別奈井江線","図面番号":"51-6","座標番号":"L-22","X座標":-93489.499,"Y座標":-56046.198,"L側幅員":"","備考":""}},{"type":"Point","coordinates":[260406,638661],"properties":{"路線名":"1139 江別奈井江線","図面番号":"51-6","座標番号":"L-23","X座標":-93487.699,"Y座標":-56026.279,"L側幅員":"","備考":""}},{"type":"Point","coordinates":[260428,638415],"properties":{"路線名":"1139 江別奈井江線","図面番号":"51-6","座標番号":"L-24","X座標":-93488.819,"Y座標":-56026.169,"L側幅員":"","備考":""}},{"type":"Point","coordinates":[262131,638634],"properties":{"路線名":"1139 江別奈井江線","図面番号":"51-6","座標番号":"L-25","X座標":-93487.899,"Y座標":-56017.129,"L側幅員":"","備考":""}},{"type":"Point","coordinates":[262110,638856],"properties":{"路線名":"1139 江別奈井江線","図面番号":"51-6","座標番号":"L-26","X座標":-93486.889,"Y座標":-56017.229,"L側幅員":"","備考":""}},{"type":"Point","coordinates":[268657,639612],"properties":{"路線名":"1139 江別奈井江線","図面番号":"51-6","座標番号":"L-27","X座標":-93483.739,"Y座標":-55982.479,"L側幅員":"","備考":""}},{"type":"Point","coordinates":[276004,640618],"properties":{"路線名":"1139 江別奈井江線","図面番号":"51-6","座標番号":"L-28","X座標":-93479.489,"Y座標":-55943.47,"L側幅員":"","備考":""}},{"type":"Point","coordinates":[281619,641388],"properties":{"路線名":"1139 江別奈井江線","図面番号":"51-6","座標番号":"L-29","X座標":-93476.239,"Y座標":-55913.66,"L側幅員":"","備考":""}},{"type":"Point","coordinates":[283402,641630],"properties":{"路線名":"1139 江別奈井江線","図面番号":"51-6","座標番号":"L-30","X座標":-93475.213,"Y座標":-55904.196,"L側幅員":"","備考":""}},{"type":"Point","coordinates":[288103,643082],"properties":{"路線名":"1139 江別奈井江線","図面番号":"51-6","座標番号":"L-31","X座標":-93468.826,"Y座標":-55879.207,"L側幅員":"","備考":""}},{"type":"Point","coordinates":[290915,643436],"properties":{"路線名":"1139 江別奈井江線","図面番号":"51-6","座標番号":"L-32","X座標":-93467.337,"Y座標":-55864.281,"L側幅員":"","備考":""}},{"type":"Point","coordinates":[295951,643834],"properties":{"路線名":"1139 江別奈井江線","図面番号":"51-6","座標番号":"L-33","X座標":-93465.75,"Y座標":-55837.551,"L側幅員":"","備考":""}},{"type":"Point","coordinates":[298133,644093],"properties":{"路線名":"1139 江別奈井江線","図面番号":"51-6","座標番号":"L-34","X座標":-93464.669,"Y座標":-55825.972,"L側幅員":"","備考":""}},{"type":"Point","coordinates":[302177,644573],"properties":{"路線名":"1139 江別奈井江線","図面番号":"51-6","座標番号":"L-35","X座標":-93462.664,"Y座標":-55804.504,"L側幅員":"","備考":""}},{"type":"Point","coordinates":[303455,644725],"properties":{"路線名":"1139 江別奈井江線","図面番号":"51-7","座標番号":"L-1","X座標":-93462.03,"Y座標":-55797.721,"L側幅員":"","備考":""}},{"type":"Point","coordinates":[304432,644408],"properties":{"路線名":"1139 江別奈井江線","図面番号":"51-7","座標番号":"L-2","X座標":-93463.51,"Y座標":-55792.551,"L側幅員":"","備考":""}},{"type":"Point","coordinates":[311603,645324],"properties":{"路線名":"1139 江別奈井江線","図面番号":"51-7","座標番号":"L-3","X座標":-93459.66,"Y座標":-55754.482,"L側幅員":"","備考":""}},{"type":"Point","coordinates":[314990,645991],"properties":{"路線名":"1139 江別奈井江線","図面番号":"51-7","座標番号":"L-4","X座標":-93456.781,"Y座標":-55736.492,"L側幅員":"","備考":""}},{"type":"Point","coordinates":[320934,646604],"properties":{"路線名":"1139 江別奈井江線","図面番号":"51-7","座標番号":"L-5","X座標":-93454.251,"Y座標":-55704.942,"L側幅員":"","備考":""}},{"type":"Point","coordinates":[326663,647276],"properties":{"路線名":"1139 江別奈井江線","図面番号":"51-7","座標番号":"L-6","X座標":-93451.449,"Y座標":-55674.531,"L側幅員":"","備考":""}},{"type":"Point","coordinates":[328416,647481],"properties":{"路線名":"1139 江別奈井江線","図面番号":"51-7","座標番号":"L-7","X座標":-93450.591,"Y座標":-55665.223,"L側幅員":"","備考":""}},{"type":"Point","coordinates":[330014,647645],"properties":{"路線名":"1139 江別奈井江線","図面番号":"51-7","座標番号":"L-8","X座標":-93449.917,"Y座標":-55656.742,"L側幅員":"","備考":""}},{"type":"Point","coordinates":[331913,647840],"properties":{"路線名":"1139 江別奈井江線","図面番号":"51-7","座標番号":"L-9","X座標":-93449.116,"Y座標":-55646.662,"L側幅員":"","備考":""}},{"type":"Point","coordinates":[336665,648326],"properties":{"路線名":"1139 江別奈井江線","図面番号":"51-7","座標番号":"L-10","X座標":-93447.111,"Y座標":-55621.443,"L側幅員":"","備考":""}},{"type":"Point","coordinates":[345270,649363],"properties":{"路線名":"1139 江別奈井江線","図面番号":"51-7","座標番号":"L-11","X座標":-93442.772,"Y座標":-55575.764,"L側幅員":"","備考":""}},{"type":"Point","coordinates":[353242,650318],"properties":{"路線名":"1139 江別奈井江線","図面番号":"51-7","座標番号":"L-12","X座標":-93438.782,"Y座標":-55533.444,"L側幅員":"","備考":""}},{"type":"Point","coordinates":[362602,651523],"properties":{"路線名":"1139 江別奈井江線","図面番号":"51-7","座標番号":"L-13","X座標":-93433.712,"Y座標":-55483.755,"L側幅員":"","備考":""}},{"type":"Point","coordinates":[371773,652761],"properties":{"路線名":"1139 江別奈井江線","図面番号":"51-7","座標番号":"L-14","X座標":-93428.483,"Y座標":-55435.066,"L側幅員":"","備考":""}},{"type":"Point","coordinates":[380769,653932],"properties":{"路線名":"1139 江別奈井江線","図面番号":"51-7","座標番号":"L-15","X座標":-93423.553,"Y座標":-55387.306,"L側幅員":"","備考":""}},{"type":"Point","coordinates":[390131,655175],"properties":{"路線名":"1139 江別奈井江線","図面番号":"51-7","座標番号":"L-16","X座標":-93418.313,"Y座標":-55337.607,"L側幅員":"","備考":""}},{"type":"Point","coordinates":[390131,655175],"properties":{"路線名":"1139 江別奈井江線","図面番号":"51-7","座標番号":"L-17","X座標":-93418.313,"Y座標":-55337.607,"L側幅員":"","備考":""}},{"type":"Point","coordinates":[393676,655659],"properties":{"路線名":"1139 江別奈井江線","図面番号":"51-7","座標番号":"L-18","X座標":-93416.263,"Y座標":-55318.787,"L側幅員":"","備考":""}},{"type":"Point","coordinates":[403026,656952],"properties":{"路線名":"1139 江別奈井江線","図面番号":"51-7","座標番号":"L-19","X座標":-93410.794,"Y座標":-55269.148,"L側幅員":"","備考":""}},{"type":"Point","coordinates":[411636,658062],"properties":{"路線名":"1139 江別奈井江線","図面番号":"51-7","座標番号":"L-20","X座標":-93406.124,"Y座標":-55223.438,"L側幅員":"","備考":""}},{"type":"Point","coordinates":[420852,659160],"properties":{"路線名":"1139 江別奈井江線","図面番号":"51-7","座標番号":"L-21","X座標":-93401.534,"Y座標":-55174.519,"L側幅員":"","備考":""}},{"type":"Point","coordinates":[424022,659621],"properties":{"路線名":"1139 江別奈井江線","図面番号":"51-7","座標番号":"L-22","X座標":-93399.574,"Y座標":-55157.689,"L側幅員":"","備考":""}},{"type":"Point","coordinates":[427285,660473],"properties":{"路線名":"1139 江別奈井江線","図面番号":"51-7","座標番号":"L-23","X座標":-93395.844,"Y座標":-55140.349,"L側幅員":"","備考":""}},{"type":"Point","coordinates":[429815,660765],"properties":{"路線名":"1139 江別奈井江線","図面番号":"51-7","座標番号":"L-24","X座標":-93394.625,"Y座標":-55126.919,"L側幅員":"","備考":""}},{"type":"Point","coordinates":[434434,660780],"properties":{"路線名":"1139 江別奈井江線","図面番号":"51-7","座標番号":"L-25","X座標":-93394.755,"Y座標":-55102.419,"L側幅員":"","備考":""}},{"type":"Point","coordinates":[442208,661791],"properties":{"路線名":"1139 江別奈井江線","図面番号":"51-7","座標番号":"L-26","X座標":-93390.495,"Y座標":-55061.15,"L側幅員":"","備考":""}},{"type":"Point","coordinates":[451551,663027],"properties":{"路線名":"1139 江別奈井江線","図面番号":"51-7","座標番号":"L-27","X座標":-93385.285,"Y座標":-55011.55,"L側幅員":"","備考":""}},{"type":"Point","coordinates":[460891,664246],"properties":{"路線名":"1139 江別奈井江線","図面番号":"51-7","座標番号":"L-28","X座標":-93380.145,"Y座標":-54961.971,"L側幅員":"","備考":""}},{"type":"Point","coordinates":[470081,665473],"properties":{"路線名":"1139 江別奈井江線","図面番号":"51-7","座標番号":"L-29","X座標":-93374.966,"Y座標":-54913.182,"L側幅員":"","備考":""}},{"type":"Point","coordinates":[470119,665057],"properties":{"路線名":"1139 江別奈井江線","図面番号":"51-7","座標番号":"L-30","X座標":-93376.856,"Y座標":-54912.992,"L側幅員":"","備考":""}},{"type":"Point","coordinates":[471824,665271],"properties":{"路線名":"1139 江別奈井江線","図面番号":"51-7","座標番号":"L-31","X座標":-93375.956,"Y座標":-54903.942,"L側幅員":"","備考":""}},{"type":"Point","coordinates":[475285,665709],"properties":{"路線名":"1139 江別奈井江線","図面番号":"51-7","座標番号":"L-32","X座標":-93374.116,"Y座標":-54885.572,"L側幅員":"","備考":""}},{"type":"Point","coordinates":[475260,666248],"properties":{"路線名":"1139 江別奈井江線","図面番号":"51-7","座標番号":"L-33","X座標":-93371.666,"Y座標":-54885.682,"L側幅員":"","備考":""}},{"type":"Point","coordinates":[492342,668421],"properties":{"路線名":"1139 江別奈井江線","図面番号":"51-8","座標番号":"L-1","X座標":-93362.526,"Y座標":-54795.003,"L側幅員":"","備考":""}},{"type":"Point","coordinates":[507190,670240],"properties":{"路線名":"1139 江別奈井江線","図面番号":"51-8","座標番号":"L-2","X座標":-93354.897,"Y座標":-54716.184,"L側幅員":"","備考":""}},{"type":"Point","coordinates":[511282,671291],"properties":{"路線名":"1139 江別奈井江線","図面番号":"51-8","座標番号":"L-3","X座標":-93350.297,"Y座標":-54694.444,"L側幅員":"","備考":""}},{"type":"Point","coordinates":[514829,671681],"properties":{"路線名":"1139 江別奈井江線","図面番号":"51-8","座標番号":"L-4","X座標":-93348.677,"Y座標":-54675.614,"L側幅員":"","備考":""}},{"type":"Point","coordinates":[518698,671706],"properties":{"路線名":"1139 江別奈井江線","図面番号":"51-8","座標番号":"L-5","X座標":-93348.727,"Y座標":-54655.094,"L側幅員":"","備考":""}},{"type":"Point","coordinates":[519866,671857],"properties":{"路線名":"1139 江別奈井江線","図面番号":"51-8","座標番号":"L-6","X座標":-93348.092,"Y座標":-54648.894,"L側幅員":"","備考":""}},{"type":"Point","coordinates":[519913,671343],"properties":{"路線名":"1139 江別奈井江線","図面番号":"51-8","座標番号":"L-7","X座標":-93350.428,"Y座標":-54648.665,"L側幅員":"","備考":""}},{"type":"Point","coordinates":[522991,671731],"properties":{"路線名":"1139 江別奈井江線","図面番号":"51-8","座標番号":"L-8","X座標":-93348.794,"Y座標":-54632.322,"L側幅員":"","備考":""}},{"type":"Point","coordinates":[522768,674141],"properties":{"路線名":"1139 江別奈井江線","図面番号":"51-8","座標番号":"L-9","X座標":-93337.837,"Y座標":-54633.416,"L側幅員":"","備考":""}},{"type":"Point","coordinates":[519590,708523],"properties":{"路線名":"1139 江別奈井江線","図面番号":"51-8","座標番号":"L-10","X座標":-93181.528,"Y座標":-54649.023,"L側幅員":"","備考":""}},{"type":"Point","coordinates":[517961,726138],"properties":{"路線名":"1139 江別奈井江線","図面番号":"51-8","座標番号":"L-11","X座標":-93101.446,"Y座標":-54657.02,"L側幅員":"","備考":""}},{"type":"Point","coordinates":[516342,743647],"properties":{"路線名":"1139 江別奈井江線","図面番号":"51-8","座標番号":"L-12","X座標":-93021.847,"Y座標":-54664.967,"L側幅員":"","備考":""}},{"type":"Point","coordinates":[514967,758520],"properties":{"路線名":"1139 江別奈井江線","図面番号":"51-8","座標番号":"L-13","X座標":-92954.227,"Y座標":-54671.719,"L側幅員":"","備考":""}},{"type":"Point","coordinates":[512843,781486],"properties":{"路線名":"1139 江別奈井江線","図面番号":"51-8","座標番号":"L-14","X座標":-92849.818,"Y座標":-54682.144,"L側幅員":"","備考":""}},{"type":"Point","coordinates":[511962,791012],"properties":{"路線名":"1139 江別奈井江線","図面番号":"51-8","座標番号":"L-15","X座標":-92806.513,"Y座標":-54686.468,"L側幅員":"","備考":""}},{"type":"Point","coordinates":[511594,794991],"properties":{"路線名":"1139 江別奈井江線","図面番号":"51-8","座標番号":"L-16","X座標":-92788.423,"Y座標":-54688.275,"L側幅員":"","備考":""}},{"type":"Point","coordinates":[515003,795415],"properties":{"路線名":"1139 江別奈井江線","図面番号":"51-8","座標番号":"L-17","X座標":-92786.641,"Y座標":-54670.181,"L側幅員":"","備考":"L-18〜22の座標欠損（世界測地系の記載なし）"}},{"type":"Point","coordinates":[567728,802538],"properties":{"路線名":"1139 江別奈井江線","図面番号":"51-9","座標番号":"L-1","X座標":-92756.523,"Y座標":-54390.3,"L側幅員":"","備考":"L-18〜22(51-8)の座標欠損（世界測地系の記載なし）"}},{"type":"Point","coordinates":[579915,804054],"properties":{"路線名":"1139 江別奈井江線","図面番号":"51-9","座標番号":"L-2","X座標":-92750.154,"Y座標":-54325.611,"L側幅員":"","備考":""}},{"type":"Point","coordinates":[589290,805220],"properties":{"路線名":"1139 江別奈井江線","図面番号":"51-9","座標番号":"L-3","X座標":-92745.255,"Y座標":-54275.852,"L側幅員":"","備考":""}},{"type":"Point","coordinates":[599227,806457],"properties":{"路線名":"1139 江別奈井江線","図面番号":"51-9","座標番号":"L-4","X座標":-92740.055,"Y座標":-54223.103,"L側幅員":"","備考":""}},{"type":"Point","coordinates":[608694,807634],"properties":{"路線名":"1139 江別奈井江線","図面番号":"51-9","座標番号":"L-5","X座標":-92735.106,"Y座標":-54172.854,"L側幅員":"","備考":""}},{"type":"Point","coordinates":[617406,808717],"properties":{"路線名":"1139 江別奈井江線","図面番号":"51-9","座標番号":"L-6","X座標":-92730.555,"Y座標":-54126.613,"L側幅員":"","備考":""}},{"type":"Point","coordinates":[616396,819662],"properties":{"路線名":"1139 江別奈井江線","図面番号":"51-9","座標番号":"L-7","X座標":-92680.796,"Y座標":-54131.574,"L側幅員":"","備考":""}},{"type":"Point","coordinates":[615384,830605],"properties":{"路線名":"1139 江別奈井江線","図面番号":"51-9","座標番号":"L-8","X座標":-92631.046,"Y座標":-54136.544,"L側幅員":"","備考":""}},{"type":"Point","coordinates":[614375,841548],"properties":{"路線名":"1139 江別奈井江線","図面番号":"51-9","座標番号":"L-9","X座標":-92581.297,"Y座標":-54141.504,"L側幅員":"","備考":""}},{"type":"Point","coordinates":[613701,848838],"properties":{"路線名":"1139 江別奈井江線","図面番号":"51-9","座標番号":"L-10","X座標":-92548.157,"Y座標":-54144.815,"L側幅員":"","備考":""}},{"type":"Point","coordinates":[612756,859059],"properties":{"路線名":"1139 江別奈井江線","図面番号":"51-9","座標番号":"L-11","X座標":-92501.688,"Y座標":-54149.455,"L側幅員":"","備考":""}},{"type":"Point","coordinates":[611881,868535],"properties":{"路線名":"1139 江別奈井江線","図面番号":"51-9","座標番号":"L-12","X座標":-92458.608,"Y座標":-54153.755,"L側幅員":"","備考":""}},{"type":"Point","coordinates":[610936,878757],"properties":{"路線名":"1139 江別奈井江線","図面番号":"51-9","座標番号":"L-13","X座標":-92412.139,"Y座標":-54158.396,"L側幅員":"","備考":""}},{"type":"Point","coordinates":[610087,887949],"properties":{"路線名":"1139 江別奈井江線","図面番号":"51-9","座標番号":"L-14","X座標":-92370.349,"Y座標":-54162.566,"L側幅員":"","備考":""}},{"type":"Point","coordinates":[609177,897799],"properties":{"路線名":"1139 江別奈井江線","図面番号":"51-9","座標番号":"L-15","X座標":-92325.57,"Y座標":-54167.037,"L側幅員":"","備考":""}},{"type":"Point","coordinates":[608126,909179],"properties":{"路線名":"1139 江別奈井江線","図面番号":"51-9","座標番号":"L-16","X座標":-92273.83,"Y座標":-54172.197,"L側幅員":"","備考":""}},{"type":"Point","coordinates":[607114,920124],"properties":{"路線名":"1139 江別奈井江線","図面番号":"51-9","座標番号":"L-17","X座標":-92224.071,"Y座標":-54177.167,"L側幅員":"","備考":""}},{"type":"Point","coordinates":[606345,928456],"properties":{"路線名":"1139 江別奈井江線","図面番号":"51-9","座標番号":"L-18","X座標":-92186.191,"Y座標":-54180.948,"L側幅員":"","備考":""}},{"type":"Point","coordinates":[605911,933192],"properties":{"路線名":"1139 江別奈井江線","図面番号":"51-9","座標番号":"L-19","X座標":-92164.661,"Y座標":-54183.078,"L側幅員":"","備考":""}},{"type":"Point","coordinates":[609688,933661],"properties":{"路線名":"1139 江別奈井江線","図面番号":"51-9","座標番号":"L-20","X座標":-92162.692,"Y座標":-54163.028,"L側幅員":"","備考":""}},{"type":"Point","coordinates":[620293,934979],"properties":{"路線名":"1139 江別奈井江線","図面番号":"51-9","座標番号":"L-21","X座標":-92157.15,"Y座標":-54106.747,"L側幅員":"","備考":""}},{"type":"Point","coordinates":[630897,936300],"properties":{"路線名":"1139 江別奈井江線","図面番号":"51-9","座標番号":"L-22","X座標":-92151.599,"Y座標":-54050.466,"L側幅員":"","備考":""}},{"type":"Point","coordinates":[631180,936245],"properties":{"路線名":"1139 江別奈井江線","図面番号":"51-9","座標番号":"L-23","X座標":-92151.859,"Y座標":-54048.966,"L側幅員":"","備考":""}},{"type":"Point","coordinates":[641117,937454],"properties":{"路線名":"1139 江別奈井江線","図面番号":"51-10","座標番号":"L-1","X座標":-92146.788,"Y座標":-53996.226,"L側幅員":"","備考":""}},{"type":"Point","coordinates":[651053,938662],"properties":{"路線名":"1139 江別奈井江線","図面番号":"51-10","座標番号":"L-2","X座標":-92141.717,"Y座標":-53943.495,"L側幅員":"","備考":""}},{"type":"Point","coordinates":[660990,939868],"properties":{"路線名":"1139 江別奈井江線","図面番号":"51-10","座標番号":"L-3","X座標":-92136.656,"Y座標":-53890.754,"L側幅員":"","備考":""}},{"type":"Point","coordinates":[670926,941076],"properties":{"路線名":"1139 江別奈井江線","図面番号":"51-10","座標番号":"L-4","X座標":-92131.585,"Y座標":-53838.023,"L側幅員":"","備考":""}},{"type":"Point","coordinates":[680863,942284],"properties":{"路線名":"1139 江別奈井江線","図面番号":"51-10","座標番号":"L-5","X座標":-92126.514,"Y座標":-53785.283,"L側幅員":"","備考":""}},{"type":"Point","coordinates":[680900,941866],"properties":{"路線名":"1139 江別奈井江線","図面番号":"51-10","座標番号":"L-6","X座標":-92128.414,"Y座標":-53785.102,"L側幅員":"","備考":""}},{"type":"Point","coordinates":[692038,943979],"properties":{"路線名":"1139 江別奈井江線","図面番号":"51-10","座標番号":"L-7","X座標":-92119.282,"Y座標":-53725.962,"L側幅員":"","備考":""}},{"type":"Point","coordinates":[693485,944437],"properties":{"路線名":"1139 江別奈井江線","図面番号":"51-10","座標番号":"L-8","X座標":-92117.262,"Y座標":-53718.272,"L側幅員":"","備考":""}},{"type":"Point","coordinates":[702847,945750],"properties":{"路線名":"1139 江別奈井江線","図面番号":"51-10","座標番号":"L-9","X座標":-92111.691,"Y座標":-53668.581,"L側幅員":"","備考":""}},{"type":"Point","coordinates":[711790,947003],"properties":{"路線名":"1139 江別奈井江線","図面番号":"51-10","座標番号":"L-10","X座標":-92106.37,"Y座標":-53621.11,"L側幅員":"","備考":""}},{"type":"Point","coordinates":[715187,947519],"properties":{"路線名":"1139 江別奈井江線","図面番号":"51-10","座標番号":"L-11","X座標":-92104.17,"Y座標":-53603.08,"L側幅員":"","備考":""}},{"type":"Point","coordinates":[721969,948533],"properties":{"路線名":"1139 江別奈井江線","図面番号":"51-10","座標番号":"L-12","X座標":-92099.849,"Y座標":-53567.079,"L側幅員":"","備考":""}},{"type":"Point","coordinates":[725167,949179],"properties":{"路線名":"1139 江別奈井江線","図面番号":"51-10","座標番号":"L-13","X座標":-92097.045,"Y座標":-53550.097,"L側幅員":"","備考":""}},{"type":"Point","coordinates":[732523,950595],"properties":{"路線名":"1139 江別奈井江線","図面番号":"51-10","座標番号":"L-14","X座標":-92090.922,"Y座標":-53511.039,"L側幅員":"","備考":""}},{"type":"Point","coordinates":[734751,951013],"properties":{"路線名":"1139 江別奈井江線","図面番号":"51-10","座標番号":"L-15","X座標":-92089.117,"Y座標":-53499.208,"L側幅員":"","備考":""}},{"type":"Point","coordinates":[734698,948543],"properties":{"路線名":"1139 江別奈井江線","図面番号":"51-10","座標番号":"L-16","X座標":-92100.333,"Y座標":-53499.579,"L側幅員":"","備考":""}},{"type":"Point","coordinates":[745080,949851],"properties":{"路線名":"1139 江別奈井江線","図面番号":"51-10","座標番号":"L-17","X座標":-92094.826,"Y座標":-53444.478,"L側幅員":"","備考":""}},{"type":"Point","coordinates":[745115,951147],"properties":{"路線名":"1139 江別奈井江線","図面番号":"51-10","座標番号":"L-18","X座標":-92088.936,"Y座標":-53444.247,"L側幅員":"","備考":""}},{"type":"Point","coordinates":[752112,951934],"properties":{"路線名":"1139 江別奈井江線","図面番号":"51-10","座標番号":"L-19","X座標":-92085.656,"Y座標":-53407.113,"L側幅員":"","備考":""}},{"type":"Point","coordinates":[754142,951942],"properties":{"路線名":"1139 江別奈井江線","図面番号":"51-10","座標番号":"L-20","X座標":-92085.705,"Y座標":-53396.346,"L側幅員":"","備考":""}},{"type":"Point","coordinates":[758708,952705],"properties":{"路線名":"1139 江別奈井江線","図面番号":"51-10","座標番号":"L-21","X座標":-92082.425,"Y座標":-53372.106,"L側幅員":"","備考":""}},{"type":"Point","coordinates":[773063,954334],"properties":{"路線名":"1139 江別奈井江線","図面番号":"51-10","座標番号":"L-22","X座標":-92075.623,"Y座標":-53295.925,"L側幅員":"","備考":""}},{"type":"Point","coordinates":[784845,955622],"properties":{"路線名":"1139 江別奈井江線","図面番号":"51-10","座標番号":"L-23","X座標":-92070.261,"Y座標":-53233.404,"L側幅員":"","備考":""}},{"type":"Point","coordinates":[795128,956791],"properties":{"路線名":"1139 江別奈井江線","図面番号":"51-10","座標番号":"L-24","X座標":-92065.38,"Y座標":-53178.833,"L側幅員":"","備考":""}},{"type":"Point","coordinates":[805360,958005],"properties":{"路線名":"1139 江別奈井江線","図面番号":"51-10","座標番号":"L-25","X座標":-92060.289,"Y座標":-53124.532,"L側幅員":"","備考":""}},{"type":"Point","coordinates":[818069,959518],"properties":{"路線名":"1139 江別奈井江線","図面番号":"51-10","座標番号":"L-26","X座標":-92053.938,"Y座標":-53057.081,"L側幅員":"","備考":""}},{"type":"Point","coordinates":[821476,959970],"properties":{"路線名":"1139 江別奈井江線","図面番号":"51-10","座標番号":"L-27","X座標":-92052.028,"Y座標":-53039.001,"L側幅員":"","備考":""}},{"type":"Point","coordinates":[834526,961586],"properties":{"路線名":"1139 江別奈井江線","図面番号":"51-11","座標番号":"L-1","X座標":-92045.227,"Y座標":-52969.741,"L側幅員":"","備考":""}},{"type":"Point","coordinates":[844019,962801],"properties":{"路線名":"1139 江別奈井江線","図面番号":"51-11","座標番号":"L-2","X座標":-92040.096,"Y座標":-52919.36,"L側幅員":"","備考":""}},{"type":"Point","coordinates":[856529,964421],"properties":{"路線名":"1139 江別奈井江線","図面番号":"51-11","座標番号":"L-3","X座標":-92033.255,"Y座標":-52852.96,"L側幅員":"","備考":""}},{"type":"Point","coordinates":[873866,966584],"properties":{"路線名":"1139 江別奈井江線","図面番号":"51-11","座標番号":"L-4","X座標":-92024.144,"Y座標":-52760.949,"L側幅員":"","備考":""}},{"type":"Point","coordinates":[889292,968553],"properties":{"路線名":"1139 江別奈井江線","図面番号":"51-11","座標番号":"L-5","X座標":-92015.832,"Y座標":-52679.078,"L側幅員":"","備考":""}},{"type":"Point","coordinates":[903524,970346],"properties":{"路線名":"1139 江別奈井江線","図面番号":"51-11","座標番号":"L-6","X座標":-92008.271,"Y座標":-52603.547,"L側幅員":"","備考":""}},{"type":"Point","coordinates":[913836,971641],"properties":{"路線名":"1139 江別奈井江線","図面番号":"51-11","座標番号":"L-7","X座標":-92002.81,"Y座標":-52548.817,"L側幅員":"","備考":""}},{"type":"Point","coordinates":[923738,972884],"properties":{"路線名":"1139 江別奈井江線","図面番号":"51-11","座標番号":"L-8","X座標":-91997.57,"Y座標":-52496.266,"L側幅員":"","備考":""}},{"type":"Point","coordinates":[927147,973309],"properties":{"路線名":"1139 江別奈井江線","図面番号":"51-11","座標番号":"L-9","X座標":-91995.779,"Y座標":-52478.176,"L側幅員":"","備考":""}},{"type":"Point","coordinates":[932068,973919],"properties":{"路線名":"1139 江別奈井江線","図面番号":"51-11","座標番号":"L-10","X座標":-91993.209,"Y座標":-52452.056,"L側幅員":"","備考":""}},{"type":"Point","coordinates":[945475,975576],"properties":{"路線名":"1139 江別奈井江線","図面番号":"51-11","座標番号":"L-11","X座標":-91986.23,"Y座標":-52380.906,"L側幅員":"","備考":""}},{"type":"Point","coordinates":[954851,976735],"properties":{"路線名":"1139 江別奈井江線","図面番号":"51-11","座標番号":"L-12","X座標":-91981.349,"Y座標":-52331.144,"L側幅員":"","備考":""}},{"type":"Point","coordinates":[965317,978028],"properties":{"路線名":"1139 江別奈井江線","図面番号":"51-11","座標番号":"L-13","X座標":-91975.902,"Y座標":-52275.603,"L側幅員":"","備考":""}},{"type":"Point","coordinates":[969779,978448],"properties":{"路線名":"1139 江別奈井江線","図面番号":"51-11","座標番号":"L-14","X座標":-91974.173,"Y座標":-52251.926,"L側幅員":"","備考":""}},{"type":"Point","coordinates":[973278,979281],"properties":{"路線名":"1139 江別奈井江線","図面番号":"51-11","座標番号":"L-15","X座標":-91970.533,"Y座標":-52233.343,"L側幅員":"","備考":""}},{"type":"Point","coordinates":[976631,980584],"properties":{"路線名":"1139 江別奈井江線","図面番号":"51-11","座標番号":"L-16","X座標":-91964.753,"Y座標":-52215.519,"L側幅員":"","備考":""}},{"type":"Point","coordinates":[979818,982364],"properties":{"路線名":"1139 江別奈井江線","図面番号":"51-11","座標番号":"L-17","X座標":-91956.794,"Y座標":-52198.555,"L側幅員":"","備考":""}},{"type":"Point","coordinates":[982735,984683],"properties":{"路線名":"1139 江別奈井江線","図面番号":"51-11","座標番号":"L-18","X座標":-91946.38,"Y座標":-52183.008,"L側幅員":"","備考":""}},{"type":"Point","coordinates":[985389,987409],"properties":{"路線名":"1139 江別奈井江線","図面番号":"51-11","座標番号":"L-19","X座標":-91934.105,"Y座標":-52168.84,"L側幅員":"","備考":""}},{"type":"Point","coordinates":[988031,990344],"properties":{"路線名":"1139 江別奈井江線","図面番号":"51-11","座標番号":"L-20","X座標":-91920.881,"Y座標":-52154.726,"L側幅員":"","備考":""}},{"type":"Point","coordinates":[989746,991349],"properties":{"路線名":"1139 江別奈井江線","図面番号":"51-11","座標番号":"L-21","X座標":-91916.384,"Y座標":-52145.598,"L側幅員":"","備考":""}},{"type":"Point","coordinates":[994947,997842],"properties":{"路線名":"1139 江別奈井江線","図面番号":"51-11","座標番号":"L-22","X座標":-91887.104,"Y座標":-52117.792,"L側幅員":"","備考":""}},{"type":"Point","coordinates":[999999,999999],"properties":{"路線名":"1139 江別奈井江線","図面番号":"51-11","座標番号":"R-21","X座標":-91877.51,"Y座標":-52090.927,"R側幅員":"","備考":""}},{"type":"Point","coordinates":[993805,992351],"properties":{"路線名":"1139 江別奈井江線","図面番号":"51-11","座標番号":"R-20","X座標":-91912.001,"Y座標":-52124.036,"R側幅員":"","備考":""}},{"type":"Point","coordinates":[993737,991269],"properties":{"路線名":"1139 江別奈井江線","図面番号":"51-11","座標番号":"R-19","X座標":-91916.911,"Y座標":-52124.438,"R側幅員":"","備考":""}},{"type":"Point","coordinates":[987912,984249],"properties":{"路線名":"1139 江別奈井江線","図面番号":"51-11","座標番号":"R-18","X座標":-91948.562,"Y座標":-52155.568,"R側幅員":"","備考":""}},{"type":"Point","coordinates":[980619,975459],"properties":{"路線名":"1139 江別奈井江線","図面番号":"51-11","座標番号":"R-17","X座標":-91988.192,"Y座標":-52194.546,"R側幅員":"","備考":""}},{"type":"Point","coordinates":[965728,973587],"properties":{"路線名":"1139 江別奈井江線","図面番号":"51-11","座標番号":"R-16","X座標":-91996.09,"Y座標":-52273.58,"R側幅員":"","備考":""}},{"type":"Point","coordinates":[955264,972272],"properties":{"路線名":"1139 江別奈井江線","図面番号":"51-11","座標番号":"R-15","X座標":-92001.638,"Y座標":-52329.111,"R側幅員":"","備考":""}},{"type":"Point","coordinates":[945890,971093],"properties":{"路線名":"1139 江別奈井江線","図面番号":"51-11","座標番号":"R-14","X座標":-92006.609,"Y座標":-52378.864,"R側幅員":"","備考":""}},{"type":"Point","coordinates":[932483,969407],"properties":{"路線名":"1139 江別奈井江線","図面番号":"51-11","座標番号":"R-13","X座標":-92013.719,"Y座標":-52450.016,"R側幅員":"","備考":""}},{"type":"Point","coordinates":[928545,968914],"properties":{"路線名":"1139 江別奈井江線","図面番号":"51-11","座標番号":"R-12","X座標":-92015.799,"Y座標":-52470.916,"R側幅員":"","備考":""}},{"type":"Point","coordinates":[927713,967269],"properties":{"路線名":"1139 江別奈井江線","図面番号":"51-11","座標番号":"R-11","X座標":-92023.24,"Y座標":-52475.386,"R側幅員":"","備考":""}},{"type":"Point","coordinates":[924166,968313],"properties":{"路線名":"1139 江別奈井江線","図面番号":"51-11","座標番号":"R-10","X座標":-92018.35,"Y座標":-52494.156,"R側幅員":"","備考":""}},{"type":"Point","coordinates":[919472,967731],"properties":{"路線名":"1139 江別奈井江線","図面番号":"51-11","座標番号":"R-9","X座標":-92020.8,"Y座標":-52519.067,"R側幅員":"","備考":""}},{"type":"Point","coordinates":[911321,966746],"properties":{"路線名":"1139 江別奈井江線","図面番号":"51-11","座標番号":"R-8","X座標":-92024.941,"Y座標":-52562.327,"R側幅員":"","備考":""}},{"type":"Point","coordinates":[893387,964416],"properties":{"路線名":"1139 江別奈井江線","図面番号":"51-11","座標番号":"R-7","X座標":-92034.792,"Y座標":-52657.508,"R側幅員":"","備考":""}},{"type":"Point","coordinates":[884925,963382],"properties":{"路線名":"1139 江別奈井江線","図面番号":"51-11","座標番号":"R-6","X座標":-92039.143,"Y座標":-52702.418,"R側幅員":"","備考":""}},{"type":"Point","coordinates":[873030,961929],"properties":{"路線名":"1139 江別奈井江線","図面番号":"51-11","座標番号":"R-5","X座標":-92045.254,"Y座標":-52765.549,"R側幅員":"","備考":""}},{"type":"Point","coordinates":[859439,960220],"properties":{"路線名":"1139 江別奈井江線","図面番号":"51-11","座標番号":"R-4","X座標":-92052.455,"Y座標":-52837.68,"R側幅員":"","備考":""}},{"type":"Point","coordinates":[850770,959085],"properties":{"路線名":"1139 江別奈井江線","図面番号":"51-11","座標番号":"R-3","X座標":-92057.256,"Y座標":-52883.69,"R側幅員":"","備考":""}},{"type":"Point","coordinates":[839525,957611],"properties":{"路線名":"1139 江別奈井江線","図面番号":"51-11","座標番号":"R-2","X座標":-92063.486,"Y座標":-52943.371,"R側幅員":"","備考":""}},{"type":"Point","coordinates":[826584,956087],"properties":{"路線名":"1139 江別奈井江線","図面番号":"51-11","座標番号":"R-1","X座標":-92069.877,"Y座標":-53012.051,"R側幅員":"","備考":""}},{"type":"Point","coordinates":[822200,955468],"properties":{"路線名":"1139 江別奈井江線","図面番号":"51-10","座標番号":"R-33","X座標":-92072.508,"Y座標":-53035.321,"R側幅員":"","備考":""}},{"type":"Point","coordinates":[821955,954862],"properties":{"路線名":"1139 江別奈井江線","図面番号":"51-10","座標番号":"R-32","X座標":-92075.248,"Y座標":-53036.642,"R側幅員":"","備考":""}},{"type":"Point","coordinates":[818585,954037],"properties":{"路線名":"1139 江別奈井江線","図面番号":"51-10","座標番号":"R-31","X座標":-92078.858,"Y座標":-53054.542,"R側幅員":"","備考":""}},{"type":"Point","coordinates":[817646,954874],"properties":{"路線名":"1139 江別奈井江線","図面番号":"51-10","座標番号":"R-30","X座標":-92075.018,"Y座標":-53059.492,"R側幅員":"","備考":""}},{"type":"Point","coordinates":[803712,953168],"properties":{"路線名":"1139 江別奈井江線","図面番号":"51-10","座標番号":"R-29","X座標":-92082.189,"Y座標":-53133.442,"R側幅員":"","備考":""}},{"type":"Point","coordinates":[791962,951647],"properties":{"路線名":"1139 江別奈井江線","図面番号":"51-10","座標番号":"R-28","X座標":-92088.611,"Y座標":-53195.803,"R側幅員":"","備考":""}},{"type":"Point","coordinates":[776681,949724],"properties":{"路線名":"1139 江別奈井江線","図面番号":"51-10","座標番号":"R-27","X座標":-92096.713,"Y座標":-53276.905,"R側幅員":"","備考":""}},{"type":"Point","coordinates":[772148,949046],"properties":{"路線名":"1139 江別奈井江線","図面番号":"51-10","座標番号":"R-26","X座標":-92099.603,"Y座標":-53300.965,"R側幅員":"","備考":""}},{"type":"Point","coordinates":[757661,947410],"properties":{"路線名":"1139 江別奈井江線","図面番号":"51-10","座標番号":"R-25","X座標":-92106.435,"Y座標":-53377.846,"R側幅員":"","備考":""}},{"type":"Point","coordinates":[754428,946469],"properties":{"路線名":"1139 江別奈井江線","図面番号":"51-10","座標番号":"R-24","X座標":-92110.575,"Y座標":-53395.027,"R側幅員":"","備考":""}},{"type":"Point","coordinates":[746392,945040],"properties":{"路線名":"1139 江別奈井江線","図面番号":"51-10","座標番号":"R-23","X座標":-92116.733,"Y座標":-53437.693,"R側幅員":"","備考":""}},{"type":"Point","coordinates":[744977,944757],"properties":{"路線名":"1139 江別奈井江線","図面番号":"51-10","座標番号":"R-22","X座標":-92117.956,"Y座標":-53445.207,"R側幅員":"","備考":""}},{"type":"Point","coordinates":[734561,938605],"properties":{"路線名":"1139 江別奈井江線","図面番号":"51-10","座標番号":"R-21","X座標":-92145.467,"Y座標":-53500.658,"R側幅員":"","備考":""}},{"type":"Point","coordinates":[734404,938701],"properties":{"路線名":"1139 江別奈井江線","図面番号":"51-10","座標番号":"R-20","X座標":-92145.027,"Y座標":-53501.488,"R側幅員":"","備考":""}},{"type":"Point","coordinates":[734388,942271],"properties":{"路線名":"1139 江別奈井江線","図面番号":"51-10","座標番号":"R-19","X座標":-92128.808,"Y座標":-53501.448,"R側幅員":"","備考":""}},{"type":"Point","coordinates":[734014,943408],"properties":{"路線名":"1139 江別奈井江線","図面番号":"51-10","座標番号":"R-18","X座標":-92123.628,"Y座標":-53503.388,"R側幅員":"","備考":""}},{"type":"Point","coordinates":[728401,942923],"properties":{"路線名":"1139 江別奈井江線","図面番号":"51-10","座標番号":"R-17","X座標":-92125.598,"Y座標":-53533.169,"R側幅員":"","備考":""}},{"type":"Point","coordinates":[722029,942371],"properties":{"路線名":"1139 江別奈井江線","図面番号":"51-10","座標番号":"R-16","X座標":-92127.839,"Y座標":-53566.979,"R側幅員":"","備考":""}},{"type":"Point","coordinates":[721021,942796],"properties":{"路線名":"1139 江別奈井江線","図面番号":"51-10","座標番号":"R-15","X座標":-92125.869,"Y座標":-53572.309,"R側幅員":"","備考":""}},{"type":"Point","coordinates":[716332,942140],"properties":{"路線名":"1139 江別奈井江線","図面番号":"51-10","座標番号":"R-14","X座標":-92128.65,"Y座標":-53597.2,"R側幅員":"","備考":""}},{"type":"Point","coordinates":[715826,940553],"properties":{"路線名":"1139 江別奈井江線","図面番号":"51-10","座標番号":"R-13","X座標":-92135.84,"Y座標":-53599.94,"R側幅員":"","備考":""}},{"type":"Point","coordinates":[713848,939656],"properties":{"路線名":"1139 江別奈井江線","図面番号":"51-10","座標番号":"R-12","X座標":-92139.83,"Y座標":-53610.46,"R側幅員":"","備考":""}},{"type":"Point","coordinates":[712513,939072],"properties":{"路線名":"1139 江別奈井江線","図面番号":"51-10","座標番号":"R-11","X座標":-92142.43,"Y座標":-53617.56,"R側幅員":"","備考":""}},{"type":"Point","coordinates":[712285,941542],"properties":{"路線名":"1139 江別奈井江線","図面番号":"51-10","座標番号":"R-10","X座標":-92131.2,"Y座標":-53618.68,"R側幅員":"","備考":""}},{"type":"Point","coordinates":[695515,939637],"properties":{"路線名":"1139 江別奈井江線","図面番号":"51-10","座標番号":"R-9","X座標":-92139.152,"Y座標":-53707.681,"R側幅員":"","備考":""}},{"type":"Point","coordinates":[686137,938485],"properties":{"路線名":"1139 江別奈井江線","図面番号":"51-10","座標番号":"R-8","X座標":-92143.993,"Y座標":-53757.452,"R側幅員":"","備考":""}},{"type":"Point","coordinates":[681267,937887],"properties":{"路線名":"1139 江別奈井江線","図面番号":"51-10","座標番号":"R-7","X座標":-92146.504,"Y座標":-53783.302,"R側幅員":"","備考":""}},{"type":"Point","coordinates":[676759,937333],"properties":{"路線名":"1139 江別奈井江線","図面番号":"51-10","座標番号":"R-6","X座標":-92148.834,"Y座標":-53807.223,"R側幅員":"","備考":""}},{"type":"Point","coordinates":[667382,936180],"properties":{"路線名":"1139 江別奈井江線","図面番号":"51-10","座標番号":"R-5","X座標":-92153.675,"Y座標":-53856.993,"R側幅員":"","備考":""}},{"type":"Point","coordinates":[663344,935683],"properties":{"路線名":"1139 江別奈井江線","図面番号":"51-10","座標番号":"R-4","X座標":-92155.766,"Y座標":-53878.424,"R側幅員":"","備考":""}},{"type":"Point","coordinates":[653041,934416],"properties":{"路線名":"1139 江別奈井江線","図面番号":"51-10","座標番号":"R-3","X座標":-92161.087,"Y座標":-53933.105,"R側幅員":"","備考":""}},{"type":"Point","coordinates":[643292,933216],"properties":{"路線名":"1139 江別奈井江線","図面番号":"51-10","座標番号":"R-2","X座標":-92166.128,"Y座標":-53984.845,"R側幅員":"","備考":""}},{"type":"Point","coordinates":[635776,932294],"properties":{"路線名":"1139 江別奈井江線","図面番号":"51-10","座標番号":"R-1","X座標":-92169.999,"Y座標":-54024.736,"R側幅員":"","備考":""}},{"type":"Point","coordinates":[623587,930794],"properties":{"路線名":"1139 江別奈井江線","図面番号":"51-9","座標番号":"R-20","X座標":-92176.3,"Y座標":-54089.427,"R側幅員":"","備考":""}},{"type":"Point","coordinates":[609735,929089],"properties":{"路線名":"1139 江別奈井江線","図面番号":"51-9","座標番号":"R-19","X座標":-92183.461,"Y座標":-54162.948,"R側幅員":"","備考":""}},{"type":"Point","coordinates":[610610,919633],"properties":{"路線名":"1139 江別奈井江線","図面番号":"51-9","座標番号":"R-18","X座標":-92226.451,"Y座標":-54158.647,"R側幅員":"","備考":""}},{"type":"Point","coordinates":[611610,908800],"properties":{"路線名":"1139 江別奈井江線","図面番号":"51-9","座標番号":"R-17","X座標":-92275.7,"Y座標":-54153.737,"R側幅員":"","備考":""}},{"type":"Point","coordinates":[612349,900811],"properties":{"路線名":"1139 江別奈井江線","図面番号":"51-9","座標番号":"R-16","X座標":-92312.02,"Y座標":-54150.107,"R側幅員":"","備考":""}},{"type":"Point","coordinates":[613359,889866],"properties":{"路線名":"1139 江別奈井江線","図面番号":"51-9","座標番号":"R-15","X座標":-92361.779,"Y座標":-54145.146,"R側幅員":"","備考":""}},{"type":"Point","coordinates":[614309,879578],"properties":{"路線名":"1139 江別奈井江線","図面番号":"51-9","座標番号":"R-14","X座標":-92408.549,"Y座標":-54140.476,"R側幅員":"","備考":""}},{"type":"Point","coordinates":[615321,868635],"properties":{"路線名":"1139 江別奈井江線","図面番号":"51-9","座標番号":"R-13","X座標":-92458.298,"Y座標":-54135.505,"R側幅員":"","備考":""}},{"type":"Point","coordinates":[616297,858064],"properties":{"路線名":"1139 江別奈井江線","図面番号":"51-9","座標番号":"R-12","X座標":-92506.357,"Y座標":-54130.715,"R側幅員":"","備考":""}},{"type":"Point","coordinates":[617353,846639],"properties":{"路線名":"1139 江別奈井江線","図面番号":"51-9","座標番号":"R-11","X座標":-92558.297,"Y座標":-54125.524,"R側幅員":"","備考":""}},{"type":"Point","coordinates":[618253,836900],"properties":{"路線名":"1139 江別奈井江線","図面番号":"51-9","座標番号":"R-10","X座標":-92602.576,"Y座標":-54121.104,"R側幅員":"","備考":""}},{"type":"Point","coordinates":[619273,825847],"properties":{"路線名":"1139 江別奈井江線","図面番号":"51-9","座標番号":"R-9","X座標":-92652.826,"Y座標":-54116.094,"R側幅員":"","備考":""}},{"type":"Point","coordinates":[620173,816107],"properties":{"路線名":"1139 江別奈井江線","図面番号":"51-9","座標番号":"R-8","X座標":-92697.105,"Y座標":-54111.673,"R側幅員":"","備考":""}},{"type":"Point","coordinates":[621184,805164],"properties":{"路線名":"1139 江別奈井江線","図面番号":"51-9","座標番号":"R-7","X座標":-92746.855,"Y座標":-54106.703,"R側幅員":"","備考":""}},{"type":"Point","coordinates":[612062,804029],"properties":{"路線名":"1139 江別奈井江線","図面番号":"51-9","座標番号":"R-6","X座標":-92751.625,"Y座標":-54155.123,"R側幅員":"","備考":""}},{"type":"Point","coordinates":[600233,802556],"properties":{"路線名":"1139 江別奈井江線","図面番号":"51-9","座標番号":"R-5","X座標":-92757.815,"Y座標":-54217.913,"R側幅員":"","備考":""}},{"type":"Point","coordinates":[591438,801462],"properties":{"路線名":"1139 江別奈井江線","図面番号":"51-9","座標番号":"R-4","X座標":-92762.415,"Y座標":-54264.592,"R側幅員":"","備考":""}},{"type":"Point","coordinates":[582908,800401],"properties":{"路線名":"1139 江別奈井江線","図面番号":"51-9","座標番号":"R-3","X座標":-92766.874,"Y座標":-54309.871,"R側幅員":"","備考":""}},{"type":"Point","coordinates":[575316,799456],"properties":{"路線名":"1139 江別奈井江線","図面番号":"51-9","座標番号":"R-2","X座標":-92770.844,"Y座標":-54350.17,"R側幅員":"","備考":""}},{"type":"Point","coordinates":[568096,798559],"properties":{"路線名":"1139 江別奈井江線","図面番号":"51-9","座標番号":"R-1","X座標":-92774.613,"Y座標":-54388.49,"R側幅員":"","備考":"R-12〜15(51-8)の座標欠損（世界測地系の記載なし）"}},{"type":"Point","coordinates":[516381,792123],"properties":{"路線名":"1139 江別奈井江線","図面番号":"51-8","座標番号":"R-11","X座標":-92801.653,"Y座標":-54662.994,"R側幅員":"","備考":"R-12〜15の座標欠損（世界測地系の記載なし）"}},{"type":"Point","coordinates":[515434,790752],"properties":{"路線名":"1139 江別奈井江線","図面番号":"51-8","座標番号":"R-10","X座標":-92807.841,"Y座標":-54668.065,"R側幅員":"","備考":""}},{"type":"Point","coordinates":[516937,774502],"properties":{"路線名":"1139 江別奈井江線","図面番号":"51-8","座標番号":"R-9","X座標":-92881.717,"Y座標":-54660.688,"R側幅員":"","備考":""}},{"type":"Point","coordinates":[518479,757818],"properties":{"路線名":"1139 江別奈井江線","図面番号":"51-8","座標番号":"R-8","X座標":-92957.567,"Y座標":-54653.114,"R側幅員":"","備考":""}},{"type":"Point","coordinates":[519750,744076],"properties":{"路線名":"1139 江別奈井江線","図面番号":"51-8","座標番号":"R-7","X座標":-93020.041,"Y座標":-54646.877,"R側幅員":"","備考":""}},{"type":"Point","coordinates":[521155,728878],"properties":{"路線名":"1139 江別奈井江線","図面番号":"51-8","座標番号":"R-6","X座標":-93089.136,"Y座標":-54639.977,"R側幅員":"","備考":""}},{"type":"Point","coordinates":[522578,713489],"properties":{"路線名":"1139 江別奈井江線","図面番号":"51-8","座標番号":"R-5","X座標":-93159.1,"Y座標":-54632.991,"R側幅員":"","備考":""}},{"type":"Point","coordinates":[524743,690070],"properties":{"路線名":"1139 江別奈井江線","図面番号":"51-8","座標番号":"R-4","X座標":-93265.571,"Y座標":-54622.361,"R側幅員":"","備考":""}},{"type":"Point","coordinates":[526767,668182],"properties":{"路線名":"1139 江別奈井江線","図面番号":"51-8","座標番号":"R-3","X座標":-93365.076,"Y座標":-54612.425,"R側幅員":"","備考":""}},{"type":"Point","coordinates":[511851,666300],"properties":{"路線名":"1139 江別奈井江線","図面番号":"51-8","座標番号":"R-2","X座標":-93372.993,"Y座標":-54691.604,"R側幅員":"","備考":""}},{"type":"Point","coordinates":[497793,664525],"properties":{"路線名":"1139 江別奈井江線","図面番号":"51-8","座標番号":"R-1","X座標":-93380.455,"Y座標":-54766.232,"R側幅員":"","備考":""}},{"type":"Point","coordinates":[472489,661330],"properties":{"路線名":"1139 江別奈井江線","図面番号":"51-7","座標番号":"R-16","X座標":-93393.886,"Y座標":-54900.562,"R側幅員":"","備考":""}},{"type":"Point","coordinates":[455620,659201],"properties":{"路線名":"1139 江別奈井江線","図面番号":"51-7","座標番号":"R-15","X座標":-93402.835,"Y座標":-54990.111,"R側幅員":"","備考":""}},{"type":"Point","coordinates":[432940,656334],"properties":{"路線名":"1139 江別奈井江線","図面番号":"51-7","座標番号":"R-14","X座標":-93414.885,"Y座標":-55110.509,"R側幅員":"","備考":""}},{"type":"Point","coordinates":[421251,654859],"properties":{"路線名":"1139 江別奈井江線","図面番号":"51-7","座標番号":"R-13","X座標":-93421.084,"Y座標":-55172.559,"R側幅員":"","備考":""}},{"type":"Point","coordinates":[417844,654429],"properties":{"路線名":"1139 江別奈井江線","図面番号":"51-7","座標番号":"R-12","X座標":-93422.894,"Y座標":-55190.649,"R側幅員":"","備考":""}},{"type":"Point","coordinates":[397226,651819],"properties":{"路線名":"1139 江別奈井江線","図面番号":"51-7","座標番号":"R-11","X座標":-93433.863,"Y座標":-55300.097,"R側幅員":"","備考":""}},{"type":"Point","coordinates":[376609,649208],"properties":{"路線名":"1139 江別奈井江線","図面番号":"51-7","座標番号":"R-10","X座標":-93444.833,"Y座標":-55409.546,"R側幅員":"","備考":""}},{"type":"Point","coordinates":[357877,646615],"properties":{"路線名":"1139 江別奈井江線","図面番号":"51-7","座標番号":"R-9","X座標":-93455.802,"Y座標":-55508.995,"R側幅員":"","備考":""}},{"type":"Point","coordinates":[335375,643986],"properties":{"路線名":"1139 江別奈井江線","図面番号":"51-7","座標番号":"R-8","X座標":-93466.771,"Y座標":-55628.443,"R側幅員":"","備考":""}},{"type":"Point","coordinates":[331990,643557],"properties":{"路線名":"1139 江別奈井江線","図面番号":"51-7","座標番号":"R-7","X座標":-93468.57,"Y座標":-55646.412,"R側幅員":"","備考":""}},{"type":"Point","coordinates":[330364,643352],"properties":{"路線名":"1139 江別奈井江線","図面番号":"51-7","座標番号":"R-6","X座標":-93469.435,"Y座標":-55655.044,"R側幅員":"","備考":""}},{"type":"Point","coordinates":[326833,642904],"properties":{"路線名":"1139 江別奈井江線","図面番号":"51-7","座標番号":"R-5","X座標":-93471.314,"Y座標":-55673.793,"R側幅員":"","備考":""}},{"type":"Point","coordinates":[315412,641457],"properties":{"路線名":"1139 江別奈井江線","図面番号":"51-7","座標番号":"R-4","X座標":-93477.39,"Y座標":-55734.422,"R側幅員":"","備考":""}},{"type":"Point","coordinates":[312002,641022],"properties":{"路線名":"1139 江別奈井江線","図面番号":"51-7","座標番号":"R-3","X座標":-93479.22,"Y座標":-55752.522,"R側幅員":"","備考":""}},{"type":"Point","coordinates":[307318,640420],"properties":{"路線名":"1139 江別奈井江線","図面番号":"51-7","座標番号":"R-2","X座標":-93481.75,"Y座標":-55777.392,"R側幅員":"","備考":""}},{"type":"Point","coordinates":[303048,639870],"properties":{"路線名":"1139 江別奈井江線","図面番号":"51-7","座標番号":"R-1","X座標":-93484.063,"Y座標":-55800.056,"R側幅員":"","備考":""}},{"type":"Point","coordinates":[301695,639697],"properties":{"路線名":"1139 江別奈井江線","図面番号":"51-6","座標番号":"R-25","X座標":-93484.79,"Y座標":-55807.241,"R側幅員":"","備考":""}},{"type":"Point","coordinates":[298973,639346],"properties":{"路線名":"1139 江別奈井江線","図面番号":"51-6","座標番号":"R-24","X座標":-93486.265,"Y座標":-55821.693,"R側幅員":"","備考":""}},{"type":"Point","coordinates":[295136,638853],"properties":{"路線名":"1139 江別奈井江線","図面番号":"51-6","座標番号":"R-23","X座標":-93488.34,"Y座標":-55842.061,"R側幅員":"","備考":""}},{"type":"Point","coordinates":[287641,637887],"properties":{"路線名":"1139 江別奈井江線","図面番号":"51-6","座標番号":"R-22","X座標":-93492.4,"Y座標":-55881.85,"R側幅員":"","備考":""}},{"type":"Point","coordinates":[282019,637164],"properties":{"路線名":"1139 江別奈井江線","図面番号":"51-6","座標番号":"R-21","X座標":-93495.439,"Y座標":-55911.7,"R側幅員":"","備考":""}},{"type":"Point","coordinates":[276398,636441],"properties":{"路線名":"1139 江別奈井江線","図面番号":"51-6","座標番号":"R-20","X座標":-93498.479,"Y座標":-55941.54,"R側幅員":"","備考":""}},{"type":"Point","coordinates":[259302,634243],"properties":{"路線名":"1139 江別奈井江線","図面番号":"51-6","座標番号":"R-19","X座標":-93507.719,"Y座標":-56032.299,"R側幅員":"","備考":""}},{"type":"Point","coordinates":[255553,633760],"properties":{"路線名":"1139 江別奈井江線","図面番号":"51-6","座標番号":"R-18","X座標":-93509.748,"Y座標":-56052.198,"R側幅員":"","備考":""}},{"type":"Point","coordinates":[248994,632918],"properties":{"路線名":"1139 江別奈井江線","図面番号":"51-6","座標番号":"R-17","X座標":-93513.288,"Y座標":-56087.018,"R側幅員":"","備考":""}},{"type":"Point","coordinates":[242436,632073],"properties":{"路線名":"1139 江別奈井江線","図面番号":"51-6","座標番号":"R-16","X座標":-93516.838,"Y座標":-56121.838,"R側幅員":"","備考":""}},{"type":"Point","coordinates":[235877,631229],"properties":{"路線名":"1139 江別奈井江線","図面番号":"51-6","座標番号":"R-15","X座標":-93520.388,"Y座標":-56156.657,"R側幅員":"","備考":""}},{"type":"Point","coordinates":[229318,630384],"properties":{"路線名":"1139 江別奈井江線","図面番号":"51-6","座標番号":"R-14","X座標":-93523.938,"Y座標":-56191.477,"R側幅員":"","備考":""}},{"type":"Point","coordinates":[222835,629543],"properties":{"路線名":"1139 江別奈井江線","図面番号":"51-6","座標番号":"R-13","X座標":-93527.477,"Y座標":-56225.897,"R側幅員":"","備考":"外れ値のためR-12除外"}},{"type":"Point","coordinates":[209642,627852],"properties":{"路線名":"1139 江別奈井江線","図面番号":"51-6","座標番号":"R-11","X座標":-93534.579,"Y座標":-56295.934,"R側幅員":"","備考":"外れ値のためR-12除外"}},{"type":"Point","coordinates":[206233,627412],"properties":{"路線名":"1139 江別奈井江線","図面番号":"51-6","座標番号":"R-10","X座標":-93536.425,"Y座標":-56314.031,"R側幅員":"","備考":""}},{"type":"Point","coordinates":[197625,626313],"properties":{"路線名":"1139 江別奈井江線","図面番号":"51-6","座標番号":"R-9","X座標":-93541.043,"Y座標":-56359.729,"R側幅員":"","備考":""}},{"type":"Point","coordinates":[188255,625115],"properties":{"路線名":"1139 江別奈井江線","図面番号":"51-6","座標番号":"R-8","X座標":-93546.07,"Y座標":-56409.475,"R側幅員":"","備考":""}},{"type":"Point","coordinates":[178884,623918],"properties":{"路線名":"1139 江別奈井江線","図面番号":"51-6","座標番号":"R-7","X座標":-93551.098,"Y座標":-56459.222,"R側幅員":"","備考":""}},{"type":"Point","coordinates":[169514,622720],"properties":{"路線名":"1139 江別奈井江線","図面番号":"51-6","座標番号":"R-6","X座標":-93556.125,"Y座標":-56508.969,"R側幅員":"","備考":""}},{"type":"Point","coordinates":[160143,621523],"properties":{"路線名":"1139 江別奈井江線","図面番号":"51-6","座標番号":"R-5","X座標":-93561.152,"Y座標":-56558.715,"R側幅員":"","備考":""}},{"type":"Point","coordinates":[150773,620325],"properties":{"路線名":"1139 江別奈井江線","図面番号":"51-6","座標番号":"R-4","X座標":-93566.18,"Y座標":-56608.462,"R側幅員":"","備考":""}},{"type":"Point","coordinates":[141402,619127],"properties":{"路線名":"1139 江別奈井江線","図面番号":"51-6","座標番号":"R-3","X座標":-93571.207,"Y座標":-56658.209,"R側幅員":"","備考":""}},{"type":"Point","coordinates":[132032,617930],"properties":{"路線名":"1139 江別奈井江線","図面番号":"51-6","座標番号":"R-2","X座標":-93576.234,"Y座標":-56707.955,"R側幅員":"","備考":""}},{"type":"Point","coordinates":[122662,616732],"properties":{"路線名":"1139 江別奈井江線","図面番号":"51-6","座標番号":"R-1","X座標":-93581.261,"Y座標":-56757.702,"R側幅員":"","備考":""}},{"type":"Point","coordinates":[113291,615534],"properties":{"路線名":"1139 江別奈井江線","図面番号":"51-5","座標番号":"R-20","X座標":-93586.289,"Y座標":-56807.448,"R側幅員":"","備考":""}},{"type":"Point","coordinates":[103921,614336],"properties":{"路線名":"1139 江別奈井江線","図面番号":"51-5","座標番号":"R-19","X座標":-93591.316,"Y座標":-56857.195,"R側幅員":"","備考":""}},{"type":"Point","coordinates":[104949,603357],"properties":{"路線名":"1139 江別奈井江線","図面番号":"51-5","座標番号":"R-18","X座標":-93641.23,"Y座標":-56852.157,"R側幅員":"","備考":""}},{"type":"Point","coordinates":[105933,592853],"properties":{"路線名":"1139 江別奈井江線","図面番号":"51-5","座標番号":"R-17","X座標":-93688.987,"Y座標":-56847.336,"R側幅員":"","備考":""}},{"type":"Point","coordinates":[106917,582349],"properties":{"路線名":"1139 江別奈井江線","図面番号":"51-5","座標番号":"R-16","X座標":-93736.744,"Y座標":-56842.516,"R側幅員":"","備考":""}},{"type":"Point","coordinates":[107942,571407],"properties":{"路線名":"1139 江別奈井江線","図面番号":"51-5","座標番号":"R-15","X座標":-93786.492,"Y座標":-56837.494,"R側幅員":"","備考":""}},{"type":"Point","coordinates":[108967,560465],"properties":{"路線名":"1139 江別奈井江線","図面番号":"51-5","座標番号":"R-14","X座標":-93836.239,"Y座標":-56832.473,"R側幅員":"","備考":""}},{"type":"Point","coordinates":[109992,549523],"properties":{"路線名":"1139 江別奈井江線","図面番号":"51-5","座標番号":"R-13","X座標":-93885.986,"Y座標":-56827.451,"R側幅員":"","備考":""}},{"type":"Point","coordinates":[111016,538581],"properties":{"路線名":"1139 江別奈井江線","図面番号":"51-5","座標番号":"R-12","X座標":-93935.733,"Y座標":-56822.43,"R側幅員":"","備考":""}},{"type":"Point","coordinates":[112041,527639],"properties":{"路線名":"1139 江別奈井江線","図面番号":"51-5","座標番号":"R-11","X座標":-93985.48,"Y座標":-56817.408,"R側幅員":"","備考":""}},{"type":"Point","coordinates":[113066,516697],"properties":{"路線名":"1139 江別奈井江線","図面番号":"51-5","座標番号":"R-10","X座標":-94035.228,"Y座標":-56812.387,"R側幅員":"","備考":""}},{"type":"Point","coordinates":[114091,505755],"properties":{"路線名":"1139 江別奈井江線","図面番号":"51-5","座標番号":"R-9","X座標":-94084.975,"Y座標":-56807.365,"R側幅員":"","備考":""}},{"type":"Point","coordinates":[115115,494814],"properties":{"路線名":"1139 江別奈井江線","図面番号":"51-5","座標番号":"R-8","X座標":-94134.722,"Y座標":-56802.344,"R側幅員":"","備考":""}},{"type":"Point","coordinates":[115488,490835],"properties":{"路線名":"1139 江別奈井江線","図面番号":"51-5","座標番号":"R-7","X座標":-94152.81,"Y座標":-56800.519,"R側幅員":"","備考":""}},{"type":"Point","coordinates":[116513,479893],"properties":{"路線名":"1139 江別奈井江線","図面番号":"51-5","座標番号":"R-6","X座標":-94202.557,"Y座標":-56795.497,"R側幅員":"","備考":""}},{"type":"Point","coordinates":[117537,468951],"properties":{"路線名":"1139 江別奈井江線","図面番号":"51-5","座標番号":"R-5","X座標":-94252.304,"Y座標":-56790.476,"R側幅員":"","備考":""}},{"type":"Point","coordinates":[118562,458009],"properties":{"路線名":"1139 江別奈井江線","図面番号":"51-5","座標番号":"R-4","X座標":-94302.052,"Y座標":-56785.454,"R側幅員":"","備考":""}},{"type":"Point","coordinates":[119587,447067],"properties":{"路線名":"1139 江別奈井江線","図面番号":"51-5","座標番号":"R-3","X座標":-94351.799,"Y座標":-56780.433,"R側幅員":"","備考":""}},{"type":"Point","coordinates":[120612,436126],"properties":{"路線名":"1139 江別奈井江線","図面番号":"51-5","座標番号":"R-2","X座標":-94401.546,"Y座標":-56775.411,"R側幅員":"","備考":""}},{"type":"Point","coordinates":[121626,425293],"properties":{"路線名":"1139 江別奈井江線","図面番号":"51-5","座標番号":"R-1","X座標":-94450.796,"Y座標":-56770.44,"R側幅員":"","備考":""}},{"type":"Point","coordinates":[122866,412053],"properties":{"路線名":"1139 江別奈井江線","図面番号":"51-4","座標番号":"R-23","X座標":-94510.99,"Y座標":-56764.364,"R側幅員":"","備考":""}},{"type":"Point","coordinates":[124422,395434],"properties":{"路線名":"1139 江別奈井江線","図面番号":"51-4","座標番号":"R-22","X座標":-94586.551,"Y座標":-56756.737,"R側幅員":"","備考":""}},{"type":"Point","coordinates":[124871,392667],"properties":{"路線名":"1139 江別奈井江線","図面番号":"51-4","座標番号":"R-21","X座標":-94599.138,"Y座標":-56754.458,"R側幅員":"","備考":""}},{"type":"Point","coordinates":[123536,392261],"properties":{"路線名":"1139 江別奈井江線","図面番号":"51-4","座標番号":"R-20","X座標":-94600.922,"Y座標":-56761.558,"R側幅員":"","備考":""}},{"type":"Point","coordinates":[124480,382286],"properties":{"路線名":"1139 江別奈井江線","図面番号":"51-4","座標番号":"R-19","X座標":-94646.275,"Y座標":-56756.927,"R側幅員":"","備考":""}},{"type":"Point","coordinates":[125749,381267],"properties":{"路線名":"1139 江別奈井江線","図面番号":"51-4","座標番号":"R-18","X座標":-94650.96,"Y座標":-56750.236,"R側幅員":"","備考":""}},{"type":"Point","coordinates":[125871,379965],"properties":{"路線名":"1139 江別奈井江線","図面番号":"51-4","座標番号":"R-17","X座標":-94656.88,"Y座標":-56749.638,"R側幅員":"","備考":""}},{"type":"Point","coordinates":[127792,380355],"properties":{"路線名":"1139 江別奈井江線","図面番号":"51-4","座標番号":"R-16","X座標":-94655.192,"Y座標":-56739.429,"R側幅員":"","備考":""}},{"type":"Point","coordinates":[128272,371529],"properties":{"路線名":"1139 江別奈井江線","図面番号":"51-4","座標番号":"R-15","X座標":-94695.302,"Y座標":-56737.219,"R側幅員":"","備考":""}},{"type":"Point","coordinates":[128177,367490],"properties":{"路線名":"1139 江別奈井江線","図面番号":"51-4","座標番号":"R-14","X座標":-94713.647,"Y座標":-56737.877,"R側幅員":"","備考":""}},{"type":"Point","coordinates":[127442,363185],"properties":{"路線名":"1139 江別奈井江線","図面番号":"51-4","座標番号":"R-13","X座標":-94733.17,"Y座標":-56741.937,"R側幅員":"","備考":""}},{"type":"Point","coordinates":[128372,353255],"properties":{"路線名":"1139 江別奈井江線","図面番号":"51-4","座標番号":"R-12","X座標":-94778.314,"Y座標":-56737.38,"R側幅員":"","備考":""}},{"type":"Point","coordinates":[129396,342313],"properties":{"路線名":"1139 江別奈井江線","図面番号":"51-4","座標番号":"R-11","X座標":-94828.061,"Y座標":-56732.358,"R側幅員":"","備考":""}},{"type":"Point","coordinates":[130421,331371],"properties":{"路線名":"1139 江別奈井江線","図面番号":"51-4","座標番号":"R-10","X座標":-94877.808,"Y座標":-56727.336,"R側幅員":"","備考":""}},{"type":"Point","coordinates":[131404,320867],"properties":{"路線名":"1139 江別奈井江線","図面番号":"51-4","座標番号":"R-9","X座標":-94925.565,"Y座標":-56722.516,"R側幅員":"","備考":""}},{"type":"Point","coordinates":[132470,309488],"properties":{"路線名":"1139 江別奈井江線","図面番号":"51-4","座標番号":"R-8","X座標":-94977.302,"Y座標":-56717.293,"R側幅員":"","備考":""}},{"type":"Point","coordinates":[133495,298546],"properties":{"路線名":"1139 江別奈井江線","図面番号":"51-4","座標番号":"R-7","X座標":-95027.049,"Y座標":-56712.271,"R側幅員":"","備考":""}},{"type":"Point","coordinates":[134519,287604],"properties":{"路線名":"1139 江別奈井江線","図面番号":"51-4","座標番号":"R-6","X座標":-95076.796,"Y座標":-56707.249,"R側幅員":"","備考":""}},{"type":"Point","coordinates":[135544,276662],"properties":{"路線名":"1139 江別奈井江線","図面番号":"51-4","座標番号":"R-5","X座標":-95126.543,"Y座標":-56702.227,"R側幅員":"","備考":""}},{"type":"Point","coordinates":[136554,267701],"properties":{"路線名":"1139 江別奈井江線","図面番号":"51-4","座標番号":"R-4","X座標":-95167.29,"Y座標":-56697.205,"R側幅員":"","備考":""}},{"type":"Point","coordinates":[137593,254778],"properties":{"路線名":"1139 江別奈井江線","図面番号":"51-4","座標番号":"R-3","X座標":-95226.037,"Y座標":-56692.184,"R側幅員":"","備考":""}},{"type":"Point","coordinates":[138387,246296],"properties":{"路線名":"1139 江別奈井江線","図面番号":"51-4","座標番号":"R-2","X座標":-95264.599,"Y座標":-56688.292,"R側幅員":"","備考":""}},{"type":"Point","coordinates":[142230,205262],"properties":{"路線名":"1139 江別奈井江線","図面番号":"51-4","座標番号":"R-1","X座標":-95451.158,"Y座標":-56669.453,"R側幅員":"","備考":""}},{"type":"Point","coordinates":[145732,167842],"properties":{"路線名":"1139 江別奈井江線","図面番号":"51-3","座標番号":"R-21","X座標":-95621.287,"Y座標":-56652.284,"R側幅員":"","備考":""}},{"type":"Point","coordinates":[146962,154711],"properties":{"路線名":"1139 江別奈井江線","図面番号":"51-3","座標番号":"R-20","X座標":-95680.986,"Y座標":-56646.254,"R側幅員":"","備考":""}},{"type":"Point","coordinates":[147584,148051],"properties":{"路線名":"1139 江別奈井江線","図面番号":"51-3","座標番号":"R-19","X座標":-95711.269,"Y座標":-56643.205,"R側幅員":"","備考":""}},{"type":"Point","coordinates":[148816,140015],"properties":{"路線名":"1139 江別奈井江線","図面番号":"51-3","座標番号":"R-18","X座標":-95747.823,"Y座標":-56636.97,"R側幅員":"","備考":""}},{"type":"Point","coordinates":[149761,131278],"properties":{"路線名":"1139 江別奈井江線","図面番号":"51-3","座標番号":"R-17","X座標":-95787.553,"Y座標":-56632.286,"R側幅員":"","備考":""}},{"type":"Point","coordinates":[150214,128117],"properties":{"路線名":"1139 江別奈井江線","図面番号":"51-3","座標番号":"R-16","X座標":-95801.929,"Y座標":-56630.005,"R側幅員":"","備考":""}},{"type":"Point","coordinates":[150446,125677],"properties":{"路線名":"1139 江別奈井江線","図面番号":"51-3","座標番号":"R-15","X座標":-95813.021,"Y座標":-56628.866,"R側幅員":"","備考":""}},{"type":"Point","coordinates":[150954,125137],"properties":{"路線名":"1139 江別奈井江線","図面番号":"51-3","座標番号":"R-14","X座標":-95815.496,"Y座標":-56626.186,"R側幅員":"","備考":""}},{"type":"Point","coordinates":[151491,119438],"properties":{"路線名":"1139 江別奈井江線","図面番号":"51-3","座標番号":"R-13","X座標":-95841.41,"Y座標":-56623.553,"R側幅員":"","備考":""}},{"type":"Point","coordinates":[150440,119304],"properties":{"路線名":"1139 江別奈井江線","図面番号":"51-3","座標番号":"R-12","X座標":-95841.971,"Y座標":-56629.134,"R側幅員":"","備考":""}},{"type":"Point","coordinates":[150519,118466],"properties":{"路線名":"1139 江別奈井江線","図面番号":"51-3","座標番号":"R-11","X座標":-95845.781,"Y座標":-56628.749,"R側幅員":"","備考":""}},{"type":"Point","coordinates":[146225,117917],"properties":{"路線名":"1139 江別奈井江線","図面番号":"51-3","座標番号":"R-10","X座標":-95848.083,"Y座標":-56651.553,"R側幅員":"","備考":""}},{"type":"Point","coordinates":[146146,118763],"properties":{"路線名":"1139 江別奈井江線","図面番号":"51-3","座標番号":"R-9","X座標":-95844.239,"Y座標":-56651.94,"R側幅員":"","備考":""}},{"type":"Point","coordinates":[137715,118083],"properties":{"路線名":"1139 江別奈井江線","図面番号":"51-3","座標番号":"R-8","X座標":-95846.957,"Y座標":-56696.696,"R側幅員":"","備考":""}},{"type":"Point","coordinates":[128911,116954],"properties":{"路線名":"1139 江別奈井江線","図面番号":"51-3","座標番号":"R-7","X座標":-95851.695,"Y座標":-56743.455,"R側幅員":"","備考":""}},{"type":"Point","coordinates":[119545,115758],"properties":{"路線名":"1139 江別奈井江線","図面番号":"51-3","座標番号":"R-6","X座標":-95856.715,"Y座標":-56793.194,"R側幅員":"","備考":""}},{"type":"Point","coordinates":[110177,114561],"properties":{"路線名":"1139 江別奈井江線","図面番号":"51-3","座標番号":"R-5","X座標":-95861.735,"Y座標":-56842.944,"R側幅員":"","備考":""}},{"type":"Point","coordinates":[100809,113365],"properties":{"路線名":"1139 江別奈井江線","図面番号":"51-3","座標番号":"R-4","X座標":-95866.755,"Y座標":-56892.694,"R側幅員":"","備考":""}},{"type":"Point","coordinates":[86796,111575],"properties":{"路線名":"1139 江別奈井江線","図面番号":"51-3","座標番号":"R-3","X座標":-95874.265,"Y座標":-56967.114,"R側幅員":"","備考":""}},{"type":"Point","coordinates":[86735,112231],"properties":{"路線名":"1139 江別奈井江線","図面番号":"51-3","座標番号":"R-2","X座標":-95871.285,"Y座標":-56967.414,"R側幅員":"","備考":""}},{"type":"Point","coordinates":[82053,111632],"properties":{"路線名":"1139 江別奈井江線","図面番号":"51-3","座標番号":"R-1","X座標":-95873.795,"Y座標":-56992.274,"R側幅員":"","備考":""}},{"type":"Point","coordinates":[72686,110436],"properties":{"路線名":"1139 江別奈井江線","図面番号":"51-2","座標番号":"R-24","X座標":-95878.815,"Y座標":-57042.024,"R側幅員":"","備考":""}},{"type":"Point","coordinates":[63318,109239],"properties":{"路線名":"1139 江別奈井江線","図面番号":"51-2","座標番号":"R-23","X座標":-95883.835,"Y座標":-57091.774,"R側幅員":"","備考":""}},{"type":"Point","coordinates":[53952,108040],"properties":{"路線名":"1139 江別奈井江線","図面番号":"51-2","座標番号":"R-22","X座標":-95888.865,"Y座標":-57141.514,"R側幅員":"","備考":""}},{"type":"Point","coordinates":[44584,106841],"properties":{"路線名":"1139 江別奈井江線","図面番号":"51-2","座標番号":"R-21","X座標":-95893.895,"Y座標":-57191.263,"R側幅員":"","備考":""}},{"type":"Point","coordinates":[44662,106009],"properties":{"路線名":"1139 江別奈井江線","図面番号":"51-2","座標番号":"R-20","X座標":-95897.675,"Y座標":-57190.883,"R側幅員":"","備考":""}},{"type":"Point","coordinates":[37791,104916],"properties":{"路線名":"1139 江別奈井江線","図面番号":"51-2","座標番号":"R-19","X座標":-95902.335,"Y座標":-57227.383,"R側幅員":"","備考":""}},{"type":"Point","coordinates":[33679,103498],"properties":{"路線名":"1139 江別奈井江線","図面番号":"51-2","座標番号":"R-18","X座標":-95908.595,"Y座標":-57249.253,"R側幅員":"","備考":""}},{"type":"Point","coordinates":[29271,100771],"properties":{"路線名":"1139 江別奈井江線","図面番号":"51-2","座標番号":"R-17","X座標":-95920.785,"Y座標":-57272.743,"R側幅員":"","備考":""}},{"type":"Point","coordinates":[25932,96517],"properties":{"路線名":"1139 江別奈井江線","図面番号":"51-2","座標番号":"R-16","X座標":-95939.955,"Y座標":-57290.623,"R側幅員":"","備考":""}},{"type":"Point","coordinates":[23765,91490],"properties":{"路線名":"1139 江別奈井江線","図面番号":"51-2","座標番号":"R-15","X座標":-95962.695,"Y座標":-57302.313,"R側幅員":"","備考":""}},{"type":"Point","coordinates":[22266,85384],"properties":{"路線名":"1139 江別奈井江線","図面番号":"51-2","座標番号":"R-14","X座標":-95990.365,"Y座標":-57310.503,"R側幅員":"","備考":""}},{"type":"Point","coordinates":[19442,68173],"properties":{"路線名":"1139 江別奈井江線","図面番号":"51-2","座標番号":"R-13","X座標":-96068.415,"Y座標":-57326.144,"R側幅員":"","備考":""}},{"type":"Point","coordinates":[18933,64540],"properties":{"路線名":"1139 江別奈井江線","図面番号":"51-2","座標番号":"R-12","X座標":-96084.895,"Y座標":-57328.983,"R側幅員":"","備考":""}},{"type":"Point","coordinates":[17469,55230],"properties":{"路線名":"1139 江別奈井江線","図面番号":"51-2","座標番号":"R-11","X座標":-96127.121,"Y座標":-57337.106,"R側幅員":"","備考":""}},{"type":"Point","coordinates":[16908,52636],"properties":{"路線名":"1139 江別奈井江線","図面番号":"51-2","座標番号":"R-10","X座標":-96138.878,"Y座標":-57340.182,"R側幅員":"","備考":""}},{"type":"Point","coordinates":[16739,52662],"properties":{"路線名":"1139 江別奈井江線","図面番号":"51-2","座標番号":"R-9","X座標":-96138.753,"Y座標":-57341.076,"R側幅員":"","備考":""}},{"type":"Point","coordinates":[16329,50306],"properties":{"路線名":"1139 江別奈井江線","図面番号":"51-2","座標番号":"R-8","X座標":-96149.434,"Y座標":-57343.344,"R側幅員":"","備考":""}},{"type":"Point","coordinates":[16498,48263],"properties":{"路線名":"1139 江別奈井江線","図面番号":"51-2","座標番号":"R-7","X座標":-96158.724,"Y座標":-57342.524,"R側幅員":"","備考":""}},{"type":"Point","coordinates":[16083,44694],"properties":{"路線名":"1139 江別奈井江線","図面番号":"51-2","座標番号":"R-6","X座標":-96174.914,"Y座標":-57344.864,"R側幅員":"","備考":""}},{"type":"Point","coordinates":[15910,44519],"properties":{"路線名":"1139 江別奈井江線","図面番号":"51-2","座標番号":"R-5","X座標":-96175.705,"Y座標":-57345.785,"R側幅員":"","備考":""}},{"type":"Point","coordinates":[14012,33365],"properties":{"路線名":"1139 江別奈井江線","図面番号":"51-2","座標番号":"R-4","X座標":-96226.283,"Y座標":-57356.284,"R側幅員":"","備考":""}},{"type":"Point","coordinates":[12923,26588],"properties":{"路線名":"1139 江別奈井江線","図面番号":"51-2","座標番号":"R-3","X座標":-96257.02,"Y座標":-57362.323,"R側幅員":"","備考":""}},{"type":"Point","coordinates":[12739,25127],"properties":{"路線名":"1139 江別奈井江線","図面番号":"51-2","座標番号":"R-2","X座標":-96263.644,"Y座標":-57363.355,"R側幅員":"","備考":""}},{"type":"Point","coordinates":[11921,13033],"properties":{"路線名":"1139 江別奈井江線","図面番号":"51-2","座標番号":"R-1","X座標":-96318.543,"Y座標":-57368.155,"R側幅員":"","備考":""}},{"type":"Point","coordinates":[10808,2719],"properties":{"路線名":"1139 江別奈井江線","図面番号":"51-1","座標番号":"R-2","X座標":-96365.343,"Y座標":-57374.455,"R側幅員":"","備考":"幅員欠損"}},{"type":"Point","coordinates":[12132,0],"properties":{"路線名":"1139 江別奈井江線","図面番号":"51-1","座標番号":"R-1","X座標":-96377.753,"Y座標":-57367.535,"R側幅員":30.45,"備考":""}}]}},"arcs":[[[0,1697],[3669,490],[3812,20291],[1208,4965],[1518,8986],[1125,7441],[-741,1270],[-265,41],[677,5949],[1154,-180],[362,2368],[770,5049],[-302,46],[493,3721],[2075,11753],[99,-12],[505,3318],[2407,15765],[3271,7748],[3591,3333],[2502,2178],[1935,1430],[2425,1054],[3730,1091],[2431,548],[2418,314],[3342,165],[9368,1197],[9365,1197],[9368,1199],[9368,1197],[9368,1196],[9368,1197],[9366,1196],[9368,1199],[9368,1196],[8289,1064],[462,169],[5863,1067],[25,-424],[2182,278],[944,1374],[-321,3435],[-159,-28],[-995,10967],[-677,8108],[37,115],[-969,10354],[-1025,10942],[-1024,10940],[-1025,10943],[-1024,10942],[-1024,10943],[-821,8752],[-1024,10942],[-1024,10943],[-1022,10924],[-1024,10942],[-1025,10942],[-1024,10942],[-1025,10942],[-1025,10941],[-1024,10942],[-1025,10942],[-1025,10942],[-1024,10942],[-983,10500],[-223,-29],[-440,3565],[328,43],[-1226,13092],[64,1274],[545,833],[-1068,11319],[-1472,1035],[-963,8747],[4,7639],[-1301,13909],[-1025,10942],[-1025,10941],[-1024,10942],[-1025,10942],[-1025,10942],[-1025,10942],[-372,3979],[-1025,10941],[-1025,10942],[-1025,10942],[-773,8250],[-1276,13634],[-1025,10942],[-709,7572],[-1212,12933],[-1135,12124],[-962,10263],[-1028,10978],[-373,3978],[3407,438],[9371,1198],[9370,1198],[9370,1198],[9371,1198],[9370,1198],[9371,1197],[9370,1198],[9464,1209],[9277,1186],[9371,1197],[8607,1100],[3410,442],[6427,826],[-17,597],[1588,226],[3559,512],[8100,974],[6526,759],[6749,833],[3676,425],[1582,182],[3564,411],[5629,651],[3753,432],[22,-246],[1703,219],[-21,222],[6547,756],[7347,1006],[5615,770],[1783,242],[4701,1452],[2812,354],[5036,398],[2182,259],[4044,480],[1278,152],[977,-317],[7171,916],[3387,667],[5944,613],[5729,672],[1753,205],[1598,164],[1899,195],[4752,486],[8605,1037],[7972,955],[9360,1205],[9171,1238],[8996,1171],[9362,1243],[3545,484],[9350,1293],[8610,1110],[9216,1098],[3170,461],[3263,852],[2530,292],[4619,15],[7774,1011],[9343,1236],[9340,1219],[9190,1227],[38,-416],[1705,214],[3461,438],[-25,539],[17082,2173],[14848,1819],[4092,1051],[3547,390],[3869,25],[1168,151],[47,-514],[3078,388],[-223,2410],[-3178,34382],[-1629,17615],[-1619,17509],[-1375,14873],[-2124,22966],[-881,9526],[-368,3979],[3409,424],[52725,7123],[12187,1516],[9375,1166],[9937,1237],[9467,1177],[8712,1083],[-1010,10945],[-1012,10943],[-1009,10943],[-674,7290],[-945,10221],[-875,9476],[-945,10222],[-849,9192],[-910,9850],[-1051,11380],[-1012,10945],[-769,8332],[-434,4736],[3777,469],[10605,1318],[10604,1321],[283,-55],[9937,1209],[9936,1208],[9937,1206],[9936,1208],[9937,1208],[37,-418],[11138,2113],[1447,458],[9362,1313],[8943,1253],[3397,516],[6782,1014],[3198,646],[7356,1416],[2228,418],[-53,-2470],[10382,1308],[35,1296],[6997,787],[2030,8],[4566,763],[14355,1629],[11782,1288],[10283,1169],[10232,1214],[12709,1513],[3407,452],[13050,1616],[9493,1215],[12510,1620],[17337,2163],[15426,1969],[14232,1793],[10312,1295],[9902,1243],[3409,425],[4921,610],[13407,1657],[9376,1159],[10466,1293],[4462,420],[3499,833],[3353,1303],[3187,1780],[2917,2319],[2654,2726],[2642,2935],[1715,1005],[5201,6493],[5052,2157],[-6194,-7648],[-68,-1082],[-5825,-7020],[-7293,-8790],[-14891,-1872],[-10464,-1315],[-9374,-1179],[-13407,-1686],[-3938,-493],[-832,-1645],[-3547,1044],[-4694,-582],[-8151,-985],[-17934,-2330],[-8462,-1034],[-11895,-1453],[-13591,-1709],[-8669,-1135],[-11245,-1474],[-12941,-1524],[-4384,-619],[-245,-606],[-3370,-825],[-939,837],[-13934,-1706],[-11750,-1521],[-15281,-1923],[-4533,-678],[-14487,-1636],[-3233,-941],[-8036,-1429],[-1415,-283],[-10416,-6152],[-157,96],[-16,3570],[-374,1137],[-5613,-485],[-6372,-552],[-1008,425],[-4689,-656],[-506,-1587],[-1978,-897],[-1335,-584],[-228,2470],[-16770,-1905],[-9378,-1152],[-4870,-598],[-4508,-554],[-9377,-1153],[-4038,-497],[-10303,-1267],[-9749,-1200],[-7516,-922],[-12189,-1500],[-13852,-1705],[875,-9456],[1000,-10833],[739,-7989],[1010,-10945],[950,-10288],[1012,-10943],[976,-10571],[1056,-11425],[900,-9739],[1020,-11053],[900,-9740],[1011,-10943],[-9122,-1135],[-11829,-1473],[-8795,-1094],[-8530,-1061],[-7592,-945],[-7220,-897],[-51715,-6436],[-947,-1371],[1503,-16250],[1542,-16684],[1271,-13742],[1405,-15198],[1423,-15389],[2165,-23419],[2024,-21888],[-14916,-1882],[-14058,-1775],[-25304,-3195],[-16869,-2129],[-22680,-2867],[-11689,-1475],[-3407,-430],[-20618,-2610],[-20617,-2611],[-18732,-2593],[-22502,-2629],[-3385,-429],[-1626,-205],[-3531,-448],[-11421,-1447],[-3410,-435],[-4684,-602],[-4270,-550],[-1353,-173],[-2722,-351],[-3837,-493],[-7495,-966],[-5622,-723],[-5621,-723],[-17096,-2198],[-3749,-483],[-6559,-842],[-6558,-845],[-6559,-844],[-6559,-845],[-6483,-841],[-13193,-1691],[-3409,-440],[-8608,-1099],[-9370,-1198],[-9371,-1197],[-9370,-1198],[-9371,-1197],[-9370,-1198],[-9371,-1198],[-9370,-1197],[-9370,-1198],[-9371,-1198],[-9370,-1198],[1028,-10979],[984,-10504],[984,-10504],[1025,-10942],[1025,-10942],[1025,-10942],[1024,-10942],[1025,-10942],[1025,-10942],[1025,-10942],[1024,-10941],[373,-3979],[1025,-10942],[1024,-10942],[1025,-10942],[1025,-10942],[1025,-10941],[1014,-10833],[1240,-13240],[1556,-16619],[449,-2767],[-1335,-406],[944,-9975],[1269,-1019],[122,-1302],[1921,390],[480,-8826],[-95,-4039],[-735,-4305],[930,-9930],[1024,-10942],[1025,-10942],[983,-10504],[1066,-11379],[1025,-10942],[1024,-10942],[1025,-10942],[1010,-8961],[1039,-12923],[794,-8482],[3843,-41034],[3502,-37420],[1230,-13131],[622,-6660],[1232,-8036],[945,-8737],[453,-3161],[232,-2440],[508,-540],[537,-5699],[-1051,-134],[79,-838],[-4294,-549],[-79,846],[-8431,-680],[-8804,-1129],[-9366,-1196],[-9368,-1197],[-9368,-1196],[-14013,-1790],[-61,656],[-4682,-599],[-9367,-1196],[-9368,-1197],[-9366,-1199],[-9368,-1199],[78,-832],[-6871,-1093],[-4112,-1418],[-4408,-2727],[-3339,-4254],[-2167,-5027],[-1499,-6106],[-2824,-17211],[-509,-3633],[-1464,-9310],[-561,-2594],[-169,26],[-410,-2356],[169,-2043],[-415,-3569],[-173,-175],[-1898,-11154],[-1089,-6777],[-184,-1461],[-818,-12094],[-1113,-10314],[1324,-2719],[-12132,1697]]],"bbox":[141.54410554,43.13028368,141.60932428,43.17117427],"transform":{"scale":[6.521880521881115e-8,4.0890630890634504e-8],"translate":[141.54410554,43.13028368]}}
