{"type":"Topology","objects":{"01459-4500-33":{"type":"GeometryCollection","geometries":[{"type":"MultiPolygon","arcs":[[[0]]],"properties":{"筆ID":"H000000001","version":"ver1.0","座標系":"任意座標系","測地系判別":null,"地図名":"美瑛町栄町１丁目他（１０００）・図郭無","地図番号":"切157-1-4","縮尺分母":"1000","市区町村コード":"01459","市区町村名":"上川郡美瑛町","大字コード":"035","丁目コード":"001","小字コード":"0000","予備コード":"00","大字名":"中町","丁目名":"１丁目","小字名":null,"予備名":null,"地番":"10725-2","精度区分":null,"座標値種別":"図上測量","筆界未定構成筆":null,"代表点緯度":-45353.2305,"代表点経度":17871.8035}}]}},"arcs":[[[108713,999999],[891286,-906230],[-108713,-93769],[-891286,906230],[108713,93769]]],"bbox":[17866.312,-45359.096,17877.295,-45347.365],"transform":{"scale":[0.00001098301098300752,0.000011731011731011499],"translate":[17866.312,-45359.096]}}
