{"type":"Topology","objects":{"01571-4302-25.featurecollection":{"type":"GeometryCollection","geometries":[{"type":"Polygon","arcs":[[0,1,2,3,4,5]],"properties":{"市区町村名":"虻田郡豊浦町","大字名":null,"丁目名":null,"小字名":"字美和","地番":"312-136","精度区分":null,"座標系":"任意座標系"}},{"type":"Polygon","arcs":[[6,7,8]],"properties":{"市区町村名":"虻田郡豊浦町","大字名":null,"丁目名":null,"小字名":"字美和","地番":"312-143","精度区分":null,"座標系":"任意座標系"}},{"type":"Polygon","arcs":[[9,10,11,12]],"properties":{"市区町村名":"虻田郡豊浦町","大字名":null,"丁目名":null,"小字名":"字美和","地番":"312-29","精度区分":null,"座標系":"任意座標系"}},{"type":"Polygon","arcs":[[13,14,15,16]],"properties":{"市区町村名":"虻田郡豊浦町","大字名":null,"丁目名":null,"小字名":"字美和","地番":"312-150","精度区分":null,"座標系":"任意座標系"}},{"type":"Polygon","arcs":[[17,18,19,20]],"properties":{"市区町村名":"虻田郡豊浦町","大字名":null,"丁目名":null,"小字名":"字美和","地番":"312-144","精度区分":null,"座標系":"任意座標系"}},{"type":"Polygon","arcs":[[21,22,23]],"properties":{"市区町村名":"虻田郡豊浦町","大字名":null,"丁目名":null,"小字名":"字美和","地番":"312-65","精度区分":null,"座標系":"任意座標系"}},{"type":"Polygon","arcs":[[24,25,26,27]],"properties":{"市区町村名":"虻田郡豊浦町","大字名":null,"丁目名":null,"小字名":"字美和","地番":"312-80","精度区分":null,"座標系":"任意座標系"}},{"type":"Polygon","arcs":[[28,29,30,-23]],"properties":{"市区町村名":"虻田郡豊浦町","大字名":null,"丁目名":null,"小字名":"字美和","地番":"312-66","精度区分":null,"座標系":"任意座標系"}},{"type":"Polygon","arcs":[[-30,31,32,33]],"properties":{"市区町村名":"虻田郡豊浦町","大字名":null,"丁目名":null,"小字名":"字美和","地番":"312-67","精度区分":null,"座標系":"任意座標系"}},{"type":"Polygon","arcs":[[34,35,36,-33]],"properties":{"市区町村名":"虻田郡豊浦町","大字名":null,"丁目名":null,"小字名":"字美和","地番":"312-68","精度区分":null,"座標系":"任意座標系"}},{"type":"Polygon","arcs":[[-36,37,38,39]],"properties":{"市区町村名":"虻田郡豊浦町","大字名":null,"丁目名":null,"小字名":"字美和","地番":"312-69","精度区分":null,"座標系":"任意座標系"}},{"type":"Polygon","arcs":[[40,41,42,-39]],"properties":{"市区町村名":"虻田郡豊浦町","大字名":null,"丁目名":null,"小字名":"字美和","地番":"312-70","精度区分":null,"座標系":"任意座標系"}},{"type":"Polygon","arcs":[[-42,43,44,45]],"properties":{"市区町村名":"虻田郡豊浦町","大字名":null,"丁目名":null,"小字名":"字美和","地番":"312-71","精度区分":null,"座標系":"任意座標系"}},{"type":"Polygon","arcs":[[46,47,48,-45]],"properties":{"市区町村名":"虻田郡豊浦町","大字名":null,"丁目名":null,"小字名":"字美和","地番":"312-72","精度区分":null,"座標系":"任意座標系"}},{"type":"Polygon","arcs":[[49,50,51,52]],"properties":{"市区町村名":"虻田郡豊浦町","大字名":null,"丁目名":null,"小字名":"字美和","地番":"312-74","精度区分":null,"座標系":"任意座標系"}},{"type":"Polygon","arcs":[[53,54,55,-52]],"properties":{"市区町村名":"虻田郡豊浦町","大字名":null,"丁目名":null,"小字名":"字美和","地番":"312-75","精度区分":null,"座標系":"任意座標系"}},{"type":"Polygon","arcs":[[-55,56,57,58]],"properties":{"市区町村名":"虻田郡豊浦町","大字名":null,"丁目名":null,"小字名":"字美和","地番":"312-76","精度区分":null,"座標系":"任意座標系"}},{"type":"Polygon","arcs":[[59,60,61,-58]],"properties":{"市区町村名":"虻田郡豊浦町","大字名":null,"丁目名":null,"小字名":"字美和","地番":"312-77","精度区分":null,"座標系":"任意座標系"}},{"type":"Polygon","arcs":[[-61,62,63,64]],"properties":{"市区町村名":"虻田郡豊浦町","大字名":null,"丁目名":null,"小字名":"字美和","地番":"312-78","精度区分":null,"座標系":"任意座標系"}},{"type":"Polygon","arcs":[[65,66,67,68,-64]],"properties":{"市区町村名":"虻田郡豊浦町","大字名":null,"丁目名":null,"小字名":"字美和","地番":"312-79","精度区分":null,"座標系":"任意座標系"}},{"type":"Polygon","arcs":[[-68,69,70,-28,71]],"properties":{"市区町村名":"虻田郡豊浦町","大字名":null,"丁目名":null,"小字名":"字美和","地番":"312-145","精度区分":null,"座標系":"任意座標系"}},{"type":"Polygon","arcs":[[72,73,74,75]],"properties":{"市区町村名":"虻田郡豊浦町","大字名":null,"丁目名":null,"小字名":"字美和","地番":"312-83","精度区分":null,"座標系":"任意座標系"}},{"type":"Polygon","arcs":[[-75,76,77]],"properties":{"市区町村名":"虻田郡豊浦町","大字名":null,"丁目名":null,"小字名":"字美和","地番":"312-89","精度区分":null,"座標系":"任意座標系"}},{"type":"Polygon","arcs":[[78,79,80,81,82,83,84]],"properties":{"市区町村名":"虻田郡豊浦町","大字名":null,"丁目名":null,"小字名":"字美和","地番":"312-93","精度区分":null,"座標系":"任意座標系"}},{"type":"Polygon","arcs":[[85,86,87,88]],"properties":{"市区町村名":"虻田郡豊浦町","大字名":null,"丁目名":null,"小字名":"字美和","地番":"312-107","精度区分":null,"座標系":"任意座標系"}},{"type":"Polygon","arcs":[[89,90,91,-88]],"properties":{"市区町村名":"虻田郡豊浦町","大字名":null,"丁目名":null,"小字名":"字美和","地番":"312-138","精度区分":null,"座標系":"任意座標系"}},{"type":"Polygon","arcs":[[92,93,-83,94]],"properties":{"市区町村名":"虻田郡豊浦町","大字名":null,"丁目名":null,"小字名":"字美和","地番":"312-109","精度区分":null,"座標系":"任意座標系"}},{"type":"Polygon","arcs":[[-74,95,96,-77]],"properties":{"市区町村名":"虻田郡豊浦町","大字名":null,"丁目名":null,"小字名":"字美和","地番":"312-90","精度区分":null,"座標系":"任意座標系"}},{"type":"Polygon","arcs":[[-73,97,98,99]],"properties":{"市区町村名":"虻田郡豊浦町","大字名":null,"丁目名":null,"小字名":"字美和","地番":"312-84","精度区分":null,"座標系":"任意座標系"}},{"type":"Polygon","arcs":[[-96,-100,100,101]],"properties":{"市区町村名":"虻田郡豊浦町","大字名":null,"丁目名":null,"小字名":"字美和","地番":"312-91","精度区分":null,"座標系":"任意座標系"}},{"type":"Polygon","arcs":[[102,-89,-92,103,-79,104,-101]],"properties":{"市区町村名":"虻田郡豊浦町","大字名":null,"丁目名":null,"小字名":"字美和","地番":"312-92","精度区分":null,"座標系":"任意座標系"}},{"type":"Polygon","arcs":[[105,106,107,-80]],"properties":{"市区町村名":"虻田郡豊浦町","大字名":null,"丁目名":null,"小字名":"字美和","地番":"312-86","精度区分":null,"座標系":"任意座標系"}},{"type":"Polygon","arcs":[[108,-106,-104,-91]],"properties":{"市区町村名":"虻田郡豊浦町","大字名":null,"丁目名":null,"小字名":"字美和","地番":"312-139","精度区分":null,"座標系":"任意座標系"}},{"type":"Polygon","arcs":[[109,-86,-103,-99]],"properties":{"市区町村名":"虻田郡豊浦町","大字名":null,"丁目名":null,"小字名":"字美和","地番":"312-85","精度区分":null,"座標系":"任意座標系"}},{"type":"Polygon","arcs":[[110,111,-81,-108]],"properties":{"市区町村名":"虻田郡豊浦町","大字名":null,"丁目名":null,"小字名":"字美和","地番":"312-108","精度区分":null,"座標系":"任意座標系"}},{"type":"Polygon","arcs":[[-112,112,-95,-82]],"properties":{"市区町村名":"虻田郡豊浦町","大字名":null,"丁目名":null,"小字名":"字美和","地番":"312-146","精度区分":null,"座標系":"任意座標系"}},{"type":"Polygon","arcs":[[113,114,115]],"properties":{"市区町村名":"虻田郡豊浦町","大字名":null,"丁目名":null,"小字名":"字美和","地番":"312-106","精度区分":null,"座標系":"任意座標系"}},{"type":"Polygon","arcs":[[116,117,-115,118]],"properties":{"市区町村名":"虻田郡豊浦町","大字名":null,"丁目名":null,"小字名":"字美和","地番":"312-110","精度区分":null,"座標系":"任意座標系"}},{"type":"Polygon","arcs":[[119,120,121,122,123]],"properties":{"市区町村名":"虻田郡豊浦町","大字名":null,"丁目名":null,"小字名":"字美和","地番":"312-87","精度区分":null,"座標系":"任意座標系"}},{"type":"Polygon","arcs":[[124,125,126,-117,127,-121]],"properties":{"市区町村名":"虻田郡豊浦町","大字名":null,"丁目名":null,"小字名":"字美和","地番":"312-88","精度区分":null,"座標系":"任意座標系"}},{"type":"Polygon","arcs":[[128,-116,-118,-127,129]],"properties":{"市区町村名":"虻田郡豊浦町","大字名":null,"丁目名":null,"小字名":"字美和","地番":"312-132","精度区分":null,"座標系":"任意座標系"}},{"type":"Polygon","arcs":[[130,131,-130,-126]],"properties":{"市区町村名":"虻田郡豊浦町","大字名":null,"丁目名":null,"小字名":"字美和","地番":"312-131","精度区分":null,"座標系":"任意座標系"}},{"type":"Polygon","arcs":[[132,-131,-125,133]],"properties":{"市区町村名":"虻田郡豊浦町","大字名":null,"丁目名":null,"小字名":"字美和","地番":"312-82","精度区分":null,"座標系":"任意座標系"}},{"type":"Polygon","arcs":[[134,135,136,137]],"properties":{"市区町村名":"虻田郡豊浦町","大字名":null,"丁目名":null,"小字名":"字美和","地番":"312-95","精度区分":null,"座標系":"任意座標系"}},{"type":"Polygon","arcs":[[-136,138,139]],"properties":{"市区町村名":"虻田郡豊浦町","大字名":null,"丁目名":null,"小字名":"字美和","地番":"312-113","精度区分":null,"座標系":"任意座標系"}},{"type":"Polygon","arcs":[[140,141,142,143,144]],"properties":{"市区町村名":"虻田郡豊浦町","大字名":null,"丁目名":null,"小字名":"字美和","地番":"312-111","精度区分":null,"座標系":"任意座標系"}},{"type":"Polygon","arcs":[[145,146,147,148]],"properties":{"市区町村名":"虻田郡豊浦町","大字名":null,"丁目名":null,"小字名":"字美和","地番":"312-142","精度区分":null,"座標系":"任意座標系"}},{"type":"Polygon","arcs":[[149,150,151,152]],"properties":{"市区町村名":"虻田郡豊浦町","大字名":null,"丁目名":null,"小字名":"字美和","地番":"312-96","精度区分":null,"座標系":"任意座標系"}},{"type":"Polygon","arcs":[[153,154,-146,155,156,157,158]],"properties":{"市区町村名":"虻田郡豊浦町","大字名":null,"丁目名":null,"小字名":"字美和","地番":"312-125","精度区分":null,"座標系":"任意座標系"}},{"type":"Polygon","arcs":[[159,160,161,162]],"properties":{"市区町村名":"虻田郡豊浦町","大字名":null,"丁目名":null,"小字名":"字美和","地番":"312-121","精度区分":null,"座標系":"任意座標系"}},{"type":"Polygon","arcs":[[163,-159,164,165,-161,166]],"properties":{"市区町村名":"虻田郡豊浦町","大字名":null,"丁目名":null,"小字名":"字美和","地番":"312-122","精度区分":null,"座標系":"任意座標系"}},{"type":"Polygon","arcs":[[167,168,-167,-160]],"properties":{"市区町村名":"虻田郡豊浦町","大字名":null,"丁目名":null,"小字名":"字美和","地番":"312-98","精度区分":null,"座標系":"任意座標系"}},{"type":"Polygon","arcs":[[169,-168,170,171]],"properties":{"市区町村名":"虻田郡豊浦町","大字名":null,"丁目名":null,"小字名":"字美和","地番":"312-119","精度区分":null,"座標系":"任意座標系"}},{"type":"Polygon","arcs":[[172,173,-172,174]],"properties":{"市区町村名":"虻田郡豊浦町","大字名":null,"丁目名":null,"小字名":"字美和","地番":"312-118","精度区分":null,"座標系":"任意座標系"}},{"type":"Polygon","arcs":[[175,-173,176,177]],"properties":{"市区町村名":"虻田郡豊浦町","大字名":null,"丁目名":null,"小字名":"字美和","地番":"312-117","精度区分":null,"座標系":"任意座標系"}},{"type":"Polygon","arcs":[[178,-178,179,180]],"properties":{"市区町村名":"虻田郡豊浦町","大字名":null,"丁目名":null,"小字名":"字美和","地番":"312-97","精度区分":null,"座標系":"任意座標系"}},{"type":"Polygon","arcs":[[181,182,183,184]],"properties":{"市区町村名":"虻田郡豊浦町","大字名":null,"丁目名":null,"小字名":"字美和","地番":"312-116","精度区分":null,"座標系":"任意座標系"}},{"type":"Polygon","arcs":[[-180,-177,-175,-171,-163,185,-184]],"properties":{"市区町村名":"虻田郡豊浦町","大字名":null,"丁目名":null,"小字名":"字美和","地番":"312-120","精度区分":null,"座標系":"任意座標系"}},{"type":"Polygon","arcs":[[186,187,-182,188,189]],"properties":{"市区町村名":"虻田郡豊浦町","大字名":null,"丁目名":null,"小字名":"字美和","地番":"312-115","精度区分":null,"座標系":"任意座標系"}},{"type":"Polygon","arcs":[[190,-152,191,-190,192]],"properties":{"市区町村名":"虻田郡豊浦町","大字名":null,"丁目名":null,"小字名":"字美和","地番":"312-141","精度区分":null,"座標系":"任意座標系"}},{"type":"Polygon","arcs":[[-153,-191,193]],"properties":{"市区町村名":"虻田郡豊浦町","大字名":null,"丁目名":null,"小字名":"字美和","地番":"312-114","精度区分":null,"座標系":"任意座標系"}},{"type":"Polygon","arcs":[[-151,194,195,-187,-192]],"properties":{"市区町村名":"虻田郡豊浦町","大字名":null,"丁目名":null,"小字名":"字美和","地番":"312-134","精度区分":null,"座標系":"任意座標系"}},{"type":"Polygon","arcs":[[196,-181,-183,-188,-196]],"properties":{"市区町村名":"虻田郡豊浦町","大字名":null,"丁目名":null,"小字名":"字美和","地番":"312-135","精度区分":null,"座標系":"任意座標系"}},{"type":"Polygon","arcs":[[-158,197,198,-165]],"properties":{"市区町村名":"虻田郡豊浦町","大字名":null,"丁目名":null,"小字名":"字美和","地番":"312-99","精度区分":null,"座標系":"任意座標系"}},{"type":"Polygon","arcs":[[-157,199,200,-198]],"properties":{"市区町村名":"虻田郡豊浦町","大字名":null,"丁目名":null,"小字名":"字美和","地番":"312-123","精度区分":null,"座標系":"任意座標系"}},{"type":"Polygon","arcs":[[-200,-156,-149,201]],"properties":{"市区町村名":"虻田郡豊浦町","大字名":null,"丁目名":null,"小字名":"字美和","地番":"312-124","精度区分":null,"座標系":"任意座標系"}},{"type":"Polygon","arcs":[[202,203,204]],"properties":{"市区町村名":"虻田郡豊浦町","大字名":null,"丁目名":null,"小字名":"字美和","地番":"312-102","精度区分":null,"座標系":"任意座標系"}},{"type":"Polygon","arcs":[[-204,205,206,207,208,209]],"properties":{"市区町村名":"虻田郡豊浦町","大字名":null,"丁目名":null,"小字名":"字美和","地番":"312-137","精度区分":null,"座標系":"任意座標系"}},{"type":"Polygon","arcs":[[210,211,-207,212]],"properties":{"市区町村名":"虻田郡豊浦町","大字名":null,"丁目名":null,"小字名":"字美和","地番":"312-149","精度区分":null,"座標系":"任意座標系"}},{"type":"Polygon","arcs":[[-212,213,214,215,-208]],"properties":{"市区町村名":"虻田郡豊浦町","大字名":null,"丁目名":null,"小字名":"字美和","地番":"312-103","精度区分":null,"座標系":"任意座標系"}},{"type":"Polygon","arcs":[[-203,216,-213,-206]],"properties":{"市区町村名":"虻田郡豊浦町","大字名":null,"丁目名":null,"小字名":"字美和","地番":"312-148","精度区分":null,"座標系":"任意座標系"}},{"type":"Polygon","arcs":[[217,218,219,-215]],"properties":{"市区町村名":"虻田郡豊浦町","大字名":null,"丁目名":null,"小字名":"字美和","地番":"312-104","精度区分":null,"座標系":"任意座標系"}},{"type":"Polygon","arcs":[[-219,220,221]],"properties":{"市区町村名":"虻田郡豊浦町","大字名":null,"丁目名":null,"小字名":"字美和","地番":"312-105","精度区分":null,"座標系":"任意座標系"}},{"type":"Polygon","arcs":[[222,223,-138,224]],"properties":{"市区町村名":"虻田郡豊浦町","大字名":null,"丁目名":null,"小字名":"字美和","地番":"312-133","精度区分":null,"座標系":"任意座標系"}},{"type":"Polygon","arcs":[[225,-223,-141,226]],"properties":{"市区町村名":"虻田郡豊浦町","大字名":null,"丁目名":null,"小字名":"字美和","地番":"312-94","精度区分":null,"座標系":"任意座標系"}},{"type":"Polygon","arcs":[[-142,-225,227,228]],"properties":{"市区町村名":"虻田郡豊浦町","大字名":null,"丁目名":null,"小字名":"字美和","地番":"312-140","精度区分":null,"座標系":"任意座標系"}},{"type":"Polygon","arcs":[[-137,-140,229,-228]],"properties":{"市区町村名":"虻田郡豊浦町","大字名":null,"丁目名":null,"小字名":"字美和","地番":"312-112","精度区分":null,"座標系":"任意座標系"}},{"type":"Polygon","arcs":[[230,231,232]],"properties":{"市区町村名":"虻田郡豊浦町","大字名":null,"丁目名":null,"小字名":"字美和","地番":"312-128","精度区分":null,"座標系":"任意座標系"}},{"type":"Polygon","arcs":[[233,234,-232,235,236]],"properties":{"市区町村名":"虻田郡豊浦町","大字名":null,"丁目名":null,"小字名":"字美和","地番":"312-130","精度区分":null,"座標系":"任意座標系"}},{"type":"Polygon","arcs":[[237,238,-2,239]],"properties":{"市区町村名":"虻田郡豊浦町","大字名":null,"丁目名":null,"小字名":"字美和","地番":"312-147","精度区分":null,"座標系":"任意座標系"}},{"type":"Polygon","arcs":[[240,241,-234,242,-4]],"properties":{"市区町村名":"虻田郡豊浦町","大字名":null,"丁目名":null,"小字名":"字美和","地番":"312-129","精度区分":null,"座標系":"任意座標系"}},{"type":"Polygon","arcs":[[243,244,-233,-235]],"properties":{"市区町村名":"虻田郡豊浦町","大字名":null,"丁目名":null,"小字名":"字美和","地番":"312-127","精度区分":null,"座標系":"任意座標系"}},{"type":"Polygon","arcs":[[245,-244,-242,246]],"properties":{"市区町村名":"虻田郡豊浦町","大字名":null,"丁目名":null,"小字名":"字美和","地番":"312-126","精度区分":null,"座標系":"任意座標系"}},{"type":"Polygon","arcs":[[-239,247,-247,-241,-3]],"properties":{"市区町村名":"虻田郡豊浦町","大字名":null,"丁目名":null,"小字名":"字美和","地番":"312-101","精度区分":null,"座標系":"任意座標系"}},{"type":"Polygon","arcs":[[248,-240,-1,249]],"properties":{"市区町村名":"虻田郡豊浦町","大字名":null,"丁目名":null,"小字名":"字美和","地番":"312-100","精度区分":null,"座標系":"任意座標系"}},{"type":"Polygon","arcs":[[250,251,252,253,254,255,256,257,258,259,260,261,262,263]],"properties":{"市区町村名":"虻田郡豊浦町","大字名":null,"丁目名":null,"小字名":"字美和","地番":"長狭物不明-1","精度区分":null,"座標系":"任意座標系"}},{"type":"Polygon","arcs":[[264,-134,-120,265]],"properties":{"市区町村名":"虻田郡豊浦町","大字名":null,"丁目名":null,"小字名":"字美和","地番":"312-81","精度区分":null,"座標系":"任意座標系"}},{"type":"Polygon","arcs":[[-48,266,267,-50,268]],"properties":{"市区町村名":"虻田郡豊浦町","大字名":null,"丁目名":null,"小字名":"字美和","地番":"312-73","精度区分":null,"座標系":"任意座標系"}},{"type":"Polygon","arcs":[[269,270,271,272,273,274,275,276,277,278,279,280,281,282,283,284,285,286,287,288,289,290]],"properties":{"市区町村名":"虻田郡豊浦町","大字名":null,"丁目名":null,"小字名":"字美和","地番":"267-1","精度区分":null,"座標系":"任意座標系"}},{"type":"Polygon","arcs":[[291,292,293,294,295,296,297,-259,298,299,300,301,302,303,304,305,306,307,308,309]],"properties":{"市区町村名":"虻田郡豊浦町","大字名":null,"丁目名":null,"小字名":"字美和","地番":"267-3","精度区分":null,"座標系":"任意座標系"}},{"type":"Polygon","arcs":[[310,-270,311,312]],"properties":{"市区町村名":"虻田郡豊浦町","大字名":null,"丁目名":null,"小字名":"字美和","地番":"267-4","精度区分":null,"座標系":"任意座標系"}},{"type":"Polygon","arcs":[[-312,-291,313,314]],"properties":{"市区町村名":"虻田郡豊浦町","大字名":null,"丁目名":null,"小字名":"字美和","地番":"267-5","精度区分":null,"座標系":"任意座標系"}},{"type":"Polygon","arcs":[[-314,-290,315,316]],"properties":{"市区町村名":"虻田郡豊浦町","大字名":null,"丁目名":null,"小字名":"字美和","地番":"267-6","精度区分":null,"座標系":"任意座標系"}},{"type":"Polygon","arcs":[[-316,-289,317,318]],"properties":{"市区町村名":"虻田郡豊浦町","大字名":null,"丁目名":null,"小字名":"字美和","地番":"267-7","精度区分":null,"座標系":"任意座標系"}},{"type":"Polygon","arcs":[[-318,-288,319,320]],"properties":{"市区町村名":"虻田郡豊浦町","大字名":null,"丁目名":null,"小字名":"字美和","地番":"267-8","精度区分":null,"座標系":"任意座標系"}},{"type":"Polygon","arcs":[[-320,-287,321,322]],"properties":{"市区町村名":"虻田郡豊浦町","大字名":null,"丁目名":null,"小字名":"字美和","地番":"267-9","精度区分":null,"座標系":"任意座標系"}},{"type":"Polygon","arcs":[[-322,-286,323,324]],"properties":{"市区町村名":"虻田郡豊浦町","大字名":null,"丁目名":null,"小字名":"字美和","地番":"267-10","精度区分":null,"座標系":"任意座標系"}},{"type":"Polygon","arcs":[[-324,-285,325,326]],"properties":{"市区町村名":"虻田郡豊浦町","大字名":null,"丁目名":null,"小字名":"字美和","地番":"267-11","精度区分":null,"座標系":"任意座標系"}},{"type":"Polygon","arcs":[[-326,-284,327,328]],"properties":{"市区町村名":"虻田郡豊浦町","大字名":null,"丁目名":null,"小字名":"字美和","地番":"267-12","精度区分":null,"座標系":"任意座標系"}},{"type":"Polygon","arcs":[[-328,-283,329]],"properties":{"市区町村名":"虻田郡豊浦町","大字名":null,"丁目名":null,"小字名":"字美和","地番":"267-13","精度区分":null,"座標系":"任意座標系"}},{"type":"Polygon","arcs":[[330,331,332,-281]],"properties":{"市区町村名":"虻田郡豊浦町","大字名":null,"丁目名":null,"小字名":"字美和","地番":"267-14","精度区分":null,"座標系":"任意座標系"}},{"type":"Polygon","arcs":[[333,334,-331,-280]],"properties":{"市区町村名":"虻田郡豊浦町","大字名":null,"丁目名":null,"小字名":"字美和","地番":"267-15","精度区分":null,"座標系":"任意座標系"}},{"type":"Polygon","arcs":[[335,336,-334,-279]],"properties":{"市区町村名":"虻田郡豊浦町","大字名":null,"丁目名":null,"小字名":"字美和","地番":"267-16","精度区分":null,"座標系":"任意座標系"}},{"type":"Polygon","arcs":[[337,338,-336,-278]],"properties":{"市区町村名":"虻田郡豊浦町","大字名":null,"丁目名":null,"小字名":"字美和","地番":"267-17","精度区分":null,"座標系":"任意座標系"}},{"type":"Polygon","arcs":[[339,340,-338,-277]],"properties":{"市区町村名":"虻田郡豊浦町","大字名":null,"丁目名":null,"小字名":"字美和","地番":"267-18","精度区分":null,"座標系":"任意座標系"}},{"type":"Polygon","arcs":[[341,342,-340,-276]],"properties":{"市区町村名":"虻田郡豊浦町","大字名":null,"丁目名":null,"小字名":"字美和","地番":"267-19","精度区分":null,"座標系":"任意座標系"}},{"type":"Polygon","arcs":[[343,344,345,-342,-275]],"properties":{"市区町村名":"虻田郡豊浦町","大字名":null,"丁目名":null,"小字名":"字美和","地番":"267-20","精度区分":null,"座標系":"任意座標系"}},{"type":"Polygon","arcs":[[346,347,-344,-274]],"properties":{"市区町村名":"虻田郡豊浦町","大字名":null,"丁目名":null,"小字名":"字美和","地番":"267-21","精度区分":null,"座標系":"任意座標系"}},{"type":"Polygon","arcs":[[348,349,-347,-273]],"properties":{"市区町村名":"虻田郡豊浦町","大字名":null,"丁目名":null,"小字名":"字美和","地番":"267-22","精度区分":null,"座標系":"任意座標系"}},{"type":"Polygon","arcs":[[-272,350,351,352,-349]],"properties":{"市区町村名":"虻田郡豊浦町","大字名":null,"丁目名":null,"小字名":"字美和","地番":"267-23","精度区分":null,"座標系":"任意座標系"}},{"type":"Polygon","arcs":[[353,354,355,356,-353]],"properties":{"市区町村名":"虻田郡豊浦町","大字名":null,"丁目名":null,"小字名":"字美和","地番":"267-24","精度区分":null,"座標系":"任意座標系"}},{"type":"Polygon","arcs":[[-357,357,358,-350]],"properties":{"市区町村名":"虻田郡豊浦町","大字名":null,"丁目名":null,"小字名":"字美和","地番":"267-25","精度区分":null,"座標系":"任意座標系"}},{"type":"Polygon","arcs":[[-359,359,360,-348]],"properties":{"市区町村名":"虻田郡豊浦町","大字名":null,"丁目名":null,"小字名":"字美和","地番":"267-26","精度区分":null,"座標系":"任意座標系"}},{"type":"Polygon","arcs":[[-361,361,362,-345]],"properties":{"市区町村名":"虻田郡豊浦町","大字名":null,"丁目名":null,"小字名":"字美和","地番":"267-27","精度区分":null,"座標系":"任意座標系"}},{"type":"Polygon","arcs":[[363,364,365,-343]],"properties":{"市区町村名":"虻田郡豊浦町","大字名":null,"丁目名":null,"小字名":"字美和","地番":"267-28","精度区分":null,"座標系":"任意座標系"}},{"type":"Polygon","arcs":[[-366,366,367,-341]],"properties":{"市区町村名":"虻田郡豊浦町","大字名":null,"丁目名":null,"小字名":"字美和","地番":"267-29","精度区分":null,"座標系":"任意座標系"}},{"type":"Polygon","arcs":[[-368,368,369,-339]],"properties":{"市区町村名":"虻田郡豊浦町","大字名":null,"丁目名":null,"小字名":"字美和","地番":"267-30","精度区分":null,"座標系":"任意座標系"}},{"type":"Polygon","arcs":[[-370,370,371,-337]],"properties":{"市区町村名":"虻田郡豊浦町","大字名":null,"丁目名":null,"小字名":"字美和","地番":"267-31","精度区分":null,"座標系":"任意座標系"}},{"type":"Polygon","arcs":[[-372,372,373,-335]],"properties":{"市区町村名":"虻田郡豊浦町","大字名":null,"丁目名":null,"小字名":"字美和","地番":"267-32","精度区分":null,"座標系":"任意座標系"}},{"type":"Polygon","arcs":[[-374,374,375,-332]],"properties":{"市区町村名":"虻田郡豊浦町","大字名":null,"丁目名":null,"小字名":"字美和","地番":"267-33","精度区分":null,"座標系":"任意座標系"}},{"type":"Polygon","arcs":[[376,377,378,379]],"properties":{"市区町村名":"虻田郡豊浦町","大字名":null,"丁目名":null,"小字名":"字美和","地番":"267-34","精度区分":null,"座標系":"任意座標系"}},{"type":"Polygon","arcs":[[380,381,-377,382]],"properties":{"市区町村名":"虻田郡豊浦町","大字名":null,"丁目名":null,"小字名":"字美和","地番":"267-35","精度区分":null,"座標系":"任意座標系"}},{"type":"Polygon","arcs":[[383,384,-381,385]],"properties":{"市区町村名":"虻田郡豊浦町","大字名":null,"丁目名":null,"小字名":"字美和","地番":"267-36","精度区分":null,"座標系":"任意座標系"}},{"type":"Polygon","arcs":[[386,387,-384,388]],"properties":{"市区町村名":"虻田郡豊浦町","大字名":null,"丁目名":null,"小字名":"字美和","地番":"267-37","精度区分":null,"座標系":"任意座標系"}},{"type":"Polygon","arcs":[[389,390,-387,391]],"properties":{"市区町村名":"虻田郡豊浦町","大字名":null,"丁目名":null,"小字名":"字美和","地番":"267-38","精度区分":null,"座標系":"任意座標系"}},{"type":"Polygon","arcs":[[392,393,-390,394]],"properties":{"市区町村名":"虻田郡豊浦町","大字名":null,"丁目名":null,"小字名":"字美和","地番":"267-39","精度区分":null,"座標系":"任意座標系"}},{"type":"Polygon","arcs":[[395,396,-393,397]],"properties":{"市区町村名":"虻田郡豊浦町","大字名":null,"丁目名":null,"小字名":"字美和","地番":"267-40","精度区分":null,"座標系":"任意座標系"}},{"type":"Polygon","arcs":[[398,399,-396,400]],"properties":{"市区町村名":"虻田郡豊浦町","大字名":null,"丁目名":null,"小字名":"字美和","地番":"267-41","精度区分":null,"座標系":"任意座標系"}},{"type":"Polygon","arcs":[[401,402,-399,403]],"properties":{"市区町村名":"虻田郡豊浦町","大字名":null,"丁目名":null,"小字名":"字美和","地番":"267-42","精度区分":null,"座標系":"任意座標系"}},{"type":"Polygon","arcs":[[404,405,-402,406]],"properties":{"市区町村名":"虻田郡豊浦町","大字名":null,"丁目名":null,"小字名":"字美和","地番":"267-43","精度区分":null,"座標系":"任意座標系"}},{"type":"Polygon","arcs":[[-406,407,408,409,410]],"properties":{"市区町村名":"虻田郡豊浦町","大字名":null,"丁目名":null,"小字名":"字美和","地番":"267-44","精度区分":null,"座標系":"任意座標系"}},{"type":"Polygon","arcs":[[-411,411,412,-403]],"properties":{"市区町村名":"虻田郡豊浦町","大字名":null,"丁目名":null,"小字名":"字美和","地番":"267-45","精度区分":null,"座標系":"任意座標系"}},{"type":"Polygon","arcs":[[-413,413,414,-400]],"properties":{"市区町村名":"虻田郡豊浦町","大字名":null,"丁目名":null,"小字名":"字美和","地番":"267-46","精度区分":null,"座標系":"任意座標系"}},{"type":"Polygon","arcs":[[-415,415,416,-397]],"properties":{"市区町村名":"虻田郡豊浦町","大字名":null,"丁目名":null,"小字名":"字美和","地番":"267-47","精度区分":null,"座標系":"任意座標系"}},{"type":"Polygon","arcs":[[-417,417,418,-394]],"properties":{"市区町村名":"虻田郡豊浦町","大字名":null,"丁目名":null,"小字名":"字美和","地番":"267-48","精度区分":null,"座標系":"任意座標系"}},{"type":"Polygon","arcs":[[-419,419,420,-391]],"properties":{"市区町村名":"虻田郡豊浦町","大字名":null,"丁目名":null,"小字名":"字美和","地番":"267-49","精度区分":null,"座標系":"任意座標系"}},{"type":"Polygon","arcs":[[-421,421,422,-388]],"properties":{"市区町村名":"虻田郡豊浦町","大字名":null,"丁目名":null,"小字名":"字美和","地番":"267-50","精度区分":null,"座標系":"任意座標系"}},{"type":"Polygon","arcs":[[-423,423,424,-385]],"properties":{"市区町村名":"虻田郡豊浦町","大字名":null,"丁目名":null,"小字名":"字美和","地番":"267-51","精度区分":null,"座標系":"任意座標系"}},{"type":"Polygon","arcs":[[-425,425,426,-382]],"properties":{"市区町村名":"虻田郡豊浦町","大字名":null,"丁目名":null,"小字名":"字美和","地番":"267-52","精度区分":null,"座標系":"任意座標系"}},{"type":"Polygon","arcs":[[-427,427,428,-378]],"properties":{"市区町村名":"虻田郡豊浦町","大字名":null,"丁目名":null,"小字名":"字美和","地番":"267-53","精度区分":null,"座標系":"任意座標系"}},{"type":"Polygon","arcs":[[429,430,431,432]],"properties":{"市区町村名":"虻田郡豊浦町","大字名":null,"丁目名":null,"小字名":"字美和","地番":"267-54","精度区分":null,"座標系":"任意座標系"}},{"type":"Polygon","arcs":[[433,434,-430,435]],"properties":{"市区町村名":"虻田郡豊浦町","大字名":null,"丁目名":null,"小字名":"字美和","地番":"267-55","精度区分":null,"座標系":"任意座標系"}},{"type":"Polygon","arcs":[[436,437,-434,438]],"properties":{"市区町村名":"虻田郡豊浦町","大字名":null,"丁目名":null,"小字名":"字美和","地番":"267-56","精度区分":null,"座標系":"任意座標系"}},{"type":"Polygon","arcs":[[439,440,-437,441]],"properties":{"市区町村名":"虻田郡豊浦町","大字名":null,"丁目名":null,"小字名":"字美和","地番":"267-57","精度区分":null,"座標系":"任意座標系"}},{"type":"Polygon","arcs":[[442,443,-440,444]],"properties":{"市区町村名":"虻田郡豊浦町","大字名":null,"丁目名":null,"小字名":"字美和","地番":"267-58","精度区分":null,"座標系":"任意座標系"}},{"type":"Polygon","arcs":[[445,446,-443,447]],"properties":{"市区町村名":"虻田郡豊浦町","大字名":null,"丁目名":null,"小字名":"字美和","地番":"267-59","精度区分":null,"座標系":"任意座標系"}},{"type":"Polygon","arcs":[[448,449,-446,450]],"properties":{"市区町村名":"虻田郡豊浦町","大字名":null,"丁目名":null,"小字名":"字美和","地番":"267-60","精度区分":null,"座標系":"任意座標系"}},{"type":"Polygon","arcs":[[451,452,-449,453]],"properties":{"市区町村名":"虻田郡豊浦町","大字名":null,"丁目名":null,"小字名":"字美和","地番":"267-61","精度区分":null,"座標系":"任意座標系"}},{"type":"Polygon","arcs":[[454,455,-452,456]],"properties":{"市区町村名":"虻田郡豊浦町","大字名":null,"丁目名":null,"小字名":"字美和","地番":"267-62","精度区分":null,"座標系":"任意座標系"}},{"type":"Polygon","arcs":[[457,458,459,-455,460]],"properties":{"市区町村名":"虻田郡豊浦町","大字名":null,"丁目名":null,"小字名":"字美和","地番":"267-63","精度区分":null,"座標系":"任意座標系"}},{"type":"Polygon","arcs":[[-460,461,462,463]],"properties":{"市区町村名":"虻田郡豊浦町","大字名":null,"丁目名":null,"小字名":"字美和","地番":"267-64","精度区分":null,"座標系":"任意座標系"}},{"type":"Polygon","arcs":[[-464,464,465,-456]],"properties":{"市区町村名":"虻田郡豊浦町","大字名":null,"丁目名":null,"小字名":"字美和","地番":"267-65","精度区分":null,"座標系":"任意座標系"}},{"type":"Polygon","arcs":[[-466,466,467,-453]],"properties":{"市区町村名":"虻田郡豊浦町","大字名":null,"丁目名":null,"小字名":"字美和","地番":"267-66","精度区分":null,"座標系":"任意座標系"}},{"type":"Polygon","arcs":[[-468,468,469,-450]],"properties":{"市区町村名":"虻田郡豊浦町","大字名":null,"丁目名":null,"小字名":"字美和","地番":"267-67","精度区分":null,"座標系":"任意座標系"}},{"type":"Polygon","arcs":[[-470,470,471,-447]],"properties":{"市区町村名":"虻田郡豊浦町","大字名":null,"丁目名":null,"小字名":"字美和","地番":"267-68","精度区分":null,"座標系":"任意座標系"}},{"type":"Polygon","arcs":[[-472,472,473,-444]],"properties":{"市区町村名":"虻田郡豊浦町","大字名":null,"丁目名":null,"小字名":"字美和","地番":"267-69","精度区分":null,"座標系":"任意座標系"}},{"type":"Polygon","arcs":[[-474,474,475,-441]],"properties":{"市区町村名":"虻田郡豊浦町","大字名":null,"丁目名":null,"小字名":"字美和","地番":"267-70","精度区分":null,"座標系":"任意座標系"}},{"type":"Polygon","arcs":[[-476,476,477,-438]],"properties":{"市区町村名":"虻田郡豊浦町","大字名":null,"丁目名":null,"小字名":"字美和","地番":"267-71","精度区分":null,"座標系":"任意座標系"}},{"type":"Polygon","arcs":[[-478,478,479,-435]],"properties":{"市区町村名":"虻田郡豊浦町","大字名":null,"丁目名":null,"小字名":"字美和","地番":"267-72","精度区分":null,"座標系":"任意座標系"}},{"type":"Polygon","arcs":[[-480,480,481,-431]],"properties":{"市区町村名":"虻田郡豊浦町","大字名":null,"丁目名":null,"小字名":"字美和","地番":"267-73","精度区分":null,"座標系":"任意座標系"}},{"type":"Polygon","arcs":[[482,483,484,485]],"properties":{"市区町村名":"虻田郡豊浦町","大字名":null,"丁目名":null,"小字名":"字美和","地番":"267-74","精度区分":null,"座標系":"任意座標系"}},{"type":"Polygon","arcs":[[486,487,-483,488]],"properties":{"市区町村名":"虻田郡豊浦町","大字名":null,"丁目名":null,"小字名":"字美和","地番":"267-75","精度区分":null,"座標系":"任意座標系"}},{"type":"Polygon","arcs":[[489,490,-487,491]],"properties":{"市区町村名":"虻田郡豊浦町","大字名":null,"丁目名":null,"小字名":"字美和","地番":"267-76","精度区分":null,"座標系":"任意座標系"}},{"type":"Polygon","arcs":[[492,493,-490,494]],"properties":{"市区町村名":"虻田郡豊浦町","大字名":null,"丁目名":null,"小字名":"字美和","地番":"267-77","精度区分":null,"座標系":"任意座標系"}},{"type":"Polygon","arcs":[[495,496,-493,497]],"properties":{"市区町村名":"虻田郡豊浦町","大字名":null,"丁目名":null,"小字名":"字美和","地番":"267-78","精度区分":null,"座標系":"任意座標系"}},{"type":"Polygon","arcs":[[498,499,500,-496,501]],"properties":{"市区町村名":"虻田郡豊浦町","大字名":null,"丁目名":null,"小字名":"字美和","地番":"267-79","精度区分":null,"座標系":"任意座標系"}},{"type":"Polygon","arcs":[[502,503,-499,504]],"properties":{"市区町村名":"虻田郡豊浦町","大字名":null,"丁目名":null,"小字名":"字美和","地番":"267-80","精度区分":null,"座標系":"任意座標系"}},{"type":"Polygon","arcs":[[505,506,-503,507]],"properties":{"市区町村名":"虻田郡豊浦町","大字名":null,"丁目名":null,"小字名":"字美和","地番":"267-81","精度区分":null,"座標系":"任意座標系"}},{"type":"Polygon","arcs":[[508,509,-506,510]],"properties":{"市区町村名":"虻田郡豊浦町","大字名":null,"丁目名":null,"小字名":"字美和","地番":"267-82","精度区分":null,"座標系":"任意座標系"}},{"type":"Polygon","arcs":[[511,512,513,-509,514]],"properties":{"市区町村名":"虻田郡豊浦町","大字名":null,"丁目名":null,"小字名":"字美和","地番":"267-83","精度区分":null,"座標系":"任意座標系"}},{"type":"Polygon","arcs":[[-514,515,516,517,518]],"properties":{"市区町村名":"虻田郡豊浦町","大字名":null,"丁目名":null,"小字名":"字美和","地番":"267-84","精度区分":null,"座標系":"任意座標系"}},{"type":"Polygon","arcs":[[-519,519,520,-510]],"properties":{"市区町村名":"虻田郡豊浦町","大字名":null,"丁目名":null,"小字名":"字美和","地番":"267-85","精度区分":null,"座標系":"任意座標系"}},{"type":"Polygon","arcs":[[-521,521,522,-507]],"properties":{"市区町村名":"虻田郡豊浦町","大字名":null,"丁目名":null,"小字名":"字美和","地番":"267-86","精度区分":null,"座標系":"任意座標系"}},{"type":"Polygon","arcs":[[-523,523,524,-504]],"properties":{"市区町村名":"虻田郡豊浦町","大字名":null,"丁目名":null,"小字名":"字美和","地番":"267-87","精度区分":null,"座標系":"任意座標系"}},{"type":"Polygon","arcs":[[525,526,527,-501]],"properties":{"市区町村名":"虻田郡豊浦町","大字名":null,"丁目名":null,"小字名":"字美和","地番":"267-88","精度区分":null,"座標系":"任意座標系"}},{"type":"Polygon","arcs":[[-528,528,529,-497]],"properties":{"市区町村名":"虻田郡豊浦町","大字名":null,"丁目名":null,"小字名":"字美和","地番":"267-89","精度区分":null,"座標系":"任意座標系"}},{"type":"Polygon","arcs":[[-530,530,531,-494]],"properties":{"市区町村名":"虻田郡豊浦町","大字名":null,"丁目名":null,"小字名":"字美和","地番":"267-90","精度区分":null,"座標系":"任意座標系"}},{"type":"Polygon","arcs":[[-532,532,533,-491]],"properties":{"市区町村名":"虻田郡豊浦町","大字名":null,"丁目名":null,"小字名":"字美和","地番":"267-91","精度区分":null,"座標系":"任意座標系"}},{"type":"Polygon","arcs":[[-534,534,535,-488]],"properties":{"市区町村名":"虻田郡豊浦町","大字名":null,"丁目名":null,"小字名":"字美和","地番":"267-92","精度区分":null,"座標系":"任意座標系"}},{"type":"Polygon","arcs":[[-536,536,537,-484]],"properties":{"市区町村名":"虻田郡豊浦町","大字名":null,"丁目名":null,"小字名":"字美和","地番":"267-93","精度区分":null,"座標系":"任意座標系"}},{"type":"Polygon","arcs":[[538,539,540,541]],"properties":{"市区町村名":"虻田郡豊浦町","大字名":null,"丁目名":null,"小字名":"字美和","地番":"267-94","精度区分":null,"座標系":"任意座標系"}},{"type":"Polygon","arcs":[[542,543,-539,544]],"properties":{"市区町村名":"虻田郡豊浦町","大字名":null,"丁目名":null,"小字名":"字美和","地番":"267-95","精度区分":null,"座標系":"任意座標系"}},{"type":"Polygon","arcs":[[545,546,-543,547]],"properties":{"市区町村名":"虻田郡豊浦町","大字名":null,"丁目名":null,"小字名":"字美和","地番":"267-96","精度区分":null,"座標系":"任意座標系"}},{"type":"Polygon","arcs":[[548,549,-546,550]],"properties":{"市区町村名":"虻田郡豊浦町","大字名":null,"丁目名":null,"小字名":"字美和","地番":"267-97","精度区分":null,"座標系":"任意座標系"}},{"type":"Polygon","arcs":[[551,552,-549,553]],"properties":{"市区町村名":"虻田郡豊浦町","大字名":null,"丁目名":null,"小字名":"字美和","地番":"267-98","精度区分":null,"座標系":"任意座標系"}},{"type":"Polygon","arcs":[[554,555,-552,556]],"properties":{"市区町村名":"虻田郡豊浦町","大字名":null,"丁目名":null,"小字名":"字美和","地番":"267-99","精度区分":null,"座標系":"任意座標系"}},{"type":"Polygon","arcs":[[557,558,-555,559]],"properties":{"市区町村名":"虻田郡豊浦町","大字名":null,"丁目名":null,"小字名":"字美和","地番":"267-100","精度区分":null,"座標系":"任意座標系"}},{"type":"Polygon","arcs":[[560,561,-558,562]],"properties":{"市区町村名":"虻田郡豊浦町","大字名":null,"丁目名":null,"小字名":"字美和","地番":"267-101","精度区分":null,"座標系":"任意座標系"}},{"type":"Polygon","arcs":[[563,564,-561,565]],"properties":{"市区町村名":"虻田郡豊浦町","大字名":null,"丁目名":null,"小字名":"字美和","地番":"267-102","精度区分":null,"座標系":"任意座標系"}},{"type":"Polygon","arcs":[[566,567,-564,568]],"properties":{"市区町村名":"虻田郡豊浦町","大字名":null,"丁目名":null,"小字名":"字美和","地番":"267-103","精度区分":null,"座標系":"任意座標系"}},{"type":"Polygon","arcs":[[569,570,571,572,-568]],"properties":{"市区町村名":"虻田郡豊浦町","大字名":null,"丁目名":null,"小字名":"字美和","地番":"267-104","精度区分":null,"座標系":"任意座標系"}},{"type":"Polygon","arcs":[[-573,573,574,-565]],"properties":{"市区町村名":"虻田郡豊浦町","大字名":null,"丁目名":null,"小字名":"字美和","地番":"267-105","精度区分":null,"座標系":"任意座標系"}},{"type":"Polygon","arcs":[[-575,575,576,-562]],"properties":{"市区町村名":"虻田郡豊浦町","大字名":null,"丁目名":null,"小字名":"字美和","地番":"267-106","精度区分":null,"座標系":"任意座標系"}},{"type":"Polygon","arcs":[[-577,577,578,-559]],"properties":{"市区町村名":"虻田郡豊浦町","大字名":null,"丁目名":null,"小字名":"字美和","地番":"267-107","精度区分":null,"座標系":"任意座標系"}},{"type":"Polygon","arcs":[[-579,579,580,-556]],"properties":{"市区町村名":"虻田郡豊浦町","大字名":null,"丁目名":null,"小字名":"字美和","地番":"267-108","精度区分":null,"座標系":"任意座標系"}},{"type":"Polygon","arcs":[[-581,581,582,-553]],"properties":{"市区町村名":"虻田郡豊浦町","大字名":null,"丁目名":null,"小字名":"字美和","地番":"267-109","精度区分":null,"座標系":"任意座標系"}},{"type":"Polygon","arcs":[[-583,583,584,-550]],"properties":{"市区町村名":"虻田郡豊浦町","大字名":null,"丁目名":null,"小字名":"字美和","地番":"267-110","精度区分":null,"座標系":"任意座標系"}},{"type":"Polygon","arcs":[[-585,585,586,-547]],"properties":{"市区町村名":"虻田郡豊浦町","大字名":null,"丁目名":null,"小字名":"字美和","地番":"267-111","精度区分":null,"座標系":"任意座標系"}},{"type":"Polygon","arcs":[[-587,587,588,-544]],"properties":{"市区町村名":"虻田郡豊浦町","大字名":null,"丁目名":null,"小字名":"字美和","地番":"267-112","精度区分":null,"座標系":"任意座標系"}},{"type":"Polygon","arcs":[[-589,589,590,-540]],"properties":{"市区町村名":"虻田郡豊浦町","大字名":null,"丁目名":null,"小字名":"字美和","地番":"267-113","精度区分":null,"座標系":"任意座標系"}},{"type":"Polygon","arcs":[[591,592,593,594]],"properties":{"市区町村名":"虻田郡豊浦町","大字名":null,"丁目名":null,"小字名":"字美和","地番":"267-114","精度区分":null,"座標系":"任意座標系"}},{"type":"Polygon","arcs":[[595,596,-592,597]],"properties":{"市区町村名":"虻田郡豊浦町","大字名":null,"丁目名":null,"小字名":"字美和","地番":"267-115","精度区分":null,"座標系":"任意座標系"}},{"type":"Polygon","arcs":[[598,599,-596,600]],"properties":{"市区町村名":"虻田郡豊浦町","大字名":null,"丁目名":null,"小字名":"字美和","地番":"267-116","精度区分":null,"座標系":"任意座標系"}},{"type":"Polygon","arcs":[[601,602,-599,603]],"properties":{"市区町村名":"虻田郡豊浦町","大字名":null,"丁目名":null,"小字名":"字美和","地番":"267-117","精度区分":null,"座標系":"任意座標系"}},{"type":"Polygon","arcs":[[604,605,-602,606]],"properties":{"市区町村名":"虻田郡豊浦町","大字名":null,"丁目名":null,"小字名":"字美和","地番":"267-118","精度区分":null,"座標系":"任意座標系"}},{"type":"Polygon","arcs":[[607,608,-605,609]],"properties":{"市区町村名":"虻田郡豊浦町","大字名":null,"丁目名":null,"小字名":"字美和","地番":"267-119","精度区分":null,"座標系":"任意座標系"}},{"type":"Polygon","arcs":[[610,611,-608,612]],"properties":{"市区町村名":"虻田郡豊浦町","大字名":null,"丁目名":null,"小字名":"字美和","地番":"267-120","精度区分":null,"座標系":"任意座標系"}},{"type":"Polygon","arcs":[[613,614,-611,615]],"properties":{"市区町村名":"虻田郡豊浦町","大字名":null,"丁目名":null,"小字名":"字美和","地番":"267-121","精度区分":null,"座標系":"任意座標系"}},{"type":"Polygon","arcs":[[-309,616,-614,617,618]],"properties":{"市区町村名":"虻田郡豊浦町","大字名":null,"丁目名":null,"小字名":"字美和","地番":"267-122","精度区分":null,"座標系":"任意座標系"}},{"type":"Polygon","arcs":[[619,-310,-619,620]],"properties":{"市区町村名":"虻田郡豊浦町","大字名":null,"丁目名":null,"小字名":"字美和","地番":"267-123","精度区分":null,"座標系":"任意座標系"}},{"type":"Polygon","arcs":[[-617,-308,621,-615]],"properties":{"市区町村名":"虻田郡豊浦町","大字名":null,"丁目名":null,"小字名":"字美和","地番":"267-124","精度区分":null,"座標系":"任意座標系"}},{"type":"Polygon","arcs":[[-622,-307,622,623,-612]],"properties":{"市区町村名":"虻田郡豊浦町","大字名":null,"丁目名":null,"小字名":"字美和","地番":"267-125","精度区分":null,"座標系":"任意座標系"}},{"type":"Polygon","arcs":[[-624,624,625,-609]],"properties":{"市区町村名":"虻田郡豊浦町","大字名":null,"丁目名":null,"小字名":"字美和","地番":"267-126","精度区分":null,"座標系":"任意座標系"}},{"type":"Polygon","arcs":[[-626,626,627,-606]],"properties":{"市区町村名":"虻田郡豊浦町","大字名":null,"丁目名":null,"小字名":"字美和","地番":"267-127","精度区分":null,"座標系":"任意座標系"}},{"type":"Polygon","arcs":[[-628,628,629,-603]],"properties":{"市区町村名":"虻田郡豊浦町","大字名":null,"丁目名":null,"小字名":"字美和","地番":"267-128","精度区分":null,"座標系":"任意座標系"}},{"type":"Polygon","arcs":[[-630,630,631,-600]],"properties":{"市区町村名":"虻田郡豊浦町","大字名":null,"丁目名":null,"小字名":"字美和","地番":"267-129","精度区分":null,"座標系":"任意座標系"}},{"type":"Polygon","arcs":[[-632,632,633,-597]],"properties":{"市区町村名":"虻田郡豊浦町","大字名":null,"丁目名":null,"小字名":"字美和","地番":"267-130","精度区分":null,"座標系":"任意座標系"}},{"type":"Polygon","arcs":[[-634,634,635,-593]],"properties":{"市区町村名":"虻田郡豊浦町","大字名":null,"丁目名":null,"小字名":"字美和","地番":"267-131","精度区分":null,"座標系":"任意座標系"}},{"type":"Polygon","arcs":[[636,637,638,639]],"properties":{"市区町村名":"虻田郡豊浦町","大字名":null,"丁目名":null,"小字名":"字美和","地番":"267-132","精度区分":null,"座標系":"任意座標系"}},{"type":"Polygon","arcs":[[640,641,-637,642]],"properties":{"市区町村名":"虻田郡豊浦町","大字名":null,"丁目名":null,"小字名":"字美和","地番":"267-133","精度区分":null,"座標系":"任意座標系"}},{"type":"Polygon","arcs":[[643,644,-641,645]],"properties":{"市区町村名":"虻田郡豊浦町","大字名":null,"丁目名":null,"小字名":"字美和","地番":"267-134","精度区分":null,"座標系":"任意座標系"}},{"type":"Polygon","arcs":[[646,647,648,-644,649]],"properties":{"市区町村名":"虻田郡豊浦町","大字名":null,"丁目名":null,"小字名":"字美和","地番":"267-135","精度区分":null,"座標系":"任意座標系"}},{"type":"Polygon","arcs":[[650,-304,651,-647,652]],"properties":{"市区町村名":"虻田郡豊浦町","大字名":null,"丁目名":null,"小字名":"字美和","地番":"267-136","精度区分":null,"座標系":"任意座標系"}},{"type":"Polygon","arcs":[[653,-305,-651]],"properties":{"市区町村名":"虻田郡豊浦町","大字名":null,"丁目名":null,"小字名":"字美和","地番":"267-137","精度区分":null,"座標系":"任意座標系"}},{"type":"Polygon","arcs":[[-303,654,-648,-652]],"properties":{"市区町村名":"虻田郡豊浦町","大字名":null,"丁目名":null,"小字名":"字美和","地番":"267-138","精度区分":null,"座標系":"任意座標系"}},{"type":"Polygon","arcs":[[-655,-302,655,656,-645,-649]],"properties":{"市区町村名":"虻田郡豊浦町","大字名":null,"丁目名":null,"小字名":"字美和","地番":"267-139","精度区分":null,"座標系":"任意座標系"}},{"type":"Polygon","arcs":[[-657,657,658,-642]],"properties":{"市区町村名":"虻田郡豊浦町","大字名":null,"丁目名":null,"小字名":"字美和","地番":"267-140","精度区分":null,"座標系":"任意座標系"}},{"type":"Polygon","arcs":[[-659,659,660,-638]],"properties":{"市区町村名":"虻田郡豊浦町","大字名":null,"丁目名":null,"小字名":"字美和","地番":"267-141","精度区分":null,"座標系":"任意座標系"}},{"type":"Polygon","arcs":[[-300,661,662]],"properties":{"市区町村名":"虻田郡豊浦町","大字名":null,"丁目名":null,"小字名":"字美和","地番":"267-142","精度区分":null,"座標系":"任意座標系"}},{"type":"Polygon","arcs":[[-656,-301,-663,663,-660,-658]],"properties":{"市区町村名":"虻田郡豊浦町","大字名":null,"丁目名":null,"小字名":"字美和","地番":"267-143","精度区分":null,"座標系":"任意座標系"}},{"type":"Polygon","arcs":[[-306,-654,-653,-650,-646,-643,-640,664,-635,-633,-631,-629,-627,-625,-623]],"properties":{"市区町村名":"虻田郡豊浦町","大字名":null,"丁目名":null,"小字名":"字美和","地番":"267-144","精度区分":null,"座標系":"任意座標系"}},{"type":"Polygon","arcs":[[665,-621,-618,-616,-613,-610,-607,-604,-601,-598,-595,666,-590,-588,-586,-584,-582,-580,-578,-576,-574,-572]],"properties":{"市区町村名":"虻田郡豊浦町","大字名":null,"丁目名":null,"小字名":"字美和","地番":"267-145","精度区分":null,"座標系":"任意座標系"}},{"type":"Polygon","arcs":[[667,-569,-566,-563,-560,-557,-554,-551,-548,-545,-542,668,-537,-535,-533,-531,-529,-527,669,-524,-522,-520,-518]],"properties":{"市区町村名":"虻田郡豊浦町","大字名":null,"丁目名":null,"小字名":"字美和","地番":"267-146","精度区分":null,"座標系":"任意座標系"}},{"type":"Polygon","arcs":[[670,-515,-511,-508,-505,-502,-498,-495,-492,-489,-486,671,-481,-479,-477,-475,-473,-471,-469,-467,-465,-463]],"properties":{"市区町村名":"虻田郡豊浦町","大字名":null,"丁目名":null,"小字名":"字美和","地番":"267-147","精度区分":null,"座標系":"任意座標系"}},{"type":"Polygon","arcs":[[672,-461,-457,-454,-451,-448,-445,-442,-439,-436,-433,673,-428,-426,-424,-422,-420,-418,-416,-414,-412,-410]],"properties":{"市区町村名":"虻田郡豊浦町","大字名":null,"丁目名":null,"小字名":"字美和","地番":"267-148","精度区分":null,"座標系":"任意座標系"}},{"type":"Polygon","arcs":[[674,-407,-404,-401,-398,-395,-392,-389,-386,-383,-380,675,-375,-373,-371,-369,-367,-365,676,-362,-360,-358,-356]],"properties":{"市区町村名":"虻田郡豊浦町","大字名":null,"丁目名":null,"小字名":"字美和","地番":"267-149","精度区分":null,"座標系":"任意座標系"}},{"type":"Polygon","arcs":[[-363,-677,-364,-346]],"properties":{"市区町村名":"虻田郡豊浦町","大字名":null,"丁目名":null,"小字名":"字美和","地番":"267-151","精度区分":null,"座標系":"任意座標系"}},{"type":"Polygon","arcs":[[-525,-670,-526,-500]],"properties":{"市区町村名":"虻田郡豊浦町","大字名":null,"丁目名":null,"小字名":"字美和","地番":"267-150","精度区分":null,"座標系":"任意座標系"}},{"type":"Polygon","arcs":[[677,678,679,680,681,682,683,684,685,686,687,688,689,690,-261,691,692,693,694,695,696,697,698,699,700,701,702,703,704,705]],"properties":{"市区町村名":"虻田郡豊浦町","大字名":null,"丁目名":null,"小字名":"字美和","地番":"270-1","精度区分":null,"座標系":"任意座標系"}},{"type":"Polygon","arcs":[[-692,-260,-298,706]],"properties":{"市区町村名":"虻田郡豊浦町","大字名":null,"丁目名":null,"小字名":"字美和","地番":"270-2","精度区分":null,"座標系":"任意座標系"}},{"type":"Polygon","arcs":[[707,-693,-707,-297]],"properties":{"市区町村名":"虻田郡豊浦町","大字名":null,"丁目名":null,"小字名":"字美和","地番":"270-3","精度区分":null,"座標系":"任意座標系"}},{"type":"Polygon","arcs":[[-696,708,-294,709]],"properties":{"市区町村名":"虻田郡豊浦町","大字名":null,"丁目名":null,"小字名":"字美和","地番":"270-6","精度区分":null,"座標系":"任意座標系"}},{"type":"Polygon","arcs":[[710,-697,-710,-293]],"properties":{"市区町村名":"虻田郡豊浦町","大字名":null,"丁目名":null,"小字名":"字美和","地番":"270-7","精度区分":null,"座標系":"任意座標系"}},{"type":"Polygon","arcs":[[-698,-711,-292,-620,-666,-571,711]],"properties":{"市区町村名":"虻田郡豊浦町","大字名":null,"丁目名":null,"小字名":"字美和","地番":"270-8","精度区分":null,"座標系":"任意座標系"}},{"type":"Polygon","arcs":[[712,-699,-712,-570,-567,-668,-517]],"properties":{"市区町村名":"虻田郡豊浦町","大字名":null,"丁目名":null,"小字名":"字美和","地番":"270-9","精度区分":null,"座標系":"任意座標系"}},{"type":"Polygon","arcs":[[-700,-713,-516,-513,713]],"properties":{"市区町村名":"虻田郡豊浦町","大字名":null,"丁目名":null,"小字名":"字美和","地番":"270-10","精度区分":null,"座標系":"任意座標系"}},{"type":"Polygon","arcs":[[714,-701,-714,-512,-671,-462,-459]],"properties":{"市区町村名":"虻田郡豊浦町","大字名":null,"丁目名":null,"小字名":"字美和","地番":"270-11","精度区分":null,"座標系":"任意座標系"}},{"type":"Polygon","arcs":[[-702,-715,-458,-673,-409,715]],"properties":{"市区町村名":"虻田郡豊浦町","大字名":null,"丁目名":null,"小字名":"字美和","地番":"270-12","精度区分":null,"座標系":"任意座標系"}},{"type":"Polygon","arcs":[[716,-703,-716,-408,-405,-675,-355]],"properties":{"市区町村名":"虻田郡豊浦町","大字名":null,"丁目名":null,"小字名":"字美和","地番":"270-13","精度区分":null,"座標系":"任意座標系"}},{"type":"Polygon","arcs":[[-704,-717,-354,-352,717]],"properties":{"市区町村名":"虻田郡豊浦町","大字名":null,"丁目名":null,"小字名":"字美和","地番":"270-14","精度区分":null,"座標系":"任意座標系"}},{"type":"Polygon","arcs":[[-705,-718,-351,-271,-311,718]],"properties":{"市区町村名":"虻田郡豊浦町","大字名":null,"丁目名":null,"小字名":"字美和","地番":"270-15","精度区分":null,"座標系":"任意座標系"}},{"type":"Polygon","arcs":[[719,720,-262,-691,721]],"properties":{"市区町村名":"虻田郡豊浦町","大字名":null,"丁目名":null,"小字名":"字美和","地番":"270-16","精度区分":null,"座標系":"任意座標系"}},{"type":"Polygon","arcs":[[722,-722,-690,723]],"properties":{"市区町村名":"虻田郡豊浦町","大字名":null,"丁目名":null,"小字名":"字美和","地番":"270-17","精度区分":null,"座標系":"任意座標系"}},{"type":"Polygon","arcs":[[724,725,726,-724,-689]],"properties":{"市区町村名":"虻田郡豊浦町","大字名":null,"丁目名":null,"小字名":"字美和","地番":"270-18","精度区分":null,"座標系":"任意座標系"}},{"type":"Polygon","arcs":[[727,-725,-688,728]],"properties":{"市区町村名":"虻田郡豊浦町","大字名":null,"丁目名":null,"小字名":"字美和","地番":"270-19","精度区分":null,"座標系":"任意座標系"}},{"type":"Polygon","arcs":[[729,730,-729,-687]],"properties":{"市区町村名":"虻田郡豊浦町","大字名":null,"丁目名":null,"小字名":"字美和","地番":"270-20","精度区分":null,"座標系":"任意座標系"}},{"type":"Polygon","arcs":[[731,-730,-686,732]],"properties":{"市区町村名":"虻田郡豊浦町","大字名":null,"丁目名":null,"小字名":"字美和","地番":"270-21","精度区分":null,"座標系":"任意座標系"}},{"type":"Polygon","arcs":[[733,734,-733,-685]],"properties":{"市区町村名":"虻田郡豊浦町","大字名":null,"丁目名":null,"小字名":"字美和","地番":"270-22","精度区分":null,"座標系":"任意座標系"}},{"type":"Polygon","arcs":[[735,-734,-684,736]],"properties":{"市区町村名":"虻田郡豊浦町","大字名":null,"丁目名":null,"小字名":"字美和","地番":"270-23","精度区分":null,"座標系":"任意座標系"}},{"type":"Polygon","arcs":[[737,738,-737,-683]],"properties":{"市区町村名":"虻田郡豊浦町","大字名":null,"丁目名":null,"小字名":"字美和","地番":"270-24","精度区分":null,"座標系":"任意座標系"}},{"type":"Polygon","arcs":[[739,-738,-682,740]],"properties":{"市区町村名":"虻田郡豊浦町","大字名":null,"丁目名":null,"小字名":"字美和","地番":"270-25","精度区分":null,"座標系":"任意座標系"}},{"type":"Polygon","arcs":[[741,742,-741,-681]],"properties":{"市区町村名":"虻田郡豊浦町","大字名":null,"丁目名":null,"小字名":"字美和","地番":"270-26","精度区分":null,"座標系":"任意座標系"}},{"type":"Polygon","arcs":[[743,744,-742,-680]],"properties":{"市区町村名":"虻田郡豊浦町","大字名":null,"丁目名":null,"小字名":"字美和","地番":"270-27","精度区分":null,"座標系":"任意座標系"}},{"type":"Polygon","arcs":[[745,-744,-679,746]],"properties":{"市区町村名":"虻田郡豊浦町","大字名":null,"丁目名":null,"小字名":"字美和","地番":"270-28","精度区分":null,"座標系":"任意座標系"}},{"type":"Polygon","arcs":[[747,-747,-678,748]],"properties":{"市区町村名":"虻田郡豊浦町","大字名":null,"丁目名":null,"小字名":"字美和","地番":"270-29","精度区分":null,"座標系":"任意座標系"}},{"type":"Polygon","arcs":[[749,750,751,752,753,754,755,756,757,758,759,760,761,762,763,-263,-721,764,-726,-728,-731,-732,-735,-736,-739,-740,-743,-745,-746,-748,765]],"properties":{"市区町村名":"虻田郡豊浦町","大字名":null,"丁目名":null,"小字名":"字美和","地番":"270-30","精度区分":null,"座標系":"任意座標系"}},{"type":"Polygon","arcs":[[766,767,-264,-764]],"properties":{"市区町村名":"虻田郡豊浦町","大字名":null,"丁目名":null,"小字名":"字美和","地番":"270-31","精度区分":null,"座標系":"任意座標系"}},{"type":"Polygon","arcs":[[768,-767,-763,769]],"properties":{"市区町村名":"虻田郡豊浦町","大字名":null,"丁目名":null,"小字名":"字美和","地番":"270-32","精度区分":null,"座標系":"任意座標系"}},{"type":"Polygon","arcs":[[770,771,-770,-762]],"properties":{"市区町村名":"虻田郡豊浦町","大字名":null,"丁目名":null,"小字名":"字美和","地番":"270-33","精度区分":null,"座標系":"任意座標系"}},{"type":"Polygon","arcs":[[772,-771,-761,773]],"properties":{"市区町村名":"虻田郡豊浦町","大字名":null,"丁目名":null,"小字名":"字美和","地番":"270-34","精度区分":null,"座標系":"任意座標系"}},{"type":"Polygon","arcs":[[774,775,-774,-760]],"properties":{"市区町村名":"虻田郡豊浦町","大字名":null,"丁目名":null,"小字名":"字美和","地番":"270-35","精度区分":null,"座標系":"任意座標系"}},{"type":"Polygon","arcs":[[776,-775,-759,777]],"properties":{"市区町村名":"虻田郡豊浦町","大字名":null,"丁目名":null,"小字名":"字美和","地番":"270-36","精度区分":null,"座標系":"任意座標系"}},{"type":"Polygon","arcs":[[778,779,-778,-758]],"properties":{"市区町村名":"虻田郡豊浦町","大字名":null,"丁目名":null,"小字名":"字美和","地番":"270-37","精度区分":null,"座標系":"任意座標系"}},{"type":"Polygon","arcs":[[780,-779,-757,781]],"properties":{"市区町村名":"虻田郡豊浦町","大字名":null,"丁目名":null,"小字名":"字美和","地番":"270-38","精度区分":null,"座標系":"任意座標系"}},{"type":"Polygon","arcs":[[782,783,-782,-756]],"properties":{"市区町村名":"虻田郡豊浦町","大字名":null,"丁目名":null,"小字名":"字美和","地番":"270-39","精度区分":null,"座標系":"任意座標系"}},{"type":"Polygon","arcs":[[784,-783,-755,785]],"properties":{"市区町村名":"虻田郡豊浦町","大字名":null,"丁目名":null,"小字名":"字美和","地番":"270-40","精度区分":null,"座標系":"任意座標系"}},{"type":"Polygon","arcs":[[786,787,-786,-754]],"properties":{"市区町村名":"虻田郡豊浦町","大字名":null,"丁目名":null,"小字名":"字美和","地番":"270-41","精度区分":null,"座標系":"任意座標系"}},{"type":"Polygon","arcs":[[788,-787,-753,789]],"properties":{"市区町村名":"虻田郡豊浦町","大字名":null,"丁目名":null,"小字名":"字美和","地番":"270-42","精度区分":null,"座標系":"任意座標系"}},{"type":"Polygon","arcs":[[790,791,-790,-752]],"properties":{"市区町村名":"虻田郡豊浦町","大字名":null,"丁目名":null,"小字名":"字美和","地番":"270-43","精度区分":null,"座標系":"任意座標系"}},{"type":"Polygon","arcs":[[792,-791,-751,793,794]],"properties":{"市区町村名":"虻田郡豊浦町","大字名":null,"丁目名":null,"小字名":"字美和","地番":"270-44","精度区分":null,"座標系":"任意座標系"}},{"type":"Polygon","arcs":[[795,-794,-750,796]],"properties":{"市区町村名":"虻田郡豊浦町","大字名":null,"丁目名":null,"小字名":"字美和","地番":"270-45","精度区分":null,"座標系":"任意座標系"}},{"type":"Polygon","arcs":[[-765,-720,-723,-727]],"properties":{"市区町村名":"虻田郡豊浦町","大字名":null,"丁目名":null,"小字名":"字美和","地番":"270-46","精度区分":null,"座標系":"任意座標系"}},{"type":"Polygon","arcs":[[-795,-796,797]],"properties":{"市区町村名":"虻田郡豊浦町","大字名":null,"丁目名":null,"小字名":"字美和","地番":"270-47","精度区分":null,"座標系":"任意座標系"}},{"type":"Polygon","arcs":[[798,799,800,801,802]],"properties":{"市区町村名":"虻田郡豊浦町","大字名":null,"丁目名":null,"小字名":"字美和","地番":"311-1","精度区分":null,"座標系":"任意座標系"}},{"type":"Polygon","arcs":[[-255,803,804,805,806,807,808,809,-800,810]],"properties":{"市区町村名":"虻田郡豊浦町","大字名":null,"丁目名":null,"小字名":"字美和","地番":"311-2","精度区分":null,"座標系":"任意座標系"}},{"type":"Polygon","arcs":[[-252,811,812,813]],"properties":{"市区町村名":"虻田郡豊浦町","大字名":null,"丁目名":null,"小字名":"字美和","地番":"311-3","精度区分":null,"座標系":"任意座標系"}},{"type":"Polygon","arcs":[[814,815,816,-813]],"properties":{"市区町村名":"虻田郡豊浦町","大字名":null,"丁目名":null,"小字名":"字美和","地番":"311-4","精度区分":null,"座標系":"任意座標系"}},{"type":"Polygon","arcs":[[817,818,-816]],"properties":{"市区町村名":"虻田郡豊浦町","大字名":null,"丁目名":null,"小字名":"字美和","地番":"311-5","精度区分":null,"座標系":"任意座標系"}},{"type":"Polygon","arcs":[[-819,819,820,821,822]],"properties":{"市区町村名":"虻田郡豊浦町","大字名":null,"丁目名":null,"小字名":"字美和","地番":"311-6","精度区分":null,"座標系":"任意座標系"}},{"type":"Polygon","arcs":[[-817,-823,823,824,825]],"properties":{"市区町村名":"虻田郡豊浦町","大字名":null,"丁目名":null,"小字名":"字美和","地番":"311-7","精度区分":null,"座標系":"任意座標系"}},{"type":"Polygon","arcs":[[-814,-826,826,-253]],"properties":{"市区町村名":"虻田郡豊浦町","大字名":null,"丁目名":null,"小字名":"字美和","地番":"311-8","精度区分":null,"座標系":"任意座標系"}},{"type":"Polygon","arcs":[[-827,-825,827,-804,-254]],"properties":{"市区町村名":"虻田郡豊浦町","大字名":null,"丁目名":null,"小字名":"字美和","地番":"311-9","精度区分":null,"座標系":"任意座標系"}},{"type":"Polygon","arcs":[[-824,-822,828,829,-805,-828]],"properties":{"市区町村名":"虻田郡豊浦町","大字名":null,"丁目名":null,"小字名":"字美和","地番":"311-10","精度区分":null,"座標系":"任意座標系"}},{"type":"Polygon","arcs":[[-821,830,831,-829]],"properties":{"市区町村名":"虻田郡豊浦町","大字名":null,"丁目名":null,"小字名":"字美和","地番":"311-11","精度区分":null,"座標系":"任意座標系"}},{"type":"Polygon","arcs":[[-832,832,833,-806,-830]],"properties":{"市区町村名":"虻田郡豊浦町","大字名":null,"丁目名":null,"小字名":"字美和","地番":"311-12","精度区分":null,"座標系":"任意座標系"}},{"type":"Polygon","arcs":[[-834,834,835,-807]],"properties":{"市区町村名":"虻田郡豊浦町","大字名":null,"丁目名":null,"小字名":"字美和","地番":"311-13","精度区分":null,"座標系":"任意座標系"}},{"type":"Polygon","arcs":[[-836,836,837,838,839,-808]],"properties":{"市区町村名":"虻田郡豊浦町","大字名":null,"丁目名":null,"小字名":"字美和","地番":"311-14","精度区分":null,"座標系":"任意座標系"}},{"type":"Polygon","arcs":[[-840,840,841,842,843,-809]],"properties":{"市区町村名":"虻田郡豊浦町","大字名":null,"丁目名":null,"小字名":"字美和","地番":"311-15","精度区分":null,"座標系":"任意座標系"}},{"type":"Polygon","arcs":[[844,845,846,847,-801,-810,-844]],"properties":{"市区町村名":"虻田郡豊浦町","大字名":null,"丁目名":null,"小字名":"字美和","地番":"311-16","精度区分":null,"座標系":"任意座標系"}},{"type":"Polygon","arcs":[[-802,-848,848,849,-266,-124,850,851]],"properties":{"市区町村名":"虻田郡豊浦町","大字名":null,"丁目名":null,"小字名":"字美和","地番":"311-17","精度区分":null,"座標系":"任意座標系"}},{"type":"Polygon","arcs":[[-851,-123,852,-227,-145,853,854,855]],"properties":{"市区町村名":"虻田郡豊浦町","大字名":null,"丁目名":null,"小字名":"字美和","地番":"311-18","精度区分":null,"座標系":"任意座標系"}},{"type":"Polygon","arcs":[[-854,-144,856,-250,-6,857,858]],"properties":{"市区町村名":"虻田郡豊浦町","大字名":null,"丁目名":null,"小字名":"字美和","地番":"311-19","精度区分":null,"座標系":"任意座標系"}},{"type":"Polygon","arcs":[[859,-855,-859,860,861]],"properties":{"市区町村名":"虻田郡豊浦町","大字名":null,"丁目名":null,"小字名":"字美和","地番":"311-20","精度区分":null,"座標系":"任意座標系"}},{"type":"Polygon","arcs":[[862,863,864,-862,865]],"properties":{"市区町村名":"虻田郡豊浦町","大字名":null,"丁目名":null,"小字名":"字美和","地番":"311-21","精度区分":null,"座標系":"任意座標系"}},{"type":"Polygon","arcs":[[866,-863,867,-257]],"properties":{"市区町村名":"虻田郡豊浦町","大字名":null,"丁目名":null,"小字名":"字美和","地番":"311-22","精度区分":null,"座標系":"任意座標系"}},{"type":"Polygon","arcs":[[-799,868,-864,-867,-256,-811]],"properties":{"市区町村名":"虻田郡豊浦町","大字名":null,"丁目名":null,"小字名":"字美和","地番":"311-23","精度区分":null,"座標系":"任意座標系"}},{"type":"Polygon","arcs":[[-803,-852,-856,-860,-865,-869]],"properties":{"市区町村名":"虻田郡豊浦町","大字名":null,"丁目名":null,"小字名":"字美和","地番":"311-24","精度区分":null,"座標系":"任意座標系"}},{"type":"Polygon","arcs":[[869,870,871,872,873,874,875,876,877,878,879,880,881,882,883,-21,884,-17,885,886,887,-13,888,889,890,891,892,893,894,895,896,897,898,899,900,901,902,903,904,905,906,907,908,909,910,911,-24,-31,-34,-37,-40,-43,-46,-49,-269,-53,-56,-59,-62,-65,-69,-72,-27,912,-93,-113,-111,-107,-109,-90,-87,-110,-98,-76,-78,-97,-102,-105,-85,913,-154,-164,-169,-170,-174,-176,-179,-197,-195,-150,-194,-193,-189,-185,-186,-162,-166,-199,-201,-202,-148,914,-221,-218,-214,-211,-217,-205,-210,915,-236,-231,-245,-246,-248,-238,-249,-857,-143,-229,-230,-139,-135,-224,-226,-853,-122,-128,-119,-114,-129,-132,-133,-265,-850,916,917,918,919,920,921,922,923,924,925,926,927,-845,-843,928,929,930,931,932,-8,933,934,935,936,-838]],"properties":{"市区町村名":"虻田郡豊浦町","大字名":null,"丁目名":null,"小字名":"字美和","地番":"312-1","精度区分":null,"座標系":"任意座標系"}},{"type":"Polygon","arcs":[[-937,937,938,-841,-839]],"properties":{"市区町村名":"虻田郡豊浦町","大字名":null,"丁目名":null,"小字名":"字美和","地番":"312-2","精度区分":null,"座標系":"任意座標系"}},{"type":"Polygon","arcs":[[-936,939,940,-938]],"properties":{"市区町村名":"虻田郡豊浦町","大字名":null,"丁目名":null,"小字名":"字美和","地番":"312-3","精度区分":null,"座標系":"任意座標系"}},{"type":"Polygon","arcs":[[-940,-935,941,942,943]],"properties":{"市区町村名":"虻田郡豊浦町","大字名":null,"丁目名":null,"小字名":"字美和","地番":"312-4","精度区分":null,"座標系":"任意座標系"}},{"type":"Polygon","arcs":[[-934,-7,944,945,-942]],"properties":{"市区町村名":"虻田郡豊浦町","大字名":null,"丁目名":null,"小字名":"字美和","地番":"312-5","精度区分":null,"座標系":"任意座標系"}},{"type":"Polygon","arcs":[[946,947,-882]],"properties":{"市区町村名":"虻田郡豊浦町","大字名":null,"丁目名":null,"小字名":"字美和","地番":"312-6","精度区分":null,"座標系":"任意座標系"}},{"type":"Polygon","arcs":[[-881,948,-19,949,-947]],"properties":{"市区町村名":"虻田郡豊浦町","大字名":null,"丁目名":null,"小字名":"字美和","地番":"312-7","精度区分":null,"座標系":"任意座標系"}},{"type":"Polygon","arcs":[[-949,-880,950,-15,951]],"properties":{"市区町村名":"虻田郡豊浦町","大字名":null,"丁目名":null,"小字名":"字美和","地番":"312-8","精度区分":null,"座標系":"任意座標系"}},{"type":"Polygon","arcs":[[-879,952,953,-951]],"properties":{"市区町村名":"虻田郡豊浦町","大字名":null,"丁目名":null,"小字名":"字美和","地番":"312-9","精度区分":null,"座標系":"任意座標系"}},{"type":"Polygon","arcs":[[-953,-878,954,955]],"properties":{"市区町村名":"虻田郡豊浦町","大字名":null,"丁目名":null,"小字名":"字美和","地番":"312-10","精度区分":null,"座標系":"任意座標系"}},{"type":"Polygon","arcs":[[-877,956,957,-955]],"properties":{"市区町村名":"虻田郡豊浦町","大字名":null,"丁目名":null,"小字名":"字美和","地番":"312-11","精度区分":null,"座標系":"任意座標系"}},{"type":"Polygon","arcs":[[-957,-876,958,-11]],"properties":{"市区町村名":"虻田郡豊浦町","大字名":null,"丁目名":null,"小字名":"字美和","地番":"312-12","精度区分":null,"座標系":"任意座標系"}},{"type":"Polygon","arcs":[[-875,959,960,961,-959]],"properties":{"市区町村名":"虻田郡豊浦町","大字名":null,"丁目名":null,"小字名":"字美和","地番":"312-13","精度区分":null,"座標系":"任意座標系"}},{"type":"Polygon","arcs":[[-960,-874,962,963]],"properties":{"市区町村名":"虻田郡豊浦町","大字名":null,"丁目名":null,"小字名":"字美和","地番":"312-14","精度区分":null,"座標系":"任意座標系"}},{"type":"Polygon","arcs":[[-873,964,965,-963]],"properties":{"市区町村名":"虻田郡豊浦町","大字名":null,"丁目名":null,"小字名":"字美和","地番":"312-15","精度区分":null,"座標系":"任意座標系"}},{"type":"Polygon","arcs":[[-965,-872,966,967]],"properties":{"市区町村名":"虻田郡豊浦町","大字名":null,"丁目名":null,"小字名":"字美和","地番":"312-16","精度区分":null,"座標系":"任意座標系"}},{"type":"Polygon","arcs":[[-871,968,969,-967]],"properties":{"市区町村名":"虻田郡豊浦町","大字名":null,"丁目名":null,"小字名":"字美和","地番":"312-17","精度区分":null,"座標系":"任意座標系"}},{"type":"Polygon","arcs":[[-939,-941,970,-929,-842]],"properties":{"市区町村名":"虻田郡豊浦町","大字名":null,"丁目名":null,"小字名":"字美和","地番":"312-18","精度区分":null,"座標系":"任意座標系"}},{"type":"Polygon","arcs":[[-944,971,-930,-971]],"properties":{"市区町村名":"虻田郡豊浦町","大字名":null,"丁目名":null,"小字名":"字美和","地番":"312-19","精度区分":null,"座標系":"任意座標系"}},{"type":"Polygon","arcs":[[-943,972,-931,-972]],"properties":{"市区町村名":"虻田郡豊浦町","大字名":null,"丁目名":null,"小字名":"字美和","地番":"312-20","精度区分":null,"座標系":"任意座標系"}},{"type":"Polygon","arcs":[[-973,-946,973,-932]],"properties":{"市区町村名":"虻田郡豊浦町","大字名":null,"丁目名":null,"小字名":"字美和","地番":"312-21","精度区分":null,"座標系":"任意座標系"}},{"type":"Polygon","arcs":[[-974,-945,-9,-933]],"properties":{"市区町村名":"虻田郡豊浦町","大字名":null,"丁目名":null,"小字名":"字美和","地番":"312-22","精度区分":null,"座標系":"任意座標系"}},{"type":"Polygon","arcs":[[-948,974,-883]],"properties":{"市区町村名":"虻田郡豊浦町","大字名":null,"丁目名":null,"小字名":"字美和","地番":"312-23","精度区分":null,"座標系":"任意座標系"}},{"type":"Polygon","arcs":[[-950,-18,-884,-975]],"properties":{"市区町村名":"虻田郡豊浦町","大字名":null,"丁目名":null,"小字名":"字美和","地番":"312-24","精度区分":null,"座標系":"任意座標系"}},{"type":"Polygon","arcs":[[-20,-952,-14,-885]],"properties":{"市区町村名":"虻田郡豊浦町","大字名":null,"丁目名":null,"小字名":"字美和","地番":"312-25","精度区分":null,"座標系":"任意座標系"}},{"type":"Polygon","arcs":[[-954,975,-886,-16]],"properties":{"市区町村名":"虻田郡豊浦町","大字名":null,"丁目名":null,"小字名":"字美和","地番":"312-26","精度区分":null,"座標系":"任意座標系"}},{"type":"Polygon","arcs":[[-976,-956,976,-887]],"properties":{"市区町村名":"虻田郡豊浦町","大字名":null,"丁目名":null,"小字名":"字美和","地番":"312-27","精度区分":null,"座標系":"任意座標系"}},{"type":"Polygon","arcs":[[-958,-10,-888,-977]],"properties":{"市区町村名":"虻田郡豊浦町","大字名":null,"丁目名":null,"小字名":"字美和","地番":"312-28","精度区分":null,"座標系":"任意座標系"}},{"type":"Polygon","arcs":[[-962,977,-889,-12]],"properties":{"市区町村名":"虻田郡豊浦町","大字名":null,"丁目名":null,"小字名":"字美和","地番":"312-30","精度区分":null,"座標系":"任意座標系"}},{"type":"Polygon","arcs":[[-978,-961,978,-890]],"properties":{"市区町村名":"虻田郡豊浦町","大字名":null,"丁目名":null,"小字名":"字美和","地番":"312-31","精度区分":null,"座標系":"任意座標系"}},{"type":"Polygon","arcs":[[-979,-964,-966,-968,979,-891]],"properties":{"市区町村名":"虻田郡豊浦町","大字名":null,"丁目名":null,"小字名":"字美和","地番":"312-32","精度区分":null,"座標系":"任意座標系"}},{"type":"Polygon","arcs":[[-970,980,-892,-980]],"properties":{"市区町村名":"虻田郡豊浦町","大字名":null,"丁目名":null,"小字名":"字美和","地番":"312-33","精度区分":null,"座標系":"任意座標系"}},{"type":"Polygon","arcs":[[981,982,983,-846,-928]],"properties":{"市区町村名":"虻田郡豊浦町","大字名":null,"丁目名":null,"小字名":"字美和","地番":"312-34","精度区分":null,"座標系":"任意座標系"}},{"type":"Polygon","arcs":[[-982,-927,984,985]],"properties":{"市区町村名":"虻田郡豊浦町","大字名":null,"丁目名":null,"小字名":"字美和","地番":"312-35","精度区分":null,"座標系":"任意座標系"}},{"type":"Polygon","arcs":[[-926,986,987,-985]],"properties":{"市区町村名":"虻田郡豊浦町","大字名":null,"丁目名":null,"小字名":"字美和","地番":"312-36","精度区分":null,"座標系":"任意座標系"}},{"type":"Polygon","arcs":[[-987,-925,988,989]],"properties":{"市区町村名":"虻田郡豊浦町","大字名":null,"丁目名":null,"小字名":"字美和","地番":"312-37","精度区分":null,"座標系":"任意座標系"}},{"type":"Polygon","arcs":[[-924,990,991,-989]],"properties":{"市区町村名":"虻田郡豊浦町","大字名":null,"丁目名":null,"小字名":"字美和","地番":"312-38","精度区分":null,"座標系":"任意座標系"}},{"type":"Polygon","arcs":[[-991,-923,992]],"properties":{"市区町村名":"虻田郡豊浦町","大字名":null,"丁目名":null,"小字名":"字美和","地番":"312-39","精度区分":null,"座標系":"任意座標系"}},{"type":"Polygon","arcs":[[993,-22,-912]],"properties":{"市区町村名":"虻田郡豊浦町","大字名":null,"丁目名":null,"小字名":"字美和","地番":"312-40","精度区分":null,"座標系":"任意座標系"}},{"type":"Polygon","arcs":[[-911,994,-29,-994]],"properties":{"市区町村名":"虻田郡豊浦町","大字名":null,"丁目名":null,"小字名":"字美和","地番":"312-41","精度区分":null,"座標系":"任意座標系"}},{"type":"Polygon","arcs":[[-995,-910,995,-32]],"properties":{"市区町村名":"虻田郡豊浦町","大字名":null,"丁目名":null,"小字名":"字美和","地番":"312-42","精度区分":null,"座標系":"任意座標系"}},{"type":"Polygon","arcs":[[-909,996,-35,-996]],"properties":{"市区町村名":"虻田郡豊浦町","大字名":null,"丁目名":null,"小字名":"字美和","地番":"312-43","精度区分":null,"座標系":"任意座標系"}},{"type":"Polygon","arcs":[[-997,-908,997,-38]],"properties":{"市区町村名":"虻田郡豊浦町","大字名":null,"丁目名":null,"小字名":"字美和","地番":"312-44","精度区分":null,"座標系":"任意座標系"}},{"type":"Polygon","arcs":[[-907,998,-41,-998]],"properties":{"市区町村名":"虻田郡豊浦町","大字名":null,"丁目名":null,"小字名":"字美和","地番":"312-45","精度区分":null,"座標系":"任意座標系"}},{"type":"Polygon","arcs":[[-999,-906,999,-44]],"properties":{"市区町村名":"虻田郡豊浦町","大字名":null,"丁目名":null,"小字名":"字美和","地番":"312-46","精度区分":null,"座標系":"任意座標系"}},{"type":"Polygon","arcs":[[-905,1000,-47,-1000]],"properties":{"市区町村名":"虻田郡豊浦町","大字名":null,"丁目名":null,"小字名":"字美和","地番":"312-47","精度区分":null,"座標系":"任意座標系"}},{"type":"Polygon","arcs":[[-1001,-904,1001,-267]],"properties":{"市区町村名":"虻田郡豊浦町","大字名":null,"丁目名":null,"小字名":"字美和","地番":"312-48","精度区分":null,"座標系":"任意座標系"}},{"type":"Polygon","arcs":[[-903,1002,-268,-1002]],"properties":{"市区町村名":"虻田郡豊浦町","大字名":null,"丁目名":null,"小字名":"字美和","地番":"312-49","精度区分":null,"座標系":"任意座標系"}},{"type":"Polygon","arcs":[[-1003,-902,1003,-51]],"properties":{"市区町村名":"虻田郡豊浦町","大字名":null,"丁目名":null,"小字名":"字美和","地番":"312-50","精度区分":null,"座標系":"任意座標系"}},{"type":"Polygon","arcs":[[-901,1004,-54,-1004]],"properties":{"市区町村名":"虻田郡豊浦町","大字名":null,"丁目名":null,"小字名":"字美和","地番":"312-51","精度区分":null,"座標系":"任意座標系"}},{"type":"Polygon","arcs":[[-1005,-900,1005,-57]],"properties":{"市区町村名":"虻田郡豊浦町","大字名":null,"丁目名":null,"小字名":"字美和","地番":"312-52","精度区分":null,"座標系":"任意座標系"}},{"type":"Polygon","arcs":[[-899,1006,-60,-1006]],"properties":{"市区町村名":"虻田郡豊浦町","大字名":null,"丁目名":null,"小字名":"字美和","地番":"312-53","精度区分":null,"座標系":"任意座標系"}},{"type":"Polygon","arcs":[[-1007,-898,1007,-63]],"properties":{"市区町村名":"虻田郡豊浦町","大字名":null,"丁目名":null,"小字名":"字美和","地番":"312-54","精度区分":null,"座標系":"任意座標系"}},{"type":"Polygon","arcs":[[-897,1008,-66,-1008]],"properties":{"市区町村名":"虻田郡豊浦町","大字名":null,"丁目名":null,"小字名":"字美和","地番":"312-55","精度区分":null,"座標系":"任意座標系"}},{"type":"Polygon","arcs":[[-1009,-896,1009,-70,-67]],"properties":{"市区町村名":"虻田郡豊浦町","大字名":null,"丁目名":null,"小字名":"字美和","地番":"312-56","精度区分":null,"座標系":"任意座標系"}},{"type":"Polygon","arcs":[[-895,1010,-71,-1010]],"properties":{"市区町村名":"虻田郡豊浦町","大字名":null,"丁目名":null,"小字名":"字美和","地番":"312-57","精度区分":null,"座標系":"任意座標系"}},{"type":"Polygon","arcs":[[-894,1011,-25,-1011]],"properties":{"市区町村名":"虻田郡豊浦町","大字名":null,"丁目名":null,"小字名":"字美和","地番":"312-58","精度区分":null,"座標系":"任意座標系"}},{"type":"Polygon","arcs":[[-984,1012,-917,-849,-847]],"properties":{"市区町村名":"虻田郡豊浦町","大字名":null,"丁目名":null,"小字名":"字美和","地番":"312-59","精度区分":null,"座標系":"任意座標系"}},{"type":"Polygon","arcs":[[-983,1013,-918,-1013]],"properties":{"市区町村名":"虻田郡豊浦町","大字名":null,"丁目名":null,"小字名":"字美和","地番":"312-60","精度区分":null,"座標系":"任意座標系"}},{"type":"Polygon","arcs":[[-1014,-986,1014,-919]],"properties":{"市区町村名":"虻田郡豊浦町","大字名":null,"丁目名":null,"小字名":"字美和","地番":"312-61","精度区分":null,"座標系":"任意座標系"}},{"type":"Polygon","arcs":[[-988,1015,-920,-1015]],"properties":{"市区町村名":"虻田郡豊浦町","大字名":null,"丁目名":null,"小字名":"字美和","地番":"312-62","精度区分":null,"座標系":"任意座標系"}},{"type":"Polygon","arcs":[[-1016,-990,1016,-921]],"properties":{"市区町村名":"虻田郡豊浦町","大字名":null,"丁目名":null,"小字名":"字美和","地番":"312-63","精度区分":null,"座標系":"任意座標系"}},{"type":"Polygon","arcs":[[-992,-993,-922,-1017]],"properties":{"市区町村名":"虻田郡豊浦町","大字名":null,"丁目名":null,"小字名":"字美和","地番":"312-64","精度区分":null,"座標系":"任意座標系"}},{"type":"Polygon","arcs":[[-694,-708,-296,1017]],"properties":{"市区町村名":"虻田郡豊浦町","大字名":null,"丁目名":null,"小字名":"字美和","地番":"270-4","精度区分":null,"座標系":"任意座標系"}},{"type":"Polygon","arcs":[[-709,-695,-1018,-295]],"properties":{"市区町村名":"虻田郡豊浦町","大字名":null,"丁目名":null,"小字名":"字美和","地番":"270-5","精度区分":null,"座標系":"任意座標系"}}]}},"arcs":[[[466367,747520],[-10386,9809]],[[455981,757329],[-10178,9614]],[[445803,766943],[2821,1635]],[[448624,768578],[22317,12931]],[[470941,781509],[20502,-19482]],[[491443,762027],[-25076,-14507]],[[225552,688084],[-13613,12895]],[[211939,700979],[22003,12727],[13650,-12884]],[[247592,700822],[-22040,-12738]],[[149127,794428],[-22097,-12811]],[[127030,781617],[-9016,8564]],[[118014,790181],[22118,12791]],[[140132,802972],[8995,-8544]],[[194975,750880],[-22055,-12859]],[[172920,738021],[-9224,8763]],[[163696,746784],[22152,12765]],[[185848,759549],[9127,-8669]],[[213105,733659],[-22080,-12838]],[[191025,720821],[-9082,8629]],[[181943,729450],[22087,12828]],[[204030,742278],[9075,-8619]],[[256807,731159],[-9140,8687]],[[247667,739846],[22121,12805]],[[269788,752651],[9111,-8655],[-22092,-12837]],[[93238,886603],[-18155,17254]],[[75083,903857],[22064,12785]],[[97147,916642],[18138,-17230]],[[115285,899412],[-22047,-12809]],[[247667,739846],[-9025,8576]],[[238642,748422],[22094,12827]],[[260736,761249],[9052,-8598]],[[238642,748422],[-9058,8608]],[[229584,757030],[22096,12821]],[[251680,769851],[9056,-8602]],[[229584,757030],[-9030,8581]],[[220554,765611],[22089,12824]],[[242643,778435],[9037,-8584]],[[220554,765611],[-9183,8727]],[[211371,774338],[22118,12793]],[[233489,787131],[9154,-8696]],[[211371,774338],[-9170,8715]],[[202201,783053],[22104,12801]],[[224305,795854],[9184,-8723]],[[202201,783053],[-9088,8637]],[[193113,791690],[22094,12807]],[[215207,804497],[9098,-8643]],[[193113,791690],[-9169,8714]],[[183944,800404],[22123,12775]],[[206067,813179],[9140,-8682]],[[187772,830558],[-22110,-12781]],[[165662,817777],[-9100,8647]],[[156562,826424],[22128,12760]],[[178690,839184],[9082,-8626]],[[156562,826424],[-9079,8628]],[[147483,835052],[22091,12792]],[[169574,847844],[9116,-8660]],[[147483,835052],[-9018,8570]],[[138465,843622],[22090,12788]],[[160555,856410],[9019,-8566]],[[138465,843622],[-9071,8621]],[[129394,852243],[22078,12795]],[[151472,865038],[9083,-8628]],[[129394,852243],[-9016,8568]],[[120378,860811],[22115,12757]],[[142493,873568],[8979,-8530]],[[120378,860811],[-9027,8578]],[[111351,869389],[-4460,4239]],[[106891,873628],[22061,12803]],[[128952,886431],[13541,-12863]],[[106891,873628],[-4632,4401]],[[102259,878029],[-9021,8574]],[[115285,899412],[13667,-12981]],[[237077,789168],[22153,12810]],[[259230,801978],[18232,-17338]],[[277462,784640],[27096,-25765]],[[304558,758875],[-22086,-12809],[-45395,43102]],[[277462,784640],[22080,12862]],[[299542,797502],[27168,-25781],[-22152,-12846]],[[190183,901274],[-22023,-12750]],[[168160,888524],[-9067,8595]],[[159093,897119],[-9055,8582]],[[150038,905701],[-9003,8535]],[[141035,914236],[-18226,17275]],[[122809,931511],[22046,12775]],[[144855,944286],[45328,-43012]],[[195384,862690],[-22274,-12786]],[[173110,849904],[-8996,8542]],[[164114,858446],[22194,12874]],[[186308,871320],[9076,-8630]],[[164114,858446],[-9091,8632]],[[155023,867078],[22202,12852]],[[177225,879930],[9083,-8610]],[[118822,901450],[-18151,17234]],[[100671,918684],[22138,12827]],[[141035,914236],[-22213,-12786]],[[259230,801978],[22117,12788]],[[281347,814766],[18195,-17264]],[[237077,789168],[-45760,43449]],[[191317,832617],[22186,12843]],[[213503,845460],[45727,-43482]],[[213503,845460],[22048,12764]],[[235551,858224],[45796,-43458]],[[213503,845460],[-18119,17230]],[[177225,879930],[-9065,8594]],[[190183,901274],[45368,-43050]],[[168160,888524],[-22193,-12847]],[[145967,875677],[-8981,8527]],[[136986,884204],[22107,12915]],[[155023,867078],[-9056,8599]],[[191317,832617],[-18207,17287]],[[136986,884204],[-9100,8640]],[[127886,892844],[22152,12857]],[[127886,892844],[-9064,8606]],[[298795,730506],[-13575,12872],[22088,12806]],[[307308,756184],[13584,-12871]],[[320892,743313],[-22097,-12807]],[[347622,751916],[-22209,-12888]],[[325413,739028],[-4521,4285]],[[307308,756184],[22220,12884],[18094,-17152]],[[373283,693667],[-20470,19398]],[[352813,713065],[22211,12877]],[[375024,725942],[20485,-19417]],[[395509,706525],[-8292,-4798]],[[387217,701727],[-13934,-8060]],[[352813,713065],[-9122,8644]],[[343691,721709],[-13783,13060]],[[329908,734769],[-4495,4259]],[[347622,751916],[27402,-25974]],[[307889,721882],[-9094,8624]],[[329908,734769],[-22019,-12887]],[[343691,721709],[-22074,-12844]],[[321617,708865],[-13728,13017]],[[330705,700248],[-9088,8617]],[[352813,713065],[-22108,-12817]],[[378516,727985],[-45500,43107],[22067,12774]],[[355083,783866],[9052,-8575]],[[364135,775291],[36479,-34555]],[[400614,740736],[-22098,-12751]],[[355083,783866],[22233,12868],[9013,-8541]],[[386329,788193],[-22194,-12902]],[[421100,721331],[-11386,10785]],[[409714,732116],[22167,12908]],[[431881,745024],[11437,-10839]],[[443318,734185],[-3808,-2204]],[[439510,731981],[-18410,-10650]],[[188743,941865],[-18242,17282]],[[170501,959147],[22218,12874]],[[192719,972021],[18144,-17245]],[[210863,954776],[-22120,-12911]],[[352356,786498],[-22080,-12767],[-19885,18887]],[[310391,792618],[21946,12894]],[[332337,805512],[1907,-1811]],[[334244,803701],[18112,-17203]],[[193805,903348],[-45318,43043]],[[148487,946391],[22014,12756]],[[188743,941865],[9074,-8597]],[[197817,933268],[9073,-8595]],[[206890,924673],[9010,-8537]],[[215900,916136],[-22095,-12788]],[[261169,873108],[-13604,12922]],[[247565,886030],[22131,12833]],[[269696,898863],[13609,-12932]],[[283305,885931],[-22136,-12823]],[[225507,873239],[-31702,30109]],[[215900,916136],[22139,12813]],[[238039,928949],[31657,-30086]],[[247565,886030],[-22058,-12791]],[[261169,873108],[-22066,-12783]],[[239103,860325],[-13596,12914]],[[248190,851695],[-9087,8630]],[[261169,873108],[9083,-8626]],[[270252,864482],[-22062,-12787]],[[284075,851352],[-21982,-12863]],[[262093,838489],[-13903,13206]],[[270252,864482],[13823,-13130]],[[271119,829918],[-9026,8571]],[[284075,851352],[9075,-8619]],[[293150,842733],[-22031,-12815]],[[284861,816865],[-13742,13053]],[[293150,842733],[13766,-13077]],[[306916,829656],[-22055,-12791]],[[338239,833722],[-22199,-12730]],[[316040,820992],[-9124,8664]],[[306916,829656],[22109,12823]],[[329025,842479],[9214,-8757]],[[283305,885931],[45720,-43452]],[[325126,812362],[-4423,4200]],[[320703,816562],[-4663,4430]],[[338239,833722],[8991,-8544]],[[347230,825178],[-22104,-12816]],[[356297,816561],[-22053,-12860]],[[332337,805512],[-7211,6850]],[[347230,825178],[9067,-8617]],[[356297,816561],[18175,-17274],[-22116,-12789]],[[310391,792618],[-11838,11242]],[[298553,803860],[22150,12702]],[[298553,803860],[-13692,13005]],[[206890,924673],[22114,12863]],[[229004,937536],[9035,-8587]],[[197817,933268],[22076,12927]],[[219893,946195],[9111,-8659]],[[210863,954776],[9030,-8581]],[[355217,822900],[22177,12794]],[[377394,835694],[22578,-21562]],[[399972,814132],[-22090,-12796],[-22665,21564]],[[377394,835694],[-9000,8595]],[[368394,844289],[-13714,13098]],[[354680,857387],[22643,13078]],[[377323,870465],[45410,-43149]],[[422733,827316],[-22761,-13184]],[[346206,831473],[-13640,12977]],[[332566,844450],[22114,12937]],[[368394,844289],[-22188,-12816]],[[332566,844450],[-45729,43507]],[[286837,887957],[44792,25928]],[[331629,913885],[45694,-43420]],[[355217,822900],[-9011,8573]],[[286837,887957],[-45182,42986]],[[241655,930943],[44570,26085]],[[286225,957028],[45404,-43143]],[[241655,930943],[-45357,43152]],[[196298,974095],[44705,25904],[45222,-42971]],[[409714,732116],[-22023,-12824]],[[387691,719292],[-9175,8693]],[[400614,740736],[9100,-8620]],[[399022,708557],[-11331,10735]],[[421100,721331],[-22078,-12774]],[[400614,740736],[22246,12836]],[[422860,753572],[9021,-8548]],[[386329,788193],[36531,-34621]],[[389714,790272],[-8951,8474],[22480,13064]],[[403243,811810],[8841,-8421]],[[412084,803389],[-22370,-13117]],[[452357,799168],[-22269,-12931]],[[430088,786237],[-18004,17152]],[[403243,811810],[22219,12913]],[[425462,824723],[26895,-25555]],[[436622,745865],[-10223,9678]],[[426399,755543],[19404,11400]],[[455981,757329],[-19359,-11464]],[[448624,768578],[-9593,9139]],[[439031,777717],[-8943,8520]],[[452357,799168],[18584,-17659]],[[430088,786237],[-22383,-12997]],[[407705,773240],[-17991,17032]],[[416699,764725],[-8994,8515]],[[439031,777717],[-22332,-12992]],[[426399,755543],[-9700,9182]],[[446821,736211],[-10199,9654]],[[466367,747520],[-19546,-11309]],[[142210,356714],[-7472,7074]],[[134738,363788],[48231,27988]],[[182969,391776],[48260,28005]],[[231229,419781],[40257,23361]],[[271486,443142],[268887,155865]],[[540373,599007],[6728,3903]],[[547101,602910],[69746,40450]],[[616847,643360],[7585,-7242]],[[624432,636118],[-241200,-139754]],[[383232,496364],[-73849,-42788]],[[309383,453576],[-6482,-3756]],[[302901,449820],[-73861,-42796]],[[229040,407024],[-6452,-3738]],[[222588,403286],[-80378,-46572]],[[351150,680861],[-20445,19387]],[[373283,693667],[-22133,-12806]],[[183944,800404],[-9188,8731]],[[174756,809135],[-9094,8642]],[[187772,830558],[18295,-17379]],[[766011,169235],[-24092,-13896]],[[741919,155339],[-2742,2607]],[[739177,157946],[24135,13925]],[[763312,171871],[24078,13890]],[[787390,185761],[24272,14003]],[[811662,199764],[24197,13960]],[[835859,213724],[24108,13908]],[[859967,227632],[24095,13900]],[[884062,241532],[24224,13975]],[[908286,255507],[24053,13877]],[[932339,269384],[24065,13883]],[[956404,283267],[24210,13967]],[[980614,297234],[2764,-2629]],[[983378,294605],[-24214,-13965]],[[959164,280640],[-24146,-13927]],[[935018,266713],[-24092,-13896]],[[910926,252817],[-24132,-13919]],[[886794,238898],[-24129,-13916]],[[862665,224982],[-24128,-13917]],[[838537,211065],[-24203,-13959]],[[814334,197106],[-24074,-13886]],[[790260,183220],[-24249,-13985]],[[550335,337489],[-4039,3840]],[[546296,341329],[-27132,25797]],[[519164,367126],[-27149,25811]],[[492015,392937],[-27241,25900]],[[464774,418837],[-27395,26046]],[[437379,444883],[-27102,25768]],[[410277,470651],[-27045,25713]],[[624432,636118],[82811,-78788]],[[707243,557330],[-37116,-51855]],[[670127,505475],[-5389,-7557]],[[664738,497918],[-5044,-7073]],[[659694,490845],[-25731,-36083]],[[633963,454762],[-5635,-7901]],[[628328,446861],[-25321,-35509]],[[603007,411352],[-5088,-7135]],[[597919,404217],[-478,-670]],[[597441,403547],[-30490,-42756]],[[566951,360791],[-883,-1240]],[[566068,359551],[-15733,-22062]],[[758644,139438],[-16725,15901]],[[766011,169235],[16763,-15865]],[[782774,153370],[-24130,-13932]],[[790260,183220],[16680,-15897]],[[806940,167323],[-24166,-13953]],[[814334,197106],[16789,-15820]],[[831123,181286],[-24183,-13963]],[[838537,211065],[16573,-15929]],[[855110,195136],[-23987,-13850]],[[862665,224982],[16668,-15860]],[[879333,209122],[-24223,-13986]],[[886794,238898],[16622,-15872]],[[903416,223026],[-24083,-13904]],[[910926,252817],[16717,-15803]],[[927643,237014],[-24227,-13988]],[[935018,266713],[16636,-15835]],[[951654,250878],[-24011,-13864]],[[959164,280640],[16688,-15790]],[[975852,264850],[-24198,-13972]],[[983378,294605],[16621,-15814],[-24147,-13941]],[[956404,283267],[-16481,15851]],[[939923,299118],[24101,13902]],[[964024,313020],[16590,-15786]],[[932339,269384],[-16645,15758]],[[915694,285142],[24229,13976]],[[908286,255507],[-16611,15780]],[[891675,271287],[24019,13855]],[[884062,241532],[-16533,15827]],[[867529,257359],[24146,13928]],[[859967,227632],[-16661,15754]],[[843306,243386],[24223,13973]],[[835859,213724],[-16603,15789]],[[819256,229513],[24050,13873]],[[811662,199764],[-16613,15786]],[[795049,215550],[12054,6953]],[[807103,222503],[12153,7010]],[[787390,185761],[-16544,15828]],[[770846,201589],[24203,13961]],[[763312,171871],[-16600,15797]],[[746712,187668],[24134,13921]],[[739177,157946],[-2289,2177]],[[736888,160123],[-14322,13617]],[[722566,173740],[24146,13928]],[[722566,173740],[-12769,12140]],[[709797,185880],[-3926,3732]],[[705871,189612],[24152,13935]],[[730023,203547],[16689,-15879]],[[730023,203547],[24190,13956]],[[754213,217503],[16633,-15914]],[[754213,217503],[24130,13921]],[[778343,231424],[16706,-15874]],[[778343,231424],[12147,7008]],[[790490,238432],[16613,-15929]],[[819256,229513],[-16699,15881]],[[802557,245394],[23989,13840]],[[826546,259234],[16760,-15848]],[[826546,259234],[24348,14048]],[[850894,273282],[16635,-15923]],[[850894,273282],[24066,13885]],[[874960,287167],[16715,-15880]],[[874960,287167],[23981,13835]],[[898941,301002],[16753,-15860]],[[898941,301002],[24390,14072]],[[923331,315074],[16592,-15956]],[[923331,315074],[23988,13839]],[[947319,328913],[16705,-15893]],[[920448,317687],[-16849,15979]],[[903599,333666],[24094,13920]],[[927693,347586],[16825,-16008]],[[944518,331578],[-24070,-13891]],[[896335,303770],[-16785,16001]],[[879550,319771],[24049,13895]],[[920448,317687],[-24113,-13917]],[[872222,289853],[-16737,16015]],[[855485,305868],[24065,13903]],[[896335,303770],[-24113,-13917]],[[848062,275910],[-16826,15948]],[[831236,291858],[24249,14010]],[[872222,289853],[-24160,-13943]],[[823886,261957],[-16781,15959]],[[807105,277916],[24131,13942]],[[848062,275910],[-24176,-13953]],[[799742,248022],[-16764,15956]],[[782978,263978],[24127,13938]],[[823886,261957],[-24144,-13935]],[[775635,234110],[-16783,15928]],[[758852,250038],[24126,13940]],[[799742,248022],[-24107,-13912]],[[751373,220108],[-16735,15941]],[[734638,236049],[24214,13989]],[[775635,234110],[-24262,-14002]],[[727146,206125],[-16607,16000]],[[710539,222125],[24099,13924]],[[751373,220108],[-24227,-13983]],[[703099,192247],[-16735,15912]],[[686364,208159],[24175,13966]],[[727146,206125],[-24047,-13878]],[[686364,208159],[-3868,3678]],[[682496,211837],[-12933,12295]],[[669563,224132],[24302,14057]],[[693865,238189],[16674,-16064]],[[693865,238189],[23970,13865]],[[717835,252054],[16803,-16005]],[[717835,252054],[24165,13977]],[[742000,266031],[16852,-15993]],[[742000,266031],[24148,13967]],[[766148,279998],[16830,-16020]],[[766148,279998],[24106,13944]],[[790254,293942],[16851,-16026]],[[790254,293942],[24085,13930]],[[814339,307872],[16897,-16014]],[[814339,307872],[24338,14078]],[[838677,321950],[16808,-16082]],[[838677,321950],[24016,13892]],[[862693,335842],[16857,-16071]],[[862693,335842],[23986,13873]],[[886679,349715],[16920,-16049]],[[886679,349715],[24115,13949]],[[910794,363664],[16899,-16078]],[[883914,352419],[-16751,15961]],[[867163,368380],[24044,13921]],[[891207,382301],[16774,-15960]],[[907981,366341],[-24067,-13922]],[[859820,338481],[-16716,15968]],[[843104,354449],[24059,13931]],[[883914,352419],[-24094,-13938]],[[835874,324631],[-16808,15900]],[[819066,340531],[24038,13918]],[[859820,338481],[-23946,-13850]],[[811748,310676],[-16750,15920]],[[794998,326596],[24068,13935]],[[835874,324631],[-24126,-13955]],[[787512,296656],[-16706,15933]],[[770806,312589],[24192,14007]],[[811748,310676],[-24236,-14020]],[[763332,282670],[-16762,15886]],[[746570,298556],[24236,14033]],[[787512,296656],[-24180,-13986]],[[739100,268653],[-16626,15952]],[[722474,284605],[24096,13951]],[[763332,282670],[-24232,-14017]],[[715060,254748],[-16719,15884]],[[698341,270632],[24133,13973]],[[739100,268653],[-24040,-13905]],[[690910,240779],[-16689,15887]],[[674221,256666],[24120,13966]],[[715060,254748],[-24150,-13969]],[[666752,226805],[-11610,11037]],[[655142,237842],[-5084,4834]],[[650058,242676],[24163,13990]],[[690910,240779],[-24158,-13974]],[[650058,242676],[-16796,15969]],[[633262,258645],[24183,13991]],[[657445,272636],[16776,-15970]],[[657445,272636],[24105,13947]],[[681550,286583],[16791,-15951]],[[681550,286583],[24244,14026]],[[705794,300609],[16680,-16004]],[[705794,300609],[23975,13870]],[[729769,314479],[16801,-15923]],[[729769,314479],[24308,14064]],[[754077,328543],[16729,-15954]],[[754077,328543],[24164,13980]],[[778241,342523],[16757,-15927]],[[778241,342523],[24024,13900]],[[802265,356423],[16801,-15892]],[[802265,356423],[24146,13970]],[[826411,370393],[16693,-15944]],[[826411,370393],[24041,13909]],[[850452,384302],[16711,-15922]],[[850452,384302],[24035,13906]],[[874487,398208],[16720,-15907]],[[847737,386935],[-16630,15801]],[[831107,402736],[24009,13902]],[[855116,416638],[16630,-15822]],[[871746,400816],[-24009,-13881]],[[823638,373002],[-16644,15772]],[[806994,388774],[24113,13962]],[[847737,386935],[-24099,-13933]],[[799594,359100],[-16593,15782]],[[783001,374882],[23993,13892]],[[823638,373002],[-24044,-13902]],[[775516,345180],[-16609,15752]],[[758907,360932],[24094,13950]],[[799594,359100],[-24078,-13920]],[[751199,331120],[-16493,15799]],[[734706,346919],[24201,14013]],[[775516,345180],[-24317,-14060]],[[727169,317228],[-16565,15736]],[[710604,332964],[12117,7016]],[[722721,339980],[11985,6939]],[[751199,331120],[-24030,-13892]],[[702900,303196],[-16529,15737]],[[686371,318933],[24233,14031]],[[727169,317228],[-24269,-14032]],[[678843,289287],[-16562,15697]],[[662281,304984],[24090,13949]],[[702900,303196],[-24057,-13909]],[[654721,275340],[-16551,15684]],[[638170,291024],[24111,13960]],[[678843,289287],[-24122,-13947]],[[630457,261312],[-2521,2398]],[[627936,263710],[-13982,13292]],[[613954,277002],[24216,14022]],[[654721,275340],[-24264,-14028]],[[613954,277002],[-13040,12398]],[[600914,289400],[-3747,3563]],[[597167,292963],[24187,13996]],[[621354,306959],[16816,-15935]],[[621354,306959],[24121,13955]],[[645475,320914],[16806,-15930]],[[645475,320914],[24144,13968]],[[669619,334882],[16752,-15949]],[[669619,334882],[24216,14011]],[[693835,348893],[16769,-15929]],[[722721,339980],[-16834,15886]],[[705887,355866],[12144,7026]],[[718031,362892],[16675,-15973]],[[718031,362892],[24103,13945]],[[742134,376837],[16773,-15905]],[[742134,376837],[24133,13962]],[[766267,390799],[16734,-15917]],[[766267,390799],[23961,13864]],[[790228,404663],[16766,-15889]],[[790228,404663],[24148,13971]],[[814376,418634],[16731,-15898]],[[814376,418634],[24029,13903]],[[838405,432537],[16711,-15899]],[[811607,421226],[-16738,15911]],[[794869,437137],[24052,13938]],[[818921,451075],[16736,-15923]],[[835657,435152],[-24050,-13926]],[[787528,407283],[-16791,15869]],[[770737,423152],[24132,13985]],[[811607,421226],[-24079,-13943]],[[763575,393413],[-16758,15878]],[[746817,409291],[23920,13861]],[[787528,407283],[-23953,-13870]],[[739299,379356],[-16629,15941]],[[722670,395297],[24147,13994]],[[763575,393413],[-24276,-14057]],[[715299,365460],[-16677,15902]],[[698622,381362],[24048,13935]],[[739299,379356],[-24000,-13896]],[[691135,351469],[-16673,15892]],[[674462,367361],[24160,14001]],[[715299,365460],[-24164,-13991]],[[667140,337574],[-16755,15834]],[[650385,353408],[24077,13953]],[[691135,351469],[-23995,-13895]],[[642953,323569],[-16744,15829]],[[626209,339398],[24176,14010]],[[667140,337574],[-24187,-14005]],[[618675,309511],[-16576,15916]],[[602099,325427],[24110,13971]],[[642953,323569],[-24278,-14058]],[[594491,295508],[-16670,15850]],[[577821,311358],[24278,14069]],[[618675,309511],[-24184,-14003]],[[577821,311358],[-4183,3975]],[[573638,315333],[-12744,12118]],[[560894,327451],[24407,14107]],[[585301,341558],[16798,-16131]],[[585301,341558],[23967,13854]],[[609268,355412],[16941,-16014]],[[609268,355412],[24196,13986]],[[633464,369398],[16921,-15990]],[[633464,369398],[24191,13983]],[[657655,383381],[16807,-16020]],[[657655,383381],[24186,13980]],[[681841,397361],[16781,-15999]],[[681841,397361],[24128,13947]],[[705969,411308],[16701,-16011]],[[705969,411308],[24049,13901]],[[730018,425209],[16799,-15918]],[[730018,425209],[23917,13824]],[[753935,439033],[16802,-15881]],[[753935,439033],[24215,13998]],[[778150,453031],[16719,-15894]],[[778150,453031],[24084,13920]],[[802234,466951],[16687,-15876]],[[775360,455715],[-16727,15935]],[[758633,471650],[24046,13907]],[[782679,485557],[16734,-15921]],[[799413,469636],[-24053,-13921]],[[751243,441756],[-16742,15937]],[[734501,457693],[24132,13957]],[[775360,455715],[-24117,-13959]],[[727352,427929],[-16850,15884]],[[710502,443813],[23999,13880]],[[751243,441756],[-23891,-13827]],[[703161,413927],[-16820,15913]],[[686341,429840],[24161,13973]],[[727352,427929],[-24191,-14002]],[[678972,399927],[-16778,15947]],[[662194,415874],[24147,13966]],[[703161,413927],[-24189,-14000]],[[654824,385950],[-16799,15947]],[[638025,401897],[24169,13977]],[[678972,399927],[-24148,-13977]],[[630814,372054],[-16867,15917]],[[613947,387971],[24078,13926]],[[654824,385950],[-24010,-13896]],[[606660,358075],[-16820,15953]],[[589840,374028],[24107,13943]],[[630814,372054],[-24154,-13979]],[[566951,360791],[22889,13237]],[[606660,358075],[-24251,-14036]],[[582409,344039],[-16341,15512]],[[558191,330021],[-7856,7468]],[[582409,344039],[-24218,-14018]],[[597441,403547],[16506,-15576]],[[597919,404217],[23402,13536]],[[621321,417753],[16704,-15856]],[[621321,417753],[24180,13988]],[[645501,431741],[16693,-15867]],[[645501,431741],[24096,13938]],[[669597,445679],[16744,-15839]],[[669597,445679],[24125,13955]],[[693722,459634],[16780,-15821]],[[693722,459634],[24097,13938]],[[717819,473572],[16682,-15879]],[[717819,473572],[24137,13962]],[[741956,487534],[16677,-15884]],[[741956,487534],[24034,13902]],[[765990,501436],[16689,-15879]],[[739135,490160],[-16691,15825]],[[722444,505985],[24099,13952]],[[746543,519937],[16656,-15845]],[[763199,504092],[-24064,-13932]],[[714994,476184],[-16667,15839]],[[698327,492023],[24117,13962]],[[739135,490160],[-24141,-13976]],[[691023,462307],[-16700,15820]],[[674323,478127],[24004,13896]],[[714994,476184],[-23971,-13877]],[[666926,448357],[-16757,15787]],[[650169,464144],[23353,13520]],[[673522,477664],[801,463]],[[691023,462307],[-24097,-13950]],[[642115,433993],[-13787,12868]],[[633963,454762],[16206,9382]],[[666926,448357],[-24811,-14364]],[[642115,433993],[-39108,-22641]],[[659694,490845],[13828,-13181]],[[664738,497918],[17005,9865]],[[681743,507783],[16584,-15760]],[[681743,507783],[24074,13964]],[[705817,521747],[16627,-15762]],[[705817,521747],[24120,13991]],[[729937,535738],[16606,-15801]],[[707243,557330],[19864,-18901]],[[727107,538429],[-56980,-32954]],[[727107,538429],[2830,-2691]],[[763199,504092],[2791,-2656]],[[560894,327451],[-2703,2570]],[[799413,469636],[2821,-2685]],[[597167,292963],[-2676,2545]],[[835657,435152],[2748,-2615]],[[705887,355866],[-12052,-6973]],[[633262,258645],[-2805,2667]],[[871746,400816],[2741,-2608]],[[669563,224132],[-2811,2673]],[[907981,366341],[2813,-2677]],[[705871,189612],[-2772,2635]],[[944518,331578],[2801,-2665]],[[802557,245394],[-12067,-6962]],[[678117,92944],[-21574,20519]],[[656543,113463],[-27232,25901]],[[629311,139364],[-27229,25899]],[[602082,165263],[-27327,25990]],[[574755,191253],[-27111,25787]],[[547644,217040],[-27071,25748]],[[520573,242788],[-27295,25960]],[[493278,268748],[-27248,25916]],[[466030,294664],[-27243,25912]],[[438787,320576],[-27123,25798]],[[411664,346374],[-27226,25896]],[[384438,372270],[-27365,26027]],[[357073,398297],[-27122,25796]],[[329951,424093],[-27050,25727]],[[309383,453576],[27098,-25781]],[[336481,427795],[27120,-25802]],[[363601,401993],[27323,-25995]],[[390924,375998],[27205,-25882]],[[418129,350116],[27222,-25900]],[[445351,324216],[27199,-25877]],[[472550,298339],[27188,-25865]],[[499738,272474],[27241,-25917]],[[526979,246557],[27019,-25705]],[[553998,220852],[27209,-25887]],[[581207,194965],[27319,-25990]],[[608526,168975],[27262,-25938]],[[635788,143037],[27185,-25863]],[[662973,117174],[21570,-20520]],[[684543,96654],[-6426,-3710]],[[410277,470651],[-73796,-42856]],[[437379,444883],[-73778,-42890]],[[418129,350116],[73886,42821]],[[519164,367126],[-73813,-42910]],[[546296,341329],[-73746,-42990]],[[573638,315333],[-73900,-42859]],[[600914,289400],[-73935,-42843]],[[627936,263710],[-73938,-42858]],[[655142,237842],[-73935,-42877]],[[682496,211837],[-73970,-42862]],[[709797,185880],[-74009,-42843]],[[736888,160123],[-73915,-42949]],[[758644,139438],[-74101,-42784]],[[293089,402771],[-37054,-21434]],[[256035,381337],[-26995,25687]],[[329951,424093],[-36862,-21322]],[[320272,376989],[-27183,25782]],[[357073,398297],[-36801,-21308]],[[384438,372270],[-74000,-42701]],[[310438,329569],[-27261,25940]],[[283177,355509],[37095,21480]],[[337654,303672],[-27216,25897]],[[411664,346374],[-74010,-42702]],[[438787,320576],[-73824,-42891]],[[364963,277685],[-27309,25987]],[[392045,251915],[-27082,25770]],[[466030,294664],[-73985,-42749]],[[493278,268748],[-74026,-42721]],[[419252,226027],[-27207,25888]],[[446441,200154],[-27189,25873]],[[520573,242788],[-74132,-42634]],[[547644,217040],[-74103,-42672]],[[473541,174368],[-27100,25786]],[[500657,148564],[-27116,25804]],[[574755,191253],[-74098,-42689]],[[602082,165263],[-74076,-42722]],[[528006,122541],[-27349,26023]],[[629311,139364],[-73996,-42809]],[[555315,96555],[-27309,25986]],[[582379,70802],[-27064,25753]],[[656543,113463],[-74164,-42661]],[[604050,50180],[-21671,20622]],[[678117,92944],[-74067,-42764]],[[597591,46450],[-24985,23776]],[[572606,70226],[-24887,23681]],[[547719,93907],[-25155,23936]],[[522564,117843],[-25107,23890]],[[497457,141733],[-25032,23821]],[[472425,165554],[-24923,23715]],[[447502,189269],[-24846,23641]],[[422656,212910],[-25088,23873]],[[397568,236783],[-25015,23803]],[[372553,260586],[-24919,23712]],[[347634,284298],[-25044,23831]],[[322590,308129],[-25261,24037]],[[297329,332166],[-25080,23864]],[[272249,356030],[-24963,23755]],[[247286,379785],[-24698,23501]],[[256035,381337],[27142,-25828]],[[604050,50180],[-6459,-3730]],[[247286,379785],[-80255,-46686]],[[167031,333099],[-24821,23615]],[[191978,309364],[-24947,23735]],[[272249,356030],[-80271,-46666]],[[297329,332166],[-80297,-46639]],[[217032,285527],[-25054,23837]],[[242234,261550],[-25202,23977]],[[322590,308129],[-80356,-46579]],[[347634,284298],[-80349,-46582]],[[267285,237716],[-25051,23834]],[[292292,213924],[-25007,23792]],[[372553,260586],[-80261,-46662]],[[397568,236783],[-80354,-46570]],[[317214,190213],[-24922,23711]],[[342249,166394],[-25035,23819]],[[422656,212910],[-80407,-46516]],[[447502,189269],[-80402,-46519]],[[367100,142750],[-24851,23644]],[[392107,118959],[-25007,23791]],[[472425,165554],[-80318,-46595]],[[497457,141733],[-80231,-46674]],[[417226,95059],[-25119,23900]],[[442254,71248],[-25028,23811]],[[522564,117843],[-80310,-46595]],[[547719,93907],[-80383,-46521]],[[467336,47386],[-25082,23862]],[[492242,23689],[-24906,23697]],[[572606,70226],[-40122,-23234]],[[532484,46992],[-40242,-23303]],[[557384,23236],[-24900,23756]],[[597591,46450],[-40207,-23214]],[[557384,23236],[-40243,-23236],[-24899,23689]],[[448456,618276],[-22802,-13199]],[[425654,605077],[-25586,4866]],[[400068,609943],[-26574,25122]],[[373494,635065],[35537,20596]],[[409031,655661],[39425,-37385]],[[271486,443142],[-56356,47611]],[[215130,490753],[-14475,12228],[23984,13977]],[[224639,516958],[33779,19685]],[[258418,536643],[33872,19742]],[[292290,556385],[34014,19822]],[[326304,576207],[34003,19817]],[[360307,596024],[27701,16144],[12060,-2225]],[[425654,605077],[23259,-4423],[91460,-1647]],[[134738,363788],[-41796,39644]],[[92942,403432],[48199,28012]],[[141141,431444],[41828,-39668]],[[92942,403432],[-42098,39932]],[[50844,443364],[48256,27950]],[[99100,471314],[42041,-39870]],[[50844,443364],[-41565,39425],[48234,27963]],[[57513,510752],[41587,-39438]],[[57513,510752],[48141,27908]],[[105654,538660],[33687,-31892]],[[139341,506768],[7961,-7536]],[[147302,499232],[-48202,-27918]],[[147302,499232],[31276,-29608]],[[178578,469624],[10749,-10176]],[[189327,459448],[-48186,-28004]],[[189327,459448],[41902,-39667]],[[178578,469624],[36552,21129]],[[139341,506768],[59723,34476]],[[199064,541244],[25575,-24286]],[[105654,538660],[59748,34637]],[[165402,573297],[33662,-32053]],[[165402,573297],[33911,19659]],[[199313,592956],[59105,-56313]],[[199313,592956],[33941,19676]],[[233254,612632],[59036,-56247]],[[233254,612632],[17072,9898]],[[250326,622530],[5428,3140]],[[255754,625670],[11478,6640]],[[267232,632310],[59072,-56103]],[[267232,632310],[10677,6177]],[[277909,638487],[22146,12812]],[[300055,651299],[1137,659]],[[301192,651958],[59115,-55934]],[[301192,651958],[2314,1339]],[[303506,653297],[22178,12831]],[[325684,666128],[9250,5352]],[[334934,671480],[38560,-36415]],[[334934,671480],[12715,7356]],[[347649,678836],[3501,2025]],[[387217,701727],[38502,-36394]],[[425719,665333],[-16688,-9672]],[[395509,706525],[3513,2032]],[[439510,731981],[38403,-36400]],[[477913,695581],[-17613,-10208]],[[460300,685373],[-34581,-20040]],[[443318,734185],[3503,2026]],[[491443,762027],[38310,-36403]],[[529753,725624],[-51840,-30043]],[[489294,657829],[-28994,27544]],[[529753,725624],[28874,-27435]],[[558627,698189],[-69333,-40360]],[[588055,670689],[-69781,-40393]],[[518274,630296],[-18572,17645]],[[499702,647941],[-10408,9888]],[[558627,698189],[29428,-27500]],[[547101,602910],[-28827,27386]],[[588055,670689],[28792,-27329]],[[448456,618276],[51246,29665]],[[250326,622530],[-250326,237820],[5187,3006]],[[5187,863356],[18148,-17226]],[[23335,846130],[8996,-8541]],[[32331,837589],[9181,-8716]],[[41512,828873],[8935,-8483]],[[50447,820390],[45354,-43056]],[[95801,777334],[9039,-8581]],[[104840,768753],[9231,-8763]],[[114071,759990],[9169,-8703]],[[123240,751287],[18231,-17309]],[[141471,733978],[18321,-17393]],[[159792,716585],[18137,-17217]],[[177929,699368],[9050,-8592],[22182,12817]],[[209161,703593],[22133,12789],[-9126,8669]],[[222168,725051],[-9063,8608]],[[204030,742278],[-9055,8602]],[[185848,759549],[-18273,17356]],[[167575,776905],[-9149,8690]],[[158426,785595],[-9299,8833]],[[140132,802972],[-18171,17260]],[[121961,820232],[-27178,25815]],[[94783,846047],[-27119,25760]],[[67664,871807],[-18147,17236]],[[49517,889043],[3486,2020]],[[53003,891063],[18187,-17271]],[[71190,873792],[9030,-8577]],[[80220,865215],[9132,-8672]],[[89352,856543],[8929,-8480]],[[98281,848063],[9058,-8602]],[[107339,839461],[9067,-8610]],[[116406,830851],[9021,-8569]],[[125427,822282],[9049,-8593]],[[134476,813689],[9124,-8666]],[[143600,805023],[9101,-8642]],[[152701,796381],[9180,-8718]],[[161881,787663],[9204,-8741]],[[171085,778922],[9085,-8628]],[[180170,770294],[9163,-8703]],[[189333,761591],[9218,-8754]],[[198551,752837],[9028,-8574]],[[207579,744263],[9068,-8612]],[[216647,735651],[9003,-8550]],[[225650,727101],[9175,-8713],[21982,12771]],[[97147,916642],[3524,2042]],[[144855,944286],[3632,2105]],[[192719,972021],[3579,2074]],[[422733,827316],[2729,-2593]],[[347649,678836],[-11294,10679]],[[336355,689515],[-9179,8679]],[[327176,698194],[-9092,8595]],[[318084,706789],[-9186,8685]],[[308898,715474],[-9172,8672]],[[299726,724146],[-18188,17197],[-22012,-12781]],[[259526,728562],[-22070,-12813],[9124,-8628]],[[246580,707121],[9001,-8511]],[[255581,698610],[9147,-8648]],[[264728,689962],[9214,-8711]],[[273942,681251],[9200,-8700]],[[283142,672551],[20364,-19254]],[[300055,651299],[-20477,19330]],[[279578,670629],[-9119,8607]],[[270459,679236],[-9143,8631]],[[261316,687867],[-9248,8729]],[[252068,696596],[-4476,4226]],[[211939,700979],[-22248,-12869],[27298,-25801]],[[216989,662309],[18279,-17276]],[[235268,645033],[9134,-8633]],[[244402,636400],[11352,-10730]],[[244402,636400],[22166,12830]],[[266568,649230],[11341,-10743]],[[235268,645033],[22196,12821]],[[257464,657854],[9104,-8624]],[[216989,662309],[22237,12822]],[[239226,675131],[9157,-8675]],[[248383,666456],[9081,-8602]],[[225552,688084],[4493,-4256]],[[230045,683828],[9181,-8697]],[[177929,699368],[22145,12857]],[[200074,712225],[9087,-8632]],[[159792,716585],[22151,12865]],[[191025,720821],[9049,-8596]],[[141471,733978],[22225,12806]],[[172920,738021],[9023,-8571]],[[123240,751287],[22208,12832]],[[145448,764119],[18248,-17335]],[[114071,759990],[22221,12827]],[[136292,772817],[9156,-8698]],[[104840,768753],[22190,12864]],[[127030,781617],[9262,-8800]],[[95801,777334],[22213,12847]],[[50447,820390],[22228,12864]],[[72675,833254],[27156,-25799]],[[99831,807455],[18183,-17274]],[[41512,828873],[22182,12912]],[[63694,841785],[8981,-8531]],[[32331,837589],[22314,12793]],[[54645,850382],[9049,-8597]],[[23335,846130],[22231,12877]],[[45566,859007],[9079,-8625]],[[5187,863356],[22237,12885]],[[27424,876241],[18142,-17234]],[[257464,657854],[22114,12775]],[[248383,666456],[22076,12780]],[[239226,675131],[22090,12736]],[[230045,683828],[22023,12768]],[[200074,712225],[22094,12826]],[[145448,764119],[22127,12786]],[[136292,772817],[22134,12778]],[[99831,807455],[22130,12777]],[[72675,833254],[22108,12793]],[[45566,859007],[22098,12800]],[[27424,876241],[22093,12802]],[[283142,672551],[22100,12869]],[[305242,685420],[9115,-8603]],[[314357,676817],[11327,-10689]],[[273942,681251],[22143,12810]],[[296085,694061],[9157,-8641]],[[264728,689962],[22146,12792]],[[286874,702754],[9211,-8693]],[[255581,698610],[22124,12797]],[[277705,711407],[9169,-8653]],[[246580,707121],[22038,12860]],[[268618,719981],[9087,-8574]],[[259526,728562],[9092,-8581]],[[225650,727101],[22017,12745]],[[216647,735651],[21995,12771]],[[207579,744263],[22005,12767]],[[198551,752837],[22003,12774]],[[189333,761591],[22038,12747]],[[180170,770294],[22031,12759]],[[171085,778922],[22028,12768]],[[161881,787663],[22063,12741]],[[152701,796381],[22055,12754]],[[143600,805023],[22062,12754]],[[134476,813689],[22086,12735]],[[125427,822282],[22056,12770]],[[116406,830851],[22059,12771]],[[107339,839461],[22055,12782]],[[98281,848063],[22097,12748]],[[89352,856543],[21999,12846]],[[80220,865215],[22039,12814]],[[71190,873792],[22048,12811]],[[53003,891063],[22080,12794]],[[314357,676817],[21998,12698]],[[305242,685420],[21934,12774]],[[296085,694061],[21999,12728]],[[286874,702754],[22024,12720]],[[277705,711407],[22021,12739]],[[464774,418837],[-73850,-42839]]],"bbox":[1340.02,167.416,2231.607,1369.968],"transform":{"scale":[0.0008915878915878916,0.0012025532025532026],"translate":[1340.02,167.416]}}