{"type":"Topology","objects":{"01637-4601-2.featurecollection":{"type":"GeometryCollection","geometries":[{"type":"Polygon","arcs":[[0,1,2,3]],"properties":{"市区町村名":"河西郡芽室町","大字名":"本通","丁目名":"１丁目","小字名":null,"地番":"15-1","精度区分":null,"座標系":"任意座標系"}},{"type":"Polygon","arcs":[[4,5,6,-1]],"properties":{"市区町村名":"河西郡芽室町","大字名":"本通","丁目名":"１丁目","小字名":null,"地番":"18","精度区分":null,"座標系":"任意座標系"}},{"type":"Polygon","arcs":[[-5,-4,7,8,9,10]],"properties":{"市区町村名":"河西郡芽室町","大字名":"本通","丁目名":"１丁目","小字名":null,"地番":"無地番-6","精度区分":null,"座標系":"任意座標系"}},{"type":"Polygon","arcs":[[11,12,13]],"properties":{"市区町村名":"河西郡芽室町","大字名":"本通","丁目名":"２丁目","小字名":null,"地番":"1-1","精度区分":null,"座標系":"任意座標系"}},{"type":"Polygon","arcs":[[14,15,16,17]],"properties":{"市区町村名":"河西郡芽室町","大字名":"本通","丁目名":"２丁目","小字名":null,"地番":"1-2","精度区分":null,"座標系":"任意座標系"}},{"type":"Polygon","arcs":[[18,19,-18,20]],"properties":{"市区町村名":"河西郡芽室町","大字名":"本通","丁目名":"２丁目","小字名":null,"地番":"1-3","精度区分":null,"座標系":"任意座標系"}},{"type":"Polygon","arcs":[[21,22,-19,23,24]],"properties":{"市区町村名":"河西郡芽室町","大字名":"本通","丁目名":"２丁目","小字名":null,"地番":"1-4","精度区分":null,"座標系":"任意座標系"}},{"type":"Polygon","arcs":[[25,26,-22,27]],"properties":{"市区町村名":"河西郡芽室町","大字名":"本通","丁目名":"２丁目","小字名":null,"地番":"1-5","精度区分":null,"座標系":"任意座標系"}},{"type":"Polygon","arcs":[[28,-26,29,30]],"properties":{"市区町村名":"河西郡芽室町","大字名":"本通","丁目名":"２丁目","小字名":null,"地番":"1-6","精度区分":null,"座標系":"任意座標系"}},{"type":"Polygon","arcs":[[31,-12,32,-16]],"properties":{"市区町村名":"河西郡芽室町","大字名":"本通","丁目名":"２丁目","小字名":null,"地番":"1-7","精度区分":null,"座標系":"任意座標系"}},{"type":"Polygon","arcs":[[33,34,-24,-21,-17,-33,-14,35,36]],"properties":{"市区町村名":"河西郡芽室町","大字名":"本通","丁目名":"２丁目","小字名":null,"地番":"3-1","精度区分":null,"座標系":"任意座標系"}},{"type":"Polygon","arcs":[[-30,37,-34,38,39]],"properties":{"市区町村名":"河西郡芽室町","大字名":"本通","丁目名":"２丁目","小字名":null,"地番":"3-2","精度区分":null,"座標系":"任意座標系"}},{"type":"Polygon","arcs":[[-28,-25,-35,-38]],"properties":{"市区町村名":"河西郡芽室町","大字名":"本通","丁目名":"２丁目","小字名":null,"地番":"3-3","精度区分":null,"座標系":"任意座標系"}},{"type":"Polygon","arcs":[[-39,-37,40,41,42]],"properties":{"市区町村名":"河西郡芽室町","大字名":"本通","丁目名":"２丁目","小字名":null,"地番":"5","精度区分":null,"座標系":"任意座標系"}},{"type":"Polygon","arcs":[[43,-42,44,45,46]],"properties":{"市区町村名":"河西郡芽室町","大字名":"本通","丁目名":"２丁目","小字名":null,"地番":"7","精度区分":null,"座標系":"任意座標系"}},{"type":"Polygon","arcs":[[-46,47,48,49]],"properties":{"市区町村名":"河西郡芽室町","大字名":"本通","丁目名":"２丁目","小字名":null,"地番":"9-1","精度区分":null,"座標系":"任意座標系"}},{"type":"Polygon","arcs":[[50,51,52,-47,-50,53,54]],"properties":{"市区町村名":"河西郡芽室町","大字名":"本通","丁目名":"２丁目","小字名":null,"地番":"9-2","精度区分":null,"座標系":"任意座標系"}},{"type":"Polygon","arcs":[[55,-55,56,57]],"properties":{"市区町村名":"河西郡芽室町","大字名":"本通","丁目名":"２丁目","小字名":null,"地番":"9-3","精度区分":null,"座標系":"任意座標系"}},{"type":"Polygon","arcs":[[58,-51,-56,59]],"properties":{"市区町村名":"河西郡芽室町","大字名":"本通","丁目名":"２丁目","小字名":null,"地番":"9-4","精度区分":null,"座標系":"任意座標系"}},{"type":"Polygon","arcs":[[60,-52,-59,61]],"properties":{"市区町村名":"河西郡芽室町","大字名":"本通","丁目名":"２丁目","小字名":null,"地番":"9-5","精度区分":null,"座標系":"任意座標系"}},{"type":"Polygon","arcs":[[62,-57,-54,-49,63,64,65]],"properties":{"市区町村名":"河西郡芽室町","大字名":"本通","丁目名":"２丁目","小字名":null,"地番":"11-1","精度区分":null,"座標系":"任意座標系"}},{"type":"Polygon","arcs":[[66,-65,67,68]],"properties":{"市区町村名":"河西郡芽室町","大字名":"本通","丁目名":"２丁目","小字名":null,"地番":"13-1","精度区分":null,"座標系":"任意座標系"}},{"type":"Polygon","arcs":[[-69,69,70,71]],"properties":{"市区町村名":"河西郡芽室町","大字名":"本通","丁目名":"２丁目","小字名":null,"地番":"15-1","精度区分":null,"座標系":"任意座標系"}},{"type":"Polygon","arcs":[[72,73,-71,74,75,76]],"properties":{"市区町村名":"河西郡芽室町","大字名":"本通","丁目名":"２丁目","小字名":null,"地番":"17-1","精度区分":null,"座標系":"任意座標系"}},{"type":"Polygon","arcs":[[77,78,-74,79]],"properties":{"市区町村名":"河西郡芽室町","大字名":"本通","丁目名":"２丁目","小字名":null,"地番":"17-2","精度区分":null,"座標系":"任意座標系"}},{"type":"Polygon","arcs":[[80,-78,81,82,83]],"properties":{"市区町村名":"河西郡芽室町","大字名":"本通","丁目名":"２丁目","小字名":null,"地番":"17-3","精度区分":null,"座標系":"任意座標系"}},{"type":"Polygon","arcs":[[84,85,-76,86]],"properties":{"市区町村名":"河西郡芽室町","大字名":"本通","丁目名":"２丁目","小字名":null,"地番":"19-1","精度区分":null,"座標系":"任意座標系"}},{"type":"Polygon","arcs":[[-82,-80,-73,87,88]],"properties":{"市区町村名":"河西郡芽室町","大字名":"本通","丁目名":"２丁目","小字名":null,"地番":"19-2","精度区分":null,"座標系":"任意座標系"}},{"type":"Polygon","arcs":[[-88,-77,-86,89]],"properties":{"市区町村名":"河西郡芽室町","大字名":"本通","丁目名":"２丁目","小字名":null,"地番":"19-4","精度区分":null,"座標系":"任意座標系"}},{"type":"Polygon","arcs":[[-83,-89,-90,-85,90,91,92]],"properties":{"市区町村名":"河西郡芽室町","大字名":"本通","丁目名":"２丁目","小字名":null,"地番":"21","精度区分":null,"座標系":"任意座標系"}},{"type":"Polygon","arcs":[[-87,-75,-70,-68,-64,-48,-45,-41,-36,-13,-32,-15,-20,-23,-27,-29,93,-91]],"properties":{"市区町村名":"河西郡芽室町","大字名":"本通","丁目名":"２丁目","小字名":null,"地番":"23","精度区分":null,"座標系":"任意座標系"}},{"type":"Polygon","arcs":[[-10,94,95,-92,-94,-31,-40,-43,-44,-53,-61,96,97,98,-84,-93,-96,99]],"properties":{"市区町村名":"河西郡芽室町","大字名":"本通","丁目名":"２丁目","小字名":null,"地番":"無地番-1","精度区分":null,"座標系":"任意座標系"}},{"type":"Polygon","arcs":[[100,101,102,103,104]],"properties":{"市区町村名":"河西郡芽室町","大字名":"東一条","丁目名":"１丁目","小字名":null,"地番":"9-1","精度区分":null,"座標系":"任意座標系"}},{"type":"Polygon","arcs":[[-103,105,106,107,108,109,110]],"properties":{"市区町村名":"河西郡芽室町","大字名":"東一条","丁目名":"１丁目","小字名":null,"地番":"9-2","精度区分":null,"座標系":"任意座標系"}},{"type":"Polygon","arcs":[[111,112,113,-106,-102]],"properties":{"市区町村名":"河西郡芽室町","大字名":"東一条","丁目名":"１丁目","小字名":null,"地番":"9-3","精度区分":null,"座標系":"任意座標系"}},{"type":"Polygon","arcs":[[114,115,116,117,118]],"properties":{"市区町村名":"河西郡芽室町","大字名":"東一条","丁目名":"１丁目","小字名":null,"地番":"9-4","精度区分":null,"座標系":"任意座標系"}},{"type":"Polygon","arcs":[[119,-116,-113]],"properties":{"市区町村名":"河西郡芽室町","大字名":"東一条","丁目名":"１丁目","小字名":null,"地番":"9-5","精度区分":null,"座標系":"任意座標系"}},{"type":"Polygon","arcs":[[120,121,-107,-114]],"properties":{"市区町村名":"河西郡芽室町","大字名":"東一条","丁目名":"１丁目","小字名":null,"地番":"9-6","精度区分":null,"座標系":"任意座標系"}},{"type":"Polygon","arcs":[[122,-105,123,124]],"properties":{"市区町村名":"河西郡芽室町","大字名":"東一条","丁目名":"１丁目","小字名":null,"地番":"11-1","精度区分":null,"座標系":"任意座標系"}},{"type":"Polygon","arcs":[[-124,-104,-111,125,126]],"properties":{"市区町村名":"河西郡芽室町","大字名":"東一条","丁目名":"１丁目","小字名":null,"地番":"11-2","精度区分":null,"座標系":"任意座標系"}},{"type":"Polygon","arcs":[[-126,-110,127,128,129,130]],"properties":{"市区町村名":"河西郡芽室町","大字名":"東一条","丁目名":"１丁目","小字名":null,"地番":"15-1","精度区分":null,"座標系":"任意座標系"}},{"type":"Polygon","arcs":[[131,-128,-109]],"properties":{"市区町村名":"河西郡芽室町","大字名":"東一条","丁目名":"１丁目","小字名":null,"地番":"15-2","精度区分":null,"座標系":"任意座標系"}},{"type":"Polygon","arcs":[[132,133,134,135]],"properties":{"市区町村名":"河西郡芽室町","大字名":"東一条","丁目名":"１丁目","小字名":null,"地番":"16-1","精度区分":null,"座標系":"任意座標系"}},{"type":"Polygon","arcs":[[136,137,-118]],"properties":{"市区町村名":"河西郡芽室町","大字名":"東一条","丁目名":"１丁目","小字名":null,"地番":"17","精度区分":null,"座標系":"任意座標系"}},{"type":"Polygon","arcs":[[-125,-127,-131,138,139]],"properties":{"市区町村名":"河西郡芽室町","大字名":"東一条","丁目名":"１丁目","小字名":null,"地番":"19","精度区分":null,"座標系":"任意座標系"}},{"type":"Polygon","arcs":[[140,-136,141,142]],"properties":{"市区町村名":"河西郡芽室町","大字名":"東一条","丁目名":"１丁目","小字名":null,"地番":"20","精度区分":null,"座標系":"任意座標系"}},{"type":"Polygon","arcs":[[-135,143,-6,144,-142]],"properties":{"市区町村名":"河西郡芽室町","大字名":"東一条","丁目名":"１丁目","小字名":null,"地番":"23","精度区分":null,"座標系":"任意座標系"}},{"type":"Polygon","arcs":[[-130,145,146,147,-133,-141,148,-139]],"properties":{"市区町村名":"河西郡芽室町","大字名":"東一条","丁目名":"１丁目","小字名":null,"地番":"26","精度区分":null,"座標系":"任意座標系"}},{"type":"Polygon","arcs":[[149,-137,-117,-120,-112,-101,-123,150,151]],"properties":{"市区町村名":"河西郡芽室町","大字名":"東一条","丁目名":"１丁目","小字名":null,"地番":"27","精度区分":null,"座標系":"任意座標系"}},{"type":"Polygon","arcs":[[-119,-138,-150,152,153,-146,-129,154]],"properties":{"市区町村名":"河西郡芽室町","大字名":"東一条","丁目名":"１丁目","小字名":null,"地番":"28-1","精度区分":null,"座標系":"任意座標系"}},{"type":"Polygon","arcs":[[-108,-122,-155,-132]],"properties":{"市区町村名":"河西郡芽室町","大字名":"東一条","丁目名":"１丁目","小字名":null,"地番":"28-2","精度区分":null,"座標系":"任意座標系"}},{"type":"Polygon","arcs":[[155,-151,-140,-149,-143,-145,-11,156]],"properties":{"市区町村名":"河西郡芽室町","大字名":"東一条","丁目名":"１丁目","小字名":null,"地番":"無地番-5","精度区分":null,"座標系":"任意座標系"}},{"type":"Polygon","arcs":[[157,158,159,160]],"properties":{"市区町村名":"河西郡芽室町","大字名":"東一条","丁目名":"２丁目","小字名":null,"地番":"1-1","精度区分":null,"座標系":"任意座標系"}},{"type":"Polygon","arcs":[[161,162,-161,163]],"properties":{"市区町村名":"河西郡芽室町","大字名":"東一条","丁目名":"２丁目","小字名":null,"地番":"1-2","精度区分":null,"座標系":"任意座標系"}},{"type":"Polygon","arcs":[[164,-162,165,166]],"properties":{"市区町村名":"河西郡芽室町","大字名":"東一条","丁目名":"２丁目","小字名":null,"地番":"1-3","精度区分":null,"座標系":"任意座標系"}},{"type":"Polygon","arcs":[[167,168,-167,169]],"properties":{"市区町村名":"河西郡芽室町","大字名":"東一条","丁目名":"２丁目","小字名":null,"地番":"1-4","精度区分":null,"座標系":"任意座標系"}},{"type":"Polygon","arcs":[[170,171,172,173]],"properties":{"市区町村名":"河西郡芽室町","大字名":"東一条","丁目名":"２丁目","小字名":null,"地番":"2-1","精度区分":null,"座標系":"任意座標系"}},{"type":"Polygon","arcs":[[174,175,176,177]],"properties":{"市区町村名":"河西郡芽室町","大字名":"東一条","丁目名":"２丁目","小字名":null,"地番":"2-2","精度区分":null,"座標系":"任意座標系"}},{"type":"Polygon","arcs":[[178,179,180,181]],"properties":{"市区町村名":"河西郡芽室町","大字名":"東一条","丁目名":"２丁目","小字名":null,"地番":"2-3","精度区分":null,"座標系":"任意座標系"}},{"type":"Polygon","arcs":[[-181,182,183,184]],"properties":{"市区町村名":"河西郡芽室町","大字名":"東一条","丁目名":"２丁目","小字名":null,"地番":"2-4","精度区分":null,"座標系":"任意座標系"}},{"type":"Polygon","arcs":[[185,-179,186,-177]],"properties":{"市区町村名":"河西郡芽室町","大字名":"東一条","丁目名":"２丁目","小字名":null,"地番":"2-5","精度区分":null,"座標系":"任意座標系"}},{"type":"Polygon","arcs":[[187,-175,188,-172]],"properties":{"市区町村名":"河西郡芽室町","大字名":"東一条","丁目名":"２丁目","小字名":null,"地番":"2-6","精度区分":null,"座標系":"任意座標系"}},{"type":"Polygon","arcs":[[189,-160,190,191,192]],"properties":{"市区町村名":"河西郡芽室町","大字名":"東一条","丁目名":"２丁目","小字名":null,"地番":"3-1","精度区分":null,"座標系":"任意座標系"}},{"type":"Polygon","arcs":[[-164,-190,193,194]],"properties":{"市区町村名":"河西郡芽室町","大字名":"東一条","丁目名":"２丁目","小字名":null,"地番":"3-2","精度区分":null,"座標系":"任意座標系"}},{"type":"Polygon","arcs":[[195,-166,-195,196]],"properties":{"市区町村名":"河西郡芽室町","大字名":"東一条","丁目名":"２丁目","小字名":null,"地番":"3-3","精度区分":null,"座標系":"任意座標系"}},{"type":"Polygon","arcs":[[-170,-196,197,198]],"properties":{"市区町村名":"河西郡芽室町","大字名":"東一条","丁目名":"２丁目","小字名":null,"地番":"3-4","精度区分":null,"座標系":"任意座標系"}},{"type":"Polygon","arcs":[[199,-173,-189,-178,200,201]],"properties":{"市区町村名":"河西郡芽室町","大字名":"東一条","丁目名":"２丁目","小字名":null,"地番":"4-1","精度区分":null,"座標系":"任意座標系"}},{"type":"Polygon","arcs":[[-201,-187,-182,-185,202,203,204]],"properties":{"市区町村名":"河西郡芽室町","大字名":"東一条","丁目名":"２丁目","小字名":null,"地番":"4-2","精度区分":null,"座標系":"任意座標系"}},{"type":"Polygon","arcs":[[205,-192,206,207]],"properties":{"市区町村名":"河西郡芽室町","大字名":"東一条","丁目名":"２丁目","小字名":null,"地番":"5-1","精度区分":null,"座標系":"任意座標系"}},{"type":"Polygon","arcs":[[-198,-197,-194,-193,-206,208,209]],"properties":{"市区町村名":"河西郡芽室町","大字名":"東一条","丁目名":"２丁目","小字名":null,"地番":"5-2","精度区分":null,"座標系":"任意座標系"}},{"type":"Polygon","arcs":[[210,-202,-205,211,212]],"properties":{"市区町村名":"河西郡芽室町","大字名":"東一条","丁目名":"２丁目","小字名":null,"地番":"6-1","精度区分":null,"座標系":"任意座標系"}},{"type":"Polygon","arcs":[[-204,213,214,-212]],"properties":{"市区町村名":"河西郡芽室町","大字名":"東一条","丁目名":"２丁目","小字名":null,"地番":"6-2","精度区分":null,"座標系":"任意座標系"}},{"type":"Polygon","arcs":[[-208,215,216,217]],"properties":{"市区町村名":"河西郡芽室町","大字名":"東一条","丁目名":"２丁目","小字名":null,"地番":"7-1","精度区分":null,"座標系":"任意座標系"}},{"type":"Polygon","arcs":[[-209,-218,218,219]],"properties":{"市区町村名":"河西郡芽室町","大字名":"東一条","丁目名":"２丁目","小字名":null,"地番":"7-2","精度区分":null,"座標系":"任意座標系"}},{"type":"Polygon","arcs":[[-213,220,221,222,223,224]],"properties":{"市区町村名":"河西郡芽室町","大字名":"東一条","丁目名":"２丁目","小字名":null,"地番":"8-1","精度区分":null,"座標系":"任意座標系"}},{"type":"Polygon","arcs":[[-215,225,226,-221]],"properties":{"市区町村名":"河西郡芽室町","大字名":"東一条","丁目名":"２丁目","小字名":null,"地番":"8-2","精度区分":null,"座標系":"任意座標系"}},{"type":"Polygon","arcs":[[-223,227,228,229]],"properties":{"市区町村名":"河西郡芽室町","大字名":"東一条","丁目名":"２丁目","小字名":null,"地番":"8-3","精度区分":null,"座標系":"任意座標系"}},{"type":"Polygon","arcs":[[-222,-227,230,-228]],"properties":{"市区町村名":"河西郡芽室町","大字名":"東一条","丁目名":"２丁目","小字名":null,"地番":"8-4","精度区分":null,"座標系":"任意座標系"}},{"type":"Polygon","arcs":[[-224,231,232,233,234]],"properties":{"市区町村名":"河西郡芽室町","大字名":"東一条","丁目名":"２丁目","小字名":null,"地番":"10-1","精度区分":null,"座標系":"任意座標系"}},{"type":"Polygon","arcs":[[-233,235,236,237]],"properties":{"市区町村名":"河西郡芽室町","大字名":"東一条","丁目名":"２丁目","小字名":null,"地番":"10-2","精度区分":null,"座標系":"任意座標系"}},{"type":"Polygon","arcs":[[-230,238,-236,-232]],"properties":{"市区町村名":"河西郡芽室町","大字名":"東一条","丁目名":"２丁目","小字名":null,"地番":"10-3","精度区分":null,"座標系":"任意座標系"}},{"type":"Polygon","arcs":[[-234,239,240,241]],"properties":{"市区町村名":"河西郡芽室町","大字名":"東一条","丁目名":"２丁目","小字名":null,"地番":"12-1","精度区分":null,"座標系":"任意座標系"}},{"type":"Polygon","arcs":[[-240,-238,242,243]],"properties":{"市区町村名":"河西郡芽室町","大字名":"東一条","丁目名":"２丁目","小字名":null,"地番":"12-2","精度区分":null,"座標系":"任意座標系"}},{"type":"Polygon","arcs":[[244,245,-241,246,247]],"properties":{"市区町村名":"河西郡芽室町","大字名":"東一条","丁目名":"２丁目","小字名":null,"地番":"14-1","精度区分":null,"座標系":"任意座標系"}},{"type":"Polygon","arcs":[[-244,248,249,-247]],"properties":{"市区町村名":"河西郡芽室町","大字名":"東一条","丁目名":"２丁目","小字名":null,"地番":"14-2","精度区分":null,"座標系":"任意座標系"}},{"type":"Polygon","arcs":[[250,251,252,253]],"properties":{"市区町村名":"河西郡芽室町","大字名":"東一条","丁目名":"２丁目","小字名":null,"地番":"16-1","精度区分":null,"座標系":"任意座標系"}},{"type":"Polygon","arcs":[[-245,254,-251,255]],"properties":{"市区町村名":"河西郡芽室町","大字名":"東一条","丁目名":"２丁目","小字名":null,"地番":"16-2","精度区分":null,"座標系":"任意座標系"}},{"type":"Polygon","arcs":[[256,257,258]],"properties":{"市区町村名":"河西郡芽室町","大字名":"東一条","丁目名":"２丁目","小字名":null,"地番":"20-1","精度区分":null,"座標系":"任意座標系"}},{"type":"Polygon","arcs":[[259,260,261,262]],"properties":{"市区町村名":"河西郡芽室町","大字名":"東一条","丁目名":"２丁目","小字名":null,"地番":"20-2","精度区分":null,"座標系":"任意座標系"}},{"type":"Polygon","arcs":[[263,-260,264,265]],"properties":{"市区町村名":"河西郡芽室町","大字名":"東一条","丁目名":"２丁目","小字名":null,"地番":"20-4","精度区分":null,"座標系":"任意座標系"}},{"type":"Polygon","arcs":[[266,267,-174,-200,-211,-225,-235,-242,-246,-256,-254,268,-259,269,-265,-263,270]],"properties":{"市区町村名":"河西郡芽室町","大字名":"東一条","丁目名":"２丁目","小字名":null,"地番":"22","精度区分":null,"座標系":"任意座標系"}},{"type":"Polygon","arcs":[[-163,-165,-169,271,272,-158]],"properties":{"市区町村名":"河西郡芽室町","大字名":"東一条","丁目名":"２丁目","小字名":null,"地番":"23","精度区分":null,"座標系":"任意座標系"}},{"type":"Polygon","arcs":[[-180,-186,-176,-188,-171,-268,273,-183]],"properties":{"市区町村名":"河西郡芽室町","大字名":"東一条","丁目名":"２丁目","小字名":null,"地番":"24","精度区分":null,"座標系":"任意座標系"}},{"type":"Polygon","arcs":[[274,275,276,277]],"properties":{"市区町村名":"河西郡芽室町","大字名":"東二条","丁目名":"１丁目","小字名":null,"地番":"2-1","精度区分":null,"座標系":"任意座標系"}},{"type":"Polygon","arcs":[[-277,278,279,280,281]],"properties":{"市区町村名":"河西郡芽室町","大字名":"東二条","丁目名":"１丁目","小字名":null,"地番":"2-2","精度区分":null,"座標系":"任意座標系"}},{"type":"Polygon","arcs":[[-278,282,283,284]],"properties":{"市区町村名":"河西郡芽室町","大字名":"東二条","丁目名":"１丁目","小字名":null,"地番":"4-1","精度区分":null,"座標系":"任意座標系"}},{"type":"Polygon","arcs":[[-283,-282,285,286]],"properties":{"市区町村名":"河西郡芽室町","大字名":"東二条","丁目名":"１丁目","小字名":null,"地番":"4-2","精度区分":null,"座標系":"任意座標系"}},{"type":"Polygon","arcs":[[287,-284,288,289,290]],"properties":{"市区町村名":"河西郡芽室町","大字名":"東二条","丁目名":"１丁目","小字名":null,"地番":"6-1","精度区分":null,"座標系":"任意座標系"}},{"type":"Polygon","arcs":[[291,292,-289,-287,293,294]],"properties":{"市区町村名":"河西郡芽室町","大字名":"東二条","丁目名":"１丁目","小字名":null,"地番":"6-2","精度区分":null,"座標系":"任意座標系"}},{"type":"Polygon","arcs":[[295,296,-291,297]],"properties":{"市区町村名":"河西郡芽室町","大字名":"東二条","丁目名":"１丁目","小字名":null,"地番":"8-1","精度区分":null,"座標系":"任意座標系"}},{"type":"Polygon","arcs":[[298,-292,299,300]],"properties":{"市区町村名":"河西郡芽室町","大字名":"東二条","丁目名":"１丁目","小字名":null,"地番":"8-2","精度区分":null,"座標系":"任意座標系"}},{"type":"Polygon","arcs":[[-295,301,302,-300]],"properties":{"市区町村名":"河西郡芽室町","大字名":"東二条","丁目名":"１丁目","小字名":null,"地番":"8-3","精度区分":null,"座標系":"任意座標系"}},{"type":"Polygon","arcs":[[-290,-293,-299,303,-298]],"properties":{"市区町村名":"河西郡芽室町","大字名":"東二条","丁目名":"１丁目","小字名":null,"地番":"8-4","精度区分":null,"座標系":"任意座標系"}},{"type":"Polygon","arcs":[[304,-304,305,306,307]],"properties":{"市区町村名":"河西郡芽室町","大字名":"東二条","丁目名":"１丁目","小字名":null,"地番":"10-1","精度区分":null,"座標系":"任意座標系"}},{"type":"Polygon","arcs":[[-301,308,309,310,-306]],"properties":{"市区町村名":"河西郡芽室町","大字名":"東二条","丁目名":"１丁目","小字名":null,"地番":"10-2","精度区分":null,"座標系":"任意座標系"}},{"type":"Polygon","arcs":[[311,312,313,-310]],"properties":{"市区町村名":"河西郡芽室町","大字名":"東二条","丁目名":"１丁目","小字名":null,"地番":"10-3","精度区分":null,"座標系":"任意座標系"}},{"type":"Polygon","arcs":[[-309,-303,314,-312]],"properties":{"市区町村名":"河西郡芽室町","大字名":"東二条","丁目名":"１丁目","小字名":null,"地番":"10-4","精度区分":null,"座標系":"任意座標系"}},{"type":"Polygon","arcs":[[-296,-305,315]],"properties":{"市区町村名":"河西郡芽室町","大字名":"東二条","丁目名":"１丁目","小字名":null,"地番":"10-5","精度区分":null,"座標系":"任意座標系"}},{"type":"Polygon","arcs":[[316,317,-280]],"properties":{"市区町村名":"河西郡芽室町","大字名":"東二条","丁目名":"１丁目","小字名":null,"地番":"16","精度区分":null,"座標系":"任意座標系"}},{"type":"Polygon","arcs":[[-313,-315,-302,-294,-286,-281,-318,318,-152,319,320]],"properties":{"市区町村名":"河西郡芽室町","大字名":"東二条","丁目名":"１丁目","小字名":null,"地番":"17","精度区分":null,"座標系":"任意座標系"}},{"type":"Polygon","arcs":[[321,322,323,324]],"properties":{"市区町村名":"河西郡芽室町","大字名":"東二条","丁目名":"２丁目","小字名":null,"地番":"2-1","精度区分":null,"座標系":"任意座標系"}},{"type":"Polygon","arcs":[[-323,325,326,327]],"properties":{"市区町村名":"河西郡芽室町","大字名":"東二条","丁目名":"２丁目","小字名":null,"地番":"2-2","精度区分":null,"座標系":"任意座標系"}},{"type":"Polygon","arcs":[[-327,328,329,330]],"properties":{"市区町村名":"河西郡芽室町","大字名":"東二条","丁目名":"２丁目","小字名":null,"地番":"2-3","精度区分":null,"座標系":"任意座標系"}},{"type":"Polygon","arcs":[[-330,331,332,333]],"properties":{"市区町村名":"河西郡芽室町","大字名":"東二条","丁目名":"２丁目","小字名":null,"地番":"2-4","精度区分":null,"座標系":"任意座標系"}},{"type":"Polygon","arcs":[[-333,334,335,336]],"properties":{"市区町村名":"河西郡芽室町","大字名":"東二条","丁目名":"２丁目","小字名":null,"地番":"2-5","精度区分":null,"座標系":"任意座標系"}},{"type":"Polygon","arcs":[[-324,337,338,339]],"properties":{"市区町村名":"河西郡芽室町","大字名":"東二条","丁目名":"２丁目","小字名":null,"地番":"4-1","精度区分":null,"座標系":"任意座標系"}},{"type":"Polygon","arcs":[[-337,340,341,342]],"properties":{"市区町村名":"河西郡芽室町","大字名":"東二条","丁目名":"２丁目","小字名":null,"地番":"4-2","精度区分":null,"座標系":"任意座標系"}},{"type":"Polygon","arcs":[[-338,-328,343,344]],"properties":{"市区町村名":"河西郡芽室町","大字名":"東二条","丁目名":"２丁目","小字名":null,"地番":"4-3","精度区分":null,"座標系":"任意座標系"}},{"type":"Polygon","arcs":[[-331,345,346,-344]],"properties":{"市区町村名":"河西郡芽室町","大字名":"東二条","丁目名":"２丁目","小字名":null,"地番":"4-4","精度区分":null,"座標系":"任意座標系"}},{"type":"Polygon","arcs":[[-346,-334,-343,347]],"properties":{"市区町村名":"河西郡芽室町","大字名":"東二条","丁目名":"２丁目","小字名":null,"地番":"4-5","精度区分":null,"座標系":"任意座標系"}},{"type":"Polygon","arcs":[[-339,-345,-347,-348,-342,348,349,350]],"properties":{"市区町村名":"河西郡芽室町","大字名":"東二条","丁目名":"２丁目","小字名":null,"地番":"6","精度区分":null,"座標系":"任意座標系"}},{"type":"Polygon","arcs":[[351,-325,-340,-351,352,353,354]],"properties":{"市区町村名":"河西郡芽室町","大字名":"東二条","丁目名":"２丁目","小字名":null,"地番":"22","精度区分":null,"座標系":"任意座標系"}},{"type":"Polygon","arcs":[[-329,-326,-322,-352,355,-335,-332]],"properties":{"市区町村名":"河西郡芽室町","大字名":"東二条","丁目名":"２丁目","小字名":null,"地番":"24","精度区分":null,"座標系":"任意座標系"}},{"type":"Polygon","arcs":[[356,357,358,-354,359,-349,-341,-336,-356,-355,-359,360]],"properties":{"市区町村名":"河西郡芽室町","大字名":"東二条","丁目名":"２丁目","小字名":null,"地番":"無地番-3","精度区分":null,"座標系":"任意座標系"}},{"type":"Polygon","arcs":[[-219,-217,361,362,363]],"properties":{"市区町村名":"河西郡芽室町","大字名":"東一条","丁目名":"２丁目","小字名":null,"地番":"9-3","精度区分":null,"座標系":"任意座標系"}},{"type":"Polygon","arcs":[[-363,364,365]],"properties":{"市区町村名":"河西郡芽室町","大字名":"東一条","丁目名":"２丁目","小字名":null,"地番":"9-1","精度区分":null,"座標系":"任意座標系"}},{"type":"Polygon","arcs":[[-157,-100,366,367,368,369,-271,-262,370,-249,-243,-237,-239,-229,-231,-226,-214,-203,-184,-274,-267,-370,371,-272,-168,-199,-210,-220,-364,-366,372,-368,-358]],"properties":{"市区町村名":"河西郡芽室町","大字名":"東一条","丁目名":"２丁目","小字名":null,"地番":"無地番-2","精度区分":null,"座標系":"任意座標系"}},{"type":"Polygon","arcs":[[-373,-365,-362,-216,-207,-191,-159,-273,-372,-369]],"properties":{"市区町村名":"河西郡芽室町","大字名":"東一条","丁目名":"２丁目","小字名":null,"地番":"21","精度区分":null,"座標系":"任意座標系"}},{"type":"Polygon","arcs":[[373,374,-8,375,-2,-7]],"properties":{"市区町村名":"河西郡芽室町","大字名":"本通","丁目名":"１丁目","小字名":null,"地番":"19","精度区分":null,"座標系":"任意座標系"}},{"type":"Polygon","arcs":[[-3,-376]],"properties":{"市区町村名":"河西郡芽室町","大字名":"本通","丁目名":"１丁目","小字名":null,"地番":"15-2","精度区分":null,"座標系":"任意座標系"}},{"type":"Polygon","arcs":[[-134,-148,376,-374,-144]],"properties":{"市区町村名":"河西郡芽室町","大字名":"東一条","丁目名":"１丁目","小字名":null,"地番":"24","精度区分":null,"座標系":"任意座標系"}},{"type":"Polygon","arcs":[[377,378,379,380,381]],"properties":{"市区町村名":"河西郡芽室町","大字名":"東一条","丁目名":"１丁目","小字名":null,"地番":"18","精度区分":null,"座標系":"任意座標系"}},{"type":"Polygon","arcs":[[382,383,-153,-319]],"properties":{"市区町村名":"河西郡芽室町","大字名":"東二条","丁目名":"１丁目","小字名":null,"地番":"18","精度区分":null,"座標系":"任意座標系"}},{"type":"Polygon","arcs":[[384,-383,-317,-279,-276,385,-382,-320,-156,-357]],"properties":{"市区町村名":"河西郡芽室町","大字名":"東二条","丁目名":"１丁目","小字名":null,"地番":"無地番-4","精度区分":null,"座標系":"任意座標系"}},{"type":"Polygon","arcs":[[386,-307,387,-379]],"properties":{"市区町村名":"河西郡芽室町","大字名":"東二条","丁目名":"１丁目","小字名":null,"地番":"12-1","精度区分":null,"座標系":"任意座標系"}},{"type":"Polygon","arcs":[[-388,-311,388,-380]],"properties":{"市区町村名":"河西郡芽室町","大字名":"東二条","丁目名":"１丁目","小字名":null,"地番":"12-2","精度区分":null,"座標系":"任意座標系"}},{"type":"Polygon","arcs":[[-314,-321,-381,-389]],"properties":{"市区町村名":"河西郡芽室町","大字名":"東二条","丁目名":"１丁目","小字名":null,"地番":"12-3","精度区分":null,"座標系":"任意座標系"}},{"type":"Polygon","arcs":[[-386,-275,-285,-288,-297,-316,-308,-387,-378]],"properties":{"市区町村名":"河西郡芽室町","大字名":"東二条","丁目名":"１丁目","小字名":null,"地番":"14","精度区分":null,"座標系":"任意座標系"}},{"type":"Polygon","arcs":[[-269,-253,389,390,-257]],"properties":{"市区町村名":"河西郡芽室町","大字名":"東一条","丁目名":"２丁目","小字名":null,"地番":"18-1","精度区分":null,"座標系":"任意座標系"}},{"type":"Polygon","arcs":[[-258,-391,391,-266,-270]],"properties":{"市区町村名":"河西郡芽室町","大字名":"東一条","丁目名":"２丁目","小字名":null,"地番":"20-3","精度区分":null,"座標系":"任意座標系"}},{"type":"Polygon","arcs":[[-360,-353,-350]],"properties":{"市区町村名":"河西郡芽室町","大字名":"東二条","丁目名":"２丁目","小字名":null,"地番":"14","精度区分":null,"座標系":"任意座標系"}},{"type":"Polygon","arcs":[[-98,392,393,394]],"properties":{"市区町村名":"河西郡芽室町","大字名":"本通","丁目名":"２丁目","小字名":null,"地番":"13-3","精度区分":null,"座標系":"任意座標系"}},{"type":"Polygon","arcs":[[-394,395,-66,-67,396]],"properties":{"市区町村名":"河西郡芽室町","大字名":"本通","丁目名":"２丁目","小字名":null,"地番":"13-2","精度区分":null,"座標系":"任意座標系"}},{"type":"Polygon","arcs":[[-81,-99,-395,-397,-72,-79]],"properties":{"市区町村名":"河西郡芽室町","大字名":"本通","丁目名":"２丁目","小字名":null,"地番":"15-2","精度区分":null,"座標系":"任意座標系"}},{"type":"Polygon","arcs":[[-62,-60,-58,-63,-396,-393,-97]],"properties":{"市区町村名":"河西郡芽室町","大字名":"本通","丁目名":"２丁目","小字名":null,"地番":"11-2","精度区分":null,"座標系":"任意座標系"}},{"type":"Polygon","arcs":[[-250,-371,-261,-264,-392,-390,-252,-255,-248]],"properties":{"市区町村名":"河西郡芽室町","大字名":"東一条","丁目名":"２丁目","小字名":null,"地番":"16-3","精度区分":null,"座標系":"任意座標系"}}]}},"arcs":[[[272124,325735],[-181336,-23059],[-11903,-17107],[5926,-61688]],[[84811,223881],[8394,-87348]],[[93205,136533],[1291,-14542]],[[94496,121991],[-3727,-424],[-17705,190773],[197910,25086],[1150,-11691]],[[272124,325735],[7956,936]],[[280080,326671],[7160,-76977]],[[287240,249694],[-202429,-25813]],[[94496,121991],[3079,-34114]],[[97575,87877],[-23300,-2967],[-23853,256586]],[[50422,341496],[225596,28807]],[[276018,370303],[4062,-43632]],[[122482,442088],[4294,-46051]],[[126776,396037],[-43967,-5545],[-15032,13169],[-2920,31059]],[[64857,434720],[57625,7368]],[[154480,399529],[-24743,-3117]],[[129737,396412],[-4530,46025]],[[125207,442437],[24740,3156]],[[149947,445593],[4533,-46064]],[[180186,449465],[4370,-46139]],[[184556,403326],[-30076,-3797]],[[149947,445593],[30239,3872]],[[206791,452865],[4294,-46197]],[[211085,406668],[-26529,-3342]],[[180186,449465],[22825,2914]],[[203011,452379],[3780,486]],[[226878,455430],[4469,-46206]],[[231347,409224],[-20262,-2556]],[[206791,452865],[20087,2565]],[[251237,411736],[-19890,-2512]],[[226878,455430],[20054,2569]],[[246932,457999],[4305,-46263]],[[129737,396412],[-2961,-375]],[[122482,442088],[2725,349]],[[198721,498836],[3902,-42298]],[[202623,456538],[388,-4159]],[[64857,434720],[-4362,46492]],[[60495,481212],[138226,17624]],[[226878,455430],[-396,4079],[-23859,-2971]],[[198721,498836],[43894,5603]],[[242615,504439],[4317,-46440]],[[60495,481212],[-4374,46524]],[[56121,527736],[182181,23036]],[[238302,550772],[4313,-46333]],[[233966,597362],[4336,-46590]],[[56121,527736],[-4370,46589]],[[51751,574325],[91058,11510]],[[142809,585835],[91157,11527]],[[51751,574325],[-4362,46431]],[[47389,620756],[91111,11567]],[[138500,632323],[4309,-46488]],[[186361,611348],[22839,2843]],[[209200,614191],[22935,2852]],[[232135,617043],[1831,-19681]],[[138500,632323],[22478,2856]],[[160978,635179],[2554,-26665],[22829,2834]],[[183837,638080],[2524,-26732]],[[160978,635179],[1013,128]],[[161991,635307],[21846,2773]],[[206772,640998],[2428,-26807]],[[183837,638080],[22935,2918]],[[229634,643899],[2501,-26856]],[[206772,640998],[22862,2901]],[[157701,681632],[4290,-46325]],[[47389,620756],[-4359,46400]],[[43030,667156],[91123,11501]],[[134153,678657],[23548,2975]],[[129741,724756],[4412,-46099]],[[43030,667156],[-4320,45998]],[[38710,713154],[91031,11602]],[[38710,713154],[-4473,47636]],[[34237,760790],[90955,11492]],[[125192,772282],[4549,-47526]],[[119497,818236],[1283,163]],[[120780,818399],[4412,-46117]],[[34237,760790],[-4344,46228]],[[29893,807018],[45756,5730]],[[75649,812748],[43848,5488]],[[164899,823922],[4294,-46082]],[[169193,777840],[-44001,-5558]],[[120780,818399],[44119,5523]],[[216620,783822],[-47427,-5982]],[[164899,823922],[-4366,46895]],[[160533,870817],[47442,5920]],[[207975,876737],[8645,-92915]],[[39025,855656],[32387,4040]],[[71412,859696],[4237,-46948]],[[29893,807018],[-2942,31328],[12074,17310]],[[119497,818236],[-4301,46921]],[[115196,865157],[45337,5660]],[[71412,859696],[43784,5461]],[[39025,855656],[-95,940]],[[38930,856596],[168938,21311]],[[207868,877907],[107,-1170]],[[251237,411736],[1119,-12030],[-185245,-23134],[-44865,477919],[16684,2105]],[[50422,341496],[-50422,542305],[225588,28528]],[[225588,912329],[-17720,-34422]],[[229634,643899],[-4301,46276]],[[225333,690175],[-4298,46210]],[[221035,736385],[-4415,47437]],[[225588,912329],[50430,-542026]],[[732226,327872],[3693,-39539]],[[735919,288333],[-87812,-11285]],[[648107,277048],[-1899,20335]],[[646208,297383],[-1797,19231]],[[644411,316614],[87815,11258]],[[648107,277048],[13533,-144828]],[[661640,132220],[42,-437]],[[661682,131783],[-89170,2481]],[[572512,134264],[-8036,9311]],[[564476,143575],[-13110,141517]],[[551366,285092],[94842,12291]],[[735919,288333],[10670,-114327]],[[746589,174006],[-11847,-17275]],[[734742,156731],[-11553,-16851],[-61549,-7660]],[[737080,129686],[-2338,27045]],[[734742,156731],[13365,989]],[[748107,157720],[1755,-18763]],[[749862,138957],[-7670,-9417]],[[742192,129540],[-5112,146]],[[746589,174006],[1518,-16286]],[[734742,156731],[38,-839],[2300,-26206]],[[737080,129686],[-75398,2097]],[[727019,383684],[5207,-55812]],[[644411,316614],[-5215,55804]],[[639196,372418],[87823,11266]],[[551366,285092],[-5459,58907]],[[545907,343999],[12242,18030],[81047,10389]],[[564476,143575],[845,-9112]],[[565321,134463],[-2668,75]],[[562653,134538],[-19623,209218]],[[543030,343756],[2877,243]],[[572512,134264],[-7191,199]],[[487902,336843],[18961,-201793],[-2242,48]],[[504621,135098],[-13270,140626]],[[491351,275724],[-5733,60726]],[[485618,336450],[2284,393]],[[749862,138957],[902,-9655]],[[750764,129302],[-8572,238]],[[543030,343756],[-1489,15850]],[[541541,359606],[-1130,12052],[185515,23708],[1093,-11682]],[[486440,352705],[1462,-15862]],[[485618,336450],[-14614,14189],[-183692,-23116]],[[287312,327523],[-1275,11969],[199227,25637],[1176,-12424]],[[491351,275724],[-204111,-26030]],[[280080,326671],[7232,852]],[[562653,134538],[3064,-32683]],[[565717,101855],[-58135,1871]],[[507582,103726],[-2961,31372]],[[486440,352705],[55101,6901]],[[771792,128719],[-21028,583]],[[727019,383684],[20597,2636]],[[747616,386320],[24176,-257601]],[[771792,128719],[3030,-32264]],[[774822,96455],[-209105,5400]],[[565321,134463],[1504,-16207],[13129,-12199],[157422,20278],[-296,3351]],[[743517,429991],[4099,-43671]],[[276018,370303],[467499,59688]],[[636623,460719],[-87107,-11192],[-15013,14083]],[[534503,463610],[-2874,30595]],[[531629,494205],[100567,12865]],[[632196,507070],[4427,-46351]],[[659337,510540],[4294,-46351]],[[663631,464189],[-27008,-3470]],[[632196,507070],[27141,3470]],[[690993,467703],[-27362,-3514]],[[659337,510540],[27252,3488]],[[686589,514028],[4404,-46325]],[[714506,517590],[4332,-46311]],[[718838,471279],[-27845,-3576]],[[686589,514028],[27917,3562]],[[474175,456003],[-12116,-17734],[-26715,-3315]],[[435344,434954],[-4484,46143]],[[430860,481097],[40491,5166]],[[471351,486263],[2824,-30260]],[[429718,480952],[4435,-46144]],[[434153,434808],[-30370,-3775]],[[403783,431033],[-4217,46073]],[[399566,477106],[30152,3846]],[[395847,476634],[4175,-46069]],[[400022,430565],[-70540,-8759]],[[329482,421806],[-4210,45831]],[[325272,467637],[70575,8997]],[[329482,421806],[-36818,-4565]],[[292664,417241],[-4297,45685]],[[288367,462926],[36905,4711]],[[403783,431033],[-3761,-468]],[[395847,476634],[3719,472]],[[435344,434954],[-1191,-146]],[[429718,480952],[1142,145]],[[627776,553337],[4420,-46267]],[[531629,494205],[-4355,46387]],[[527274,540592],[91884,11655]],[[619158,552247],[8618,1090]],[[627776,553337],[27282,3462]],[[655058,556799],[4279,-46259]],[[682200,560246],[4389,-46218]],[[655058,556799],[27142,3447]],[[682200,560246],[27986,3550]],[[710186,563796],[4320,-46206]],[[467000,532883],[4351,-46620]],[[399566,477106],[-4283,46731]],[[395283,523837],[71717,9046]],[[288367,462926],[-4405,46868]],[[283962,509794],[90941,11470]],[[374903,521264],[20380,2573]],[[614727,598766],[4431,-46519]],[[527274,540592],[-4362,46501]],[[522912,587093],[91815,11673]],[[614727,598766],[91100,11584]],[[705827,610350],[4359,-46554]],[[462683,579151],[4317,-46268]],[[374903,521264],[-4275,46289]],[[370628,567553],[92055,11598]],[[283962,509794],[-4358,46285]],[[279604,556079],[91024,11474]],[[522912,587093],[-4351,46325]],[[518561,633418],[91751,11637]],[[610312,645055],[4415,-46289]],[[610312,645055],[91187,11558]],[[701499,656613],[4328,-46263]],[[370628,567553],[-2840,30710]],[[367788,598263],[-529,5726]],[[367259,603989],[-921,9990]],[[366338,613979],[92017,11642]],[[458355,625621],[4328,-46470]],[[279604,556079],[-2927,31120]],[[276677,587199],[91111,11064]],[[367259,603989],[-91093,-11355]],[[276166,592634],[-925,9809]],[[275241,602443],[91097,11536]],[[276677,587199],[-511,5435]],[[366338,613979],[-1496,16190]],[[364842,630169],[-2802,30307]],[[362040,660476],[91979,11607]],[[454019,672083],[4336,-46462]],[[364842,630169],[-91161,-11095]],[[273681,619074],[-2813,29893]],[[270868,648967],[91172,11509]],[[275241,602443],[-1560,16631]],[[362040,660476],[-4286,46338]],[[357754,706814],[91930,11740]],[[449684,718554],[4335,-46471]],[[270868,648967],[-4351,46206]],[[266517,695173],[91237,11641]],[[357038,753616],[88314,11333]],[[445352,764949],[4332,-46395]],[[357754,706814],[-4283,46347]],[[353471,753161],[3567,455]],[[266517,695173],[-4351,46311]],[[262166,741484],[91305,11677]],[[443155,788476],[-88310,-11205]],[[354845,777271],[-2200,23782]],[[352645,801053],[88302,11113]],[[440947,812166],[2208,-23690]],[[357038,753616],[-2193,23655]],[[443155,788476],[2197,-23527]],[[436631,858490],[-48432,-6149]],[[388199,852341],[-4210,46501]],[[383989,898842],[35055,4402],[14751,-14344],[2836,-30410]],[[313437,889973],[4473,-46559]],[[317910,843414],[-64560,-8207]],[[253350,835207],[-4393,46664]],[[248957,881871],[64480,8102]],[[344651,846809],[-26741,-3395]],[[313437,889973],[26879,3381]],[[340316,893354],[4335,-46545]],[[434784,906466],[42086,-450100]],[[476870,456366],[-2695,-363]],[[440947,812166],[-4316,46324]],[[383989,898842],[-43673,-5488]],[[248957,881871],[-107,1144],[185934,23451]],[[718838,471279],[1123,-11964],[-185729,-23673],[-2569,27399]],[[531663,463041],[2840,569]],[[476870,456366],[2604,-27854],[-185679,-23301],[-1131,12030]],[[972355,182840],[3388,-36431],[-6829,-9960]],[[968914,136449],[-79775,-10300],[-3491,71]],[[885648,126220],[-4244,44855]],[[881404,171075],[90951,11765]],[[885648,126220],[-85725,1766]],[[799923,127986],[-8188,8278]],[[791735,136264],[-2132,22935]],[[789603,159199],[91801,11876]],[[881404,171075],[-4313,45614]],[[877091,216689],[91031,11611]],[[968122,228300],[4233,-45460]],[[789603,159199],[-4255,45782]],[[785348,204981],[91743,11708]],[[963840,274421],[4282,-46121]],[[877091,216689],[-4363,46033]],[[872728,262722],[27393,3519]],[[900121,266241],[63719,8180]],[[814933,255296],[34073,4380]],[[849006,259676],[23722,3046]],[[785348,204981],[-4279,45967]],[[781069,250948],[33864,4348]],[[929546,316292],[30042,3823]],[[959588,320115],[4252,-45694]],[[900121,266241],[-4450,44192],[33993,4464],[-118,1395]],[[844658,305480],[4348,-45804]],[[814933,255296],[-4329,45848]],[[810604,301144],[34054,4336]],[[781069,250948],[-4267,45896]],[[776802,296844],[33802,4300]],[[844658,305480],[84888,10812]],[[958587,330839],[-29943,-3938],[902,-10609]],[[844658,305480],[-4385,46205]],[[840273,351685],[115002,14772]],[[955275,366457],[3312,-35618]],[[810604,301144],[-2188,23187]],[[808416,324331],[-2166,22988]],[[806250,347319],[34023,4366]],[[808416,324331],[-33777,-4242]],[[774639,320089],[-2127,22899]],[[772512,342988],[33738,4331]],[[776802,296844],[-2163,23245]],[[958587,330839],[1001,-10724]],[[799923,127986],[-6635,137],[-795,17]],[[792493,128140],[-758,8124]],[[792493,128140],[-20701,579]],[[747616,386320],[20625,2649]],[[768241,388969],[4271,-45981]],[[941263,514968],[-12273,-17112],[-32261,-4115]],[[896729,493741],[-4514,46912]],[[892215,540653],[46094,5969]],[[938309,546622],[2954,-31654]],[[896729,493741],[-25820,-3289]],[[870909,490452],[-4435,46864]],[[866474,537316],[25741,3337]],[[870909,490452],[-25965,-3311]],[[844944,487141],[-4480,46806]],[[840464,533947],[26010,3369]],[[844944,487141],[-37701,-4812]],[[807243,482329],[-4415,46740]],[[802828,529069],[37636,4878]],[[807243,482329],[-47244,-6026]],[[759999,476303],[-4374,46651]],[[755625,522954],[47203,6115]],[[892215,540653],[-4443,46074]],[[887772,586727],[46247,5889]],[[934019,592616],[4290,-45994]],[[755625,522954],[-4347,46378]],[[751278,569332],[47176,6009]],[[798454,575341],[4374,-46272]],[[866474,537316],[-4370,46135]],[[862104,583451],[25668,3276]],[[840464,533947],[-4416,46188]],[[836048,580135],[26056,3316]],[[798454,575341],[37594,4794]],[[751278,569332],[-4358,46603]],[[746920,615935],[182763,23152]],[[929683,639087],[4336,-46471]],[[943969,515277],[-2706,-309]],[[929683,639087],[-12965,139040],[-15878,170289],[-14621,14353],[-169767,-21726]],[[716452,941043],[-126,1320]],[[716326,942363],[185569,23624],[42074,-450710]],[[943969,515277],[2555,-27363],[-185436,-23218],[-1089,11607]],[[967936,458648],[-224419,-28657]],[[743517,429991],[-50819,541404]],[[692698,971395],[23628,-29032]],[[716452,941043],[17445,-186191],[13023,-138917]],[[692698,971395],[226174,28604],[49064,-541351]],[[518561,633418],[-4336,46223],[-4370,46533],[-4324,46090],[-720,7678]],[[504811,779942],[182942,23584]],[[687753,803526],[743,-7951],[4328,-46241],[4332,-46307],[4343,-46414]],[[504811,779942],[-3742,39839],[-4362,46427],[-2916,31084],[11660,17183],[122436,15597],[47461,6049]],[[675348,936121],[4366,-46691],[4343,-46414],[3696,-39490]],[[225588,912329],[467110,59066]],[[692698,971395],[-17457,-34148]],[[675241,937247],[-185797,-23598]],[[489444,913649],[-54660,-7183]],[[253350,835207],[4335,-46104],[4481,-47619]],[[489444,913649],[42219,-450608]],[[675348,936121],[-107,1126]],[[287240,249694],[13388,-141222],[-2307,62],[7807,-82950]],[[306128,25584],[-200605,-25584],[-7948,87877]],[[94496,121991],[13719,1620],[-15010,12922]],[[507582,103726],[4892,-51825],[-206346,-26317]],[[955309,396743],[-2820,-335]],[[952489,396408],[-14846,14282],[-101728,-13051]],[[835915,397639],[-34001,-4353]],[[801914,393286],[-33673,-4317]],[[768241,388969],[-1089,11739],[185561,23641],[2596,-27606]],[[792493,128140],[2988,-32215]],[[795481,95925],[-20659,530]],[[967936,458648],[32063,-353796],[-96193,-11726],[-108325,2799]],[[968914,136449],[10701,1382],[-24306,258912]],[[952489,396408],[2786,-29951]],[[840273,351685],[-4358,45954]],[[806250,347319],[-4336,45967]],[[352645,801053],[-4263,46228]],[[348382,847281],[39817,5060]],[[348382,847281],[-3731,-472]],[[225333,690175],[-49026,-6194]],[[176307,683981],[-4682,46108]],[[171625,730089],[49410,6296]],[[176307,683981],[-18606,-2349]],[[129741,724756],[41884,5333]]],"bbox":[-290.638,269.539,-27.938,496.048],"transform":{"scale":[0.0002627002627002627,0.00022650922650922653],"translate":[-290.638,269.539]}}