{"type":"Topology","objects":{"01406-4304-12":{"type":"GeometryCollection","geometries":[{"type":"MultiPolygon","arcs":[[[0,1,2]]],"properties":{"筆ID":"H000000001","version":"ver1.0","座標系":"任意座標系","測地系判別":null,"地図名":"H1843040140614","地図番号":"開1","縮尺分母":"3000","市区町村コード":"01406","市区町村名":"古平郡古平町","大字コード":"001","丁目コード":"000","小字コード":"0000","予備コード":"00","大字名":"大字浜町","丁目名":null,"小字名":null,"予備名":null,"地番":"1707-2","精度区分":null,"座標値種別":"図上測量","筆界未定構成筆":null,"代表点緯度":967.926,"代表点経度":1215.710505127}},{"type":"MultiPolygon","arcs":[[[3,4,5]]],"properties":{"筆ID":"H000000002","version":"ver1.0","座標系":"任意座標系","測地系判別":null,"地図名":"H1843040140614","地図番号":"開4","縮尺分母":"3000","市区町村コード":"01406","市区町村名":"古平郡古平町","大字コード":"001","丁目コード":"000","小字コード":"0000","予備コード":"00","大字名":"大字浜町","丁目名":null,"小字名":null,"予備名":null,"地番":"長狭物不明-1","精度区分":null,"座標値種別":"図上測量","筆界未定構成筆":null,"代表点緯度":1618.6275,"代表点経度":995.450816142}},{"type":"MultiPolygon","arcs":[[[6,7]]],"properties":{"筆ID":"H000000003","version":"ver1.0","座標系":"任意座標系","測地系判別":null,"地図名":"H1843040140614","地図番号":"開2","縮尺分母":"3000","市区町村コード":"01406","市区町村名":"古平郡古平町","大字コード":"001","丁目コード":"000","小字コード":"0000","予備コード":"00","大字名":"大字浜町","丁目名":null,"小字名":null,"予備名":null,"地番":"1754","精度区分":null,"座標値種別":"図上測量","筆界未定構成筆":null,"代表点緯度":618.0045,"代表点経度":-211.990783839}},{"type":"MultiPolygon","arcs":[[[8,9,10,11]]],"properties":{"筆ID":"H000000004","version":"ver1.0","座標系":"任意座標系","測地系判別":null,"地図名":"H1843040140614","地図番号":"開2","縮尺分母":"3000","市区町村コード":"01406","市区町村名":"古平郡古平町","大字コード":"001","丁目コード":"000","小字コード":"0000","予備コード":"00","大字名":"大字浜町","丁目名":null,"小字名":null,"予備名":null,"地番":"1751-4","精度区分":null,"座標値種別":"図上測量","筆界未定構成筆":null,"代表点緯度":942.4005,"代表点経度":-170.777902621}},{"type":"MultiPolygon","arcs":[[[12,13,14,15,16,-10]]],"properties":{"筆ID":"H000000005","version":"ver1.0","座標系":"任意座標系","測地系判別":null,"地図名":"H1843040140614","地図番号":"開2","縮尺分母":"3000","市区町村コード":"01406","市区町村名":"古平郡古平町","大字コード":"001","丁目コード":"000","小字コード":"0000","予備コード":"00","大字名":"大字浜町","丁目名":null,"小字名":null,"予備名":null,"地番":"1751-1","精度区分":null,"座標値種別":"図上測量","筆界未定構成筆":null,"代表点緯度":1038.1995,"代表点経度":-32.032531828}},{"type":"MultiPolygon","arcs":[[[17,18,19,20,21]]],"properties":{"筆ID":"H000000006","version":"ver1.0","座標系":"任意座標系","測地系判別":null,"地図名":"H1843040140614","地図番号":"開2","縮尺分母":"3000","市区町村コード":"01406","市区町村名":"古平郡古平町","大字コード":"001","丁目コード":"000","小字コード":"0000","予備コード":"00","大字名":"大字浜町","丁目名":null,"小字名":null,"予備名":null,"地番":"1750-1","精度区分":null,"座標値種別":"図上測量","筆界未定構成筆":null,"代表点緯度":1222.4205,"代表点経度":2.938295842}},{"type":"MultiPolygon","arcs":[[[-17,22,-11]]],"properties":{"筆ID":"H000000007","version":"ver1.0","座標系":"任意座標系","測地系判別":null,"地図名":"H1843040140614","地図番号":"開2","縮尺分母":"3000","市区町村コード":"01406","市区町村名":"古平郡古平町","大字コード":"001","丁目コード":"000","小字コード":"0000","予備コード":"00","大字名":"大字浜町","丁目名":null,"小字名":null,"予備名":null,"地番":"1751-3","精度区分":null,"座標値種別":"図上測量","筆界未定構成筆":null,"代表点緯度":841.2225,"代表点経度":31.731366546}},{"type":"MultiPolygon","arcs":[[[23,24,25,26,27,28,29]]],"properties":{"筆ID":"H000000008","version":"ver1.0","座標系":"任意座標系","測地系判別":null,"地図名":"H1843040140614","地図番号":"開2","縮尺分母":"3000","市区町村コード":"01406","市区町村名":"古平郡古平町","大字コード":"001","丁目コード":"000","小字コード":"0000","予備コード":"00","大字名":"大字浜町","丁目名":null,"小字名":null,"予備名":null,"地番":"1753-7","精度区分":null,"座標値種別":"図上測量","筆界未定構成筆":null,"代表点緯度":234.792,"代表点経度":-51.173345132}},{"type":"MultiPolygon","arcs":[[[30,31,32,33,34,35,-24,36]]],"properties":{"筆ID":"H000000009","version":"ver1.0","座標系":"任意座標系","測地系判別":null,"地図名":"H1843040140614","地図番号":"開2","縮尺分母":"3000","市区町村コード":"01406","市区町村名":"古平郡古平町","大字コード":"001","丁目コード":"000","小字コード":"0000","予備コード":"00","大字名":"大字浜町","丁目名":null,"小字名":null,"予備名":null,"地番":"1753-28","精度区分":null,"座標値種別":"図上測量","筆界未定構成筆":null,"代表点緯度":306.0105,"代表点経度":-62.608939016}},{"type":"MultiPolygon","arcs":[[[37,38,-31,39]]],"properties":{"筆ID":"H000000010","version":"ver1.0","座標系":"任意座標系","測地系判別":null,"地図名":"H1843040140614","地図番号":"開2","縮尺分母":"3000","市区町村コード":"01406","市区町村名":"古平郡古平町","大字コード":"001","丁目コード":"000","小字コード":"0000","予備コード":"00","大字名":"大字浜町","丁目名":null,"小字名":null,"予備名":null,"地番":"1753-36","精度区分":null,"座標値種別":"図上測量","筆界未定構成筆":null,"代表点緯度":348.7365,"代表点経度":-76.711799751}},{"type":"MultiPolygon","arcs":[[[40,41,42,43,44,45,46,47,48,49,-38]]],"properties":{"筆ID":"H000000011","version":"ver1.0","座標系":"任意座標系","測地系判別":null,"地図名":"H1843040140614","地図番号":"開2","縮尺分母":"3000","市区町村コード":"01406","市区町村名":"古平郡古平町","大字コード":"001","丁目コード":"000","小字コード":"0000","予備コード":"00","大字名":"大字浜町","丁目名":null,"小字名":null,"予備名":null,"地番":"1753-3","精度区分":null,"座標値種別":"図上測量","筆界未定構成筆":null,"代表点緯度":382.206,"代表点経度":1.307190916}},{"type":"MultiPolygon","arcs":[[[-39,-50,50,-32]]],"properties":{"筆ID":"H000000012","version":"ver1.0","座標系":"任意座標系","測地系判別":null,"地図名":"H1843040140614","地図番号":"開2","縮尺分母":"3000","市区町村コード":"01406","市区町村名":"古平郡古平町","大字コード":"001","丁目コード":"000","小字コード":"0000","予備コード":"00","大字名":"大字浜町","丁目名":null,"小字名":null,"予備名":null,"地番":"1753-35","精度区分":null,"座標値種別":"図上測量","筆界未定構成筆":null,"代表点緯度":346.053,"代表点経度":-58.889781129}},{"type":"MultiPolygon","arcs":[[[51,52,53,54,-25,-36]]],"properties":{"筆ID":"H000000013","version":"ver1.0","座標系":"任意座標系","測地系判別":null,"地図名":"H1843040140614","地図番号":"開2","縮尺分母":"3000","市区町村コード":"01406","市区町村名":"古平郡古平町","大字コード":"001","丁目コード":"000","小字コード":"0000","予備コード":"00","大字名":"大字浜町","丁目名":null,"小字名":null,"予備名":null,"地番":"1753-23","精度区分":null,"座標値種別":"図上測量","筆界未定構成筆":null,"代表点緯度":271.311,"代表点経度":-40.435897614}},{"type":"MultiPolygon","arcs":[[[55,56,57,-26,-55]]],"properties":{"筆ID":"H000000014","version":"ver1.0","座標系":"任意座標系","測地系判別":null,"地図名":"H1843040140614","地図番号":"開2","縮尺分母":"3000","市区町村コード":"01406","市区町村名":"古平郡古平町","大字コード":"001","丁目コード":"000","小字コード":"0000","予備コード":"00","大字名":"大字浜町","丁目名":null,"小字名":null,"予備名":null,"地番":"1753-19","精度区分":null,"座標値種別":"図上測量","筆界未定構成筆":null,"代表点緯度":232.956,"代表点経度":-23.308618345}},{"type":"MultiPolygon","arcs":[[[-49,58,-33,-51]]],"properties":{"筆ID":"H000000015","version":"ver1.0","座標系":"任意座標系","測地系判別":null,"地図名":"H1843040140614","地図番号":"開2","縮尺分母":"3000","市区町村コード":"01406","市区町村名":"古平郡古平町","大字コード":"001","丁目コード":"000","小字コード":"0000","予備コード":"00","大字名":"大字浜町","丁目名":null,"小字名":null,"予備名":null,"地番":"1753-29","精度区分":null,"座標値種別":"図上測量","筆界未定構成筆":null,"代表点緯度":344.0745,"代表点経度":-46.300513466}},{"type":"MultiPolygon","arcs":[[[59,60,61,-42]]],"properties":{"筆ID":"H000000016","version":"ver1.0","座標系":"任意座標系","測地系判別":null,"地図名":"H1843040140614","地図番号":"開2","縮尺分母":"3000","市区町村コード":"01406","市区町村名":"古平郡古平町","大字コード":"001","丁目コード":"000","小字コード":"0000","予備コード":"00","大字名":"大字浜町","丁目名":null,"小字名":null,"予備名":null,"地番":"1753-2","精度区分":null,"座標値種別":"図上測量","筆界未定構成筆":null,"代表点緯度":484.3335,"代表点経度":17.168309114}},{"type":"MultiPolygon","arcs":[[[-59,-48,62,63,-34]]],"properties":{"筆ID":"H000000017","version":"ver1.0","座標系":"任意座標系","測地系判別":null,"地図名":"H1843040140614","地図番号":"開2","縮尺分母":"3000","市区町村コード":"01406","市区町村名":"古平郡古平町","大字コード":"001","丁目コード":"000","小字コード":"0000","予備コード":"00","大字名":"大字浜町","丁目名":null,"小字名":null,"予備名":null,"地番":"1753-30","精度区分":null,"座標値種別":"図上測量","筆界未定構成筆":null,"代表点緯度":341.7525,"代表点経度":-28.900402763}},{"type":"MultiPolygon","arcs":[[[-64,64,65,-52,-35]]],"properties":{"筆ID":"H000000018","version":"ver1.0","座標系":"任意座標系","測地系判別":null,"地図名":"H1843040140614","地図番号":"開2","縮尺分母":"3000","市区町村コード":"01406","市区町村名":"古平郡古平町","大字コード":"001","丁目コード":"000","小字コード":"0000","予備コード":"00","大字名":"大字浜町","丁目名":null,"小字名":null,"予備名":null,"地番":"1753-27","精度区分":null,"座標値種別":"図上測量","筆界未定構成筆":null,"代表点緯度":305.5665,"代表点経度":-28.365413957}},{"type":"MultiPolygon","arcs":[[[-29,66,67]]],"properties":{"筆ID":"H000000019","version":"ver1.0","座標系":"任意座標系","測地系判別":null,"地図名":"H1843040140614","地図番号":"開2","縮尺分母":"3000","市区町村コード":"01406","市区町村名":"古平郡古平町","大字コード":"001","丁目コード":"000","小字コード":"0000","予備コード":"00","大字名":"大字浜町","丁目名":null,"小字名":null,"予備名":null,"地番":"1753-6","精度区分":null,"座標値種別":"図上測量","筆界未定構成筆":null,"代表点緯度":155.25,"代表点経度":-2.121430315}},{"type":"MultiPolygon","arcs":[[[68,69,70,71,-27,-58]]],"properties":{"筆ID":"H000000020","version":"ver1.0","座標系":"任意座標系","測地系判別":null,"地図名":"H1843040140614","地図番号":"開2","縮尺分母":"3000","市区町村コード":"01406","市区町村名":"古平郡古平町","大字コード":"001","丁目コード":"000","小字コード":"0000","予備コード":"00","大字名":"大字浜町","丁目名":null,"小字名":null,"予備名":null,"地番":"1753-16","精度区分":null,"座標値種別":"図上測量","筆界未定構成筆":null,"代表点緯度":196.1895,"代表点経度":30.00367878}},{"type":"MultiPolygon","arcs":[[[-72,72,-67,-28]]],"properties":{"筆ID":"H000000021","version":"ver1.0","座標系":"任意座標系","測地系判別":null,"地図名":"H1843040140614","地図番号":"開2","縮尺分母":"3000","市区町村コード":"01406","市区町村名":"古平郡古平町","大字コード":"001","丁目コード":"000","小字コード":"0000","予備コード":"00","大字名":"大字浜町","丁目名":null,"小字名":null,"予備名":null,"地番":"1753-15","精度区分":null,"座標値種別":"図上測量","筆界未定構成筆":null,"代表点緯度":163.2795,"代表点経度":48.802902918}},{"type":"MultiPolygon","arcs":[[[-47,73,74,-65,-63]]],"properties":{"筆ID":"H000000022","version":"ver1.0","座標系":"任意座標系","測地系判別":null,"地図名":"H1843040140614","地図番号":"開2","縮尺分母":"3000","市区町村コード":"01406","市区町村名":"古平郡古平町","大字コード":"001","丁目コード":"000","小字コード":"0000","予備コード":"00","大字名":"大字浜町","丁目名":null,"小字名":null,"予備名":null,"地番":"1753-31","精度区分":null,"座標値種別":"図上測量","筆界未定構成筆":null,"代表点緯度":337.8885,"代表点経度":-1.24525696}},{"type":"MultiPolygon","arcs":[[[-54,75,76,77,78,-56]]],"properties":{"筆ID":"H000000023","version":"ver1.0","座標系":"任意座標系","測地系判別":null,"地図名":"H1843040140614","地図番号":"開2","縮尺分母":"3000","市区町村コード":"01406","市区町村名":"古平郡古平町","大字コード":"001","丁目コード":"000","小字コード":"0000","予備コード":"00","大字名":"大字浜町","丁目名":null,"小字名":null,"予備名":null,"地番":"1753-22","精度区分":null,"座標値種別":"図上測量","筆界未定構成筆":null,"代表点緯度":266.8635,"代表点経度":5.658328779}},{"type":"MultiPolygon","arcs":[[[79,80,-61,81]]],"properties":{"筆ID":"H000000024","version":"ver1.0","座標系":"任意座標系","測地系判別":null,"地図名":"H1843040140614","地図番号":"開2","縮尺分母":"3000","市区町村コード":"01406","市区町村名":"古平郡古平町","大字コード":"001","丁目コード":"000","小字コード":"0000","予備コード":"00","大字名":"大字浜町","丁目名":null,"小字名":null,"予備名":null,"地番":"1753-12","精度区分":null,"座標値種別":"図上測量","筆界未定構成筆":null,"代表点緯度":544.7985,"代表点経度":30.198016243}},{"type":"MultiPolygon","arcs":[[[-75,82,83,-76,-53,-66]]],"properties":{"筆ID":"H000000025","version":"ver1.0","座標系":"任意座標系","測地系判別":null,"地図名":"H1843040140614","地図番号":"開2","縮尺分母":"3000","市区町村コード":"01406","市区町村名":"古平郡古平町","大字コード":"001","丁目コード":"000","小字コード":"0000","予備コード":"00","大字名":"大字浜町","丁目名":null,"小字名":null,"予備名":null,"地番":"1753-26","精度区分":null,"座標値種別":"図上測量","筆界未定構成筆":null,"代表点緯度":302.301,"代表点経度":-0.829768149}},{"type":"MultiPolygon","arcs":[[[-79,84,85,-69,-57]]],"properties":{"筆ID":"H000000026","version":"ver1.0","座標系":"任意座標系","測地系判別":null,"地図名":"H1843040140614","地図番号":"開2","縮尺分母":"3000","市区町村コード":"01406","市区町村名":"古平郡古平町","大字コード":"001","丁目コード":"000","小字コード":"0000","予備コード":"00","大字名":"大字浜町","丁目名":null,"小字名":null,"予備名":null,"地番":"1753-18","精度区分":null,"座標値種別":"図上測量","筆界未定構成筆":null,"代表点緯度":229.9785,"代表点経度":19.451252091}},{"type":"MultiPolygon","arcs":[[[86,87,88,89,-80,90]]],"properties":{"筆ID":"H000000027","version":"ver1.0","座標系":"任意座標系","測地系判別":null,"地図名":"H1843040140614","地図番号":"開2","縮尺分母":"3000","市区町村コード":"01406","市区町村名":"古平郡古平町","大字コード":"001","丁目コード":"000","小字コード":"0000","予備コード":"00","大字名":"大字浜町","丁目名":null,"小字名":null,"予備名":null,"地番":"1753-1","精度区分":null,"座標値種別":"図上測量","筆界未定構成筆":null,"代表点緯度":607.5225,"代表点経度":51.559842485}},{"type":"MultiPolygon","arcs":[[[-46,91,92,-83,-74]]],"properties":{"筆ID":"H000000028","version":"ver1.0","座標系":"任意座標系","測地系判別":null,"地図名":"H1843040140614","地図番号":"開2","縮尺分母":"3000","市区町村コード":"01406","市区町村名":"古平郡古平町","大字コード":"001","丁目コード":"000","小字コード":"0000","予備コード":"00","大字名":"大字浜町","丁目名":null,"小字名":null,"予備名":null,"地番":"1753-32","精度区分":null,"座標値種別":"図上測量","筆界未定構成筆":null,"代表点緯度":333.8535,"代表点経度":27.020360346}},{"type":"MultiPolygon","arcs":[[[-93,93,94,95,-77,-84]]],"properties":{"筆ID":"H000000029","version":"ver1.0","座標系":"任意座標系","測地系判別":null,"地図名":"H1843040140614","地図番号":"開2","縮尺分母":"3000","市区町村コード":"01406","市区町村名":"古平郡古平町","大字コード":"001","丁目コード":"000","小字コード":"0000","予備コード":"00","大字名":"大字浜町","丁目名":null,"小字名":null,"予備名":null,"地番":"1753-25","精度区分":null,"座標値種別":"図上測量","筆界未定構成筆":null,"代表点緯度":298.848,"代表点経度":26.941360498}},{"type":"MultiPolygon","arcs":[[[96,97,98,-21]]],"properties":{"筆ID":"H000000030","version":"ver1.0","座標系":"任意座標系","測地系判別":null,"地図名":"H1843040140614","地図番号":"開2","縮尺分母":"3000","市区町村コード":"01406","市区町村名":"古平郡古平町","大字コード":"001","丁目コード":"000","小字コード":"0000","予備コード":"00","大字名":"大字浜町","丁目名":null,"小字名":null,"予備名":null,"地番":"1387-1","精度区分":null,"座標値種別":"図上測量","筆界未定構成筆":null,"代表点緯度":1140.8415,"代表点経度":63.611124122}},{"type":"MultiPolygon","arcs":[[[-78,-96,99,100,101,102,-85]]],"properties":{"筆ID":"H000000031","version":"ver1.0","座標系":"任意座標系","測地系判別":null,"地図名":"H1843040140614","地図番号":"開2","縮尺分母":"3000","市区町村コード":"01406","市区町村名":"古平郡古平町","大字コード":"001","丁目コード":"000","小字コード":"0000","予備コード":"00","大字名":"大字浜町","丁目名":null,"小字名":null,"予備名":null,"地番":"1753-21","精度区分":null,"座標値種別":"図上測量","筆界未定構成筆":null,"代表点緯度":262.011,"代表点経度":52.82962612}},{"type":"MultiPolygon","arcs":[[[-92,-45,103,104,-94]]],"properties":{"筆ID":"H000000032","version":"ver1.0","座標系":"任意座標系","測地系判別":null,"地図名":"H1843040140614","地図番号":"開2","縮尺分母":"3000","市区町村コード":"01406","市区町村名":"古平郡古平町","大字コード":"001","丁目コード":"000","小字コード":"0000","予備コード":"00","大字名":"大字浜町","丁目名":null,"小字名":null,"予備名":null,"地番":"1753-33","精度区分":null,"座標値種別":"図上測量","筆界未定構成筆":null,"代表点緯度":330.5595,"代表点経度":50.720480209}},{"type":"MultiPolygon","arcs":[[[105,106,107]]],"properties":{"筆ID":"H000000033","version":"ver1.0","座標系":"任意座標系","測地系判別":null,"地図名":"H1843040140614","地図番号":"開2","縮尺分母":"3000","市区町村コード":"01406","市区町村名":"古平郡古平町","大字コード":"001","丁目コード":"000","小字コード":"0000","予備コード":"00","大字名":"大字浜町","丁目名":null,"小字名":null,"予備名":null,"地番":"1752","精度区分":null,"座標値種別":"図上測量","筆界未定構成筆":null,"代表点緯度":683.0745,"代表点経度":236.997007455}},{"type":"MultiPolygon","arcs":[[[-95,-105,108,109,-100]]],"properties":{"筆ID":"H000000034","version":"ver1.0","座標系":"任意座標系","測地系判別":null,"地図名":"H1843040140614","地図番号":"開2","縮尺分母":"3000","市区町村コード":"01406","市区町村名":"古平郡古平町","大字コード":"001","丁目コード":"000","小字コード":"0000","予備コード":"00","大字名":"大字浜町","丁目名":null,"小字名":null,"予備名":null,"地番":"1753-24","精度区分":null,"座標値種別":"図上測量","筆界未定構成筆":null,"代表点緯度":295.413,"代表点経度":55.383154284}},{"type":"MultiPolygon","arcs":[[[-103,110,111,-70,-86]]],"properties":{"筆ID":"H000000035","version":"ver1.0","座標系":"任意座標系","測地系判別":null,"地図名":"H1843040140614","地図番号":"開2","縮尺分母":"3000","市区町村コード":"01406","市区町村名":"古平郡古平町","大字コード":"001","丁目コード":"000","小字コード":"0000","予備コード":"00","大字名":"大字浜町","丁目名":null,"小字名":null,"予備名":null,"地番":"1753-17","精度区分":null,"座標値種別":"図上測量","筆界未定構成筆":null,"代表点緯度":226.752,"代表点経度":65.800295738}},{"type":"MultiPolygon","arcs":[[[-104,-44,112,113,-109]]],"properties":{"筆ID":"H000000036","version":"ver1.0","座標系":"任意座標系","測地系判別":null,"地図名":"H1843040140614","地図番号":"開2","縮尺分母":"3000","市区町村コード":"01406","市区町村名":"古平郡古平町","大字コード":"001","丁目コード":"000","小字コード":"0000","予備コード":"00","大字名":"大字浜町","丁目名":null,"小字名":null,"予備名":null,"地番":"1753-34","精度区分":null,"座標値種別":"図上測量","筆界未定構成筆":null,"代表点緯度":328.2585,"代表点経度":70.483823494}},{"type":"MultiPolygon","arcs":[[[-110,-114,114,115,116,-101]]],"properties":{"筆ID":"H000000037","version":"ver1.0","座標系":"任意座標系","測地系判別":null,"地図名":"H1843040140614","地図番号":"開2","縮尺分母":"3000","市区町村コード":"01406","市区町村名":"古平郡古平町","大字コード":"001","丁目コード":"000","小字コード":"0000","予備コード":"00","大字名":"大字浜町","丁目名":null,"小字名":null,"予備名":null,"地番":"1753-4","精度区分":null,"座標値種別":"図上測量","筆界未定構成筆":null,"代表点緯度":293.1915,"代表点経度":76.681622754}},{"type":"MultiPolygon","arcs":[[[-81,-90,117,118]]],"properties":{"筆ID":"H000000038","version":"ver1.0","座標系":"任意座標系","測地系判別":null,"地図名":"H1843040140614","地図番号":"開2","縮尺分母":"3000","市区町村コード":"01406","市区町村名":"古平郡古平町","大字コード":"001","丁目コード":"000","小字コード":"0000","予備コード":"00","大字名":"大字浜町","丁目名":null,"小字名":null,"予備名":null,"地番":"1753-11","精度区分":null,"座標値種別":"図上測量","筆界未定構成筆":null,"代表点緯度":545.532,"代表点経度":84.020263033}},{"type":"MultiPolygon","arcs":[[[119,120,-97]]],"properties":{"筆ID":"H000000039","version":"ver1.0","座標系":"任意座標系","測地系判別":null,"地図名":"H1843040140614","地図番号":"開2","縮尺分母":"3000","市区町村コード":"01406","市区町村名":"古平郡古平町","大字コード":"001","丁目コード":"000","小字コード":"0000","予備コード":"00","大字名":"大字浜町","丁目名":null,"小字名":null,"予備名":null,"地番":"1387-4","精度区分":null,"座標値種別":"図上測量","筆界未定構成筆":null,"代表点緯度":1172.913,"代表点経度":82.299782224}},{"type":"MultiPolygon","arcs":[[[121,-120,-20]]],"properties":{"筆ID":"H000000040","version":"ver1.0","座標系":"任意座標系","測地系判別":null,"地図名":"H1843040140614","地図番号":"開2","縮尺分母":"3000","市区町村コード":"01406","市区町村名":"古平郡古平町","大字コード":"001","丁目コード":"000","小字コード":"0000","予備コード":"00","大字名":"大字浜町","丁目名":null,"小字名":null,"予備名":null,"地番":"1750-4","精度区分":null,"座標値種別":"図上測量","筆界未定構成筆":null,"代表点緯度":1189.404,"代表点経度":81.765459997}},{"type":"MultiPolygon","arcs":[[[-102,-117,122,-111]]],"properties":{"筆ID":"H000000041","version":"ver1.0","座標系":"任意座標系","測地系判別":null,"地図名":"H1843040140614","地図番号":"開2","縮尺分母":"3000","市区町村コード":"01406","市区町村名":"古平郡古平町","大字コード":"001","丁目コード":"000","小字コード":"0000","予備コード":"00","大字名":"大字浜町","丁目名":null,"小字名":null,"予備名":null,"地番":"1753-5","精度区分":null,"座標値種別":"図上測量","筆界未定構成筆":null,"代表点緯度":259.3095,"代表点経度":81.551218715}},{"type":"MultiPolygon","arcs":[[[-89,123,124,-118]]],"properties":{"筆ID":"H000000042","version":"ver1.0","座標系":"任意座標系","測地系判別":null,"地図名":"H1843040140614","地図番号":"開2","縮尺分母":"3000","市区町村コード":"01406","市区町村名":"古平郡古平町","大字コード":"001","丁目コード":"000","小字コード":"0000","予備コード":"00","大字名":"大字浜町","丁目名":null,"小字名":null,"予備名":null,"地番":"1753-20","精度区分":null,"座標値種別":"図上測量","筆界未定構成筆":null,"代表点緯度":551.985,"代表点経度":93.719118191}},{"type":"MultiPolygon","arcs":[[[125,126,127,128,129,-124,-88]]],"properties":{"筆ID":"H000000043","version":"ver1.0","座標系":"任意座標系","測地系判別":null,"地図名":"H1843040140614","地図番号":"開2","縮尺分母":"3000","市区町村コード":"01406","市区町村名":"古平郡古平町","大字コード":"001","丁目コード":"000","小字コード":"0000","予備コード":"00","大字名":"大字浜町","丁目名":null,"小字名":null,"予備名":null,"地番":"1753-13","精度区分":null,"座標値種別":"図上測量","筆界未定構成筆":null,"代表点緯度":567.7665,"代表点経度":96.367271758}},{"type":"MultiPolygon","arcs":[[[130,131,-126,-87]]],"properties":{"筆ID":"H000000044","version":"ver1.0","座標系":"任意座標系","測地系判別":null,"地図名":"H1843040140614","地図番号":"開2","縮尺分母":"3000","市区町村コード":"01406","市区町村名":"古平郡古平町","大字コード":"001","丁目コード":"000","小字コード":"0000","予備コード":"00","大字名":"大字浜町","丁目名":null,"小字名":null,"予備名":null,"地番":"1753-8","精度区分":null,"座標値種別":"図上測量","筆界未定構成筆":null,"代表点緯度":612.3375,"代表点経度":105.72642719}},{"type":"MultiPolygon","arcs":[[[132,133,134,135,-122,-19]]],"properties":{"筆ID":"H000000045","version":"ver1.0","座標系":"任意座標系","測地系判別":null,"地図名":"H1843040140614","地図番号":"開2","縮尺分母":"3000","市区町村コード":"01406","市区町村名":"古平郡古平町","大字コード":"001","丁目コード":"000","小字コード":"0000","予備コード":"00","大字名":"大字浜町","丁目名":null,"小字名":null,"予備名":null,"地番":"1750-3","精度区分":null,"座標値種別":"図上測量","筆界未定構成筆":null,"代表点緯度":1222.14,"代表点経度":102.5806467}},{"type":"MultiPolygon","arcs":[[[-136,136,137,-98,-121]]],"properties":{"筆ID":"H000000046","version":"ver1.0","座標系":"任意座標系","測地系判別":null,"地図名":"H1843040140614","地図番号":"開2","縮尺分母":"3000","市区町村コード":"01406","市区町村名":"古平郡古平町","大字コード":"001","丁目コード":"000","小字コード":"0000","予備コード":"00","大字名":"大字浜町","丁目名":null,"小字名":null,"予備名":null,"地番":"1387-3","精度区分":null,"座標値種別":"図上測量","筆界未定構成筆":null,"代表点緯度":1120.266,"代表点経度":141.490756574}},{"type":"MultiPolygon","arcs":[[[138,139,-127,-132]]],"properties":{"筆ID":"H000000047","version":"ver1.0","座標系":"任意座標系","測地系判別":null,"地図名":"H1843040140614","地図番号":"開2","縮尺分母":"3000","市区町村コード":"01406","市区町村名":"古平郡古平町","大字コード":"001","丁目コード":"000","小字コード":"0000","予備コード":"00","大字名":"大字浜町","丁目名":null,"小字名":null,"予備名":null,"地番":"1753-9","精度区分":null,"座標値種別":"図上測量","筆界未定構成筆":null,"代表点緯度":582.138,"代表点経度":115.350158324}},{"type":"MultiPolygon","arcs":[[[140,141,142,-134]]],"properties":{"筆ID":"H000000048","version":"ver1.0","座標系":"任意座標系","測地系判別":null,"地図名":"H1843040140614","地図番号":"開2","縮尺分母":"3000","市区町村コード":"01406","市区町村名":"古平郡古平町","大字コード":"001","丁目コード":"000","小字コード":"0000","予備コード":"00","大字名":"大字浜町","丁目名":null,"小字名":null,"予備名":null,"地番":"1919","精度区分":null,"座標値種別":"図上測量","筆界未定構成筆":null,"代表点緯度":1267.422,"代表点経度":115.246969515}},{"type":"MultiPolygon","arcs":[[[143,144,-128,-140]]],"properties":{"筆ID":"H000000049","version":"ver1.0","座標系":"任意座標系","測地系判別":null,"地図名":"H1843040140614","地図番号":"開2","縮尺分母":"3000","市区町村コード":"01406","市区町村名":"古平郡古平町","大字コード":"001","丁目コード":"000","小字コード":"0000","予備コード":"00","大字名":"大字浜町","丁目名":null,"小字名":null,"予備名":null,"地番":"1753-10","精度区分":null,"座標値種別":"図上測量","筆界未定構成筆":null,"代表点緯度":565.7175,"代表点経度":127.800886778}},{"type":"MultiPolygon","arcs":[[[-145,145,146,-129]]],"properties":{"筆ID":"H000000050","version":"ver1.0","座標系":"任意座標系","測地系判別":null,"地図名":"H1843040140614","地図番号":"開2","縮尺分母":"3000","市区町村コード":"01406","市区町村名":"古平郡古平町","大字コード":"001","丁目コード":"000","小字コード":"0000","予備コード":"00","大字名":"大字浜町","丁目名":null,"小字名":null,"予備名":null,"地番":"1753-14","精度区分":null,"座標値種別":"図上測量","筆界未定構成筆":null,"代表点緯度":557.1255,"代表点経度":133.457813386}},{"type":"MultiPolygon","arcs":[[[147,148,149,-135]]],"properties":{"筆ID":"H000000051","version":"ver1.0","座標系":"任意座標系","測地系判別":null,"地図名":"H1843040140614","地図番号":"開2","縮尺分母":"3000","市区町村コード":"01406","市区町村名":"古平郡古平町","大字コード":"001","丁目コード":"000","小字コード":"0000","予備コード":"00","大字名":"大字浜町","丁目名":null,"小字名":null,"予備名":null,"地番":"1750-2","精度区分":null,"座標値種別":"図上測量","筆界未定構成筆":null,"代表点緯度":1197.2115,"代表点経度":166.315603086}},{"type":"MultiPolygon","arcs":[[[150,151,-142]]],"properties":{"筆ID":"H000000052","version":"ver1.0","座標系":"任意座標系","測地系判別":null,"地図名":"H1843040140614","地図番号":"開2","縮尺分母":"3000","市区町村コード":"01406","市区町村名":"古平郡古平町","大字コード":"001","丁目コード":"000","小字コード":"0000","予備コード":"00","大字名":"大字浜町","丁目名":null,"小字名":null,"予備名":null,"地番":"1881-1","精度区分":null,"座標値種別":"図上測量","筆界未定構成筆":null,"代表点緯度":1267.8255,"代表点経度":136.889355351}},{"type":"MultiPolygon","arcs":[[[-150,152,-137]]],"properties":{"筆ID":"H000000053","version":"ver1.0","座標系":"任意座標系","測地系判別":null,"地図名":"H1843040140614","地図番号":"開2","縮尺分母":"3000","市区町村コード":"01406","市区町村名":"古平郡古平町","大字コード":"001","丁目コード":"000","小字コード":"0000","予備コード":"00","大字名":"大字浜町","丁目名":null,"小字名":null,"予備名":null,"地番":"1387-2","精度区分":null,"座標値種別":"図上測量","筆界未定構成筆":null,"代表点緯度":1118.1555,"代表点経度":172.289413577}},{"type":"MultiPolygon","arcs":[[[153,154,155,-152]]],"properties":{"筆ID":"H000000054","version":"ver1.0","座標系":"任意座標系","測地系判別":null,"地図名":"H1843040140614","地図番号":"開3","縮尺分母":"3000","市区町村コード":"01406","市区町村名":"古平郡古平町","大字コード":"001","丁目コード":"000","小字コード":"0000","予備コード":"00","大字名":"大字浜町","丁目名":null,"小字名":null,"予備名":null,"地番":"1881-2","精度区分":null,"座標値種別":"図上測量","筆界未定構成筆":null,"代表点緯度":1468.6965,"代表点経度":557.130110289}},{"type":"MultiPolygon","arcs":[[[-15,156]]],"properties":{"筆ID":"H000000055","version":"ver1.0","座標系":"任意座標系","測地系判別":null,"地図名":"H1843040140614","地図番号":"開2","縮尺分母":"3000","市区町村コード":"01406","市区町村名":"古平郡古平町","大字コード":"001","丁目コード":"000","小字コード":"0000","予備コード":"00","大字名":"大字浜町","丁目名":null,"小字名":null,"予備名":null,"地番":"1751-2","精度区分":null,"座標値種別":"図上測量","筆界未定構成筆":null,"代表点緯度":1064.8065,"代表点経度":162.422078021}},{"type":"MultiPolygon","arcs":[[[157,158,159]]],"properties":{"筆ID":"H000000056","version":"ver1.0","座標系":"任意座標系","測地系判別":null,"地図名":"H1843040140614","地図番号":"開2","縮尺分母":"3000","市区町村コード":"01406","市区町村名":"古平郡古平町","大字コード":"001","丁目コード":"000","小字コード":"0000","予備コード":"00","大字名":"大字浜町","丁目名":null,"小字名":null,"予備名":null,"地番":"1383-2","精度区分":null,"座標値種別":"図上測量","筆界未定構成筆":null,"代表点緯度":1038.6795,"代表点経度":173.989384349}},{"type":"MultiPolygon","arcs":[[[160,161,-158,162]]],"properties":{"筆ID":"H000000057","version":"ver1.0","座標系":"任意座標系","測地系判別":null,"地図名":"H1843040140614","地図番号":"開2","縮尺分母":"3000","市区町村コード":"01406","市区町村名":"古平郡古平町","大字コード":"001","丁目コード":"000","小字コード":"0000","予備コード":"00","大字名":"大字浜町","丁目名":null,"小字名":null,"予備名":null,"地番":"1383-6","精度区分":null,"座標値種別":"図上測量","筆界未定構成筆":null,"代表点緯度":1045.755,"代表点経度":193.177563863}},{"type":"MultiPolygon","arcs":[[[163,164]]],"properties":{"筆ID":"H000000058","version":"ver1.0","座標系":"任意座標系","測地系判別":null,"地図名":"H1843040140614","地図番号":"開2","縮尺分母":"3000","市区町村コード":"01406","市区町村名":"古平郡古平町","大字コード":"001","丁目コード":"000","小字コード":"0000","予備コード":"00","大字名":"大字浜町","丁目名":null,"小字名":null,"予備名":null,"地番":"1711-2","精度区分":null,"座標値種別":"図上測量","筆界未定構成筆":null,"代表点緯度":1081.2045,"代表点経度":184.669085627}},{"type":"MultiPolygon","arcs":[[[165,166,167,168,-164]]],"properties":{"筆ID":"H000000059","version":"ver1.0","座標系":"任意座標系","測地系判別":null,"地図名":"H1843040140614","地図番号":"開2","縮尺分母":"3000","市区町村コード":"01406","市区町村名":"古平郡古平町","大字コード":"001","丁目コード":"000","小字コード":"0000","予備コード":"00","大字名":"大字浜町","丁目名":null,"小字名":null,"予備名":null,"地番":"1711-1","精度区分":null,"座標値種別":"図上測量","筆界未定構成筆":null,"代表点緯度":1166.415,"代表点経度":310.200929289}},{"type":"MultiPolygon","arcs":[[[169,170,171,172]]],"properties":{"筆ID":"H000000060","version":"ver1.0","座標系":"任意座標系","測地系判別":null,"地図名":"H1843040140614","地図番号":"開2","縮尺分母":"3000","市区町村コード":"01406","市区町村名":"古平郡古平町","大字コード":"001","丁目コード":"000","小字コード":"0000","予備コード":"00","大字名":"大字浜町","丁目名":null,"小字名":null,"予備名":null,"地番":"1383-4","精度区分":null,"座標値種別":"図上測量","筆界未定構成筆":null,"代表点緯度":995.781,"代表点経度":238.527104886}},{"type":"MultiPolygon","arcs":[[[173,-161]]],"properties":{"筆ID":"H000000061","version":"ver1.0","座標系":"任意座標系","測地系判別":null,"地図名":"H1843040140614","地図番号":"開2","縮尺分母":"3000","市区町村コード":"01406","市区町村名":"古平郡古平町","大字コード":"001","丁目コード":"000","小字コード":"0000","予備コード":"00","大字名":"大字浜町","丁目名":null,"小字名":null,"予備名":null,"地番":"1383-5","精度区分":null,"座標値種別":"図上測量","筆界未定構成筆":null,"代表点緯度":1054.2225,"代表点経度":208.685316035}},{"type":"MultiPolygon","arcs":[[[-170,174]]],"properties":{"筆ID":"H000000062","version":"ver1.0","座標系":"任意座標系","測地系判別":null,"地図名":"H1843040140614","地図番号":"開2","縮尺分母":"3000","市区町村コード":"01406","市区町村名":"古平郡古平町","大字コード":"001","丁目コード":"000","小字コード":"0000","予備コード":"00","大字名":"大字浜町","丁目名":null,"小字名":null,"予備名":null,"地番":"1383-3","精度区分":null,"座標値種別":"図上測量","筆界未定構成筆":null,"代表点緯度":1023.0075,"代表点経度":263.674815741}},{"type":"MultiPolygon","arcs":[[[175,176]]],"properties":{"筆ID":"H000000063","version":"ver1.0","座標系":"任意座標系","測地系判別":null,"地図名":"H1843040140614","地図番号":"開2","縮尺分母":"3000","市区町村コード":"01406","市区町村名":"古平郡古平町","大字コード":"001","丁目コード":"000","小字コード":"0000","予備コード":"00","大字名":"大字浜町","丁目名":null,"小字名":null,"予備名":null,"地番":"1712","精度区分":null,"座標値種別":"図上測量","筆界未定構成筆":null,"代表点緯度":1040.859,"代表点経度":301.483989918}},{"type":"MultiPolygon","arcs":[[[-176,177,178,179]]],"properties":{"筆ID":"H000000064","version":"ver1.0","座標系":"任意座標系","測地系判別":null,"地図名":"H1843040140614","地図番号":"開2","縮尺分母":"3000","市区町村コード":"01406","市区町村名":"古平郡古平町","大字コード":"001","丁目コード":"000","小字コード":"0000","予備コード":"00","大字名":"大字浜町","丁目名":null,"小字名":null,"予備名":null,"地番":"1748-2","精度区分":null,"座標値種別":"図上測量","筆界未定構成筆":null,"代表点緯度":1019.7675,"代表点経度":375.873940074}},{"type":"MultiPolygon","arcs":[[[180,181,-172,182,183,-106]]],"properties":{"筆ID":"H000000065","version":"ver1.0","座標系":"任意座標系","測地系判別":null,"地図名":"H1843040140614","地図番号":"開2","縮尺分母":"3000","市区町村コード":"01406","市区町村名":"古平郡古平町","大字コード":"001","丁目コード":"000","小字コード":"0000","予備コード":"00","大字名":"大字浜町","丁目名":null,"小字名":null,"予備名":null,"地番":"1383-1","精度区分":null,"座標値種別":"図上測量","筆界未定構成筆":null,"代表点緯度":843.7305,"代表点経度":341.525828358}},{"type":"MultiPolygon","arcs":[[[-179,184,185,186]]],"properties":{"筆ID":"H000000066","version":"ver1.0","座標系":"任意座標系","測地系判別":null,"地図名":"H1843040140614","地図番号":"開2","縮尺分母":"3000","市区町村コード":"01406","市区町村名":"古平郡古平町","大字コード":"001","丁目コード":"000","小字コード":"0000","予備コード":"00","大字名":"大字浜町","丁目名":null,"小字名":null,"予備名":null,"地番":"1748-3","精度区分":null,"座標値種別":"図上測量","筆界未定構成筆":null,"代表点緯度":1014.75,"代表点経度":514.983574783}},{"type":"MultiPolygon","arcs":[[[-8,187,-12,-23,-16,-157,-14,188,-22,-99,-138,-153,-149,189,-166,-165,-169,190,191,192,193,194,-185,-178,-177,-180,-187,195,-195,196,197,198,199,-198,200,201,202,-202,203,204,205,206,207,208,209,210,211,212,213,214,215,216,217,218,219,220,221,222,223,-223,224,225,226,227,228,229,230,231,232,233,234,-234,235,236,237,-237,238,239,240,241,242,243,-183,-171,-175,-173,-182,244,-159,-162,-174,-163,-160,-245,-181,-108,245,-146,-144,-139,-131,-91,-82,-60,-41,-40,-37,-30,-68,-73,-71,-112,-123,-116,246]]],"properties":{"筆ID":"H000000067","version":"ver1.0","座標系":"任意座標系","測地系判別":null,"地図名":"H1843040140614","地図番号":"開2","縮尺分母":"3000","市区町村コード":"01406","市区町村名":"古平郡古平町","大字コード":"001","丁目コード":"000","小字コード":"0000","予備コード":"00","大字名":"大字浜町","丁目名":null,"小字名":null,"予備名":null,"地番":"長狭物不明-2","精度区分":null,"座標値種別":"図上測量","筆界未定構成筆":null,"代表点緯度":715.098,"代表点経度":1158.527807875}},{"type":"MultiPolygon","arcs":[[[-196,-186]]],"properties":{"筆ID":"H000000068","version":"ver1.0","座標系":"任意座標系","測地系判別":null,"地図名":"H1843040140614","地図番号":"開2","縮尺分母":"3000","市区町村コード":"01406","市区町村名":"古平郡古平町","大字コード":"001","丁目コード":"000","小字コード":"0000","予備コード":"00","大字名":"大字浜町","丁目名":null,"小字名":null,"予備名":null,"地番":"1748-1","精度区分":null,"座標値種別":"図上測量","筆界未定構成筆":null,"代表点緯度":1012.308,"代表点経度":625.868910163}},{"type":"MultiPolygon","arcs":[[[247,248,249,250,251,252,-191,-168]]],"properties":{"筆ID":"H000000069","version":"ver1.0","座標系":"任意座標系","測地系判別":null,"地図名":"H1843040140614","地図番号":"開2","縮尺分母":"3000","市区町村コード":"01406","市区町村名":"古平郡古平町","大字コード":"001","丁目コード":"000","小字コード":"0000","予備コード":"00","大字名":"大字浜町","丁目名":null,"小字名":null,"予備名":null,"地番":"1749-1","精度区分":null,"座標値種別":"図上測量","筆界未定構成筆":null,"代表点緯度":1120.7985,"代表点経度":486.300110912}},{"type":"MultiPolygon","arcs":[[[-156,253,254,255,-209,256,-248,-167,-190,-148,-143]]],"properties":{"筆ID":"H000000070","version":"ver1.0","座標系":"任意座標系","測地系判別":null,"地図名":"H1843040140614","地図番号":"開2","縮尺分母":"3000","市区町村コード":"01406","市区町村名":"古平郡古平町","大字コード":"001","丁目コード":"000","小字コード":"0000","予備コード":"00","大字名":"大字浜町","丁目名":null,"小字名":null,"予備名":null,"地番":"1945","精度区分":null,"座標値種別":"図上測量","筆界未定構成筆":null,"代表点緯度":1317.8115,"代表点経度":561.039376344}},{"type":"MultiPolygon","arcs":[[[-257,-208,257,-249]]],"properties":{"筆ID":"H000000071","version":"ver1.0","座標系":"任意座標系","測地系判別":null,"地図名":"H1843040140614","地図番号":"開2","縮尺分母":"3000","市区町村コード":"01406","市区町村名":"古平郡古平町","大字コード":"001","丁目コード":"000","小字コード":"0000","予備コード":"00","大字名":"大字浜町","丁目名":null,"小字名":null,"予備名":null,"地番":"1704-1","精度区分":null,"座標値種別":"図上測量","筆界未定構成筆":null,"代表点緯度":1249.2165,"代表点経度":554.35369658}},{"type":"MultiPolygon","arcs":[[[258,-192,-253]]],"properties":{"筆ID":"H000000072","version":"ver1.0","座標系":"任意座標系","測地系判別":null,"地図名":"H1843040140614","地図番号":"開1","縮尺分母":"3000","市区町村コード":"01406","市区町村名":"古平郡古平町","大字コード":"001","丁目コード":"000","小字コード":"0000","予備コード":"00","大字名":"大字浜町","丁目名":null,"小字名":null,"予備名":null,"地番":"1749-5","精度区分":null,"座標値種別":"図上測量","筆界未定構成筆":null,"代表点緯度":1040.697,"代表点経度":523.104635749}},{"type":"MultiPolygon","arcs":[[[259,260,-193,-259]]],"properties":{"筆ID":"H000000073","version":"ver1.0","座標系":"任意座標系","測地系判別":null,"地図名":"H1843040140614","地図番号":"開1","縮尺分母":"3000","市区町村コード":"01406","市区町村名":"古平郡古平町","大字コード":"001","丁目コード":"000","小字コード":"0000","予備コード":"00","大字名":"大字浜町","丁目名":null,"小字名":null,"予備名":null,"地番":"1749-2","精度区分":null,"座標値種別":"図上測量","筆界未定構成筆":null,"代表点緯度":1060.851,"代表点経度":556.462622304}},{"type":"MultiPolygon","arcs":[[[-252,261,-260]]],"properties":{"筆ID":"H000000074","version":"ver1.0","座標系":"任意座標系","測地系判別":null,"地図名":"H1843040140614","地図番号":"開1","縮尺分母":"3000","市区町村コード":"01406","市区町村名":"古平郡古平町","大字コード":"001","丁目コード":"000","小字コード":"0000","予備コード":"00","大字名":"大字浜町","丁目名":null,"小字名":null,"予備名":null,"地番":"1749-4","精度区分":null,"座標値種別":"図上測量","筆界未定構成筆":null,"代表点緯度":1060.851,"代表点経度":550.151934581}},{"type":"MultiPolygon","arcs":[[[262,-210,-256]]],"properties":{"筆ID":"H000000075","version":"ver1.0","座標系":"任意座標系","測地系判別":null,"地図名":"H1843040140614","地図番号":"開1","縮尺分母":"3000","市区町村コード":"01406","市区町村名":"古平郡古平町","大字コード":"001","丁目コード":"000","小字コード":"0000","予備コード":"00","大字名":"大字浜町","丁目名":null,"小字名":null,"予備名":null,"地番":"1702-1","精度区分":null,"座標値種別":"図上測量","筆界未定構成筆":null,"代表点緯度":1326.4125,"代表点経度":609.61943834}},{"type":"MultiPolygon","arcs":[[[-261,-262,-251,263,264,265,-197,-194]]],"properties":{"筆ID":"H000000076","version":"ver1.0","座標系":"任意座標系","測地系判別":null,"地図名":"H1843040140614","地図番号":"開1","縮尺分母":"3000","市区町村コード":"01406","市区町村名":"古平郡古平町","大字コード":"001","丁目コード":"000","小字コード":"0000","予備コード":"00","大字名":"大字浜町","丁目名":null,"小字名":null,"予備名":null,"地番":"1388","精度区分":null,"座標値種別":"図上測量","筆界未定構成筆":null,"代表点緯度":1117.296,"代表点経度":656.839762092}},{"type":"MultiPolygon","arcs":[[[266,-264,-250]]],"properties":{"筆ID":"H000000077","version":"ver1.0","座標系":"任意座標系","測地系判別":null,"地図名":"H1843040140614","地図番号":"開1","縮尺分母":"3000","市区町村コード":"01406","市区町村名":"古平郡古平町","大字コード":"001","丁目コード":"000","小字コード":"0000","予備コード":"00","大字名":"大字浜町","丁目名":null,"小字名":null,"予備名":null,"地番":"1749-3","精度区分":null,"座標値種別":"図上測量","筆界未定構成筆":null,"代表点緯度":1183.2315,"代表点経度":602.607101502}},{"type":"MultiPolygon","arcs":[[[-258,-207,267,268,-267]]],"properties":{"筆ID":"H000000078","version":"ver1.0","座標系":"任意座標系","測地系判別":null,"地図名":"H1843040140614","地図番号":"開1","縮尺分母":"3000","市区町村コード":"01406","市区町村名":"古平郡古平町","大字コード":"001","丁目コード":"000","小字コード":"0000","予備コード":"00","大字名":"大字浜町","丁目名":null,"小字名":null,"予備名":null,"地番":"1704-2","精度区分":null,"座標値種別":"図上測量","筆界未定構成筆":null,"代表点緯度":1240.1205,"代表点経度":615.385011673}},{"type":"MultiPolygon","arcs":[[[-269,269,270,-265]]],"properties":{"筆ID":"H000000079","version":"ver1.0","座標系":"任意座標系","測地系判別":null,"地図名":"H1843040140614","地図番号":"開1","縮尺分母":"3000","市区町村コード":"01406","市区町村名":"古平郡古平町","大字コード":"001","丁目コード":"000","小字コード":"0000","予備コード":"00","大字名":"大字浜町","丁目名":null,"小字名":null,"予備名":null,"地番":"1389-2","精度区分":null,"座標値種別":"図上測量","筆界未定構成筆":null,"代表点緯度":1221.3675,"代表点経度":631.124767772}},{"type":"MultiPolygon","arcs":[[[-263,271,272,-211]]],"properties":{"筆ID":"H000000080","version":"ver1.0","座標系":"任意座標系","測地系判別":null,"地図名":"H1843040140614","地図番号":"開1","縮尺分母":"3000","市区町村コード":"01406","市区町村名":"古平郡古平町","大字コード":"001","丁目コード":"000","小字コード":"0000","予備コード":"00","大字名":"大字浜町","丁目名":null,"小字名":null,"予備名":null,"地番":"1702-2","精度区分":null,"座標値種別":"図上測量","筆界未定構成筆":null,"代表点緯度":1327.215,"代表点経度":646.142403987}},{"type":"MultiPolygon","arcs":[[[-268,-206,273,-270]]],"properties":{"筆ID":"H000000081","version":"ver1.0","座標系":"任意座標系","測地系判別":null,"地図名":"H1843040140614","地図番号":"開1","縮尺分母":"3000","市区町村コード":"01406","市区町村名":"古平郡古平町","大字コード":"001","丁目コード":"000","小字コード":"0000","予備コード":"00","大字名":"大字浜町","丁目名":null,"小字名":null,"予備名":null,"地番":"1746-2","精度区分":null,"座標値種別":"図上測量","筆界未定構成筆":null,"代表点緯度":1256.553,"代表点経度":640.52588559}},{"type":"MultiPolygon","arcs":[[[274,275,276,277,-254,-155]]],"properties":{"筆ID":"H000000082","version":"ver1.0","座標系":"任意座標系","測地系判別":null,"地図名":"H1843040140614","地図番号":"開3","縮尺分母":"3000","市区町村コード":"01406","市区町村名":"古平郡古平町","大字コード":"001","丁目コード":"000","小字コード":"0000","予備コード":"00","大字名":"大字浜町","丁目名":null,"小字名":null,"予備名":null,"地番":"1880-1","精度区分":null,"座標値種別":"図上測量","筆界未定構成筆":null,"代表点緯度":1452.8985,"代表点経度":778.804953704}},{"type":"MultiPolygon","arcs":[[[278,-275,279]]],"properties":{"筆ID":"H000000083","version":"ver1.0","座標系":"任意座標系","測地系判別":null,"地図名":"H1843040140614","地図番号":"開3","縮尺分母":"3000","市区町村コード":"01406","市区町村名":"古平郡古平町","大字コード":"001","丁目コード":"000","小字コード":"0000","予備コード":"00","大字名":"大字浜町","丁目名":null,"小字名":null,"予備名":null,"地番":"1879","精度区分":null,"座標値種別":"図上測量","筆界未定構成筆":null,"代表点緯度":1639.161,"代表点経度":906.529710154}},{"type":"MultiPolygon","arcs":[[[280,-204,-201,-266,-271]]],"properties":{"筆ID":"H000000084","version":"ver1.0","座標系":"任意座標系","測地系判別":null,"地図名":"H1843040140614","地図番号":"開1","縮尺分母":"3000","市区町村コード":"01406","市区町村名":"古平郡古平町","大字コード":"001","丁目コード":"000","小字コード":"0000","予備コード":"00","大字名":"大字浜町","丁目名":null,"小字名":null,"予備名":null,"地番":"1389-1","精度区分":null,"座標値種別":"図上測量","筆界未定構成筆":null,"代表点緯度":1207.515,"代表点経度":692.721117805}},{"type":"MultiPolygon","arcs":[[[-238]]],"properties":{"筆ID":"H000000085","version":"ver1.0","座標系":"任意座標系","測地系判別":null,"地図名":"H1843040140614","地図番号":"開1","縮尺分母":"3000","市区町村コード":"01406","市区町村名":"古平郡古平町","大字コード":"001","丁目コード":"000","小字コード":"0000","予備コード":"00","大字名":"大字浜町","丁目名":null,"小字名":null,"予備名":null,"地番":"1747","精度区分":null,"座標値種別":"図上測量","筆界未定構成筆":null,"代表点緯度":972.849,"代表点経度":704.851945739}},{"type":"MultiPolygon","arcs":[[[-273,281,282,283,-212]]],"properties":{"筆ID":"H000000086","version":"ver1.0","座標系":"任意座標系","測地系判別":null,"地図名":"H1843040140614","地図番号":"開1","縮尺分母":"3000","市区町村コード":"01406","市区町村名":"古平郡古平町","大字コード":"001","丁目コード":"000","小字コード":"0000","予備コード":"00","大字名":"大字浜町","丁目名":null,"小字名":null,"予備名":null,"地番":"1745-2","精度区分":null,"座標値種別":"図上測量","筆界未定構成筆":null,"代表点緯度":1321.134,"代表点経度":667.09214577}},{"type":"MultiPolygon","arcs":[[[-205,-281,-274]]],"properties":{"筆ID":"H000000087","version":"ver1.0","座標系":"任意座標系","測地系判別":null,"地図名":"H1843040140614","地図番号":"開1","縮尺分母":"3000","市区町村コード":"01406","市区町村名":"古平郡古平町","大字コード":"001","丁目コード":"000","小字コード":"0000","予備コード":"00","大字名":"大字浜町","丁目名":null,"小字名":null,"予備名":null,"地番":"1746-1","精度区分":null,"座標値種別":"図上測量","筆界未定構成筆":null,"代表点緯度":1260.138,"代表点経度":775.751259166}},{"type":"MultiPolygon","arcs":[[[-284,284,-213]]],"properties":{"筆ID":"H000000088","version":"ver1.0","座標系":"任意座標系","測地系判別":null,"地図名":"H1843040140614","地図番号":"開1","縮尺分母":"3000","市区町村コード":"01406","市区町村名":"古平郡古平町","大字コード":"001","丁目コード":"000","小字コード":"0000","予備コード":"00","大字名":"大字浜町","丁目名":null,"小字名":null,"予備名":null,"地番":"1745-1","精度区分":null,"座標値種別":"図上測量","筆界未定構成筆":null,"代表点緯度":1294.533,"代表点経度":747.289888245}},{"type":"MultiPolygon","arcs":[[[-283,285,-214,-285]]],"properties":{"筆ID":"H000000089","version":"ver1.0","座標系":"任意座標系","測地系判別":null,"地図名":"H1843040140614","地図番号":"開1","縮尺分母":"3000","市区町村コード":"01406","市区町村名":"古平郡古平町","大字コード":"001","丁目コード":"000","小字コード":"0000","予備コード":"00","大字名":"大字浜町","丁目名":null,"小字名":null,"予備名":null,"地番":"1745-3","精度区分":null,"座標値種別":"図上測量","筆界未定構成筆":null,"代表点緯度":1323.0555,"代表点経度":685.950365664}},{"type":"MultiPolygon","arcs":[[[286,-277,287,288,289,290,291,-219,292,-215,-286,-282,-272,-255]]],"properties":{"筆ID":"H000000090","version":"ver1.0","座標系":"任意座標系","測地系判別":null,"地図名":"H1843040140614","地図番号":"開1","縮尺分母":"3000","市区町村コード":"01406","市区町村名":"古平郡古平町","大字コード":"001","丁目コード":"000","小字コード":"0000","予備コード":"00","大字名":"大字浜町","丁目名":null,"小字名":null,"予備名":null,"地番":"1940","精度区分":null,"座標値種別":"図上測量","筆界未定構成筆":null,"代表点緯度":1372.7775,"代表点経度":849.730011286}},{"type":"MultiPolygon","arcs":[[[-236,293,294,-239]]],"properties":{"筆ID":"H000000091","version":"ver1.0","座標系":"任意座標系","測地系判別":null,"地図名":"H1843040140614","地図番号":"開1","縮尺分母":"3000","市区町村コード":"01406","市区町村名":"古平郡古平町","大字コード":"001","丁目コード":"000","小字コード":"0000","予備コード":"00","大字名":"大字浜町","丁目名":null,"小字名":null,"予備名":null,"地番":"1710","精度区分":null,"座標値種別":"図上測量","筆界未定構成筆":null,"代表点緯度":962.244,"代表点経度":827.468879475}},{"type":"MultiPolygon","arcs":[[[-287,-278]]],"properties":{"筆ID":"H000000092","version":"ver1.0","座標系":"任意座標系","測地系判別":null,"地図名":"H1843040140614","地図番号":"開3","縮尺分母":"3000","市区町村コード":"01406","市区町村名":"古平郡古平町","大字コード":"001","丁目コード":"000","小字コード":"0000","予備コード":"00","大字名":"大字浜町","丁目名":null,"小字名":null,"予備名":null,"地番":"1880-2","精度区分":null,"座標値種別":"図上測量","筆界未定構成筆":null,"代表点緯度":1370.814,"代表点経度":770.302256579}},{"type":"MultiPolygon","arcs":[[[-235]]],"properties":{"筆ID":"H000000093","version":"ver1.0","座標系":"任意座標系","測地系判別":null,"地図名":"H1843040140614","地図番号":"開1","縮尺分母":"3000","市区町村コード":"01406","市区町村名":"古平郡古平町","大字コード":"001","丁目コード":"000","小字コード":"0000","予備コード":"00","大字名":"大字浜町","丁目名":null,"小字名":null,"予備名":null,"地番":"1709","精度区分":null,"座標値種別":"図上測量","筆界未定構成筆":null,"代表点緯度":1098.6465,"代表点経度":806.78883216}},{"type":"MultiPolygon","arcs":[[[295,-199]]],"properties":{"筆ID":"H000000094","version":"ver1.0","座標系":"任意座標系","測地系判別":null,"地図名":"H1843040140614","地図番号":"開1","縮尺分母":"3000","市区町村コード":"01406","市区町村名":"古平郡古平町","大字コード":"001","丁目コード":"000","小字コード":"0000","予備コード":"00","大字名":"大字浜町","丁目名":null,"小字名":null,"予備名":null,"地番":"1708","精度区分":null,"座標値種別":"図上測量","筆界未定構成筆":null,"代表点緯度":1137.984,"代表点経度":802.777779608}},{"type":"MultiPolygon","arcs":[[[-200,-296]]],"properties":{"筆ID":"H000000095","version":"ver1.0","座標系":"任意座標系","測地系判別":null,"地図名":"H1843040140614","地図番号":"開1","縮尺分母":"3000","市区町村コード":"01406","市区町村名":"古平郡古平町","大字コード":"001","丁目コード":"000","小字コード":"0000","予備コード":"00","大字名":"大字浜町","丁目名":null,"小字名":null,"予備名":null,"地番":"1695","精度区分":null,"座標値種別":"図上測量","筆界未定構成筆":null,"代表点緯度":1180.74,"代表点経度":887.713208052}},{"type":"MultiPolygon","arcs":[[[-203]]],"properties":{"筆ID":"H000000096","version":"ver1.0","座標系":"任意座標系","測地系判別":null,"地図名":"H1843040140614","地図番号":"開1","縮尺分母":"3000","市区町村コード":"01406","市区町村名":"古平郡古平町","大字コード":"001","丁目コード":"000","小字コード":"0000","予備コード":"00","大字名":"大字浜町","丁目名":null,"小字名":null,"予備名":null,"地番":"1694","精度区分":null,"座標値種別":"図上測量","筆界未定構成筆":null,"代表点緯度":1214.19,"代表点経度":844.418469523}},{"type":"MultiPolygon","arcs":[[[-224]]],"properties":{"筆ID":"H000000097","version":"ver1.0","座標系":"任意座標系","測地系判別":null,"地図名":"H1843040140614","地図番号":"開1","縮尺分母":"3000","市区町村コード":"01406","市区町村名":"古平郡古平町","大字コード":"001","丁目コード":"000","小字コード":"0000","予備コード":"00","大字名":"大字浜町","丁目名":null,"小字名":null,"予備名":null,"地番":"1693","精度区分":null,"座標値種別":"図上測量","筆界未定構成筆":null,"代表点緯度":1276.7925,"代表点経度":928.629640857}},{"type":"MultiPolygon","arcs":[[[-218,296,-216,-293]]],"properties":{"筆ID":"H000000098","version":"ver1.0","座標系":"任意座標系","測地系判別":null,"地図名":"H1843040140614","地図番号":"開1","縮尺分母":"3000","市区町村コード":"01406","市区町村名":"古平郡古平町","大字コード":"001","丁目コード":"000","小字コード":"0000","予備コード":"00","大字名":"大字浜町","丁目名":null,"小字名":null,"予備名":null,"地番":"1744-2","精度区分":null,"座標値種別":"図上測量","筆界未定構成筆":null,"代表点緯度":1354.9215,"代表点経度":857.99234953}},{"type":"MultiPolygon","arcs":[[[-297,-217]]],"properties":{"筆ID":"H000000099","version":"ver1.0","座標系":"任意座標系","測地系判別":null,"地図名":"H1843040140614","地図番号":"開1","縮尺分母":"3000","市区町村コード":"01406","市区町村名":"古平郡古平町","大字コード":"001","丁目コード":"000","小字コード":"0000","予備コード":"00","大字名":"大字浜町","丁目名":null,"小字名":null,"予備名":null,"地番":"1744-1","精度区分":null,"座標値種別":"図上測量","筆界未定構成筆":null,"代表点緯度":1347.249,"代表点経度":855.377194682}},{"type":"MultiPolygon","arcs":[[[-233,297,-294]]],"properties":{"筆ID":"H000000100","version":"ver1.0","座標系":"任意座標系","測地系判別":null,"地図名":"H1843040140614","地図番号":"開1","縮尺分母":"3000","市区町村コード":"01406","市区町村名":"古平郡古平町","大字コード":"001","丁目コード":"000","小字コード":"0000","予備コード":"00","大字名":"大字浜町","丁目名":null,"小字名":null,"予備名":null,"地番":"1696","精度区分":null,"座標値種別":"図上測量","筆界未定構成筆":null,"代表点緯度":1180.7205,"代表点経度":978.226631021}},{"type":"MultiPolygon","arcs":[[[298,-291,299,300,-221]]],"properties":{"筆ID":"H000000101","version":"ver1.0","座標系":"任意座標系","測地系判別":null,"地図名":"H1843040140614","地図番号":"開1","縮尺分母":"3000","市区町村コード":"01406","市区町村名":"古平郡古平町","大字コード":"001","丁目コード":"000","小字コード":"0000","予備コード":"00","大字名":"大字浜町","丁目名":null,"小字名":null,"予備名":null,"地番":"1692-3","精度区分":null,"座標値種別":"図上測量","筆界未定構成筆":null,"代表点緯度":1359.027,"代表点経度":919.389911427}},{"type":"MultiPolygon","arcs":[[[-301,301,302,-225,-222]]],"properties":{"筆ID":"H000000102","version":"ver1.0","座標系":"任意座標系","測地系判別":null,"地図名":"H1843040140614","地図番号":"開1","縮尺分母":"3000","市区町村コード":"01406","市区町村名":"古平郡古平町","大字コード":"001","丁目コード":"000","小字コード":"0000","予備コード":"00","大字名":"大字浜町","丁目名":null,"小字名":null,"予備名":null,"地番":"1692-1","精度区分":null,"座標値種別":"図上測量","筆界未定構成筆":null,"代表点緯度":1333.3665,"代表点経度":973.420573043}},{"type":"MultiPolygon","arcs":[[[-295,303,-2,304,305,306,-240]]],"properties":{"筆ID":"H000000103","version":"ver1.0","座標系":"任意座標系","測地系判別":null,"地図名":"H1843040140614","地図番号":"開1","縮尺分母":"3000","市区町村コード":"01406","市区町村名":"古平郡古平町","大字コード":"001","丁目コード":"000","小字コード":"0000","予備コード":"00","大字名":"大字浜町","丁目名":null,"小字名":null,"予備名":null,"地番":"1707-1","精度区分":null,"座標値種別":"図上測量","筆界未定構成筆":null,"代表点緯度":930.4455,"代表点経度":1057.177627733}},{"type":"MultiPolygon","arcs":[[[-220,-292,-299]]],"properties":{"筆ID":"H000000104","version":"ver1.0","座標系":"任意座標系","測地系判別":null,"地図名":"H1843040140614","地図番号":"開1","縮尺分母":"3000","市区町村コード":"01406","市区町村名":"古平郡古平町","大字コード":"001","丁目コード":"000","小字コード":"0000","予備コード":"00","大字名":"大字浜町","丁目名":null,"小字名":null,"予備名":null,"地番":"1692-2","精度区分":null,"座標値種別":"図上測量","筆界未定構成筆":null,"代表点緯度":1375.131,"代表点経度":902.712596109}},{"type":"MultiPolygon","arcs":[[[-279,307,-4,308,309,310,-288,-276]]],"properties":{"筆ID":"H000000105","version":"ver1.0","座標系":"任意座標系","測地系判別":null,"地図名":"H1843040140614","地図番号":"開3","縮尺分母":"3000","市区町村コード":"01406","市区町村名":"古平郡古平町","大字コード":"001","丁目コード":"000","小字コード":"0000","予備コード":"00","大字名":"大字浜町","丁目名":null,"小字名":null,"予備名":null,"地番":"長狭物不明-3","精度区分":null,"座標値種別":"図上測量","筆界未定構成筆":null,"代表点緯度":1531.8315,"代表点経度":933.562665997}},{"type":"MultiPolygon","arcs":[[[311,312,313,-311]]],"properties":{"筆ID":"H000000106","version":"ver1.0","座標系":"任意座標系","測地系判別":null,"地図名":"H1843040140614","地図番号":"開4","縮尺分母":"3000","市区町村コード":"01406","市区町村名":"古平郡古平町","大字コード":"001","丁目コード":"000","小字コード":"0000","予備コード":"00","大字名":"大字浜町","丁目名":null,"小字名":null,"予備名":null,"地番":"1717V1","精度区分":null,"座標値種別":"図上測量","筆界未定構成筆":null,"代表点緯度":1432.827,"代表点経度":1106.338220868}},{"type":"MultiPolygon","arcs":[[[314,315,316,-289,-314]]],"properties":{"筆ID":"H000000107","version":"ver1.0","座標系":"任意座標系","測地系判別":null,"地図名":"H1843040140614","地図番号":"開4","縮尺分母":"3000","市区町村コード":"01406","市区町村名":"古平郡古平町","大字コード":"001","丁目コード":"000","小字コード":"0000","予備コード":"00","大字名":"大字浜町","丁目名":null,"小字名":null,"予備名":null,"地番":"長狭物不明-4","精度区分":null,"座標値種別":"図上測量","筆界未定構成筆":null,"代表点緯度":1379.9025,"代表点経度":1111.861755859}},{"type":"MultiPolygon","arcs":[[[-317,317]]],"properties":{"筆ID":"H000000108","version":"ver1.0","座標系":"任意座標系","測地系判別":null,"地図名":"H1843040140614","地図番号":"開4","縮尺分母":"3000","市区町村コード":"01406","市区町村名":"古平郡古平町","大字コード":"001","丁目コード":"000","小字コード":"0000","予備コード":"00","大字名":"大字浜町","丁目名":null,"小字名":null,"予備名":null,"地番":"1717V2","精度区分":null,"座標値種別":"図上測量","筆界未定構成筆":null,"代表点緯度":1343.9625,"代表点経度":1097.791840901}},{"type":"MultiPolygon","arcs":[[[318,319,320,321,322,-312,-310]]],"properties":{"筆ID":"H000000109","version":"ver1.0","座標系":"任意座標系","測地系判別":null,"地図名":"H1843040140614","地図番号":"開4","縮尺分母":"3000","市区町村コード":"01406","市区町村名":"古平郡古平町","大字コード":"001","丁目コード":"000","小字コード":"0000","予備コード":"00","大字名":"大字浜町","丁目名":null,"小字名":null,"予備名":null,"地番":"1878","精度区分":null,"座標値種別":"図上測量","筆界未定構成筆":null,"代表点緯度":1506.4575,"代表点経度":1229.699170045}},{"type":"MultiPolygon","arcs":[[[-309,-6,323,-319]]],"properties":{"筆ID":"H000000110","version":"ver1.0","座標系":"任意座標系","測地系判別":null,"地図名":"H1843040140614","地図番号":"開4","縮尺分母":"3000","市区町村コード":"01406","市区町村名":"古平郡古平町","大字コード":"001","丁目コード":"000","小字コード":"0000","予備コード":"00","大字名":"大字浜町","丁目名":null,"小字名":null,"予備名":null,"地番":"1718","精度区分":null,"座標値種別":"図上測量","筆界未定構成筆":null,"代表点緯度":1563.2595,"代表点経度":1172.939326872}},{"type":"MultiPolygon","arcs":[[[-232,324,-304,-298]]],"properties":{"筆ID":"H000000111","version":"ver1.0","座標系":"任意座標系","測地系判別":null,"地図名":"H1843040140614","地図番号":"開1","縮尺分母":"3000","市区町村コード":"01406","市区町村名":"古平郡古平町","大字コード":"001","丁目コード":"000","小字コード":"0000","予備コード":"00","大字名":"大字浜町","丁目名":null,"小字名":null,"予備名":null,"地番":"1743-1","精度区分":null,"座標値種別":"図上測量","筆界未定構成筆":null,"代表点緯度":1119.8655,"代表点経度":1076.064482312}},{"type":"MultiPolygon","arcs":[[[-307,325,326,-241]]],"properties":{"筆ID":"H000000112","version":"ver1.0","座標系":"任意座標系","測地系判別":null,"地図名":"H1843040140614","地図番号":"開1","縮尺分母":"3000","市区町村コード":"01406","市区町村名":"古平郡古平町","大字コード":"001","丁目コード":"000","小字コード":"0000","予備コード":"00","大字名":"大字浜町","丁目名":null,"小字名":null,"予備名":null,"地番":"1390","精度区分":null,"座標値種別":"図上測量","筆界未定構成筆":null,"代表点緯度":826.677,"代表点経度":1101.011723827}},{"type":"MultiPolygon","arcs":[[[-303,327,328,-226]]],"properties":{"筆ID":"H000000113","version":"ver1.0","座標系":"任意座標系","測地系判別":null,"地図名":"H1843040140614","地図番号":"開1","縮尺分母":"3000","市区町村コード":"01406","市区町村名":"古平郡古平町","大字コード":"001","丁目コード":"000","小字コード":"0000","予備コード":"00","大字名":"大字浜町","丁目名":null,"小字名":null,"予備名":null,"地番":"1422-1","精度区分":null,"座標値種別":"図上測量","筆界未定構成筆":null,"代表点緯度":1263.9945,"代表点経度":1104.137631185}},{"type":"MultiPolygon","arcs":[[[-323,329,330,331,-313]]],"properties":{"筆ID":"H000000114","version":"ver1.0","座標系":"任意座標系","測地系判別":null,"地図名":"H1843040140614","地図番号":"開4","縮尺分母":"3000","市区町村コード":"01406","市区町村名":"古平郡古平町","大字コード":"001","丁目コード":"000","小字コード":"0000","予備コード":"00","大字名":"大字浜町","丁目名":null,"小字名":null,"予備名":null,"地番":"1876","精度区分":null,"座標値種別":"図上測量","筆界未定構成筆":null,"代表点緯度":1372.65,"代表点経度":1220.744281145}},{"type":"MultiPolygon","arcs":[[[332,333,334,-227,-329]]],"properties":{"筆ID":"H000000115","version":"ver1.0","座標系":"任意座標系","測地系判別":null,"地図名":"H1843040140614","地図番号":"開1","縮尺分母":"3000","市区町村コード":"01406","市区町村名":"古平郡古平町","大字コード":"001","丁目コード":"000","小字コード":"0000","予備コード":"00","大字名":"大字浜町","丁目名":null,"小字名":null,"予備名":null,"地番":"1422-3","精度区分":null,"座標値種別":"図上測量","筆界未定構成筆":null,"代表点緯度":1214.1225,"代表点経度":1184.297818907}},{"type":"MultiPolygon","arcs":[[[335,-334,336,-316]]],"properties":{"筆ID":"H000000116","version":"ver1.0","座標系":"任意座標系","測地系判別":null,"地図名":"H1843040140614","地図番号":"開4","縮尺分母":"3000","市区町村コード":"01406","市区町村名":"古平郡古平町","大字コード":"001","丁目コード":"000","小字コード":"0000","予備コード":"00","大字名":"大字浜町","丁目名":null,"小字名":null,"予備名":null,"地番":"1918","精度区分":null,"座標値種別":"図上測量","筆界未定構成筆":null,"代表点緯度":1280.8005,"代表点経度":1172.403836949}},{"type":"MultiPolygon","arcs":[[[-231,337,338,-3,-325]]],"properties":{"筆ID":"H000000117","version":"ver1.0","座標系":"任意座標系","測地系判別":null,"地図名":"H1843040140614","地図番号":"開1","縮尺分母":"3000","市区町村コード":"01406","市区町村名":"古平郡古平町","大字コード":"001","丁目コード":"000","小字コード":"0000","予備コード":"00","大字名":"大字浜町","丁目名":null,"小字名":null,"予備名":null,"地番":"1743-3","精度区分":null,"座標値種別":"図上測量","筆界未定構成筆":null,"代表点緯度":1069.9275,"代表点経度":1198.314112511}},{"type":"MultiPolygon","arcs":[[[-315,-332,339,340,341,342,343,344,-229,345,-336]]],"properties":{"筆ID":"H000000118","version":"ver1.0","座標系":"任意座標系","測地系判別":null,"地図名":"H1843040140614","地図番号":"開4","縮尺分母":"3000","市区町村コード":"01406","市区町村名":"古平郡古平町","大字コード":"001","丁目コード":"000","小字コード":"0000","予備コード":"00","大字名":"大字浜町","丁目名":null,"小字名":null,"予備名":null,"地番":"1946","精度区分":null,"座標値種別":"図上測量","筆界未定構成筆":null,"代表点緯度":1171.377,"代表点経度":1249.482374787}},{"type":"MultiPolygon","arcs":[[[-243,346,-326,-306,347,348,349,350,351]]],"properties":{"筆ID":"H000000119","version":"ver1.0","座標系":"任意座標系","測地系判別":null,"地図名":"H1843040140614","地図番号":"開4","縮尺分母":"3000","市区町村コード":"01406","市区町村名":"古平郡古平町","大字コード":"001","丁目コード":"000","小字コード":"0000","予備コード":"00","大字名":"大字浜町","丁目名":null,"小字名":null,"予備名":null,"地番":"1875-1","精度区分":null,"座標値種別":"図上測量","筆界未定構成筆":null,"代表点緯度":746.886,"代表点経度":1323.631307526}},{"type":"MultiPolygon","arcs":[[[-228,-335,-346]]],"properties":{"筆ID":"H000000120","version":"ver1.0","座標系":"任意座標系","測地系判別":null,"地図名":"H1843040140614","地図番号":"開1","縮尺分母":"3000","市区町村コード":"01406","市区町村名":"古平郡古平町","大字コード":"001","丁目コード":"000","小字コード":"0000","予備コード":"00","大字名":"大字浜町","丁目名":null,"小字名":null,"予備名":null,"地番":"1422-2","精度区分":null,"座標値種別":"図上測量","筆界未定構成筆":null,"代表点緯度":1167.4545,"代表点経度":1227.459110054}},{"type":"MultiPolygon","arcs":[[[-339,352,353,354,355,356,357,-348,-305,-1]]],"properties":{"筆ID":"H000000121","version":"ver1.0","座標系":"任意座標系","測地系判別":null,"地図名":"H1843040140614","地図番号":"開4","縮尺分母":"3000","市区町村コード":"01406","市区町村名":"古平郡古平町","大字コード":"001","丁目コード":"000","小字コード":"0000","予備コード":"00","大字名":"大字浜町","丁目名":null,"小字名":null,"予備名":null,"地番":"1875-3","精度区分":null,"座標値種別":"図上測量","筆界未定構成筆":null,"代表点緯度":891.147,"代表点経度":1293.753263559}},{"type":"MultiPolygon","arcs":[[[358,359,-340,-331]]],"properties":{"筆ID":"H000000122","version":"ver1.0","座標系":"任意座標系","測地系判別":null,"地図名":"H1843040140614","地図番号":"開4","縮尺分母":"3000","市区町村コード":"01406","市区町村名":"古平郡古平町","大字コード":"001","丁目コード":"000","小字コード":"0000","予備コード":"00","大字名":"大字浜町","丁目名":null,"小字名":null,"予備名":null,"地番":"1877","精度区分":null,"座標値種別":"図上測量","筆界未定構成筆":null,"代表点緯度":1186.545,"代表点経度":1376.871232469}},{"type":"MultiPolygon","arcs":[[[-230,-345,360,361,-338]]],"properties":{"筆ID":"H000000123","version":"ver1.0","座標系":"任意座標系","測地系判別":null,"地図名":"H1843040140614","地図番号":"開1","縮尺分母":"3000","市区町村コード":"01406","市区町村名":"古平郡古平町","大字コード":"001","丁目コード":"000","小字コード":"0000","予備コード":"00","大字名":"大字浜町","丁目名":null,"小字名":null,"予備名":null,"地番":"1743-2","精度区分":null,"座標値種別":"図上測量","筆界未定構成筆":null,"代表点緯度":1055.7,"代表点経度":1248.056862566}},{"type":"MultiPolygon","arcs":[[[-321,362]]],"properties":{"筆ID":"H000000124","version":"ver1.0","座標系":"任意座標系","測地系判別":null,"地図名":"H1843040140614","地図番号":"開4","縮尺分母":"3000","市区町村コード":"01406","市区町村名":"古平郡古平町","大字コード":"001","丁目コード":"000","小字コード":"0000","予備コード":"00","大字名":"大字浜町","丁目名":null,"小字名":null,"予備名":null,"地番":"1721","精度区分":null,"座標値種別":"図上測量","筆界未定構成筆":null,"代表点緯度":1515.4995,"代表点経度":1268.105579362}},{"type":"MultiPolygon","arcs":[[[-362,363,364,365,-357,366,-355,367,-353]]],"properties":{"筆ID":"H000000125","version":"ver1.0","座標系":"任意座標系","測地系判別":null,"地図名":"H1843040140614","地図番号":"開4","縮尺分母":"3000","市区町村コード":"01406","市区町村名":"古平郡古平町","大字コード":"001","丁目コード":"000","小字コード":"0000","予備コード":"00","大字名":"大字浜町","丁目名":null,"小字名":null,"予備名":null,"地番":"1875-2","精度区分":null,"座標値種別":"図上測量","筆界未定構成筆":null,"代表点緯度":954.1875,"代表点経度":1282.961352509}},{"type":"MultiPolygon","arcs":[[[-354,-368]]],"properties":{"筆ID":"H000000126","version":"ver1.0","座標系":"任意座標系","測地系判別":null,"地図名":"H1843040140614","地図番号":"開4","縮尺分母":"3000","市区町村コード":"01406","市区町村名":"古平郡古平町","大字コード":"001","丁目コード":"000","小字コード":"0000","予備コード":"00","大字名":"大字浜町","丁目名":null,"小字名":null,"予備名":null,"地番":"1875-5","精度区分":null,"座標値種別":"図上測量","筆界未定構成筆":null,"代表点緯度":919.476,"代表点経度":1282.735813527}},{"type":"MultiPolygon","arcs":[[[-361,-344,368,369,370,371,372,373,374,375,376,377,378,-364]]],"properties":{"筆ID":"H000000127","version":"ver1.0","座標系":"任意座標系","測地系判別":null,"地図名":"H1843040140614","地図番号":"開4","縮尺分母":"3000","市区町村コード":"01406","市区町村名":"古平郡古平町","大字コード":"001","丁目コード":"000","小字コード":"0000","予備コード":"00","大字名":"大字浜町","丁目名":null,"小字名":null,"予備名":null,"地番":"1888","精度区分":null,"座標値種別":"図上測量","筆界未定構成筆":null,"代表点緯度":1033.4205,"代表点経度":1301.075449382}},{"type":"MultiPolygon","arcs":[[[379,380,-341,-360]]],"properties":{"筆ID":"H000000128","version":"ver1.0","座標系":"任意座標系","測地系判別":null,"地図名":"H1843040140614","地図番号":"開4","縮尺分母":"3000","市区町村コード":"01406","市区町村名":"古平郡古平町","大字コード":"001","丁目コード":"000","小字コード":"0000","予備コード":"00","大字名":"大字浜町","丁目名":null,"小字名":null,"予備名":null,"地番":"1874","精度区分":null,"座標値種別":"図上測量","筆界未定構成筆":null,"代表点緯度":1061.175,"代表点経度":1476.189432826}},{"type":"MultiPolygon","arcs":[[[381,-371,382,-369,-343,383]]],"properties":{"筆ID":"H000000129","version":"ver1.0","座標系":"任意座標系","測地系判別":null,"地図名":"H1843040140614","地図番号":"開4","縮尺分母":"3000","市区町村コード":"01406","市区町村名":"古平郡古平町","大字コード":"001","丁目コード":"000","小字コード":"0000","予備コード":"00","大字名":"大字浜町","丁目名":null,"小字名":null,"予備名":null,"地番":"1873-1","精度区分":null,"座標値種別":"図上測量","筆界未定構成筆":null,"代表点緯度":998.205,"代表点経度":1611.965902612}},{"type":"MultiPolygon","arcs":[[[384,385,386,387,388,-351]]],"properties":{"筆ID":"H000000130","version":"ver1.0","座標系":"任意座標系","測地系判別":null,"地図名":"H1843040140614","地図番号":"開4","縮尺分母":"3000","市区町村コード":"01406","市区町村名":"古平郡古平町","大字コード":"001","丁目コード":"000","小字コード":"0000","予備コード":"00","大字名":"大字浜町","丁目名":null,"小字名":null,"予備名":null,"地番":"道-2","精度区分":null,"座標値種別":"図上測量","筆界未定構成筆":null,"代表点緯度":571.152,"代表点経度":1549.708455869}},{"type":"MultiPolygon","arcs":[[[-367,-356]]],"properties":{"筆ID":"H000000131","version":"ver1.0","座標系":"任意座標系","測地系判別":null,"地図名":"H1843040140614","地図番号":"開4","縮尺分母":"3000","市区町村コード":"01406","市区町村名":"古平郡古平町","大字コード":"001","丁目コード":"000","小字コード":"0000","予備コード":"00","大字名":"大字浜町","丁目名":null,"小字名":null,"予備名":null,"地番":"1875-4","精度区分":null,"座標値種別":"図上測量","筆界未定構成筆":null,"代表点緯度":840.0915,"代表点経度":1415.598181887}},{"type":"MultiPolygon","arcs":[[[389,390,391,-385,-350]]],"properties":{"筆ID":"H000000132","version":"ver1.0","座標系":"任意座標系","測地系判別":null,"地図名":"H1843040140614","地図番号":"開4","縮尺分母":"3000","市区町村コード":"01406","市区町村名":"古平郡古平町","大字コード":"001","丁目コード":"000","小字コード":"0000","予備コード":"00","大字名":"大字浜町","丁目名":null,"小字名":null,"予備名":null,"地番":"1872-8","精度区分":null,"座標値種別":"図上測量","筆界未定構成筆":null,"代表点緯度":712.1385,"代表点経度":1520.863424788}},{"type":"MultiPolygon","arcs":[[[392,-390,-349]]],"properties":{"筆ID":"H000000133","version":"ver1.0","座標系":"任意座標系","測地系判別":null,"地図名":"H1843040140614","地図番号":"開4","縮尺分母":"3000","市区町村コード":"01406","市区町村名":"古平郡古平町","大字コード":"001","丁目コード":"000","小字コード":"0000","予備コード":"00","大字名":"大字浜町","丁目名":null,"小字名":null,"予備名":null,"地番":"1872-6","精度区分":null,"座標値種別":"図上測量","筆界未定構成筆":null,"代表点緯度":713.811,"代表点経度":1457.963031109}},{"type":"MultiPolygon","arcs":[[[-358,393,394,395,396,397,398,-391,-393]]],"properties":{"筆ID":"H000000134","version":"ver1.0","座標系":"任意座標系","測地系判別":null,"地図名":"H1843040140614","地図番号":"開4","縮尺分母":"3000","市区町村コード":"01406","市区町村名":"古平郡古平町","大字コード":"001","丁目コード":"000","小字コード":"0000","予備コード":"00","大字名":"大字浜町","丁目名":null,"小字名":null,"予備名":null,"地番":"1872-3","精度区分":null,"座標値種別":"図上測量","筆界未定構成筆":null,"代表点緯度":793.6905,"代表点経度":1557.970112954}},{"type":"MultiPolygon","arcs":[[[399,-394,-366]]],"properties":{"筆ID":"H000000135","version":"ver1.0","座標系":"任意座標系","測地系判別":null,"地図名":"H1843040140614","地図番号":"開4","縮尺分母":"3000","市区町村コード":"01406","市区町村名":"古平郡古平町","大字コード":"001","丁目コード":"000","小字コード":"0000","予備コード":"00","大字名":"大字浜町","丁目名":null,"小字名":null,"予備名":null,"地番":"1872-5","精度区分":null,"座標値種別":"図上測量","筆界未定構成筆":null,"代表点緯度":832.773,"代表点経度":1522.168607149}},{"type":"MultiPolygon","arcs":[[[-379,400,-395,-400,-365]]],"properties":{"筆ID":"H000000136","version":"ver1.0","座標系":"任意座標系","測地系判別":null,"地図名":"H1843040140614","地図番号":"開4","縮尺分母":"3000","市区町村コード":"01406","市区町村名":"古平郡古平町","大字コード":"001","丁目コード":"000","小字コード":"0000","予備コード":"00","大字名":"大字浜町","丁目名":null,"小字名":null,"予備名":null,"地番":"1872-2","精度区分":null,"座標値種別":"図上測量","筆界未定構成筆":null,"代表点緯度":869.7585,"代表点経度":1604.704717019}},{"type":"MultiPolygon","arcs":[[[-370,-383]]],"properties":{"筆ID":"H000000137","version":"ver1.0","座標系":"任意座標系","測地系判別":null,"地図名":"H1843040140614","地図番号":"開4","縮尺分母":"3000","市区町村コード":"01406","市区町村名":"古平郡古平町","大字コード":"001","丁目コード":"000","小字コード":"0000","予備コード":"00","大字名":"大字浜町","丁目名":null,"小字名":null,"予備名":null,"地番":"1873-2","精度区分":null,"座標値種別":"図上測量","筆界未定構成筆":null,"代表点緯度":933.387,"代表点経度":1518.1255}},{"type":"MultiPolygon","arcs":[[[-399,401,-386,-392]]],"properties":{"筆ID":"H000000138","version":"ver1.0","座標系":"任意座標系","測地系判別":null,"地図名":"H1843040140614","地図番号":"開4","縮尺分母":"3000","市区町村コード":"01406","市区町村名":"古平郡古平町","大字コード":"001","丁目コード":"000","小字コード":"0000","予備コード":"00","大字名":"大字浜町","丁目名":null,"小字名":null,"予備名":null,"地番":"1872-7","精度区分":null,"座標値種別":"図上測量","筆界未定構成筆":null,"代表点緯度":649.5615,"代表点経度":1587.080896341}},{"type":"MultiPolygon","arcs":[[[402,403,404,-380]]],"properties":{"筆ID":"H000000139","version":"ver1.0","座標系":"任意座標系","測地系判別":null,"地図名":"H1843040140614","地図番号":"開4","縮尺分母":"3000","市区町村コード":"01406","市区町村名":"古平郡古平町","大字コード":"001","丁目コード":"000","小字コード":"0000","予備コード":"00","大字名":"大字浜町","丁目名":null,"小字名":null,"予備名":null,"地番":"1863","精度区分":null,"座標値種別":"図上測量","筆界未定構成筆":null,"代表点緯度":1257.8355,"代表点経度":1712.730951588}},{"type":"MultiPolygon","arcs":[[[-398,405,406,-387,-402]]],"properties":{"筆ID":"H000000140","version":"ver1.0","座標系":"任意座標系","測地系判別":null,"地図名":"H1843040140614","地図番号":"開4","縮尺分母":"3000","市区町村コード":"01406","市区町村名":"古平郡古平町","大字コード":"001","丁目コード":"000","小字コード":"0000","予備コード":"00","大字名":"大字浜町","丁目名":null,"小字名":null,"予備名":null,"地番":"1872-1","精度区分":null,"座標値種別":"図上測量","筆界未定構成筆":null,"代表点緯度":632.034,"代表点経度":1656.704607271}},{"type":"MultiPolygon","arcs":[[[-397,407,-406]]],"properties":{"筆ID":"H000000141","version":"ver1.0","座標系":"任意座標系","測地系判別":null,"地図名":"H1843040140614","地図番号":"開4","縮尺分母":"3000","市区町村コード":"01406","市区町村名":"古平郡古平町","大字コード":"001","丁目コード":"000","小字コード":"0000","予備コード":"00","大字名":"大字浜町","丁目名":null,"小字名":null,"予備名":null,"地番":"1872-4","精度区分":null,"座標値種別":"図上測量","筆界未定構成筆":null,"代表点緯度":781.3725,"代表点経度":1644.164852711}},{"type":"MultiPolygon","arcs":[[[408,409,-407]]],"properties":{"筆ID":"H000000142","version":"ver1.0","座標系":"任意座標系","測地系判別":null,"地図名":"H1843040140614","地図番号":"開4","縮尺分母":"3000","市区町村コード":"01406","市区町村名":"古平郡古平町","大字コード":"001","丁目コード":"000","小字コード":"0000","予備コード":"00","大字名":"大字浜町","丁目名":null,"小字名":null,"予備名":null,"地番":"1871-1","精度区分":null,"座標値種別":"図上測量","筆界未定構成筆":null,"代表点緯度":617.505,"代表点経度":1704.019739354}},{"type":"MultiPolygon","arcs":[[[410,411,-409,-408]]],"properties":{"筆ID":"H000000143","version":"ver1.0","座標系":"任意座標系","測地系判別":null,"地図名":"H1843040140614","地図番号":"開4","縮尺分母":"3000","市区町村コード":"01406","市区町村名":"古平郡古平町","大字コード":"001","丁目コード":"000","小字コード":"0000","予備コード":"00","大字名":"大字浜町","丁目名":null,"小字名":null,"予備名":null,"地番":"1871-7","精度区分":null,"座標値種別":"図上測量","筆界未定構成筆":null,"代表点緯度":788.5095,"代表点経度":1665.720134162}},{"type":"MultiPolygon","arcs":[[[-396,412,413,414,415,416,417,-411]]],"properties":{"筆ID":"H000000144","version":"ver1.0","座標系":"任意座標系","測地系判別":null,"地図名":"H1843040140614","地図番号":"開4","縮尺分母":"3000","市区町村コード":"01406","市区町村名":"古平郡古平町","大字コード":"001","丁目コード":"000","小字コード":"0000","予備コード":"00","大字名":"大字浜町","丁目名":null,"小字名":null,"予備名":null,"地番":"1871-6","精度区分":null,"座標値種別":"図上測量","筆界未定構成筆":null,"代表点緯度":816.099,"代表点経度":1703.15034637}},{"type":"MultiPolygon","arcs":[[[-401,418,-413]]],"properties":{"筆ID":"H000000145","version":"ver1.0","座標系":"任意座標系","測地系判別":null,"地図名":"H1843040140614","地図番号":"開4","縮尺分母":"3000","市区町村コード":"01406","市区町村名":"古平郡古平町","大字コード":"001","丁目コード":"000","小字コード":"0000","予備コード":"00","大字名":"大字浜町","丁目名":null,"小字名":null,"予備名":null,"地番":"1871-5","精度区分":null,"座標値種別":"図上測量","筆界未定構成筆":null,"代表点緯度":889.746,"代表点経度":1687.741667796}},{"type":"MultiPolygon","arcs":[[[-378,419,420,-419]]],"properties":{"筆ID":"H000000146","version":"ver1.0","座標系":"任意座標系","測地系判別":null,"地図名":"H1843040140614","地図番号":"開4","縮尺分母":"3000","市区町村コード":"01406","市区町村名":"古平郡古平町","大字コード":"001","丁目コード":"000","小字コード":"0000","予備コード":"00","大字名":"大字浜町","丁目名":null,"小字名":null,"予備名":null,"地番":"1871-2","精度区分":null,"座標値種別":"図上測量","筆界未定構成筆":null,"代表点緯度":907.2825,"代表点経度":1791.981131356}},{"type":"MultiPolygon","arcs":[[[-412,-418,421,422,-410]]],"properties":{"筆ID":"H000000147","version":"ver1.0","座標系":"任意座標系","測地系判別":null,"地図名":"H1843040140614","地図番号":"開4","縮尺分母":"3000","市区町村コード":"01406","市区町村名":"古平郡古平町","大字コード":"001","丁目コード":"000","小字コード":"0000","予備コード":"00","大字名":"大字浜町","丁目名":null,"小字名":null,"予備名":null,"地番":"1871-8","精度区分":null,"座標値種別":"図上測量","筆界未定構成筆":null,"代表点緯度":685.8795,"代表点経度":1717.22243231}},{"type":"MultiPolygon","arcs":[[[423,-404,424]]],"properties":{"筆ID":"H000000148","version":"ver1.0","座標系":"任意座標系","測地系判別":null,"地図名":"H1843040140614","地図番号":"開4","縮尺分母":"3000","市区町村コード":"01406","市区町村名":"古平郡古平町","大字コード":"001","丁目コード":"000","小字コード":"0000","予備コード":"00","大字名":"大字浜町","丁目名":null,"小字名":null,"予備名":null,"地番":"1880-3","精度区分":null,"座標値種別":"図上測量","筆界未定構成筆":null,"代表点緯度":1307.88,"代表点経度":1811.84779589}},{"type":"MultiPolygon","arcs":[[[-382,425,426,427,428,429,-372]]],"properties":{"筆ID":"H000000149","version":"ver1.0","座標系":"任意座標系","測地系判別":null,"地図名":"H1843040140614","地図番号":"開4","縮尺分母":"3000","市区町村コード":"01406","市区町村名":"古平郡古平町","大字コード":"001","丁目コード":"000","小字コード":"0000","予備コード":"00","大字名":"大字浜町","丁目名":null,"小字名":null,"予備名":null,"地番":"1870-1","精度区分":null,"座標値種別":"図上測量","筆界未定構成筆":null,"代表点緯度":1003.362,"代表点経度":1743.238222125}},{"type":"MultiPolygon","arcs":[[[430,431,-422,-417]]],"properties":{"筆ID":"H000000150","version":"ver1.0","座標系":"任意座標系","測地系判別":null,"地図名":"H1843040140614","地図番号":"開4","縮尺分母":"3000","市区町村コード":"01406","市区町村名":"古平郡古平町","大字コード":"001","丁目コード":"000","小字コード":"0000","予備コード":"00","大字名":"大字浜町","丁目名":null,"小字名":null,"予備名":null,"地番":"1871-9","精度区分":null,"座標値種別":"図上測量","筆界未定構成筆":null,"代表点緯度":733.8195,"代表点経度":1744.830364524}},{"type":"MultiPolygon","arcs":[[[-432,432,433,434,435,436,-388,-423]]],"properties":{"筆ID":"H000000151","version":"ver1.0","座標系":"任意座標系","測地系判別":null,"地図名":"H1843040140614","地図番号":"開4","縮尺分母":"3000","市区町村コード":"01406","市区町村名":"古平郡古平町","大字コード":"001","丁目コード":"000","小字コード":"0000","予備コード":"00","大字名":"大字浜町","丁目名":null,"小字名":null,"予備名":null,"地番":"道-3","精度区分":null,"座標値種別":"図上測量","筆界未定構成筆":null,"代表点緯度":623.391,"代表点経度":1783.172723863}},{"type":"MultiPolygon","arcs":[[[437,-433,-431,-416]]],"properties":{"筆ID":"H000000152","version":"ver1.0","座標系":"任意座標系","測地系判別":null,"地図名":"H1843040140614","地図番号":"開4","縮尺分母":"3000","市区町村コード":"01406","市区町村名":"古平郡古平町","大字コード":"001","丁目コード":"000","小字コード":"0000","予備コード":"00","大字名":"大字浜町","丁目名":null,"小字名":null,"予備名":null,"地番":"1871-10","精度区分":null,"座標値種別":"図上測量","筆界未定構成筆":null,"代表点緯度":767.376,"代表点経度":1771.31107846}},{"type":"MultiPolygon","arcs":[[[438,-437]]],"properties":{"筆ID":"H000000153","version":"ver1.0","座標系":"任意座標系","測地系判別":null,"地図名":"H1843040140614","地図番号":"開4","縮尺分母":"3000","市区町村コード":"01406","市区町村名":"古平郡古平町","大字コード":"001","丁目コード":"000","小字コード":"0000","予備コード":"00","大字名":"大字浜町","丁目名":null,"小字名":null,"予備名":null,"地番":"長狭物不明-7","精度区分":null,"座標値種別":"図上測量","筆界未定構成筆":null,"代表点緯度":625.887,"代表点経度":1791.924347332}},{"type":"MultiPolygon","arcs":[[[-421,439,440,-414]]],"properties":{"筆ID":"H000000154","version":"ver1.0","座標系":"任意座標系","測地系判別":null,"地図名":"H1843040140614","地図番号":"開4","縮尺分母":"3000","市区町村コード":"01406","市区町村名":"古平郡古平町","大字コード":"001","丁目コード":"000","小字コード":"0000","予備コード":"00","大字名":"大字浜町","丁目名":null,"小字名":null,"予備名":null,"地番":"1871-4","精度区分":null,"座標値種別":"図上測量","筆界未定構成筆":null,"代表点緯度":861.6735,"代表点経度":1833.460722655}},{"type":"MultiPolygon","arcs":[[[441,-434,-438,-415]]],"properties":{"筆ID":"H000000155","version":"ver1.0","座標系":"任意座標系","測地系判別":null,"地図名":"H1843040140614","地図番号":"開4","縮尺分母":"3000","市区町村コード":"01406","市区町村名":"古平郡古平町","大字コード":"001","丁目コード":"000","小字コード":"0000","予備コード":"00","大字名":"大字浜町","丁目名":null,"小字名":null,"予備名":null,"地番":"1871-11","精度区分":null,"座標値種別":"図上測量","筆界未定構成筆":null,"代表点緯度":748.5075,"代表点経度":1809.348445616}},{"type":"MultiPolygon","arcs":[[[442,-373,-430]]],"properties":{"筆ID":"H000000156","version":"ver1.0","座標系":"任意座標系","測地系判別":null,"地図名":"H1843040140614","地図番号":"開4","縮尺分母":"3000","市区町村コード":"01406","市区町村名":"古平郡古平町","大字コード":"001","丁目コード":"000","小字コード":"0000","予備コード":"00","大字名":"大字浜町","丁目名":null,"小字名":null,"予備名":null,"地番":"1870-2","精度区分":null,"座標値種別":"図上測量","筆界未定構成筆":null,"代表点緯度":1004.5215,"代表点経度":1791.44089151}},{"type":"MultiPolygon","arcs":[[[443,444,-435,-442,-441]]],"properties":{"筆ID":"H000000157","version":"ver1.0","座標系":"任意座標系","測地系判別":null,"地図名":"H1843040140614","地図番号":"開4","縮尺分母":"3000","市区町村コード":"01406","市区町村名":"古平郡古平町","大字コード":"001","丁目コード":"000","小字コード":"0000","予備コード":"00","大字名":"大字浜町","丁目名":null,"小字名":null,"予備名":null,"地番":"1871-3","精度区分":null,"座標値種別":"図上測量","筆界未定構成筆":null,"代表点緯度":800.3265,"代表点経度":1828.428464148}},{"type":"MultiPolygon","arcs":[[[445,446,-427,447]]],"properties":{"筆ID":"H000000158","version":"ver1.0","座標系":"任意座標系","測地系判別":null,"地図名":"H1843040140614","地図番号":"開4","縮尺分母":"3000","市区町村コード":"01406","市区町村名":"古平郡古平町","大字コード":"001","丁目コード":"000","小字コード":"0000","予備コード":"00","大字名":"大字浜町","丁目名":null,"小字名":null,"予備名":null,"地番":"1864","精度区分":null,"座標値種別":"図上測量","筆界未定構成筆":null,"代表点緯度":1159.3155,"代表点経度":1810.40911101}},{"type":"MultiPolygon","arcs":[[[-429,448,-374,-443]]],"properties":{"筆ID":"H000000159","version":"ver1.0","座標系":"任意座標系","測地系判別":null,"地図名":"H1843040140614","地図番号":"開4","縮尺分母":"3000","市区町村コード":"01406","市区町村名":"古平郡古平町","大字コード":"001","丁目コード":"000","小字コード":"0000","予備コード":"00","大字名":"大字浜町","丁目名":null,"小字名":null,"予備名":null,"地番":"1870-3","精度区分":null,"座標値種別":"図上測量","筆界未定構成筆":null,"代表点緯度":1007.517,"代表点経度":1827.557596825}},{"type":"MultiPolygon","arcs":[[[449,450,451,452,-446]]],"properties":{"筆ID":"H000000160","version":"ver1.0","座標系":"任意座標系","測地系判別":null,"地図名":"H1843040140614","地図番号":"開4","縮尺分母":"3000","市区町村コード":"01406","市区町村名":"古平郡古平町","大字コード":"001","丁目コード":"000","小字コード":"0000","予備コード":"00","大字名":"大字浜町","丁目名":null,"小字名":null,"予備名":null,"地番":"1865","精度区分":null,"座標値種別":"図上測量","筆界未定構成筆":null,"代表点緯度":1178.4165,"代表点経度":1847.161831818}},{"type":"MultiPolygon","arcs":[[[-447,-453,453,454,455,456,-375,-449,-428]]],"properties":{"筆ID":"H000000161","version":"ver1.0","座標系":"任意座標系","測地系判別":null,"地図名":"H1843040140614","地図番号":"開4","縮尺分母":"3000","市区町村コード":"01406","市区町村名":"古平郡古平町","大字コード":"001","丁目コード":"000","小字コード":"0000","予備コード":"00","大字名":"大字浜町","丁目名":null,"小字名":null,"予備名":null,"地番":"1887","精度区分":null,"座標値種別":"図上測量","筆界未定構成筆":null,"代表点緯度":1078.2615,"代表点経度":1834.320976658}},{"type":"MultiPolygon","arcs":[[[-452,457,458,-454]]],"properties":{"筆ID":"H000000162","version":"ver1.0","座標系":"任意座標系","測地系判別":null,"地図名":"H1843040140614","地図番号":"開4","縮尺分母":"3000","市区町村コード":"01406","市区町村名":"古平郡古平町","大字コード":"001","丁目コード":"000","小字コード":"0000","予備コード":"00","大字名":"大字浜町","丁目名":null,"小字名":null,"予備名":null,"地番":"1867-1","精度区分":null,"座標値種別":"図上測量","筆界未定構成筆":null,"代表点緯度":1173.84,"代表点経度":1884.226518182}},{"type":"MultiPolygon","arcs":[[[459,460,461,-456]]],"properties":{"筆ID":"H000000163","version":"ver1.0","座標系":"任意座標系","測地系判別":null,"地図名":"H1843040140614","地図番号":"開4","縮尺分母":"3000","市区町村コード":"01406","市区町村名":"古平郡古平町","大字コード":"001","丁目コード":"000","小字コード":"0000","予備コード":"00","大字名":"大字浜町","丁目名":null,"小字名":null,"予備名":null,"地番":"1869-1","精度区分":null,"座標値種別":"図上測量","筆界未定構成筆":null,"代表点緯度":1025.2665,"代表点経度":1924.773733152}},{"type":"MultiPolygon","arcs":[[[-462,462,-376,-457]]],"properties":{"筆ID":"H000000164","version":"ver1.0","座標系":"任意座標系","測地系判別":null,"地図名":"H1843040140614","地図番号":"開4","縮尺分母":"3000","市区町村コード":"01406","市区町村名":"古平郡古平町","大字コード":"001","丁目コード":"000","小字コード":"0000","予備コード":"00","大字名":"大字浜町","丁目名":null,"小字名":null,"予備名":null,"地番":"1869-2","精度区分":null,"座標値種別":"図上測量","筆界未定構成筆":null,"代表点緯度":1025.2665,"代表点経度":1881.684365677}},{"type":"MultiPolygon","arcs":[[[-444,-440,-420,-377,-463,-461,463,464,465,466]]],"properties":{"筆ID":"H000000165","version":"ver1.0","座標系":"任意座標系","測地系判別":null,"地図名":"H1843040140614","地図番号":"開4","縮尺分母":"3000","市区町村コード":"01406","市区町村名":"古平郡古平町","大字コード":"001","丁目コード":"000","小字コード":"0000","予備コード":"00","大字名":"大字浜町","丁目名":null,"小字名":null,"予備名":null,"地番":"長狭物不明-8","精度区分":null,"座標値種別":"図上測量","筆界未定構成筆":null,"代表点緯度":1029.483,"代表点経度":1944.859977655}},{"type":"MultiPolygon","arcs":[[[467,468,469,-464,-460,-455,-459]]],"properties":{"筆ID":"H000000166","version":"ver1.0","座標系":"任意座標系","測地系判別":null,"地図名":"H1843040140614","地図番号":"開4","縮尺分母":"3000","市区町村コード":"01406","市区町村名":"古平郡古平町","大字コード":"001","丁目コード":"000","小字コード":"0000","予備コード":"00","大字名":"大字浜町","丁目名":null,"小字名":null,"予備名":null,"地番":"1868-1","精度区分":null,"座標値種別":"図上測量","筆界未定構成筆":null,"代表点緯度":1134.0585,"代表点経度":1924.490910351}},{"type":"MultiPolygon","arcs":[[[470,471,472,473,-451]]],"properties":{"筆ID":"H000000167","version":"ver1.0","座標系":"任意座標系","測地系判別":null,"地図名":"H1843040140614","地図番号":"開4","縮尺分母":"3000","市区町村コード":"01406","市区町村名":"古平郡古平町","大字コード":"001","丁目コード":"000","小字コード":"0000","予備コード":"00","大字名":"大字浜町","丁目名":null,"小字名":null,"予備名":null,"地番":"1866-1","精度区分":null,"座標値種別":"図上測量","筆界未定構成筆":null,"代表点緯度":1260.6885,"代表点経度":1910.979575936}},{"type":"MultiPolygon","arcs":[[[474,475,-468,-458,-474]]],"properties":{"筆ID":"H000000168","version":"ver1.0","座標系":"任意座標系","測地系判別":null,"地図名":"H1843040140614","地図番号":"開4","縮尺分母":"3000","市区町村コード":"01406","市区町村名":"古平郡古平町","大字コード":"001","丁目コード":"000","小字コード":"0000","予備コード":"00","大字名":"大字浜町","丁目名":null,"小字名":null,"予備名":null,"地番":"1867-4","精度区分":null,"座標値種別":"図上測量","筆界未定構成筆":null,"代表点緯度":1246.476,"代表点経度":1933.738577804}},{"type":"MultiPolygon","arcs":[[[476,477,478,479,-475]]],"properties":{"筆ID":"H000000169","version":"ver1.0","座標系":"任意座標系","測地系判別":null,"地図名":"H1843040140614","地図番号":"開4","縮尺分母":"3000","市区町村コード":"01406","市区町村名":"古平郡古平町","大字コード":"001","丁目コード":"000","小字コード":"0000","予備コード":"00","大字名":"大字浜町","丁目名":null,"小字名":null,"予備名":null,"地番":"1867-3","精度区分":null,"座標値種別":"図上測量","筆界未定構成筆":null,"代表点緯度":1199.4615,"代表点経度":1947.309788164}},{"type":"MultiPolygon","arcs":[[[480,-476,-480]]],"properties":{"筆ID":"H000000170","version":"ver1.0","座標系":"任意座標系","測地系判別":null,"地図名":"H1843040140614","地図番号":"開4","縮尺分母":"3000","市区町村コード":"01406","市区町村名":"古平郡古平町","大字コード":"001","丁目コード":"000","小字コード":"0000","予備コード":"00","大字名":"大字浜町","丁目名":null,"小字名":null,"予備名":null,"地番":"1867-5","精度区分":null,"座標値種別":"図上測量","筆界未定構成筆":null,"代表点緯度":1177.302,"代表点経度":1941.124476548}},{"type":"MultiPolygon","arcs":[[[481,-469,-481]]],"properties":{"筆ID":"H000000171","version":"ver1.0","座標系":"任意座標系","測地系判別":null,"地図名":"H1843040140614","地図番号":"開4","縮尺分母":"3000","市区町村コード":"01406","市区町村名":"古平郡古平町","大字コード":"001","丁目コード":"000","小字コード":"0000","予備コード":"00","大字名":"大字浜町","丁目名":null,"小字名":null,"予備名":null,"地番":"1868-3","精度区分":null,"座標値種別":"図上測量","筆界未定構成筆":null,"代表点緯度":1151.619,"代表点経度":1945.632350401}},{"type":"MultiPolygon","arcs":[[[-479,482,-482]]],"properties":{"筆ID":"H000000172","version":"ver1.0","座標系":"任意座標系","測地系判別":null,"地図名":"H1843040140614","地図番号":"開4","縮尺分母":"3000","市区町村コード":"01406","市区町村名":"古平郡古平町","大字コード":"001","丁目コード":"000","小字コード":"0000","予備コード":"00","大字名":"大字浜町","丁目名":null,"小字名":null,"予備名":null,"地番":"1868-2","精度区分":null,"座標値種別":"図上測量","筆界未定構成筆":null,"代表点緯度":1154.034,"代表点経度":1949.480415008}},{"type":"MultiPolygon","arcs":[[[483,-470,-483]]],"properties":{"筆ID":"H000000173","version":"ver1.0","座標系":"任意座標系","測地系判別":null,"地図名":"H1843040140614","地図番号":"開4","縮尺分母":"3000","市区町村コード":"01406","市区町村名":"古平郡古平町","大字コード":"001","丁目コード":"000","小字コード":"0000","予備コード":"00","大字名":"大字浜町","丁目名":null,"小字名":null,"予備名":null,"地番":"1868-4","精度区分":null,"座標値種別":"図上測量","筆界未定構成筆":null,"代表点緯度":1134.0585,"代表点経度":1963.855723565}},{"type":"MultiPolygon","arcs":[[[484,-465,-484,-478]]],"properties":{"筆ID":"H000000174","version":"ver1.0","座標系":"任意座標系","測地系判別":null,"地図名":"H1843040140614","地図番号":"開4","縮尺分母":"3000","市区町村コード":"01406","市区町村名":"古平郡古平町","大字コード":"001","丁目コード":"000","小字コード":"0000","予備コード":"00","大字名":"大字浜町","丁目名":null,"小字名":null,"予備名":null,"地番":"1867-2","精度区分":null,"座標値種別":"図上測量","筆界未定構成筆":null,"代表点緯度":1194.456,"代表点経度":1975.078521856}},{"type":"MultiPolygon","arcs":[[[-473,485,486,-477]]],"properties":{"筆ID":"H000000175","version":"ver1.0","座標系":"任意座標系","測地系判別":null,"地図名":"H1843040140614","地図番号":"開4","縮尺分母":"3000","市区町村コード":"01406","市区町村名":"古平郡古平町","大字コード":"001","丁目コード":"000","小字コード":"0000","予備コード":"00","大字名":"大字浜町","丁目名":null,"小字名":null,"予備名":null,"地番":"1866-2","精度区分":null,"座標値種別":"図上測量","筆界未定構成筆":null,"代表点緯度":1281.9615,"代表点経度":1984.332584969}},{"type":"MultiPolygon","arcs":[[[487,-466,-485,-487]]],"properties":{"筆ID":"H000000176","version":"ver1.0","座標系":"任意座標系","測地系判別":null,"地図名":"H1843040140614","地図番号":"開4","縮尺分母":"3000","市区町村コード":"01406","市区町村名":"古平郡古平町","大字コード":"001","丁目コード":"000","小字コード":"0000","予備コード":"00","大字名":"大字浜町","丁目名":null,"小字名":null,"予備名":null,"地番":"1866-3","精度区分":null,"座標値種別":"図上測量","筆界未定構成筆":null,"代表点緯度":1274.8545,"代表点経度":2002.096672363}},{"type":"MultiPolygon","arcs":[[[-318,-337,-333,-328,-302,-300,-290]]],"properties":{"筆ID":"H000000177","version":"ver1.0","座標系":"任意座標系","測地系判別":null,"地図名":"H1843040140614","地図番号":"開1","縮尺分母":"3000","市区町村コード":"01406","市区町村名":"古平郡古平町","大字コード":"001","丁目コード":"000","小字コード":"0000","予備コード":"00","大字名":"大字浜町","丁目名":null,"小字名":null,"予備名":null,"地番":"道-1","精度区分":null,"座標値種別":"図上測量","筆界未定構成筆":null,"代表点緯度":1352.631,"代表点経度":1033.458274523}},{"type":"MultiPolygon","arcs":[[[-347,-242,-327]]],"properties":{"筆ID":"H000000178","version":"ver1.0","座標系":"任意座標系","測地系判別":null,"地図名":"H1843040140614","地図番号":"開1","縮尺分母":"3000","市区町村コード":"01406","市区町村名":"古平郡古平町","大字コード":"001","丁目コード":"000","小字コード":"0000","予備コード":"00","大字名":"大字浜町","丁目名":null,"小字名":null,"予備名":null,"地番":"長狭物不明-5-5","精度区分":null,"座標値種別":"図上測量","筆界未定構成筆":null,"代表点緯度":778.299,"代表点経度":1148.0617025}},{"type":"MultiPolygon","arcs":[[[-405,-424,488,-471,-450,-448,-426,-384,-342,-381]]],"properties":{"筆ID":"H000000179","version":"ver1.0","座標系":"任意座標系","測地系判別":null,"地図名":"H1843040140614","地図番号":"開4","縮尺分母":"3000","市区町村コード":"01406","市区町村名":"古平郡古平町","大字コード":"001","丁目コード":"000","小字コード":"0000","予備コード":"00","大字名":"大字浜町","丁目名":null,"小字名":null,"予備名":null,"地番":"長狭物不明-6-2","精度区分":null,"座標値種別":"図上測量","筆界未定構成筆":null,"代表点緯度":1143.687,"代表点経度":1805.122764042}}]}},"arcs":[[[673474,562244],[-6963,-18263]],[[666511,543981],[-7598,26507]],[[658913,570488],[14561,-8244]],[[568248,951295],[962,4050]],[[569210,955345],[5197,-2413],[8229,7517],[360,-4570]],[[582996,955879],[-8155,-7625],[-6593,3041]],[[12804,404319],[16436,31374],[23639,54385],[22036,45892]],[[74915,535970],[3902,-8041],[10794,-5127],[9845,-26543],[23746,-7503],[5215,-25206],[22912,-51388],[22015,-6005],[15045,-26245],[-53662,-224601],[-5691,8562],[-13786,36382],[-18311,11227],[-5711,15418],[-14923,26250],[-24649,11861],[-14894,36517],[-25474,18112],[-6202,35634],[7718,49045]],[[76513,542141],[12330,47589]],[[88843,589730],[62782,-21275]],[[151625,568455],[-26367,-74821]],[[125258,493634],[-24021,8438],[-9267,24596],[-10720,5953],[-4737,9520]],[[88843,589730],[859,3319],[13018,56920],[10507,39498]],[[113227,689467],[127095,-70223]],[[240322,619244],[1736,-4245],[1782,-4358]],[[243840,610641],[-898,-3487],[-46754,9385],[-14293,8166],[10889,-14142],[48621,-10768],[-21671,-90019]],[[219734,509776],[-68109,58679]],[[114965,695995],[100127,45827]],[[215092,741822],[-1422,-21039],[65,-21652]],[[213735,699131],[-5484,-6116],[-713,-6812]],[[207538,686203],[-13743,7636],[-9113,-36569]],[[184682,657270],[-69717,38725]],[[219734,509776],[-29630,-123078],[-11847,20382],[-6007,33873],[-1635,42736],[-12696,50201],[54,-13041],[8533,-35397],[1861,-42994],[5445,-31741],[-21628,6223],[-21200,49423],[-5726,27271]],[[139512,153822],[11302,-17292]],[[150814,136530],[3795,-21999]],[[154609,114531],[10871,-25302]],[[165480,89229],[364,-19282]],[[165844,69947],[86,-4539]],[[165930,65408],[-4942,-1298]],[[160988,64110],[-265,23298],[-9981,25931],[-3208,21447],[-9126,14434],[1104,4602]],[[141382,161621],[8478,-1770]],[[149860,159851],[6971,-1455]],[[156831,158396],[2033,-425]],[[158864,157971],[3415,-712]],[[162279,157259],[-1756,-22329]],[[160523,134930],[-9709,1600]],[[139512,153822],[1870,7799]],[[146459,182800],[6258,-1405]],[[152717,181395],[-2857,-21544]],[[141382,161621],[5077,21179]],[[146459,182800],[11468,47834]],[[157927,230634],[50085,-9902]],[[208012,220732],[668,-19262],[1716,-33019]],[[210396,168451],[-5277,1183]],[[205119,169634],[-7718,1732]],[[197401,171366],[-11312,2539]],[[186089,173905],[-11273,2531]],[[174816,176436],[-10863,2437]],[[163953,178873],[-4380,983]],[[159573,179856],[-6856,1539]],[[159573,179856],[-2742,-21460]],[[160523,134930],[11002,-1812]],[[171525,133118],[423,-68]],[[171948,133050],[-1461,-20902]],[[170487,112148],[-15878,2383]],[[170487,112148],[7132,-1072]],[[177619,111076],[-685,-22812]],[[176934,88264],[-11454,965]],[[163953,178873],[-5089,-20902]],[[157927,230634],[13372,55776]],[[171299,286410],[34677,-6893]],[[205976,279517],[2036,-58785]],[[174816,176436],[-5254,-20696]],[[169562,155740],[-7283,1519]],[[169562,155740],[4145,-866]],[[173707,154874],[-2182,-21756]],[[165930,65408],[45106,-24993]],[[211036,40415],[-11424,-22782],[-3935,20245],[-24491,-832],[-10198,27064]],[[176934,88264],[17782,-1499]],[[194716,86765],[20475,-1725]],[[215191,85040],[77,-17903]],[[215268,67137],[-49424,2810]],[[215268,67137],[79,-18123],[-4311,-8599]],[[186089,173905],[-4868,-20600]],[[181221,153305],[-7514,1569]],[[171948,133050],[10898,-1795]],[[182846,131255],[7916,-1304]],[[190762,129951],[-1189,-20670]],[[189573,109281],[-11954,1795]],[[177626,312803],[31838,-14532]],[[209464,298271],[-3488,-18754]],[[171299,286410],[6327,26393]],[[181221,153305],[3085,-644]],[[184306,152661],[-1460,-21406]],[[189573,109281],[6064,-910]],[[195637,108371],[-921,-21606]],[[218871,341202],[-5217,-20410]],[[213654,320792],[-1897,-10202]],[[211757,310590],[-586,-3145],[-587,-3156]],[[210584,304289],[-1120,-6018]],[[177626,312803],[14454,60289],[13584,-23942],[13207,-7948]],[[197401,171366],[-5031,-20389]],[[192370,150977],[-8064,1684]],[[192370,150977],[3396,-708]],[[195766,150269],[-1747,-20854]],[[194019,129415],[-3257,536]],[[207538,686203],[-959,-9168],[6014,-5079],[6708,-2552]],[[219301,669404],[2312,-7314],[14378,-33321]],[[235991,628769],[-51309,28501]],[[194019,129415],[11656,-1919]],[[205675,127496],[4003,-658]],[[209678,126838],[-1128,-20407]],[[208550,106431],[-12913,1940]],[[205119,169634],[-4822,-20310]],[[200297,149324],[-4531,945]],[[212012,455506],[144378,-80248]],[[356390,375258],[-984,-5705],[-93680,-55121],[-18397,-11521]],[[243329,302911],[-18148,41499],[-17342,10017],[-14075,25433],[18248,75646]],[[200297,149324],[6942,-1450]],[[207239,147874],[-1564,-20378]],[[208550,106431],[5412,-813]],[[213962,105618],[1220,-18578],[9,-2000]],[[210396,168451],[1115,-21468]],[[211511,146983],[-4272,891]],[[211511,146983],[1009,-19415]],[[212520,127568],[79,-1211]],[[212599,126357],[-2921,481]],[[210584,304289],[7841,-16975]],[[218425,287314],[-12449,-7797]],[[207538,686203],[7824,-4347]],[[215362,681856],[3939,-12452]],[[213735,699131],[1627,-17275]],[[212599,126357],[1363,-20739]],[[211757,310590],[9759,-21340]],[[221516,289250],[-3091,-1936]],[[213654,320792],[1774,-3633]],[[215428,317159],[7204,-14758]],[[222632,302401],[1588,-3254]],[[224220,299147],[3067,-6283]],[[227287,292864],[-5771,-3614]],[[218871,341202],[3589,-2160],[4607,-10156]],[[227067,328886],[-11639,-11727]],[[215092,741822],[2870,1309]],[[217962,743131],[904,-10879],[8268,-11569]],[[227134,720683],[-1597,-2860],[32,-16078],[1818,-14649],[3567,-13903]],[[230954,673193],[-15592,8663]],[[230954,673193],[18046,-41284]],[[249000,631909],[-2195,-9147],[-10814,6007]],[[227067,328886],[6962,-15340]],[[234029,313546],[-11397,-11145]],[[217962,743131],[13678,6260]],[[231640,749391],[-987,-4537],[713,-13828],[812,-1300]],[[232178,729726],[-5044,-9043]],[[234029,313546],[2935,-6467]],[[236964,307079],[-5932,-3693],[-6812,-4239]],[[236964,307079],[2881,-6351]],[[239845,300728],[-4424,-2770],[-4462,-2795],[-3672,-2299]],[[227134,720683],[4565,-6388],[8241,-3453],[7395,1225],[23683,11586]],[[271018,723653],[-15399,-64164]],[[255619,659489],[-24665,13704]],[[231640,749391],[8250,3792]],[[239890,753183],[-5991,-22442],[-1721,-1015]],[[255619,659489],[-6619,-27580]],[[239890,753183],[56093,25785],[100544,124576],[35924,18931]],[[432451,922475],[17412,-113171]],[[449863,809304],[-11954,10624],[-9884,-5674],[-15347,-24759],[-24236,-32928],[-7120,-4724],[-3624,-4099],[-3520,-3985],[-8339,-1279],[-7966,1520],[-33519,13380],[-14629,-1333],[-8902,-1233],[-10500,-4166],[-44598,-26032],[-5366,-1520],[-5211,1878],[-2970,4752]],[[240322,619244],[5020,-2774],[-1502,-5829]],[[247520,603369],[6552,-13303]],[[254072,590066],[-3182,-4753]],[[250890,585313],[-8688,-3154],[5318,21210]],[[259179,608986],[5472,-10198]],[[264651,598788],[-1237,-1492],[-5512,-1509],[-3830,-5721]],[[247520,603369],[2686,10713],[8973,-5096]],[[252466,624461],[1327,-3071],[1326,-3065]],[[255119,618325],[-3626,2039],[973,4097]],[[252466,624461],[24210,101959]],[[276676,726420],[123,61],[16847,8023],[9438,3725],[10260,1653],[9446,220],[31921,-9387]],[[354711,730715],[-31823,-133663]],[[322888,597052],[-25420,12191],[-28393,9346],[-5776,-4862],[-8180,4598]],[[267004,594197],[7769,-14275],[7879,-8483],[9808,-4883],[26211,2564],[6610,2421]],[[325281,571541],[21120,-11946]],[[346401,559595],[-23148,-7934],[-21160,-4635],[-13507,1677],[-21483,14105],[-10809,22645]],[[256294,585453],[3727,5207],[5027,1255],[1956,2282]],[[259179,608986],[9466,-5378],[-2299,-2775],[-1695,-2045]],[[267004,594197],[2424,2827],[3525,4110],[52328,-29593]],[[321454,591133],[-2091,-8728]],[[319363,582405],[-51039,28240],[1666,2233],[24655,-7889],[26809,-13856]],[[321454,591133],[249,1034],[13756,-4447],[10536,-8128]],[[345995,579592],[-13862,-4572]],[[332133,575020],[-12770,7385]],[[212012,455506],[28857,119610],[10829,5268]],[[251698,580384],[-464,-17990],[-2726,-18528],[-1532,-3520],[-2216,-11140],[-4155,-5672],[-2905,-7133],[-12598,-12064],[733,-4219],[14111,12129],[3190,7602],[4812,6005],[1291,6416],[2660,-11371],[-687,-10176],[2241,-14695],[-1704,-11360],[2950,-18061],[2699,-6936],[1554,-14672],[16609,-15925],[-13693,21758],[-1207,10522],[-2628,7120],[-3069,17712],[1356,10304],[-1973,13386],[723,12240],[-3955,18692],[3929,21351],[333,22015],[917,1279]],[[346401,559595],[31296,-17700],[8613,-4792]],[[386310,537103],[-8613,-44778],[-10879,-56573],[-10428,-60494]],[[345995,579592],[5347,-4126],[26355,8882],[22673,8281],[10753,7383]],[[411123,600012],[-5928,-14022],[-14102,-11049],[-13396,-4523],[-23742,-8017]],[[353955,562401],[-21822,12619]],[[74915,535970],[1598,6171]],[[113227,689467],[1738,6528]],[[271018,723653],[5658,2767]],[[322888,597052],[13812,-2826],[15627,-12409],[25370,8675],[1259,408]],[[378956,590900],[5152,1674]],[[384108,592574],[16843,5469]],[[400951,598043],[-388,-1613],[9278,3876]],[[409841,600306],[1282,-294]],[[353955,562401],[23742,-13729],[52138,-29174],[11639,15656],[3819,15945],[9734,12562],[2358,11082],[22952,30562],[10497,43845],[-24667,-16820],[-13865,-87],[-9274,-9814],[-2895,-8057],[-12718,-233],[-6108,-3470],[-5167,-7213],[-5017,-3444]],[[409841,600306],[6746,10329],[9259,9123],[13805,961],[4010,8816],[10323,11409],[12453,-194],[11742,8644],[13280,2747],[2751,11495]],[[494210,663636],[4120,-2441]],[[498330,661195],[-1599,-6552],[15662,-941]],[[512393,653702],[2071,-124],[28026,14253],[11448,18387],[7417,7161],[10073,20356],[-11465,-6643],[-18595,-4047],[-26647,-21004],[-11231,280],[-5160,-21126]],[[494210,663636],[4933,20611],[-16087,10803],[-12285,690],[14072,8754],[16310,-11483]],[[501153,693011],[4453,-2398]],[[505606,690613],[8899,-486],[13358,9564],[-2843,10387],[-11544,13294],[-7870,-32759]],[[501153,693011],[7266,29549]],[[508419,722560],[1486,6044],[-23077,13558],[-30212,4746],[-16894,-1945]],[[439722,744963],[-3558,-411],[-577,-2403]],[[435587,742149],[-11012,3894]],[[424575,746043],[-4105,1451],[-6061,-4295],[-17504,6601]],[[396905,749800],[3546,5008]],[[400451,754808],[11918,-5049],[9142,5190],[5732,-2363]],[[427243,752586],[9727,-4012],[301,1244]],[[437271,749818],[3231,362]],[[440502,750180],[14570,1635],[31867,-4543],[23988,-13746],[11370,46227]],[[522297,779753],[-11672,6309]],[[510625,786062],[5516,2910]],[[516141,788972],[518,-268]],[[516659,788704],[7026,-3631],[1474,6258]],[[525159,791331],[835,3548]],[[525994,794879],[5897,4088]],[[531891,798967],[-615,-2625]],[[531276,796342],[-3341,-14266],[1002,-557]],[[528937,781519],[9301,-5166]],[[538238,776353],[-1013,-5596]],[[537225,770757],[-10674,5399],[-11474,-46506],[14424,-17146],[2742,-9167],[8603,6279],[18595,3770],[14618,8423],[17383,35473],[-8169,8679],[-9765,-1315],[-11149,5754],[-25134,357]],[[538238,776353],[25179,-79],[10951,-4554],[11544,849],[13629,-14157]],[[599541,758412],[16569,-35908],[7535,-3366],[18444,-21187],[803,-1963]],[[642892,695988],[15327,-37538],[11307,-4118]],[[669526,654332],[3741,-1363],[19121,-13842]],[[692388,639127],[1036,-7353],[164,-1677]],[[693588,630097],[-1258,2191],[-20248,14075],[-2112,696]],[[669970,647059],[-15497,5090],[-7735,19015]],[[646738,671164],[-9309,22886],[-16346,19182],[-6538,3029],[-16680,34025]],[[597865,750286],[-2090,3263],[-29169,-63766],[-11383,-11051],[-8425,-17176],[-16332,-8707],[-4169,-7281]],[[526297,645568],[-3599,3957]],[[522698,649525],[-8311,-3491],[-18903,2200],[-9867,-41252],[20232,14334],[16849,28209]],[[526297,645568],[-17188,-30022],[-26018,-18604]],[[483091,596942],[-4702,-81]],[[478389,596861],[-16872,-22935],[-2482,-12127],[-8546,-11304],[-4330,-16949],[-11212,-16625],[21250,-11830],[22192,91770]],[[483091,596942],[-22402,-94663],[68875,-38128]],[[529564,464151],[68203,-37754]],[[597767,426397],[29426,-16289]],[[627193,410108],[37206,-20596]],[[664399,389512],[500,-7411]],[[664899,382101],[-278589,155002]],[[251698,580384],[-808,4929]],[[243329,302911],[-3484,-2183]],[[212520,127568],[7315,-43002],[-1661,-35030],[-15780,-40179],[-26678,-9357],[18608,16252],[-1076,12439],[-24908,2516],[-12436,29738],[120,20391],[-9053,28340],[-3539,22496],[-16643,24599],[-10932,28671],[-14515,15316],[-7807,2907],[-9534,24340],[-13441,19101],[-23600,11852],[-16672,38351],[-24298,16045],[-3628,9143],[-2362,35820],[5579,31954],[7225,14048]],[[354711,730715],[11695,-2157],[6716,2204]],[[373122,730762],[3077,-1679],[1499,-819],[42384,-23509]],[[420082,704755],[-1825,-34709]],[[418257,670046],[-10921,-45437]],[[407336,624609],[-12689,-21260]],[[394647,603349],[-15691,-12449]],[[449863,809304],[29,-26],[17592,-5356]],[[467484,803922],[-10207,-2599],[-9551,-5277],[-1113,-1318]],[[446613,794728],[-5579,75],[-8248,-2048],[-7341,-4341],[-7084,-8302],[-17910,-25304]],[[396905,749800],[-3129,-4421],[-8057,-8342],[-8021,-4772],[-4576,-1503]],[[424575,746043],[-3445,-21364],[-1048,-19924]],[[394647,603349],[-10539,-10775]],[[394647,603349],[10960,14066]],[[405607,617415],[-4656,-19372]],[[407336,624609],[-1729,-7194]],[[446613,794728],[-11494,-13627],[-4501,-13119],[-3375,-15396]],[[418257,670046],[7576,31518]],[[425833,701564],[8142,-4517]],[[433975,697047],[60235,-33411]],[[420082,704755],[5751,-3191]],[[435587,742149],[-6033,-25097]],[[429554,717052],[-3721,-15488]],[[429554,717052],[9368,5458]],[[438922,722510],[-4947,-25463]],[[446613,794728],[1517,-23]],[[448130,794705],[-10859,-44887]],[[439722,744963],[-1242,-5488],[442,-16965]],[[432451,922475],[24247,-15148],[71986,24206],[30701,5112]],[[559385,936645],[-11911,-50569],[-16052,-68152]],[[531422,817924],[-10212,-5924],[-7657,-3855]],[[513553,808145],[-27879,-854],[-13281,-2121],[-4909,-1248]],[[573444,996340],[-1685,-7155],[-12374,-52540]],[[432451,922475],[45132,21926],[95861,51939]],[[438922,722510],[26235,15290],[43262,-15240]],[[448130,794705],[36699,-9048]],[[484829,785657],[-12646,-510],[-17301,-10062],[-8539,-8583],[-4470,-9518]],[[441873,756984],[-1371,-6804]],[[441873,756984],[13137,14155],[11127,7102],[21032,1579],[7718,-7004],[18653,2071],[8757,4866]],[[484829,785657],[12081,-1035],[12936,1029],[779,411]],[[467484,803922],[3,-2],[18957,-5772],[8756,754],[18353,9243]],[[531422,817924],[9072,5262]],[[540494,823186],[17148,-9511]],[[557642,813675],[-5665,-3761]],[[551977,809914],[-1109,-737]],[[550868,809177],[-818,2383],[-18159,-12593]],[[525994,794879],[-4293,-2976],[-5560,-2931]],[[526297,645568],[41028,-23227]],[[567325,622341],[-37761,-158190]],[[498330,661195],[14063,-7493]],[[525159,791331],[-8500,-2627]],[[597865,750286],[-30540,-127945]],[[531276,796342],[19592,12835]],[[551977,809914],[17878,-9939]],[[569855,799975],[-6726,-8023],[-20517,-11640],[-10757,3354],[-2918,-2147]],[[569855,799975],[35148,-19539]],[[605003,780436],[-5462,-22024]],[[567325,622341],[91588,-51853]],[[666511,543981],[0,-4]],[[666511,543977],[-10649,-27927]],[[655862,516050],[-6675,-8206],[-34020,-8758],[-17400,-72689]],[[573444,996340],[5770,3127],[604,532],[-10608,-44654]],[[568248,951295],[-2963,-12474]],[[565285,938821],[-5607,-23605]],[[559678,915216],[-21552,-90718],[2368,-1312]],[[559678,915216],[8325,-12073],[11214,18653],[20875,-29197]],[[600092,892599],[7440,-10408],[32190,-26117],[19934,-98949],[-8430,4672]],[[651226,761797],[-14922,35127],[2700,3426],[-6721,13471],[-9905,10197],[-14591,13299],[-13844,6617],[-7036,3363],[-21251,-5354],[-19890,-12931],[694,-2369],[-5966,-3457]],[[651226,761797],[-2173,1206]],[[649053,763003],[-13479,7471]],[[635574,770474],[-12153,28778],[-21768,19467],[-11613,5630],[-3240,1571],[-15383,-3100],[-13775,-9145]],[[635574,770474],[-77932,43201]],[[565285,938821],[45246,-11827],[15854,4947],[17065,-18905],[27230,-15695]],[[670680,897341],[4030,-2324]],[[674710,895017],[30534,-17600]],[[705244,877417],[-8122,-34128]],[[697122,843289],[-75014,71016],[-22016,-21706]],[[582996,955879],[30858,-10493],[17455,5617],[24709,-13702],[14662,-39960]],[[646738,671164],[4300,-59578],[3473,-21011],[4402,-20087]],[[655862,516050],[4820,-71445]],[[660682,444605],[-14258,25324],[-23968,-7736],[-5136,-11110],[1486,-23196],[7696,-5587],[691,-12192]],[[605003,780436],[27310,-15182]],[[632313,765254],[-4190,-16802],[12028,-25746],[7140,-10851],[-4399,-15867]],[[697122,843289],[-22595,-94946]],[[674527,748343],[-6315,-26532]],[[668212,721811],[-16986,39986]],[[632313,765254],[7145,-3971]],[[639458,761283],[26796,-63452]],[[666254,697831],[3272,-43499]],[[649053,763003],[-559,-2073],[9295,-29987],[7396,-18940],[1069,-14172]],[[639458,761283],[-3884,9191]],[[669970,647059],[-827,-26693],[225,-24021],[2509,-20269],[2932,-10332]],[[674809,565744],[-1335,-3500]],[[668212,721811],[26611,-62644]],[[694823,659167],[4656,-12421],[1402,-9246]],[[700881,637500],[625,-6164]],[[701506,631336],[49,-492]],[[701555,630844],[-6597,-12245],[-198,-526]],[[694760,618073],[-1172,12024]],[[692388,639127],[-194,1381],[-4334,11382],[-1618,-1393],[-19988,47334]],[[664399,389512],[-3717,55093]],[[666511,543977],[16669,-25657],[13700,-19432],[8297,-11540],[29523,-23378],[24312,-15288],[5957,-4421]],[[764969,444261],[-21574,-85613]],[[743395,358648],[-3004,-11922]],[[740391,346726],[-28893,16267],[-1606,-6782]],[[709892,356211],[-12876,-54374],[-44773,28769],[12656,51495]],[[674809,565744],[4125,-10827]],[[678934,554917],[7590,-19236],[13829,-24856]],[[700353,510825],[8490,-10062],[2553,-2291]],[[711396,498472],[9539,-8560],[16079,-9270],[17817,-13614],[6805,-4284]],[[761636,462744],[6895,-4341]],[[768531,458403],[-3562,-14142]],[[674527,748343],[68518,-39014],[3815,-2172],[67824,-38620]],[[814684,668537],[-12539,-15605],[-64879,12961],[-42443,-6726]],[[694760,618073],[0,-1],[-2,-2]],[[694758,618070],[-19949,-52326]],[[674710,895017],[14338,7867],[6179,-16740],[10017,-8727]],[[694758,618070],[6208,-63700],[595,786],[4719,-20235],[7677,-15061],[13274,-10413],[13486,-1420],[42725,9544]],[[783442,517571],[-3422,-13580]],[[780020,503991],[-11489,-45588]],[[761636,462744],[-3750,5272],[-19811,14499],[-26679,15957]],[[700353,510825],[-21419,44092]],[[701555,630844],[7554,-74590],[-651,-94],[3314,-15453],[6963,-13989],[10592,-7386],[11144,-1437],[44355,10320]],[[784826,528215],[7821,1822]],[[792647,530037],[55257,12859],[-130,1767],[7437,1827]],[[855211,546490],[38417,9435]],[[893628,555925],[13760,3378]],[[907388,559303],[14819,3640],[250,52]],[[922457,562995],[1535,320]],[[923992,563315],[26706,5569]],[[950698,568884],[-2946,-13115]],[[947752,555769],[-61103,-13700],[-38143,-11186]],[[848506,530883],[71,1237],[-65135,-14549]],[[814684,668537],[49012,-25897]],[[863696,642640],[-30673,-26260],[-29128,-16672],[-38375,-45691],[-13008,-5009],[-8455,15520],[-19691,7368],[-4436,6587],[1679,26301],[-4918,22514],[-15810,10202]],[[888029,629041],[-32818,-82551]],[[792647,530037],[-534,5400],[-7821,-1821],[534,-5401]],[[701506,631336],[12178,-8119],[4503,-22174],[-2986,-23052],[6831,-12435],[19413,-6366],[8016,-15577],[6452,-1557],[12392,7889],[36875,42834],[30564,17904],[9614,6165],[3946,2764],[18973,17788],[19752,-8359]],[[740391,346726],[59430,-33461]],[[799821,313265],[38374,-21604]],[[838195,291661],[38369,-21604],[191,830]],[[876755,270887],[2382,-8881]],[[879137,262006],[-76586,41893],[-63934,35783],[-28725,16529]],[[743395,358648],[20795,-11173],[20311,86881]],[[784501,434356],[10916,-1456],[10062,-605]],[[805479,432295],[-5658,-119030]],[[764969,444261],[11988,-8897],[7544,-1008]],[[768531,458403],[10741,-6761],[8659,-2298]],[[787931,449344],[8064,-2141],[17752,1972],[18138,6214],[12630,5911]],[[844515,461300],[-1121,-19559]],[[843394,441741],[-8229,-4402]],[[835165,437339],[-10313,-2890]],[[824852,434449],[-9755,-2733],[-9618,579]],[[780020,503991],[40384,-22758],[-32473,-31889]],[[848506,530883],[-3991,-69583]],[[824852,434449],[441,-33903],[12902,-108885]],[[814684,668537],[37704,157511]],[[852388,826048],[30054,-79813],[42979,-29466]],[[925421,716769],[-3363,562],[-9970,-16446],[-19928,-4592],[-3294,-8113],[10611,-17970],[-1323,-6166],[5746,-5221],[1542,-7152],[-6381,-13101],[-11149,-3246],[-18532,9825],[-5684,-2509]],[[835165,437339],[467,-2071],[7601,3674]],[[843233,438942],[-2038,-35530],[35560,-132525]],[[843394,441741],[-161,-2799]],[[843233,438942],[9095,4395]],[[852328,443337],[24427,-172450]],[[843394,441741],[11131,5955]],[[854525,447696],[498,-3058],[-2695,-1301]],[[844515,461300],[12454,5828],[27012,11850]],[[883981,478978],[9553,-13978]],[[893534,465000],[-8603,-3816]],[[884931,461184],[-7401,-3284]],[[877530,457900],[-14761,-6547]],[[862769,451353],[-8244,-3657]],[[848506,530883],[35475,-51905]],[[947752,555769],[-13191,-55176]],[[934561,500593],[-21828,-4957],[-28752,-16658]],[[862769,451353],[24150,-136113]],[[886919,315240],[-10164,-44353]],[[938529,776864],[-3587,-28477],[1986,-22671],[-2619,-10432],[-8888,1485]],[[852388,826048],[67675,-38640],[18466,-10544]],[[888029,629041],[12983,3452]],[[901012,632493],[11698,3110]],[[912710,635603],[5308,-39541]],[[918018,596062],[-7596,-2083]],[[910422,593979],[-2525,22612],[-21107,-3848],[6838,-56818]],[[877530,457900],[21093,-91586]],[[898623,366314],[-11704,-51074]],[[898623,366314],[7979,34814]],[[906602,401128],[7680,33515]],[[914282,434643],[3343,-4892]],[[917625,429751],[-1138,-4761]],[[916487,424990],[-37350,-162984]],[[884931,461184],[21671,-60056]],[[916487,424990],[3281,-2367],[-40631,-160617]],[[934561,500593],[-5013,-20970]],[[929548,479623],[-9868,-3023],[-26146,-11600]],[[893534,465000],[20748,-30357]],[[910422,593979],[-7104,-1949],[4070,-32727]],[[929548,479623],[-10985,-45949]],[[918563,433674],[-938,-3923]],[[935814,709483],[-17345,-13033],[-11685,-27225],[6133,-5739]],[[912917,663486],[-207,-27883]],[[901012,632493],[8754,18592],[-4448,14418],[-1795,1647],[1107,5756],[-9746,14579],[823,1832],[18739,5800],[8830,13796],[12538,570]],[[918018,596062],[4439,-33067]],[[935814,709483],[2102,-326]],[[937916,709157],[8080,-1255]],[[945996,707902],[-31535,-45862]],[[914461,662040],[-1544,1446]],[[914461,662040],[-236,-23216],[25008,-198]],[[939233,638626],[269,-2726]],[[939502,635900],[-25066,280],[3877,-29559]],[[918313,606621],[5679,-43306]],[[945996,707902],[6591,-18012]],[[952587,689890],[-16463,-19746],[3109,-31518]],[[939502,635900],[24336,-11463]],[[963838,624437],[-12809,-54156]],[[951029,570281],[-6023,42242],[-26693,-5902]],[[951029,570281],[-331,-1397]],[[963838,624437],[6697,28312]],[[970535,652749],[17988,76049]],[[988523,728798],[4068,17198]],[[992591,745996],[7408,-4230],[-35374,-147963],[-1316,-5506],[-36451,-152478],[-8295,-2145]],[[952587,689890],[5877,-12162]],[[958464,677728],[136,-3334],[2804,-16144]],[[961404,658250],[9131,-5501]],[[937916,709157],[3795,16263],[-1696,22625],[4153,25600]],[[944168,773645],[292,-169],[28152,-16072],[2005,-1144],[7600,-4340]],[[982217,751920],[-17055,-10257]],[[965162,741663],[-10554,5811],[-8612,-39572]],[[965162,741663],[-7905,-34556],[928,-22599]],[[958185,684508],[279,-6780]],[[965162,741663],[5658,-3116]],[[970820,738547],[-6870,-29771],[510,-32107],[2526,-16576]],[[966986,660093],[-7459,15435]],[[959527,675528],[-464,4265],[-878,4715]],[[959527,675528],[-1063,2200]],[[959527,675528],[1877,-17278]],[[966986,660093],[-5582,-1843]],[[966986,660093],[3549,-7344]],[[970820,738547],[17703,-9749]],[[982217,751920],[487,-279]],[[982704,751641],[-11884,-13094]],[[982704,751641],[5764,-3291],[4123,-2354]],[[938529,776864],[475,-272],[5164,-2947]]],"bbox":[-443.957,70.449,2044.51,1693.041],"transform":{"scale":[0.0024884694884694885,0.0016225936225936226],"translate":[-443.957,70.449]}}
