{"type":"Topology","objects":{"01207-4601-29.featurecollection":{"type":"GeometryCollection","geometries":[{"type":"Polygon","arcs":[[0,1,2,3,4,5]],"properties":{"市区町村名":"帯広市","大字名":"西二十条南","丁目名":"２丁目","小字名":null,"地番":"9-1","精度区分":null,"座標系":"任意座標系"}},{"type":"Polygon","arcs":[[6,7,-4,8]],"properties":{"市区町村名":"帯広市","大字名":"西二十条南","丁目名":"２丁目","小字名":null,"地番":"9-2","精度区分":null,"座標系":"任意座標系"}},{"type":"Polygon","arcs":[[9,-9,-3,10]],"properties":{"市区町村名":"帯広市","大字名":"西二十条南","丁目名":"２丁目","小字名":null,"地番":"9-3","精度区分":null,"座標系":"任意座標系"}},{"type":"Polygon","arcs":[[11,12,13,14]],"properties":{"市区町村名":"帯広市","大字名":"西二十条南","丁目名":"２丁目","小字名":null,"地番":"9-4","精度区分":null,"座標系":"任意座標系"}},{"type":"Polygon","arcs":[[15,-12,16,17]],"properties":{"市区町村名":"帯広市","大字名":"西二十条南","丁目名":"２丁目","小字名":null,"地番":"9-5","精度区分":null,"座標系":"任意座標系"}},{"type":"Polygon","arcs":[[18,19,-13,20]],"properties":{"市区町村名":"帯広市","大字名":"西二十条南","丁目名":"２丁目","小字名":null,"地番":"9-6","精度区分":null,"座標系":"任意座標系"}},{"type":"Polygon","arcs":[[21,22,-21,-16]],"properties":{"市区町村名":"帯広市","大字名":"西二十条南","丁目名":"２丁目","小字名":null,"地番":"9-7","精度区分":null,"座標系":"任意座標系"}},{"type":"Polygon","arcs":[[23,24,25,-19]],"properties":{"市区町村名":"帯広市","大字名":"西二十条南","丁目名":"２丁目","小字名":null,"地番":"9-8","精度区分":null,"座標系":"任意座標系"}},{"type":"Polygon","arcs":[[26,27,-24,-23]],"properties":{"市区町村名":"帯広市","大字名":"西二十条南","丁目名":"２丁目","小字名":null,"地番":"9-9","精度区分":null,"座標系":"任意座標系"}},{"type":"Polygon","arcs":[[28,29,30,-25]],"properties":{"市区町村名":"帯広市","大字名":"西二十条南","丁目名":"２丁目","小字名":null,"地番":"9-10","精度区分":null,"座標系":"任意座標系"}},{"type":"Polygon","arcs":[[31,-29,-28,32]],"properties":{"市区町村名":"帯広市","大字名":"西二十条南","丁目名":"２丁目","小字名":null,"地番":"9-11","精度区分":null,"座標系":"任意座標系"}},{"type":"Polygon","arcs":[[33,34,35,36,-1,37]],"properties":{"市区町村名":"帯広市","大字名":"西二十条南","丁目名":"２丁目","小字名":null,"地番":"9-12","精度区分":null,"座標系":"任意座標系"}},{"type":"Polygon","arcs":[[38,39,-2,-37,40]],"properties":{"市区町村名":"帯広市","大字名":"西二十条南","丁目名":"２丁目","小字名":null,"地番":"9-13","精度区分":null,"座標系":"任意座標系"}},{"type":"Polygon","arcs":[[41,42,-41,-36]],"properties":{"市区町村名":"帯広市","大字名":"西二十条南","丁目名":"２丁目","小字名":null,"地番":"9-14","精度区分":null,"座標系":"任意座標系"}},{"type":"Polygon","arcs":[[43,44,-34,45]],"properties":{"市区町村名":"帯広市","大字名":"西二十条南","丁目名":"２丁目","小字名":null,"地番":"9-15","精度区分":null,"座標系":"任意座標系"}},{"type":"Polygon","arcs":[[46,47,-42,-35,-45]],"properties":{"市区町村名":"帯広市","大字名":"西二十条南","丁目名":"２丁目","小字名":null,"地番":"9-25","精度区分":null,"座標系":"任意座標系"}},{"type":"Polygon","arcs":[[48,-44,49,50]],"properties":{"市区町村名":"帯広市","大字名":"西二十条南","丁目名":"２丁目","小字名":null,"地番":"9-26","精度区分":null,"座標系":"任意座標系"}},{"type":"Polygon","arcs":[[51,-47,-49,52]],"properties":{"市区町村名":"帯広市","大字名":"西二十条南","丁目名":"２丁目","小字名":null,"地番":"9-27","精度区分":null,"座標系":"任意座標系"}},{"type":"Polygon","arcs":[[53,-51,54,55]],"properties":{"市区町村名":"帯広市","大字名":"西二十条南","丁目名":"２丁目","小字名":null,"地番":"9-28","精度区分":null,"座標系":"任意座標系"}},{"type":"Polygon","arcs":[[56,57,-53,-54]],"properties":{"市区町村名":"帯広市","大字名":"西二十条南","丁目名":"２丁目","小字名":null,"地番":"9-29","精度区分":null,"座標系":"任意座標系"}},{"type":"Polygon","arcs":[[58,-56,59,60]],"properties":{"市区町村名":"帯広市","大字名":"西二十条南","丁目名":"２丁目","小字名":null,"地番":"9-30","精度区分":null,"座標系":"任意座標系"}},{"type":"Polygon","arcs":[[61,62,-57,-59]],"properties":{"市区町村名":"帯広市","大字名":"西二十条南","丁目名":"２丁目","小字名":null,"地番":"9-31","精度区分":null,"座標系":"任意座標系"}},{"type":"Polygon","arcs":[[63,-61,64,65]],"properties":{"市区町村名":"帯広市","大字名":"西二十条南","丁目名":"２丁目","小字名":null,"地番":"9-32","精度区分":null,"座標系":"任意座標系"}},{"type":"Polygon","arcs":[[66,67,-62,-64]],"properties":{"市区町村名":"帯広市","大字名":"西二十条南","丁目名":"２丁目","小字名":null,"地番":"9-33","精度区分":null,"座標系":"任意座標系"}},{"type":"Polygon","arcs":[[68,-66,69,70]],"properties":{"市区町村名":"帯広市","大字名":"西二十条南","丁目名":"２丁目","小字名":null,"地番":"9-34","精度区分":null,"座標系":"任意座標系"}},{"type":"Polygon","arcs":[[71,-67,-69,72]],"properties":{"市区町村名":"帯広市","大字名":"西二十条南","丁目名":"２丁目","小字名":null,"地番":"9-35","精度区分":null,"座標系":"任意座標系"}},{"type":"Polygon","arcs":[[-15,73,-7,74]],"properties":{"市区町村名":"帯広市","大字名":"西二十条南","丁目名":"２丁目","小字名":null,"地番":"9-36","精度区分":null,"座標系":"任意座標系"}},{"type":"Polygon","arcs":[[-17,-75,-10,75]],"properties":{"市区町村名":"帯広市","大字名":"西二十条南","丁目名":"２丁目","小字名":null,"地番":"9-37","精度区分":null,"座標系":"任意座標系"}},{"type":"Polygon","arcs":[[76,77,78,79]],"properties":{"市区町村名":"帯広市","大字名":"西二十条南","丁目名":"２丁目","小字名":null,"地番":"10-1","精度区分":null,"座標系":"任意座標系"}},{"type":"Polygon","arcs":[[80,81,-79,82]],"properties":{"市区町村名":"帯広市","大字名":"西二十条南","丁目名":"２丁目","小字名":null,"地番":"10-2","精度区分":null,"座標系":"任意座標系"}},{"type":"Polygon","arcs":[[83,84,-78,85]],"properties":{"市区町村名":"帯広市","大字名":"西二十条南","丁目名":"２丁目","小字名":null,"地番":"10-3","精度区分":null,"座標系":"任意座標系"}},{"type":"Polygon","arcs":[[86,-83,-85,87]],"properties":{"市区町村名":"帯広市","大字名":"西二十条南","丁目名":"２丁目","小字名":null,"地番":"10-4","精度区分":null,"座標系":"任意座標系"}},{"type":"Polygon","arcs":[[88,89,-84,90]],"properties":{"市区町村名":"帯広市","大字名":"西二十条南","丁目名":"２丁目","小字名":null,"地番":"10-5","精度区分":null,"座標系":"任意座標系"}},{"type":"Polygon","arcs":[[91,92,-88,-90]],"properties":{"市区町村名":"帯広市","大字名":"西二十条南","丁目名":"２丁目","小字名":null,"地番":"10-6","精度区分":null,"座標系":"任意座標系"}},{"type":"Polygon","arcs":[[93,-89,94,95]],"properties":{"市区町村名":"帯広市","大字名":"西二十条南","丁目名":"２丁目","小字名":null,"地番":"10-7","精度区分":null,"座標系":"任意座標系"}},{"type":"Polygon","arcs":[[96,97,-92,-94]],"properties":{"市区町村名":"帯広市","大字名":"西二十条南","丁目名":"２丁目","小字名":null,"地番":"10-8","精度区分":null,"座標系":"任意座標系"}},{"type":"Polygon","arcs":[[98,99,-96,100]],"properties":{"市区町村名":"帯広市","大字名":"西二十条南","丁目名":"２丁目","小字名":null,"地番":"10-9","精度区分":null,"座標系":"任意座標系"}},{"type":"Polygon","arcs":[[101,102,-97,-100]],"properties":{"市区町村名":"帯広市","大字名":"西二十条南","丁目名":"２丁目","小字名":null,"地番":"10-10","精度区分":null,"座標系":"任意座標系"}},{"type":"Polygon","arcs":[[103,104,-99,105]],"properties":{"市区町村名":"帯広市","大字名":"西二十条南","丁目名":"２丁目","小字名":null,"地番":"10-11","精度区分":null,"座標系":"任意座標系"}},{"type":"Polygon","arcs":[[106,-102,-105,107]],"properties":{"市区町村名":"帯広市","大字名":"西二十条南","丁目名":"２丁目","小字名":null,"地番":"10-12","精度区分":null,"座標系":"任意座標系"}},{"type":"Polygon","arcs":[[108,109,-104,110]],"properties":{"市区町村名":"帯広市","大字名":"西二十条南","丁目名":"２丁目","小字名":null,"地番":"10-13","精度区分":null,"座標系":"任意座標系"}},{"type":"Polygon","arcs":[[111,-108,-110,112]],"properties":{"市区町村名":"帯広市","大字名":"西二十条南","丁目名":"２丁目","小字名":null,"地番":"10-14","精度区分":null,"座標系":"任意座標系"}},{"type":"Polygon","arcs":[[113,-109,114,115]],"properties":{"市区町村名":"帯広市","大字名":"西二十条南","丁目名":"２丁目","小字名":null,"地番":"10-15","精度区分":null,"座標系":"任意座標系"}},{"type":"Polygon","arcs":[[116,117,-113,-114]],"properties":{"市区町村名":"帯広市","大字名":"西二十条南","丁目名":"２丁目","小字名":null,"地番":"10-16","精度区分":null,"座標系":"任意座標系"}},{"type":"Polygon","arcs":[[118,119,-116,120]],"properties":{"市区町村名":"帯広市","大字名":"西二十条南","丁目名":"２丁目","小字名":null,"地番":"10-17","精度区分":null,"座標系":"任意座標系"}},{"type":"Polygon","arcs":[[121,122,-117,-120]],"properties":{"市区町村名":"帯広市","大字名":"西二十条南","丁目名":"２丁目","小字名":null,"地番":"10-18","精度区分":null,"座標系":"任意座標系"}},{"type":"Polygon","arcs":[[123,124,-119,125]],"properties":{"市区町村名":"帯広市","大字名":"西二十条南","丁目名":"２丁目","小字名":null,"地番":"10-19","精度区分":null,"座標系":"任意座標系"}},{"type":"Polygon","arcs":[[126,127,-122,-125]],"properties":{"市区町村名":"帯広市","大字名":"西二十条南","丁目名":"２丁目","小字名":null,"地番":"10-20","精度区分":null,"座標系":"任意座標系"}},{"type":"Polygon","arcs":[[128,129,130,131]],"properties":{"市区町村名":"帯広市","大字名":"西二十条南","丁目名":"２丁目","小字名":null,"地番":"11-1","精度区分":null,"座標系":"任意座標系"}},{"type":"Polygon","arcs":[[132,133,134,135]],"properties":{"市区町村名":"帯広市","大字名":"西二十条南","丁目名":"２丁目","小字名":null,"地番":"11-9","精度区分":null,"座標系":"任意座標系"}},{"type":"Polygon","arcs":[[136,137,138,-133,139]],"properties":{"市区町村名":"帯広市","大字名":"西二十条南","丁目名":"２丁目","小字名":null,"地番":"11-10","精度区分":null,"座標系":"任意座標系"}},{"type":"Polygon","arcs":[[140,141,142,143,144]],"properties":{"市区町村名":"帯広市","大字名":"西二十条南","丁目名":"２丁目","小字名":null,"地番":"11-11","精度区分":null,"座標系":"任意座標系"}},{"type":"Polygon","arcs":[[145,146,147,148,-143]],"properties":{"市区町村名":"帯広市","大字名":"西二十条南","丁目名":"２丁目","小字名":null,"地番":"11-12","精度区分":null,"座標系":"任意座標系"}},{"type":"Polygon","arcs":[[149,150,-146,-142]],"properties":{"市区町村名":"帯広市","大字名":"西二十条南","丁目名":"２丁目","小字名":null,"地番":"11-14","精度区分":null,"座標系":"任意座標系"}},{"type":"Polygon","arcs":[[-148,151,-137,152]],"properties":{"市区町村名":"帯広市","大字名":"西二十条南","丁目名":"２丁目","小字名":null,"地番":"11-15","精度区分":null,"座標系":"任意座標系"}},{"type":"Polygon","arcs":[[153,154,155,-130]],"properties":{"市区町村名":"帯広市","大字名":"西二十条南","丁目名":"２丁目","小字名":null,"地番":"11-16","精度区分":null,"座標系":"任意座標系"}},{"type":"Polygon","arcs":[[156,-129,157,158]],"properties":{"市区町村名":"帯広市","大字名":"西二十条南","丁目名":"２丁目","小字名":null,"地番":"11-17","精度区分":null,"座標系":"任意座標系"}},{"type":"Polygon","arcs":[[159,-154,-157,160]],"properties":{"市区町村名":"帯広市","大字名":"西二十条南","丁目名":"２丁目","小字名":null,"地番":"11-18","精度区分":null,"座標系":"任意座標系"}},{"type":"Polygon","arcs":[[161,162,-159,163]],"properties":{"市区町村名":"帯広市","大字名":"西二十条南","丁目名":"２丁目","小字名":null,"地番":"11-19","精度区分":null,"座標系":"任意座標系"}},{"type":"Polygon","arcs":[[164,165,-161,-163]],"properties":{"市区町村名":"帯広市","大字名":"西二十条南","丁目名":"２丁目","小字名":null,"地番":"11-20","精度区分":null,"座標系":"任意座標系"}},{"type":"Polygon","arcs":[[166,-162,167,168]],"properties":{"市区町村名":"帯広市","大字名":"西二十条南","丁目名":"２丁目","小字名":null,"地番":"11-21","精度区分":null,"座標系":"任意座標系"}},{"type":"Polygon","arcs":[[169,-165,-167,170]],"properties":{"市区町村名":"帯広市","大字名":"西二十条南","丁目名":"２丁目","小字名":null,"地番":"11-22","精度区分":null,"座標系":"任意座標系"}},{"type":"Polygon","arcs":[[-134,171,-169,172]],"properties":{"市区町村名":"帯広市","大字名":"西二十条南","丁目名":"２丁目","小字名":null,"地番":"11-23","精度区分":null,"座標系":"任意座標系"}},{"type":"Polygon","arcs":[[-139,173,-171,-172]],"properties":{"市区町村名":"帯広市","大字名":"西二十条南","丁目名":"２丁目","小字名":null,"地番":"11-24","精度区分":null,"座標系":"任意座標系"}},{"type":"Polygon","arcs":[[-149,-153,-140,-136,174,-144]],"properties":{"市区町村名":"帯広市","大字名":"西二十条南","丁目名":"２丁目","小字名":null,"地番":"11-25","精度区分":null,"座標系":"任意座標系"}},{"type":"Polygon","arcs":[[175,176,177,178]],"properties":{"市区町村名":"帯広市","大字名":"西二十条南","丁目名":"２丁目","小字名":null,"地番":"12-1","精度区分":null,"座標系":"任意座標系"}},{"type":"Polygon","arcs":[[179,180,181,-177]],"properties":{"市区町村名":"帯広市","大字名":"西二十条南","丁目名":"２丁目","小字名":null,"地番":"12-2","精度区分":null,"座標系":"任意座標系"}},{"type":"Polygon","arcs":[[182,-176,183,184]],"properties":{"市区町村名":"帯広市","大字名":"西二十条南","丁目名":"２丁目","小字名":null,"地番":"12-3","精度区分":null,"座標系":"任意座標系"}},{"type":"Polygon","arcs":[[185,186,-180,-183]],"properties":{"市区町村名":"帯広市","大字名":"西二十条南","丁目名":"２丁目","小字名":null,"地番":"12-4","精度区分":null,"座標系":"任意座標系"}},{"type":"Polygon","arcs":[[187,-185,188,189]],"properties":{"市区町村名":"帯広市","大字名":"西二十条南","丁目名":"２丁目","小字名":null,"地番":"12-5","精度区分":null,"座標系":"任意座標系"}},{"type":"Polygon","arcs":[[190,-186,-188,191]],"properties":{"市区町村名":"帯広市","大字名":"西二十条南","丁目名":"２丁目","小字名":null,"地番":"12-6","精度区分":null,"座標系":"任意座標系"}},{"type":"Polygon","arcs":[[192,193,-190,194]],"properties":{"市区町村名":"帯広市","大字名":"西二十条南","丁目名":"２丁目","小字名":null,"地番":"12-7","精度区分":null,"座標系":"任意座標系"}},{"type":"Polygon","arcs":[[195,196,-192,-194]],"properties":{"市区町村名":"帯広市","大字名":"西二十条南","丁目名":"２丁目","小字名":null,"地番":"12-8","精度区分":null,"座標系":"任意座標系"}},{"type":"Polygon","arcs":[[197,-193,198,199]],"properties":{"市区町村名":"帯広市","大字名":"西二十条南","丁目名":"２丁目","小字名":null,"地番":"12-9","精度区分":null,"座標系":"任意座標系"}},{"type":"Polygon","arcs":[[200,201,-196,-198]],"properties":{"市区町村名":"帯広市","大字名":"西二十条南","丁目名":"２丁目","小字名":null,"地番":"12-10","精度区分":null,"座標系":"任意座標系"}},{"type":"Polygon","arcs":[[202,203,-200,204]],"properties":{"市区町村名":"帯広市","大字名":"西二十条南","丁目名":"２丁目","小字名":null,"地番":"12-11","精度区分":null,"座標系":"任意座標系"}},{"type":"Polygon","arcs":[[205,-201,-204,206]],"properties":{"市区町村名":"帯広市","大字名":"西二十条南","丁目名":"２丁目","小字名":null,"地番":"12-12","精度区分":null,"座標系":"任意座標系"}},{"type":"Polygon","arcs":[[207,208,-203,209]],"properties":{"市区町村名":"帯広市","大字名":"西二十条南","丁目名":"２丁目","小字名":null,"地番":"12-13","精度区分":null,"座標系":"任意座標系"}},{"type":"Polygon","arcs":[[210,-207,-209,211]],"properties":{"市区町村名":"帯広市","大字名":"西二十条南","丁目名":"２丁目","小字名":null,"地番":"12-14","精度区分":null,"座標系":"任意座標系"}},{"type":"Polygon","arcs":[[212,-208,213,214]],"properties":{"市区町村名":"帯広市","大字名":"西二十条南","丁目名":"２丁目","小字名":null,"地番":"12-15","精度区分":null,"座標系":"任意座標系"}},{"type":"Polygon","arcs":[[215,-212,-213,216]],"properties":{"市区町村名":"帯広市","大字名":"西二十条南","丁目名":"２丁目","小字名":null,"地番":"12-16","精度区分":null,"座標系":"任意座標系"}},{"type":"Polygon","arcs":[[217,-215,218,219]],"properties":{"市区町村名":"帯広市","大字名":"西二十条南","丁目名":"２丁目","小字名":null,"地番":"12-17","精度区分":null,"座標系":"任意座標系"}},{"type":"Polygon","arcs":[[220,221,-217,-218]],"properties":{"市区町村名":"帯広市","大字名":"西二十条南","丁目名":"２丁目","小字名":null,"地番":"12-18","精度区分":null,"座標系":"任意座標系"}},{"type":"Polygon","arcs":[[222,223,-220,224]],"properties":{"市区町村名":"帯広市","大字名":"西二十条南","丁目名":"２丁目","小字名":null,"地番":"12-19","精度区分":null,"座標系":"任意座標系"}},{"type":"Polygon","arcs":[[225,226,-221,-224]],"properties":{"市区町村名":"帯広市","大字名":"西二十条南","丁目名":"２丁目","小字名":null,"地番":"12-20","精度区分":null,"座標系":"任意座標系"}},{"type":"Polygon","arcs":[[227,228,-223,229]],"properties":{"市区町村名":"帯広市","大字名":"西二十条南","丁目名":"２丁目","小字名":null,"地番":"12-21","精度区分":null,"座標系":"任意座標系"}},{"type":"Polygon","arcs":[[230,-226,-229,231]],"properties":{"市区町村名":"帯広市","大字名":"西二十条南","丁目名":"２丁目","小字名":null,"地番":"12-22","精度区分":null,"座標系":"任意座標系"}},{"type":"Polygon","arcs":[[232,233,234]],"properties":{"市区町村名":"帯広市","大字名":"西二十条南","丁目名":"２丁目","小字名":null,"地番":"13-1","精度区分":null,"座標系":"任意座標系"}},{"type":"Polygon","arcs":[[235,236,237,-233]],"properties":{"市区町村名":"帯広市","大字名":"西二十条南","丁目名":"２丁目","小字名":null,"地番":"13-2","精度区分":null,"座標系":"任意座標系"}},{"type":"Polygon","arcs":[[238,239,-237,240]],"properties":{"市区町村名":"帯広市","大字名":"西二十条南","丁目名":"２丁目","小字名":null,"地番":"13-3","精度区分":null,"座標系":"任意座標系"}},{"type":"Polygon","arcs":[[241,242,243,-239]],"properties":{"市区町村名":"帯広市","大字名":"西二十条南","丁目名":"２丁目","小字名":null,"地番":"13-4","精度区分":null,"座標系":"任意座標系"}},{"type":"Polygon","arcs":[[244,245,246,-243]],"properties":{"市区町村名":"帯広市","大字名":"西二十条南","丁目名":"２丁目","小字名":null,"地番":"13-5","精度区分":null,"座標系":"任意座標系"}},{"type":"Polygon","arcs":[[247,248,-246,249]],"properties":{"市区町村名":"帯広市","大字名":"西二十条南","丁目名":"２丁目","小字名":null,"地番":"13-6","精度区分":null,"座標系":"任意座標系"}},{"type":"Polygon","arcs":[[250,251,252,-248]],"properties":{"市区町村名":"帯広市","大字名":"西二十条南","丁目名":"２丁目","小字名":null,"地番":"13-7","精度区分":null,"座標系":"任意座標系"}},{"type":"Polygon","arcs":[[253,254,255,256]],"properties":{"市区町村名":"帯広市","大字名":"西二十条南","丁目名":"２丁目","小字名":null,"地番":"14-1","精度区分":null,"座標系":"任意座標系"}},{"type":"Polygon","arcs":[[257,258,259,-255]],"properties":{"市区町村名":"帯広市","大字名":"西二十条南","丁目名":"２丁目","小字名":null,"地番":"14-2","精度区分":null,"座標系":"任意座標系"}},{"type":"Polygon","arcs":[[260,-254,261,262]],"properties":{"市区町村名":"帯広市","大字名":"西二十条南","丁目名":"２丁目","小字名":null,"地番":"14-3","精度区分":null,"座標系":"任意座標系"}},{"type":"Polygon","arcs":[[263,-258,-261,264]],"properties":{"市区町村名":"帯広市","大字名":"西二十条南","丁目名":"２丁目","小字名":null,"地番":"14-4","精度区分":null,"座標系":"任意座標系"}},{"type":"Polygon","arcs":[[265,-263,266,267]],"properties":{"市区町村名":"帯広市","大字名":"西二十条南","丁目名":"２丁目","小字名":null,"地番":"14-5","精度区分":null,"座標系":"任意座標系"}},{"type":"Polygon","arcs":[[268,269,-265,-266]],"properties":{"市区町村名":"帯広市","大字名":"西二十条南","丁目名":"２丁目","小字名":null,"地番":"14-6","精度区分":null,"座標系":"任意座標系"}},{"type":"Polygon","arcs":[[270,271,-268,272]],"properties":{"市区町村名":"帯広市","大字名":"西二十条南","丁目名":"２丁目","小字名":null,"地番":"14-7","精度区分":null,"座標系":"任意座標系"}},{"type":"Polygon","arcs":[[273,274,-269,-272,275]],"properties":{"市区町村名":"帯広市","大字名":"西二十条南","丁目名":"２丁目","小字名":null,"地番":"14-8","精度区分":null,"座標系":"任意座標系"}},{"type":"Polygon","arcs":[[276,277,278,279]],"properties":{"市区町村名":"帯広市","大字名":"西二十条南","丁目名":"２丁目","小字名":null,"地番":"14-9","精度区分":null,"座標系":"任意座標系"}},{"type":"Polygon","arcs":[[280,-274,-277,281]],"properties":{"市区町村名":"帯広市","大字名":"西二十条南","丁目名":"２丁目","小字名":null,"地番":"14-10","精度区分":null,"座標系":"任意座標系"}},{"type":"Polygon","arcs":[[282,283,-280,284]],"properties":{"市区町村名":"帯広市","大字名":"西二十条南","丁目名":"２丁目","小字名":null,"地番":"14-11","精度区分":null,"座標系":"任意座標系"}},{"type":"Polygon","arcs":[[285,-282,-284,286]],"properties":{"市区町村名":"帯広市","大字名":"西二十条南","丁目名":"２丁目","小字名":null,"地番":"14-12","精度区分":null,"座標系":"任意座標系"}},{"type":"Polygon","arcs":[[287,288,-283,289]],"properties":{"市区町村名":"帯広市","大字名":"西二十条南","丁目名":"２丁目","小字名":null,"地番":"14-13","精度区分":null,"座標系":"任意座標系"}},{"type":"Polygon","arcs":[[290,291,-287,-289]],"properties":{"市区町村名":"帯広市","大字名":"西二十条南","丁目名":"２丁目","小字名":null,"地番":"14-14","精度区分":null,"座標系":"任意座標系"}},{"type":"Polygon","arcs":[[-278,-276,-271,292]],"properties":{"市区町村名":"帯広市","大字名":"西二十条南","丁目名":"２丁目","小字名":null,"地番":"14-15","精度区分":null,"座標系":"任意座標系"}},{"type":"Polygon","arcs":[[293,294,295,296]],"properties":{"市区町村名":"帯広市","大字名":"西二十条南","丁目名":"２丁目","小字名":null,"地番":"15-1","精度区分":null,"座標系":"任意座標系"}},{"type":"Polygon","arcs":[[297,298,299,-295]],"properties":{"市区町村名":"帯広市","大字名":"西二十条南","丁目名":"２丁目","小字名":null,"地番":"15-2","精度区分":null,"座標系":"任意座標系"}},{"type":"Polygon","arcs":[[300,301,-294,302]],"properties":{"市区町村名":"帯広市","大字名":"西二十条南","丁目名":"２丁目","小字名":null,"地番":"15-3","精度区分":null,"座標系":"任意座標系"}},{"type":"Polygon","arcs":[[303,-298,-302,304]],"properties":{"市区町村名":"帯広市","大字名":"西二十条南","丁目名":"２丁目","小字名":null,"地番":"15-4","精度区分":null,"座標系":"任意座標系"}},{"type":"Polygon","arcs":[[305,306,-301,307]],"properties":{"市区町村名":"帯広市","大字名":"西二十条南","丁目名":"２丁目","小字名":null,"地番":"15-5","精度区分":null,"座標系":"任意座標系"}},{"type":"Polygon","arcs":[[308,-305,-307,309]],"properties":{"市区町村名":"帯広市","大字名":"西二十条南","丁目名":"２丁目","小字名":null,"地番":"15-6","精度区分":null,"座標系":"任意座標系"}},{"type":"Polygon","arcs":[[310,-306,311,312]],"properties":{"市区町村名":"帯広市","大字名":"西二十条南","丁目名":"２丁目","小字名":null,"地番":"15-7","精度区分":null,"座標系":"任意座標系"}},{"type":"Polygon","arcs":[[313,-310,-311,314]],"properties":{"市区町村名":"帯広市","大字名":"西二十条南","丁目名":"２丁目","小字名":null,"地番":"15-8","精度区分":null,"座標系":"任意座標系"}},{"type":"Polygon","arcs":[[315,-313,316,317]],"properties":{"市区町村名":"帯広市","大字名":"西二十条南","丁目名":"２丁目","小字名":null,"地番":"15-9","精度区分":null,"座標系":"任意座標系"}},{"type":"Polygon","arcs":[[318,-315,-316,319]],"properties":{"市区町村名":"帯広市","大字名":"西二十条南","丁目名":"２丁目","小字名":null,"地番":"15-10","精度区分":null,"座標系":"任意座標系"}},{"type":"Polygon","arcs":[[320,-318,321,322]],"properties":{"市区町村名":"帯広市","大字名":"西二十条南","丁目名":"２丁目","小字名":null,"地番":"15-11","精度区分":null,"座標系":"任意座標系"}},{"type":"Polygon","arcs":[[323,324,-320,-321]],"properties":{"市区町村名":"帯広市","大字名":"西二十条南","丁目名":"２丁目","小字名":null,"地番":"15-12","精度区分":null,"座標系":"任意座標系"}},{"type":"Polygon","arcs":[[325,-323,326,327]],"properties":{"市区町村名":"帯広市","大字名":"西二十条南","丁目名":"２丁目","小字名":null,"地番":"15-13","精度区分":null,"座標系":"任意座標系"}},{"type":"Polygon","arcs":[[328,-324,-326,329]],"properties":{"市区町村名":"帯広市","大字名":"西二十条南","丁目名":"２丁目","小字名":null,"地番":"15-14","精度区分":null,"座標系":"任意座標系"}},{"type":"Polygon","arcs":[[330,331,-328,332]],"properties":{"市区町村名":"帯広市","大字名":"西二十条南","丁目名":"２丁目","小字名":null,"地番":"15-15","精度区分":null,"座標系":"任意座標系"}},{"type":"Polygon","arcs":[[333,-330,-332,334]],"properties":{"市区町村名":"帯広市","大字名":"西二十条南","丁目名":"２丁目","小字名":null,"地番":"15-16","精度区分":null,"座標系":"任意座標系"}},{"type":"Polygon","arcs":[[335,336,-331,337]],"properties":{"市区町村名":"帯広市","大字名":"西二十条南","丁目名":"２丁目","小字名":null,"地番":"15-17","精度区分":null,"座標系":"任意座標系"}},{"type":"Polygon","arcs":[[338,-335,-337,339]],"properties":{"市区町村名":"帯広市","大字名":"西二十条南","丁目名":"２丁目","小字名":null,"地番":"15-18","精度区分":null,"座標系":"任意座標系"}},{"type":"Polygon","arcs":[[340,341,-336,342]],"properties":{"市区町村名":"帯広市","大字名":"西二十条南","丁目名":"２丁目","小字名":null,"地番":"15-19","精度区分":null,"座標系":"任意座標系"}},{"type":"Polygon","arcs":[[343,344,-340,-342]],"properties":{"市区町村名":"帯広市","大字名":"西二十条南","丁目名":"２丁目","小字名":null,"地番":"15-20","精度区分":null,"座標系":"任意座標系"}},{"type":"Polygon","arcs":[[345,346,-341,347]],"properties":{"市区町村名":"帯広市","大字名":"西二十条南","丁目名":"２丁目","小字名":null,"地番":"15-21","精度区分":null,"座標系":"任意座標系"}},{"type":"Polygon","arcs":[[348,349,-344,-347]],"properties":{"市区町村名":"帯広市","大字名":"西二十条南","丁目名":"２丁目","小字名":null,"地番":"15-22","精度区分":null,"座標系":"任意座標系"}},{"type":"Polygon","arcs":[[350,351,352,353]],"properties":{"市区町村名":"帯広市","大字名":"西二十条南","丁目名":"２丁目","小字名":null,"地番":"16-1","精度区分":null,"座標系":"任意座標系"}},{"type":"Polygon","arcs":[[354,-351,355,356]],"properties":{"市区町村名":"帯広市","大字名":"西二十条南","丁目名":"２丁目","小字名":null,"地番":"16-2","精度区分":null,"座標系":"任意座標系"}},{"type":"Polygon","arcs":[[357,358,359,-352]],"properties":{"市区町村名":"帯広市","大字名":"西二十条南","丁目名":"２丁目","小字名":null,"地番":"16-3","精度区分":null,"座標系":"任意座標系"}},{"type":"Polygon","arcs":[[360,361,-358,-355]],"properties":{"市区町村名":"帯広市","大字名":"西二十条南","丁目名":"２丁目","小字名":null,"地番":"16-4","精度区分":null,"座標系":"任意座標系"}},{"type":"Polygon","arcs":[[362,363,364,365]],"properties":{"市区町村名":"帯広市","大字名":"西二十条南","丁目名":"２丁目","小字名":null,"地番":"16-7","精度区分":null,"座標系":"任意座標系"}},{"type":"Polygon","arcs":[[366,-363,367,368]],"properties":{"市区町村名":"帯広市","大字名":"西二十条南","丁目名":"２丁目","小字名":null,"地番":"16-8","精度区分":null,"座標系":"任意座標系"}},{"type":"Polygon","arcs":[[369,370,-364,371]],"properties":{"市区町村名":"帯広市","大字名":"西二十条南","丁目名":"２丁目","小字名":null,"地番":"16-9","精度区分":null,"座標系":"任意座標系"}},{"type":"Polygon","arcs":[[372,-372,-367,373]],"properties":{"市区町村名":"帯広市","大字名":"西二十条南","丁目名":"２丁目","小字名":null,"地番":"16-10","精度区分":null,"座標系":"任意座標系"}},{"type":"Polygon","arcs":[[374,375,376,377]],"properties":{"市区町村名":"帯広市","大字名":"西二十条南","丁目名":"２丁目","小字名":null,"地番":"17-1","精度区分":null,"座標系":"任意座標系"}},{"type":"Polygon","arcs":[[378,379,380,-376]],"properties":{"市区町村名":"帯広市","大字名":"西二十条南","丁目名":"２丁目","小字名":null,"地番":"17-2","精度区分":null,"座標系":"任意座標系"}},{"type":"Polygon","arcs":[[381,-375,382,383]],"properties":{"市区町村名":"帯広市","大字名":"西二十条南","丁目名":"２丁目","小字名":null,"地番":"17-3","精度区分":null,"座標系":"任意座標系"}},{"type":"Polygon","arcs":[[384,385,-379,-382]],"properties":{"市区町村名":"帯広市","大字名":"西二十条南","丁目名":"２丁目","小字名":null,"地番":"17-4","精度区分":null,"座標系":"任意座標系"}},{"type":"Polygon","arcs":[[386,-384,387,388]],"properties":{"市区町村名":"帯広市","大字名":"西二十条南","丁目名":"２丁目","小字名":null,"地番":"17-5","精度区分":null,"座標系":"任意座標系"}},{"type":"Polygon","arcs":[[389,-385,-387,390]],"properties":{"市区町村名":"帯広市","大字名":"西二十条南","丁目名":"２丁目","小字名":null,"地番":"17-6","精度区分":null,"座標系":"任意座標系"}},{"type":"Polygon","arcs":[[391,-389,392,393]],"properties":{"市区町村名":"帯広市","大字名":"西二十条南","丁目名":"２丁目","小字名":null,"地番":"17-7","精度区分":null,"座標系":"任意座標系"}},{"type":"Polygon","arcs":[[394,-391,-392,395]],"properties":{"市区町村名":"帯広市","大字名":"西二十条南","丁目名":"２丁目","小字名":null,"地番":"17-8","精度区分":null,"座標系":"任意座標系"}},{"type":"Polygon","arcs":[[396,-394,397,398]],"properties":{"市区町村名":"帯広市","大字名":"西二十条南","丁目名":"２丁目","小字名":null,"地番":"17-9","精度区分":null,"座標系":"任意座標系"}},{"type":"Polygon","arcs":[[399,400,-396,-397]],"properties":{"市区町村名":"帯広市","大字名":"西二十条南","丁目名":"２丁目","小字名":null,"地番":"17-10","精度区分":null,"座標系":"任意座標系"}},{"type":"Polygon","arcs":[[401,-399,402,403]],"properties":{"市区町村名":"帯広市","大字名":"西二十条南","丁目名":"２丁目","小字名":null,"地番":"17-11","精度区分":null,"座標系":"任意座標系"}},{"type":"Polygon","arcs":[[404,405,-400,-402]],"properties":{"市区町村名":"帯広市","大字名":"西二十条南","丁目名":"２丁目","小字名":null,"地番":"17-12","精度区分":null,"座標系":"任意座標系"}},{"type":"Polygon","arcs":[[406,407,-404,408]],"properties":{"市区町村名":"帯広市","大字名":"西二十条南","丁目名":"２丁目","小字名":null,"地番":"17-13","精度区分":null,"座標系":"任意座標系"}},{"type":"Polygon","arcs":[[409,410,-405,-408]],"properties":{"市区町村名":"帯広市","大字名":"西二十条南","丁目名":"２丁目","小字名":null,"地番":"17-14","精度区分":null,"座標系":"任意座標系"}},{"type":"Polygon","arcs":[[411,412,413,414]],"properties":{"市区町村名":"帯広市","大字名":"西二十条南","丁目名":"２丁目","小字名":null,"地番":"18-1","精度区分":null,"座標系":"任意座標系"}},{"type":"Polygon","arcs":[[415,416,-413,417]],"properties":{"市区町村名":"帯広市","大字名":"西二十条南","丁目名":"２丁目","小字名":null,"地番":"18-2","精度区分":null,"座標系":"任意座標系"}},{"type":"Polygon","arcs":[[418,419,-412,420]],"properties":{"市区町村名":"帯広市","大字名":"西二十条南","丁目名":"２丁目","小字名":null,"地番":"18-3","精度区分":null,"座標系":"任意座標系"}},{"type":"Polygon","arcs":[[421,-418,-420,422]],"properties":{"市区町村名":"帯広市","大字名":"西二十条南","丁目名":"２丁目","小字名":null,"地番":"18-4","精度区分":null,"座標系":"任意座標系"}},{"type":"Polygon","arcs":[[423,-419,424,425]],"properties":{"市区町村名":"帯広市","大字名":"西二十条南","丁目名":"２丁目","小字名":null,"地番":"18-5","精度区分":null,"座標系":"任意座標系"}},{"type":"Polygon","arcs":[[426,-423,-424,427]],"properties":{"市区町村名":"帯広市","大字名":"西二十条南","丁目名":"２丁目","小字名":null,"地番":"18-6","精度区分":null,"座標系":"任意座標系"}},{"type":"Polygon","arcs":[[428,-426,429,430]],"properties":{"市区町村名":"帯広市","大字名":"西二十条南","丁目名":"２丁目","小字名":null,"地番":"18-7","精度区分":null,"座標系":"任意座標系"}},{"type":"Polygon","arcs":[[431,432,-428,-429]],"properties":{"市区町村名":"帯広市","大字名":"西二十条南","丁目名":"２丁目","小字名":null,"地番":"18-8","精度区分":null,"座標系":"任意座標系"}},{"type":"Polygon","arcs":[[433,-431,434,435]],"properties":{"市区町村名":"帯広市","大字名":"西二十条南","丁目名":"２丁目","小字名":null,"地番":"18-9","精度区分":null,"座標系":"任意座標系"}},{"type":"Polygon","arcs":[[436,-432,-434,437]],"properties":{"市区町村名":"帯広市","大字名":"西二十条南","丁目名":"２丁目","小字名":null,"地番":"18-10","精度区分":null,"座標系":"任意座標系"}},{"type":"Polygon","arcs":[[438,-436,439,440]],"properties":{"市区町村名":"帯広市","大字名":"西二十条南","丁目名":"２丁目","小字名":null,"地番":"18-11","精度区分":null,"座標系":"任意座標系"}},{"type":"Polygon","arcs":[[441,-438,-439,442]],"properties":{"市区町村名":"帯広市","大字名":"西二十条南","丁目名":"２丁目","小字名":null,"地番":"18-12","精度区分":null,"座標系":"任意座標系"}},{"type":"Polygon","arcs":[[443,444,-441,445]],"properties":{"市区町村名":"帯広市","大字名":"西二十条南","丁目名":"２丁目","小字名":null,"地番":"18-13","精度区分":null,"座標系":"任意座標系"}},{"type":"Polygon","arcs":[[446,-443,-445,447]],"properties":{"市区町村名":"帯広市","大字名":"西二十条南","丁目名":"２丁目","小字名":null,"地番":"18-14","精度区分":null,"座標系":"任意座標系"}},{"type":"Polygon","arcs":[[448,449,450,451]],"properties":{"市区町村名":"帯広市","大字名":"西二十条南","丁目名":"２丁目","小字名":null,"地番":"19-1","精度区分":null,"座標系":"任意座標系"}},{"type":"Polygon","arcs":[[452,453,-450,454]],"properties":{"市区町村名":"帯広市","大字名":"西二十条南","丁目名":"２丁目","小字名":null,"地番":"19-2","精度区分":null,"座標系":"任意座標系"}},{"type":"Polygon","arcs":[[455,-449,456,457]],"properties":{"市区町村名":"帯広市","大字名":"西二十条南","丁目名":"２丁目","小字名":null,"地番":"19-3","精度区分":null,"座標系":"任意座標系"}},{"type":"Polygon","arcs":[[458,459,-455,-456]],"properties":{"市区町村名":"帯広市","大字名":"西二十条南","丁目名":"２丁目","小字名":null,"地番":"19-4","精度区分":null,"座標系":"任意座標系"}},{"type":"Polygon","arcs":[[460,461,-458,462]],"properties":{"市区町村名":"帯広市","大字名":"西二十条南","丁目名":"２丁目","小字名":null,"地番":"19-5","精度区分":null,"座標系":"任意座標系"}},{"type":"Polygon","arcs":[[463,464,-459,-462]],"properties":{"市区町村名":"帯広市","大字名":"西二十条南","丁目名":"２丁目","小字名":null,"地番":"19-6","精度区分":null,"座標系":"任意座標系"}},{"type":"Polygon","arcs":[[465,466,-461,467]],"properties":{"市区町村名":"帯広市","大字名":"西二十条南","丁目名":"２丁目","小字名":null,"地番":"19-7","精度区分":null,"座標系":"任意座標系"}},{"type":"Polygon","arcs":[[468,469,-464,-467]],"properties":{"市区町村名":"帯広市","大字名":"西二十条南","丁目名":"２丁目","小字名":null,"地番":"19-8","精度区分":null,"座標系":"任意座標系"}},{"type":"Polygon","arcs":[[470,471,472,473]],"properties":{"市区町村名":"帯広市","大字名":"西二十条南","丁目名":"２丁目","小字名":null,"地番":"20-1","精度区分":null,"座標系":"任意座標系"}},{"type":"Polygon","arcs":[[474,475,-472,476]],"properties":{"市区町村名":"帯広市","大字名":"西二十条南","丁目名":"２丁目","小字名":null,"地番":"20-2","精度区分":null,"座標系":"任意座標系"}},{"type":"Polygon","arcs":[[477,478,-471,479]],"properties":{"市区町村名":"帯広市","大字名":"西二十条南","丁目名":"２丁目","小字名":null,"地番":"20-3","精度区分":null,"座標系":"任意座標系"}},{"type":"Polygon","arcs":[[480,481,-477,-479]],"properties":{"市区町村名":"帯広市","大字名":"西二十条南","丁目名":"２丁目","小字名":null,"地番":"20-4","精度区分":null,"座標系":"任意座標系"}},{"type":"Polygon","arcs":[[482,483,-478,484]],"properties":{"市区町村名":"帯広市","大字名":"西二十条南","丁目名":"２丁目","小字名":null,"地番":"20-5","精度区分":null,"座標系":"任意座標系"}},{"type":"Polygon","arcs":[[485,-481,-484,486]],"properties":{"市区町村名":"帯広市","大字名":"西二十条南","丁目名":"２丁目","小字名":null,"地番":"20-6","精度区分":null,"座標系":"任意座標系"}},{"type":"Polygon","arcs":[[487,-483,488,489]],"properties":{"市区町村名":"帯広市","大字名":"西二十条南","丁目名":"２丁目","小字名":null,"地番":"20-7","精度区分":null,"座標系":"任意座標系"}},{"type":"Polygon","arcs":[[490,491,-487,-488]],"properties":{"市区町村名":"帯広市","大字名":"西二十条南","丁目名":"２丁目","小字名":null,"地番":"20-8","精度区分":null,"座標系":"任意座標系"}},{"type":"Polygon","arcs":[[492,493,-490,494]],"properties":{"市区町村名":"帯広市","大字名":"西二十条南","丁目名":"２丁目","小字名":null,"地番":"20-9","精度区分":null,"座標系":"任意座標系"}},{"type":"Polygon","arcs":[[495,496,-491,-494]],"properties":{"市区町村名":"帯広市","大字名":"西二十条南","丁目名":"２丁目","小字名":null,"地番":"20-10","精度区分":null,"座標系":"任意座標系"}},{"type":"Polygon","arcs":[[497,-493,498,499]],"properties":{"市区町村名":"帯広市","大字名":"西二十条南","丁目名":"２丁目","小字名":null,"地番":"20-11","精度区分":null,"座標系":"任意座標系"}},{"type":"Polygon","arcs":[[500,-496,-498,501]],"properties":{"市区町村名":"帯広市","大字名":"西二十条南","丁目名":"２丁目","小字名":null,"地番":"20-12","精度区分":null,"座標系":"任意座標系"}},{"type":"Polygon","arcs":[[502,-500,503,504]],"properties":{"市区町村名":"帯広市","大字名":"西二十条南","丁目名":"２丁目","小字名":null,"地番":"20-13","精度区分":null,"座標系":"任意座標系"}},{"type":"Polygon","arcs":[[505,-502,-503,506]],"properties":{"市区町村名":"帯広市","大字名":"西二十条南","丁目名":"２丁目","小字名":null,"地番":"20-14","精度区分":null,"座標系":"任意座標系"}},{"type":"Polygon","arcs":[[507,508,-505,509]],"properties":{"市区町村名":"帯広市","大字名":"西二十条南","丁目名":"２丁目","小字名":null,"地番":"20-15","精度区分":null,"座標系":"任意座標系"}},{"type":"Polygon","arcs":[[510,-507,-509,511]],"properties":{"市区町村名":"帯広市","大字名":"西二十条南","丁目名":"２丁目","小字名":null,"地番":"20-16","精度区分":null,"座標系":"任意座標系"}},{"type":"Polygon","arcs":[[512,513,-508,514]],"properties":{"市区町村名":"帯広市","大字名":"西二十条南","丁目名":"２丁目","小字名":null,"地番":"20-17","精度区分":null,"座標系":"任意座標系"}},{"type":"Polygon","arcs":[[515,-512,-514,516]],"properties":{"市区町村名":"帯広市","大字名":"西二十条南","丁目名":"２丁目","小字名":null,"地番":"20-18","精度区分":null,"座標系":"任意座標系"}},{"type":"Polygon","arcs":[[517,518,519,520]],"properties":{"市区町村名":"帯広市","大字名":"西二十条南","丁目名":"２丁目","小字名":null,"地番":"21-1","精度区分":null,"座標系":"任意座標系"}},{"type":"Polygon","arcs":[[521,522,523,524]],"properties":{"市区町村名":"帯広市","大字名":"西二十条南","丁目名":"２丁目","小字名":null,"地番":"21-2","精度区分":null,"座標系":"任意座標系"}},{"type":"Polygon","arcs":[[525,526,527,-523]],"properties":{"市区町村名":"帯広市","大字名":"西二十条南","丁目名":"２丁目","小字名":null,"地番":"21-3","精度区分":null,"座標系":"任意座標系"}},{"type":"Polygon","arcs":[[528,529,530,-527]],"properties":{"市区町村名":"帯広市","大字名":"西二十条南","丁目名":"２丁目","小字名":null,"地番":"21-4","精度区分":null,"座標系":"任意座標系"}},{"type":"Polygon","arcs":[[531,532,533,-530]],"properties":{"市区町村名":"帯広市","大字名":"西二十条南","丁目名":"２丁目","小字名":null,"地番":"21-5","精度区分":null,"座標系":"任意座標系"}},{"type":"Polygon","arcs":[[534,535,-519,536]],"properties":{"市区町村名":"帯広市","大字名":"西二十条南","丁目名":"２丁目","小字名":null,"地番":"21-6","精度区分":null,"座標系":"任意座標系"}},{"type":"Polygon","arcs":[[537,538,539,-535]],"properties":{"市区町村名":"帯広市","大字名":"西二十条南","丁目名":"２丁目","小字名":null,"地番":"21-7","精度区分":null,"座標系":"任意座標系"}},{"type":"Polygon","arcs":[[-525,540,-539,541]],"properties":{"市区町村名":"帯広市","大字名":"西二十条南","丁目名":"２丁目","小字名":null,"地番":"21-8","精度区分":null,"座標系":"任意座標系"}},{"type":"Polygon","arcs":[[542,543,544,545]],"properties":{"市区町村名":"帯広市","大字名":"西二十条南","丁目名":"２丁目","小字名":null,"地番":"22-1","精度区分":null,"座標系":"任意座標系"}},{"type":"Polygon","arcs":[[546,547,-544,548]],"properties":{"市区町村名":"帯広市","大字名":"西二十条南","丁目名":"２丁目","小字名":null,"地番":"22-2","精度区分":null,"座標系":"任意座標系"}},{"type":"Polygon","arcs":[[549,-543,550,551]],"properties":{"市区町村名":"帯広市","大字名":"西二十条南","丁目名":"２丁目","小字名":null,"地番":"22-3","精度区分":null,"座標系":"任意座標系"}},{"type":"Polygon","arcs":[[552,-549,-550,553]],"properties":{"市区町村名":"帯広市","大字名":"西二十条南","丁目名":"２丁目","小字名":null,"地番":"22-4","精度区分":null,"座標系":"任意座標系"}},{"type":"Polygon","arcs":[[554,555,-552,556]],"properties":{"市区町村名":"帯広市","大字名":"西二十条南","丁目名":"２丁目","小字名":null,"地番":"22-5","精度区分":null,"座標系":"任意座標系"}},{"type":"Polygon","arcs":[[557,558,-554,-556]],"properties":{"市区町村名":"帯広市","大字名":"西二十条南","丁目名":"２丁目","小字名":null,"地番":"22-6","精度区分":null,"座標系":"任意座標系"}},{"type":"Polygon","arcs":[[559,-555,560,561]],"properties":{"市区町村名":"帯広市","大字名":"西二十条南","丁目名":"２丁目","小字名":null,"地番":"22-7","精度区分":null,"座標系":"任意座標系"}},{"type":"Polygon","arcs":[[562,563,-558,-560]],"properties":{"市区町村名":"帯広市","大字名":"西二十条南","丁目名":"２丁目","小字名":null,"地番":"22-8","精度区分":null,"座標系":"任意座標系"}},{"type":"Polygon","arcs":[[564,565,-562,566]],"properties":{"市区町村名":"帯広市","大字名":"西二十条南","丁目名":"２丁目","小字名":null,"地番":"22-9","精度区分":null,"座標系":"任意座標系"}},{"type":"Polygon","arcs":[[567,568,-563,-566]],"properties":{"市区町村名":"帯広市","大字名":"西二十条南","丁目名":"２丁目","小字名":null,"地番":"22-10","精度区分":null,"座標系":"任意座標系"}},{"type":"Polygon","arcs":[[569,570,-565,571]],"properties":{"市区町村名":"帯広市","大字名":"西二十条南","丁目名":"２丁目","小字名":null,"地番":"22-11","精度区分":null,"座標系":"任意座標系"}},{"type":"Polygon","arcs":[[572,-568,-571,573]],"properties":{"市区町村名":"帯広市","大字名":"西二十条南","丁目名":"２丁目","小字名":null,"地番":"22-12","精度区分":null,"座標系":"任意座標系"}},{"type":"Polygon","arcs":[[574,-570,575,576]],"properties":{"市区町村名":"帯広市","大字名":"西二十条南","丁目名":"２丁目","小字名":null,"地番":"22-13","精度区分":null,"座標系":"任意座標系"}},{"type":"Polygon","arcs":[[577,-574,-575,578]],"properties":{"市区町村名":"帯広市","大字名":"西二十条南","丁目名":"２丁目","小字名":null,"地番":"22-14","精度区分":null,"座標系":"任意座標系"}},{"type":"Polygon","arcs":[[579,580,-577,581]],"properties":{"市区町村名":"帯広市","大字名":"西二十条南","丁目名":"２丁目","小字名":null,"地番":"22-15","精度区分":null,"座標系":"任意座標系"}},{"type":"Polygon","arcs":[[582,583,-579,-581]],"properties":{"市区町村名":"帯広市","大字名":"西二十条南","丁目名":"２丁目","小字名":null,"地番":"22-16","精度区分":null,"座標系":"任意座標系"}},{"type":"Polygon","arcs":[[584,585,-580,586]],"properties":{"市区町村名":"帯広市","大字名":"西二十条南","丁目名":"２丁目","小字名":null,"地番":"22-17","精度区分":null,"座標系":"任意座標系"}},{"type":"Polygon","arcs":[[587,588,-583,-586]],"properties":{"市区町村名":"帯広市","大字名":"西二十条南","丁目名":"２丁目","小字名":null,"地番":"22-18","精度区分":null,"座標系":"任意座標系"}},{"type":"Polygon","arcs":[[589,590,591,592]],"properties":{"市区町村名":"帯広市","大字名":"西二十条南","丁目名":"２丁目","小字名":null,"地番":"23-1","精度区分":null,"座標系":"任意座標系"}},{"type":"Polygon","arcs":[[593,594,595,596]],"properties":{"市区町村名":"帯広市","大字名":"西二十条南","丁目名":"２丁目","小字名":null,"地番":"23-2","精度区分":null,"座標系":"任意座標系"}},{"type":"Polygon","arcs":[[597,598,-595,599]],"properties":{"市区町村名":"帯広市","大字名":"西二十条南","丁目名":"２丁目","小字名":null,"地番":"23-3","精度区分":null,"座標系":"任意座標系"}},{"type":"Polygon","arcs":[[600,-594,601,602]],"properties":{"市区町村名":"帯広市","大字名":"西二十条南","丁目名":"２丁目","小字名":null,"地番":"23-4","精度区分":null,"座標系":"任意座標系"}},{"type":"Polygon","arcs":[[603,604,-600,-601]],"properties":{"市区町村名":"帯広市","大字名":"西二十条南","丁目名":"２丁目","小字名":null,"地番":"23-5","精度区分":null,"座標系":"任意座標系"}},{"type":"Polygon","arcs":[[605,-603,606,607]],"properties":{"市区町村名":"帯広市","大字名":"西二十条南","丁目名":"２丁目","小字名":null,"地番":"23-6","精度区分":null,"座標系":"任意座標系"}},{"type":"Polygon","arcs":[[608,609,-604,-606]],"properties":{"市区町村名":"帯広市","大字名":"西二十条南","丁目名":"２丁目","小字名":null,"地番":"23-7","精度区分":null,"座標系":"任意座標系"}},{"type":"Polygon","arcs":[[610,611,-608,612]],"properties":{"市区町村名":"帯広市","大字名":"西二十条南","丁目名":"２丁目","小字名":null,"地番":"23-8","精度区分":null,"座標系":"任意座標系"}},{"type":"Polygon","arcs":[[613,-609,-612,614]],"properties":{"市区町村名":"帯広市","大字名":"西二十条南","丁目名":"２丁目","小字名":null,"地番":"23-9","精度区分":null,"座標系":"任意座標系"}},{"type":"Polygon","arcs":[[-596,-599,615,-590,616]],"properties":{"市区町村名":"帯広市","大字名":"西二十条南","丁目名":"２丁目","小字名":null,"地番":"23-10","精度区分":null,"座標系":"任意座標系"}},{"type":"Polygon","arcs":[[617,618,619,620]],"properties":{"市区町村名":"帯広市","大字名":"西二十条南","丁目名":"２丁目","小字名":null,"地番":"24-1","精度区分":null,"座標系":"任意座標系"}},{"type":"Polygon","arcs":[[-131,-156,621,-256,-260,622,-33,-27,-22,-18,-76,-11,-40,623]],"properties":{"市区町村名":"帯広市","大字名":"西二十条南","丁目名":"２丁目","小字名":null,"地番":"24-2","精度区分":null,"座標系":"任意座標系"}},{"type":"Polygon","arcs":[[-43,-48,-52,-58,-63,-68,-72,624,-145,-175,-135,-173,-168,-164,-158,-132,-624,-39]],"properties":{"市区町村名":"帯広市","大字名":"西二十条南","丁目名":"２丁目","小字名":null,"地番":"24-3","精度区分":null,"座標系":"任意座標系"}},{"type":"Polygon","arcs":[[-160,-166,-170,-174,-138,-152,-147,-151,625,-290,-285,-279,-293,-273,-267,-262,-257,-622,-155]],"properties":{"市区町村名":"帯広市","大字名":"西二十条南","丁目名":"２丁目","小字名":null,"地番":"24-4","精度区分":null,"座標系":"任意座標系"}},{"type":"Polygon","arcs":[[-82,626,-178,-182,627,-296,-300,628,-620,629,-473,-476,630,-592,631,-588,-585,632,-448,-444,633,-410,-407,634,-291,-288,-626,-150,-141,-625,-73,-71,635,-80]],"properties":{"市区町村名":"帯広市","大字名":"西二十条南","丁目名":"２丁目","小字名":null,"地番":"24-5","精度区分":null,"座標系":"任意座標系"}},{"type":"Polygon","arcs":[[-87,-93,-98,-103,-107,-112,-118,-123,-128,636,-230,-225,-219,-214,-210,-205,-199,-195,-189,-184,-179,-627,-81]],"properties":{"市区町村名":"帯広市","大字名":"西二十条南","丁目名":"２丁目","小字名":null,"地番":"24-6","精度区分":null,"座標系":"任意座標系"}},{"type":"Polygon","arcs":[[-187,-191,-197,-202,-206,-211,-216,-222,-227,-231,637,-348,-343,-338,-333,-327,-322,-317,-312,-308,-303,-297,-628,-181]],"properties":{"市区町村名":"帯広市","大字名":"西二十条南","丁目名":"２丁目","小字名":null,"地番":"24-7","精度区分":null,"座標系":"任意座標系"}},{"type":"Polygon","arcs":[[-234,-238,-240,-244,-247,-249,-253,638,-520,-536,-540,-541,-524,-528,-531,-534,639,-615,-611,640,-517,-513,641,-469,-466,642,-349,-346,-638,-232,-228,-637,-127,-124,643]],"properties":{"市区町村名":"帯広市","大字名":"西二十条南","丁目名":"２丁目","小字名":null,"地番":"24-8","精度区分":null,"座標系":"任意座標系"}},{"type":"Polygon","arcs":[[644,-521,-639,-252]],"properties":{"市区町村名":"帯広市","大字名":"西二十条南","丁目名":"２丁目","小字名":null,"地番":"24-9","精度区分":null,"座標系":"任意座標系"}},{"type":"Polygon","arcs":[[-32,-623,-259,-264,-270,-275,-281,-286,-292,-635,-409,-403,-398,-393,-388,-383,-378,645,-356,-354,646,-30]],"properties":{"市区町村名":"帯広市","大字名":"西二十条南","丁目名":"２丁目","小字名":null,"地番":"24-10","精度区分":null,"座標系":"任意座標系"}},{"type":"Polygon","arcs":[[-304,-309,-314,-319,-325,-329,-334,-339,-345,-350,-643,-468,-463,-457,-452,647,-621,-629,-299]],"properties":{"市区町村名":"帯広市","大字名":"西二十条南","丁目名":"２丁目","小字名":null,"地番":"24-11","精度区分":null,"座標系":"任意座標系"}},{"type":"Polygon","arcs":[[-454,648,-618,-648,-451]],"properties":{"市区町村名":"帯広市","大字名":"西二十条南","丁目名":"２丁目","小字名":null,"地番":"24-12","精度区分":null,"座標系":"任意座標系"}},{"type":"Polygon","arcs":[[-386,-390,-395,-401,-406,-411,-634,-446,-440,-435,-430,-425,-421,-415,649,-380]],"properties":{"市区町村名":"帯広市","大字名":"西二十条南","丁目名":"２丁目","小字名":null,"地番":"24-14","精度区分":null,"座標系":"任意座標系"}},{"type":"Polygon","arcs":[[-649,-453,-460,-465,-470,-642,-515,-510,-504,-499,-495,-489,-485,-480,-474,-630,-619]],"properties":{"市区町村名":"帯広市","大字名":"西二十条南","丁目名":"２丁目","小字名":null,"地番":"24-15","精度区分":null,"座標系":"任意座標系"}},{"type":"Polygon","arcs":[[-373,650,-416,-422,-427,-433,-437,-442,-447,-633,-587,-582,-576,-572,-567,-561,-557,-551,-546,651,-370]],"properties":{"市区町村名":"帯広市","大字名":"西二十条南","丁目名":"２丁目","小字名":null,"地番":"24-16","精度区分":null,"座標系":"任意座標系"}},{"type":"Polygon","arcs":[[-482,-486,-492,-497,-501,-506,-511,-516,-641,-613,-607,-602,-597,-617,-593,-631,-475]],"properties":{"市区町村名":"帯広市","大字名":"西二十条南","丁目名":"２丁目","小字名":null,"地番":"24-17","精度区分":null,"座標系":"任意座標系"}},{"type":"Polygon","arcs":[[-553,-559,-564,-569,-573,-578,-584,-589,-632,-591,-616,-598,-605,-610,-614,-640,-533,652,653,-547]],"properties":{"市区町村名":"帯広市","大字名":"西二十条南","丁目名":"２丁目","小字名":null,"地番":"24-19","精度区分":null,"座標系":"任意座標系"}},{"type":"Polygon","arcs":[[654,-366,655,656]],"properties":{"市区町村名":"帯広市","大字名":"西二十条南","丁目名":"２丁目","小字名":null,"地番":"16-11","精度区分":null,"座標系":"任意座標系"}},{"type":"Polygon","arcs":[[657,-657,658,-359]],"properties":{"市区町村名":"帯広市","大字名":"西二十条南","丁目名":"２丁目","小字名":null,"地番":"16-5","精度区分":null,"座標系":"任意座標系"}},{"type":"Polygon","arcs":[[659,660,-658,-362]],"properties":{"市区町村名":"帯広市","大字名":"西二十条南","丁目名":"２丁目","小字名":null,"地番":"16-6","精度区分":null,"座標系":"任意座標系"}},{"type":"Polygon","arcs":[[661,-368,-655,-661]],"properties":{"市区町村名":"帯広市","大字名":"西二十条南","丁目名":"２丁目","小字名":null,"地番":"16-12","精度区分":null,"座標系":"任意座標系"}},{"type":"Polygon","arcs":[[-8,-74,-14,-20,-26,-31,-647,-353,-360,-659,-656,-365,-371,-652,-545,-548,-654,662,-5]],"properties":{"市区町村名":"帯広市","大字名":"西二十条南","丁目名":"２丁目","小字名":null,"地番":"24-18","精度区分":null,"座標系":"任意座標系"}},{"type":"Polygon","arcs":[[-381,-650,-414,-417,-651,-374,-369,-662,-660,-361,-357,-646,-377]],"properties":{"市区町村名":"帯広市","大字名":"西二十条南","丁目名":"２丁目","小字名":null,"地番":"24-13","精度区分":null,"座標系":"任意座標系"}}]}},"arcs":[[[117213,878972],[2437,-25721]],[[119650,853251],[5113,-54011]],[[124763,799240],[-50184,-5198]],[[74579,794042],[-50955,-5278]],[[23624,788764],[-2236,23836]],[[21388,812600],[16195,29584],[79630,36788]],[[77284,765049],[-50932,-5336]],[[26352,759713],[-2728,29051]],[[74579,794042],[2705,-28993]],[[127500,770309],[-50216,-5260]],[[124763,799240],[2737,-28931]],[[79993,736018],[5427,-58145]],[[85420,677873],[-50893,-5257]],[[34527,672616],[-5466,58217]],[[29061,730833],[50932,5185]],[[135763,683068],[-50343,-5195]],[[79993,736018],[50271,5116]],[[130264,741134],[5499,-58066]],[[90828,619921],[-50861,-5274]],[[39967,614647],[-5440,57969]],[[85420,677873],[5408,-57952]],[[135763,683068],[5485,-57914]],[[141248,625154],[-50420,-5233]],[[90828,619921],[5389,-57753]],[[96217,562168],[-50832,-5222]],[[45385,556946],[-5418,57701]],[[141248,625154],[5470,-57798]],[[146718,567356],[-50501,-5188]],[[96217,562168],[5404,-57880]],[[101621,504288],[-39834,-4210],[-12057,10562]],[[49730,510640],[-4345,46306]],[[140905,508443],[-39284,-4155]],[[146718,567356],[4345,-45893],[-10158,-13020]],[[201276,917806],[4717,-50495]],[[205993,867311],[490,-5236]],[[206483,862075],[-43299,-4398]],[[163184,857677],[-43534,-4426]],[[117213,878972],[84063,38834]],[[167931,803707],[-17607,-1819]],[[150324,801888],[-25561,-2648]],[[163184,857677],[4747,-53970]],[[206483,862075],[5028,-53852]],[[211511,808223],[-43580,-4516]],[[236052,929621],[5418,-58643]],[[241470,870978],[-35477,-3667]],[[201276,917806],[22921,10582],[11855,1233]],[[241470,870978],[5460,-59088]],[[246930,811890],[-35419,-3667]],[[277747,874728],[-36277,-3750]],[[236052,929621],[36459,3787]],[[272511,933408],[5236,-58680]],[[283025,815629],[-36095,-3739]],[[277747,874728],[5278,-59099]],[[314043,878477],[-36296,-3749]],[[272511,933408],[36124,3753]],[[308635,937161],[5408,-58684]],[[314043,878477],[5444,-59075]],[[319487,819402],[-36462,-3773]],[[350706,882265],[-36663,-3788]],[[308635,937161],[36663,3808]],[[345298,940969],[5408,-58704]],[[350706,882265],[5440,-59065]],[[356146,823200],[-36659,-3798]],[[387414,886055],[-36708,-3790]],[[345298,940969],[36747,3811]],[[382045,944780],[5369,-58725]],[[387414,886055],[5398,-59057]],[[392812,826998],[-36666,-3798]],[[425126,889952],[-37712,-3897]],[[382045,944780],[26099,2713]],[[408144,947493],[12604,-10748],[4378,-46793]],[[429571,842421],[-9710,-12622],[-27049,-2801]],[[425126,889952],[4445,-47531]],[[29061,730833],[-2709,28880]],[[77284,765049],[2709,-29031]],[[127500,770309],[2764,-29175]],[[462154,952688],[30575,3172]],[[492729,955860],[5531,-59054]],[[498260,896806],[-41429,-4330]],[[456831,892476],[-4465,47373],[9788,12839]],[[503732,838352],[-30448,-3158],[-12008,10070]],[[461276,845264],[-4445,47212]],[[498260,896806],[5472,-58454]],[[534397,960193],[5531,-59030]],[[539928,901163],[-41668,-4357]],[[492729,955860],[41668,4333]],[[545404,842682],[-41672,-4330]],[[539928,901163],[5476,-58481]],[[575528,964506],[5770,-59013]],[[581298,905493],[-41370,-4330]],[[534397,960193],[41131,4313]],[[581298,905493],[5723,-58495]],[[587021,846998],[-41617,-4316]],[[622627,909812],[-41329,-4319]],[[575528,964506],[41902,4395]],[[617430,968901],[5197,-59089]],[[622627,909812],[5158,-58580]],[[627785,851232],[-40764,-4234]],[[658259,973179],[5515,-59064]],[[663774,914115],[-41147,-4303]],[[617430,968901],[40829,4278]],[[663774,914115],[5469,-58577]],[[669243,855538],[-41458,-4306]],[[699801,977536],[5586,-59068]],[[705387,918468],[-41613,-4353]],[[658259,973179],[41542,4357]],[[710928,859867],[-41685,-4329]],[[705387,918468],[5541,-58601]],[[734111,981135],[5479,-59089]],[[739590,922046],[-34203,-3578]],[[699801,977536],[34310,3599]],[[745024,863404],[-34096,-3537]],[[739590,922046],[5434,-58642]],[[773972,925641],[-34382,-3595]],[[734111,981135],[34375,3605]],[[768486,984740],[5486,-59099]],[[773972,925641],[5446,-58666]],[[779418,866975],[-34394,-3571]],[[802935,988352],[5648,-59092]],[[808583,929260],[-34611,-3619]],[[768486,984740],[34449,3612]],[[808583,929260],[5606,-58673]],[[814189,870587],[-34771,-3612]],[[826919,990866],[11904,-10463],[4563,-47500]],[[843386,932903],[-34803,-3643]],[[802935,988352],[23984,2514]],[[843386,932903],[4497,-46872]],[[847883,886031],[-10061,-12992],[-23633,-2452]],[[185081,778508],[5211,-58838]],[[190292,719670],[-31841,-3196]],[[158451,716474],[-4504,47328]],[[153947,763802],[9662,12499],[21472,2207]],[[349419,735643],[-30545,-3066]],[[318874,732577],[-5563,59099]],[[313311,791676],[30457,3128]],[[343768,794804],[5651,-59161]],[[351986,735901],[5689,-59041]],[[357675,676860],[-33231,-3389]],[[324444,673471],[-5570,59106]],[[349419,735643],[2567,258]],[[434237,792500],[4429,-47898]],[[438666,744602],[-38580,-3870]],[[400086,740732],[-20335,-2043]],[[379751,738689],[-5629,59233]],[[374122,797922],[47773,4906],[12342,-10328]],[[400086,740732],[5573,-58982]],[[405659,681750],[-40917,-4169]],[[364742,677581],[-5531,59048]],[[359211,736629],[20540,2060]],[[438666,744602],[4414,-47751]],[[443080,696851],[-9776,-12282],[-27645,-2819]],[[364742,677581],[-7067,-721]],[[351986,735901],[7225,728]],[[190292,719670],[5258,-59342]],[[195550,660328],[-20503,-2091],[-12070,10633]],[[162977,668870],[-4526,47604]],[[222282,722884],[-31990,-3214]],[[185081,778508],[31777,3262]],[[216858,781770],[5424,-58886]],[[227741,663610],[-32191,-3282]],[[222282,722884],[5459,-59274]],[[249211,785094],[5252,-58979]],[[254463,726115],[-32181,-3231]],[[216858,781770],[32353,3324]],[[254463,726115],[5272,-59243]],[[259735,666872],[-31994,-3262]],[[286476,729326],[-32013,-3211]],[[249211,785094],[31941,3282]],[[281152,788376],[5324,-59050]],[[291809,670141],[-32074,-3269]],[[286476,729326],[5333,-59185]],[[318874,732577],[-32398,-3251]],[[281152,788376],[32159,3300]],[[324444,673471],[-32635,-3330]],[[343768,794804],[30354,3118]],[[500200,810736],[5962,-62254]],[[506162,748482],[-35441,-3527]],[[470721,744955],[-4743,50347]],[[465978,795302],[9542,12883],[24680,2551]],[[506162,748482],[5353,-55920]],[[511515,692562],[-24146,-2506],[-12461,10438]],[[474908,700494],[-4187,44461]],[[541733,752018],[-35571,-3536]],[[500200,810736],[35652,3688]],[[535852,814424],[5881,-62406]],[[541733,752018],[5255,-55775]],[[546988,696243],[-35473,-3681]],[[577209,755713],[-35476,-3695]],[[535852,814424],[35564,3670]],[[571416,818094],[5793,-62381]],[[582387,699917],[-35399,-3674]],[[577209,755713],[5178,-55796]],[[606079,821679],[5761,-62354]],[[611840,759325],[-34631,-3612]],[[571416,818094],[34663,3585]],[[611840,759325],[5155,-55817]],[[616995,703508],[-34608,-3591]],[[647417,763037],[-35577,-3712]],[[606079,821679],[35483,3667]],[[641562,825346],[5855,-62309]],[[647417,763037],[5246,-55824]],[[652663,707213],[-35668,-3705]],[[676770,828986],[5651,-62299]],[[682421,766687],[-35004,-3650]],[[641562,825346],[35208,3640]],[[687492,710805],[-34829,-3592]],[[682421,766687],[5071,-55882]],[[711654,832591],[5773,-62255]],[[717427,770336],[-35006,-3649]],[[676770,828986],[34884,3605]],[[722618,714431],[-35126,-3626]],[[717427,770336],[5191,-55905]],[[752282,773969],[-34855,-3633]],[[711654,832591],[34741,3588]],[[746395,836179],[5887,-62210]],[[757580,718039],[-34962,-3608]],[[752282,773969],[5298,-55930]],[[787567,777650],[-35285,-3681]],[[746395,836179],[35314,3653]],[[781709,839832],[5858,-62182]],[[787567,777650],[5272,-55968]],[[792839,721682],[-35259,-3643]],[[817144,843492],[5744,-62158]],[[822888,781334],[-35321,-3684]],[[781709,839832],[35435,3660]],[[822888,781334],[5175,-56019]],[[828063,725315],[-35224,-3633]],[[852727,835564],[4860,-50614]],[[857587,784950],[-34699,-3616]],[[817144,843492],[23186,2397],[12397,-10325]],[[861822,740838],[-10009,-13071],[-23750,-2452]],[[857587,784950],[4235,-44112]],[[919960,937295],[-44461,-4907]],[[875499,932388],[-4912,51092],[9986,13013]],[[880573,996493],[33435,3506],[5952,-62704]],[[919960,937295],[5933,-62426]],[[925893,874869],[-44442,-4437]],[[881451,870432],[-5952,61956]],[[931308,817881],[-44365,-4573]],[[886943,813308],[-5492,57124]],[[925893,874869],[5415,-56988]],[[931308,817881],[5411,-56959]],[[936719,760922],[-44306,-4488]],[[892413,756434],[-5470,56874]],[[936719,760922],[5440,-57276]],[[942159,703646],[-44222,-4715]],[[897937,698931],[-5524,57503]],[[947567,646731],[-44148,-4828]],[[903419,641903],[-5482,57028]],[[942159,703646],[5408,-56915]],[[947567,646731],[5469,-57575]],[[953036,589156],[-32816,-3152],[-12423,10383]],[[907797,596387],[-4378,45516]],[[204461,634143],[5579,-59102]],[[210040,575041],[-37773,-3822]],[[172267,571219],[-4576,48101]],[[167691,619320],[9951,12107],[26819,2716]],[[210040,575041],[5570,-58976]],[[215610,516065],[-26734,-2726]],[[188876,513339],[-12093,10404],[-4516,47476]],[[251045,579192],[-41005,-4151]],[[204461,634143],[41088,4155]],[[245549,638298],[5496,-59106]],[[256524,520244],[-40914,-4179]],[[251045,579192],[5479,-58948]],[[291440,583281],[-40395,-4089]],[[245549,638298],[40363,4086]],[[285912,642384],[5528,-59103]],[[291440,583281],[5511,-58910]],[[296951,524371],[-40427,-4127]],[[306121,644492],[5628,-59103]],[[311749,585389],[-20309,-2108]],[[285912,642384],[20209,2108]],[[332327,587525],[5590,-58975]],[[337917,528550],[-40966,-4179]],[[311749,585389],[20578,2136]],[[372826,591721],[-40499,-4196]],[[332327,587525],[-5605,59113]],[[326722,646638],[40538,4223]],[[367260,650861],[5566,-59140]],[[378380,532680],[-40463,-4130]],[[372826,591721],[5554,-59041]],[[408014,655109],[5499,-59165]],[[413513,595944],[-40687,-4223]],[[367260,650861],[40754,4248]],[[419012,536828],[-40632,-4148]],[[413513,595944],[5499,-59116]],[[447642,647493],[4390,-47552]],[[452032,599941],[-38519,-3997]],[[408014,655109],[27461,2863],[12167,-10479]],[[452032,599941],[4426,-47875]],[[456458,552066],[-10291,-12463],[-27155,-2775]],[[306121,644492],[20601,2146]],[[513903,665478],[6166,-61887]],[[520069,603591],[-35911,-3691]],[[484158,599900],[-4636,50405]],[[479522,650305],[10090,12649],[24291,2524]],[[520069,603591],[5541,-55617]],[[525610,547974],[-25461,-2668],[-11976,10953]],[[488173,556259],[-4015,43641]],[[549593,669190],[5881,-61959]],[[555474,607231],[-35405,-3640]],[[513903,665478],[35690,3712]],[[560749,551658],[-35139,-3684]],[[555474,607231],[5275,-55573]],[[584740,672846],[5932,-61996]],[[590672,610850],[-35198,-3619]],[[549593,669190],[35147,3656]],[[595980,555349],[-35231,-3691]],[[590672,610850],[5308,-55501]],[[625737,614448],[-35065,-3598]],[[584740,672846],[35162,3657]],[[619902,676503],[5835,-62055]],[[630944,559013],[-34964,-3664]],[[625737,614448],[5207,-55435]],[[661023,618077],[-35286,-3629]],[[619902,676503],[35344,3674]],[[655246,680177],[5777,-62100]],[[666171,562704],[-35227,-3691]],[[661023,618077],[5148,-55373]],[[696059,621679],[-35036,-3602]],[[655246,680177],[35116,3636]],[[690362,683813],[5697,-62134]],[[696059,621679],[5064,-55312]],[[701123,566367],[-34952,-3663]],[[731237,625295],[-35178,-3616]],[[690362,683813],[35198,3650]],[[725560,687463],[5677,-62168]],[[736295,569952],[-35172,-3585]],[[731237,625295],[5058,-55343]],[[761008,691137],[5647,-62203]],[[766655,628934],[-35418,-3639]],[[725560,687463],[35448,3674]],[[771687,573557],[-35392,-3605]],[[766655,628934],[5032,-55377]],[[795538,694712],[5800,-62214]],[[801338,632498],[-34683,-3564]],[[761008,691137],[34530,3575]],[[806506,577108],[-34819,-3551]],[[801338,632498],[5168,-55390]],[[830483,698331],[5927,-62227]],[[836410,636104],[-35072,-3606]],[[795538,694712],[34945,3619]],[[836410,636104],[5275,-55412]],[[841685,580692],[-35179,-3584]],[[866673,690289],[4853,-50577]],[[871526,639712],[-35116,-3608]],[[830483,698331],[24298,2520],[11892,-10562]],[[871526,639712],[4203,-43747]],[[875729,595965],[-10090,-12831],[-23954,-2442]],[[104729,470666],[4957,-53474]],[[109686,417192],[-50848,-5419]],[[58838,411773],[-3885,42172]],[[54953,453945],[10035,12615],[39741,4106]],[[160401,422593],[-50715,-5401]],[[104729,470666],[39319,4062]],[[144048,474728],[12497,-10575],[3856,-41560]],[[109686,417192],[4987,-53856]],[[114673,363336],[-50890,-5285]],[[63783,358051],[-4945,53722]],[[160401,422593],[5016,-53983]],[[165417,368610],[-50744,-5274]],[[119640,309755],[4980,-53733]],[[124620,256022],[-50958,-5181]],[[73662,250841],[-4941,53619]],[[68721,304460],[50919,5295]],[[175393,261180],[-50773,-5158]],[[119640,309755],[50751,5277]],[[170391,315032],[5002,-53852]],[[129551,202764],[-39983,-4162],[-12041,10267]],[[77527,208869],[-3865,41972]],[[124620,256022],[4931,-53258]],[[168900,206853],[-39349,-4089]],[[175393,261180],[3846,-41461],[-10339,-12866]],[[218837,482454],[5771,-62213]],[[224608,420241],[-37929,-3849]],[[186679,416392],[-4728,50913],[9922,12361]],[[191873,479666],[26964,2788]],[[224608,420241],[5832,-62814]],[[230440,357427],[-27006,-2775],[-11976,10318]],[[191458,364970],[-4779,51422]],[[265541,424395],[-40933,-4154]],[[218837,482454],[40924,4227]],[[259761,486681],[5780,-62286]],[[265541,424395],[5826,-62769]],[[271367,361626],[-40927,-4199]],[[306024,428595],[-40483,-4200]],[[259761,486681],[40463,4175]],[[300224,490856],[5800,-62261]],[[311879,365784],[-40512,-4158]],[[306024,428595],[5855,-62811]],[[346772,432821],[-40748,-4226]],[[300224,490856],[40794,4172]],[[341018,495028],[5754,-62207]],[[352582,369966],[-40703,-4182]],[[346772,432821],[5810,-62855]],[[387248,437021],[-40476,-4200]],[[341018,495028],[40463,4137]],[[381481,499165],[5767,-62144]],[[387248,437021],[5833,-62900]],[[393081,374121],[-40499,-4155]],[[427971,441244],[-40723,-4223]],[[381481,499165],[40803,4172]],[[422284,503337],[5687,-62093]],[[427971,441244],[5761,-62948]],[[433732,378296],[-40651,-4175]],[[461681,495539],[4660,-50316]],[[466341,445223],[-38370,-3979]],[[422284,503337],[27162,2774],[12235,-10572]],[[466341,445223],[4730,-51023]],[[471071,394200],[-10187,-13116],[-27152,-2788]],[[232935,330881],[5460,-58058]],[[238395,272823],[-38017,-3870]],[[200378,268953],[-4322,46553]],[[196056,315506],[9860,12632],[27019,2743]],[[243874,214603],[-27198,-2778]],[[216676,211825],[-11946,10318],[-4352,46810]],[[238395,272823],[5479,-58220]],[[273745,335036],[5402,-58062]],[[279147,276974],[-40752,-4151]],[[232935,330881],[40810,4155]],[[284564,218754],[-40690,-4151]],[[279147,276974],[5417,-58220]],[[319681,281101],[-40534,-4127]],[[273745,335036],[40528,4124]],[[314273,339160],[5408,-58059]],[[325102,222885],[-40538,-4131]],[[319681,281101],[5421,-58216]],[[360462,285252],[-40781,-4151]],[[314273,339160],[40791,4151]],[[355064,343311],[5398,-58059]],[[360462,285252],[5404,-58096]],[[365866,227156],[-40764,-4271]],[[400957,289376],[-40495,-4124]],[[355064,343311],[40573,4127]],[[395637,347438],[5320,-58062]],[[406275,231390],[-40409,-4234]],[[400957,289376],[5318,-57986]],[[441570,293510],[-40613,-4134]],[[395637,347438],[40535,4124]],[[436172,351562],[5398,-58052]],[[446952,235651],[-40677,-4261]],[[441570,293510],[5382,-57859]],[[475731,343929],[4309,-46501]],[[480040,297428],[-38470,-3918]],[[436172,351562],[27214,2771],[12345,-10404]],[[484369,250693],[-9870,-12158],[-27547,-2884]],[[480040,297428],[4329,-46735]],[[758176,538078],[5890,-62210]],[[764066,475868],[-40051,-4058]],[[724015,471810],[-4647,50151],[9821,13150]],[[729189,535111],[28987,2967]],[[769960,413586],[-28708,-2959]],[[741252,410627],[-12494,9988],[-4743,51195]],[[764066,475868],[5894,-62282]],[[805139,480026],[-41073,-4158]],[[758176,538078],[41150,4213]],[[799326,542291],[5813,-62265]],[[805139,480026],[5813,-62213]],[[810952,417813],[-40992,-4227]],[[840427,546501],[5687,-62323]],[[846114,484178],[-40975,-4152]],[[799326,542291],[41101,4210]],[[846114,484178],[5677,-62155]],[[851791,422023],[-40839,-4210]],[[881114,538984],[4802,-50779]],[[885916,488205],[-39802,-4027]],[[840427,546501],[28689,2935],[11998,-10452]],[[885916,488205],[4763,-50340]],[[890679,437865],[-10074,-12869],[-28814,-2973]],[[549843,363504],[5596,-58292]],[[555439,305212],[-43587,-4543]],[[511852,300669],[-4345,46755]],[[507507,347424],[9980,12722],[32356,3358]],[[561009,247260],[-32953,-3420],[-11959,11090]],[[516097,254930],[-4245,45739]],[[555439,305212],[5570,-57952]],[[593057,367988],[5353,-58295]],[[598410,309693],[-42971,-4481]],[[549843,363504],[43214,4484]],[[598410,309693],[5330,-58000]],[[603740,251693],[-42731,-4433]],[[636038,372452],[5518,-58268]],[[641556,314184],[-43146,-4491]],[[593057,367988],[42981,4464]],[[647051,256184],[-43311,-4491]],[[641556,314184],[5495,-58000]],[[684507,318562],[-42951,-4378]],[[636038,372452],[42968,4457]],[[679006,376909],[5501,-58347]],[[684507,318562],[5463,-57925]],[[689970,260637],[-42919,-4453]],[[721756,381345],[5635,-58412]],[[727391,322933],[-42884,-4371]],[[679006,376909],[42750,4436]],[[727391,322933],[5576,-57836]],[[732967,265097],[-42997,-4460]],[[770417,327321],[-43026,-4388]],[[721756,381345],[43098,4419]],[[764854,385764],[5563,-58443]],[[775922,269499],[-42955,-4402]],[[770417,327321],[5505,-57822]],[[813634,331723],[-43217,-4402]],[[764854,385764],[43269,4436]],[[808123,390200],[5511,-58477]],[[819081,273922],[-43159,-4423]],[[813634,331723],[5447,-57801]],[[851100,394602],[5522,-58498]],[[856622,336104],[-42988,-4381]],[[808123,390200],[42977,4402]],[[862072,278327],[-42991,-4405]],[[856622,336104],[5450,-57777]],[[895442,387481],[4439,-46965]],[[899881,340516],[-43259,-4412]],[[851100,394602],[32169,3296],[12173,-10417]],[[904242,294430],[-9902,-12797],[-32268,-3306]],[[899881,340516],[4361,-46086]],[[955586,562316],[5359,-56387]],[[960945,505929],[-44118,-4491]],[[916827,501438],[-4218,44853]],[[912609,546291],[10122,12708],[32855,3317]],[[976741,339665],[5434,-57201]],[[982175,282464],[-44345,-4288]],[[937830,278176],[-5382,57186]],[[932448,335362],[44293,4303]],[[982175,282464],[5437,-57258]],[[987612,225206],[-44403,-4227]],[[943209,220979],[-5379,57197]],[[987612,225206],[5430,-57152]],[[993042,168054],[-44471,-4103]],[[948571,163951],[-5362,57028]],[[993042,168054],[4504,-47398]],[[997546,120656],[-33179,-3402]],[[964367,117254],[-12390,10493],[-3406,36204]],[[966194,450693],[-44153,-4670]],[[922041,446023],[-5214,55415]],[[960945,505929],[5249,-55236]],[[966194,450693],[5295,-55761]],[[971489,394932],[-44222,-4457]],[[927267,390475],[-5226,55548]],[[932448,335362],[-5181,55113]],[[971489,394932],[5252,-55267]],[[155985,178409],[6671,-71274]],[[162656,107135],[-75035,-7873]],[[87621,99262],[-5522,59950]],[[82099,159212],[10132,12636],[63754,6561]],[[169337,35713],[-52565,-5415]],[[116772,30298],[-24755,21240],[-4396,47724]],[[162656,107135],[6681,-71422]],[[204253,111499],[-41597,-4364]],[[155985,178409],[41597,4282]],[[197582,182691],[6671,-71192]],[[210951,39998],[-41614,-4285]],[[204253,111499],[6698,-71501]],[[238972,186952],[6603,-71206]],[[245575,115746],[-41322,-4247]],[[197582,182691],[41390,4261]],[[245575,115746],[6626,-71501]],[[252201,44245],[-41250,-4247]],[[286930,119990],[-41355,-4244]],[[238972,186952],[41241,4248]],[[280213,191200],[6717,-71210]],[[286930,119990],[6746,-71473]],[[293676,48517],[-41475,-4272]],[[321940,195495],[6541,-71233]],[[328481,124262],[-41551,-4272]],[[280213,191200],[41727,4295]],[[328481,124262],[6565,-71484]],[[335046,52778],[-41370,-4261]],[[363333,199766],[6593,-71247]],[[369926,128519],[-41445,-4257]],[[321940,195495],[41393,4271]],[[376543,57053],[-41497,-4275]],[[369926,128519],[6617,-71466]],[[411297,132770],[-41371,-4251]],[[363333,199766],[41415,4279]],[[404748,204045],[6549,-71275]],[[417865,61307],[-41322,-4254]],[[411297,132770],[6568,-71463]],[[445992,208302],[6675,-71285]],[[452667,137017],[-41370,-4247]],[[404748,204045],[41244,4257]],[[452667,137017],[6691,-71435]],[[459358,65582],[-41493,-4275]],[[489009,200608],[5495,-59292]],[[494504,141316],[-41837,-4299]],[[445992,208302],[30785,3176],[12232,-10870]],[[494504,141316],[5538,-59772],[-10288,-12831]],[[489754,68713],[-30396,-3131]],[[669946,231256],[13427,-142793]],[[683373,88463],[-139311,-14160]],[[544062,74303],[-12137,10263],[-11140,119904]],[[520785,204470],[9679,12409],[139482,14377]],[[778200,242391],[6694,-71360]],[[784894,171031],[-42932,-4389]],[[741962,166642],[-6710,71344]],[[735252,237986],[42948,4405]],[[791605,99509],[-42916,-4409]],[[748689,95100],[-6727,71542]],[[784894,171031],[6711,-71522]],[[827982,175436],[-43088,-4405]],[[778200,242391],[42971,4409]],[[821171,246800],[6811,-71364]],[[827982,175436],[6820,-71487]],[[834802,103949],[-43197,-4440]],[[871345,179865],[-43363,-4429]],[[821171,246800],[43396,4450]],[[864567,251250],[6778,-71385]],[[871345,179865],[6785,-71470]],[[878130,108395],[-43328,-4446]],[[909009,244015],[5651,-59724]],[[914660,184291],[-43315,-4426]],[[864567,251250],[32294,3316],[12148,-10551]],[[910522,111722],[-32392,-3327]],[[914660,184291],[5621,-59470],[-9759,-13099]],[[748689,95100],[-65316,-6637]],[[669946,231256],[65306,6730]],[[681591,530236],[12235,-10741],[9542,-100693],[-9976,-13113]],[[693392,405689],[-178423,-18486],[-12157,10736]],[[502812,397939],[-9335,100972]],[[493477,498911],[10083,12989],[178031,18336]],[[162977,668870],[4714,-49550]],[[188876,513339],[-47971,-4896]],[[150324,801888],[3623,-38086]],[[429571,842421],[4666,-49921]],[[443080,696851],[4562,-49358]],[[461276,845264],[4702,-49962]],[[474908,700494],[4614,-50189]],[[488173,556259],[5304,-57348]],[[502812,397939],[4695,-50515]],[[516097,254930],[4688,-50460]],[[544062,74303],[-54308,-5590]],[[489009,200608],[-4640,50085]],[[475731,343929],[-4660,50271]],[[461681,495539],[-5223,56527]],[[408144,947493],[54010,5195]],[[847883,886031],[4844,-50467]],[[861822,740838],[4851,-50549]],[[907797,596387],[4812,-50096]],[[964367,117254],[-53845,-5532]],[[909009,244015],[-4767,50415]],[[895442,387481],[-4763,50384]],[[881114,538984],[-5385,56981]],[[826919,990866],[53654,5627]],[[953036,589156],[2550,-26840]],[[191873,479666],[-47825,-4938]],[[54953,453945],[-5223,56695]],[[729189,535111],[-47598,-4875]],[[741252,410627],[-47860,-4938]],[[196056,315506],[-4598,49464]],[[168900,206853],[47776,4972]],[[82099,159212],[-4572,49657]],[[997546,120656],[2453,-25806],[-452006,-46515],[-472530,-48335],[-2404,25797]],[[73059,25797],[43713,4501]],[[117158,336547],[2482,-26792]],[[68721,304460],[-2469,26796]],[[66252,331256],[50906,5291]],[[114673,363336],[2485,-26789]],[[66252,331256],[-2469,26795]],[[165417,368610],[2488,-26789]],[[167905,341821],[-50747,-5274]],[[167905,341821],[2486,-26789]],[[73059,25797],[-73059,784328],[21388,2475]]],"bbox":[317.477,444.483,626.103,735.723],"transform":{"scale":[0.0003086263086263086,0.00029124029124029117],"translate":[317.477,444.483]}}