{"type":"Topology","objects":{"01207-4601-22":{"type":"GeometryCollection","geometries":[{"type":"MultiPolygon","arcs":[[[0,1,2,3]]],"properties":{"筆ID":"H000000001","version":"ver1.0","座標系":"任意座標系","測地系判別":null,"地図名":"帯広市区画整理図Ｋ（５００）１５","地図番号":"K54","縮尺分母":"500","市区町村コード":"01207","市区町村名":"帯広市","大字コード":"064","丁目コード":"002","小字コード":"0000","予備コード":"00","大字名":"西十八条北","丁目名":"２丁目","小字名":null,"予備名":null,"地番":"22-1","精度区分":"甲一","座標値種別":"図上測量","筆界未定構成筆":null,"代表点緯度":468.6255,"代表点経度":138.323354366}},{"type":"MultiPolygon","arcs":[[[4,-1,5,6]]],"properties":{"筆ID":"H000000002","version":"ver1.0","座標系":"任意座標系","測地系判別":null,"地図名":"帯広市区画整理図Ｋ（５００）１５","地図番号":"K54","縮尺分母":"500","市区町村コード":"01207","市区町村名":"帯広市","大字コード":"064","丁目コード":"002","小字コード":"0000","予備コード":"00","大字名":"西十八条北","丁目名":"２丁目","小字名":null,"予備名":null,"地番":"22-2","精度区分":"甲一","座標値種別":"図上測量","筆界未定構成筆":null,"代表点緯度":471.336,"代表点経度":149.2412075}},{"type":"MultiPolygon","arcs":[[[7,-7,8,9]]],"properties":{"筆ID":"H000000003","version":"ver1.0","座標系":"任意座標系","測地系判別":null,"地図名":"帯広市区画整理図Ｋ（５００）１５","地図番号":"K54","縮尺分母":"500","市区町村コード":"01207","市区町村名":"帯広市","大字コード":"064","丁目コード":"002","小字コード":"0000","予備コード":"00","大字名":"西十八条北","丁目名":"２丁目","小字名":null,"予備名":null,"地番":"22-3","精度区分":"甲一","座標値種別":"図上測量","筆界未定構成筆":null,"代表点緯度":472.324,"代表点経度":160.364775405}},{"type":"MultiPolygon","arcs":[[[10,11,-10,12]]],"properties":{"筆ID":"H000000004","version":"ver1.0","座標系":"任意座標系","測地系判別":null,"地図名":"帯広市区画整理図Ｋ（５００）１５","地図番号":"K54","縮尺分母":"500","市区町村コード":"01207","市区町村名":"帯広市","大字コード":"064","丁目コード":"002","小字コード":"0000","予備コード":"00","大字名":"西十八条北","丁目名":"２丁目","小字名":null,"予備名":null,"地番":"22-4","精度区分":"甲一","座標値種別":"図上測量","筆界未定構成筆":null,"代表点緯度":473.2945,"代表点経度":171.382880624}},{"type":"MultiPolygon","arcs":[[[13,-11,14,15]]],"properties":{"筆ID":"H000000005","version":"ver1.0","座標系":"任意座標系","測地系判別":null,"地図名":"帯広市区画整理図Ｋ（５００）１５","地図番号":"K54","縮尺分母":"500","市区町村コード":"01207","市区町村名":"帯広市","大字コード":"064","丁目コード":"002","小字コード":"0000","予備コード":"00","大字名":"西十八条北","丁目名":"２丁目","小字名":null,"予備名":null,"地番":"22-5","精度区分":"甲一","座標値種別":"図上測量","筆界未定構成筆":null,"代表点緯度":474.2725,"代表点経度":182.420270243}},{"type":"MultiPolygon","arcs":[[[16,-16,17,18]]],"properties":{"筆ID":"H000000006","version":"ver1.0","座標系":"任意座標系","測地系判別":null,"地図名":"帯広市区画整理図Ｋ（５００）１５","地図番号":"K54","縮尺分母":"500","市区町村コード":"01207","市区町村名":"帯広市","大字コード":"064","丁目コード":"002","小字コード":"0000","予備コード":"00","大字名":"西十八条北","丁目名":"２丁目","小字名":null,"予備名":null,"地番":"22-6","精度区分":"甲一","座標値種別":"図上測量","筆界未定構成筆":null,"代表点緯度":475.2865,"代表点経度":193.457426681}},{"type":"MultiPolygon","arcs":[[[19,20,-19,21]]],"properties":{"筆ID":"H000000007","version":"ver1.0","座標系":"任意座標系","測地系判別":null,"地図名":"帯広市区画整理図Ｋ（５００）１５","地図番号":"K54","縮尺分母":"500","市区町村コード":"01207","市区町村名":"帯広市","大字コード":"064","丁目コード":"002","小字コード":"0000","予備コード":"00","大字名":"西十八条北","丁目名":"２丁目","小字名":null,"予備名":null,"地番":"22-7","精度区分":"甲一","座標値種別":"図上測量","筆界未定構成筆":null,"代表点緯度":476.2835,"代表点経度":204.352963717}},{"type":"MultiPolygon","arcs":[[[22,-20,23,24]]],"properties":{"筆ID":"H000000008","version":"ver1.0","座標系":"任意座標系","測地系判別":null,"地図名":"帯広市区画整理図Ｋ（５００）１５","地図番号":"K54","縮尺分母":"500","市区町村コード":"01207","市区町村名":"帯広市","大字コード":"064","丁目コード":"002","小字コード":"0000","予備コード":"00","大字名":"西十八条北","丁目名":"２丁目","小字名":null,"予備名":null,"地番":"22-8","精度区分":"甲一","座標値種別":"図上測量","筆界未定構成筆":null,"代表点緯度":477.261,"代表点経度":215.245196284}},{"type":"MultiPolygon","arcs":[[[25,26,-25,27]]],"properties":{"筆ID":"H000000009","version":"ver1.0","座標系":"任意座標系","測地系判別":null,"地図名":"帯広市区画整理図Ｋ（５００）１５","地図番号":"K54","縮尺分母":"500","市区町村コード":"01207","市区町村名":"帯広市","大字コード":"064","丁目コード":"002","小字コード":"0000","予備コード":"00","大字名":"西十八条北","丁目名":"２丁目","小字名":null,"予備名":null,"地番":"22-9","精度区分":"甲一","座標値種別":"図上測量","筆界未定構成筆":null,"代表点緯度":478.2205,"代表点経度":226.230597929}},{"type":"MultiPolygon","arcs":[[[28,-26,29,30]]],"properties":{"筆ID":"H000000010","version":"ver1.0","座標系":"任意座標系","測地系判別":null,"地図名":"帯広市区画整理図Ｋ（５００）１５","地図番号":"K54","縮尺分母":"500","市区町村コード":"01207","市区町村名":"帯広市","大字コード":"064","丁目コード":"002","小字コード":"0000","予備コード":"00","大字名":"西十八条北","丁目名":"２丁目","小字名":null,"予備名":null,"地番":"22-10","精度区分":"甲一","座標値種別":"図上測量","筆界未定構成筆":null,"代表点緯度":478.0545,"代表点経度":237.467919295}},{"type":"MultiPolygon","arcs":[[[31,32,-2,33]]],"properties":{"筆ID":"H000000011","version":"ver1.0","座標系":"任意座標系","測地系判別":null,"地図名":"帯広市区画整理図Ｋ（５００）１５","地図番号":"K54","縮尺分母":"500","市区町村コード":"01207","市区町村名":"帯広市","大字コード":"064","丁目コード":"002","小字コード":"0000","予備コード":"00","大字名":"西十八条北","丁目名":"２丁目","小字名":null,"予備名":null,"地番":"22-11","精度区分":"甲一","座標値種別":"図上測量","筆界未定構成筆":null,"代表点緯度":453.3135,"代表点経度":139.756516235}},{"type":"MultiPolygon","arcs":[[[34,35,-34,-5]]],"properties":{"筆ID":"H000000012","version":"ver1.0","座標系":"任意座標系","測地系判別":null,"地図名":"帯広市区画整理図Ｋ（５００）１５","地図番号":"K54","縮尺分母":"500","市区町村コード":"01207","市区町村名":"帯広市","大字コード":"064","丁目コード":"002","小字コード":"0000","予備コード":"00","大字名":"西十八条北","丁目名":"２丁目","小字名":null,"予備名":null,"地番":"22-12","精度区分":"甲一","座標値種別":"図上測量","筆界未定構成筆":null,"代表点緯度":453.137,"代表点経度":150.914997911}},{"type":"MultiPolygon","arcs":[[[36,-35,-8,37]]],"properties":{"筆ID":"H000000013","version":"ver1.0","座標系":"任意座標系","測地系判別":null,"地図名":"帯広市区画整理図Ｋ（５００）１５","地図番号":"K54","縮尺分母":"500","市区町村コード":"01207","市区町村名":"帯広市","大字コード":"064","丁目コード":"002","小字コード":"0000","予備コード":"00","大字名":"西十八条北","丁目名":"２丁目","小字名":null,"予備名":null,"地番":"22-13","精度区分":"甲一","座標値種別":"図上測量","筆界未定構成筆":null,"代表点緯度":454.14,"代表点経度":161.990837353}},{"type":"MultiPolygon","arcs":[[[38,-38,-12,39]]],"properties":{"筆ID":"H000000014","version":"ver1.0","座標系":"任意座標系","測地系判別":null,"地図名":"帯広市区画整理図Ｋ（５００）１５","地図番号":"K54","縮尺分母":"500","市区町村コード":"01207","市区町村名":"帯広市","大字コード":"064","丁目コード":"002","小字コード":"0000","予備コード":"00","大字名":"西十八条北","丁目名":"２丁目","小字名":null,"予備名":null,"地番":"22-14","精度区分":"甲一","座標値種別":"図上測量","筆界未定構成筆":null,"代表点緯度":455.121,"代表点経度":173.023136244}},{"type":"MultiPolygon","arcs":[[[40,-40,-14,41]]],"properties":{"筆ID":"H000000015","version":"ver1.0","座標系":"任意座標系","測地系判別":null,"地図名":"帯広市区画整理図Ｋ（５００）１５","地図番号":"K54","縮尺分母":"500","市区町村コード":"01207","市区町村名":"帯広市","大字コード":"064","丁目コード":"002","小字コード":"0000","予備コード":"00","大字名":"西十八条北","丁目名":"２丁目","小字名":null,"予備名":null,"地番":"22-15","精度区分":"甲一","座標値種別":"図上測量","筆界未定構成筆":null,"代表点緯度":456.097,"代表点経度":184.118493585}},{"type":"MultiPolygon","arcs":[[[42,-42,-17,43]]],"properties":{"筆ID":"H000000016","version":"ver1.0","座標系":"任意座標系","測地系判別":null,"地図名":"帯広市区画整理図Ｋ（５００）１５","地図番号":"K54","縮尺分母":"500","市区町村コード":"01207","市区町村名":"帯広市","大字コード":"064","丁目コード":"002","小字コード":"0000","予備コード":"00","大字名":"西十八条北","丁目名":"２丁目","小字名":null,"予備名":null,"地番":"22-16","精度区分":"甲一","座標値種別":"図上測量","筆界未定構成筆":null,"代表点緯度":457.075,"代表点経度":195.169182894}},{"type":"MultiPolygon","arcs":[[[44,-44,-21,45]]],"properties":{"筆ID":"H000000017","version":"ver1.0","座標系":"任意座標系","測地系判別":null,"地図名":"帯広市区画整理図Ｋ（５００）１５","地図番号":"K54","縮尺分母":"500","市区町村コード":"01207","市区町村名":"帯広市","大字コード":"064","丁目コード":"002","小字コード":"0000","予備コード":"00","大字名":"西十八条北","丁目名":"２丁目","小字名":null,"予備名":null,"地番":"22-17","精度区分":"甲一","座標値種別":"図上測量","筆界未定構成筆":null,"代表点緯度":458.078,"代表点経度":206.04448179}},{"type":"MultiPolygon","arcs":[[[46,47,-46,-23]]],"properties":{"筆ID":"H000000018","version":"ver1.0","座標系":"任意座標系","測地系判別":null,"地図名":"帯広市区画整理図Ｋ（５００）１５","地図番号":"K54","縮尺分母":"500","市区町村コード":"01207","市区町村名":"帯広市","大字コード":"064","丁目コード":"002","小字コード":"0000","予備コード":"00","大字名":"西十八条北","丁目名":"２丁目","小字名":null,"予備名":null,"地番":"22-18","精度区分":"甲一","座標値種別":"図上測量","筆界未定構成筆":null,"代表点緯度":459.0785,"代表点経度":216.968642306}},{"type":"MultiPolygon","arcs":[[[48,49,-47,-27]]],"properties":{"筆ID":"H000000019","version":"ver1.0","座標系":"任意座標系","測地系判別":null,"地図名":"帯広市区画整理図Ｋ（５００）１５","地図番号":"K54","縮尺分母":"500","市区町村コード":"01207","市区町村名":"帯広市","大字コード":"064","丁目コード":"002","小字コード":"0000","予備コード":"00","大字名":"西十八条北","丁目名":"２丁目","小字名":null,"予備名":null,"地番":"22-19","精度区分":"甲一","座標値種別":"図上測量","筆界未定構成筆":null,"代表点緯度":460.0615,"代表点経度":227.959386453}},{"type":"MultiPolygon","arcs":[[[50,51,-49,-29]]],"properties":{"筆ID":"H000000020","version":"ver1.0","座標系":"任意座標系","測地系判別":null,"地図名":"帯広市区画整理図Ｋ（５００）１５","地図番号":"K54","縮尺分母":"500","市区町村コード":"01207","市区町村名":"帯広市","大字コード":"064","丁目コード":"002","小字コード":"0000","予備コード":"00","大字名":"西十八条北","丁目名":"２丁目","小字名":null,"予備名":null,"地番":"22-20","精度区分":"甲一","座標値種別":"図上測量","筆界未定構成筆":null,"代表点緯度":462.8025,"代表点経度":238.922895725}},{"type":"MultiPolygon","arcs":[[[52,53,54,55]]],"properties":{"筆ID":"H000000021","version":"ver1.0","座標系":"任意座標系","測地系判別":null,"地図名":"帯広市区画整理図Ｋ（５００）１５","地図番号":"K54","縮尺分母":"500","市区町村コード":"01207","市区町村名":"帯広市","大字コード":"064","丁目コード":"002","小字コード":"0000","予備コード":"00","大字名":"西十八条北","丁目名":"２丁目","小字名":null,"予備名":null,"地番":"23-1","精度区分":"甲一","座標値種別":"図上測量","筆界未定構成筆":null,"代表点緯度":424.261,"代表点経度":143.128558231}},{"type":"MultiPolygon","arcs":[[[56,57,58,59]]],"properties":{"筆ID":"H000000022","version":"ver1.0","座標系":"任意座標系","測地系判別":null,"地図名":"帯広市区画整理図Ｋ（５００）１５","地図番号":"K54","縮尺分母":"500","市区町村コード":"01207","市区町村名":"帯広市","大字コード":"064","丁目コード":"002","小字コード":"0000","予備コード":"00","大字名":"西十八条北","丁目名":"２丁目","小字名":null,"予備名":null,"地番":"23-2","精度区分":"甲一","座標値種別":"図上測量","筆界未定構成筆":null,"代表点緯度":430.893,"代表点経度":192.390698708}},{"type":"MultiPolygon","arcs":[[[60,61,62,-57,63]]],"properties":{"筆ID":"H000000023","version":"ver1.0","座標系":"任意座標系","測地系判別":null,"地図名":"帯広市区画整理図Ｋ（５００）１５","地図番号":"K54","縮尺分母":"500","市区町村コード":"01207","市区町村名":"帯広市","大字コード":"064","丁目コード":"002","小字コード":"0000","予備コード":"00","大字名":"西十八条北","丁目名":"２丁目","小字名":null,"予備名":null,"地番":"23-3","精度区分":"甲一","座標値種別":"図上測量","筆界未定構成筆":null,"代表点緯度":412.1865,"代表点経度":194.193156243}},{"type":"MultiPolygon","arcs":[[[64,-60,65,66]]],"properties":{"筆ID":"H000000024","version":"ver1.0","座標系":"任意座標系","測地系判別":null,"地図名":"帯広市区画整理図Ｋ（５００）１５","地図番号":"K54","縮尺分母":"500","市区町村コード":"01207","市区町村名":"帯広市","大字コード":"064","丁目コード":"002","小字コード":"0000","予備コード":"00","大字名":"西十八条北","丁目名":"２丁目","小字名":null,"予備名":null,"地番":"23-4","精度区分":"甲一","座標値種別":"図上測量","筆界未定構成筆":null,"代表点緯度":430.799,"代表点経度":204.444278008}},{"type":"MultiPolygon","arcs":[[[67,68,-64,-65]]],"properties":{"筆ID":"H000000025","version":"ver1.0","座標系":"任意座標系","測地系判別":null,"地図名":"帯広市区画整理図Ｋ（５００）１５","地図番号":"K54","縮尺分母":"500","市区町村コード":"01207","市区町村名":"帯広市","大字コード":"064","丁目コード":"002","小字コード":"0000","予備コード":"00","大字名":"西十八条北","丁目名":"２丁目","小字名":null,"予備名":null,"地番":"23-5","精度区分":"甲一","座標値種別":"図上測量","筆界未定構成筆":null,"代表点緯度":415.4195,"代表点経度":205.935085722}},{"type":"MultiPolygon","arcs":[[[69,-53,70,71]]],"properties":{"筆ID":"H000000026","version":"ver1.0","座標系":"任意座標系","測地系判別":null,"地図名":"帯広市区画整理図Ｋ（５００）１５","地図番号":"K54","縮尺分母":"500","市区町村コード":"01207","市区町村名":"帯広市","大字コード":"064","丁目コード":"002","小字コード":"0000","予備コード":"00","大字名":"西十八条北","丁目名":"２丁目","小字名":null,"予備名":null,"地番":"23-6","精度区分":"甲一","座標値種別":"図上測量","筆界未定構成筆":null,"代表点緯度":427.071,"代表点経度":155.345992101}},{"type":"MultiPolygon","arcs":[[[72,73,-72,74]]],"properties":{"筆ID":"H000000027","version":"ver1.0","座標系":"任意座標系","測地系判別":null,"地図名":"帯広市区画整理図Ｋ（５００）１５","地図番号":"K54","縮尺分母":"500","市区町村コード":"01207","市区町村名":"帯広市","大字コード":"064","丁目コード":"002","小字コード":"0000","予備コード":"00","大字名":"西十八条北","丁目名":"２丁目","小字名":null,"予備名":null,"地番":"23-7","精度区分":"甲一","座標値種別":"図上測量","筆界未定構成筆":null,"代表点緯度":428.2005,"代表点経度":167.713015348}},{"type":"MultiPolygon","arcs":[[[-63,75,-73,76,-58]]],"properties":{"筆ID":"H000000028","version":"ver1.0","座標系":"任意座標系","測地系判別":null,"地図名":"帯広市区画整理図Ｋ（５００）１５","地図番号":"K54","縮尺分母":"500","市区町村コード":"01207","市区町村名":"帯広市","大字コード":"064","丁目コード":"002","小字コード":"0000","予備コード":"00","大字名":"西十八条北","丁目名":"２丁目","小字名":null,"予備名":null,"地番":"23-8","精度区分":"甲一","座標値種別":"図上測量","筆界未定構成筆":null,"代表点緯度":429.783,"代表点経度":180.043178487}},{"type":"MultiPolygon","arcs":[[[77,78,-54,79]]],"properties":{"筆ID":"H000000029","version":"ver1.0","座標系":"任意座標系","測地系判別":null,"地図名":"帯広市区画整理図Ｋ（５００）１５","地図番号":"K54","縮尺分母":"500","市区町村コード":"01207","市区町村名":"帯広市","大字コード":"064","丁目コード":"002","小字コード":"0000","予備コード":"00","大字名":"西十八条北","丁目名":"２丁目","小字名":null,"予備名":null,"地番":"23-9","精度区分":"甲一","座標値種別":"図上測量","筆界未定構成筆":null,"代表点緯度":408.8835,"代表点経度":144.522774343}},{"type":"MultiPolygon","arcs":[[[80,-80,-70,81]]],"properties":{"筆ID":"H000000030","version":"ver1.0","座標系":"任意座標系","測地系判別":null,"地図名":"帯広市区画整理図Ｋ（５００）１５","地図番号":"K54","縮尺分母":"500","市区町村コード":"01207","市区町村名":"帯広市","大字コード":"064","丁目コード":"002","小字コード":"0000","予備コード":"00","大字名":"西十八条北","丁目名":"２丁目","小字名":null,"予備名":null,"地番":"23-10","精度区分":"甲一","座標値種別":"図上測量","筆界未定構成筆":null,"代表点緯度":408.831,"代表点経度":157.020992673}},{"type":"MultiPolygon","arcs":[[[82,83,-82,-74]]],"properties":{"筆ID":"H000000031","version":"ver1.0","座標系":"任意座標系","測地系判別":null,"地図名":"帯広市区画整理図Ｋ（５００）１５","地図番号":"K54","縮尺分母":"500","市区町村コード":"01207","市区町村名":"帯広市","大字コード":"064","丁目コード":"002","小字コード":"0000","予備コード":"00","大字名":"西十八条北","丁目名":"２丁目","小字名":null,"予備名":null,"地番":"23-11","精度区分":"甲一","座標値種別":"図上測量","筆界未定構成筆":null,"代表点緯度":409.9505,"代表点経度":169.40963129}},{"type":"MultiPolygon","arcs":[[[84,-83,-76,-62]]],"properties":{"筆ID":"H000000032","version":"ver1.0","座標系":"任意座標系","測地系判別":null,"地図名":"帯広市区画整理図Ｋ（５００）１５","地図番号":"K54","縮尺分母":"500","市区町村コード":"01207","市区町村名":"帯広市","大字コード":"064","丁目コード":"002","小字コード":"0000","予備コード":"00","大字名":"西十八条北","丁目名":"２丁目","小字名":null,"予備名":null,"地番":"23-12","精度区分":"甲一","座標値種別":"図上測量","筆界未定構成筆":null,"代表点緯度":411.0685,"代表点経度":181.812882658}},{"type":"MultiPolygon","arcs":[[[85,86,87,88]]],"properties":{"筆ID":"H000000033","version":"ver1.0","座標系":"任意座標系","測地系判別":null,"地図名":"帯広市区画整理図Ｋ（５００）１５","地図番号":"K54","縮尺分母":"500","市区町村コード":"01207","市区町村名":"帯広市","大字コード":"064","丁目コード":"002","小字コード":"0000","予備コード":"00","大字名":"西十八条北","丁目名":"２丁目","小字名":null,"予備名":null,"地番":"24-1","精度区分":"甲一","座標値種別":"図上測量","筆界未定構成筆":null,"代表点緯度":481.0845,"代表点経度":260.100518481}},{"type":"MultiPolygon","arcs":[[[89,-86,90,91]]],"properties":{"筆ID":"H000000034","version":"ver1.0","座標系":"任意座標系","測地系判別":null,"地図名":"帯広市区画整理図Ｋ（５００）１５","地図番号":"K54","縮尺分母":"500","市区町村コード":"01207","市区町村名":"帯広市","大字コード":"064","丁目コード":"002","小字コード":"0000","予備コード":"00","大字名":"西十八条北","丁目名":"２丁目","小字名":null,"予備名":null,"地番":"24-2","精度区分":"甲一","座標値種別":"図上測量","筆界未定構成筆":null,"代表点緯度":484.1,"代表点経度":274.51548602}},{"type":"MultiPolygon","arcs":[[[92,93,-87,94]]],"properties":{"筆ID":"H000000035","version":"ver1.0","座標系":"任意座標系","測地系判別":null,"地図名":"帯広市区画整理図Ｋ（５００）１５","地図番号":"K54","縮尺分母":"500","市区町村コード":"01207","市区町村名":"帯広市","大字コード":"064","丁目コード":"002","小字コード":"0000","予備コード":"00","大字名":"西十八条北","丁目名":"２丁目","小字名":null,"予備名":null,"地番":"24-3","精度区分":"甲一","座標値種別":"図上測量","筆界未定構成筆":null,"代表点緯度":466.596,"代表点経度":261.509580543}},{"type":"MultiPolygon","arcs":[[[95,-95,-90,96]]],"properties":{"筆ID":"H000000036","version":"ver1.0","座標系":"任意座標系","測地系判別":null,"地図名":"帯広市区画整理図Ｋ（５００）１５","地図番号":"K54","縮尺分母":"500","市区町村コード":"01207","市区町村名":"帯広市","大字コード":"064","丁目コード":"002","小字コード":"0000","予備コード":"00","大字名":"西十八条北","丁目名":"２丁目","小字名":null,"予備名":null,"地番":"24-4","精度区分":"甲一","座標値種別":"図上測量","筆界未定構成筆":null,"代表点緯度":467.941,"代表点経度":276.102293254}},{"type":"MultiPolygon","arcs":[[[97,98,99,-93]]],"properties":{"筆ID":"H000000037","version":"ver1.0","座標系":"任意座標系","測地系判別":null,"地図名":"帯広市区画整理図Ｋ（５００）１５","地図番号":"K54","縮尺分母":"500","市区町村コード":"01207","市区町村名":"帯広市","大字コード":"064","丁目コード":"002","小字コード":"0000","予備コード":"00","大字名":"西十八条北","丁目名":"２丁目","小字名":null,"予備名":null,"地番":"24-5","精度区分":"甲一","座標値種別":"図上測量","筆界未定構成筆":null,"代表点緯度":450.43,"代表点経度":263.081041162}},{"type":"MultiPolygon","arcs":[[[100,-98,-96,101]]],"properties":{"筆ID":"H000000038","version":"ver1.0","座標系":"任意座標系","測地系判別":null,"地図名":"帯広市区画整理図Ｋ（５００）１５","地図番号":"K54","縮尺分母":"500","市区町村コード":"01207","市区町村名":"帯広市","大字コード":"064","丁目コード":"002","小字コード":"0000","予備コード":"00","大字名":"西十八条北","丁目名":"２丁目","小字名":null,"予備名":null,"地番":"24-6","精度区分":"甲一","座標値種別":"図上測量","筆界未定構成筆":null,"代表点緯度":451.7755,"代表点経度":277.689605585}},{"type":"MultiPolygon","arcs":[[[102,103,-99,104]]],"properties":{"筆ID":"H000000039","version":"ver1.0","座標系":"任意座標系","測地系判別":null,"地図名":"帯広市区画整理図Ｋ（５００）１５","地図番号":"K54","縮尺分母":"500","市区町村コード":"01207","市区町村名":"帯広市","大字コード":"064","丁目コード":"002","小字コード":"0000","予備コード":"00","大字名":"西十八条北","丁目名":"２丁目","小字名":null,"予備名":null,"地番":"24-7","精度区分":"甲一","座標値種別":"図上測量","筆界未定構成筆":null,"代表点緯度":434.291,"代表点経度":264.650280442}},{"type":"MultiPolygon","arcs":[[[105,106,-105,-101]]],"properties":{"筆ID":"H000000040","version":"ver1.0","座標系":"任意座標系","測地系判別":null,"地図名":"帯広市区画整理図Ｋ（５００）１５","地図番号":"K54","縮尺分母":"500","市区町村コード":"01207","市区町村名":"帯広市","大字コード":"064","丁目コード":"002","小字コード":"0000","予備コード":"00","大字名":"西十八条北","丁目名":"２丁目","小字名":null,"予備名":null,"地番":"24-8","精度区分":"甲一","座標値種別":"図上測量","筆界未定構成筆":null,"代表点緯度":435.658,"代表点経度":279.272264813}},{"type":"MultiPolygon","arcs":[[[107,108,109,-103]]],"properties":{"筆ID":"H000000041","version":"ver1.0","座標系":"任意座標系","測地系判別":null,"地図名":"帯広市区画整理図Ｋ（５００）１５","地図番号":"K54","縮尺分母":"500","市区町村コード":"01207","市区町村名":"帯広市","大字コード":"064","丁目コード":"002","小字コード":"0000","予備コード":"00","大字名":"西十八条北","丁目名":"２丁目","小字名":null,"予備名":null,"地番":"24-9","精度区分":"甲一","座標値種別":"図上測量","筆界未定構成筆":null,"代表点緯度":419.196,"代表点経度":266.118506804}},{"type":"MultiPolygon","arcs":[[[110,111,-108,-107]]],"properties":{"筆ID":"H000000042","version":"ver1.0","座標系":"任意座標系","測地系判別":null,"地図名":"帯広市区画整理図Ｋ（５００）１５","地図番号":"K54","縮尺分母":"500","市区町村コード":"01207","市区町村名":"帯広市","大字コード":"064","丁目コード":"002","小字コード":"0000","予備コード":"00","大字名":"西十八条北","丁目名":"２丁目","小字名":null,"予備名":null,"地番":"24-10","精度区分":"甲一","座標値種別":"図上測量","筆界未定構成筆":null,"代表点緯度":419.4885,"代表点経度":280.860363938}},{"type":"MultiPolygon","arcs":[[[112,113,-92,114]]],"properties":{"筆ID":"H000000043","version":"ver1.0","座標系":"任意座標系","測地系判別":null,"地図名":"帯広市区画整理図Ｋ（５００）１５","地図番号":"K54","縮尺分母":"500","市区町村コード":"01207","市区町村名":"帯広市","大字コード":"064","丁目コード":"002","小字コード":"0000","予備コード":"00","大字名":"西十八条北","丁目名":"２丁目","小字名":null,"予備名":null,"地番":"24-11","精度区分":"甲一","座標値種別":"図上測量","筆界未定構成筆":null,"代表点緯度":484.0695,"代表点経度":287.626428913}},{"type":"MultiPolygon","arcs":[[[115,-97,-114,116]]],"properties":{"筆ID":"H000000044","version":"ver1.0","座標系":"任意座標系","測地系判別":null,"地図名":"帯広市区画整理図Ｋ（５００）１５","地図番号":"K54","縮尺分母":"500","市区町村コード":"01207","市区町村名":"帯広市","大字コード":"064","丁目コード":"002","小字コード":"0000","予備コード":"00","大字名":"西十八条北","丁目名":"２丁目","小字名":null,"予備名":null,"地番":"24-12","精度区分":"甲一","座標値種別":"図上測量","筆界未定構成筆":null,"代表点緯度":469.1405,"代表点経度":289.097107417}},{"type":"MultiPolygon","arcs":[[[117,118,-102,-116]]],"properties":{"筆ID":"H000000045","version":"ver1.0","座標系":"任意座標系","測地系判別":null,"地図名":"帯広市区画整理図Ｋ（５００）１５","地図番号":"K54","縮尺分母":"500","市区町村コード":"01207","市区町村名":"帯広市","大字コード":"064","丁目コード":"002","小字コード":"0000","予備コード":"00","大字名":"西十八条北","丁目名":"２丁目","小字名":null,"予備名":null,"地番":"24-13","精度区分":"甲一","座標値種別":"図上測量","筆界未定構成筆":null,"代表点緯度":452.9735,"代表点経度":290.689676711}},{"type":"MultiPolygon","arcs":[[[119,120,-106,-119]]],"properties":{"筆ID":"H000000046","version":"ver1.0","座標系":"任意座標系","測地系判別":null,"地図名":"帯広市区画整理図Ｋ（５００）１５","地図番号":"K54","縮尺分母":"500","市区町村コード":"01207","市区町村名":"帯広市","大字コード":"064","丁目コード":"002","小字コード":"0000","予備コード":"00","大字名":"西十八条北","丁目名":"２丁目","小字名":null,"予備名":null,"地番":"24-14","精度区分":"甲一","座標値種別":"図上測量","筆界未定構成筆":null,"代表点緯度":436.8725,"代表点経度":292.276318048}},{"type":"MultiPolygon","arcs":[[[121,122,-111,-121]]],"properties":{"筆ID":"H000000047","version":"ver1.0","座標系":"任意座標系","測地系判別":null,"地図名":"帯広市区画整理図Ｋ（５００）１５","地図番号":"K54","縮尺分母":"500","市区町村コード":"01207","市区町村名":"帯広市","大字コード":"064","丁目コード":"002","小字コード":"0000","予備コード":"00","大字名":"西十八条北","丁目名":"２丁目","小字名":null,"予備名":null,"地番":"24-15","精度区分":"甲一","座標値種別":"図上測量","筆界未定構成筆":null,"代表点緯度":422.4535,"代表点経度":293.696846518}},{"type":"MultiPolygon","arcs":[[[123,124,125,126]]],"properties":{"筆ID":"H000000048","version":"ver1.0","座標系":"任意座標系","測地系判別":null,"地図名":"帯広市区画整理図Ｋ（５００）１５","地図番号":"K54","縮尺分母":"500","市区町村コード":"01207","市区町村名":"帯広市","大字コード":"064","丁目コード":"002","小字コード":"0000","予備コード":"00","大字名":"西十八条北","丁目名":"２丁目","小字名":null,"予備名":null,"地番":"25-1","精度区分":"甲一","座標値種別":"図上測量","筆界未定構成筆":null,"代表点緯度":380.353,"代表点経度":148.758386447}},{"type":"MultiPolygon","arcs":[[[127,-124,128,129]]],"properties":{"筆ID":"H000000049","version":"ver1.0","座標系":"任意座標系","測地系判別":null,"地図名":"帯広市区画整理図Ｋ（５００）１５","地図番号":"K54","縮尺分母":"500","市区町村コード":"01207","市区町村名":"帯広市","大字コード":"064","丁目コード":"002","小字コード":"0000","予備コード":"00","大字名":"西十八条北","丁目名":"２丁目","小字名":null,"予備名":null,"地番":"25-2","精度区分":"甲一","座標値種別":"図上測量","筆界未定構成筆":null,"代表点緯度":382.465,"代表点経度":164.411865327}},{"type":"MultiPolygon","arcs":[[[130,131,132,-125]]],"properties":{"筆ID":"H000000050","version":"ver1.0","座標系":"任意座標系","測地系判別":null,"地図名":"帯広市区画整理図Ｋ（５００）１５","地図番号":"K54","縮尺分母":"500","市区町村コード":"01207","市区町村名":"帯広市","大字コード":"064","丁目コード":"002","小字コード":"0000","予備コード":"00","大字名":"西十八条北","丁目名":"２丁目","小字名":null,"予備名":null,"地番":"25-3","精度区分":"甲一","座標値種別":"図上測量","筆界未定構成筆":null,"代表点緯度":367.2425,"代表点経度":149.968289963}},{"type":"MultiPolygon","arcs":[[[133,134,-131,-128]]],"properties":{"筆ID":"H000000051","version":"ver1.0","座標系":"任意座標系","測地系判別":null,"地図名":"帯広市区画整理図Ｋ（５００）１５","地図番号":"K54","縮尺分母":"500","市区町村コード":"01207","市区町村名":"帯広市","大字コード":"064","丁目コード":"002","小字コード":"0000","予備コード":"00","大字名":"西十八条北","丁目名":"２丁目","小字名":null,"予備名":null,"地番":"25-4","精度区分":"甲一","座標値種別":"図上測量","筆界未定構成筆":null,"代表点緯度":368.668,"代表点経度":165.698046602}},{"type":"MultiPolygon","arcs":[[[135,136,-132,137]]],"properties":{"筆ID":"H000000052","version":"ver1.0","座標系":"任意座標系","測地系判別":null,"地図名":"帯広市区画整理図Ｋ（５００）１５","地図番号":"K54","縮尺分母":"500","市区町村コード":"01207","市区町村名":"帯広市","大字コード":"064","丁目コード":"002","小字コード":"0000","予備コード":"00","大字名":"西十八条北","丁目名":"２丁目","小字名":null,"予備名":null,"地番":"25-5","精度区分":"甲一","座標値種別":"図上測量","筆界未定構成筆":null,"代表点緯度":352.459,"代表点経度":151.332868551}},{"type":"MultiPolygon","arcs":[[[138,139,-138,-135]]],"properties":{"筆ID":"H000000053","version":"ver1.0","座標系":"任意座標系","測地系判別":null,"地図名":"帯広市区画整理図Ｋ（５００）１５","地図番号":"K54","縮尺分母":"500","市区町村コード":"01207","市区町村名":"帯広市","大字コード":"064","丁目コード":"002","小字コード":"0000","予備コード":"00","大字名":"西十八条北","丁目名":"２丁目","小字名":null,"予備名":null,"地番":"25-6","精度区分":"甲一","座標値種別":"図上測量","筆界未定構成筆":null,"代表点緯度":353.893,"代表点経度":167.075755211}},{"type":"MultiPolygon","arcs":[[[140,141,-136,142]]],"properties":{"筆ID":"H000000054","version":"ver1.0","座標系":"任意座標系","測地系判別":null,"地図名":"帯広市区画整理図Ｋ（５００）１５","地図番号":"K54","縮尺分母":"500","市区町村コード":"01207","市区町村名":"帯広市","大字コード":"064","丁目コード":"002","小字コード":"0000","予備コード":"00","大字名":"西十八条北","丁目名":"２丁目","小字名":null,"予備名":null,"地番":"25-7","精度区分":"甲一","座標値種別":"図上測量","筆界未定構成筆":null,"代表点緯度":337.684,"代表点経度":152.696257597}},{"type":"MultiPolygon","arcs":[[[143,144,-143,-140]]],"properties":{"筆ID":"H000000055","version":"ver1.0","座標系":"任意座標系","測地系判別":null,"地図名":"帯広市区画整理図Ｋ（５００）１５","地図番号":"K54","縮尺分母":"500","市区町村コード":"01207","市区町村名":"帯広市","大字コード":"064","丁目コード":"002","小字コード":"0000","予備コード":"00","大字名":"西十八条北","丁目名":"２丁目","小字名":null,"予備名":null,"地番":"25-8","精度区分":"甲一","座標値種別":"図上測量","筆界未定構成筆":null,"代表点緯度":339.1175,"代表点経度":168.453060934}},{"type":"MultiPolygon","arcs":[[[145,146,147,-141]]],"properties":{"筆ID":"H000000056","version":"ver1.0","座標系":"任意座標系","測地系判別":null,"地図名":"帯広市区画整理図Ｋ（５００）１５","地図番号":"K54","縮尺分母":"500","市区町村コード":"01207","市区町村名":"帯広市","大字コード":"064","丁目コード":"002","小字コード":"0000","予備コード":"00","大字名":"西十八条北","丁目名":"２丁目","小字名":null,"予備名":null,"地番":"25-9","精度区分":"甲一","座標値種別":"図上測量","筆界未定構成筆":null,"代表点緯度":325.8,"代表点経度":153.792501287}},{"type":"MultiPolygon","arcs":[[[148,-146,-145,149]]],"properties":{"筆ID":"H000000057","version":"ver1.0","座標系":"任意座標系","測地系判別":null,"地図名":"帯広市区画整理図Ｋ（５００）１５","地図番号":"K54","縮尺分母":"500","市区町村コード":"01207","市区町村名":"帯広市","大字コード":"064","丁目コード":"002","小字コード":"0000","予備コード":"00","大字名":"西十八条北","丁目名":"２丁目","小字名":null,"予備名":null,"地番":"25-10","精度区分":"甲一","座標値種別":"図上測量","筆界未定構成筆":null,"代表点緯度":327.913,"代表点経度":169.497344084}},{"type":"MultiPolygon","arcs":[[[150,151,152,153]]],"properties":{"筆ID":"H000000058","version":"ver1.0","座標系":"任意座標系","測地系判別":null,"地図名":"帯広市区画整理図Ｋ（５００）１５","地図番号":"K54","縮尺分母":"500","市区町村コード":"01207","市区町村名":"帯広市","大字コード":"064","丁目コード":"002","小字コード":"0000","予備コード":"00","大字名":"西十八条北","丁目名":"２丁目","小字名":null,"予備名":null,"地番":"26-1","精度区分":"甲一","座標値種別":"図上測量","筆界未定構成筆":null,"代表点緯度":382.6995,"代表点経度":186.685009538}},{"type":"MultiPolygon","arcs":[[[154,155,156,-152]]],"properties":{"筆ID":"H000000059","version":"ver1.0","座標系":"任意座標系","測地系判別":null,"地図名":"帯広市区画整理図Ｋ（５００）１５","地図番号":"K54","縮尺分母":"500","市区町村コード":"01207","市区町村名":"帯広市","大字コード":"064","丁目コード":"002","小字コード":"0000","予備コード":"00","大字名":"西十八条北","丁目名":"２丁目","小字名":null,"予備名":null,"地番":"26-2","精度区分":"甲一","座標値種別":"図上測量","筆界未定構成筆":null,"代表点緯度":369.956,"代表点経度":187.882089116}},{"type":"MultiPolygon","arcs":[[[157,158,159,-151,160]]],"properties":{"筆ID":"H000000060","version":"ver1.0","座標系":"任意座標系","測地系判別":null,"地図名":"帯広市区画整理図Ｋ（５００）１５","地図番号":"K54","縮尺分母":"500","市区町村コード":"01207","市区町村名":"帯広市","大字コード":"064","丁目コード":"002","小字コード":"0000","予備コード":"00","大字名":"西十八条北","丁目名":"２丁目","小字名":null,"予備名":null,"地番":"26-3","精度区分":"甲一","座標値種別":"図上測量","筆界未定構成筆":null,"代表点緯度":385.669,"代表点経度":200.329655927}},{"type":"MultiPolygon","arcs":[[[161,-155,-160,162]]],"properties":{"筆ID":"H000000061","version":"ver1.0","座標系":"任意座標系","測地系判別":null,"地図名":"帯広市区画整理図Ｋ（５００）１５","地図番号":"K54","縮尺分母":"500","市区町村コード":"01207","市区町村名":"帯広市","大字コード":"064","丁目コード":"002","小字コード":"0000","予備コード":"00","大字名":"西十八条北","丁目名":"２丁目","小字名":null,"予備名":null,"地番":"26-4","精度区分":"甲一","座標値種別":"図上測量","筆界未定構成筆":null,"代表点緯度":369.958,"代表点経度":200.406379707}},{"type":"MultiPolygon","arcs":[[[163,164,-158,165,166]]],"properties":{"筆ID":"H000000062","version":"ver1.0","座標系":"任意座標系","測地系判別":null,"地図名":"帯広市区画整理図Ｋ（５００）１５","地図番号":"K54","縮尺分母":"500","市区町村コード":"01207","市区町村名":"帯広市","大字コード":"064","丁目コード":"002","小字コード":"0000","予備コード":"00","大字名":"西十八条北","丁目名":"２丁目","小字名":null,"予備名":null,"地番":"26-5","精度区分":"甲一","座標値種別":"図上測量","筆界未定構成筆":null,"代表点緯度":386.9965,"代表点経度":214.982212151}},{"type":"MultiPolygon","arcs":[[[167,168,-167,169,170]]],"properties":{"筆ID":"H000000063","version":"ver1.0","座標系":"任意座標系","測地系判別":null,"地図名":"帯広市区画整理図Ｋ（５００）１５","地図番号":"K54","縮尺分母":"500","市区町村コード":"01207","市区町村名":"帯広市","大字コード":"064","丁目コード":"002","小字コード":"0000","予備コード":"00","大字名":"西十八条北","丁目名":"２丁目","小字名":null,"予備名":null,"地番":"26-7","精度区分":"甲一","座標値種別":"図上測量","筆界未定構成筆":null,"代表点緯度":388.323,"代表点経度":229.582042638}},{"type":"MultiPolygon","arcs":[[[171,172,173,-171,174]]],"properties":{"筆ID":"H000000064","version":"ver1.0","座標系":"任意座標系","測地系判別":null,"地図名":"帯広市区画整理図Ｋ（５００）１５","地図番号":"K54","縮尺分母":"500","市区町村コード":"01207","市区町村名":"帯広市","大字コード":"064","丁目コード":"002","小字コード":"0000","予備コード":"00","大字名":"西十八条北","丁目名":"２丁目","小字名":null,"予備名":null,"地番":"26-9","精度区分":"甲一","座標値種別":"図上測量","筆界未定構成筆":null,"代表点緯度":388.6325,"代表点経度":244.301667028}},{"type":"MultiPolygon","arcs":[[[175,176,-163,-159,-165]]],"properties":{"筆ID":"H000000065","version":"ver1.0","座標系":"任意座標系","測地系判別":null,"地図名":"帯広市区画整理図Ｋ（５００）１５","地図番号":"K54","縮尺分母":"500","市区町村コード":"01207","市区町村名":"帯広市","大字コード":"064","丁目コード":"002","小字コード":"0000","予備コード":"00","大字名":"西十八条北","丁目名":"２丁目","小字名":null,"予備名":null,"地番":"26-11","精度区分":"甲一","座標値種別":"図上測量","筆界未定構成筆":null,"代表点緯度":371.033,"代表点経度":212.136534559}},{"type":"MultiPolygon","arcs":[[[177,178,-176,-164,-169]]],"properties":{"筆ID":"H000000066","version":"ver1.0","座標系":"任意座標系","測地系判別":null,"地図名":"帯広市区画整理図Ｋ（５００）１５","地図番号":"K54","縮尺分母":"500","市区町村コード":"01207","市区町村名":"帯広市","大字コード":"064","丁目コード":"002","小字コード":"0000","予備コード":"00","大字名":"西十八条北","丁目名":"２丁目","小字名":null,"予備名":null,"地番":"26-12","精度区分":"甲一","座標値種別":"図上測量","筆界未定構成筆":null,"代表点緯度":372.1035,"代表点経度":223.813058155}},{"type":"MultiPolygon","arcs":[[[-174,179,180,-178,-168]]],"properties":{"筆ID":"H000000067","version":"ver1.0","座標系":"任意座標系","測地系判別":null,"地図名":"帯広市区画整理図Ｋ（５００）１５","地図番号":"K54","縮尺分母":"500","市区町村コード":"01207","市区町村名":"帯広市","大字コード":"064","丁目コード":"002","小字コード":"0000","予備コード":"00","大字名":"西十八条北","丁目名":"２丁目","小字名":null,"予備名":null,"地番":"26-13","精度区分":"甲一","座標値種別":"図上測量","筆界未定構成筆":null,"代表点緯度":373.176,"代表点経度":235.524480529}},{"type":"MultiPolygon","arcs":[[[181,182,-180,-173]]],"properties":{"筆ID":"H000000068","version":"ver1.0","座標系":"任意座標系","測地系判別":null,"地図名":"帯広市区画整理図Ｋ（５００）１５","地図番号":"K54","縮尺分母":"500","市区町村コード":"01207","市区町村名":"帯広市","大字コード":"064","丁目コード":"002","小字コード":"0000","予備コード":"00","大字名":"西十八条北","丁目名":"２丁目","小字名":null,"予備名":null,"地番":"26-14","精度区分":"甲一","座標値種別":"図上測量","筆界未定構成筆":null,"代表点緯度":376.008,"代表点経度":247.038506038}},{"type":"MultiPolygon","arcs":[[[183,184,185,186]]],"properties":{"筆ID":"H000000069","version":"ver1.0","座標系":"任意座標系","測地系判別":null,"地図名":"帯広市区画整理図Ｋ（５００）１５","地図番号":"K54","縮尺分母":"500","市区町村コード":"01207","市区町村名":"帯広市","大字コード":"064","丁目コード":"002","小字コード":"0000","予備コード":"00","大字名":"西十八条北","丁目名":"２丁目","小字名":null,"予備名":null,"地番":"27-1","精度区分":"甲一","座標値種別":"図上測量","筆界未定構成筆":null,"代表点緯度":343.816,"代表点経度":191.104726185}},{"type":"MultiPolygon","arcs":[[[187,188,-185,189]]],"properties":{"筆ID":"H000000070","version":"ver1.0","座標系":"任意座標系","測地系判別":null,"地図名":"帯広市区画整理図Ｋ（５００）１５","地図番号":"K54","縮尺分母":"500","市区町村コード":"01207","市区町村名":"帯広市","大字コード":"064","丁目コード":"002","小字コード":"0000","予備コード":"00","大字名":"西十八条北","丁目名":"２丁目","小字名":null,"予備名":null,"地番":"27-2","精度区分":"甲一","座標値種別":"図上測量","筆界未定構成筆":null,"代表点緯度":330.9525,"代表点経度":192.316006418}},{"type":"MultiPolygon","arcs":[[[190,-184,191,192]]],"properties":{"筆ID":"H000000071","version":"ver1.0","座標系":"任意座標系","測地系判別":null,"地図名":"帯広市区画整理図Ｋ（５００）１５","地図番号":"K54","縮尺分母":"500","市区町村コード":"01207","市区町村名":"帯広市","大字コード":"064","丁目コード":"002","小字コード":"0000","予備コード":"00","大字名":"西十八条北","丁目名":"２丁目","小字名":null,"予備名":null,"地番":"27-3","精度区分":"甲一","座標値種別":"図上測量","筆界未定構成筆":null,"代表点緯度":346.796,"代表点経度":205.306989384}},{"type":"MultiPolygon","arcs":[[[193,194,-190,-191]]],"properties":{"筆ID":"H000000072","version":"ver1.0","座標系":"任意座標系","測地系判別":null,"地図名":"帯広市区画整理図Ｋ（５００）１５","地図番号":"K54","縮尺分母":"500","市区町村コード":"01207","市区町村名":"帯広市","大字コード":"064","丁目コード":"002","小字コード":"0000","予備コード":"00","大字名":"西十八条北","丁目名":"２丁目","小字名":null,"予備名":null,"地番":"27-4","精度区分":"甲一","座標値種別":"図上測量","筆界未定構成筆":null,"代表点緯度":331.211,"代表点経度":206.798441202}},{"type":"MultiPolygon","arcs":[[[195,196,-193,197]]],"properties":{"筆ID":"H000000073","version":"ver1.0","座標系":"任意座標系","測地系判別":null,"地図名":"帯広市区画整理図Ｋ（５００）１５","地図番号":"K54","縮尺分母":"500","市区町村コード":"01207","市区町村名":"帯広市","大字コード":"064","丁目コード":"002","小字コード":"0000","予備コード":"00","大字名":"西十八条北","丁目名":"２丁目","小字名":null,"予備名":null,"地番":"27-5","精度区分":"甲一","座標値種別":"図上測量","筆界未定構成筆":null,"代表点緯度":348.089,"代表点経度":219.576181863}},{"type":"MultiPolygon","arcs":[[[198,199,-194,-197]]],"properties":{"筆ID":"H000000074","version":"ver1.0","座標系":"任意座標系","測地系判別":null,"地図名":"帯広市区画整理図Ｋ（５００）１５","地図番号":"K54","縮尺分母":"500","市区町村コード":"01207","市区町村名":"帯広市","大字コード":"064","丁目コード":"002","小字コード":"0000","予備コード":"00","大字名":"西十八条北","丁目名":"２丁目","小字名":null,"予備名":null,"地番":"27-6","精度区分":"甲一","座標値種別":"図上測量","筆界未定構成筆":null,"代表点緯度":332.5075,"代表点経度":221.074371502}},{"type":"MultiPolygon","arcs":[[[200,-196,201,202]]],"properties":{"筆ID":"H000000075","version":"ver1.0","座標系":"任意座標系","測地系判別":null,"地図名":"帯広市区画整理図Ｋ（５００）１５","地図番号":"K54","縮尺分母":"500","市区町村コード":"01207","市区町村名":"帯広市","大字コード":"064","丁目コード":"002","小字コード":"0000","予備コード":"00","大字名":"西十八条北","丁目名":"２丁目","小字名":null,"予備名":null,"地番":"27-7","精度区分":"甲一","座標値種別":"図上測量","筆界未定構成筆":null,"代表点緯度":349.3835,"代表点経度":233.862996322}},{"type":"MultiPolygon","arcs":[[[203,204,-199,-201]]],"properties":{"筆ID":"H000000076","version":"ver1.0","座標系":"任意座標系","測地系判別":null,"地図名":"帯広市区画整理図Ｋ（５００）１５","地図番号":"K54","縮尺分母":"500","市区町村コード":"01207","市区町村名":"帯広市","大字コード":"064","丁目コード":"002","小字コード":"0000","予備コード":"00","大字名":"西十八条北","丁目名":"２丁目","小字名":null,"予備名":null,"地番":"27-8","精度区分":"甲一","座標値種別":"図上測量","筆界未定構成筆":null,"代表点緯度":333.8055,"代表点経度":235.366098566}},{"type":"MultiPolygon","arcs":[[[205,206,-203,207]]],"properties":{"筆ID":"H000000077","version":"ver1.0","座標系":"任意座標系","測地系判別":null,"地図名":"帯広市区画整理図Ｋ（５００）１５","地図番号":"K54","縮尺分母":"500","市区町村コード":"01207","市区町村名":"帯広市","大字コード":"064","丁目コード":"002","小字コード":"0000","予備コード":"00","大字名":"西十八条北","丁目名":"２丁目","小字名":null,"予備名":null,"地番":"27-9","精度区分":"甲一","座標値種別":"図上測量","筆界未定構成筆":null,"代表点緯度":349.617,"代表点経度":248.292132856}},{"type":"MultiPolygon","arcs":[[[208,-204,-207,209]]],"properties":{"筆ID":"H000000078","version":"ver1.0","座標系":"任意座標系","測地系判別":null,"地図名":"帯広市区画整理図Ｋ（５００）１５","地図番号":"K54","縮尺分母":"500","市区町村コード":"01207","市区町村名":"帯広市","大字コード":"064","丁目コード":"002","小字コード":"0000","予備コード":"00","大字名":"西十八条北","丁目名":"２丁目","小字名":null,"予備名":null,"地番":"27-10","精度区分":"甲一","座標値種別":"図上測量","筆界未定構成筆":null,"代表点緯度":336.819,"代表点経度":249.530870268}},{"type":"MultiPolygon","arcs":[[[210,211,212,213]]],"properties":{"筆ID":"H000000079","version":"ver1.0","座標系":"任意座標系","測地系判別":null,"地図名":"帯広市区画整理図Ｋ（５００）１５","地図番号":"K54","縮尺分母":"500","市区町村コード":"01207","市区町村名":"帯広市","大字コード":"064","丁目コード":"002","小字コード":"0000","予備コード":"00","大字名":"西十八条北","丁目名":"２丁目","小字名":null,"予備名":null,"地番":"28-1","精度区分":"甲一","座標値種別":"図上測量","筆界未定構成筆":null,"代表点緯度":389.8115,"代表点経度":268.961109347}},{"type":"MultiPolygon","arcs":[[[214,215,-212,216]]],"properties":{"筆ID":"H000000080","version":"ver1.0","座標系":"任意座標系","測地系判別":null,"地図名":"帯広市区画整理図Ｋ（５００）１５","地図番号":"K54","縮尺分母":"500","市区町村コード":"01207","市区町村名":"帯広市","大字コード":"064","丁目コード":"002","小字コード":"0000","予備コード":"00","大字名":"西十八条北","丁目名":"２丁目","小字名":null,"予備名":null,"地番":"28-2","精度区分":"甲一","座標値種別":"図上測量","筆界未定構成筆":null,"代表点緯度":392.8475,"代表点経度":283.435381105}},{"type":"MultiPolygon","arcs":[[[217,218,219,-213]]],"properties":{"筆ID":"H000000081","version":"ver1.0","座標系":"任意座標系","測地系判別":null,"地図名":"帯広市区画整理図Ｋ（５００）１５","地図番号":"K54","縮尺分母":"500","市区町村コード":"01207","市区町村名":"帯広市","大字コード":"064","丁目コード":"002","小字コード":"0000","予備コード":"00","大字名":"西十八条北","丁目名":"２丁目","小字名":null,"予備名":null,"地番":"28-3","精度区分":"甲一","座標値種別":"図上測量","筆界未定構成筆":null,"代表点緯度":373.9765,"代表点経度":270.499616601}},{"type":"MultiPolygon","arcs":[[[220,-218,-216,221]]],"properties":{"筆ID":"H000000082","version":"ver1.0","座標系":"任意座標系","測地系判別":null,"地図名":"帯広市区画整理図Ｋ（５００）１５","地図番号":"K54","縮尺分母":"500","市区町村コード":"01207","市区町村名":"帯広市","大字コード":"064","丁目コード":"002","小字コード":"0000","予備コード":"00","大字名":"西十八条北","丁目名":"２丁目","小字名":null,"予備名":null,"地番":"28-4","精度区分":"甲一","座標値種別":"図上測量","筆界未定構成筆":null,"代表点緯度":375.3275,"代表点経度":285.147129646}},{"type":"MultiPolygon","arcs":[[[222,223,-219,224]]],"properties":{"筆ID":"H000000083","version":"ver1.0","座標系":"任意座標系","測地系判別":null,"地図名":"帯広市区画整理図Ｋ（５００）１５","地図番号":"K54","縮尺分母":"500","市区町村コード":"01207","市区町村名":"帯広市","大字コード":"064","丁目コード":"002","小字コード":"0000","予備コード":"00","大字名":"西十八条北","丁目名":"２丁目","小字名":null,"予備名":null,"地番":"28-5","精度区分":"甲一","座標値種別":"図上測量","筆界未定構成筆":null,"代表点緯度":356.4695,"代表点経度":272.200715858}},{"type":"MultiPolygon","arcs":[[[225,-225,-221,226]]],"properties":{"筆ID":"H000000084","version":"ver1.0","座標系":"任意座標系","測地系判別":null,"地図名":"帯広市区画整理図Ｋ（５００）１５","地図番号":"K54","縮尺分母":"500","市区町村コード":"01207","市区町村名":"帯広市","大字コード":"064","丁目コード":"002","小字コード":"0000","予備コード":"00","大字名":"西十八条北","丁目名":"２丁目","小字名":null,"予備名":null,"地番":"28-6","精度区分":"甲一","座標値種別":"図上測量","筆界未定構成筆":null,"代表点緯度":357.8195,"代表点経度":286.857007502}},{"type":"MultiPolygon","arcs":[[[227,228,229,-223]]],"properties":{"筆ID":"H000000085","version":"ver1.0","座標系":"任意座標系","測地系判別":null,"地図名":"帯広市区画整理図Ｋ（５００）１５","地図番号":"K54","縮尺分母":"500","市区町村コード":"01207","市区町村名":"帯広市","大字コード":"064","丁目コード":"002","小字コード":"0000","予備コード":"00","大字名":"西十八条北","丁目名":"２丁目","小字名":null,"予備名":null,"地番":"28-7","精度区分":"甲一","座標値種別":"図上測量","筆界未定構成筆":null,"代表点緯度":340.002,"代表点経度":273.800416719}},{"type":"MultiPolygon","arcs":[[[230,-228,-226,231]]],"properties":{"筆ID":"H000000086","version":"ver1.0","座標系":"任意座標系","測地系判別":null,"地図名":"帯広市区画整理図Ｋ（５００）１５","地図番号":"K54","縮尺分母":"500","市区町村コード":"01207","市区町村名":"帯広市","大字コード":"064","丁目コード":"002","小字コード":"0000","予備コード":"00","大字名":"西十八条北","丁目名":"２丁目","小字名":null,"予備名":null,"地番":"28-8","精度区分":"甲一","座標値種別":"図上測量","筆界未定構成筆":null,"代表点緯度":340.2865,"代表点経度":288.569302668}},{"type":"MultiPolygon","arcs":[[[232,233,-215,234]]],"properties":{"筆ID":"H000000087","version":"ver1.0","座標系":"任意座標系","測地系判別":null,"地図名":"帯広市区画整理図Ｋ（５００）１５","地図番号":"K54","縮尺分母":"500","市区町村コード":"01207","市区町村名":"帯広市","大字コード":"064","丁目コード":"002","小字コード":"0000","予備コード":"00","大字名":"西十八条北","丁目名":"２丁目","小字名":null,"予備名":null,"地番":"28-9","精度区分":"甲一","座標値種別":"図上測量","筆界未定構成筆":null,"代表点緯度":392.8735,"代表点経度":296.588701261}},{"type":"MultiPolygon","arcs":[[[235,236,-222,-234]]],"properties":{"筆ID":"H000000088","version":"ver1.0","座標系":"任意座標系","測地系判別":null,"地図名":"帯広市区画整理図Ｋ（５００）１５","地図番号":"K54","縮尺分母":"500","市区町村コード":"01207","市区町村名":"帯広市","大字コード":"064","丁目コード":"002","小字コード":"0000","予備コード":"00","大字名":"西十八条北","丁目名":"２丁目","小字名":null,"予備名":null,"地番":"28-10","精度区分":"甲一","座標値種別":"図上測量","筆界未定構成筆":null,"代表点緯度":376.531,"代表点経度":298.202616631}},{"type":"MultiPolygon","arcs":[[[237,-227,-237,238]]],"properties":{"筆ID":"H000000089","version":"ver1.0","座標系":"任意座標系","測地系判別":null,"地図名":"帯広市区画整理図Ｋ（５００）１５","地図番号":"K54","縮尺分母":"500","市区町村コード":"01207","市区町村名":"帯広市","大字コード":"064","丁目コード":"002","小字コード":"0000","予備コード":"00","大字名":"西十八条北","丁目名":"２丁目","小字名":null,"予備名":null,"地番":"28-11","精度区分":"甲一","座標値種別":"図上測量","筆界未定構成筆":null,"代表点緯度":359.0255,"代表点経度":299.930876417}},{"type":"MultiPolygon","arcs":[[[239,-232,-238,240]]],"properties":{"筆ID":"H000000090","version":"ver1.0","座標系":"任意座標系","測地系判別":null,"地図名":"帯広市区画整理図Ｋ（５００）１５","地図番号":"K54","縮尺分母":"500","市区町村コード":"01207","市区町村名":"帯広市","大字コード":"064","丁目コード":"002","小字コード":"0000","予備コード":"00","大字名":"西十八条北","丁目名":"２丁目","小字名":null,"予備名":null,"地番":"28-12","精度区分":"甲一","座標値種別":"図上測量","筆界未定構成筆":null,"代表点緯度":343.24,"代表点経度":301.488971768}},{"type":"MultiPolygon","arcs":[[[241,242,243,244]]],"properties":{"筆ID":"H000000091","version":"ver1.0","座標系":"任意座標系","測地系判別":null,"地図名":"帯広市区画整理図Ｋ（５００）１５","地図番号":"K54","縮尺分母":"500","市区町村コード":"01207","市区町村名":"帯広市","大字コード":"064","丁目コード":"002","小字コード":"0000","予備コード":"00","大字名":"西十八条北","丁目名":"２丁目","小字名":null,"予備名":null,"地番":"29-1","精度区分":"甲一","座標値種別":"図上測量","筆界未定構成筆":null,"代表点緯度":296.4065,"代表点経度":176.972433947}},{"type":"MultiPolygon","arcs":[[[245,246,247,248]]],"properties":{"筆ID":"H000000092","version":"ver1.0","座標系":"任意座標系","測地系判別":null,"地図名":"帯広市区画整理図Ｋ（５００）１５","地図番号":"K54","縮尺分母":"500","市区町村コード":"01207","市区町村名":"帯広市","大字コード":"064","丁目コード":"002","小字コード":"0000","予備コード":"00","大字名":"西十八条北","丁目名":"２丁目","小字名":null,"予備名":null,"地番":"29-2","精度区分":"甲一","座標値種別":"図上測量","筆界未定構成筆":null,"代表点緯度":304.559,"代表点経度":266.728516844}},{"type":"MultiPolygon","arcs":[[[249,250,251,252]]],"properties":{"筆ID":"H000000093","version":"ver1.0","座標系":"任意座標系","測地系判別":null,"地図名":"帯広市区画整理図Ｋ（５００）１５","地図番号":"K54","縮尺分母":"500","市区町村コード":"01207","市区町村名":"帯広市","大字コード":"064","丁目コード":"002","小字コード":"0000","予備コード":"00","大字名":"西十八条北","丁目名":"２丁目","小字名":null,"予備名":null,"地番":"29-3","精度区分":"甲一","座標値種別":"図上測量","筆界未定構成筆":null,"代表点緯度":300.6265,"代表点経度":141.397157443}},{"type":"MultiPolygon","arcs":[[[253,254,255,-250,256]]],"properties":{"筆ID":"H000000094","version":"ver1.0","座標系":"任意座標系","測地系判別":null,"地図名":"帯広市区画整理図Ｋ（５００）１５","地図番号":"K54","縮尺分母":"500","市区町村コード":"01207","市区町村名":"帯広市","大字コード":"064","丁目コード":"002","小字コード":"0000","予備コード":"00","大字名":"西十八条北","丁目名":"２丁目","小字名":null,"予備名":null,"地番":"29-4","精度区分":"甲一","座標値種別":"図上測量","筆界未定構成筆":null,"代表点緯度":301.2295,"代表点経度":147.925110652}},{"type":"MultiPolygon","arcs":[[[257,-255,258,259]]],"properties":{"筆ID":"H000000095","version":"ver1.0","座標系":"任意座標系","測地系判別":null,"地図名":"帯広市区画整理図Ｋ（５００）１５","地図番号":"K54","縮尺分母":"500","市区町村コード":"01207","市区町村名":"帯広市","大字コード":"064","丁目コード":"002","小字コード":"0000","予備コード":"00","大字名":"西十八条北","丁目名":"２丁目","小字名":null,"予備名":null,"地番":"29-5","精度区分":"甲一","座標値種別":"図上測量","筆界未定構成筆":null,"代表点緯度":301.8265,"代表点経度":154.481483845}},{"type":"MultiPolygon","arcs":[[[260,261,-246,262]]],"properties":{"筆ID":"H000000096","version":"ver1.0","座標系":"任意座標系","測地系判別":null,"地図名":"帯広市区画整理図Ｋ（５００）１５","地図番号":"K54","縮尺分母":"500","市区町村コード":"01207","市区町村名":"帯広市","大字コード":"064","丁目コード":"002","小字コード":"0000","予備コード":"00","大字名":"西十八条北","丁目名":"２丁目","小字名":null,"予備名":null,"地番":"29-6","精度区分":"甲一","座標値種別":"図上測量","筆界未定構成筆":null,"代表点緯度":306.84,"代表点経度":291.779481086}},{"type":"MultiPolygon","arcs":[[[263,264,-261,265]]],"properties":{"筆ID":"H000000097","version":"ver1.0","座標系":"任意座標系","測地系判別":null,"地図名":"帯広市区画整理図Ｋ（５００）１５","地図番号":"K54","縮尺分母":"500","市区町村コード":"01207","市区町村名":"帯広市","大字コード":"064","丁目コード":"002","小字コード":"0000","予備コード":"00","大字名":"西十八条北","丁目名":"２丁目","小字名":null,"予備名":null,"地番":"29-7","精度区分":"甲一","座標値種別":"図上測量","筆界未定構成筆":null,"代表点緯度":306.82,"代表点経度":305.048004798}},{"type":"MultiPolygon","arcs":[[[266,267,-260,268,269]]],"properties":{"筆ID":"H000000098","version":"ver1.0","座標系":"任意座標系","測地系判別":null,"地図名":"帯広市区画整理図Ｋ（５００）１５","地図番号":"K54","縮尺分母":"500","市区町村コード":"01207","市区町村名":"帯広市","大字コード":"064","丁目コード":"002","小字コード":"0000","予備コード":"00","大字名":"西十八条北","丁目名":"２丁目","小字名":null,"予備名":null,"地番":"29-8","精度区分":"甲一","座標値種別":"図上測量","筆界未定構成筆":null,"代表点緯度":302.128,"代表点経度":161.086318751}},{"type":"MultiPolygon","arcs":[[[-243,270,-270,271]]],"properties":{"筆ID":"H000000099","version":"ver1.0","座標系":"任意座標系","測地系判別":null,"地図名":"帯広市区画整理図Ｋ（５００）１５","地図番号":"K54","縮尺分母":"500","市区町村コード":"01207","市区町村名":"帯広市","大字コード":"064","丁目コード":"002","小字コード":"0000","予備コード":"00","大字名":"西十八条北","丁目名":"２丁目","小字名":null,"予備名":null,"地番":"29-9","精度区分":"甲一","座標値種別":"図上測量","筆界未定構成筆":null,"代表点緯度":295.6165,"代表点経度":168.2775745}},{"type":"MultiPolygon","arcs":[[[272,273,274,275,276]]],"properties":{"筆ID":"H000000100","version":"ver1.0","座標系":"任意座標系","測地系判別":null,"地図名":"帯広市区画整理図Ｋ（５００）１５","地図番号":"K54","縮尺分母":"500","市区町村コード":"01207","市区町村名":"帯広市","大字コード":"064","丁目コード":"002","小字コード":"0000","予備コード":"00","大字名":"西十八条北","丁目名":"２丁目","小字名":null,"予備名":null,"地番":"29-11","精度区分":"甲一","座標値種別":"図上測量","筆界未定構成筆":null,"代表点緯度":291.97,"代表点経度":204.378911789}},{"type":"MultiPolygon","arcs":[[[277,-276,278,279]]],"properties":{"筆ID":"H000000101","version":"ver1.0","座標系":"任意座標系","測地系判別":null,"地図名":"帯広市区画整理図Ｋ（５００）１５","地図番号":"K54","縮尺分母":"500","市区町村コード":"01207","市区町村名":"帯広市","大字コード":"064","丁目コード":"002","小字コード":"0000","予備コード":"00","大字名":"西十八条北","丁目名":"２丁目","小字名":null,"予備名":null,"地番":"29-12","精度区分":"甲一","座標値種別":"図上測量","筆界未定構成筆":null,"代表点緯度":306.223,"代表点経度":196.877308181}},{"type":"MultiPolygon","arcs":[[[280,-277,-278,281]]],"properties":{"筆ID":"H000000102","version":"ver1.0","座標系":"任意座標系","測地系判別":null,"地図名":"帯広市区画整理図Ｋ（５００）１５","地図番号":"K54","縮尺分母":"500","市区町村コード":"01207","市区町村名":"帯広市","大字コード":"064","丁目コード":"002","小字コード":"0000","予備コード":"00","大字名":"西十八条北","丁目名":"２丁目","小字名":null,"予備名":null,"地番":"29-13","精度区分":"甲一","座標値種別":"図上測量","筆界未定構成筆":null,"代表点緯度":307.64,"代表点経度":212.471518785}},{"type":"MultiPolygon","arcs":[[[-275,282,-245,283,-279]]],"properties":{"筆ID":"H000000103","version":"ver1.0","座標系":"任意座標系","測地系判別":null,"地図名":"帯広市区画整理図Ｋ（５００）１５","地図番号":"K54","縮尺分母":"500","市区町村コード":"01207","市区町村名":"帯広市","大字コード":"064","丁目コード":"002","小字コード":"0000","予備コード":"00","大字名":"西十八条北","丁目名":"２丁目","小字名":null,"予備名":null,"地番":"29-14","精度区分":"甲一","座標値種別":"図上測量","筆界未定構成筆":null,"代表点緯度":290.556,"代表点経度":185.866205652}},{"type":"MultiPolygon","arcs":[[[284,-251,285]]],"properties":{"筆ID":"H000000104","version":"ver1.0","座標系":"任意座標系","測地系判別":null,"地図名":"帯広市区画整理図Ｋ（５００）１５","地図番号":"K54","縮尺分母":"500","市区町村コード":"01207","市区町村名":"帯広市","大字コード":"064","丁目コード":"002","小字コード":"0000","予備コード":"00","大字名":"西十八条北","丁目名":"２丁目","小字名":null,"予備名":null,"地番":"29-15","精度区分":"甲一","座標値種別":"図上測量","筆界未定構成筆":null,"代表点緯度":285.799,"代表点経度":142.719850546}},{"type":"MultiPolygon","arcs":[[[286,287,-286,-256]]],"properties":{"筆ID":"H000000105","version":"ver1.0","座標系":"任意座標系","測地系判別":null,"地図名":"帯広市区画整理図Ｋ（５００）１５","地図番号":"K54","縮尺分母":"500","市区町村コード":"01207","市区町村名":"帯広市","大字コード":"064","丁目コード":"002","小字コード":"0000","予備コード":"00","大字名":"西十八条北","丁目名":"２丁目","小字名":null,"予備名":null,"地番":"29-16","精度区分":"甲一","座標値種別":"図上測量","筆界未定構成筆":null,"代表点緯度":286.4045,"代表点経度":149.232929121}},{"type":"MultiPolygon","arcs":[[[-268,288,-287,-258]]],"properties":{"筆ID":"H000000106","version":"ver1.0","座標系":"任意座標系","測地系判別":null,"地図名":"帯広市区画整理図Ｋ（５００）１５","地図番号":"K54","縮尺分母":"500","市区町村コード":"01207","市区町村名":"帯広市","大字コード":"064","丁目コード":"002","小字コード":"0000","予備コード":"00","大字名":"西十八条北","丁目名":"２丁目","小字名":null,"予備名":null,"地番":"29-17","精度区分":"甲一","座標値種別":"図上測量","筆界未定構成筆":null,"代表点緯度":287.0075,"代表点経度":155.765646441}},{"type":"MultiPolygon","arcs":[[[289,290,291,292]]],"properties":{"筆ID":"H000000107","version":"ver1.0","座標系":"任意座標系","測地系判別":null,"地図名":"帯広市区画整理図Ｋ（５００）１５","地図番号":"K54","縮尺分母":"500","市区町村コード":"01207","市区町村名":"帯広市","大字コード":"064","丁目コード":"002","小字コード":"0000","予備コード":"00","大字名":"西十八条北","丁目名":"２丁目","小字名":null,"予備名":null,"地番":"30-1","精度区分":"甲一","座標値種別":"図上測量","筆界未定構成筆":null,"代表点緯度":425.4545,"代表点経度":232.439529982}},{"type":"MultiPolygon","arcs":[[[-91,-89,293,-30,-28,-24,-22,-18,-15,-13,-9,-6,-4,294,295,296]]],"properties":{"筆ID":"H000000108","version":"ver1.0","座標系":"任意座標系","測地系判別":null,"地図名":"帯広市区画整理図Ｋ（５００）１５","地図番号":"K54","縮尺分母":"500","市区町村コード":"01207","市区町村名":"帯広市","大字コード":"064","丁目コード":"002","小字コード":"0000","予備コード":"00","大字名":"西十八条北","丁目名":"２丁目","小字名":null,"予備名":null,"地番":"30-2","精度区分":"甲一","座標値種別":"図上測量","筆界未定構成筆":null,"代表点緯度":488.664,"代表点経度":190.480355039}},{"type":"MultiPolygon","arcs":[[[-36,-37,-39,-41,-43,-45,-48,-50,-52,297,-290,298,-66,-59,-77,-75,-71,-56,299,-32]]],"properties":{"筆ID":"H000000109","version":"ver1.0","座標系":"任意座標系","測地系判別":null,"地図名":"帯広市区画整理図Ｋ（５００）１５","地図番号":"K54","縮尺分母":"500","市区町村コード":"01207","市区町村名":"帯広市","大字コード":"064","丁目コード":"002","小字コード":"0000","予備コード":"00","大字名":"西十八条北","丁目名":"２丁目","小字名":null,"予備名":null,"地番":"30-3","精度区分":"甲一","座標値種別":"図上測量","筆界未定構成筆":null,"代表点緯度":444.337,"代表点経度":194.565179168}},{"type":"MultiPolygon","arcs":[[[-88,-94,-100,-104,-110,300,-291,-298,-51,-31,-294]]],"properties":{"筆ID":"H000000110","version":"ver1.0","座標系":"任意座標系","測地系判別":null,"地図名":"帯広市区画整理図Ｋ（５００）１５","地図番号":"K54","縮尺分母":"500","市区町村コード":"01207","市区町村名":"帯広市","大字コード":"064","丁目コード":"002","小字コード":"0000","予備コード":"00","大字名":"西十八条北","丁目名":"２丁目","小字名":null,"予備名":null,"地番":"30-4","精度区分":"甲一","座標値種別":"図上測量","筆界未定構成筆":null,"代表点緯度":449.0785,"代表点経度":250.871750334}},{"type":"MultiPolygon","arcs":[[[301,-68,-67,-299,-293]]],"properties":{"筆ID":"H000000111","version":"ver1.0","座標系":"任意座標系","測地系判別":null,"地図名":"帯広市区画整理図Ｋ（５００）１５","地図番号":"K54","縮尺分母":"500","市区町村コード":"01207","市区町村名":"帯広市","大字コード":"064","丁目コード":"002","小字コード":"0000","予備コード":"00","大字名":"西十八条北","丁目名":"２丁目","小字名":null,"予備名":null,"地番":"30-5","精度区分":"甲一","座標値種別":"図上測量","筆界未定構成筆":null,"代表点緯度":430.799,"代表点経度":213.223176493}},{"type":"MultiPolygon","arcs":[[[-295,-3,-33,-300,-55,-79,302,-126,-133,-137,-142,-148,303,-257,-253,304]]],"properties":{"筆ID":"H000000112","version":"ver1.0","座標系":"任意座標系","測地系判別":null,"地図名":"帯広市区画整理図Ｋ（５００）１５","地図番号":"K54","縮尺分母":"500","市区町村コード":"01207","市区町村名":"帯広市","大字コード":"064","丁目コード":"002","小字コード":"0000","予備コード":"00","大字名":"西十八条北","丁目名":"２丁目","小字名":null,"予備名":null,"地番":"30-6","精度区分":"甲一","座標値種別":"図上測量","筆界未定構成筆":null,"代表点緯度":393.696,"代表点経度":134.617933212}},{"type":"MultiPolygon","arcs":[[[-81,-84,-85,-61,-69,-302,-292,-301,-109,-112,305,-217,-211,306,-175,-170,-166,-161,-154,307,-129,-127,-303,-78]]],"properties":{"筆ID":"H000000113","version":"ver1.0","座標系":"任意座標系","測地系判別":null,"地図名":"帯広市区画整理図Ｋ（５００）１５","地図番号":"K54","縮尺分母":"500","市区町村コード":"01207","市区町村名":"帯広市","大字コード":"064","丁目コード":"002","小字コード":"0000","予備コード":"00","大字名":"西十八条北","丁目名":"２丁目","小字名":null,"予備名":null,"地番":"30-7","精度区分":"甲一","座標値種別":"図上測量","筆界未定構成筆":null,"代表点緯度":398.653,"代表点経度":194.555791072}},{"type":"MultiPolygon","arcs":[[[-157,308,-186,-189,309,-150,-144,-139,-134,-130,-308,-153]]],"properties":{"筆ID":"H000000114","version":"ver1.0","座標系":"任意座標系","測地系判別":null,"地図名":"帯広市区画整理図Ｋ（５００）１５","地図番号":"K54","縮尺分母":"500","市区町村コード":"01207","市区町村名":"帯広市","大字コード":"064","丁目コード":"002","小字コード":"0000","予備コード":"00","大字名":"西十八条北","丁目名":"２丁目","小字名":null,"予備名":null,"地番":"30-8","精度区分":"甲一","座標値種別":"図上測量","筆界未定構成筆":null,"代表点緯度":355.9335,"代表点経度":178.740573109}},{"type":"MultiPolygon","arcs":[[[-162,-177,-179,-181,-183,310,-208,-202,-198,-192,-187,-309,-156]]],"properties":{"筆ID":"H000000115","version":"ver1.0","座標系":"任意座標系","測地系判別":null,"地図名":"帯広市区画整理図Ｋ（５００）１５","地図番号":"K54","縮尺分母":"500","市区町村コード":"01207","市区町村名":"帯広市","大字コード":"064","丁目コード":"002","小字コード":"0000","予備コード":"00","大字名":"西十八条北","丁目名":"２丁目","小字名":null,"予備名":null,"地番":"30-9","精度区分":"甲一","座標値種別":"図上測量","筆界未定構成筆":null,"代表点緯度":360.413,"代表点経度":218.374548285}},{"type":"MultiPolygon","arcs":[[[-220,-224,-230,311,-210,-206,-311,-182,-172,-307,-214]]],"properties":{"筆ID":"H000000116","version":"ver1.0","座標系":"任意座標系","測地系判別":null,"地図名":"帯広市区画整理図Ｋ（５００）１５","地図番号":"K54","縮尺分母":"500","市区町村コード":"01207","市区町村名":"帯広市","大字コード":"064","丁目コード":"002","小字コード":"0000","予備コード":"00","大字名":"西十八条北","丁目名":"２丁目","小字名":null,"予備名":null,"地番":"30-10","精度区分":"甲一","座標値種別":"図上測量","筆界未定構成筆":null,"代表点緯度":360.422,"代表点経度":259.434533715}},{"type":"MultiPolygon","arcs":[[[-264,312,-241,-239,-236,-233,313,-122,-120,-118,-117,-113,314,315]]],"properties":{"筆ID":"H000000117","version":"ver1.0","座標系":"任意座標系","測地系判別":null,"地図名":"帯広市区画整理図Ｋ（５００）１５","地図番号":"K54","縮尺分母":"500","市区町村コード":"01207","市区町村名":"帯広市","大字コード":"064","丁目コード":"002","小字コード":"0000","予備コード":"00","大字名":"西十八条北","丁目名":"２丁目","小字名":null,"予備名":null,"地番":"30-12","精度区分":"甲一","座標値種別":"図上測量","筆界未定構成筆":null,"代表点緯度":392.8735,"代表点経度":306.365793695}},{"type":"MultiPolygon","arcs":[[[-315,-115,-297,316]]],"properties":{"筆ID":"H000000118","version":"ver1.0","座標系":"任意座標系","測地系判別":null,"地図名":"帯広市区画整理図Ｋ（５００）１５","地図番号":"K54","縮尺分母":"500","市区町村コード":"01207","市区町村名":"帯広市","大字コード":"064","丁目コード":"002","小字コード":"0000","予備コード":"00","大字名":"西十八条北","丁目名":"２丁目","小字名":null,"予備名":null,"地番":"30-13","精度区分":"甲一","座標値種別":"図上測量","筆界未定構成筆":null,"代表点緯度":497.152,"代表点経度":286.348144737}},{"type":"MultiPolygon","arcs":[[[-314,-235,-306,-123]]],"properties":{"筆ID":"H000000119","version":"ver1.0","座標系":"任意座標系","測地系判別":null,"地図名":"帯広市区画整理図Ｋ（５００）１５","地図番号":"K54","縮尺分母":"500","市区町村コード":"01207","市区町村名":"帯広市","大字コード":"064","丁目コード":"002","小字コード":"0000","予備コード":"00","大字名":"西十八条北","丁目名":"２丁目","小字名":null,"予備名":null,"地番":"30-14","精度区分":"甲一","座標値種別":"図上測量","筆界未定構成筆":null,"代表点緯度":407.5515,"代表点経度":295.153443026}},{"type":"MultiPolygon","arcs":[[[-313,-266,317,-240]]],"properties":{"筆ID":"H000000120","version":"ver1.0","座標系":"任意座標系","測地系判別":null,"地図名":"帯広市区画整理図Ｋ（５００）１５","地図番号":"K54","縮尺分母":"500","市区町村コード":"01207","市区町村名":"帯広市","大字コード":"064","丁目コード":"002","小字コード":"0000","予備コード":"00","大字名":"西十八条北","丁目名":"２丁目","小字名":null,"予備名":null,"地番":"30-15","精度区分":"甲一","座標値種別":"図上測量","筆界未定構成筆":null,"代表点緯度":327.6015,"代表点経度":303.02290452}},{"type":"MultiPolygon","arcs":[[[-248,318,319,320]]],"properties":{"筆ID":"H000000121","version":"ver1.0","座標系":"任意座標系","測地系判別":null,"地図名":"帯広市区画整理図Ｋ（５００）１５","地図番号":"K54","縮尺分母":"500","市区町村コード":"01207","市区町村名":"帯広市","大字コード":"064","丁目コード":"002","小字コード":"0000","予備コード":"00","大字名":"西十八条北","丁目名":"２丁目","小字名":null,"予備名":null,"地番":"29-10","精度区分":"甲一","座標値種別":"図上測量","筆界未定構成筆":null,"代表点緯度":302.2815,"代表点経度":241.612244697}},{"type":"MultiPolygon","arcs":[[[-320,321,-273,-281,322]]],"properties":{"筆ID":"H000000122","version":"ver1.0","座標系":"任意座標系","測地系判別":null,"地図名":"帯広市区画整理図Ｋ（５００）１５","地図番号":"K54","縮尺分母":"500","市区町村コード":"01207","市区町村名":"帯広市","大字コード":"064","丁目コード":"002","小字コード":"0000","予備コード":"00","大字名":"西十八条北","丁目名":"２丁目","小字名":null,"予備名":null,"地番":"29-18","精度区分":"甲一","座標値種別":"図上測量","筆界未定構成筆":null,"代表点緯度":294.0685,"代表点経度":227.388688654}},{"type":"MultiPolygon","arcs":[[[-149,-310,-188,-195,-200,-205,-209,-312,-229,-231,-318,-263,-249,-321,-323,-282,-280,-284,-244,-272,-269,-259,-254,-304,-147]]],"properties":{"筆ID":"H000000123","version":"ver1.0","座標系":"任意座標系","測地系判別":null,"地図名":"帯広市区画整理図Ｋ（５００）１５","地図番号":"K54","縮尺分母":"500","市区町村コード":"01207","市区町村名":"帯広市","大字コード":"064","丁目コード":"002","小字コード":"0000","予備コード":"00","大字名":"西十八条北","丁目名":"２丁目","小字名":null,"予備名":null,"地番":"30-11","精度区分":"甲一","座標値種別":"図上測量","筆界未定構成筆":null,"代表点緯度":320.465,"代表点経度":222.743306635}}]}},"arcs":[[[108414,901372],[8974,-84853]],[[117388,816519],[-55295,-4792]],[[62093,811727],[-7376,69971]],[[54717,881698],[15380,16603],[38317,3071]],[[173302,821007],[-55914,-4488]],[[108414,901372],[56256,4511]],[[164670,905883],[8632,-84876]],[[228995,825304],[-55693,-4297]],[[164670,905883],[55818,4475]],[[220488,910358],[8507,-85054]],[[275346,914753],[8839,-85272]],[[284185,829481],[-55190,-4177]],[[220488,910358],[54858,4395]],[[340310,833804],[-56125,-4323]],[[275346,914753],[55808,4466]],[[331154,919219],[9156,-85415]],[[395248,838377],[-54938,-4573]],[[331154,919219],[55155,4422]],[[386309,923641],[8939,-85264]],[[440825,928009],[8919,-85165]],[[449744,842844],[-54496,-4467]],[[386309,923641],[54516,4368]],[[504934,847189],[-55190,-4345]],[[440825,928009],[54818,4395]],[[495643,932404],[9291,-85215]],[[551235,936857],[9035,-85509]],[[560270,851348],[-55336,-4159]],[[495643,932404],[55592,4453]],[[616963,856131],[-56693,-4783]],[[551235,936857],[39166,3138]],[[590401,939995],[18598,-13853],[7964,-70011]],[[125569,739162],[-38513,-3088],[-18457,13915]],[[68599,749989],[-6506,61738]],[[117388,816519],[8181,-77357]],[[173302,821007],[7874,-77383]],[[181176,743624],[-55607,-4462]],[[236718,748077],[-55542,-4453]],[[228995,825304],[7723,-77227]],[[292154,752525],[-55436,-4448]],[[284185,829481],[7969,-76956]],[[348535,757050],[-56381,-4525]],[[340310,833804],[8225,-76754]],[[403318,761444],[-54783,-4394]],[[395248,838377],[8070,-76933]],[[457814,765813],[-54496,-4369]],[[449744,842844],[8070,-77031]],[[504934,847189],[8397,-76924]],[[513331,770265],[-55517,-4452]],[[560270,851348],[8105,-76665]],[[568375,774683],[-55044,-4418]],[[616963,856131],[6426,-61172]],[[623389,794959],[-15707,-17121],[-39307,-3155]],[[136137,704347],[8949,-85955]],[[145086,618392],[-62510,-5072]],[[82576,613320],[-7124,71013]],[[75452,684333],[15154,16350],[45531,3664]],[[393418,642510],[-62188,-4894]],[[331230,637616],[-8718,81720]],[[322512,719336],[61841,4975]],[[384353,724311],[9065,-81801]],[[402388,561539],[-62511,-4925]],[[339877,556614],[-8235,76933]],[[331642,633547],[-412,4069]],[[393418,642510],[8970,-80971]],[[451378,647075],[-57960,-4565]],[[384353,724311],[41333,3320]],[[425686,727631],[18473,-13697],[7219,-66859]],[[451378,647075],[7080,-65679],[-15461,-16656]],[[442997,564740],[-40609,-3201]],[[207084,623429],[-61998,-5037]],[[136137,704347],[62098,4992]],[[198235,709339],[8849,-85910]],[[260378,714335],[9161,-85829]],[[269539,628506],[-62455,-5077]],[[198235,709339],[62143,4996]],[[331642,633547],[-62103,-5041]],[[260378,714335],[62134,5001]],[[153061,541900],[-45798,-3606],[-18563,14027]],[[88700,552321],[-6124,60999]],[[145086,618392],[7975,-76492]],[[214978,546781],[-61917,-4881]],[[207084,623429],[7894,-76648]],[[269539,628506],[8195,-76782]],[[277734,551724],[-62756,-4943]],[[339877,556614],[-62143,-4890]],[[730239,951045],[7959,-71910]],[[738198,879135],[-73516,-6008]],[[664682,873127],[-6200,57022],[15526,16407]],[[674008,946556],[56231,4489]],[[811347,885121],[-73149,-5986]],[[730239,951045],[73154,5839]],[[803393,956884],[7954,-71763]],[[746187,806998],[-73667,-6017]],[[672520,800981],[-7838,72146]],[[738198,879135],[7989,-72137]],[[819341,812980],[-73154,-5982]],[[811347,885121],[7994,-72141]],[[746187,806998],[7959,-71967]],[[754146,735031],[-73808,-6027]],[[680338,729004],[-7818,71977]],[[827320,741008],[-73174,-5977]],[[819341,812980],[7979,-71972]],[[762110,663134],[-73934,-6227]],[[688176,656907],[-7838,72097]],[[754146,735031],[7964,-71897]],[[827320,741008],[7949,-71714]],[[835269,669294],[-73159,-6160]],[[762110,663134],[7974,-72056]],[[770084,591078],[-56045,-4574]],[[714039,586504],[-19749,14161],[-6114,56242]],[[835269,669294],[8009,-72248]],[[843278,597046],[-73194,-5968]],[[862575,946070],[6270,-56246]],[[868845,889824],[-57498,-4703]],[[803393,956884],[40574,3369],[18608,-14183]],[[876879,817687],[-57538,-4707]],[[868845,889824],[8034,-72137]],[[876879,817687],[8019,-71981]],[[884898,745706],[-57578,-4698]],[[884898,745706],[7979,-71562]],[[892877,674144],[-57608,-4850]],[[892877,674144],[6325,-56826]],[[899202,617318],[-16084,-16983],[-39840,-3289]],[[173951,499329],[6893,-65955]],[[180844,433374],[-79368,-6374]],[[101476,427000],[-5275,50929]],[[96201,477929],[15260,16260],[62490,5140]],[[259579,439695],[-78735,-6321]],[[173951,499329],[61696,5077]],[[235647,504406],[18567,-13970],[5365,-50741]],[[180844,433374],[6898,-65946]],[[187742,367428],[-79429,-6374]],[[108313,361054],[-6837,65946]],[[259579,439695],[6973,-65933]],[[266552,373762],[-78810,-6334]],[[194625,301585],[-79479,-6454]],[[115146,295131],[-6833,65923]],[[187742,367428],[6883,-65843]],[[266552,373762],[6959,-65767]],[[273511,307995],[-78886,-6410]],[[201503,235795],[-79549,-6365]],[[121954,229430],[-6808,65701]],[[194625,301585],[6878,-65790]],[[273511,307995],[6963,-65875]],[[280474,242120],[-78971,-6325]],[[201503,235795],[5159,-49346]],[[206662,186449],[-62440,-4935],[-18764,14041]],[[125458,195555],[-3504,33875]],[[268282,191321],[-61620,-4872]],[[280474,242120],[3605,-34093],[-15797,-16706]],[[357083,513993],[7833,-75252]],[[364916,438741],[-65070,-5256]],[[299846,433485],[-6465,59996],[15827,16683]],[[309208,510164],[47875,3829]],[[364916,438741],[6636,-63722]],[[371552,375019],[-47301,-3860],[-19191,13974]],[[305060,385133],[-5214,48352]],[[430548,519877],[8095,-75177]],[[438643,444700],[-13716,-1110]],[[424927,443590],[-60011,-4849]],[[357083,513993],[73465,5884]],[[431368,379895],[-59816,-4876]],[[424927,443590],[6441,-63695]],[[512325,450651],[-29327,-2372]],[[482998,448279],[-44355,-3579]],[[430548,519877],[73833,5910]],[[504381,525787],[7944,-75136]],[[585550,456565],[-43300,-3499]],[[542250,453066],[-29925,-2415]],[[504381,525787],[72843,5826]],[[577224,531613],[8326,-75048]],[[633892,536146],[18995,-13581],[6641,-60018]],[[659528,462547],[-58986,-4769]],[[600542,457778],[-14992,-1213]],[[577224,531613],[56668,4533]],[[482998,448279],[6370,-63650]],[[489368,384629],[-58000,-4734]],[[542250,453066],[6602,-63583]],[[548852,389483],[-59484,-4854]],[[600542,457778],[6813,-63521]],[[607355,394257],[-58503,-4774]],[[659528,462547],[5289,-47755]],[[664817,414792],[-15661,-17125],[-41801,-3410]],[[382900,340658],[8065,-74918]],[[390965,265740],[-72732,-5835]],[[318233,259905],[-6280,59946]],[[311953,319851],[15546,16345],[55401,4462]],[[397858,201675],[-55607,-4493]],[[342251,197182],[-18890,13831],[-5128,48892]],[[390965,265740],[6893,-64065]],[[462771,271498],[-71806,-5758]],[[382900,340658],[71762,5772]],[[454662,346430],[8109,-74932]],[[462771,271498],[6934,-64015]],[[469705,207483],[-71847,-5808]],[[526348,352198],[8140,-74945]],[[534488,277253],[-71717,-5755]],[[454662,346430],[71686,5768]],[[534488,277253],[6953,-63971]],[[541441,213282],[-71736,-5799]],[[606465,283025],[-71977,-5772]],[[526348,352198],[71942,5794]],[[598290,357992],[8175,-74967]],[[606465,283025],[6969,-63927]],[[613434,219098],[-71993,-5816]],[[672047,348494],[6526,-59683]],[[678573,288811],[-72108,-5786]],[[598290,357992],[54652,4395],[19105,-13893]],[[667759,223489],[-54325,-4391]],[[678573,288811],[5315,-48621],[-16129,-16701]],[[718358,542903],[56351,4547]],[[774709,547450],[8593,-78177]],[[783302,469273],[-73964,-6022]],[[709338,463251],[-6893,63098],[15913,16554]],[[847954,553360],[8633,-78123]],[[856587,475237],[-73285,-5964]],[[774709,547450],[73245,5910]],[[783302,469273],[8577,-78065]],[[791879,391208],[-73998,-6075]],[[717881,385133],[-8543,78118]],[[865209,397230],[-73330,-6022]],[[856587,475237],[8622,-78007]],[[800442,313259],[-74044,-6018]],[[726398,307241],[-8517,77892]],[[791879,391208],[8563,-77949]],[[873822,319218],[-73380,-5959]],[[865209,397230],[8613,-78012]],[[800442,313259],[8607,-78328]],[[809049,234931],[-57377,-4631]],[[751672,230300],[-18406,14049],[-6868,62892]],[[882480,240868],[-73431,-5937]],[[873822,319218],[8658,-78350]],[[907418,542970],[7074,-63022]],[[914492,479948],[-57905,-4711]],[[847954,553360],[40961,3361],[18503,-13751]],[[914492,479948],[8753,-77953]],[[923245,401995],[-58036,-4765]],[[932003,323947],[-58181,-4729]],[[923245,401995],[8758,-78048]],[[939042,261238],[-15520,-16876],[-41042,-3494]],[[932003,323947],[7039,-62709]],[[314125,17638],[-54310,-4378]],[[259815,13260],[-13022,132057]],[[246793,145317],[53928,4337]],[[300721,149654],[13404,-132016]],[[813805,190977],[13671,-131971]],[[827476,59006],[-177682,-14317]],[[649794,44689],[-14253,131936]],[[635541,176625],[178264,14352]],[[114678,134686],[6527,-66168]],[[121205,68518],[-32731,-2742]],[[88474,65776],[-6803,66280]],[[81671,132056],[33007,2630]],[[131733,136046],[15661,1261]],[[147394,137307],[6627,-66044]],[[154021,71263],[-32816,-2745]],[[114678,134686],[17055,1360]],[[187013,73964],[-32992,-2701]],[[147394,137307],[33339,2688]],[[180733,139995],[6280,-66031]],[[887357,196906],[14339,-131919]],[[901696,64987],[-74220,-5981]],[[813805,190977],[73552,5929]],[[947273,186088],[12941,-116389]],[[960214,69699],[-58518,-4712]],[[887357,196906],[40654,3271],[19262,-14089]],[[226250,10555],[-32952,-2652]],[[193298,7903],[-6285,66061]],[[180733,139995],[33003,2656]],[[213736,142651],[12514,-132096]],[[259815,13260],[-33565,-2705]],[[213736,142651],[33057,2666]],[[492933,103458],[7064,-70844]],[[499997,32614],[-156474,-12605]],[[343523,20009],[-7301,70782]],[[336222,90791],[94774,7666]],[[430996,98457],[61937,5001]],[[424646,159638],[6350,-61181]],[[336222,90791],[-6315,61216]],[[329907,152007],[94739,7631]],[[486834,164648],[6099,-61190]],[[424646,159638],[62188,5010]],[[343523,20009],[-29398,-2371]],[[300721,149654],[29186,2353]],[[127705,2616],[-32484,-2616],[-6747,65776]],[[121205,68518],[6500,-65902]],[[154021,71263],[6626,-65990]],[[160647,5273],[-32942,-2657]],[[193298,7903],[-32651,-2630]],[[489343,732583],[122467,9949],[19005,-14027]],[[630815,728505],[14017,-131379],[-16561,-17553]],[[628271,579573],[-119284,-9320]],[[508987,570253],[-21273,13613],[-14012,132373],[15641,16344]],[[674008,946556],[-83607,-6561]],[[54717,881698],[-5163,50639]],[[49554,932337],[749902,59929]],[[799456,992266],[3937,-35382]],[[623389,794959],[7426,-66454]],[[489343,732583],[-63657,-4952]],[[75452,684333],[-6853,65656]],[[714039,586504],[-85768,-6931]],[[508987,570253],[-65990,-5513]],[[88700,552321],[7501,-74392]],[[125458,195555],[6275,-59509]],[[81671,132056],[-81671,796323],[49554,3958]],[[843278,597046],[4676,-43686]],[[718358,542903],[-84466,-6757]],[[309208,510164],[-73561,-5758]],[[305060,385133],[6893,-65282]],[[342251,197182],[-73969,-5861]],[[664817,414792],[7230,-66298]],[[751672,230300],[-83913,-6811]],[[947273,186088],[-8231,75150]],[[907418,542970],[-8216,74348]],[[862575,946070],[-5465,50804]],[[857110,996874],[39091,3125],[103798,-927091],[-39785,-3209]],[[799456,992266],[57654,4608]],[[887357,196906],[-4877,43962]],[[649794,44689],[-74898,-6035]],[[574896,38654],[-13706,131985]],[[561190,170639],[74351,5986]],[[574896,38654],[-74899,-6040]],[[486834,164648],[74356,5991]]],"bbox":[121.209,278.127,320.104,502.478],"transform":{"scale":[0.00019889519889519888,0.00022435122435122436],"translate":[121.209,278.127]}}
