{"type":"Topology","objects":{"01207-4601-11":{"type":"GeometryCollection","geometries":[{"type":"MultiPolygon","arcs":[[[0,1,2]]],"properties":{"筆ID":"H000000001","version":"ver1.0","座標系":"任意座標系","測地系判別":null,"地図名":"帯広市区画整理図Ｅ（５００）１","地図番号":"E1","縮尺分母":"500","市区町村コード":"01207","市区町村名":"帯広市","大字コード":"009","丁目コード":"022","小字コード":"0000","予備コード":"00","大字名":"東四条南","丁目名":"２２丁目","小字名":null,"予備名":null,"地番":"10-5","精度区分":null,"座標値種別":"図上測量","筆界未定構成筆":null,"代表点緯度":502.3595,"代表点経度":718.721058331}},{"type":"MultiPolygon","arcs":[[[3,-1,4]]],"properties":{"筆ID":"H000000002","version":"ver1.0","座標系":"任意座標系","測地系判別":null,"地図名":"帯広市区画整理図Ｅ（５００）１","地図番号":"E1","縮尺分母":"500","市区町村コード":"01207","市区町村名":"帯広市","大字コード":"009","丁目コード":"023","小字コード":"0000","予備コード":"00","大字名":"東四条南","丁目名":"２３丁目","小字名":null,"予備名":null,"地番":"4-2","精度区分":null,"座標値種別":"図上測量","筆界未定構成筆":null,"代表点緯度":496.89,"代表点経度":719.272200532}},{"type":"MultiPolygon","arcs":[[[5,6,7]]],"properties":{"筆ID":"H000000003","version":"ver1.0","座標系":"任意座標系","測地系判別":null,"地図名":"帯広市区画整理図Ｅ（５００）１","地図番号":"E1","縮尺分母":"500","市区町村コード":"01207","市区町村名":"帯広市","大字コード":"009","丁目コード":"023","小字コード":"0000","予備コード":"00","大字名":"東四条南","丁目名":"２３丁目","小字名":null,"予備名":null,"地番":"20-1","精度区分":null,"座標値種別":"図上測量","筆界未定構成筆":null,"代表点緯度":393.009,"代表点経度":727.573593705}},{"type":"MultiPolygon","arcs":[[[8,9,-6,10]]],"properties":{"筆ID":"H000000004","version":"ver1.0","座標系":"任意座標系","測地系判別":null,"地図名":"帯広市区画整理図Ｅ（５００）１","地図番号":"E1","縮尺分母":"500","市区町村コード":"01207","市区町村名":"帯広市","大字コード":"009","丁目コード":"023","小字コード":"0000","予備コード":"00","大字名":"東四条南","丁目名":"２３丁目","小字名":null,"予備名":null,"地番":"20-2","精度区分":null,"座標値種別":"図上測量","筆界未定構成筆":null,"代表点緯度":393.6455,"代表点経度":740.89855034}},{"type":"MultiPolygon","arcs":[[[11,12,13]]],"properties":{"筆ID":"H000000005","version":"ver1.0","座標系":"任意座標系","測地系判別":null,"地図名":"帯広市区画整理図Ｅ（５００）１","地図番号":"E2","縮尺分母":"500","市区町村コード":"01207","市区町村名":"帯広市","大字コード":"009","丁目コード":"024","小字コード":"0000","予備コード":"00","大字名":"東四条南","丁目名":"２４丁目","小字名":null,"予備名":null,"地番":"4-1","精度区分":null,"座標値種別":"図上測量","筆界未定構成筆":null,"代表点緯度":368.3215,"代表点経度":720.086521659}},{"type":"MultiPolygon","arcs":[[[14,15,16,17]]],"properties":{"筆ID":"H000000006","version":"ver1.0","座標系":"任意座標系","測地系判別":null,"地図名":"帯広市区画整理図Ｅ（５００）１","地図番号":"E2","縮尺分母":"500","市区町村コード":"01207","市区町村名":"帯広市","大字コード":"009","丁目コード":"024","小字コード":"0000","予備コード":"00","大字名":"東四条南","丁目名":"２４丁目","小字名":null,"予備名":null,"地番":"20-3","精度区分":null,"座標値種別":"図上測量","筆界未定構成筆":null,"代表点緯度":331.4195,"代表点経度":736.640448617}},{"type":"MultiPolygon","arcs":[[[18,19,-3,20,21]]],"properties":{"筆ID":"H000000007","version":"ver1.0","座標系":"任意座標系","測地系判別":null,"地図名":"帯広市区画整理図Ｅ（５００）１","地図番号":"E1","縮尺分母":"500","市区町村コード":"01207","市区町村名":"帯広市","大字コード":"011","丁目コード":"022","小字コード":"0000","予備コード":"00","大字名":"東五条南","丁目名":"２２丁目","小字名":null,"予備名":null,"地番":"1-36","精度区分":null,"座標値種別":"図上測量","筆界未定構成筆":null,"代表点緯度":510.643,"代表点経度":796.078036224}},{"type":"MultiPolygon","arcs":[[[22,23,24,25,26,27,28,-5,-20,29]]],"properties":{"筆ID":"H000000008","version":"ver1.0","座標系":"任意座標系","測地系判別":null,"地図名":"帯広市区画整理図Ｅ（５００）１","地図番号":"E1","縮尺分母":"500","市区町村コード":"01207","市区町村名":"帯広市","大字コード":"011","丁目コード":"023","小字コード":"0000","予備コード":"00","大字名":"東五条南","丁目名":"２３丁目","小字名":null,"予備名":null,"地番":"1-1","精度区分":null,"座標値種別":"図上測量","筆界未定構成筆":null,"代表点緯度":488.03,"代表点経度":755.533462078}},{"type":"MultiPolygon","arcs":[[[30,31,32,33,34,35,36,37,38,39,40,-30,-19,41]]],"properties":{"筆ID":"H000000009","version":"ver1.0","座標系":"任意座標系","測地系判別":null,"地図名":"帯広市区画整理図Ｅ（５００）１","地図番号":"E1","縮尺分母":"500","市区町村コード":"01207","市区町村名":"帯広市","大字コード":"011","丁目コード":"023","小字コード":"0000","予備コード":"00","大字名":"東五条南","丁目名":"２３丁目","小字名":null,"予備名":null,"地番":"1-2","精度区分":null,"座標値種別":"図上測量","筆界未定構成筆":null,"代表点緯度":496.9385,"代表点経度":856.940825718}},{"type":"MultiPolygon","arcs":[[[42,43,44,45,46,47,-34,48,49,50,51,52,53,54,55,56,57,58,59,60,61,-25]]],"properties":{"筆ID":"H000000010","version":"ver1.0","座標系":"任意座標系","測地系判別":null,"地図名":"帯広市区画整理図Ｅ（５００）１","地図番号":"E1","縮尺分母":"500","市区町村コード":"01207","市区町村名":"帯広市","大字コード":"011","丁目コード":"023","小字コード":"0000","予備コード":"00","大字名":"東五条南","丁目名":"２３丁目","小字名":null,"予備名":null,"地番":"1-3","精度区分":null,"座標値種別":"図上測量","筆界未定構成筆":null,"代表点緯度":456.569,"代表点経度":861.247363823}},{"type":"MultiPolygon","arcs":[[[62,63,64,65,66,67,-54,68,69,70,71,72,73,74,75,76,77,78,79,80,81,82,83,84,85]]],"properties":{"筆ID":"H000000011","version":"ver1.0","座標系":"任意座標系","測地系判別":null,"地図名":"帯広市区画整理図Ｅ（５００）１","地図番号":"E1","縮尺分母":"500","市区町村コード":"01207","市区町村名":"帯広市","大字コード":"011","丁目コード":"023","小字コード":"0000","予備コード":"00","大字名":"東五条南","丁目名":"２３丁目","小字名":null,"予備名":null,"地番":"1-4","精度区分":null,"座標値種別":"図上測量","筆界未定構成筆":null,"代表点緯度":416.173,"代表点経度":865.566966929}},{"type":"MultiPolygon","arcs":[[[86,87,88,89,-26,-62,90,91,-85,92,93,94,95,96,97,98]]],"properties":{"筆ID":"H000000012","version":"ver1.0","座標系":"任意座標系","測地系判別":null,"地図名":"帯広市区画整理図Ｅ（５００）１","地図番号":"E1","縮尺分母":"500","市区町村コード":"01207","市区町村名":"帯広市","大字コード":"011","丁目コード":"023","小字コード":"0000","予備コード":"00","大字名":"東五条南","丁目名":"２３丁目","小字名":null,"予備名":null,"地番":"1-5","精度区分":null,"座標値種別":"図上測量","筆界未定構成筆":null,"代表点緯度":418.016,"代表点経度":762.996950221}},{"type":"MultiPolygon","arcs":[[[99,100,101,102,103,104,-75,105,106,107,108,109,110,111,112,113,-95,114]]],"properties":{"筆ID":"H000000013","version":"ver1.0","座標系":"任意座標系","測地系判別":null,"地図名":"帯広市区画整理図Ｅ（５００）１","地図番号":"E1","縮尺分母":"500","市区町村コード":"01207","市区町村名":"帯広市","大字コード":"011","丁目コード":"023","小字コード":"0000","予備コード":"00","大字名":"東五条南","丁目名":"２３丁目","小字名":null,"予備名":null,"地番":"1-6","精度区分":null,"座標値種別":"図上測量","筆界未定構成筆":null,"代表点緯度":386.299,"代表点経度":824.252890351}},{"type":"MultiPolygon","arcs":[[[115,116,-29]]],"properties":{"筆ID":"H000000014","version":"ver1.0","座標系":"任意座標系","測地系判別":null,"地図名":"帯広市区画整理図Ｅ（５００）１","地図番号":"E1","縮尺分母":"500","市区町村コード":"01207","市区町村名":"帯広市","大字コード":"011","丁目コード":"023","小字コード":"0000","予備コード":"00","大字名":"東五条南","丁目名":"２３丁目","小字名":null,"予備名":null,"地番":"2-1","精度区分":null,"座標値種別":"図上測量","筆界未定構成筆":null,"代表点緯度":487.826,"代表点経度":742.006654337}},{"type":"MultiPolygon","arcs":[[[117,118,-116,-28]]],"properties":{"筆ID":"H000000015","version":"ver1.0","座標系":"任意座標系","測地系判別":null,"地図名":"帯広市区画整理図Ｅ（５００）１","地図番号":"E1","縮尺分母":"500","市区町村コード":"01207","市区町村名":"帯広市","大字コード":"011","丁目コード":"023","小字コード":"0000","予備コード":"00","大字名":"東五条南","丁目名":"２３丁目","小字名":null,"予備名":null,"地番":"2-2","精度区分":null,"座標値種別":"図上測量","筆界未定構成筆":null,"代表点緯度":473.2265,"代表点経度":743.557955053}},{"type":"MultiPolygon","arcs":[[[-90,119,120,-118,-27]]],"properties":{"筆ID":"H000000016","version":"ver1.0","座標系":"任意座標系","測地系判別":null,"地図名":"帯広市区画整理図Ｅ（５００）１","地図番号":"E1","縮尺分母":"500","市区町村コード":"01207","市区町村名":"帯広市","大字コード":"011","丁目コード":"023","小字コード":"0000","予備コード":"00","大字名":"東五条南","丁目名":"２３丁目","小字名":null,"予備名":null,"地番":"2-3","精度区分":null,"座標値種別":"図上測量","筆界未定構成筆":null,"代表点緯度":458.309,"代表点経度":745.143172629}},{"type":"MultiPolygon","arcs":[[[-89,121,122,-120]]],"properties":{"筆ID":"H000000017","version":"ver1.0","座標系":"任意座標系","測地系判別":null,"地図名":"帯広市区画整理図Ｅ（５００）１","地図番号":"E1","縮尺分母":"500","市区町村コード":"01207","市区町村名":"帯広市","大字コード":"011","丁目コード":"023","小字コード":"0000","予備コード":"00","大字名":"東五条南","丁目名":"２３丁目","小字名":null,"予備名":null,"地番":"2-4","精度区分":null,"座標値種別":"図上測量","筆界未定構成筆":null,"代表点緯度":443.3725,"代表点経度":746.730584287}},{"type":"MultiPolygon","arcs":[[[123,124,-122,-88]]],"properties":{"筆ID":"H000000018","version":"ver1.0","座標系":"任意座標系","測地系判別":null,"地図名":"帯広市区画整理図Ｅ（５００）１","地図番号":"E1","縮尺分母":"500","市区町村コード":"01207","市区町村名":"帯広市","大字コード":"011","丁目コード":"023","小字コード":"0000","予備コード":"00","大字名":"東五条南","丁目名":"２３丁目","小字名":null,"予備名":null,"地番":"2-5","精度区分":null,"座標値種別":"図上測量","筆界未定構成筆":null,"代表点緯度":428.39,"代表点経度":748.322999283}},{"type":"MultiPolygon","arcs":[[[125,126,-124,-87]]],"properties":{"筆ID":"H000000019","version":"ver1.0","座標系":"任意座標系","測地系判別":null,"地図名":"帯広市区画整理図Ｅ（５００）１","地図番号":"E1","縮尺分母":"500","市区町村コード":"01207","市区町村名":"帯広市","大字コード":"011","丁目コード":"023","小字コード":"0000","予備コード":"00","大字名":"東五条南","丁目名":"２３丁目","小字名":null,"予備名":null,"地番":"2-6","精度区分":null,"座標値種別":"図上測量","筆界未定構成筆":null,"代表点緯度":413.375,"代表点経度":749.918741589}},{"type":"MultiPolygon","arcs":[[[-9,-126,-99]]],"properties":{"筆ID":"H000000020","version":"ver1.0","座標系":"任意座標系","測地系判別":null,"地図名":"帯広市区画整理図Ｅ（５００）１","地図番号":"E1","縮尺分母":"500","市区町村コード":"01207","市区町村名":"帯広市","大字コード":"011","丁目コード":"023","小字コード":"0000","予備コード":"00","大字名":"東五条南","丁目名":"２３丁目","小字名":null,"予備名":null,"地番":"2-7","精度区分":null,"座標値種別":"図上測量","筆界未定構成筆":null,"代表点緯度":396.595,"代表点経度":751.708722748}},{"type":"MultiPolygon","arcs":[[[127,128,-23,-41]]],"properties":{"筆ID":"H000000021","version":"ver1.0","座標系":"任意座標系","測地系判別":null,"地図名":"帯広市区画整理図Ｅ（５００）１","地図番号":"E1","縮尺分母":"500","市区町村コード":"01207","市区町村名":"帯広市","大字コード":"011","丁目コード":"023","小字コード":"0000","予備コード":"00","大字名":"東五条南","丁目名":"２３丁目","小字名":null,"予備名":null,"地番":"3-1","精度区分":null,"座標値種別":"図上測量","筆界未定構成筆":null,"代表点緯度":489.336,"代表点経度":768.162948389}},{"type":"MultiPolygon","arcs":[[[129,-43,-24,-129]]],"properties":{"筆ID":"H000000022","version":"ver1.0","座標系":"任意座標系","測地系判別":null,"地図名":"帯広市区画整理図Ｅ（５００）１","地図番号":"E1","縮尺分母":"500","市区町村コード":"01207","市区町村名":"帯広市","大字コード":"011","丁目コード":"023","小字コード":"0000","予備コード":"00","大字名":"東五条南","丁目名":"２３丁目","小字名":null,"予備名":null,"地番":"3-2","精度区分":null,"座標値種別":"図上測量","筆界未定構成筆":null,"代表点緯度":475.739,"代表点経度":769.65922258}},{"type":"MultiPolygon","arcs":[[[130,-128,-40,131]]],"properties":{"筆ID":"H000000023","version":"ver1.0","座標系":"任意座標系","測地系判別":null,"地図名":"帯広市区画整理図Ｅ（５００）１","地図番号":"E1","縮尺分母":"500","市区町村コード":"01207","市区町村名":"帯広市","大字コード":"011","丁目コード":"023","小字コード":"0000","予備コード":"00","大字名":"東五条南","丁目名":"２３丁目","小字名":null,"予備名":null,"地番":"3-3","精度区分":null,"座標値種別":"図上測量","筆界未定構成筆":null,"代表点緯度":492.69,"代表点経度":783.183000766}},{"type":"MultiPolygon","arcs":[[[-44,-130,-131,132]]],"properties":{"筆ID":"H000000024","version":"ver1.0","座標系":"任意座標系","測地系判別":null,"地図名":"帯広市区画整理図Ｅ（５００）１","地図番号":"E1","縮尺分母":"500","市区町村コード":"01207","市区町村名":"帯広市","大字コード":"011","丁目コード":"023","小字コード":"0000","予備コード":"00","大字名":"東五条南","丁目名":"２３丁目","小字名":null,"予備名":null,"地番":"3-4","精度区分":null,"座標値種別":"図上測量","筆界未定構成筆":null,"代表点緯度":476.538,"代表点経度":784.949365856}},{"type":"MultiPolygon","arcs":[[[133,-132,-39,134]]],"properties":{"筆ID":"H000000025","version":"ver1.0","座標系":"任意座標系","測地系判別":null,"地図名":"帯広市区画整理図Ｅ（５００）１","地図番号":"E1","縮尺分母":"500","市区町村コード":"01207","市区町村名":"帯広市","大字コード":"011","丁目コード":"023","小字コード":"0000","予備コード":"00","大字名":"東五条南","丁目名":"２３丁目","小字名":null,"予備名":null,"地番":"3-5","精度区分":null,"座標値種別":"図上測量","筆界未定構成筆":null,"代表点緯度":494.3175,"代表点経度":798.40399355}},{"type":"MultiPolygon","arcs":[[[-45,-133,-134,135]]],"properties":{"筆ID":"H000000026","version":"ver1.0","座標系":"任意座標系","測地系判別":null,"地図名":"帯広市区画整理図Ｅ（５００）１","地図番号":"E1","縮尺分母":"500","市区町村コード":"01207","市区町村名":"帯広市","大字コード":"011","丁目コード":"023","小字コード":"0000","予備コード":"00","大字名":"東五条南","丁目名":"２３丁目","小字名":null,"予備名":null,"地番":"3-6","精度区分":null,"座標値種別":"図上測量","筆界未定構成筆":null,"代表点緯度":478.151,"代表点経度":800.143333381}},{"type":"MultiPolygon","arcs":[[[136,-135,-38,137]]],"properties":{"筆ID":"H000000027","version":"ver1.0","座標系":"任意座標系","測地系判別":null,"地図名":"帯広市区画整理図Ｅ（５００）１","地図番号":"E1","縮尺分母":"500","市区町村コード":"01207","市区町村名":"帯広市","大字コード":"011","丁目コード":"023","小字コード":"0000","予備コード":"00","大字名":"東五条南","丁目名":"２３丁目","小字名":null,"予備名":null,"地番":"3-7","精度区分":null,"座標値種別":"図上測量","筆界未定構成筆":null,"代表点緯度":495.952,"代表点経度":813.670240784}},{"type":"MultiPolygon","arcs":[[[-46,-136,-137,138]]],"properties":{"筆ID":"H000000028","version":"ver1.0","座標系":"任意座標系","測地系判別":null,"地図名":"帯広市区画整理図Ｅ（５００）１","地図番号":"E1","縮尺分母":"500","市区町村コード":"01207","市区町村名":"帯広市","大字コード":"011","丁目コード":"023","小字コード":"0000","予備コード":"00","大字名":"東五条南","丁目名":"２３丁目","小字名":null,"予備名":null,"地番":"3-8","精度区分":null,"座標値種別":"図上測量","筆界未定構成筆":null,"代表点緯度":479.7705,"代表点経度":815.382928599}},{"type":"MultiPolygon","arcs":[[[139,140,-138,-37]]],"properties":{"筆ID":"H000000029","version":"ver1.0","座標系":"任意座標系","測地系判別":null,"地図名":"帯広市区画整理図Ｅ（５００）１","地図番号":"E1","縮尺分母":"500","市区町村コード":"01207","市区町村名":"帯広市","大字コード":"011","丁目コード":"023","小字コード":"0000","予備コード":"00","大字名":"東五条南","丁目名":"２３丁目","小字名":null,"予備名":null,"地番":"3-9","精度区分":null,"座標値種別":"図上測量","筆界未定構成筆":null,"代表点緯度":497.583,"代表点経度":828.910538198}},{"type":"MultiPolygon","arcs":[[[-47,-139,-141,141]]],"properties":{"筆ID":"H000000030","version":"ver1.0","座標系":"任意座標系","測地系判別":null,"地図名":"帯広市区画整理図Ｅ（５００）１","地図番号":"E1","縮尺分母":"500","市区町村コード":"01207","市区町村名":"帯広市","大字コード":"011","丁目コード":"023","小字コード":"0000","予備コード":"00","大字名":"東五条南","丁目名":"２３丁目","小字名":null,"予備名":null,"地番":"3-10","精度区分":null,"座標値種別":"図上測量","筆界未定構成筆":null,"代表点緯度":481.389,"代表点経度":830.620158485}},{"type":"MultiPolygon","arcs":[[[142,-140,-36]]],"properties":{"筆ID":"H000000031","version":"ver1.0","座標系":"任意座標系","測地系判別":null,"地図名":"帯広市区画整理図Ｅ（５００）１","地図番号":"E1","縮尺分母":"500","市区町村コード":"01207","市区町村名":"帯広市","大字コード":"011","丁目コード":"023","小字コード":"0000","予備コード":"00","大字名":"東五条南","丁目名":"２３丁目","小字名":null,"予備名":null,"地番":"3-11","精度区分":null,"座標値種別":"図上測量","筆界未定構成筆":null,"代表点緯度":498.2525,"代表点経度":844.165642745}},{"type":"MultiPolygon","arcs":[[[-35,-48,-142,-143]]],"properties":{"筆ID":"H000000032","version":"ver1.0","座標系":"任意座標系","測地系判別":null,"地図名":"帯広市区画整理図Ｅ（５００）１","地図番号":"E1","縮尺分母":"500","市区町村コード":"01207","市区町村名":"帯広市","大字コード":"011","丁目コード":"023","小字コード":"0000","予備コード":"00","大字名":"東五条南","丁目名":"２３丁目","小字名":null,"予備名":null,"地番":"3-12","精度区分":null,"座標値種別":"図上測量","筆界未定構成筆":null,"代表点緯度":484.6485,"代表点経度":845.612875806}},{"type":"MultiPolygon","arcs":[[[143,144,-91,-61]]],"properties":{"筆ID":"H000000033","version":"ver1.0","座標系":"任意座標系","測地系判別":null,"地図名":"帯広市区画整理図Ｅ（５００）１","地図番号":"E1","縮尺分母":"500","市区町村コード":"01207","市区町村名":"帯広市","大字コード":"011","丁目コード":"023","小字コード":"0000","予備コード":"00","大字名":"東五条南","丁目名":"２３丁目","小字名":null,"予備名":null,"地番":"4-1","精度区分":null,"座標値種別":"図上測量","筆界未定構成筆":null,"代表点緯度":448.9815,"代表点経度":772.302334981}},{"type":"MultiPolygon","arcs":[[[-86,-92,-145,145]]],"properties":{"筆ID":"H000000034","version":"ver1.0","座標系":"任意座標系","測地系判別":null,"地図名":"帯広市区画整理図Ｅ（５００）１","地図番号":"E1","縮尺分母":"500","市区町村コード":"01207","市区町村名":"帯広市","大字コード":"011","丁目コード":"023","小字コード":"0000","予備コード":"00","大字名":"東五条南","丁目名":"２３丁目","小字名":null,"予備名":null,"地番":"4-2","精度区分":null,"座標値種別":"図上測量","筆界未定構成筆":null,"代表点緯度":435.728,"代表点経度":773.688808439}},{"type":"MultiPolygon","arcs":[[[146,-144,-60,147]]],"properties":{"筆ID":"H000000035","version":"ver1.0","座標系":"任意座標系","測地系判別":null,"地図名":"帯広市区画整理図Ｅ（５００）１","地図番号":"E1","縮尺分母":"500","市区町村コード":"01207","市区町村名":"帯広市","大字コード":"011","丁目コード":"023","小字コード":"0000","予備コード":"00","大字名":"東五条南","丁目名":"２３丁目","小字名":null,"予備名":null,"地番":"4-3","精度区分":null,"座標値種別":"図上測量","筆界未定構成筆":null,"代表点緯度":452.2845,"代表点経度":787.179944525}},{"type":"MultiPolygon","arcs":[[[-63,-146,-147,148]]],"properties":{"筆ID":"H000000036","version":"ver1.0","座標系":"任意座標系","測地系判別":null,"地図名":"帯広市区画整理図Ｅ（５００）１","地図番号":"E1","縮尺分母":"500","市区町村コード":"01207","市区町村名":"帯広市","大字コード":"011","丁目コード":"023","小字コード":"0000","予備コード":"00","大字名":"東五条南","丁目名":"２３丁目","小字名":null,"予備名":null,"地番":"4-4","精度区分":null,"座標値種別":"図上測量","筆界未定構成筆":null,"代表点緯度":436.18,"代表点経度":788.871809585}},{"type":"MultiPolygon","arcs":[[[149,-148,-59,150]]],"properties":{"筆ID":"H000000037","version":"ver1.0","座標系":"任意座標系","測地系判別":null,"地図名":"帯広市区画整理図Ｅ（５００）１","地図番号":"E1","縮尺分母":"500","市区町村コード":"01207","市区町村名":"帯広市","大字コード":"011","丁目コード":"023","小字コード":"0000","予備コード":"00","大字名":"東五条南","丁目名":"２３丁目","小字名":null,"予備名":null,"地番":"4-5","精度区分":null,"座標値種別":"図上測量","筆界未定構成筆":null,"代表点緯度":453.9205,"代表点経度":802.473391967}},{"type":"MultiPolygon","arcs":[[[151,-64,-149,-150]]],"properties":{"筆ID":"H000000038","version":"ver1.0","座標系":"任意座標系","測地系判別":null,"地図名":"帯広市区画整理図Ｅ（５００）１","地図番号":"E1","縮尺分母":"500","市区町村コード":"01207","市区町村名":"帯広市","大字コード":"011","丁目コード":"023","小字コード":"0000","予備コード":"00","大字名":"東五条南","丁目名":"２３丁目","小字名":null,"予備名":null,"地番":"4-6","精度区分":null,"座標値種別":"図上測量","筆界未定構成筆":null,"代表点緯度":437.8175,"代表点経度":804.185779518}},{"type":"MultiPolygon","arcs":[[[152,153,154,-151,-58]]],"properties":{"筆ID":"H000000039","version":"ver1.0","座標系":"任意座標系","測地系判別":null,"地図名":"帯広市区画整理図Ｅ（５００）１","地図番号":"E1","縮尺分母":"500","市区町村コード":"01207","市区町村名":"帯広市","大字コード":"011","丁目コード":"023","小字コード":"0000","予備コード":"00","大字名":"東五条南","丁目名":"２３丁目","小字名":null,"予備名":null,"地番":"4-7","精度区分":null,"座標値種別":"図上測量","筆界未定構成筆":null,"代表点緯度":455.563,"代表点経度":817.817811436}},{"type":"MultiPolygon","arcs":[[[-65,-152,-155,155]]],"properties":{"筆ID":"H000000040","version":"ver1.0","座標系":"任意座標系","測地系判別":null,"地図名":"帯広市区画整理図Ｅ（５００）１","地図番号":"E1","縮尺分母":"500","市区町村コード":"01207","市区町村名":"帯広市","大字コード":"011","丁目コード":"023","小字コード":"0000","予備コード":"00","大字名":"東五条南","丁目名":"２３丁目","小字名":null,"予備名":null,"地番":"4-8","精度区分":null,"座標値種別":"図上測量","筆界未定構成筆":null,"代表点緯度":438.8885,"代表点経度":814.189515683}},{"type":"MultiPolygon","arcs":[[[156,-153,-57,157]]],"properties":{"筆ID":"H000000041","version":"ver1.0","座標系":"任意座標系","測地系判別":null,"地図名":"帯広市区画整理図Ｅ（５００）１","地図番号":"E1","縮尺分母":"500","市区町村コード":"01207","市区町村名":"帯広市","大字コード":"011","丁目コード":"023","小字コード":"0000","予備コード":"00","大字名":"東五条南","丁目名":"２３丁目","小字名":null,"予備名":null,"地番":"4-9","精度区分":null,"座標値種別":"図上測量","筆界未定構成筆":null,"代表点緯度":457.196,"代表点経度":833.031057654}},{"type":"MultiPolygon","arcs":[[[-67,158,-157,159]]],"properties":{"筆ID":"H000000042","version":"ver1.0","座標系":"任意座標系","測地系判別":null,"地図名":"帯広市区画整理図Ｅ（５００）１","地図番号":"E1","縮尺分母":"500","市区町村コード":"01207","市区町村名":"帯広市","大字コード":"011","丁目コード":"023","小字コード":"0000","予備コード":"00","大字名":"東五条南","丁目名":"２３丁目","小字名":null,"予備名":null,"地番":"4-10","精度区分":null,"座標値種別":"図上測量","筆界未定構成筆":null,"代表点緯度":441.0875,"代表点経度":834.703807503}},{"type":"MultiPolygon","arcs":[[[160,-158,-56]]],"properties":{"筆ID":"H000000043","version":"ver1.0","座標系":"任意座標系","測地系判別":null,"地図名":"帯広市区画整理図Ｅ（５００）１","地図番号":"E1","縮尺分母":"500","市区町村コード":"01207","市区町村名":"帯広市","大字コード":"011","丁目コード":"023","小字コード":"0000","予備コード":"00","大字名":"東五条南","丁目名":"２３丁目","小字名":null,"予備名":null,"地番":"4-11","精度区分":null,"座標値種別":"図上測量","筆界未定構成筆":null,"代表点緯度":457.992,"代表点経度":848.317139512}},{"type":"MultiPolygon","arcs":[[[-68,-160,-161,-55]]],"properties":{"筆ID":"H000000044","version":"ver1.0","座標系":"任意座標系","測地系判別":null,"地図名":"帯広市区画整理図Ｅ（５００）１","地図番号":"E1","縮尺分母":"500","市区町村コード":"01207","市区町村名":"帯広市","大字コード":"011","丁目コード":"023","小字コード":"0000","予備コード":"00","大字名":"東五条南","丁目名":"２３丁目","小字名":null,"予備名":null,"地番":"4-12","精度区分":null,"座標値種別":"図上測量","筆界未定構成筆":null,"代表点緯度":444.3905,"代表点経度":849.757267511}},{"type":"MultiPolygon","arcs":[[[-159,-66,-156,-154]]],"properties":{"筆ID":"H000000045","version":"ver1.0","座標系":"任意座標系","測地系判別":null,"地図名":"帯広市区画整理図Ｅ（５００）１","地図番号":"E1","縮尺分母":"500","市区町村コード":"01207","市区町村名":"帯広市","大字コード":"011","丁目コード":"023","小字コード":"0000","予備コード":"00","大字名":"東五条南","丁目名":"２３丁目","小字名":null,"予備名":null,"地番":"4-13","精度区分":null,"座標値種別":"図上測量","筆界未定構成筆":null,"代表点緯度":439.702,"代表点経度":821.801305182}},{"type":"MultiPolygon","arcs":[[[161,162,163,-93,-84]]],"properties":{"筆ID":"H000000046","version":"ver1.0","座標系":"任意座標系","測地系判別":null,"地図名":"帯広市区画整理図Ｅ（５００）１","地図番号":"E1","縮尺分母":"500","市区町村コード":"01207","市区町村名":"帯広市","大字コード":"011","丁目コード":"023","小字コード":"0000","予備コード":"00","大字名":"東五条南","丁目名":"２３丁目","小字名":null,"予備名":null,"地番":"5-1","精度区分":null,"座標値種別":"図上測量","筆界未定構成筆":null,"代表点緯度":408.7175,"代表点経度":776.866782906}},{"type":"MultiPolygon","arcs":[[[-115,-94,-164,164]]],"properties":{"筆ID":"H000000047","version":"ver1.0","座標系":"任意座標系","測地系判別":null,"地図名":"帯広市区画整理図Ｅ（５００）１","地図番号":"E1","縮尺分母":"500","市区町村コード":"01207","市区町村名":"帯広市","大字コード":"011","丁目コード":"023","小字コード":"0000","予備コード":"00","大字名":"東五条南","丁目名":"２３丁目","小字名":null,"予備名":null,"地番":"5-2","精度区分":null,"座標値種別":"図上測量","筆界未定構成筆":null,"代表点緯度":395.3975,"代表点経度":774.607985072}},{"type":"MultiPolygon","arcs":[[[165,-162,-83,166]]],"properties":{"筆ID":"H000000048","version":"ver1.0","座標系":"任意座標系","測地系判別":null,"地図名":"帯広市区画整理図Ｅ（５００）１","地図番号":"E1","縮尺分母":"500","市区町村コード":"01207","市区町村名":"帯広市","大字コード":"011","丁目コード":"023","小字コード":"0000","予備コード":"00","大字名":"東五条南","丁目名":"２３丁目","小字名":null,"予備名":null,"地番":"5-3","精度区分":null,"座標値種別":"図上測量","筆界未定構成筆":null,"代表点緯度":412.1445,"代表点経度":792.108494471}},{"type":"MultiPolygon","arcs":[[[-101,167,-166,168]]],"properties":{"筆ID":"H000000049","version":"ver1.0","座標系":"任意座標系","測地系判別":null,"地図名":"帯広市区画整理図Ｅ（５００）１","地図番号":"E1","縮尺分母":"500","市区町村コード":"01207","市区町村名":"帯広市","大字コード":"011","丁目コード":"023","小字コード":"0000","予備コード":"00","大字名":"東五条南","丁目名":"２３丁目","小字名":null,"予備名":null,"地番":"5-4","精度区分":null,"座標値種別":"図上測量","筆界未定構成筆":null,"代表点緯度":396.036,"代表点経度":793.813326637}},{"type":"MultiPolygon","arcs":[[[169,170,-167,-82]]],"properties":{"筆ID":"H000000050","version":"ver1.0","座標系":"任意座標系","測地系判別":null,"地図名":"帯広市区画整理図Ｅ（５００）１","地図番号":"E1","縮尺分母":"500","市区町村コード":"01207","市区町村名":"帯広市","大字コード":"011","丁目コード":"023","小字コード":"0000","予備コード":"00","大字名":"東五条南","丁目名":"２３丁目","小字名":null,"予備名":null,"地番":"5-5","精度区分":null,"座標値種別":"図上測量","筆界未定構成筆":null,"代表点緯度":413.648,"代表点経度":806.231450773}},{"type":"MultiPolygon","arcs":[[[171,-102,-169,-171,172]]],"properties":{"筆ID":"H000000051","version":"ver1.0","座標系":"任意座標系","測地系判別":null,"地図名":"帯広市区画整理図Ｅ（５００）１","地図番号":"E1","縮尺分母":"500","市区町村コード":"01207","市区町村名":"帯広市","大字コード":"011","丁目コード":"023","小字コード":"0000","予備コード":"00","大字名":"東五条南","丁目名":"２３丁目","小字名":null,"予備名":null,"地番":"5-6","精度区分":null,"座標値種別":"図上測量","筆界未定構成筆":null,"代表点緯度":397.5655,"代表点経度":808.323718284}},{"type":"MultiPolygon","arcs":[[[173,-173,-170,-81,174]]],"properties":{"筆ID":"H000000052","version":"ver1.0","座標系":"任意座標系","測地系判別":null,"地図名":"帯広市区画整理図Ｅ（５００）１","地図番号":"E1","縮尺分母":"500","市区町村コード":"01207","市区町村名":"帯広市","大字コード":"011","丁目コード":"023","小字コード":"0000","予備コード":"00","大字名":"東五条南","丁目名":"２３丁目","小字名":null,"予備名":null,"地番":"5-7","精度区分":null,"座標値種別":"図上測量","筆界未定構成筆":null,"代表点緯度":415.006,"代表点経度":818.964412721}},{"type":"MultiPolygon","arcs":[[[175,-103,-172,-174,176]]],"properties":{"筆ID":"H000000053","version":"ver1.0","座標系":"任意座標系","測地系判別":null,"地図名":"帯広市区画整理図Ｅ（５００）１","地図番号":"E1","縮尺分母":"500","市区町村コード":"01207","市区町村名":"帯広市","大字コード":"011","丁目コード":"023","小字コード":"0000","予備コード":"00","大字名":"東五条南","丁目名":"２３丁目","小字名":null,"予備名":null,"地番":"5-8","精度区分":null,"座標値種別":"図上測量","筆界未定構成筆":null,"代表点緯度":399.0025,"代表点経度":821.893772387}},{"type":"MultiPolygon","arcs":[[[177,178,-177,-175,-80]]],"properties":{"筆ID":"H000000054","version":"ver1.0","座標系":"任意座標系","測地系判別":null,"地図名":"帯広市区画整理図Ｅ（５００）１","地図番号":"E1","縮尺分母":"500","市区町村コード":"01207","市区町村名":"帯広市","大字コード":"011","丁目コード":"023","小字コード":"0000","予備コード":"00","大字名":"東五条南","丁目名":"２３丁目","小字名":null,"予備名":null,"地番":"5-9","精度区分":null,"座標値種別":"図上測量","筆界未定構成筆":null,"代表点緯度":416.35,"代表点経度":831.568203067}},{"type":"MultiPolygon","arcs":[[[179,180,-104,-176,-179]]],"properties":{"筆ID":"H000000055","version":"ver1.0","座標系":"任意座標系","測地系判別":null,"地図名":"帯広市区画整理図Ｅ（５００）１","地図番号":"E1","縮尺分母":"500","市区町村コード":"01207","市区町村名":"帯広市","大字コード":"011","丁目コード":"023","小字コード":"0000","予備コード":"00","大字名":"東五条南","丁目名":"２３丁目","小字名":null,"予備名":null,"地番":"5-10","精度区分":null,"座標値種別":"図上測量","筆界未定構成筆":null,"代表点緯度":400.4375,"代表点経度":835.525011882}},{"type":"MultiPolygon","arcs":[[[181,182,-78]]],"properties":{"筆ID":"H000000056","version":"ver1.0","座標系":"任意座標系","測地系判別":null,"地図名":"帯広市区画整理図Ｅ（５００）１","地図番号":"E1","縮尺分母":"500","市区町村コード":"01207","市区町村名":"帯広市","大字コード":"011","丁目コード":"023","小字コード":"0000","予備コード":"00","大字名":"東五条南","丁目名":"２３丁目","小字名":null,"予備名":null,"地番":"5-11","精度区分":null,"座標値種別":"図上測量","筆界未定構成筆":null,"代表点緯度":418.0455,"代表点経度":850.464859973}},{"type":"MultiPolygon","arcs":[[[-105,-181,183,-76]]],"properties":{"筆ID":"H000000057","version":"ver1.0","座標系":"任意座標系","測地系判別":null,"地図名":"帯広市区画整理図Ｅ（５００）１","地図番号":"E1","縮尺分母":"500","市区町村コード":"01207","市区町村名":"帯広市","大字コード":"011","丁目コード":"023","小字コード":"0000","予備コード":"00","大字名":"東五条南","丁目名":"２３丁目","小字名":null,"予備名":null,"地番":"5-12","精度区分":null,"座標値種別":"図上測量","筆界未定構成筆":null,"代表点緯度":403.871,"代表点経度":851.982346054}},{"type":"MultiPolygon","arcs":[[[184,-180,-178,-79,-183]]],"properties":{"筆ID":"H000000058","version":"ver1.0","座標系":"任意座標系","測地系判別":null,"地図名":"帯広市区画整理図Ｅ（５００）１","地図番号":"E1","縮尺分母":"500","市区町村コード":"01207","市区町村名":"帯広市","大字コード":"011","丁目コード":"023","小字コード":"0000","予備コード":"00","大字名":"東五条南","丁目名":"２３丁目","小字名":null,"予備名":null,"地番":"5-13","精度区分":null,"座標値種別":"図上測量","筆界未定構成筆":null,"代表点緯度":417.6785,"代表点経度":839.24205836}},{"type":"MultiPolygon","arcs":[[[-168,-100,-165,-163]]],"properties":{"筆ID":"H000000059","version":"ver1.0","座標系":"任意座標系","測地系判別":null,"地図名":"帯広市区画整理図Ｅ（５００）１","地図番号":"E1","縮尺分母":"500","市区町村コード":"01207","市区町村名":"帯広市","大字コード":"011","丁目コード":"023","小字コード":"0000","予備コード":"00","大字名":"東五条南","丁目名":"２３丁目","小字名":null,"予備名":null,"地番":"5-14","精度区分":null,"座標値種別":"図上測量","筆界未定構成筆":null,"代表点緯度":394.8415,"代表点経度":782.484632983}},{"type":"MultiPolygon","arcs":[[[-77,-184,-185,-182]]],"properties":{"筆ID":"H000000060","version":"ver1.0","座標系":"任意座標系","測地系判別":null,"地図名":"帯広市区画整理図Ｅ（５００）１","地図番号":"E1","縮尺分母":"500","市区町村コード":"01207","市区町村名":"帯広市","大字コード":"011","丁目コード":"023","小字コード":"0000","予備コード":"00","大字名":"東五条南","丁目名":"２３丁目","小字名":null,"予備名":null,"地番":"5-15","精度区分":null,"座標値種別":"図上測量","筆界未定構成筆":null,"代表点緯度":410.675,"代表点経度":851.242344846}},{"type":"MultiPolygon","arcs":[[[-113,185,186,187]]],"properties":{"筆ID":"H000000061","version":"ver1.0","座標系":"任意座標系","測地系判別":null,"地図名":"帯広市区画整理図Ｅ（５００）１","地図番号":"E2","縮尺分母":"500","市区町村コード":"01207","市区町村名":"帯広市","大字コード":"011","丁目コード":"024","小字コード":"0000","予備コード":"00","大字名":"東五条南","丁目名":"２４丁目","小字名":null,"予備名":null,"地番":"1-1","精度区分":null,"座標値種別":"図上測量","筆界未定構成筆":null,"代表点緯度":355.213,"代表点経度":786.739406451}},{"type":"MultiPolygon","arcs":[[[188,189,190,-186,-112,191]]],"properties":{"筆ID":"H000000062","version":"ver1.0","座標系":"任意座標系","測地系判別":null,"地図名":"帯広市区画整理図Ｅ（５００）１","地図番号":"E2","縮尺分母":"500","市区町村コード":"01207","市区町村名":"帯広市","大字コード":"011","丁目コード":"024","小字コード":"0000","予備コード":"00","大字名":"東五条南","丁目名":"２４丁目","小字名":null,"予備名":null,"地番":"1-3","精度区分":null,"座標値種別":"図上測量","筆界未定構成筆":null,"代表点緯度":356.7475,"代表点経度":802.706659482}},{"type":"MultiPolygon","arcs":[[[192,193,194,195,196,197,-107,198]]],"properties":{"筆ID":"H000000063","version":"ver1.0","座標系":"任意座標系","測地系判別":null,"地図名":"帯広市区画整理図Ｅ（５００）１","地図番号":"E2","縮尺分母":"500","市区町村コード":"01207","市区町村名":"帯広市","大字コード":"011","丁目コード":"024","小字コード":"0000","予備コード":"00","大字名":"東五条南","丁目名":"２４丁目","小字名":null,"予備名":null,"地番":"1-4","精度区分":null,"座標値種別":"図上測量","筆界未定構成筆":null,"代表点緯度":338.0575,"代表点経度":873.825479286}},{"type":"MultiPolygon","arcs":[[[-191,199,200,201,202,-195,203,204,205,206,207,208,209,210,211,-187]]],"properties":{"筆ID":"H000000064","version":"ver1.0","座標系":"任意座標系","測地系判別":null,"地図名":"帯広市区画整理図Ｅ（５００）１","地図番号":"E2","縮尺分母":"500","市区町村コード":"01207","市区町村名":"帯広市","大字コード":"011","丁目コード":"024","小字コード":"0000","予備コード":"00","大字名":"東五条南","丁目名":"２４丁目","小字名":null,"予備名":null,"地番":"1-5","精度区分":null,"座標値種別":"図上測量","筆界未定構成筆":null,"代表点緯度":333.113,"代表点経度":823.162871684}},{"type":"MultiPolygon","arcs":[[[212,213,214,-97]]],"properties":{"筆ID":"H000000065","version":"ver1.0","座標系":"任意座標系","測地系判別":null,"地図名":"帯広市区画整理図Ｅ（５００）１","地図番号":"E2","縮尺分母":"500","市区町村コード":"01207","市区町村名":"帯広市","大字コード":"011","丁目コード":"024","小字コード":"0000","予備コード":"00","大字名":"東五条南","丁目名":"２４丁目","小字名":null,"予備名":null,"地番":"4-1","精度区分":null,"座標値種別":"図上測量","筆界未定構成筆":null,"代表点緯度":364.851,"代表点経度":754.968699112}},{"type":"MultiPolygon","arcs":[[[215,216,217,-214]]],"properties":{"筆ID":"H000000066","version":"ver1.0","座標系":"任意座標系","測地系判別":null,"地図名":"帯広市区画整理図Ｅ（５００）１","地図番号":"E2","縮尺分母":"500","市区町村コード":"01207","市区町村名":"帯広市","大字コード":"011","丁目コード":"024","小字コード":"0000","予備コード":"00","大字名":"東五条南","丁目名":"２４丁目","小字名":null,"予備名":null,"地番":"4-2","精度区分":null,"座標値種別":"図上測量","筆界未定構成筆":null,"代表点緯度":349.8035,"代表点経度":756.529121173}},{"type":"MultiPolygon","arcs":[[[218,-15,-217,219]]],"properties":{"筆ID":"H000000067","version":"ver1.0","座標系":"任意座標系","測地系判別":null,"地図名":"帯広市区画整理図Ｅ（５００）１","地図番号":"E2","縮尺分母":"500","市区町村コード":"01207","市区町村名":"帯広市","大字コード":"011","丁目コード":"024","小字コード":"0000","予備コード":"00","大字名":"東五条南","丁目名":"２４丁目","小字名":null,"予備名":null,"地番":"4-3","精度区分":null,"座標値種別":"図上測量","筆界未定構成筆":null,"代表点緯度":333.7955,"代表点経度":758.25384275}},{"type":"MultiPolygon","arcs":[[[220,221,-192,-111]]],"properties":{"筆ID":"H000000068","version":"ver1.0","座標系":"任意座標系","測地系判別":null,"地図名":"帯広市区画整理図Ｅ（５００）１","地図番号":"E2","縮尺分母":"500","市区町村コード":"01207","市区町村名":"帯広市","大字コード":"011","丁目コード":"024","小字コード":"0000","予備コード":"00","大字名":"東五条南","丁目名":"２４丁目","小字名":null,"予備名":null,"地番":"5-1","精度区分":null,"座標値種別":"図上測量","筆界未定構成筆":null,"代表点緯度":370.832,"代表点経度":813.597982272}},{"type":"MultiPolygon","arcs":[[[222,223,-189,-222,224]]],"properties":{"筆ID":"H000000069","version":"ver1.0","座標系":"任意座標系","測地系判別":null,"地図名":"帯広市区画整理図Ｅ（５００）１","地図番号":"E2","縮尺分母":"500","市区町村コード":"01207","市区町村名":"帯広市","大字コード":"011","丁目コード":"024","小字コード":"0000","予備コード":"00","大字名":"東五条南","丁目名":"２４丁目","小字名":null,"予備名":null,"地番":"5-2","精度区分":null,"座標値種別":"図上測量","筆界未定構成筆":null,"代表点緯度":355.1325,"代表点経度":815.225663389}},{"type":"MultiPolygon","arcs":[[[-200,-190,-224,225]]],"properties":{"筆ID":"H000000070","version":"ver1.0","座標系":"任意座標系","測地系判別":null,"地図名":"帯広市区画整理図Ｅ（５００）１","地図番号":"E2","縮尺分母":"500","市区町村コード":"01207","市区町村名":"帯広市","大字コード":"011","丁目コード":"024","小字コード":"0000","予備コード":"00","大字名":"東五条南","丁目名":"２４丁目","小字名":null,"予備名":null,"地番":"5-3","精度区分":null,"座標値種別":"図上測量","筆界未定構成筆":null,"代表点緯度":344.237,"代表点経度":816.35524241}},{"type":"MultiPolygon","arcs":[[[226,-225,-221,-110,227]]],"properties":{"筆ID":"H000000071","version":"ver1.0","座標系":"任意座標系","測地系判別":null,"地図名":"帯広市区画整理図Ｅ（５００）１","地図番号":"E2","縮尺分母":"500","市区町村コード":"01207","市区町村名":"帯広市","大字コード":"011","丁目コード":"024","小字コード":"0000","予備コード":"00","大字名":"東五条南","丁目名":"２４丁目","小字名":null,"予備名":null,"地番":"5-4","精度区分":null,"座標値種別":"図上測量","筆界未定構成筆":null,"代表点緯度":373.426,"代表点経度":828.35112515}},{"type":"MultiPolygon","arcs":[[[228,-201,-226,-223,-227]]],"properties":{"筆ID":"H000000072","version":"ver1.0","座標系":"任意座標系","測地系判別":null,"地図名":"帯広市区画整理図Ｅ（５００）１","地図番号":"E2","縮尺分母":"500","市区町村コード":"01207","市区町村名":"帯広市","大字コード":"011","丁目コード":"024","小字コード":"0000","予備コード":"00","大字名":"東五条南","丁目名":"２４丁目","小字名":null,"予備名":null,"地番":"5-5","精度区分":null,"座標値種別":"図上測量","筆界未定構成筆":null,"代表点緯度":344.9965,"代表点経度":831.331839124}},{"type":"MultiPolygon","arcs":[[[229,230,-228,-109,231]]],"properties":{"筆ID":"H000000073","version":"ver1.0","座標系":"任意座標系","測地系判別":null,"地図名":"帯広市区画整理図Ｅ（５００）１","地図番号":"E2","縮尺分母":"500","市区町村コード":"01207","市区町村名":"帯広市","大字コード":"011","丁目コード":"024","小字コード":"0000","予備コード":"00","大字名":"東五条南","丁目名":"２４丁目","小字名":null,"予備名":null,"地番":"5-6","精度区分":null,"座標値種別":"図上測量","筆界未定構成筆":null,"代表点緯度":375.6055,"代表点経度":841.634883532}},{"type":"MultiPolygon","arcs":[[[232,-202,-229,-231,233]]],"properties":{"筆ID":"H000000074","version":"ver1.0","座標系":"任意座標系","測地系判別":null,"地図名":"帯広市区画整理図Ｅ（５００）１","地図番号":"E2","縮尺分母":"500","市区町村コード":"01207","市区町村名":"帯広市","大字コード":"011","丁目コード":"024","小字コード":"0000","予備コード":"00","大字名":"東五条南","丁目名":"２４丁目","小字名":null,"予備名":null,"地番":"5-7","精度区分":null,"座標値種別":"図上測量","筆界未定構成筆":null,"代表点緯度":347.162,"代表点経度":844.664559216}},{"type":"MultiPolygon","arcs":[[[-197,234,-234,-230,235]]],"properties":{"筆ID":"H000000075","version":"ver1.0","座標系":"任意座標系","測地系判別":null,"地図名":"帯広市区画整理図Ｅ（５００）１","地図番号":"E2","縮尺分母":"500","市区町村コード":"01207","市区町村名":"帯広市","大字コード":"011","丁目コード":"024","小字コード":"0000","予備コード":"00","大字名":"東五条南","丁目名":"２４丁目","小字名":null,"予備名":null,"地番":"5-9","精度区分":null,"座標値種別":"図上測量","筆界未定構成筆":null,"代表点緯度":365.4715,"代表点経度":857.689766818}},{"type":"MultiPolygon","arcs":[[[-203,-233,-235,-196]]],"properties":{"筆ID":"H000000076","version":"ver1.0","座標系":"任意座標系","測地系判別":null,"地図名":"帯広市区画整理図Ｅ（５００）１","地図番号":"E2","縮尺分母":"500","市区町村コード":"01207","市区町村名":"帯広市","大字コード":"011","丁目コード":"024","小字コード":"0000","予備コード":"00","大字名":"東五条南","丁目名":"２４丁目","小字名":null,"予備名":null,"地番":"5-10","精度区分":null,"座標値種別":"図上測量","筆界未定構成筆":null,"代表点緯度":349.7875,"代表点経度":859.332824582}},{"type":"MultiPolygon","arcs":[[[236,237,238,-209]]],"properties":{"筆ID":"H000000077","version":"ver1.0","座標系":"任意座標系","測地系判別":null,"地図名":"帯広市区画整理図Ｅ（５００）１","地図番号":"E2","縮尺分母":"500","市区町村コード":"01207","市区町村名":"帯広市","大字コード":"011","丁目コード":"024","小字コード":"0000","予備コード":"00","大字名":"東五条南","丁目名":"２４丁目","小字名":null,"予備名":null,"地番":"6-3","精度区分":null,"座標値種別":"図上測量","筆界未定構成筆":null,"代表点緯度":315.983,"代表点経度":813.134574302}},{"type":"MultiPolygon","arcs":[[[239,240,241,-207]]],"properties":{"筆ID":"H000000078","version":"ver1.0","座標系":"任意座標系","測地系判別":null,"地図名":"帯広市区画整理図Ｅ（５００）１","地図番号":"E2","縮尺分母":"500","市区町村コード":"01207","市区町村名":"帯広市","大字コード":"011","丁目コード":"024","小字コード":"0000","予備コード":"00","大字名":"東五条南","丁目名":"２４丁目","小字名":null,"予備名":null,"地番":"6-4","精度区分":null,"座標値種別":"図上測量","筆界未定構成筆":null,"代表点緯度":318.1655,"代表点経度":833.431566251}},{"type":"MultiPolygon","arcs":[[[-194,242,243,244,-204]]],"properties":{"筆ID":"H000000079","version":"ver1.0","座標系":"任意座標系","測地系判別":null,"地図名":"帯広市区画整理図Ｅ（５００）１","地図番号":"E2","縮尺分母":"500","市区町村コード":"01207","市区町村名":"帯広市","大字コード":"011","丁目コード":"024","小字コード":"0000","予備コード":"00","大字名":"東五条南","丁目名":"２４丁目","小字名":null,"予備名":null,"地番":"6-5","精度区分":null,"座標値種別":"図上測量","筆界未定構成筆":null,"代表点緯度":322.377,"代表点経度":861.130854551}},{"type":"MultiPolygon","arcs":[[[-193,245,-243]]],"properties":{"筆ID":"H000000080","version":"ver1.0","座標系":"任意座標系","測地系判別":null,"地図名":"帯広市区画整理図Ｅ（５００）１","地図番号":"E2","縮尺分母":"500","市区町村コード":"01207","市区町村名":"帯広市","大字コード":"011","丁目コード":"024","小字コード":"0000","予備コード":"00","大字名":"東五条南","丁目名":"２４丁目","小字名":null,"予備名":null,"地番":"6-6","精度区分":null,"座標値種別":"図上測量","筆界未定構成筆":null,"代表点緯度":305.498,"代表点経度":869.232297785}},{"type":"MultiPolygon","arcs":[[[246,-240,-206,247]]],"properties":{"筆ID":"H000000081","version":"ver1.0","座標系":"任意座標系","測地系判別":null,"地図名":"帯広市区画整理図Ｅ（５００）１","地図番号":"E2","縮尺分母":"500","市区町村コード":"01207","市区町村名":"帯広市","大字コード":"011","丁目コード":"024","小字コード":"0000","予備コード":"00","大字名":"東五条南","丁目名":"２４丁目","小字名":null,"予備名":null,"地番":"6-7","精度区分":null,"座標値種別":"図上測量","筆界未定構成筆":null,"代表点緯度":319.252,"代表点経度":843.491496188}},{"type":"MultiPolygon","arcs":[[[-245,248,-248,-205]]],"properties":{"筆ID":"H000000082","version":"ver1.0","座標系":"任意座標系","測地系判別":null,"地図名":"帯広市区画整理図Ｅ（５００）１","地図番号":"E2","縮尺分母":"500","市区町村コード":"01207","市区町村名":"帯広市","大字コード":"011","丁目コード":"024","小字コード":"0000","予備コード":"00","大字名":"東五条南","丁目名":"２４丁目","小字名":null,"予備名":null,"地番":"6-8","精度区分":null,"座標値種別":"図上測量","筆界未定構成筆":null,"代表点緯度":321.9515,"代表点経度":849.863997188}},{"type":"MultiPolygon","arcs":[[[249,-237,-208,-242]]],"properties":{"筆ID":"H000000083","version":"ver1.0","座標系":"任意座標系","測地系判別":null,"地図名":"帯広市区画整理図Ｅ（５００）１","地図番号":"E2","縮尺分母":"500","市区町村コード":"01207","市区町村名":"帯広市","大字コード":"011","丁目コード":"024","小字コード":"0000","予備コード":"00","大字名":"東五条南","丁目名":"２４丁目","小字名":null,"予備名":null,"地番":"6-9","精度区分":null,"座標値種別":"図上測量","筆界未定構成筆":null,"代表点緯度":316.8715,"代表点経度":821.342227349}},{"type":"MultiPolygon","arcs":[[[250,-22,251]]],"properties":{"筆ID":"H000000084","version":"ver1.0","座標系":"任意座標系","測地系判別":null,"地図名":"帯広市区画整理図Ｅ（５００）１","地図番号":"E1","縮尺分母":"500","市区町村コード":"01207","市区町村名":"帯広市","大字コード":"013","丁目コード":"022","小字コード":"0000","予備コード":"00","大字名":"東六条南","丁目名":"２２丁目","小字名":null,"予備名":null,"地番":"1-6","精度区分":null,"座標値種別":"図上測量","筆界未定構成筆":null,"代表点緯度":518.863,"代表点経度":873.017706605}},{"type":"MultiPolygon","arcs":[[[252,-106,-74,253]]],"properties":{"筆ID":"H000000085","version":"ver1.0","座標系":"任意座標系","測地系判別":null,"地図名":"帯広市区画整理図Ｅ（５００）１","地図番号":"E1","縮尺分母":"500","市区町村コード":"01207","市区町村名":"帯広市","大字コード":"013","丁目コード":"023","小字コード":"0000","予備コード":"00","大字名":"東六条南","丁目名":"２３丁目","小字名":null,"予備名":null,"地番":"1-2","精度区分":null,"座標値種別":"図上測量","筆界未定構成筆":null,"代表点緯度":392.85,"代表点経度":886.354246119}},{"type":"MultiPolygon","arcs":[[[254,255,-49,-33,256]]],"properties":{"筆ID":"H000000086","version":"ver1.0","座標系":"任意座標系","測地系判別":null,"地図名":"帯広市区画整理図Ｅ（５００）１","地図番号":"E1","縮尺分母":"500","市区町村コード":"01207","市区町村名":"帯広市","大字コード":"013","丁目コード":"023","小字コード":"0000","予備コード":"00","大字名":"東六条南","丁目名":"２３丁目","小字名":null,"予備名":null,"地番":"5-3","精度区分":null,"座標値種別":"図上測量","筆界未定構成筆":null,"代表点緯度":474.684,"代表点経度":877.693176925}},{"type":"MultiPolygon","arcs":[[[257,-51,258,259]]],"properties":{"筆ID":"H000000087","version":"ver1.0","座標系":"任意座標系","測地系判別":null,"地図名":"帯広市区画整理図Ｅ（５００）１","地図番号":"E1","縮尺分母":"500","市区町村コード":"01207","市区町村名":"帯広市","大字コード":"013","丁目コード":"023","小字コード":"0000","予備コード":"00","大字名":"東六条南","丁目名":"２３丁目","小字名":null,"予備名":null,"地番":"5-4","精度区分":null,"座標値種別":"図上測量","筆界未定構成筆":null,"代表点緯度":460.154,"代表点経度":879.230770649}},{"type":"MultiPolygon","arcs":[[[260,261,-52,-258]]],"properties":{"筆ID":"H000000088","version":"ver1.0","座標系":"任意座標系","測地系判別":null,"地図名":"帯広市区画整理図Ｅ（５００）１","地図番号":"E1","縮尺分母":"500","市区町村コード":"01207","市区町村名":"帯広市","大字コード":"013","丁目コード":"023","小字コード":"0000","予備コード":"00","大字名":"東六条南","丁目名":"２３丁目","小字名":null,"予備名":null,"地番":"5-5","精度区分":null,"座標値種別":"図上測量","筆界未定構成筆":null,"代表点緯度":445.84,"代表点経度":880.745978751}},{"type":"MultiPolygon","arcs":[[[262,263,-69,-53,-262]]],"properties":{"筆ID":"H000000089","version":"ver1.0","座標系":"任意座標系","測地系判別":null,"地図名":"帯広市区画整理図Ｅ（５００）１","地図番号":"E1","縮尺分母":"500","市区町村コード":"01207","市区町村名":"帯広市","大字コード":"013","丁目コード":"023","小字コード":"0000","予備コード":"00","大字名":"東六条南","丁目名":"２３丁目","小字名":null,"予備名":null,"地番":"5-6","精度区分":null,"座標値種別":"図上測量","筆界未定構成筆":null,"代表点緯度":431.0965,"代表点経度":882.306356079}},{"type":"MultiPolygon","arcs":[[[264,265,-70,-264]]],"properties":{"筆ID":"H000000090","version":"ver1.0","座標系":"任意座標系","測地系判別":null,"地図名":"帯広市区画整理図Ｅ（５００）１","地図番号":"E1","縮尺分母":"500","市区町村コード":"01207","市区町村名":"帯広市","大字コード":"013","丁目コード":"023","小字コード":"0000","予備コード":"00","大字名":"東六条南","丁目名":"２３丁目","小字名":null,"予備名":null,"地番":"5-7","精度区分":null,"座標値種別":"図上測量","筆界未定構成筆":null,"代表点緯度":421.873,"代表点経度":883.282390022}},{"type":"MultiPolygon","arcs":[[[-254,-73,266,267]]],"properties":{"筆ID":"H000000091","version":"ver1.0","座標系":"任意座標系","測地系判別":null,"地図名":"帯広市区画整理図Ｅ（５００）１","地図番号":"E1","縮尺分母":"500","市区町村コード":"01207","市区町村名":"帯広市","大字コード":"013","丁目コード":"023","小字コード":"0000","予備コード":"00","大字名":"東六条南","丁目名":"２３丁目","小字名":null,"予備名":null,"地番":"5-8","精度区分":null,"座標値種別":"図上測量","筆界未定構成筆":null,"代表点緯度":403.9745,"代表点経度":885.176273973}},{"type":"MultiPolygon","arcs":[[[-267,-72,268,269]]],"properties":{"筆ID":"H000000092","version":"ver1.0","座標系":"任意座標系","測地系判別":null,"地図名":"帯広市区画整理図Ｅ（５００）１","地図番号":"E1","縮尺分母":"500","市区町村コード":"01207","市区町村名":"帯広市","大字コード":"013","丁目コード":"023","小字コード":"0000","予備コード":"00","大字名":"東六条南","丁目名":"２３丁目","小字名":null,"予備名":null,"地番":"5-9","精度区分":null,"座標値種別":"図上測量","筆界未定構成筆":null,"代表点緯度":412.052,"代表点経度":884.321078402}},{"type":"MultiPolygon","arcs":[[[270,-259,-50,-256]]],"properties":{"筆ID":"H000000093","version":"ver1.0","座標系":"任意座標系","測地系判別":null,"地図名":"帯広市区画整理図Ｅ（５００）１","地図番号":"E1","縮尺分母":"500","市区町村コード":"01207","市区町村名":"帯広市","大字コード":"013","丁目コード":"023","小字コード":"0000","予備コード":"00","大字名":"東六条南","丁目名":"２３丁目","小字名":null,"予備名":null,"地番":"5-11","精度区分":null,"座標値種別":"図上測量","筆界未定構成筆":null,"代表点緯度":469.198,"代表点経度":878.273599603}},{"type":"MultiPolygon","arcs":[[[-269,-71,-266,271]]],"properties":{"筆ID":"H000000094","version":"ver1.0","座標系":"任意座標系","測地系判別":null,"地図名":"帯広市区画整理図Ｅ（５００）１","地図番号":"E1","縮尺分母":"500","市区町村コード":"01207","市区町村名":"帯広市","大字コード":"013","丁目コード":"023","小字コード":"0000","予備コード":"00","大字名":"東六条南","丁目名":"２３丁目","小字名":null,"予備名":null,"地番":"5-12","精度区分":null,"座標値種別":"図上測量","筆界未定構成筆":null,"代表点緯度":416.979,"代表点経度":883.800344231}},{"type":"MultiPolygon","arcs":[[[-232,-108,-198,-236]]],"properties":{"筆ID":"H000000095","version":"ver1.0","座標系":"任意座標系","測地系判別":null,"地図名":"帯広市区画整理図Ｅ（５００）１","地図番号":"E2","縮尺分母":"500","市区町村コード":"01207","市区町村名":"帯広市","大字コード":"011","丁目コード":"024","小字コード":"0000","予備コード":"00","大字名":"東五条南","丁目名":"２４丁目","小字名":null,"予備名":null,"地番":"5-8","精度区分":null,"座標値種別":"図上測量","筆界未定構成筆":null,"代表点緯度":376.4075,"代表点経度":856.54368673}},{"type":"MultiPolygon","arcs":[[[272,273,-31,274]]],"properties":{"筆ID":"H000000096","version":"ver1.0","座標系":"任意座標系","測地系判別":null,"地図名":"帯広市区画整理図Ｅ（５００）１","地図番号":"E1","縮尺分母":"500","市区町村コード":"01207","市区町村名":"帯広市","大字コード":"013","丁目コード":"023","小字コード":"0000","予備コード":"00","大字名":"東六条南","丁目名":"２３丁目","小字名":null,"予備名":null,"地番":"5-1","精度区分":null,"座標値種別":"図上測量","筆界未定構成筆":null,"代表点緯度":500.2485,"代表点経度":866.361685185}},{"type":"MultiPolygon","arcs":[[[275,276,277,278]]],"properties":{"筆ID":"H000000097","version":"ver1.0","座標系":"任意座標系","測地系判別":null,"地図名":"帯広市区画整理図Ｅ（５００）１","地図番号":"E1","縮尺分母":"500","市区町村コード":"01207","市区町村名":"帯広市","大字コード":"013","丁目コード":"023","小字コード":"0000","予備コード":"00","大字名":"東六条南","丁目名":"２３丁目","小字名":null,"予備名":null,"地番":"5-14","精度区分":null,"座標値種別":"図上測量","筆界未定構成筆":null,"代表点緯度":503.904,"代表点経度":883.67208842}},{"type":"MultiPolygon","arcs":[[[-278,279,-273,280]]],"properties":{"筆ID":"H000000098","version":"ver1.0","座標系":"任意座標系","測地系判別":null,"地図名":"帯広市区画整理図Ｅ（５００）１","地図番号":"E1","縮尺分母":"500","市区町村コード":"01207","市区町村名":"帯広市","大字コード":"013","丁目コード":"023","小字コード":"0000","予備コード":"00","大字名":"東六条南","丁目名":"２３丁目","小字名":null,"予備名":null,"地番":"5-13","精度区分":null,"座標値種別":"図上測量","筆界未定構成筆":null,"代表点緯度":503.023,"代表点経度":875.145541627}},{"type":"MultiPolygon","arcs":[[[-257,-32,-274,-280,-277,281]]],"properties":{"筆ID":"H000000099","version":"ver1.0","座標系":"任意座標系","測地系判別":null,"地図名":"帯広市区画整理図Ｅ（５００）１","地図番号":"E1","縮尺分母":"500","市区町村コード":"01207","市区町村名":"帯広市","大字コード":"013","丁目コード":"023","小字コード":"0000","予備コード":"00","大字名":"東六条南","丁目名":"２３丁目","小字名":null,"予備名":null,"地番":"5-2","精度区分":null,"座標値種別":"図上測量","筆界未定構成筆":null,"代表点緯度":488.599,"代表点経度":876.220912531}},{"type":"MultiPolygon","arcs":[[[282,-279,-281,-275,-42,-251]]],"properties":{"筆ID":"H000000100","version":"ver1.0","座標系":"任意座標系","測地系判別":null,"地図名":"帯広市区画整理図Ｅ（５００）１","地図番号":"E1","縮尺分母":"500","市区町村コード":"01207","市区町村名":"帯広市","大字コード":"013","丁目コード":"023","小字コード":"0000","予備コード":"00","大字名":"東六条南","丁目名":"２３丁目","小字名":null,"予備名":null,"地番":"1-1","精度区分":null,"座標値種別":"図上測量","筆界未定構成筆":null,"代表点緯度":511.676,"代表点経度":871.630522807}},{"type":"MultiPolygon","arcs":[[[283,284,285,-211]]],"properties":{"筆ID":"H000000101","version":"ver1.0","座標系":"任意座標系","測地系判別":null,"地図名":"帯広市区画整理図Ｅ（５００）１","地図番号":"E2","縮尺分母":"500","市区町村コード":"01207","市区町村名":"帯広市","大字コード":"011","丁目コード":"024","小字コード":"0000","予備コード":"00","大字名":"東五条南","丁目名":"２４丁目","小字名":null,"予備名":null,"地番":"6-1","精度区分":null,"座標値種別":"図上測量","筆界未定構成筆":null,"代表点緯度":317.3815,"代表点経度":786.804252042}},{"type":"MultiPolygon","arcs":[[[286,287,288,-285]]],"properties":{"筆ID":"H000000102","version":"ver1.0","座標系":"任意座標系","測地系判別":null,"地図名":"帯広市区画整理図Ｅ（５００）１","地図番号":"E2","縮尺分母":"500","市区町村コード":"01207","市区町村名":"帯広市","大字コード":"011","丁目コード":"024","小字コード":"0000","予備コード":"00","大字名":"東五条南","丁目名":"２４丁目","小字名":null,"予備名":null,"地番":"6-10","精度区分":null,"座標値種別":"図上測量","筆界未定構成筆":null,"代表点緯度":307.2395,"代表点経度":787.841309912}},{"type":"MultiPolygon","arcs":[[[-239,289,-287,-284,-210]]],"properties":{"筆ID":"H000000103","version":"ver1.0","座標系":"任意座標系","測地系判別":null,"地図名":"帯広市区画整理図Ｅ（５００）１","地図番号":"E2","縮尺分母":"500","市区町村コード":"01207","市区町村名":"帯広市","大字コード":"011","丁目コード":"024","小字コード":"0000","予備コード":"00","大字名":"東五条南","丁目名":"２４丁目","小字名":null,"予備名":null,"地番":"6-2","精度区分":null,"座標値種別":"図上測量","筆界未定構成筆":null,"代表点緯度":320.007,"代表点経度":802.842918209}},{"type":"MultiPolygon","arcs":[[[290,291,292,-219]]],"properties":{"筆ID":"H000000104","version":"ver1.0","座標系":"任意座標系","測地系判別":null,"地図名":"帯広市区画整理図Ｅ（５００）１","地図番号":"E2","縮尺分母":"500","市区町村コード":"01207","市区町村名":"帯広市","大字コード":"011","丁目コード":"024","小字コード":"0000","予備コード":"00","大字名":"東五条南","丁目名":"２４丁目","小字名":null,"予備名":null,"地番":"4-4","精度区分":null,"座標値種別":"図上測量","筆界未定構成筆":null,"代表点緯度":318.959,"代表点経度":759.852620073}},{"type":"MultiPolygon","arcs":[[[293,294,295,-292]]],"properties":{"筆ID":"H000000105","version":"ver1.0","座標系":"任意座標系","測地系判別":null,"地図名":"帯広市区画整理図Ｅ（５００）１","地図番号":"E2","縮尺分母":"500","市区町村コード":"01207","市区町村名":"帯広市","大字コード":"011","丁目コード":"024","小字コード":"0000","予備コード":"00","大字名":"東五条南","丁目名":"２４丁目","小字名":null,"予備名":null,"地番":"4-5","精度区分":null,"座標値種別":"図上測量","筆界未定構成筆":null,"代表点緯度":305.279,"代表点経度":761.326790297}},{"type":"MultiPolygon","arcs":[[[-293,-296,296,-16]]],"properties":{"筆ID":"H000000106","version":"ver1.0","座標系":"任意座標系","測地系判別":null,"地図名":"帯広市区画整理図Ｅ（５００）１","地図番号":"E2","縮尺分母":"500","市区町村コード":"01207","市区町村名":"帯広市","大字コード":"009","丁目コード":"024","小字コード":"0000","予備コード":"00","大字名":"東四条南","丁目名":"２４丁目","小字名":null,"予備名":null,"地番":"20-4","精度区分":null,"座標値種別":"図上測量","筆界未定構成筆":null,"代表点緯度":304.3635,"代表点経度":739.567824892}},{"type":"MultiPolygon","arcs":[[[-188,-212,-286,-289,297,-294,-291,-220,-216,-213,-96,-114]]],"properties":{"筆ID":"H000000107","version":"ver1.0","座標系":"任意座標系","測地系判別":null,"地図名":"帯広市区画整理図Ｅ（５００）１","地図番号":"E2","縮尺分母":"500","市区町村コード":"01207","市区町村名":"帯広市","大字コード":"011","丁目コード":"024","小字コード":"0000","予備コード":"00","大字名":"東五条南","丁目名":"２４丁目","小字名":null,"予備名":null,"地番":"1-2","精度区分":null,"座標値種別":"図上測量","筆界未定構成筆":null,"代表点緯度":339.223,"代表点経度":771.279171997}},{"type":"MultiPolygon","arcs":[[[-215,298,299,300]]],"properties":{"筆ID":"H000000108","version":"ver1.0","座標系":"任意座標系","測地系判別":null,"地図名":"帯広市区画整理図Ｅ（５００）１","地図番号":"E1","縮尺分母":"500","市区町村コード":"01207","市区町村名":"帯広市","大字コード":"009","丁目コード":"024","小字コード":"0000","予備コード":"00","大字名":"東四条南","丁目名":"２４丁目","小字名":null,"予備名":null,"地番":"20-6","精度区分":null,"座標値種別":"図上測量","筆界未定構成筆":null,"代表点緯度":364.3345,"代表点経度":740.792617034}},{"type":"MultiPolygon","arcs":[[[-300,301,302,-14,303]]],"properties":{"筆ID":"H000000109","version":"ver1.0","座標系":"任意座標系","測地系判別":null,"地図名":"帯広市区画整理図Ｅ（５００）１","地図番号":"E1","縮尺分母":"500","市区町村コード":"01207","市区町村名":"帯広市","大字コード":"009","丁目コード":"024","小字コード":"0000","予備コード":"00","大字名":"東四条南","丁目名":"２４丁目","小字名":null,"予備名":null,"地番":"20-1","精度区分":null,"座標値種別":"図上測量","筆界未定構成筆":null,"代表点緯度":361.004,"代表点経度":727.777024386}},{"type":"MultiPolygon","arcs":[[[-10,-98,-301,-304,-13,304,-7]]],"properties":{"筆ID":"H000000110","version":"ver1.0","座標系":"任意座標系","測地系判別":null,"地図名":"帯広市区画整理図Ｅ（５００）１","地図番号":"E1","縮尺分母":"500","市区町村コード":"01207","市区町村名":"帯広市","大字コード":"009","丁目コード":"023","小字コード":"0000","予備コード":"00","大字名":"東四条南","丁目名":"２３丁目","小字名":null,"予備名":null,"地番":"4-5","精度区分":null,"座標値種別":"図上測量","筆界未定構成筆":null,"代表点緯度":376.694,"代表点経度":731.881121323}},{"type":"MultiPolygon","arcs":[[[-18,305,-302,-299,-218]]],"properties":{"筆ID":"H000000111","version":"ver1.0","座標系":"任意座標系","測地系判別":null,"地図名":"帯広市区画整理図Ｅ（５００）１","地図番号":"E2","縮尺分母":"500","市区町村コード":"01207","市区町村名":"帯広市","大字コード":"009","丁目コード":"024","小字コード":"0000","予備コード":"00","大字名":"東四条南","丁目名":"２４丁目","小字名":null,"予備名":null,"地番":"20-2","精度区分":null,"座標値種別":"図上測量","筆界未定構成筆":null,"代表点緯度":347.3955,"代表点経度":734.911920194}}]}},"arcs":[[[137641,904447],[-134840,-12323]],[[2801,892124],[-2801,24311],[134496,12105]],[[134496,928540],[3145,-24093]],[[140437,881091],[-134887,-12789],[-2749,23822]],[[137641,904447],[2796,-23356]],[[163289,484007],[12293,-96911]],[[175582,387096],[-91432,-8009],[-20422,14371]],[[63728,393458],[-9666,80972],[109227,9577]],[[189894,486343],[12312,-96916]],[[202206,389427],[-26624,-2331]],[[163289,484007],[26605,2336]],[[72937,317973],[-2148,16789]],[[70789,334762],[16902,1469]],[[87691,336231],[-14754,-18258]],[[224073,206777],[8900,-69790]],[[232973,136987],[-135323,-12584]],[[97650,124403],[-8906,69742]],[[88744,194145],[135329,12632]],[[795079,964533],[-520224,-47549]],[[274855,916984],[-137214,-12537]],[[134496,928540],[657649,59197]],[[792145,987737],[2934,-23204]],[[279871,878437],[7369,-56604]],[[287240,821833],[7133,-54783],[19523,-12567]],[[313896,754483],[-17868,-1603]],[[296028,752880],[-51456,-4615]],[[244572,748265],[-822,6549]],[[243750,754814],[-8182,65241]],[[235568,820055],[-6778,54112],[-18109,13125],[-70244,-6201]],[[274855,916984],[5016,-38547]],[[800136,924601],[6424,-50761]],[[806560,873840],[7436,-58766]],[[813996,815074],[1968,-15573]],[[815964,799501],[-68682,-6157]],[[747282,793344],[15751,15935],[-6948,54974]],[[756085,864253],[-7148,56583],[-20037,13687],[-59118,-5382]],[[669782,929141],[-78451,-7137]],[[591331,922004],[-78204,-7116]],[[513127,914888],[-78836,-7177]],[[434291,907711],[-77752,-7072]],[[356539,900639],[-59761,-5438],[-16907,-16764]],[[795079,964533],[5057,-39932]],[[313896,754483],[60845,5451]],[[374741,759934],[77654,6968]],[[452395,766902],[78379,7029]],[[530774,773931],[78112,7002]],[[608886,780933],[78481,7038]],[[687367,787971],[59915,5373]],[[815964,799501],[4008,-31697]],[[819972,767804],[1979,-15652]],[[821951,752152],[7919,-62548]],[[829870,689604],[7934,-62709]],[[837804,626895],[324,-2554]],[[838128,624341],[-70146,-6375]],[[767982,617966],[16763,16284],[-6732,54299]],[[778013,688549],[-7082,57119],[-20586,12654],[-59797,-5429]],[[690548,752893],[-77459,-7042]],[[613089,745851],[-78826,-7160]],[[534263,738691],[-79139,-7194]],[[455124,731497],[-77953,-7085]],[[377171,724412],[-58609,-5325],[-16260,-16358]],[[302302,702729],[-6274,50151]],[[394253,584026],[78569,7137]],[[472822,591163],[78944,7168]],[[551766,598331],[23825,2162]],[[575591,600493],[54231,4928]],[[629822,605421],[78379,7116]],[[708201,612537],[59781,5429]],[[838128,624341],[7667,-60578]],[[845795,563763],[2611,-20633]],[[848406,543130],[2770,-21957]],[[851176,521173],[2631,-20755]],[[853807,500418],[4728,-37383]],[[858535,463035],[1870,-14759]],[[860405,448276],[-70162,-6232]],[[790243,442044],[16995,16285],[-7087,54917]],[[800151,513246],[-565,4415]],[[799586,517661],[-6552,50760],[-20468,14537],[-81303,-7373]],[[691263,575585],[-14405,-1303]],[[676858,574282],[-64832,-5874]],[[612026,568408],[-64772,-5869]],[[547254,562539],[-66333,-6014]],[[480921,556525],[-78923,-7150]],[[401998,549375],[-60306,-5469],[-17364,-17273]],[[324328,526633],[-8449,67528]],[[315879,594161],[21533,-15299],[56841,5164]],[[276449,494030],[-8171,65162]],[[268278,559192],[-8207,65437]],[[260071,624629],[-8171,65193]],[[251900,689822],[-7328,58443]],[[302302,702729],[7092,-56705]],[[309394,646024],[6485,-51863]],[[324328,526633],[6963,-55646]],[[331291,470987],[6660,-53271]],[[337951,417716],[7323,-58521]],[[345274,359195],[-71051,-6480]],[[274223,352715],[-66878,-6100]],[[207345,346615],[-5139,42812]],[[202206,389427],[68543,5996],[15890,17374],[-10190,81233]],[[382146,405759],[37190,3303]],[[419336,409062],[79284,7051]],[[498620,416113],[69776,6205]],[[568396,422318],[69756,6196]],[[638152,428514],[70496,6271]],[[708648,434785],[81595,7259]],[[860405,448276],[5360,-42299]],[[865765,405977],[-70413,-6458]],[[795352,399519],[-23460,-2143],[-40777,-3739]],[[731115,393637],[-69519,-6319]],[[661596,387318],[-67731,-6022]],[[593865,381296],[-66365,-5900]],[[527500,375396],[-78224,-6959]],[[449276,368437],[-85589,-7604]],[[363687,360833],[-18413,-1638]],[[337951,417716],[20499,-14066],[23696,2109]],[[235568,820055],[-86493,-7883]],[[149075,812172],[-8638,68919]],[[243750,754814],[-86535,-7656]],[[157215,747158],[-8140,65014]],[[251900,689822],[-86545,-7643]],[[165355,682179],[-8140,64979]],[[260071,624629],[-86550,-7586]],[[173521,617043],[-8166,65136]],[[268278,559192],[-86530,-7843]],[[181748,551349],[-8227,65694]],[[276449,494030],[-86555,-7687]],[[189894,486343],[-8146,65006]],[[356539,900639],[9275,-71695]],[[365814,828944],[-78574,-7111]],[[365814,828944],[8927,-69010]],[[443515,835973],[-77701,-7029]],[[434291,907711],[9224,-71738]],[[443515,835973],[8880,-69071]],[[522120,843085],[-78605,-7112]],[[513127,914888],[8993,-71803]],[[522120,843085],[8654,-69154]],[[600268,850153],[-78148,-7068]],[[591331,922004],[8937,-71851]],[[600268,850153],[8618,-69220]],[[669782,929141],[8952,-71890]],[[678734,857251],[-78466,-7098]],[[678734,857251],[8633,-69280]],[[756085,864253],[-77351,-7002]],[[377171,724412],[8690,-71450]],[[385861,652962],[-76467,-6938]],[[385861,652962],[8392,-68936]],[[464132,660064],[-78271,-7102]],[[455124,731497],[9008,-71433]],[[464132,660064],[8690,-68901]],[[543174,667237],[-79042,-7173]],[[534263,738691],[8911,-71454]],[[543174,667237],[8592,-68906]],[[613089,745851],[8521,-71494]],[[621610,674357],[-54622,-4959]],[[566988,669398],[-23814,-2161]],[[566988,669398],[8603,-68905]],[[699531,681429],[-77921,-7072]],[[690548,752893],[8983,-71464]],[[629822,605421],[-8212,68936]],[[699531,681429],[8670,-68892]],[[778013,688549],[-78482,-7120]],[[401998,549375],[8797,-71220]],[[410795,478155],[-37272,-3359]],[[373523,474796],[-42232,-3809]],[[373523,474796],[8623,-69037]],[[489894,485280],[-79099,-7125]],[[480921,556525],[8973,-71245]],[[419336,409062],[-8541,69093]],[[489894,485280],[8726,-69167]],[[547254,562539],[8634,-71307]],[[555888,491232],[-65994,-5952]],[[560056,491607],[8340,-69289]],[[555888,491232],[4168,375]],[[620510,497054],[-60454,-5447]],[[612026,568408],[8484,-71354]],[[629225,497843],[8927,-69329]],[[620510,497054],[8715,789]],[[676858,574282],[8495,-71385]],[[685353,502897],[-56128,-5054]],[[685353,502897],[14728,1325]],[[700081,504222],[8567,-69437]],[[799586,517661],[-100050,-9060]],[[699536,508601],[-8273,66984]],[[700081,504222],[100070,9024]],[[699536,508601],[545,-4379]],[[449276,368437],[20478,-14044],[19939,-158692],[-16311,-17025]],[[473382,178676],[-86760,-7909],[-19836,13486]],[[366786,184253],[-19785,158540],[16686,18040]],[[517151,308007],[7955,-64147]],[[525106,243860],[5565,-44882],[19235,-13330]],[[549906,185648],[-76524,-6972]],[[527500,375396],[-16639,-16707],[6290,-50682]],[[846705,1094],[14507,16166],[-8988,73272]],[[852224,90532],[-8741,71263]],[[843483,161795],[-8027,65393]],[[835456,227188],[-5406,44133]],[[830050,271321],[-8017,65293]],[[822033,336614],[-6131,49977],[-20550,12928]],[[865765,405977],[49873,-398696],[-68933,-6187]],[[549906,185648],[66801,6087]],[[616707,191735],[68893,6280]],[[685600,198015],[69072,6292]],[[754672,204307],[64802,5909],[15982,16972]],[[843483,161795],[-18917,13329],[-76405,-6906]],[[748161,168218],[-21476,-1939]],[[726685,166279],[-46019,-4153]],[[680666,162126],[-57705,-5216]],[[622961,156910],[-66955,-6048]],[[556006,150862],[-17359,-1569]],[[538647,149293],[-82459,-7447]],[[456188,141846],[-65018,-5874],[-16234,-17007]],[[374936,118965],[-8150,65288]],[[274223,352715],[21296,-14955],[6557,-53031]],[[302076,284729],[-86889,-8266]],[[215187,276463],[-7842,70152]],[[302076,284729],[8844,-69842]],[[310920,214887],[-86847,-8110]],[[224073,206777],[-8886,69686]],[[319759,145062],[-86786,-8075]],[[310920,214887],[8839,-69825]],[[593865,381296],[7878,-65371]],[[601743,315925],[-84592,-7918]],[[605304,286350],[4209,-34908]],[[609513,251442],[-84407,-7582]],[[601743,315925],[3561,-29575]],[[609513,251442],[7194,-59707]],[[673610,292629],[-68306,-6279]],[[661596,387318],[12014,-94689]],[[673610,292629],[11990,-94614]],[[739173,328897],[3720,-29897]],[[742893,299000],[-69283,-6371]],[[731115,393637],[8058,-64740]],[[747246,264022],[7426,-59715]],[[742893,299000],[4353,-34978]],[[830050,271321],[-82804,-7299]],[[739173,328897],[40983,3817],[41877,3900]],[[556006,150862],[13274,-103552]],[[569280,47310],[-17375,-1600]],[[551905,45710],[-13258,103583]],[[680666,162126],[12493,-103413]],[[693159,58713],[-56847,-5229]],[[636312,53484],[-13351,103426]],[[852224,90532],[-29271,-2567]],[[822953,87965],[-64170,-5625]],[[758783,82340],[-10622,85878]],[[846705,1094],[-12174,-1094],[-11578,87965]],[[739337,62966],[-46178,-4253]],[[726685,166279],[12652,-103313]],[[758783,82340],[2148,-17382],[-21594,-1992]],[[636312,53484],[-67032,-6174]],[[931225,976974],[-136146,-12441]],[[792145,987737],[136243,12262],[2837,-23025]],[[994798,460464],[5201,-42238],[-134234,-12249]],[[858535,463035],[19564,-12877],[116699,10306]],[[949668,827119],[5777,-46931]],[[955445,780188],[-135473,-12384]],[[813996,815074],[135672,12045]],[[965203,700907],[-135333,-11303]],[[821951,752152],[135477,11922]],[[957428,764074],[7775,-63167]],[[965203,700907],[7657,-62199]],[[972860,638708],[-135056,-11813]],[[972860,638708],[7781,-63228]],[[980641,575480],[-134846,-11717]],[[980641,575480],[2436,-19804]],[[983077,555676],[-134671,-12546]],[[853807,500418],[134563,12258]],[[988370,512676],[6428,-52212]],[[851176,521173],[134614,12484]],[[985790,533657],[2580,-20981]],[[955445,780188],[1983,-16114]],[[983077,555676],[2713,-22019]],[[846844,945077],[7729,-67193]],[[854573,877884],[-48013,-4044]],[[800136,924601],[17077,17778],[29631,2698]],[[934174,953025],[8336,-67733]],[[942510,885292],[-43969,-3704]],[[898541,881588],[-8032,67463]],[[890509,949051],[43665,3974]],[[898541,881588],[-43968,-3704]],[[846844,945077],[43665,3974]],[[942510,885292],[7158,-58173]],[[931225,976974],[2949,-23949]],[[456188,141846],[6048,-52020]],[[462236,89826],[-82731,-7434]],[[379505,82392],[-4569,36573]],[[462236,89826],[6028,-51815]],[[468264,38011],[-82274,-7578]],[[385990,30433],[-6485,51959]],[[551905,45710],[-83641,-7699]],[[319759,145062],[7539,-59511]],[[327298,85551],[-86750,-7961]],[[240548,77590],[-7575,59397]],[[327298,85551],[7575,-59824]],[[334873,25727],[-86694,-7979]],[[248179,17748],[-7631,59842]],[[248179,17748],[-135323,-12462],[-15206,119117]],[[385990,30433],[-51117,-4706]],[[215187,276463],[-57514,-5473]],[[157673,270990],[-8958,70535]],[[148715,341525],[58630,5090]],[[157673,270990],[-10140,-963],[-67654,-6440]],[[79879,263587],[-6942,54386]],[[87691,336231],[50690,4396],[10334,898]],[[70789,334762],[-7061,58696]],[[88744,194145],[-8865,69442]]],"bbox":[705.338,293.424,899.931,522.912],"transform":{"scale":[0.00019459319459319465,0.00022948822948822955],"translate":[705.338,293.424]}}
