{"type":"Topology","objects":{"01207-4601-3.featurecollection":{"type":"GeometryCollection","geometries":[{"type":"Polygon","arcs":[[0,1,2,3]],"properties":{"市区町村名":"帯広市","大字名":"西十六条南","丁目名":"４丁目","小字名":null,"地番":"1-1","精度区分":null,"座標系":"任意座標系"}},{"type":"Polygon","arcs":[[4,-4]],"properties":{"市区町村名":"帯広市","大字名":"西十六条南","丁目名":"４丁目","小字名":null,"地番":"1-3","精度区分":null,"座標系":"任意座標系"}},{"type":"Polygon","arcs":[[5,6,7,8,9]],"properties":{"市区町村名":"帯広市","大字名":"西十六条南","丁目名":"４丁目","小字名":null,"地番":"2-3","精度区分":null,"座標系":"任意座標系"}},{"type":"Polygon","arcs":[[10,11,-10,12]],"properties":{"市区町村名":"帯広市","大字名":"西十六条南","丁目名":"４丁目","小字名":null,"地番":"2-4","精度区分":null,"座標系":"任意座標系"}},{"type":"Polygon","arcs":[[13,-6,-12,14]],"properties":{"市区町村名":"帯広市","大字名":"西十六条南","丁目名":"４丁目","小字名":null,"地番":"2-5","精度区分":null,"座標系":"任意座標系"}},{"type":"Polygon","arcs":[[-14,15,16,17,18,19,20,21,22,-7]],"properties":{"市区町村名":"帯広市","大字名":"西十六条南","丁目名":"４丁目","小字名":null,"地番":"2-6","精度区分":null,"座標系":"任意座標系"}},{"type":"Polygon","arcs":[[23,24,25,-22,26]],"properties":{"市区町村名":"帯広市","大字名":"西十六条南","丁目名":"４丁目","小字名":null,"地番":"2-7","精度区分":null,"座標系":"任意座標系"}},{"type":"Polygon","arcs":[[27,28,-27,-21,29]],"properties":{"市区町村名":"帯広市","大字名":"西十六条南","丁目名":"４丁目","小字名":null,"地番":"2-8","精度区分":null,"座標系":"任意座標系"}},{"type":"Polygon","arcs":[[30,31,-30,-20]],"properties":{"市区町村名":"帯広市","大字名":"西十六条南","丁目名":"４丁目","小字名":null,"地番":"2-9","精度区分":null,"座標系":"任意座標系"}},{"type":"Polygon","arcs":[[32,33,34,35,-17]],"properties":{"市区町村名":"帯広市","大字名":"西十六条南","丁目名":"４丁目","小字名":null,"地番":"2-10","精度区分":null,"座標系":"任意座標系"}},{"type":"Polygon","arcs":[[-34,36,37,38]],"properties":{"市区町村名":"帯広市","大字名":"西十六条南","丁目名":"４丁目","小字名":null,"地番":"2-11","精度区分":null,"座標系":"任意座標系"}},{"type":"Polygon","arcs":[[-39,39,40,41,42]],"properties":{"市区町村名":"帯広市","大字名":"西十六条南","丁目名":"４丁目","小字名":null,"地番":"2-12","精度区分":null,"座標系":"任意座標系"}},{"type":"Polygon","arcs":[[43,44,-29,-42]],"properties":{"市区町村名":"帯広市","大字名":"西十六条南","丁目名":"４丁目","小字名":null,"地番":"2-13","精度区分":null,"座標系":"任意座標系"}},{"type":"Polygon","arcs":[[45,46,47,-24,-45]],"properties":{"市区町村名":"帯広市","大字名":"西十六条南","丁目名":"４丁目","小字名":null,"地番":"2-14","精度区分":null,"座標系":"任意座標系"}},{"type":"Polygon","arcs":[[48,-31,-19,49]],"properties":{"市区町村名":"帯広市","大字名":"西十六条南","丁目名":"４丁目","小字名":null,"地番":"2-17","精度区分":null,"座標系":"任意座標系"}},{"type":"Polygon","arcs":[[50,-50,-18,-36]],"properties":{"市区町村名":"帯広市","大字名":"西十六条南","丁目名":"４丁目","小字名":null,"地番":"2-18","精度区分":null,"座標系":"任意座標系"}},{"type":"Polygon","arcs":[[-51,-35,-43,-28,-32,-49]],"properties":{"市区町村名":"帯広市","大字名":"西十六条南","丁目名":"４丁目","小字名":null,"地番":"2-19","精度区分":null,"座標系":"任意座標系"}},{"type":"Polygon","arcs":[[51,52,53,54]],"properties":{"市区町村名":"帯広市","大字名":"西十六条南","丁目名":"４丁目","小字名":null,"地番":"2-23","精度区分":null,"座標系":"任意座標系"}},{"type":"Polygon","arcs":[[55,56,-55,57]],"properties":{"市区町村名":"帯広市","大字名":"西十六条南","丁目名":"４丁目","小字名":null,"地番":"2-24","精度区分":null,"座標系":"任意座標系"}},{"type":"Polygon","arcs":[[58,-56,59,-26]],"properties":{"市区町村名":"帯広市","大字名":"西十六条南","丁目名":"４丁目","小字名":null,"地番":"2-25","精度区分":null,"座標系":"任意座標系"}},{"type":"Polygon","arcs":[[60,-52,61]],"properties":{"市区町村名":"帯広市","大字名":"西十六条南","丁目名":"４丁目","小字名":null,"地番":"2-26","精度区分":null,"座標系":"任意座標系"}},{"type":"Polygon","arcs":[[62,-62,-57,63]],"properties":{"市区町村名":"帯広市","大字名":"西十六条南","丁目名":"４丁目","小字名":null,"地番":"2-27","精度区分":null,"座標系":"任意座標系"}},{"type":"Polygon","arcs":[[64,65,-64,-59,66]],"properties":{"市区町村名":"帯広市","大字名":"西十六条南","丁目名":"４丁目","小字名":null,"地番":"2-28","精度区分":null,"座標系":"任意座標系"}},{"type":"Polygon","arcs":[[-48,67,-67,-25]],"properties":{"市区町村名":"帯広市","大字名":"西十六条南","丁目名":"４丁目","小字名":null,"地番":"2-29","精度区分":null,"座標系":"任意座標系"}},{"type":"Polygon","arcs":[[-47,68,-65,-68]],"properties":{"市区町村名":"帯広市","大字名":"西十六条南","丁目名":"４丁目","小字名":null,"地番":"2-30","精度区分":null,"座標系":"任意座標系"}},{"type":"Polygon","arcs":[[-38,69,70,-40]],"properties":{"市区町村名":"帯広市","大字名":"西十六条南","丁目名":"４丁目","小字名":null,"地番":"2-31","精度区分":null,"座標系":"任意座標系"}},{"type":"Polygon","arcs":[[71,72,73,74]],"properties":{"市区町村名":"帯広市","大字名":"西十六条南","丁目名":"４丁目","小字名":null,"地番":"3-1","精度区分":null,"座標系":"任意座標系"}},{"type":"Polygon","arcs":[[75,76,77,-73]],"properties":{"市区町村名":"帯広市","大字名":"西十六条南","丁目名":"４丁目","小字名":null,"地番":"3-2","精度区分":null,"座標系":"任意座標系"}},{"type":"Polygon","arcs":[[78,79,-76,-72,80,81]],"properties":{"市区町村名":"帯広市","大字名":"西十六条南","丁目名":"４丁目","小字名":null,"地番":"3-4","精度区分":null,"座標系":"任意座標系"}},{"type":"Polygon","arcs":[[82,83,84,85,-82,86]],"properties":{"市区町村名":"帯広市","大字名":"西十六条南","丁目名":"４丁目","小字名":null,"地番":"3-5","精度区分":null,"座標系":"任意座標系"}},{"type":"Polygon","arcs":[[87,88,89,-83,90]],"properties":{"市区町村名":"帯広市","大字名":"西十六条南","丁目名":"４丁目","小字名":null,"地番":"4","精度区分":null,"座標系":"任意座標系"}},{"type":"Polygon","arcs":[[91,92,93,94,95]],"properties":{"市区町村名":"帯広市","大字名":"西十六条南","丁目名":"４丁目","小字名":null,"地番":"5-1","精度区分":null,"座標系":"任意座標系"}},{"type":"Polygon","arcs":[[96,97,-89,98,-95]],"properties":{"市区町村名":"帯広市","大字名":"西十六条南","丁目名":"４丁目","小字名":null,"地番":"6","精度区分":null,"座標系":"任意座標系"}},{"type":"Polygon","arcs":[[99,100,101,-93,102]],"properties":{"市区町村名":"帯広市","大字名":"西十六条南","丁目名":"４丁目","小字名":null,"地番":"7","精度区分":null,"座標系":"任意座標系"}},{"type":"Polygon","arcs":[[103,104,105,106,107,108]],"properties":{"市区町村名":"帯広市","大字名":"西十六条南","丁目名":"４丁目","小字名":null,"地番":"8","精度区分":null,"座標系":"任意座標系"}},{"type":"Polygon","arcs":[[109,-104,110]],"properties":{"市区町村名":"帯広市","大字名":"西十六条南","丁目名":"４丁目","小字名":null,"地番":"9-1","精度区分":null,"座標系":"任意座標系"}},{"type":"Polygon","arcs":[[111,112,113,114]],"properties":{"市区町村名":"帯広市","大字名":"西十六条南","丁目名":"４丁目","小字名":null,"地番":"9-3","精度区分":null,"座標系":"任意座標系"}},{"type":"Polygon","arcs":[[115,-112,116,117]],"properties":{"市区町村名":"帯広市","大字名":"西十六条南","丁目名":"４丁目","小字名":null,"地番":"10-1","精度区分":null,"座標系":"任意座標系"}},{"type":"Polygon","arcs":[[118,119,-118,120,121]],"properties":{"市区町村名":"帯広市","大字名":"西十六条南","丁目名":"４丁目","小字名":null,"地番":"11","精度区分":null,"座標系":"任意座標系"}},{"type":"Polygon","arcs":[[122,123,124,125]],"properties":{"市区町村名":"帯広市","大字名":"西十六条南","丁目名":"４丁目","小字名":null,"地番":"14-2","精度区分":null,"座標系":"任意座標系"}},{"type":"Polygon","arcs":[[126,127,128]],"properties":{"市区町村名":"帯広市","大字名":"西十六条南","丁目名":"４丁目","小字名":null,"地番":"15","精度区分":null,"座標系":"任意座標系"}},{"type":"Polygon","arcs":[[129,130,131,132,133,-126,134,-129,135]],"properties":{"市区町村名":"帯広市","大字名":"西十六条南","丁目名":"４丁目","小字名":null,"地番":"16","精度区分":null,"座標系":"任意座標系"}},{"type":"Polygon","arcs":[[136,-130,137,138]],"properties":{"市区町村名":"帯広市","大字名":"西十六条南","丁目名":"４丁目","小字名":null,"地番":"17-1","精度区分":null,"座標系":"任意座標系"}},{"type":"Polygon","arcs":[[139,140,-131,-137]],"properties":{"市区町村名":"帯広市","大字名":"西十六条南","丁目名":"４丁目","小字名":null,"地番":"17-2","精度区分":null,"座標系":"任意座標系"}},{"type":"Polygon","arcs":[[141,142,-140,-139,143,144]],"properties":{"市区町村名":"帯広市","大字名":"西十六条南","丁目名":"４丁目","小字名":null,"地番":"18","精度区分":null,"座標系":"任意座標系"}},{"type":"Polygon","arcs":[[145,146,147]],"properties":{"市区町村名":"帯広市","大字名":"西十六条南","丁目名":"４丁目","小字名":null,"地番":"20-1","精度区分":null,"座標系":"任意座標系"}},{"type":"Polygon","arcs":[[-80,148,-147,149,-77]],"properties":{"市区町村名":"帯広市","大字名":"西十六条南","丁目名":"４丁目","小字名":null,"地番":"20-2","精度区分":null,"座標系":"任意座標系"}},{"type":"Polygon","arcs":[[-86,150,151,152,153,-148,-149,-79]],"properties":{"市区町村名":"帯広市","大字名":"西十六条南","丁目名":"４丁目","小字名":null,"地番":"21-1","精度区分":null,"座標系":"任意座標系"}},{"type":"Polygon","arcs":[[154,155,-151,-85]],"properties":{"市区町村名":"帯広市","大字名":"西十六条南","丁目名":"４丁目","小字名":null,"地番":"21-3","精度区分":null,"座標系":"任意座標系"}},{"type":"Polygon","arcs":[[156,157,158,159]],"properties":{"市区町村名":"帯広市","大字名":"西十六条南","丁目名":"４丁目","小字名":null,"地番":"22-1","精度区分":null,"座標系":"任意座標系"}},{"type":"Polygon","arcs":[[160,-159,161]],"properties":{"市区町村名":"帯広市","大字名":"西十六条南","丁目名":"４丁目","小字名":null,"地番":"22-2","精度区分":null,"座標系":"任意座標系"}},{"type":"Polygon","arcs":[[162,163,-162,-158,164,165,166,-155,-84,-90,-98]],"properties":{"市区町村名":"帯広市","大字名":"西十六条南","丁目名":"４丁目","小字名":null,"地番":"22-3","精度区分":null,"座標系":"任意座標系"}},{"type":"Polygon","arcs":[[167,-160,-161,-164,168,169]],"properties":{"市区町村名":"帯広市","大字名":"西十六条南","丁目名":"４丁目","小字名":null,"地番":"23-1","精度区分":null,"座標系":"任意座標系"}},{"type":"Polygon","arcs":[[-102,170,171,-169,-163,-97,-94]],"properties":{"市区町村名":"帯広市","大字名":"西十六条南","丁目名":"４丁目","小字名":null,"地番":"23-3","精度区分":null,"座標系":"任意座標系"}},{"type":"Polygon","arcs":[[172,173,174,-170,-172]],"properties":{"市区町村名":"帯広市","大字名":"西十六条南","丁目名":"４丁目","小字名":null,"地番":"23-4","精度区分":null,"座標系":"任意座標系"}},{"type":"Polygon","arcs":[[175,-174,176,177]],"properties":{"市区町村名":"帯広市","大字名":"西十六条南","丁目名":"４丁目","小字名":null,"地番":"24-1","精度区分":null,"座標系":"任意座標系"}},{"type":"Polygon","arcs":[[-177,-173,-171,-101,178]],"properties":{"市区町村名":"帯広市","大字名":"西十六条南","丁目名":"４丁目","小字名":null,"地番":"24-2","精度区分":null,"座標系":"任意座標系"}},{"type":"Polygon","arcs":[[-78,-150,-146,-154,179,-165,-157,-168,-175,-176,180,181,182,-70,-37,-33,-16,-15,-11,183,-74]],"properties":{"市区町村名":"帯広市","大字名":"西十六条南","丁目名":"４丁目","小字名":null,"地番":"24-3","精度区分":null,"座標系":"任意座標系"}},{"type":"Polygon","arcs":[[184,185,186]],"properties":{"市区町村名":"帯広市","大字名":"西十六条南","丁目名":"４丁目","小字名":null,"地番":"30","精度区分":null,"座標系":"任意座標系"}},{"type":"Polygon","arcs":[[-134,187,188,189,-187,190,-123]],"properties":{"市区町村名":"帯広市","大字名":"西十六条南","丁目名":"４丁目","小字名":null,"地番":"31","精度区分":null,"座標系":"任意座標系"}},{"type":"Polygon","arcs":[[191,192,193,194,-188,-133]],"properties":{"市区町村名":"帯広市","大字名":"西十六条南","丁目名":"４丁目","小字名":null,"地番":"32-1","精度区分":null,"座標系":"任意座標系"}},{"type":"Polygon","arcs":[[195,-189,-195]],"properties":{"市区町村名":"帯広市","大字名":"西十六条南","丁目名":"４丁目","小字名":null,"地番":"32-2","精度区分":null,"座標系":"任意座標系"}},{"type":"Polygon","arcs":[[196,197,-192,-132,-141,-143]],"properties":{"市区町村名":"帯広市","大字名":"西十六条南","丁目名":"４丁目","小字名":null,"地番":"33-1","精度区分":null,"座標系":"任意座標系"}},{"type":"Polygon","arcs":[[198,-193,-198,199]],"properties":{"市区町村名":"帯広市","大字名":"西十六条南","丁目名":"４丁目","小字名":null,"地番":"33-2","精度区分":null,"座標系":"任意座標系"}},{"type":"Polygon","arcs":[[200,201,-197,-142]],"properties":{"市区町村名":"帯広市","大字名":"西十六条南","丁目名":"４丁目","小字名":null,"地番":"34-1","精度区分":null,"座標系":"任意座標系"}},{"type":"Polygon","arcs":[[202,-200,-202]],"properties":{"市区町村名":"帯広市","大字名":"西十六条南","丁目名":"４丁目","小字名":null,"地番":"34-2","精度区分":null,"座標系":"任意座標系"}},{"type":"Polygon","arcs":[[-191,-186,203,204,205,-124]],"properties":{"市区町村名":"帯広市","大字名":"西十六条南","丁目名":"４丁目","小字名":null,"地番":"13-2","精度区分":null,"座標系":"任意座標系"}},{"type":"Polygon","arcs":[[206,-205,207,208]],"properties":{"市区町村名":"帯広市","大字名":"西十六条南","丁目名":"４丁目","小字名":null,"地番":"13-1","精度区分":null,"座標系":"任意座標系"}},{"type":"Polygon","arcs":[[-208,-204,-185,-190,-196,-194,-199,-203,-201,-145,209,210,211,212,213]],"properties":{"市区町村名":"帯広市","大字名":"西十六条南","丁目名":"４丁目","小字名":null,"地番":"19-2","精度区分":null,"座標系":"任意座標系"}},{"type":"Polygon","arcs":[[-135,-125,-206,-207,214,-127]],"properties":{"市区町村名":"帯広市","大字名":"西十六条南","丁目名":"４丁目","小字名":null,"地番":"14-1","精度区分":null,"座標系":"任意座標系"}},{"type":"Polygon","arcs":[[215,216,217,218,219]],"properties":{"市区町村名":"帯広市","大字名":"西十六条南","丁目名":"４丁目","小字名":null,"地番":"26-3","精度区分":null,"座標系":"任意座標系"}},{"type":"Polygon","arcs":[[-219,220,221,222,-106,223]],"properties":{"市区町村名":"帯広市","大字名":"西十六条南","丁目名":"４丁目","小字名":null,"地番":"26-1","精度区分":null,"座標系":"任意座標系"}},{"type":"Polygon","arcs":[[224,225,-217]],"properties":{"市区町村名":"帯広市","大字名":"西十六条南","丁目名":"４丁目","小字名":null,"地番":"26-4","精度区分":null,"座標系":"任意座標系"}},{"type":"Polygon","arcs":[[226,-222,227]],"properties":{"市区町村名":"帯広市","大字名":"西十六条南","丁目名":"４丁目","小字名":null,"地番":"26-2","精度区分":"乙三","座標系":"任意座標系"}},{"type":"Polygon","arcs":[[-223,-227,228,-107]],"properties":{"市区町村名":"帯広市","大字名":"西十六条南","丁目名":"４丁目","小字名":null,"地番":"25","精度区分":null,"座標系":"任意座標系"}},{"type":"Polygon","arcs":[[-116,-120,229,230,-225,-216,231,-113]],"properties":{"市区町村名":"帯広市","大字名":"西十六条南","丁目名":"４丁目","小字名":null,"地番":"27","精度区分":null,"座標系":"任意座標系"}},{"type":"Polygon","arcs":[[232,-114,-232,-220,-224,-105,-110]],"properties":{"市区町村名":"帯広市","大字名":"西十六条南","丁目名":"４丁目","小字名":null,"地番":"9-2","精度区分":null,"座標系":"任意座標系"}},{"type":"Polygon","arcs":[[-99,-88,233,-96]],"properties":{"市区町村名":"帯広市","大字名":"西十六条南","丁目名":"４丁目","小字名":null,"地番":"5-2","精度区分":null,"座標系":"任意座標系"}},{"type":"Polygon","arcs":[[234,235,-230,-119,236]],"properties":{"市区町村名":"帯広市","大字名":"西十六条南","丁目名":"４丁目","小字名":null,"地番":"28-1","精度区分":null,"座標系":"任意座標系"}},{"type":"Polygon","arcs":[[-108,-229,-228,-221,-218,-226,-231,-236,237,-211,238,-181,-178,-179,-100,239]],"properties":{"市区町村名":"帯広市","大字名":"西十六条南","丁目名":"４丁目","小字名":null,"地番":"19-1","精度区分":null,"座標系":"任意座標系"}},{"type":"Polygon","arcs":[[-213,240,-237,-122,241]],"properties":{"市区町村名":"帯広市","大字名":"西十六条南","丁目名":"４丁目","小字名":null,"地番":"12","精度区分":null,"座標系":"任意座標系"}},{"type":"Polygon","arcs":[[242,243,244]],"properties":{"市区町村名":"帯広市","大字名":"西十六条南","丁目名":"４丁目","小字名":null,"地番":"2-32","精度区分":null,"座標系":"任意座標系"}},{"type":"Polygon","arcs":[[245,-243,246,-8,247]],"properties":{"市区町村名":"帯広市","大字名":"西十六条南","丁目名":"４丁目","小字名":null,"地番":"2-1","精度区分":null,"座標系":"任意座標系"}},{"type":"Polygon","arcs":[[-60,-58,-54,248,-248,-23]],"properties":{"市区町村名":"帯広市","大字名":"西十六条南","丁目名":"４丁目","小字名":null,"地番":"2-22","精度区分":null,"座標系":"任意座標系"}},{"type":"Polygon","arcs":[[-244,-246,-249,-53,-61,-63,-66,-69,-46,-44,-41,-71,-183,249,-2,250]],"properties":{"市区町村名":"帯広市","大字名":"西十六条南","丁目名":"４丁目","小字名":null,"地番":"2-16","精度区分":null,"座標系":"任意座標系"}},{"type":"Polygon","arcs":[[-238,-235,-241,-212]],"properties":{"市区町村名":"帯広市","大字名":"西十六条南","丁目名":"４丁目","小字名":null,"地番":"28-2","精度区分":null,"座標系":"任意座標系"}},{"type":"Polygon","arcs":[[-180,-153,251,-166]],"properties":{"市区町村名":"帯広市","大字名":"西十六条南","丁目名":"４丁目","小字名":null,"地番":"21-4","精度区分":null,"座標系":"任意座標系"}},{"type":"Polygon","arcs":[[-167,-252,-152,-156]],"properties":{"市区町村名":"帯広市","大字名":"西十六条南","丁目名":"４丁目","小字名":null,"地番":"21-2","精度区分":null,"座標系":"任意座標系"}}]}},"arcs":[[[6521,596879],[65404,25939],[112231,45395]],[[184156,668213],[4508,-12863],[20894,-551382]],[[209558,103968],[-187090,-103968],[-21499,568681]],[[969,568681],[5552,28198]],[[969,568681],[-969,25610],[6521,2588]],[[294572,584940],[2718,-73053]],[[297290,511887],[-26652,-14547]],[[270638,497340],[-7695,204336]],[[262943,701676],[26883,10892]],[[289826,712568],[4746,-127628]],[[337577,731921],[4380,-12918],[4044,-105714]],[[346001,613289],[-51429,-28349]],[[289826,712568],[47751,19353]],[[348807,540024],[-51517,-28137]],[[346001,613289],[2806,-73265]],[[348807,540024],[1539,-40220]],[[350346,499804],[-19910,-11042]],[[330436,488762],[-2278,-1260]],[[328158,487502],[-2256,-1252]],[[325902,486250],[-14829,-8222]],[[311073,478028],[-19372,-10742]],[[291701,467286],[-19523,-10816]],[[272178,456470],[-1540,40870]],[[296531,337858],[-17252,-9509]],[[279279,328349],[-2229,-1232]],[[277050,327117],[-4872,129353]],[[291701,467286],[4830,-129428]],[[313635,410219],[2327,-61640]],[[315962,348579],[-19431,-10721]],[[311073,478028],[2562,-67809]],[[325902,486250],[2666,-68268]],[[328568,417982],[-14933,-7763]],[[350346,499804],[4960,-129537]],[[355306,370267],[-19952,-11002]],[[335354,359265],[-2319,61038]],[[333035,420303],[-2599,68459]],[[355306,370267],[2087,-54542]],[[357393,315725],[-12765,-6962],[499,-12083],[-556,-383],[358,-9509],[-6682,-3772]],[[338247,283016],[-2893,76249]],[[338247,283016],[2029,-53467]],[[340276,229549],[-19414,-10700]],[[320862,218849],[-4900,129730]],[[315962,348579],[19392,10686]],[[320862,218849],[-19490,-10741]],[[301372,208108],[-4841,129750]],[[301372,208108],[-17189,-9481]],[[284183,198627],[-2557,67609]],[[281626,266236],[-2347,62113]],[[330781,419132],[-2213,-1150]],[[328158,487502],[2623,-68370]],[[333035,420303],[-2254,-1171]],[[237282,305196],[-20147,-11110]],[[217135,294086],[-4960,128873]],[[212175,422959],[20378,11419]],[[232553,434378],[4729,-129182]],[[252638,445633],[4798,-129333]],[[257436,316300],[-20154,-11104]],[[232553,434378],[20085,11255]],[[277050,327117],[-19614,-10817]],[[252638,445633],[19540,10837]],[[242032,175392],[-16320,-8989],[-4085,11070],[-4492,116613]],[[237282,305196],[4750,-129804]],[[262250,186537],[-20218,-11145]],[[257436,316300],[4814,-129763]],[[279393,264874],[2543,-67480]],[[281936,197394],[-19686,-10857]],[[277050,327117],[2343,-62243]],[[281626,266236],[-2233,-1362]],[[284183,198627],[-2247,-1233]],[[357393,315725],[2344,-61263],[-3151,-15924]],[[356586,238538],[-16310,-8989]],[[380266,749145],[6654,-177158]],[[386920,571987],[-24417,-14006]],[[362503,557981],[-6384,167655],[3323,15109]],[[359442,740745],[20824,8400]],[[386920,571987],[3089,-77440]],[[390009,494547],[-24571,-13610]],[[365438,480937],[-2935,77044]],[[416952,509464],[-13496,-7476]],[[403456,501988],[-13447,-7441]],[[380266,749145],[26952,10871]],[[407218,760016],[9734,-250552]],[[433703,770703],[8000,-213434]],[[441703,557269],[1249,-33408]],[[442952,523861],[-19957,-11049]],[[422995,512812],[-6043,-3348]],[[407218,760016],[26485,10687]],[[462854,782464],[4711,-122877]],[[467565,659587],[3305,-86224]],[[470870,573363],[-29167,-16094]],[[433703,770703],[15937,6428],[13214,5333]],[[491950,794198],[12789,5162]],[[504739,799360],[7697,-203049]],[[512436,596311],[-19095,-10543]],[[493341,585768],[-3260,85943]],[[490081,671711],[6397,3444],[-4528,119043]],[[493341,585768],[-15779,-8708]],[[477562,577060],[-6692,-3697]],[[467565,659587],[22516,12124]],[[536112,812025],[7360,-21702],[7725,-203733]],[[551197,586590],[-37610,-20661]],[[513587,565929],[-1151,30382]],[[504739,799360],[31373,12665]],[[600646,839039],[4021,-104763]],[[604667,734276],[4691,-122213]],[[609358,612063],[2145,-55951]],[[611503,556112],[-29330,-16547]],[[582173,539565],[-10264,262636],[5689,27171]],[[577598,829372],[23048,9667]],[[632895,852566],[3822,-100374],[-14572,-7449],[-17478,-10467]],[[600646,839039],[32249,13527]],[[655960,862239],[8316,-219280]],[[664276,642959],[-15964,-8982]],[[648312,633977],[-8328,221567]],[[639984,855544],[3796,1588],[12180,5107]],[[687145,655822],[-22869,-12863]],[[655960,862239],[22788,9557]],[[678748,871796],[8397,-215974]],[[725950,677647],[-38148,-21455]],[[687802,656192],[-657,-370]],[[678748,871796],[39066,16382]],[[717814,888178],[8136,-210531]],[[851384,770361],[-36144,-20511]],[[815240,749850],[-1434,37673]],[[813806,787523],[36116,20764]],[[849922,808287],[1462,-37926]],[[847625,867819],[-15956,-9174],[-2990,76325]],[[828679,934970],[16090,6812]],[[844769,941782],[2856,-73963]],[[887027,959670],[4319,-111259]],[[891346,848411],[2619,-67453]],[[893965,780958],[868,-22345]],[[894833,758613],[-42068,-24008]],[[852765,734605],[-1381,35756]],[[849922,808287],[-2297,59532]],[[844769,941782],[25543,10816],[16715,7072]],[[910845,859131],[-19499,-10720]],[[887027,959670],[19532,8263]],[[906559,967933],[4286,-108802]],[[910845,859131],[2641,-67021]],[[913486,792110],[-19521,-11152]],[[971201,825066],[-40417,-23077]],[[930784,801989],[-17298,-9879]],[[906559,967933],[48048,20346]],[[954607,988279],[11487,-33004],[5107,-130209]],[[412161,269933],[-34200,-19148],[-4225,12234],[-5883,154505]],[[367853,417524],[37978,21126]],[[405831,438650],[6330,-168717]],[[403456,501988],[2375,-63338]],[[367853,417524],[-2415,63413]],[[422995,512812],[2931,-77934]],[[425926,434878],[1787,-47435]],[[427713,387443],[4010,-106549]],[[431723,280894],[-19562,-10961]],[[442952,523861],[2919,-77899],[-371,-206]],[[445500,445756],[-19574,-10878]],[[487685,312234],[-20684,-11583]],[[467001,300651],[-3318,85505]],[[463683,386156],[20769,10638]],[[484452,396794],[3233,-84560]],[[483082,432626],[1370,-35832]],[[463683,386156],[6560,39473],[12839,6997]],[[477562,577060],[3921,-102579]],[[481483,474481],[1599,-41855]],[[467001,300651],[-15793,-8845]],[[451208,291806],[-3946,106447]],[[447262,398253],[-1762,47503]],[[515223,327651],[-27538,-15417]],[[481483,474481],[27542,15144]],[[509025,489625],[6198,-161974]],[[513587,565929],[2741,-72286]],[[516328,493643],[-7303,-4018]],[[516328,493643],[1642,-43293]],[[517970,450350],[4495,-118639]],[[522465,331711],[-7242,-4060]],[[556341,350680],[-33876,-18969]],[[517970,450350],[37617,20503]],[[555587,470853],[3964,-104564],[-3210,-15609]],[[551197,586590],[4390,-115737]],[[431723,280894],[19485,10912]],[[556341,350680],[2032,-52076]],[[558373,298604],[-199785,-111479]],[[358588,187125],[-2002,51413]],[[337577,731921],[21865,8824]],[[824663,502262],[-34501,-19805],[-4026,11727],[-8057,206883]],[[778079,701067],[38199,21482]],[[816278,722549],[8385,-220287]],[[852765,734605],[4127,-106926]],[[856892,627679],[4037,-104605]],[[860929,523074],[-36266,-20812]],[[816278,722549],[-1038,27301]],[[894833,758613],[3930,-101203]],[[898763,657410],[4278,-110164]],[[903041,547246],[-13713,-7866]],[[889328,539380],[-4132,104503],[-28304,-16204]],[[889328,539380],[-28399,-16306]],[[930784,801989],[4792,-123733]],[[935576,678256],[-36813,-20846]],[[939828,568366],[-36787,-21120]],[[935576,678256],[4252,-109890]],[[971201,825066],[4859,-123890]],[[976060,701176],[-40484,-22920]],[[976060,701176],[3794,-96746],[-3085,-14862],[-36941,-21202]],[[778079,701067],[-4281,109924]],[[773798,810991],[38268,21188]],[[812066,832179],[1740,-44656]],[[808394,926385],[3672,-94206]],[[773798,810991],[-3328,85443],[3210,15260]],[[773680,911694],[34714,14691]],[[954607,988279],[27689,11720],[17703,-451794],[-229082,-131030]],[[770917,417175],[-2120,52590]],[[768797,469765],[3162,15642],[-8268,213469]],[[763691,698876],[-7432,191822],[-4001,11925]],[[752258,902623],[21422,9071]],[[808394,926385],[20285,8585]],[[647808,633689],[4460,-114867]],[[652268,518822],[-13845,-7859],[4218,-112457]],[[642641,398506],[-5281,-2985]],[[637360,395521],[-8777,227359]],[[628583,622880],[19225,10809]],[[637360,395521],[-5284,-2985]],[[632076,392536],[-4434,112793],[-13872,-8263]],[[613770,497066],[-2267,59046]],[[609358,612063],[19225,10817]],[[652268,518822],[4365,-112409]],[[656633,406413],[-13992,-7907]],[[618084,384629],[-4314,112437]],[[632076,392536],[-13992,-7907]],[[618084,384629],[-25856,-14609],[-3873,11337],[-6182,158208]],[[687802,656192],[8775,-227222]],[[696577,428970],[-39944,-22557]],[[647808,633689],[504,288]],[[632895,852566],[7089,2978]],[[462854,782464],[22677,9146],[6419,2588]],[[727090,678283],[8757,-227125]],[[735847,451158],[-39270,-22188]],[[725950,677647],[1140,636]],[[735847,451158],[530,301],[32420,18306]],[[770917,417175],[-212544,-118571]],[[536112,812025],[41486,17347]],[[763691,698876],[-36069,-20291],[-532,-302]],[[717814,888178],[34444,14445]],[[224488,686088],[4724,-123281],[-21980,-11515]],[[207232,551292],[-4306,111828],[3294,15567]],[[206220,678687],[18268,7401]],[[210573,464534],[-3341,86758]],[[224488,686088],[33702,13657],[4753,1931]],[[270638,497340],[-38117,-20818],[-21948,-11988]],[[212175,422959],[-1602,41575]],[[358588,187125],[-149030,-83157]],[[184156,668213],[10987,5983],[11077,4491]],[[427713,387443],[19549,10810]]],"bbox":[107.75,316.001,666.288,462.074],"transform":{"scale":[0.0005585385585385585,0.0001460731460731461],"translate":[107.75,316.001]}}