{"type":"Topology","objects":{"01207-4601-21":{"type":"GeometryCollection","geometries":[{"type":"MultiPolygon","arcs":[[[0,1,2,3]]],"properties":{"筆ID":"H000000001","version":"ver1.0","座標系":"任意座標系","測地系判別":null,"地図名":"帯広市区画整理図Ｋ（５００）１４","地図番号":"K52","縮尺分母":"500","市区町村コード":"01207","市区町村名":"帯広市","大字コード":"061","丁目コード":"005","小字コード":"0000","予備コード":"00","大字名":"西十七条南","丁目名":"５丁目","小字名":null,"予備名":null,"地番":"11-1","精度区分":null,"座標値種別":"図上測量","筆界未定構成筆":null,"代表点緯度":437.865,"代表点経度":96.102506922}},{"type":"MultiPolygon","arcs":[[[4,5,-1,6]]],"properties":{"筆ID":"H000000002","version":"ver1.0","座標系":"任意座標系","測地系判別":null,"地図名":"帯広市区画整理図Ｋ（５００）１４","地図番号":"K52","縮尺分母":"500","市区町村コード":"01207","市区町村名":"帯広市","大字コード":"061","丁目コード":"005","小字コード":"0000","予備コード":"00","大字名":"西十七条南","丁目名":"５丁目","小字名":null,"予備名":null,"地番":"11-2","精度区分":null,"座標値種別":"図上測量","筆界未定構成筆":null,"代表点緯度":440.2805,"代表点経度":108.701485914}},{"type":"MultiPolygon","arcs":[[[7,8,-5,9]]],"properties":{"筆ID":"H000000003","version":"ver1.0","座標系":"任意座標系","測地系判別":null,"地図名":"帯広市区画整理図Ｋ（５００）１４","地図番号":"K52","縮尺分母":"500","市区町村コード":"01207","市区町村名":"帯広市","大字コード":"061","丁目コード":"005","小字コード":"0000","予備コード":"00","大字名":"西十七条南","丁目名":"５丁目","小字名":null,"予備名":null,"地番":"11-3","精度区分":null,"座標値種別":"図上測量","筆界未定構成筆":null,"代表点緯度":441.6195,"代表点経度":121.194261255}},{"type":"MultiPolygon","arcs":[[[10,-8,11,12]]],"properties":{"筆ID":"H000000004","version":"ver1.0","座標系":"任意座標系","測地系判別":null,"地図名":"帯広市区画整理図Ｋ（５００）１４","地図番号":"K52","縮尺分母":"500","市区町村コード":"01207","市区町村名":"帯広市","大字コード":"061","丁目コード":"005","小字コード":"0000","予備コード":"00","大字名":"西十七条南","丁目名":"５丁目","小字名":null,"予備名":null,"地番":"11-4","精度区分":null,"座標値種別":"図上測量","筆界未定構成筆":null,"代表点緯度":442.8425,"代表点経度":132.871089397}},{"type":"MultiPolygon","arcs":[[[13,14,-13,15]]],"properties":{"筆ID":"H000000005","version":"ver1.0","座標系":"任意座標系","測地系判別":null,"地図名":"帯広市区画整理図Ｋ（５００）１４","地図番号":"K52","縮尺分母":"500","市区町村コード":"01207","市区町村名":"帯広市","大字コード":"061","丁目コード":"005","小字コード":"0000","予備コード":"00","大字名":"西十七条南","丁目名":"５丁目","小字名":null,"予備名":null,"地番":"11-5","精度区分":null,"座標値種別":"図上測量","筆界未定構成筆":null,"代表点緯度":443.976,"代表点経度":143.646201944}},{"type":"MultiPolygon","arcs":[[[16,-14,17,18]]],"properties":{"筆ID":"H000000006","version":"ver1.0","座標系":"任意座標系","測地系判別":null,"地図名":"帯広市区画整理図Ｋ（５００）１４","地図番号":"K52","縮尺分母":"500","市区町村コード":"01207","市区町村名":"帯広市","大字コード":"061","丁目コード":"005","小字コード":"0000","予備コード":"00","大字名":"西十七条南","丁目名":"５丁目","小字名":null,"予備名":null,"地番":"11-6","精度区分":null,"座標値種別":"図上測量","筆界未定構成筆":null,"代表点緯度":445.1135,"代表点経度":154.421079793}},{"type":"MultiPolygon","arcs":[[[19,-19,20,21]]],"properties":{"筆ID":"H000000007","version":"ver1.0","座標系":"任意座標系","測地系判別":null,"地図名":"帯広市区画整理図Ｋ（５００）１４","地図番号":"K52","縮尺分母":"500","市区町村コード":"01207","市区町村名":"帯広市","大字コード":"061","丁目コード":"005","小字コード":"0000","予備コード":"00","大字名":"西十七条南","丁目名":"５丁目","小字名":null,"予備名":null,"地番":"11-7","精度区分":null,"座標値種別":"図上測量","筆界未定構成筆":null,"代表点緯度":446.2605,"代表点経度":165.203459076}},{"type":"MultiPolygon","arcs":[[[22,23,-22,24]]],"properties":{"筆ID":"H000000008","version":"ver1.0","座標系":"任意座標系","測地系判別":null,"地図名":"帯広市区画整理図Ｋ（５００）１４","地図番号":"K52","縮尺分母":"500","市区町村コード":"01207","市区町村名":"帯広市","大字コード":"061","丁目コード":"005","小字コード":"0000","予備コード":"00","大字名":"西十七条南","丁目名":"５丁目","小字名":null,"予備名":null,"地番":"11-8","精度区分":null,"座標値種別":"図上測量","筆界未定構成筆":null,"代表点緯度":447.565,"代表点経度":179.607889452}},{"type":"MultiPolygon","arcs":[[[25,26,27,-24]]],"properties":{"筆ID":"H000000009","version":"ver1.0","座標系":"任意座標系","測地系判別":null,"地図名":"帯広市区画整理図Ｋ（５００）１４","地図番号":"K52","縮尺分母":"500","市区町村コード":"01207","市区町村名":"帯広市","大字コード":"061","丁目コード":"005","小字コード":"0000","予備コード":"00","大字名":"西十七条南","丁目名":"５丁目","小字名":null,"予備名":null,"地番":"11-9","精度区分":null,"座標値種別":"図上測量","筆界未定構成筆":null,"代表点緯度":427.3765,"代表点経度":181.785756713}},{"type":"MultiPolygon","arcs":[[[28,29,-20,-28]]],"properties":{"筆ID":"H000000010","version":"ver1.0","座標系":"任意座標系","測地系判別":null,"地図名":"帯広市区画整理図Ｋ（５００）１４","地図番号":"K52","縮尺分母":"500","市区町村コード":"01207","市区町村名":"帯広市","大字コード":"061","丁目コード":"005","小字コード":"0000","予備コード":"00","大字名":"西十七条南","丁目名":"５丁目","小字名":null,"予備名":null,"地番":"11-10","精度区分":null,"座標値種別":"図上測量","筆界未定構成筆":null,"代表点緯度":424.146,"代表点経度":167.584834902}},{"type":"MultiPolygon","arcs":[[[-30,30,31,-17]]],"properties":{"筆ID":"H000000011","version":"ver1.0","座標系":"任意座標系","測地系判別":null,"地図名":"帯広市区画整理図Ｋ（５００）１４","地図番号":"K52","縮尺分母":"500","市区町村コード":"01207","市区町村名":"帯広市","大字コード":"061","丁目コード":"005","小字コード":"0000","予備コード":"00","大字名":"西十七条南","丁目名":"５丁目","小字名":null,"予備名":null,"地番":"11-11","精度区分":null,"座標値種別":"図上測量","筆界未定構成筆":null,"代表点緯度":423.002,"代表点経度":156.830590879}},{"type":"MultiPolygon","arcs":[[[32,33,-15,-32]]],"properties":{"筆ID":"H000000012","version":"ver1.0","座標系":"任意座標系","測地系判別":null,"地図名":"帯広市区画整理図Ｋ（５００）１４","地図番号":"K52","縮尺分母":"500","市区町村コード":"01207","市区町村名":"帯広市","大字コード":"061","丁目コード":"005","小字コード":"0000","予備コード":"00","大字名":"西十七条南","丁目名":"５丁目","小字名":null,"予備名":null,"地番":"11-12","精度区分":null,"座標値種別":"図上測量","筆界未定構成筆":null,"代表点緯度":421.8945,"代表点経度":146.116324021}},{"type":"MultiPolygon","arcs":[[[34,35,-11,-34]]],"properties":{"筆ID":"H000000013","version":"ver1.0","座標系":"任意座標系","測地系判別":null,"地図名":"帯広市区画整理図Ｋ（５００）１４","地図番号":"K52","縮尺分母":"500","市区町村コード":"01207","市区町村名":"帯広市","大字コード":"061","丁目コード":"005","小字コード":"0000","予備コード":"00","大字名":"西十七条南","丁目名":"５丁目","小字名":null,"予備名":null,"地番":"11-13","精度区分":null,"座標値種別":"図上測量","筆界未定構成筆":null,"代表点緯度":420.7615,"代表点経度":135.308027382}},{"type":"MultiPolygon","arcs":[[[36,37,-9,-36]]],"properties":{"筆ID":"H000000014","version":"ver1.0","座標系":"任意座標系","測地系判別":null,"地図名":"帯広市区画整理図Ｋ（５００）１４","地図番号":"K52","縮尺分母":"500","市区町村コード":"01207","市区町村名":"帯広市","大字コード":"061","丁目コード":"005","小字コード":"0000","予備コード":"00","大字名":"西十七条南","丁目名":"５丁目","小字名":null,"予備名":null,"地番":"11-14","精度区分":null,"座標値種別":"図上測量","筆界未定構成筆":null,"代表点緯度":419.492,"代表点経度":123.559971877}},{"type":"MultiPolygon","arcs":[[[38,39,-6,-38]]],"properties":{"筆ID":"H000000015","version":"ver1.0","座標系":"任意座標系","測地系判別":null,"地図名":"帯広市区画整理図Ｋ（５００）１４","地図番号":"K52","縮尺分母":"500","市区町村コード":"01207","市区町村名":"帯広市","大字コード":"061","丁目コード":"005","小字コード":"0000","予備コード":"00","大字名":"西十七条南","丁目名":"５丁目","小字名":null,"予備名":null,"地番":"11-15","精度区分":null,"座標値種別":"図上測量","筆界未定構成筆":null,"代表点緯度":418.202,"代表点経度":111.029467124}},{"type":"MultiPolygon","arcs":[[[40,41,-2,-40]]],"properties":{"筆ID":"H000000016","version":"ver1.0","座標系":"任意座標系","測地系判別":null,"地図名":"帯広市区画整理図Ｋ（５００）１４","地図番号":"K52","縮尺分母":"500","市区町村コード":"01207","市区町村名":"帯広市","大字コード":"061","丁目コード":"005","小字コード":"0000","予備コード":"00","大字名":"西十七条南","丁目名":"５丁目","小字名":null,"予備名":null,"地番":"11-16","精度区分":null,"座標値種別":"図上測量","筆界未定構成筆":null,"代表点緯度":417.915,"代表点経度":98.210959863}},{"type":"MultiPolygon","arcs":[[[42,43,44,45]]],"properties":{"筆ID":"H000000017","version":"ver1.0","座標系":"任意座標系","測地系判別":null,"地図名":"帯広市区画整理図Ｋ（５００）１４","地図番号":"K52","縮尺分母":"500","市区町村コード":"01207","市区町村名":"帯広市","大字コード":"061","丁目コード":"005","小字コード":"0000","予備コード":"00","大字名":"西十七条南","丁目名":"５丁目","小字名":null,"予備名":null,"地番":"11-17","精度区分":null,"座標値種別":"図上測量","筆界未定構成筆":null,"代表点緯度":455.2935,"代表点経度":224.764590302}},{"type":"MultiPolygon","arcs":[[[46,47,48,49,-44]]],"properties":{"筆ID":"H000000018","version":"ver1.0","座標系":"任意座標系","測地系判別":null,"地図名":"帯広市区画整理図Ｋ（５００）１４","地図番号":"K52","縮尺分母":"500","市区町村コード":"01207","市区町村名":"帯広市","大字コード":"061","丁目コード":"005","小字コード":"0000","予備コード":"00","大字名":"西十七条南","丁目名":"５丁目","小字名":null,"予備名":null,"地番":"11-18","精度区分":null,"座標値種別":"図上測量","筆界未定構成筆":null,"代表点緯度":441.2045,"代表点経度":231.640854859}},{"type":"MultiPolygon","arcs":[[[50,51,52,-49,53]]],"properties":{"筆ID":"H000000019","version":"ver1.0","座標系":"任意座標系","測地系判別":null,"地図名":"帯広市区画整理図Ｋ（５００）１４","地図番号":"K52","縮尺分母":"500","市区町村コード":"01207","市区町村名":"帯広市","大字コード":"061","丁目コード":"005","小字コード":"0000","予備コード":"00","大字名":"西十七条南","丁目名":"５丁目","小字名":null,"予備名":null,"地番":"11-19","精度区分":null,"座標値種別":"図上測量","筆界未定構成筆":null,"代表点緯度":429.4515,"代表点経度":232.873206045}},{"type":"MultiPolygon","arcs":[[[54,55,-51,56]]],"properties":{"筆ID":"H000000020","version":"ver1.0","座標系":"任意座標系","測地系判別":null,"地図名":"帯広市区画整理図Ｋ（５００）１４","地図番号":"K52","縮尺分母":"500","市区町村コード":"01207","市区町村名":"帯広市","大字コード":"061","丁目コード":"005","小字コード":"0000","予備コード":"00","大字名":"西十七条南","丁目名":"５丁目","小字名":null,"予備名":null,"地番":"11-20","精度区分":null,"座標値種別":"図上測量","筆界未定構成筆":null,"代表点緯度":418.0305,"代表点経度":238.116420149}},{"type":"MultiPolygon","arcs":[[[-55,57,58,59,60]]],"properties":{"筆ID":"H000000021","version":"ver1.0","座標系":"任意座標系","測地系判別":null,"地図名":"帯広市区画整理図Ｋ（５００）１４","地図番号":"K52","縮尺分母":"500","市区町村コード":"01207","市区町村名":"帯広市","大字コード":"061","丁目コード":"005","小字コード":"0000","予備コード":"00","大字名":"西十七条南","丁目名":"５丁目","小字名":null,"予備名":null,"地番":"11-21","精度区分":null,"座標値種別":"図上測量","筆界未定構成筆":null,"代表点緯度":404.884,"代表点経度":235.432067431}},{"type":"MultiPolygon","arcs":[[[61,62,63,64,65,-59]]],"properties":{"筆ID":"H000000022","version":"ver1.0","座標系":"任意座標系","測地系判別":null,"地図名":"帯広市区画整理図Ｋ（５００）１４","地図番号":"K52","縮尺分母":"500","市区町村コード":"01207","市区町村名":"帯広市","大字コード":"061","丁目コード":"005","小字コード":"0000","予備コード":"00","大字名":"西十七条南","丁目名":"５丁目","小字名":null,"予備名":null,"地番":"11-22","精度区分":null,"座標値種別":"図上測量","筆界未定構成筆":null,"代表点緯度":392.182,"代表点経度":236.745484256}},{"type":"MultiPolygon","arcs":[[[66,67,68,-65]]],"properties":{"筆ID":"H000000023","version":"ver1.0","座標系":"任意座標系","測地系判別":null,"地図名":"帯広市区画整理図Ｋ（５００）１４","地図番号":"K52","縮尺分母":"500","市区町村コード":"01207","市区町村名":"帯広市","大字コード":"061","丁目コード":"005","小字コード":"0000","予備コード":"00","大字名":"西十七条南","丁目名":"５丁目","小字名":null,"予備名":null,"地番":"11-23","精度区分":null,"座標値種別":"図上測量","筆界未定構成筆":null,"代表点緯度":375.9275,"代表点経度":230.653181498}},{"type":"MultiPolygon","arcs":[[[-69,69,70,71]]],"properties":{"筆ID":"H000000024","version":"ver1.0","座標系":"任意座標系","測地系判別":null,"地図名":"帯広市区画整理図Ｋ（５００）１４","地図番号":"K52","縮尺分母":"500","市区町村コード":"01207","市区町村名":"帯広市","大字コード":"061","丁目コード":"005","小字コード":"0000","予備コード":"00","大字名":"西十七条南","丁目名":"５丁目","小字名":null,"予備名":null,"地番":"11-24","精度区分":null,"座標値種別":"図上測量","筆界未定構成筆":null,"代表点緯度":374.9605,"代表点経度":215.825676107}},{"type":"MultiPolygon","arcs":[[[-66,-72,72,73]]],"properties":{"筆ID":"H000000025","version":"ver1.0","座標系":"任意座標系","測地系判別":null,"地図名":"帯広市区画整理図Ｋ（５００）１４","地図番号":"K52","縮尺分母":"500","市区町村コード":"01207","市区町村名":"帯広市","大字コード":"061","丁目コード":"005","小字コード":"0000","予備コード":"00","大字名":"西十七条南","丁目名":"５丁目","小字名":null,"予備名":null,"地番":"11-25","精度区分":null,"座標値種別":"図上測量","筆界未定構成筆":null,"代表点緯度":389.8165,"代表点経度":214.274091635}},{"type":"MultiPolygon","arcs":[[[-60,-74,74,75]]],"properties":{"筆ID":"H000000026","version":"ver1.0","座標系":"任意座標系","測地系判別":null,"地図名":"帯広市区画整理図Ｋ（５００）１４","地図番号":"K52","縮尺分母":"500","市区町村コード":"01207","市区町村名":"帯広市","大字コード":"061","丁目コード":"005","小字コード":"0000","予備コード":"00","大字名":"西十七条南","丁目名":"５丁目","小字名":null,"予備名":null,"地番":"11-26","精度区分":null,"座標値種別":"図上測量","筆界未定構成筆":null,"代表点緯度":402.5595,"代表点経度":212.936610559}},{"type":"MultiPolygon","arcs":[[[76,-76,77,78]]],"properties":{"筆ID":"H000000027","version":"ver1.0","座標系":"任意座標系","測地系判別":null,"地図名":"帯広市区画整理図Ｋ（５００）１４","地図番号":"K52","縮尺分母":"500","市区町村コード":"01207","市区町村名":"帯広市","大字コード":"061","丁目コード":"005","小字コード":"0000","予備コード":"00","大字名":"西十七条南","丁目名":"５丁目","小字名":null,"予備名":null,"地番":"11-27","精度区分":null,"座標値種別":"図上測量","筆界未定構成筆":null,"代表点緯度":415.228,"代表点経度":211.603248164}},{"type":"MultiPolygon","arcs":[[[-53,-79,79,80]]],"properties":{"筆ID":"H000000028","version":"ver1.0","座標系":"任意座標系","測地系判別":null,"地図名":"帯広市区画整理図Ｋ（５００）１４","地図番号":"K52","縮尺分母":"500","市区町村コード":"01207","市区町村名":"帯広市","大字コード":"061","丁目コード":"005","小字コード":"0000","予備コード":"00","大字名":"西十七条南","丁目名":"５丁目","小字名":null,"予備名":null,"地番":"11-28","精度区分":null,"座標値種別":"図上測量","筆界未定構成筆":null,"代表点緯度":427.099,"代表点経度":210.358645157}},{"type":"MultiPolygon","arcs":[[[81,-50,-81,82,83]]],"properties":{"筆ID":"H000000029","version":"ver1.0","座標系":"任意座標系","測地系判別":null,"地図名":"帯広市区画整理図Ｋ（５００）１４","地図番号":"K52","縮尺分母":"500","市区町村コード":"01207","市区町村名":"帯広市","大字コード":"061","丁目コード":"005","小字コード":"0000","予備コード":"00","大字名":"西十七条南","丁目名":"５丁目","小字名":null,"予備名":null,"地番":"11-29","精度区分":null,"座標値種別":"図上測量","筆界未定構成筆":null,"代表点緯度":438.867,"代表点経度":209.117472283}},{"type":"MultiPolygon","arcs":[[[-45,-82,84,85]]],"properties":{"筆ID":"H000000030","version":"ver1.0","座標系":"任意座標系","測地系判別":null,"地図名":"帯広市区画整理図Ｋ（５００）１４","地図番号":"K52","縮尺分母":"500","市区町村コード":"01207","市区町村名":"帯広市","大字コード":"061","丁目コード":"005","小字コード":"0000","予備コード":"00","大字名":"西十七条南","丁目名":"５丁目","小字名":null,"予備名":null,"地番":"11-30","精度区分":null,"座標値種別":"図上測量","筆界未定構成筆":null,"代表点緯度":454.0205,"代表点経度":212.9135221}},{"type":"MultiPolygon","arcs":[[[86,87,88,89]]],"properties":{"筆ID":"H000000031","version":"ver1.0","座標系":"任意座標系","測地系判別":null,"地図名":"帯広市区画整理図Ｋ（５００）１４","地図番号":"K52","縮尺分母":"500","市区町村コード":"01207","市区町村名":"帯広市","大字コード":"061","丁目コード":"005","小字コード":"0000","予備コード":"00","大字名":"西十七条南","丁目名":"５丁目","小字名":null,"予備名":null,"地番":"11-31","精度区分":null,"座標値種別":"図上測量","筆界未定構成筆":null,"代表点緯度":388.988,"代表点経度":133.277995237}},{"type":"MultiPolygon","arcs":[[[90,-87,91,92]]],"properties":{"筆ID":"H000000032","version":"ver1.0","座標系":"任意座標系","測地系判別":null,"地図名":"帯広市区画整理図Ｋ（５００）１４","地図番号":"K52","縮尺分母":"500","市区町村コード":"01207","市区町村名":"帯広市","大字コード":"061","丁目コード":"005","小字コード":"0000","予備コード":"00","大字名":"西十七条南","丁目名":"５丁目","小字名":null,"予備名":null,"地番":"11-32","精度区分":null,"座標値種別":"図上測量","筆界未定構成筆":null,"代表点緯度":391.491,"代表点経度":147.081443053}},{"type":"MultiPolygon","arcs":[[[93,-93,94,95]]],"properties":{"筆ID":"H000000033","version":"ver1.0","座標系":"任意座標系","測地系判別":null,"地図名":"帯広市区画整理図Ｋ（５００）１４","地図番号":"K52","縮尺分母":"500","市区町村コード":"01207","市区町村名":"帯広市","大字コード":"061","丁目コード":"005","小字コード":"0000","予備コード":"00","大字名":"西十七条南","丁目名":"５丁目","小字名":null,"予備名":null,"地番":"11-33","精度区分":null,"座標値種別":"図上測量","筆界未定構成筆":null,"代表点緯度":392.8115,"代表点経度":159.543084769}},{"type":"MultiPolygon","arcs":[[[96,97,-96,98]]],"properties":{"筆ID":"H000000034","version":"ver1.0","座標系":"任意座標系","測地系判別":null,"地図名":"帯広市区画整理図Ｋ（５００）１４","地図番号":"K52","縮尺分母":"500","市区町村コード":"01207","市区町村名":"帯広市","大字コード":"061","丁目コード":"005","小字コード":"0000","予備コード":"00","大字名":"西十七条南","丁目名":"５丁目","小字名":null,"予備名":null,"地番":"11-34","精度区分":null,"座標値種別":"図上測量","筆界未定構成筆":null,"代表点緯度":394.1245,"代表点経度":172.139419031}},{"type":"MultiPolygon","arcs":[[[99,100,-97,101]]],"properties":{"筆ID":"H000000035","version":"ver1.0","座標系":"任意座標系","測地系判別":null,"地図名":"帯広市区画整理図Ｋ（５００）１４","地図番号":"K52","縮尺分母":"500","市区町村コード":"01207","市区町村名":"帯広市","大字コード":"061","丁目コード":"005","小字コード":"0000","予備コード":"00","大字名":"西十七条南","丁目名":"５丁目","小字名":null,"予備名":null,"地番":"11-35","精度区分":null,"座標値種別":"図上測量","筆界未定構成筆":null,"代表点緯度":394.594,"代表点経度":186.419023955}},{"type":"MultiPolygon","arcs":[[[102,103,104,-101]]],"properties":{"筆ID":"H000000036","version":"ver1.0","座標系":"任意座標系","測地系判別":null,"地図名":"帯広市区画整理図Ｋ（５００）１４","地図番号":"K52","縮尺分母":"500","市区町村コード":"01207","市区町村名":"帯広市","大字コード":"061","丁目コード":"005","小字コード":"0000","予備コード":"00","大字名":"西十七条南","丁目名":"５丁目","小字名":null,"予備名":null,"地番":"11-36","精度区分":null,"座標値種別":"図上測量","筆界未定構成筆":null,"代表点緯度":375.303,"代表点経度":188.462326276}},{"type":"MultiPolygon","arcs":[[[105,106,-98,-105]]],"properties":{"筆ID":"H000000037","version":"ver1.0","座標系":"任意座標系","測地系判別":null,"地図名":"帯広市区画整理図Ｋ（５００）１４","地図番号":"K52","縮尺分母":"500","市区町村コード":"01207","市区町村名":"帯広市","大字コード":"061","丁目コード":"005","小字コード":"0000","予備コード":"00","大字名":"西十七条南","丁目名":"５丁目","小字名":null,"予備名":null,"地番":"11-37","精度区分":null,"座標値種別":"図上測量","筆界未定構成筆":null,"代表点緯度":371.982,"代表点経度":174.492328043}},{"type":"MultiPolygon","arcs":[[[107,108,-94,-107]]],"properties":{"筆ID":"H000000038","version":"ver1.0","座標系":"任意座標系","測地系判別":null,"地図名":"帯広市区画整理図Ｋ（５００）１４","地図番号":"K52","縮尺分母":"500","市区町村コード":"01207","市区町村名":"帯広市","大字コード":"061","丁目コード":"005","小字コード":"0000","予備コード":"00","大字名":"西十七条南","丁目名":"５丁目","小字名":null,"予備名":null,"地番":"11-38","精度区分":null,"座標値種別":"図上測量","筆界未定構成筆":null,"代表点緯度":370.659,"代表点経度":161.956736209}},{"type":"MultiPolygon","arcs":[[[-109,109,110,-91]]],"properties":{"筆ID":"H000000039","version":"ver1.0","座標系":"任意座標系","測地系判別":null,"地図名":"帯広市区画整理図Ｋ（５００）１４","地図番号":"K52","縮尺分母":"500","市区町村コード":"01207","市区町村名":"帯広市","大字コード":"061","丁目コード":"005","小字コード":"0000","予備コード":"00","大字名":"西十七条南","丁目名":"５丁目","小字名":null,"予備名":null,"地番":"11-39","精度区分":null,"座標値種別":"図上測量","筆界未定構成筆":null,"代表点緯度":369.3475,"代表点経度":149.480694781}},{"type":"MultiPolygon","arcs":[[[111,112,-88,-111]]],"properties":{"筆ID":"H000000040","version":"ver1.0","座標系":"任意座標系","測地系判別":null,"地図名":"帯広市区画整理図Ｋ（５００）１４","地図番号":"K52","縮尺分母":"500","市区町村コード":"01207","市区町村名":"帯広市","大字コード":"061","丁目コード":"005","小字コード":"0000","予備コード":"00","大字名":"西十七条南","丁目名":"５丁目","小字名":null,"予備名":null,"地番":"11-40","精度区分":null,"座標値種別":"図上測量","筆界未定構成筆":null,"代表点緯度":368.1715,"代表点経度":135.472411864}},{"type":"MultiPolygon","arcs":[[[113,114,115,116]]],"properties":{"筆ID":"H000000041","version":"ver1.0","座標系":"任意座標系","測地系判別":null,"地図名":"帯広市区画整理図Ｋ（５００）１４","地図番号":"K52","縮尺分母":"500","市区町村コード":"01207","市区町村名":"帯広市","大字コード":"061","丁目コード":"005","小字コード":"0000","予備コード":"00","大字名":"西十七条南","丁目名":"５丁目","小字名":null,"予備名":null,"地番":"11-41","精度区分":null,"座標値種別":"図上測量","筆界未定構成筆":null,"代表点緯度":336.8675,"代表点経度":140.102948611}},{"type":"MultiPolygon","arcs":[[[117,-114,118,119]]],"properties":{"筆ID":"H000000042","version":"ver1.0","座標系":"任意座標系","測地系判別":null,"地図名":"帯広市区画整理図Ｋ（５００）１４","地図番号":"K52","縮尺分母":"500","市区町村コード":"01207","市区町村名":"帯広市","大字コード":"061","丁目コード":"005","小字コード":"0000","予備コード":"00","大字名":"西十七条南","丁目名":"５丁目","小字名":null,"予備名":null,"地番":"11-42","精度区分":null,"座標値種別":"図上測量","筆界未定構成筆":null,"代表点緯度":339.2875,"代表点経度":152.400566247}},{"type":"MultiPolygon","arcs":[[[120,121,-120,122]]],"properties":{"筆ID":"H000000043","version":"ver1.0","座標系":"任意座標系","測地系判別":null,"地図名":"帯広市区画整理図Ｋ（５００）１４","地図番号":"K52","縮尺分母":"500","市区町村コード":"01207","市区町村名":"帯広市","大字コード":"061","丁目コード":"005","小字コード":"0000","予備コード":"00","大字名":"西十七条南","丁目名":"５丁目","小字名":null,"予備名":null,"地番":"11-43","精度区分":null,"座標値種別":"図上測量","筆界未定構成筆":null,"代表点緯度":340.3945,"代表点経度":163.105340914}},{"type":"MultiPolygon","arcs":[[[123,-121,124,125]]],"properties":{"筆ID":"H000000044","version":"ver1.0","座標系":"任意座標系","測地系判別":null,"地図名":"帯広市区画整理図Ｋ（５００）１４","地図番号":"K52","縮尺分母":"500","市区町村コード":"01207","市区町村名":"帯広市","大字コード":"061","丁目コード":"005","小字コード":"0000","予備コード":"00","大字名":"西十七条南","丁目名":"５丁目","小字名":null,"予備名":null,"地番":"11-44","精度区分":null,"座標値種別":"図上測量","筆界未定構成筆":null,"代表点緯度":341.539,"代表点経度":173.856769826}},{"type":"MultiPolygon","arcs":[[[126,-126,127,128]]],"properties":{"筆ID":"H000000045","version":"ver1.0","座標系":"任意座標系","測地系判別":null,"地図名":"帯広市区画整理図Ｋ（５００）１４","地図番号":"K52","縮尺分母":"500","市区町村コード":"01207","市区町村名":"帯広市","大字コード":"061","丁目コード":"005","小字コード":"0000","予備コード":"00","大字名":"西十七条南","丁目名":"５丁目","小字名":null,"予備名":null,"地番":"11-45","精度区分":null,"座標値種別":"図上測量","筆界未定構成筆":null,"代表点緯度":342.7185,"代表点経度":184.627888134}},{"type":"MultiPolygon","arcs":[[[129,-129,130,131]]],"properties":{"筆ID":"H000000046","version":"ver1.0","座標系":"任意座標系","測地系判別":null,"地図名":"帯広市区画整理図Ｋ（５００）１４","地図番号":"K52","縮尺分母":"500","市区町村コード":"01207","市区町村名":"帯広市","大字コード":"061","丁目コード":"005","小字コード":"0000","予備コード":"00","大字名":"西十七条南","丁目名":"５丁目","小字名":null,"予備名":null,"地番":"11-46","精度区分":null,"座標値種別":"図上測量","筆界未定構成筆":null,"代表点緯度":343.8805,"代表点経度":195.445422929}},{"type":"MultiPolygon","arcs":[[[132,-132,133,134]]],"properties":{"筆ID":"H000000047","version":"ver1.0","座標系":"任意座標系","測地系判別":null,"地図名":"帯広市区画整理図Ｋ（５００）１４","地図番号":"K52","縮尺分母":"500","市区町村コード":"01207","市区町村名":"帯広市","大字コード":"061","丁目コード":"005","小字コード":"0000","予備コード":"00","大字名":"西十七条南","丁目名":"５丁目","小字名":null,"予備名":null,"地番":"11-47","精度区分":null,"座標値種別":"図上測量","筆界未定構成筆":null,"代表点緯度":345.222,"代表点経度":208.034238285}},{"type":"MultiPolygon","arcs":[[[135,136,-135,137]]],"properties":{"筆ID":"H000000048","version":"ver1.0","座標系":"任意座標系","測地系判別":null,"地図名":"帯広市区画整理図Ｋ（５００）１４","地図番号":"K52","縮尺分母":"500","市区町村コード":"01207","市区町村名":"帯広市","大字コード":"061","丁目コード":"005","小字コード":"0000","予備コード":"00","大字名":"西十七条南","丁目名":"５丁目","小字名":null,"予備名":null,"地番":"11-48","精度区分":null,"座標値種別":"図上測量","筆界未定構成筆":null,"代表点緯度":346.5655,"代表点経度":220.959021423}},{"type":"MultiPolygon","arcs":[[[138,-136,139,140]]],"properties":{"筆ID":"H000000049","version":"ver1.0","座標系":"任意座標系","測地系判別":null,"地図名":"帯広市区画整理図Ｋ（５００）１４","地図番号":"K52","縮尺分母":"500","市区町村コード":"01207","市区町村名":"帯広市","大字コード":"061","丁目コード":"005","小字コード":"0000","予備コード":"00","大字名":"西十七条南","丁目名":"５丁目","小字名":null,"予備名":null,"地番":"11-49","精度区分":null,"座標値種別":"図上測量","筆界未定構成筆":null,"代表点緯度":347.8125,"代表点経度":232.62899485}},{"type":"MultiPolygon","arcs":[[[141,142,-141,143]]],"properties":{"筆ID":"H000000050","version":"ver1.0","座標系":"任意座標系","測地系判別":null,"地図名":"帯広市区画整理図Ｋ（５００）１４","地図番号":"K52","縮尺分母":"500","市区町村コード":"01207","市区町村名":"帯広市","大字コード":"061","丁目コード":"005","小字コード":"0000","予備コード":"00","大字名":"西十七条南","丁目名":"５丁目","小字名":null,"予備名":null,"地番":"11-50","精度区分":null,"座標値種別":"図上測量","筆界未定構成筆":null,"代表点緯度":348.6795,"代表点経度":245.606899253}},{"type":"MultiPolygon","arcs":[[[144,-143,145]]],"properties":{"筆ID":"H000000051","version":"ver1.0","座標系":"任意座標系","測地系判別":null,"地図名":"帯広市区画整理図Ｋ（５００）１４","地図番号":"K52","縮尺分母":"500","市区町村コード":"01207","市区町村名":"帯広市","大字コード":"061","丁目コード":"005","小字コード":"0000","予備コード":"00","大字名":"西十七条南","丁目名":"５丁目","小字名":null,"予備名":null,"地番":"11-51","精度区分":null,"座標値種別":"図上測量","筆界未定構成筆":null,"代表点緯度":328.7655,"代表点経度":247.695075707}},{"type":"MultiPolygon","arcs":[[[146,147,-139,-145]]],"properties":{"筆ID":"H000000052","version":"ver1.0","座標系":"任意座標系","測地系判別":null,"地図名":"帯広市区画整理図Ｋ（５００）１４","地図番号":"K52","縮尺分母":"500","市区町村コード":"01207","市区町村名":"帯広市","大字コード":"061","丁目コード":"005","小字コード":"0000","予備コード":"00","大字名":"西十七条南","丁目名":"５丁目","小字名":null,"予備名":null,"地番":"11-52","精度区分":null,"座標値種別":"図上測量","筆界未定構成筆":null,"代表点緯度":325.6685,"代表点経度":234.959430569}},{"type":"MultiPolygon","arcs":[[[-148,148,149,-137]]],"properties":{"筆ID":"H000000053","version":"ver1.0","座標系":"任意座標系","測地系判別":null,"地図名":"帯広市区画整理図Ｋ（５００）１４","地図番号":"K52","縮尺分母":"500","市区町村コード":"01207","市区町村名":"帯広市","大字コード":"061","丁目コード":"005","小字コード":"0000","予備コード":"00","大字名":"西十七条南","丁目名":"５丁目","小字名":null,"予備名":null,"地番":"11-53","精度区分":null,"座標値種別":"図上測量","筆界未定構成筆":null,"代表点緯度":324.443,"代表点経度":223.320534179}},{"type":"MultiPolygon","arcs":[[[150,151,-133,-150]]],"properties":{"筆ID":"H000000054","version":"ver1.0","座標系":"任意座標系","測地系判別":null,"地図名":"帯広市区画整理図Ｋ（５００）１４","地図番号":"K52","縮尺分母":"500","市区町村コード":"01207","市区町村名":"帯広市","大字コード":"061","丁目コード":"005","小字コード":"0000","予備コード":"00","大字名":"西十七条南","丁目名":"５丁目","小字名":null,"予備名":null,"地番":"11-54","精度区分":null,"座標値種別":"図上測量","筆界未定構成筆":null,"代表点緯度":323.06,"代表点経度":210.448143216}},{"type":"MultiPolygon","arcs":[[[-152,152,153,-130]]],"properties":{"筆ID":"H000000055","version":"ver1.0","座標系":"任意座標系","測地系判別":null,"地図名":"帯広市区画整理図Ｋ（５００）１４","地図番号":"K52","縮尺分母":"500","市区町村コード":"01207","市区町村名":"帯広市","大字コード":"061","丁目コード":"005","小字コード":"0000","予備コード":"00","大字名":"西十七条南","丁目名":"５丁目","小字名":null,"予備名":null,"地番":"11-55","精度区分":null,"座標値種別":"図上測量","筆界未定構成筆":null,"代表点緯度":321.735,"代表点経度":197.874181618}},{"type":"MultiPolygon","arcs":[[[154,155,-127,-154]]],"properties":{"筆ID":"H000000056","version":"ver1.0","座標系":"任意座標系","測地系判別":null,"地図名":"帯広市区画整理図Ｋ（５００）１４","地図番号":"K52","縮尺分母":"500","市区町村コード":"01207","市区町村名":"帯広市","大字コード":"061","丁目コード":"005","小字コード":"0000","予備コード":"00","大字名":"西十七条南","丁目名":"５丁目","小字名":null,"予備名":null,"地番":"11-56","精度区分":null,"座標値種別":"図上測量","筆界未定構成筆":null,"代表点緯度":320.5635,"代表点経度":187.040951911}},{"type":"MultiPolygon","arcs":[[[156,157,-124,-156]]],"properties":{"筆ID":"H000000057","version":"ver1.0","座標系":"任意座標系","測地系判別":null,"地図名":"帯広市区画整理図Ｋ（５００）１４","地図番号":"K52","縮尺分母":"500","市区町村コード":"01207","市区町村名":"帯広市","大字コード":"061","丁目コード":"005","小字コード":"0000","予備コード":"00","大字名":"西十七条南","丁目名":"５丁目","小字名":null,"予備名":null,"地番":"11-57","精度区分":null,"座標値種別":"図上測量","筆界未定構成筆":null,"代表点緯度":319.3855,"代表点経度":176.234443828}},{"type":"MultiPolygon","arcs":[[[158,159,-122,-158]]],"properties":{"筆ID":"H000000058","version":"ver1.0","座標系":"任意座標系","測地系判別":null,"地図名":"帯広市区画整理図Ｋ（５００）１４","地図番号":"K52","縮尺分母":"500","市区町村コード":"01207","市区町村名":"帯広市","大字コード":"061","丁目コード":"005","小字コード":"0000","予備コード":"00","大字名":"西十七条南","丁目名":"５丁目","小字名":null,"予備名":null,"地番":"11-58","精度区分":null,"座標値種別":"図上測量","筆界未定構成筆":null,"代表点緯度":318.2475,"代表点経度":165.477960218}},{"type":"MultiPolygon","arcs":[[[-160,160,161,-118]]],"properties":{"筆ID":"H000000059","version":"ver1.0","座標系":"任意座標系","測地系判別":null,"地図名":"帯広市区画整理図Ｋ（５００）１４","地図番号":"K52","縮尺分母":"500","市区町村コード":"01207","市区町村名":"帯広市","大字コード":"061","丁目コード":"005","小字コード":"0000","予備コード":"00","大字名":"西十七条南","丁目名":"５丁目","小字名":null,"予備名":null,"地番":"11-59","精度区分":null,"座標値種別":"図上測量","筆界未定構成筆":null,"代表点緯度":317.1145,"代表点経度":154.773729463}},{"type":"MultiPolygon","arcs":[[[-162,162,163,-115]]],"properties":{"筆ID":"H000000060","version":"ver1.0","座標系":"任意座標系","測地系判別":null,"地図名":"帯広市区画整理図Ｋ（５００）１４","地図番号":"K52","縮尺分母":"500","市区町村コード":"01207","市区町村名":"帯広市","大字コード":"061","丁目コード":"005","小字コード":"0000","予備コード":"00","大字名":"西十七条南","丁目名":"５丁目","小字名":null,"予備名":null,"地番":"11-60","精度区分":null,"座標値種別":"図上測量","筆界未定構成筆":null,"代表点緯度":316.13,"代表点経度":142.316968553}},{"type":"MultiPolygon","arcs":[[[164,165,166,167]]],"properties":{"筆ID":"H000000061","version":"ver1.0","座標系":"任意座標系","測地系判別":null,"地図名":"帯広市区画整理図Ｋ（５００）１４","地図番号":"K52","縮尺分母":"500","市区町村コード":"01207","市区町村名":"帯広市","大字コード":"061","丁目コード":"005","小字コード":"0000","予備コード":"00","大字名":"西十七条南","丁目名":"５丁目","小字名":null,"予備名":null,"地番":"11-61","精度区分":null,"座標値種別":"図上測量","筆界未定構成筆":null,"代表点緯度":332.3005,"代表点経度":85.690272694}},{"type":"MultiPolygon","arcs":[[[168,-165,169,170]]],"properties":{"筆ID":"H000000062","version":"ver1.0","座標系":"任意座標系","測地系判別":null,"地図名":"帯広市区画整理図Ｋ（５００）１４","地図番号":"K52","縮尺分母":"500","市区町村コード":"01207","市区町村名":"帯広市","大字コード":"061","丁目コード":"005","小字コード":"0000","予備コード":"00","大字名":"西十七条南","丁目名":"５丁目","小字名":null,"予備名":null,"地番":"11-62","精度区分":null,"座標値種別":"図上測量","筆界未定構成筆":null,"代表点緯度":333.653,"代表点経度":98.971757452}},{"type":"MultiPolygon","arcs":[[[171,172,-171,173]]],"properties":{"筆ID":"H000000063","version":"ver1.0","座標系":"任意座標系","測地系判別":null,"地図名":"帯広市区画整理図Ｋ（５００）１４","地図番号":"K52","縮尺分母":"500","市区町村コード":"01207","市区町村名":"帯広市","大字コード":"061","丁目コード":"005","小字コード":"0000","予備コード":"00","大字名":"西十七条南","丁目名":"５丁目","小字名":null,"予備名":null,"地番":"11-63","精度区分":null,"座標値種別":"図上測量","筆界未定構成筆":null,"代表点緯度":334.9175,"代表点経度":113.184537615}},{"type":"MultiPolygon","arcs":[[[174,175,176,-173]]],"properties":{"筆ID":"H000000064","version":"ver1.0","座標系":"任意座標系","測地系判別":null,"地図名":"帯広市区画整理図Ｋ（５００）１４","地図番号":"K52","縮尺分母":"500","市区町村コード":"01207","市区町村名":"帯広市","大字コード":"061","丁目コード":"005","小字コード":"0000","予備コード":"00","大字名":"西十七条南","丁目名":"５丁目","小字名":null,"予備名":null,"地番":"11-64","精度区分":null,"座標値種別":"図上測量","筆界未定構成筆":null,"代表点緯度":314.1605,"代表点経度":115.328951788}},{"type":"MultiPolygon","arcs":[[[-177,177,178,-169]]],"properties":{"筆ID":"H000000065","version":"ver1.0","座標系":"任意座標系","測地系判別":null,"地図名":"帯広市区画整理図Ｋ（５００）１４","地図番号":"K52","縮尺分母":"500","市区町村コード":"01207","市区町村名":"帯広市","大字コード":"061","丁目コード":"005","小字コード":"0000","予備コード":"00","大字名":"西十七条南","丁目名":"５丁目","小字名":null,"予備名":null,"地番":"11-65","精度区分":null,"座標値種別":"図上測量","筆界未定構成筆":null,"代表点緯度":311.492,"代表点経度":101.248437069}},{"type":"MultiPolygon","arcs":[[[179,180,-166,-179]]],"properties":{"筆ID":"H000000066","version":"ver1.0","座標系":"任意座標系","測地系判別":null,"地図名":"帯広市区画整理図Ｋ（５００）１４","地図番号":"K52","縮尺分母":"500","市区町村コード":"01207","市区町村名":"帯広市","大字コード":"061","丁目コード":"005","小字コード":"0000","予備コード":"00","大字名":"西十七条南","丁目名":"５丁目","小字名":null,"予備名":null,"地番":"11-66","精度区分":null,"座標値種別":"図上測量","筆界未定構成筆":null,"代表点緯度":310.14,"代表点経度":88.044441632}},{"type":"MultiPolygon","arcs":[[[181,182,183,184]]],"properties":{"筆ID":"H000000067","version":"ver1.0","座標系":"任意座標系","測地系判別":null,"地図名":"帯広市区画整理図Ｋ（５００）１４","地図番号":"K52","縮尺分母":"500","市区町村コード":"01207","市区町村名":"帯広市","大字コード":"061","丁目コード":"005","小字コード":"0000","予備コード":"00","大字名":"西十七条南","丁目名":"５丁目","小字名":null,"予備名":null,"地番":"11-67","精度区分":null,"座標値種別":"図上測量","筆界未定構成筆":null,"代表点緯度":434.3995,"代表点経度":74.63757469}},{"type":"MultiPolygon","arcs":[[[185,186,187,-183]]],"properties":{"筆ID":"H000000068","version":"ver1.0","座標系":"任意座標系","測地系判別":null,"地図名":"帯広市区画整理図Ｋ（５００）１４","地図番号":"K52","縮尺分母":"500","市区町村コード":"01207","市区町村名":"帯広市","大字コード":"061","丁目コード":"005","小字コード":"0000","予備コード":"00","大字名":"西十七条南","丁目名":"５丁目","小字名":null,"予備名":null,"地番":"11-68","精度区分":null,"座標値種別":"図上測量","筆界未定構成筆":null,"代表点緯度":410.9835,"代表点経度":77.126844097}},{"type":"MultiPolygon","arcs":[[[188,189,190,-187]]],"properties":{"筆ID":"H000000069","version":"ver1.0","座標系":"任意座標系","測地系判別":null,"地図名":"帯広市区画整理図Ｋ（５００）１４","地図番号":"K52","縮尺分母":"500","市区町村コード":"01207","市区町村名":"帯広市","大字コード":"061","丁目コード":"005","小字コード":"0000","予備コード":"00","大字名":"西十七条南","丁目名":"５丁目","小字名":null,"予備名":null,"地番":"11-69","精度区分":null,"座標値種別":"図上測量","筆界未定構成筆":null,"代表点緯度":389.1755,"代表点経度":79.432068664}},{"type":"MultiPolygon","arcs":[[[191,192,-190,193]]],"properties":{"筆ID":"H000000070","version":"ver1.0","座標系":"任意座標系","測地系判別":null,"地図名":"帯広市区画整理図Ｋ（５００）１４","地図番号":"K52","縮尺分母":"500","市区町村コード":"01207","市区町村名":"帯広市","大字コード":"061","丁目コード":"005","小字コード":"0000","予備コード":"00","大字名":"西十七条南","丁目名":"５丁目","小字名":null,"予備名":null,"地番":"11-70","精度区分":null,"座標値種別":"図上測量","筆界未定構成筆":null,"代表点緯度":366.6235,"代表点経度":82.023096757}},{"type":"MultiPolygon","arcs":[[[-180,-178,-176,194,-163,-161,-159,-157,-155,-153,-151,-149,-147,-146,-142,195,196,-62,-58,-57,-54,-48,197,198,199]]],"properties":{"筆ID":"H000000071","version":"ver1.0","座標系":"任意座標系","測地系判別":null,"地図名":"帯広市区画整理図Ｋ（５００）１４","地図番号":"K52","縮尺分母":"500","市区町村コード":"01207","市区町村名":"帯広市","大字コード":"061","丁目コード":"005","小字コード":"0000","予備コード":"00","大字名":"西十七条南","丁目名":"５丁目","小字名":null,"予備名":null,"地番":"11-71","精度区分":null,"座標値種別":"図上測量","筆界未定構成筆":null,"代表点緯度":379.0375,"代表点経度":252.190575861}},{"type":"MultiPolygon","arcs":[[[200,-83,-80,-78,-75,-73,-71,201,-103,-100,202,-26,-23,203]]],"properties":{"筆ID":"H000000072","version":"ver1.0","座標系":"任意座標系","測地系判別":null,"地図名":"帯広市区画整理図Ｋ（５００）１４","地図番号":"K52","縮尺分母":"500","市区町村コード":"01207","市区町村名":"帯広市","大字コード":"061","丁目コード":"005","小字コード":"0000","予備コード":"00","大字名":"西十七条南","丁目名":"５丁目","小字名":null,"予備名":null,"地番":"11-72","精度区分":null,"座標値種別":"図上測量","筆界未定構成筆":null,"代表点緯度":413.368,"代表点経度":196.398348755}},{"type":"MultiPolygon","arcs":[[[-89,-113,204,205,206]]],"properties":{"筆ID":"H000000073","version":"ver1.0","座標系":"任意座標系","測地系判別":null,"地図名":"帯広市区画整理図Ｋ（５００）１４","地図番号":"K52","縮尺分母":"500","市区町村コード":"01207","市区町村名":"帯広市","大字コード":"061","丁目コード":"005","小字コード":"0000","予備コード":"00","大字名":"西十七条南","丁目名":"５丁目","小字名":null,"予備名":null,"地番":"11-73","精度区分":null,"座標値種別":"図上測量","筆界未定構成筆":null,"代表点緯度":368.1715,"代表点経度":123.64987336}},{"type":"MultiPolygon","arcs":[[[207,-46,-86,208,-204,-25,-21,-18,-16,-12,-10,-7,-4,209,-185,210,-199]]],"properties":{"筆ID":"H000000074","version":"ver1.0","座標系":"任意座標系","測地系判別":null,"地図名":"帯広市区画整理図Ｋ（５００）１４","地図番号":"K52","縮尺分母":"500","市区町村コード":"01207","市区町村名":"帯広市","大字コード":"061","丁目コード":"005","小字コード":"0000","予備コード":"00","大字名":"西十七条南","丁目名":"５丁目","小字名":null,"予備名":null,"地番":"11-74","精度区分":null,"座標値種別":"図上測量","筆界未定構成筆":null,"代表点緯度":462.303,"代表点経度":154.773493117}},{"type":"MultiPolygon","arcs":[[[-206,211,212,213]]],"properties":{"筆ID":"H000000075","version":"ver1.0","座標系":"任意座標系","測地系判別":null,"地図名":"帯広市区画整理図Ｋ（５００）１４","地図番号":"K52","縮尺分母":"500","市区町村コード":"01207","市区町村名":"帯広市","大字コード":"061","丁目コード":"005","小字コード":"0000","予備コード":"00","大字名":"西十七条南","丁目名":"５丁目","小字名":null,"予備名":null,"地番":"11-75","精度区分":null,"座標値種別":"図上測量","筆界未定構成筆":null,"代表点緯度":375.509,"代表点経度":107.50164092}},{"type":"MultiPolygon","arcs":[[[-164,-195,-175,-172,214,-116]]],"properties":{"筆ID":"H000000076","version":"ver1.0","座標系":"任意座標系","測地系判別":null,"地図名":"帯広市区画整理図Ｋ（５００）１４","地図番号":"K52","縮尺分母":"500","市区町村コード":"01207","市区町村名":"帯広市","大字コード":"061","丁目コード":"005","小字コード":"0000","予備コード":"00","大字名":"西十七条南","丁目名":"５丁目","小字名":null,"予備名":null,"地番":"11-76","精度区分":null,"座標値種別":"図上測量","筆界未定構成筆":null,"代表点緯度":325.4935,"代表点経度":128.178917127}},{"type":"MultiPolygon","arcs":[[[-39,-37,-35,-33,-31,-29,-27,-203,-102,-99,-95,-92,-90,-207,-214,215,-41]]],"properties":{"筆ID":"H000000077","version":"ver1.0","座標系":"任意座標系","測地系判別":null,"地図名":"帯広市区画整理図Ｋ（５００）１４","地図番号":"K52","縮尺分母":"500","市区町村コード":"01207","市区町村名":"帯広市","大字コード":"061","丁目コード":"005","小字コード":"0000","予備コード":"00","大字名":"西十七条南","丁目名":"５丁目","小字名":null,"予備名":null,"地番":"11-77","精度区分":null,"座標値種別":"図上測量","筆界未定構成筆":null,"代表点緯度":406.179,"代表点経度":141.624080609}},{"type":"MultiPolygon","arcs":[[[-42,-216,-213,216,-194,-189,-186,-182,-210,-3]]],"properties":{"筆ID":"H000000078","version":"ver1.0","座標系":"任意座標系","測地系判別":null,"地図名":"帯広市区画整理図Ｋ（５００）１４","地図番号":"K52","縮尺分母":"500","市区町村コード":"01207","市区町村名":"帯広市","大字コード":"061","丁目コード":"005","小字コード":"0000","予備コード":"00","大字名":"西十七条南","丁目名":"５丁目","小字名":null,"予備名":null,"地番":"11-78","精度区分":null,"座標値種別":"図上測量","筆界未定構成筆":null,"代表点緯度":397.148,"代表点経度":89.854794047}},{"type":"MultiPolygon","arcs":[[[-217,-212,-205,-112,-110,-108,-106,-104,-202,-70,-68,217,218,-196,-144,-140,-138,-134,-131,-128,-125,-123,-119,-117,-215,-174,-170,-168,219,-192]]],"properties":{"筆ID":"H000000079","version":"ver1.0","座標系":"任意座標系","測地系判別":null,"地図名":"帯広市区画整理図Ｋ（５００）１４","地図番号":"K52","縮尺分母":"500","市区町村コード":"01207","市区町村名":"帯広市","大字コード":"061","丁目コード":"005","小字コード":"0000","予備コード":"00","大字名":"西十七条南","丁目名":"５丁目","小字名":null,"予備名":null,"地番":"11-79","精度区分":null,"座標値種別":"図上測量","筆界未定構成筆":null,"代表点緯度":356.603,"代表点経度":172.512921521}},{"type":"MultiPolygon","arcs":[[[-61,-77,-52,-56]]],"properties":{"筆ID":"H000000080","version":"ver1.0","座標系":"任意座標系","測地系判別":null,"地図名":"帯広市区画整理図Ｋ（５００）１４","地図番号":"K52","縮尺分母":"500","市区町村コード":"01207","市区町村名":"帯広市","大字コード":"061","丁目コード":"005","小字コード":"0000","予備コード":"00","大字名":"西十七条南","丁目名":"５丁目","小字名":null,"予備名":null,"地番":"11-83","精度区分":null,"座標値種別":"図上測量","筆界未定構成筆":null,"代表点緯度":416.87,"代表点経度":226.862665719}},{"type":"MultiPolygon","arcs":[[[-198,-47,-43,-208]]],"properties":{"筆ID":"H000000081","version":"ver1.0","座標系":"任意座標系","測地系判別":null,"地図名":"帯広市区画整理図Ｋ（５００）１４","地図番号":"K52","縮尺分母":"500","市区町村コード":"01207","市区町村名":"帯広市","大字コード":"061","丁目コード":"005","小字コード":"0000","予備コード":"00","大字名":"西十七条南","丁目名":"５丁目","小字名":null,"予備名":null,"地番":"11-84","精度区分":null,"座標値種別":"図上測量","筆界未定構成筆":null,"代表点緯度":455.9215,"代表点経度":236.065487857}},{"type":"MultiPolygon","arcs":[[[-85,-84,-201,-209]]],"properties":{"筆ID":"H000000082","version":"ver1.0","座標系":"任意座標系","測地系判別":null,"地図名":"帯広市区画整理図Ｋ（５００）１４","地図番号":"K52","縮尺分母":"500","市区町村コード":"01207","市区町村名":"帯広市","大字コード":"061","丁目コード":"005","小字コード":"0000","予備コード":"00","大字名":"西十七条南","丁目名":"５丁目","小字名":null,"予備名":null,"地番":"11-85","精度区分":null,"座標値種別":"図上測量","筆界未定構成筆":null,"代表点緯度":451.744,"代表点経度":201.756268214}},{"type":"MultiPolygon","arcs":[[[220,-218,-67,-64]]],"properties":{"筆ID":"H000000083","version":"ver1.0","座標系":"任意座標系","測地系判別":null,"地図名":"帯広市区画整理図Ｋ（５００）１４","地図番号":"K52","縮尺分母":"500","市区町村コード":"01207","市区町村名":"帯広市","大字コード":"061","丁目コード":"005","小字コード":"0000","予備コード":"00","大字名":"西十七条南","丁目名":"５丁目","小字名":null,"予備名":null,"地番":"11-87","精度区分":null,"座標値種別":"図上測量","筆界未定構成筆":null,"代表点緯度":376.8975,"代表点経度":239.866386514}},{"type":"MultiPolygon","arcs":[[[-197,-219,-221,-63]]],"properties":{"筆ID":"H000000084","version":"ver1.0","座標系":"任意座標系","測地系判別":null,"地図名":"帯広市区画整理図Ｋ（５００）１４","地図番号":"K52","縮尺分母":"500","市区町村コード":"01207","市区町村名":"帯広市","大字コード":"061","丁目コード":"005","小字コード":"0000","予備コード":"00","大字名":"西十七条南","丁目名":"５丁目","小字名":null,"予備名":null,"地番":"11-88","精度区分":null,"座標値種別":"図上測量","筆界未定構成筆":null,"代表点緯度":378.831,"代表点経度":247.434175887}}]}},"arcs":[[[185375,853495],[11669,-119156]],[[197044,734339],[-65810,-7109]],[[131234,727230],[-10832,107060],[10188,13319]],[[130590,847609],[54785,5886]],[[248163,860723],[11998,-119432]],[[260161,741291],[-63117,-6952]],[[185375,853495],[62788,7228]],[[311898,867773],[12100,-119210]],[[323998,748563],[-63837,-7272]],[[248163,860723],[63735,7050]],[[378976,754757],[-54978,-6194]],[[311898,867773],[54258,6243]],[[366156,874016],[12820,-119259]],[[421113,880259],[12293,-119470]],[[433406,760789],[-54430,-6032]],[[366156,874016],[54957,6243]],[[487882,766864],[-54476,-6075]],[[421113,880259],[54699,6210]],[[475812,886469],[12070,-119605]],[[542712,773074],[-54830,-6210]],[[475812,886469],[54755,5793]],[[530567,892262],[12145,-119188]],[[610439,901240],[12455,-10645],[10914,-107520]],[[633808,783075],[-91096,-10001]],[[530567,892262],[79872,8978]],[[633808,783075],[10147,-101099]],[[643955,681976],[-16061,-20645],[-73183,-8127]],[[554711,653204],[-11999,119870]],[[554711,653204],[-54760,-6313]],[[499951,646891],[-12069,119973]],[[499951,646891],[-54090,-5962]],[[445861,640929],[-12455,119860]],[[445861,640929],[-54344,-6075]],[[391517,634854],[-12541,119903]],[[391517,634854],[-55505,-6475]],[[336012,628379],[-12014,120184]],[[336012,628379],[-64024,-7017]],[[271988,621362],[-11827,119929]],[[271988,621362],[-63133,-7353]],[[208855,614009],[-11811,120330]],[[208855,614009],[-48435,-5241],[-19150,16595]],[[141270,625363],[-10036,101867]],[[836826,926493],[9057,-89176]],[[845883,837317],[-60181,-6963]],[[785702,830354],[-8935,89690]],[[776767,920044],[60059,6449]],[[845883,837317],[53827,5771]],[[899710,843088],[6973,-68649]],[[906683,774439],[-114206,-12535]],[[792477,761904],[-6775,68450]],[[912347,715616],[-73630,-8062]],[[838717,707554],[-40590,-4662]],[[798127,702892],[-5650,59012]],[[906683,774439],[5664,-58823]],[[919051,646290],[-73143,-7905]],[[845908,638385],[-7191,69169]],[[912347,715616],[6704,-69326]],[[919051,646290],[6862,-68601]],[[925913,577689],[-114261,-12757]],[[811652,564932],[-6740,68861]],[[804912,633793],[40996,4592]],[[925913,577689],[6577,-68688]],[[932490,509001],[-20848,-2236]],[[911642,506765],[-57330,-6146]],[[854312,500619],[-36245,-4109]],[[818067,496510],[-6415,68422]],[[854312,500619],[10091,-99214]],[[864403,401405],[-36614,-4071]],[[827789,397334],[-9722,99176]],[[827789,397334],[-95913,-10499]],[[731876,386835],[-19256,16438],[-7911,80897]],[[704709,484170],[113358,12340]],[[704709,484170],[-6790,67638]],[[697919,551808],[113733,13124]],[[697919,551808],[-7075,69570]],[[690844,621378],[114068,12415]],[[798127,702892],[6785,-69099]],[[690844,621378],[-6653,68325]],[[684191,689703],[113936,13189]],[[684191,689703],[-5969,59450]],[[678222,749153],[114255,12751]],[[725577,823732],[60125,6622]],[[678222,749153],[-6872,68423]],[[671350,817576],[54227,6156]],[[725577,823732],[-8905,89490]],[[716672,913222],[60095,6822]],[[380097,589698],[11654,-119925]],[[391751,469773],[-78215,-8917]],[[313536,460856],[-10675,108716],[9960,12454]],[[312821,582026],[67276,7672]],[[454858,476753],[-63107,-6980]],[[380097,589698],[62473,7163]],[[442570,596861],[12288,-120108]],[[518294,483889],[-63436,-7136]],[[442570,596861],[63842,7196]],[[506412,604057],[11882,-120168]],[[570457,611496],[11968,-120585]],[[582425,490911],[-64131,-7022]],[[506412,604057],[64045,7439]],[[652089,600229],[10001,-100405]],[[662090,499824],[-79665,-8913]],[[570457,611496],[61150,6617],[20482,-17884]],[[662090,499824],[9894,-99583],[-15366,-21782]],[[656618,378459],[-62407,-7158]],[[594211,371301],[-11786,119610]],[[594211,371301],[-63741,-7190]],[[530470,364111],[-12176,119778]],[[530470,364111],[-62980,-7223]],[[467490,356888],[-12632,119865]],[[467490,356888],[-63619,-6985]],[[403871,349903],[-12120,119870]],[[403871,349903],[-67281,-7667]],[[336590,342236],[-12490,10834],[-10564,107786]],[[411163,307492],[12060,-119947]],[[423223,187545],[-71622,-8257]],[[351601,179288],[-10999,108105],[10325,13157]],[[350927,300550],[60236,6942]],[[477460,193653],[-54237,-6108]],[[411163,307492],[54228,6010]],[[465391,313502],[12069,-119849]],[[519744,319517],[12035,-119886]],[[531779,199631],[-54319,-5978]],[[465391,313502],[54353,6015]],[[586523,206009],[-54744,-6378]],[[519744,319517],[54679,6346]],[[574423,325863],[12100,-119854]],[[641186,212436],[-54663,-6427]],[[574423,325863],[54410,6264]],[[628833,332127],[12353,-119691]],[[696341,218754],[-55155,-6318]],[[628833,332127],[55211,6281]],[[684044,338408],[12297,-119654]],[[768795,227001],[-72454,-8247]],[[684044,338408],[72569,8008]],[[756613,346416],[12182,-119415]],[[815349,353049],[11846,-119508]],[[827195,233541],[-58400,-6540]],[[756613,346416],[58736,6633]],[[887052,240412],[-59857,-6871]],[[815349,353049],[59709,6941]],[[875058,359990],[11994,-119578]],[[947684,354586],[10695,-106323]],[[958379,248263],[-71327,-7851]],[[875058,359990],[59846,6156],[12780,-11560]],[[898776,120125],[-11724,120287]],[[958379,248263],[9559,-101472],[-16228,-20867],[-52934,-5799]],[[898776,120125],[-59871,-6730]],[[838905,113395],[-11710,120146]],[[838905,113395],[-57909,-6730]],[[780996,106665],[-12201,120336]],[[780996,106665],[-72418,-8030]],[[708578,98635],[-12237,120119]],[[708578,98635],[-55018,-6259]],[[653560,92376],[-12374,120060]],[[653560,92376],[-54937,-6378]],[[598623,85998],[-12100,120011]],[[598623,85998],[-54856,-6346]],[[543767,79652],[-11988,119979]],[[543767,79652],[-54247,-6162]],[[489520,73490],[-12060,120163]],[[489520,73490],[-54359,-6123]],[[435161,67367],[-11938,120178]],[[435161,67367],[-61063,-6704]],[[374098,60663],[-11852,10423],[-10645,108202]],[[135499,276640],[11908,-120352]],[[147407,156288],[-70755,-7472]],[[76652,148816],[-12186,120379]],[[64466,269195],[71033,7445]],[[210985,163489],[-63578,-7201]],[[135499,276640],[64061,7185]],[[199560,283825],[11425,-120336]],[[268808,291297],[11643,-9957],[10899,-108857]],[[291350,172483],[-80365,-8994]],[[199560,283825],[69248,7472]],[[291350,172483],[10523,-106925],[-9707,-14056]],[[292166,51502],[-70004,-7640]],[[222162,43862],[-11177,119627]],[[222162,43862],[-63086,-7168]],[[159076,36694],[-11669,119594]],[[159076,36694],[-70435,-7434]],[[88641,29260],[-11989,119556]],[[68072,840430],[12201,-11121],[12937,-127516]],[[93210,701793],[-72900,-7732]],[[20310,694061],[-13986,139801]],[[6324,833862],[61748,6568]],[[93210,701793],[11633,-118322]],[[104843,583471],[-72869,-8186]],[[31974,575285],[-11664,118776]],[[104843,583471],[11796,-117379]],[[116639,466092],[-71069,-7819]],[[45570,458273],[-1998,-227],[-11598,117239]],[[114058,317530],[-53908,-5723]],[[60150,311807],[-14580,146466]],[[116639,466092],[12542,-127202],[-15123,-21360]],[[292166,51502],[81932,9161]],[[947684,354586],[-6796,68006]],[[940888,422592],[-8398,86409]],[[899710,843088],[-7714,77985]],[[891996,921073],[-7282,76083]],[[884714,997156],[26573,2843],[88712,-898180],[-911358,-101819],[-2784,28951],[2784,309]],[[673617,908473],[-9985,-13281],[7718,-77616]],[[731876,386835],[-75258,-8376]],[[652089,600229],[-8134,81747]],[[610439,901240],[63178,7233]],[[336590,342236],[-61463,-6714]],[[275127,335522],[8758,13623],[-21218,215462],[-12303,10320]],[[250364,574927],[62457,7099]],[[891996,921073],[-12019,10498],[-43151,-5078]],[[716672,913222],[-43055,-4749]],[[130590,847609],[-62518,-7179]],[[6324,833862],[-6324,64178],[884714,99116]],[[275127,335522],[-85827,-9594]],[[189300,325928],[-20188,17007],[-19722,201303]],[[149390,544238],[15695,21106],[85279,9583]],[[268808,291297],[82119,9253]],[[149390,544238],[-8120,81125]],[[189300,325928],[-75242,-8398]],[[864403,401405],[56778,6395]],[[921181,407800],[10219,1353],[9488,13439]],[[64466,269195],[-4316,42612]],[[911642,506765],[9539,-98965]]],"bbox":[64.788,293.009,261.977,477.7],"transform":{"scale":[0.00019718919718919717,0.00018469118469118467],"translate":[64.788,293.009]}}
