{"type":"Topology","objects":{"01207-4601-10":{"type":"GeometryCollection","geometries":[{"type":"MultiPolygon","arcs":[[[0,1]]],"properties":{"筆ID":"H000000001","version":"ver1.0","座標系":"任意座標系","測地系判別":null,"地図名":"帯広市区画整理図Ｄ（６００）","地図番号":"D7","縮尺分母":"600","市区町村コード":"01207","市区町村名":"帯広市","大字コード":"129","丁目コード":"002","小字コード":"0000","予備コード":"00","大字名":"白樺十六条西","丁目名":"２丁目","小字名":null,"予備名":null,"地番":"1","精度区分":null,"座標値種別":"図上測量","筆界未定構成筆":null,"代表点緯度":517.906,"代表点経度":209.087922158}},{"type":"MultiPolygon","arcs":[[[2,3,4,5,6,-1]]],"properties":{"筆ID":"H000000002","version":"ver1.0","座標系":"任意座標系","測地系判別":null,"地図名":"帯広市区画整理図Ｄ（６００）","地図番号":"D7","縮尺分母":"600","市区町村コード":"01207","市区町村名":"帯広市","大字コード":"129","丁目コード":"002","小字コード":"0000","予備コード":"00","大字名":"白樺十六条西","丁目名":"２丁目","小字名":null,"予備名":null,"地番":"2-1","精度区分":null,"座標値種別":"図上測量","筆界未定構成筆":null,"代表点緯度":489.1745,"代表点経度":221.073896086}},{"type":"MultiPolygon","arcs":[[[7,8,-6]]],"properties":{"筆ID":"H000000003","version":"ver1.0","座標系":"任意座標系","測地系判別":null,"地図名":"帯広市区画整理図Ｄ（６００）","地図番号":"D7","縮尺分母":"600","市区町村コード":"01207","市区町村名":"帯広市","大字コード":"129","丁目コード":"002","小字コード":"0000","予備コード":"00","大字名":"白樺十六条西","丁目名":"２丁目","小字名":null,"予備名":null,"地番":"2-2","精度区分":null,"座標値種別":"図上測量","筆界未定構成筆":null,"代表点緯度":439.732,"代表点経度":207.754240405}},{"type":"MultiPolygon","arcs":[[[9,10,-4,11]]],"properties":{"筆ID":"H000000004","version":"ver1.0","座標系":"任意座標系","測地系判別":null,"地図名":"帯広市区画整理図Ｄ（６００）","地図番号":"D7","縮尺分母":"600","市区町村コード":"01207","市区町村名":"帯広市","大字コード":"129","丁目コード":"002","小字コード":"0000","予備コード":"00","大字名":"白樺十六条西","丁目名":"２丁目","小字名":null,"予備名":null,"地番":"2-3","精度区分":null,"座標値種別":"図上測量","筆界未定構成筆":null,"代表点緯度":508.133,"代表点経度":282.852648463}},{"type":"MultiPolygon","arcs":[[[12,13,-10,14]]],"properties":{"筆ID":"H000000005","version":"ver1.0","座標系":"任意座標系","測地系判別":null,"地図名":"帯広市区画整理図Ｄ（６００）","地図番号":"D7","縮尺分母":"600","市区町村コード":"01207","市区町村名":"帯広市","大字コード":"129","丁目コード":"002","小字コード":"0000","予備コード":"00","大字名":"白樺十六条西","丁目名":"２丁目","小字名":null,"予備名":null,"地番":"2-4","精度区分":null,"座標値種別":"図上測量","筆界未定構成筆":null,"代表点緯度":514.8495,"代表点経度":340.354833325}},{"type":"MultiPolygon","arcs":[[[15,16,17,18]]],"properties":{"筆ID":"H000000006","version":"ver1.0","座標系":"任意座標系","測地系判別":null,"地図名":"帯広市区画整理図Ｄ（６００）","地図番号":"D7","縮尺分母":"600","市区町村コード":"01207","市区町村名":"帯広市","大字コード":"129","丁目コード":"002","小字コード":"0000","予備コード":"00","大字名":"白樺十六条西","丁目名":"２丁目","小字名":null,"予備名":null,"地番":"2-5","精度区分":null,"座標値種別":"図上測量","筆界未定構成筆":null,"代表点緯度":522.5385,"代表点経度":406.19397785}},{"type":"MultiPolygon","arcs":[[[19,-13,20,-17]]],"properties":{"筆ID":"H000000007","version":"ver1.0","座標系":"任意座標系","測地系判別":null,"地図名":"帯広市区画整理図Ｄ（６００）","地図番号":"D7","縮尺分母":"600","市区町村コード":"01207","市区町村名":"帯広市","大字コード":"129","丁目コード":"002","小字コード":"0000","予備コード":"00","大字名":"白樺十六条西","丁目名":"２丁目","小字名":null,"予備名":null,"地番":"2-6","精度区分":null,"座標値種別":"図上測量","筆界未定構成筆":null,"代表点緯度":518.2965,"代表点経度":369.909761173}},{"type":"MultiPolygon","arcs":[[[21,-5,22]]],"properties":{"筆ID":"H000000008","version":"ver1.0","座標系":"任意座標系","測地系判別":null,"地図名":"帯広市区画整理図Ｄ（６００）","地図番号":"D7","縮尺分母":"600","市区町村コード":"01207","市区町村名":"帯広市","大字コード":"129","丁目コード":"002","小字コード":"0000","予備コード":"00","大字名":"白樺十六条西","丁目名":"２丁目","小字名":null,"予備名":null,"地番":"7-1","精度区分":null,"座標値種別":"図上測量","筆界未定構成筆":null,"代表点緯度":468.575,"代表点経度":237.092144415}},{"type":"MultiPolygon","arcs":[[[-22,23,24,25,26,27,28,29,-8]]],"properties":{"筆ID":"H000000009","version":"ver1.0","座標系":"任意座標系","測地系判別":null,"地図名":"帯広市区画整理図Ｄ（６００）","地図番号":"D7","縮尺分母":"600","市区町村コード":"01207","市区町村名":"帯広市","大字コード":"129","丁目コード":"002","小字コード":"0000","予備コード":"00","大字名":"白樺十六条西","丁目名":"２丁目","小字名":null,"予備名":null,"地番":"7-2","精度区分":null,"座標値種別":"図上測量","筆界未定構成筆":null,"代表点緯度":404.2315,"代表点経度":231.030621947}},{"type":"MultiPolygon","arcs":[[[30,31,-27]]],"properties":{"筆ID":"H000000010","version":"ver1.0","座標系":"任意座標系","測地系判別":null,"地図名":"帯広市区画整理図Ｄ（６００）","地図番号":"D7","縮尺分母":"600","市区町村コード":"01207","市区町村名":"帯広市","大字コード":"129","丁目コード":"002","小字コード":"0000","予備コード":"00","大字名":"白樺十六条西","丁目名":"２丁目","小字名":null,"予備名":null,"地番":"7-3","精度区分":null,"座標値種別":"図上測量","筆界未定構成筆":null,"代表点緯度":364.5855,"代表点経度":248.973528482}},{"type":"MultiPolygon","arcs":[[[32,33,-23,-11]]],"properties":{"筆ID":"H000000011","version":"ver1.0","座標系":"任意座標系","測地系判別":null,"地図名":"帯広市区画整理図Ｄ（６００）","地図番号":"D7","縮尺分母":"600","市区町村コード":"01207","市区町村名":"帯広市","大字コード":"129","丁目コード":"002","小字コード":"0000","予備コード":"00","大字名":"白樺十六条西","丁目名":"２丁目","小字名":null,"予備名":null,"地番":"7-4","精度区分":null,"座標値種別":"図上測量","筆界未定構成筆":null,"代表点緯度":470.529,"代表点経度":268.860902132}},{"type":"MultiPolygon","arcs":[[[34,35,36,-24,-34,37]]],"properties":{"筆ID":"H000000012","version":"ver1.0","座標系":"任意座標系","測地系判別":null,"地図名":"帯広市区画整理図Ｄ（６００）","地図番号":"D7","縮尺分母":"600","市区町村コード":"01207","市区町村名":"帯広市","大字コード":"129","丁目コード":"002","小字コード":"0000","予備コード":"00","大字名":"白樺十六条西","丁目名":"２丁目","小字名":null,"予備名":null,"地番":"7-5","精度区分":null,"座標値種別":"図上測量","筆界未定構成筆":null,"代表点緯度":442.332,"代表点経度":290.542759931}},{"type":"MultiPolygon","arcs":[[[38,39,-25,-37]]],"properties":{"筆ID":"H000000013","version":"ver1.0","座標系":"任意座標系","測地系判別":null,"地図名":"帯広市区画整理図Ｄ（６００）","地図番号":"D7","縮尺分母":"600","市区町村コード":"01207","市区町村名":"帯広市","大字コード":"129","丁目コード":"002","小字コード":"0000","予備コード":"00","大字名":"白樺十六条西","丁目名":"２丁目","小字名":null,"予備名":null,"地番":"7-6","精度区分":null,"座標値種別":"図上測量","筆界未定構成筆":null,"代表点緯度":367.438,"代表点経度":273.671604184}},{"type":"MultiPolygon","arcs":[[[40,-39,-36,41]]],"properties":{"筆ID":"H000000014","version":"ver1.0","座標系":"任意座標系","測地系判別":null,"地図名":"帯広市区画整理図Ｄ（６００）","地図番号":"D7","縮尺分母":"600","市区町村コード":"01207","市区町村名":"帯広市","大字コード":"129","丁目コード":"002","小字コード":"0000","予備コード":"00","大字名":"白樺十六条西","丁目名":"２丁目","小字名":null,"予備名":null,"地番":"7-7","精度区分":null,"座標値種別":"図上測量","筆界未定構成筆":null,"代表点緯度":371.0435,"代表点経度":304.520459874}},{"type":"MultiPolygon","arcs":[[[42,43,44,45,-33,-14]]],"properties":{"筆ID":"H000000015","version":"ver1.0","座標系":"任意座標系","測地系判別":null,"地図名":"帯広市区画整理図Ｄ（６００）","地図番号":"D7","縮尺分母":"600","市区町村コード":"01207","市区町村名":"帯広市","大字コード":"129","丁目コード":"002","小字コード":"0000","予備コード":"00","大字名":"白樺十六条西","丁目名":"２丁目","小字名":null,"予備名":null,"地番":"7-8","精度区分":null,"座標値種別":"図上測量","筆界未定構成筆":null,"代表点緯度":480.023,"代表点経度":344.349675005}},{"type":"MultiPolygon","arcs":[[[46,47,-38,-46]]],"properties":{"筆ID":"H000000016","version":"ver1.0","座標系":"任意座標系","測地系判別":null,"地図名":"帯広市区画整理図Ｄ（６００）","地図番号":"D7","縮尺分母":"600","市区町村コード":"01207","市区町村名":"帯広市","大字コード":"129","丁目コード":"002","小字コード":"0000","予備コード":"00","大字名":"白樺十六条西","丁目名":"２丁目","小字名":null,"予備名":null,"地番":"7-9","精度区分":null,"座標値種別":"図上測量","筆界未定構成筆":null,"代表点緯度":447.5245,"代表点経度":335.821871215}},{"type":"MultiPolygon","arcs":[[[48,49,50,-42,51]]],"properties":{"筆ID":"H000000017","version":"ver1.0","座標系":"任意座標系","測地系判別":null,"地図名":"帯広市区画整理図Ｄ（６００）","地図番号":"D7","縮尺分母":"600","市区町村コード":"01207","市区町村名":"帯広市","大字コード":"129","丁目コード":"002","小字コード":"0000","予備コード":"00","大字名":"白樺十六条西","丁目名":"２丁目","小字名":null,"予備名":null,"地番":"7-10","精度区分":null,"座標値種別":"図上測量","筆界未定構成筆":null,"代表点緯度":377.4455,"代表点経度":359.344524029}},{"type":"MultiPolygon","arcs":[[[52,53,54,-16]]],"properties":{"筆ID":"H000000018","version":"ver1.0","座標系":"任意座標系","測地系判別":null,"地図名":"帯広市区画整理図Ｄ（６００）","地図番号":"D7","縮尺分母":"600","市区町村コード":"01207","市区町村名":"帯広市","大字コード":"129","丁目コード":"002","小字コード":"0000","予備コード":"00","大字名":"白樺十六条西","丁目名":"２丁目","小字名":null,"予備名":null,"地番":"7-11","精度区分":null,"座標値種別":"図上測量","筆界未定構成筆":null,"代表点緯度":487.7835,"代表点経度":410.352699882}},{"type":"MultiPolygon","arcs":[[[55,56,57,58,-54]]],"properties":{"筆ID":"H000000019","version":"ver1.0","座標系":"任意座標系","測地系判別":null,"地図名":"帯広市区画整理図Ｄ（６００）","地図番号":"D7","縮尺分母":"600","市区町村コード":"01207","市区町村名":"帯広市","大字コード":"129","丁目コード":"002","小字コード":"0000","予備コード":"00","大字名":"白樺十六条西","丁目名":"２丁目","小字名":null,"予備名":null,"地番":"7-12","精度区分":null,"座標値種別":"図上測量","筆界未定構成筆":null,"代表点緯度":456.6565,"代表点経度":413.8760355}},{"type":"MultiPolygon","arcs":[[[59,60,61,-50,62,63]]],"properties":{"筆ID":"H000000020","version":"ver1.0","座標系":"任意座標系","測地系判別":null,"地図名":"帯広市区画整理図Ｄ（６００）","地図番号":"D7","縮尺分母":"600","市区町村コード":"01207","市区町村名":"帯広市","大字コード":"129","丁目コード":"002","小字コード":"0000","予備コード":"00","大字名":"白樺十六条西","丁目名":"２丁目","小字名":null,"予備名":null,"地番":"7-13","精度区分":null,"座標値種別":"図上測量","筆界未定構成筆":null,"代表点緯度":384.2095,"代表点経度":408.109774201}},{"type":"MultiPolygon","arcs":[[[64,-43,-20,-55]]],"properties":{"筆ID":"H000000021","version":"ver1.0","座標系":"任意座標系","測地系判別":null,"地図名":"帯広市区画整理図Ｄ（６００）","地図番号":"D7","縮尺分母":"600","市区町村コード":"01207","市区町村名":"帯広市","大字コード":"129","丁目コード":"002","小字コード":"0000","予備コード":"00","大字名":"白樺十六条西","丁目名":"２丁目","小字名":null,"予備名":null,"地番":"7-14","精度区分":null,"座標値種別":"図上測量","筆界未定構成筆":null,"代表点緯度":483.486,"代表点経度":373.983601774}},{"type":"MultiPolygon","arcs":[[[-65,-59,65,66,-44]]],"properties":{"筆ID":"H000000022","version":"ver1.0","座標系":"任意座標系","測地系判別":null,"地図名":"帯広市区画整理図Ｄ（６００）","地図番号":"D7","縮尺分母":"600","市区町村コード":"01207","市区町村名":"帯広市","大字コード":"129","丁目コード":"002","小字コード":"0000","予備コード":"00","大字名":"白樺十六条西","丁目名":"２丁目","小字名":null,"予備名":null,"地番":"7-15","精度区分":null,"座標値種別":"図上測量","筆界未定構成筆":null,"代表点緯度":452.3325,"代表点経度":377.58117142}},{"type":"MultiPolygon","arcs":[[[67,68,-28,-32]]],"properties":{"筆ID":"H000000023","version":"ver1.0","座標系":"任意座標系","測地系判別":null,"地図名":"帯広市区画整理図Ｄ（６００）","地図番号":"D7","縮尺分母":"600","市区町村コード":"01207","市区町村名":"帯広市","大字コード":"129","丁目コード":"002","小字コード":"0000","予備コード":"00","大字名":"白樺十六条西","丁目名":"２丁目","小字名":null,"予備名":null,"地番":"7-16","精度区分":null,"座標値種別":"図上測量","筆界未定構成筆":null,"代表点緯度":362.718,"代表点経度":233.010813267}},{"type":"MultiPolygon","arcs":[[[69,-47,-45,-67]]],"properties":{"筆ID":"H000000024","version":"ver1.0","座標系":"任意座標系","測地系判別":null,"地図名":"帯広市区画整理図Ｄ（６００）","地図番号":"D7","縮尺分母":"600","市区町村コード":"01207","市区町村名":"帯広市","大字コード":"129","丁目コード":"002","小字コード":"0000","予備コード":"00","大字名":"白樺十六条西","丁目名":"２丁目","小字名":null,"予備名":null,"地番":"7-17","精度区分":null,"座標値種別":"図上測量","筆界未定構成筆":null,"代表点緯度":450.579,"代表点経度":362.444154291}},{"type":"MultiPolygon","arcs":[[[-70,70,-52,-35,-48]]],"properties":{"筆ID":"H000000025","version":"ver1.0","座標系":"任意座標系","測地系判別":null,"地図名":"帯広市区画整理図Ｄ（６００）","地図番号":"D7","縮尺分母":"600","市区町村コード":"01207","市区町村名":"帯広市","大字コード":"129","丁目コード":"002","小字コード":"0000","予備コード":"00","大字名":"白樺十六条西","丁目名":"２丁目","小字名":null,"予備名":null,"地番":"7-18","精度区分":null,"座標値種別":"図上測量","筆界未定構成筆":null,"代表点緯度":410.5025,"代表点経度":352.497845466}},{"type":"MultiPolygon","arcs":[[[71,-64,72,-57]]],"properties":{"筆ID":"H000000026","version":"ver1.0","座標系":"任意座標系","測地系判別":null,"地図名":"帯広市区画整理図Ｄ（６００）","地図番号":"D7","縮尺分母":"600","市区町村コード":"01207","市区町村名":"帯広市","大字コード":"129","丁目コード":"002","小字コード":"0000","予備コード":"00","大字名":"白樺十六条西","丁目名":"２丁目","小字名":null,"予備名":null,"地番":"7-19","精度区分":null,"座標値種別":"図上測量","筆界未定構成筆":null,"代表点緯度":420.093,"代表点経度":434.949513038}},{"type":"MultiPolygon","arcs":[[[-73,-63,73,-58]]],"properties":{"筆ID":"H000000027","version":"ver1.0","座標系":"任意座標系","測地系判別":null,"地図名":"帯広市区画整理図Ｄ（６００）","地図番号":"D7","縮尺分母":"600","市区町村コード":"01207","市区町村名":"帯広市","大字コード":"129","丁目コード":"002","小字コード":"0000","予備コード":"00","大字名":"白樺十六条西","丁目名":"２丁目","小字名":null,"予備名":null,"地番":"7-20","精度区分":null,"座標値種別":"図上測量","筆界未定構成筆":null,"代表点緯度":416.1605,"代表点経度":401.589636476}},{"type":"MultiPolygon","arcs":[[[-74,-49,-71,-66]]],"properties":{"筆ID":"H000000028","version":"ver1.0","座標系":"任意座標系","測地系判別":null,"地図名":"帯広市区画整理図Ｄ（６００）","地図番号":"D7","縮尺分母":"600","市区町村コード":"01207","市区町村名":"帯広市","大字コード":"129","丁目コード":"002","小字コード":"0000","予備コード":"00","大字名":"白樺十六条西","丁目名":"２丁目","小字名":null,"予備名":null,"地番":"7-21","精度区分":null,"座標値種別":"図上測量","筆界未定構成筆":null,"代表点緯度":413.8745,"代表点経度":382.056242077}},{"type":"MultiPolygon","arcs":[[[74,75,-61]]],"properties":{"筆ID":"H000000029","version":"ver1.0","座標系":"任意座標系","測地系判別":null,"地図名":"帯広市区画整理図Ｄ（６００）","地図番号":"D7","縮尺分母":"600","市区町村コード":"01207","市区町村名":"帯広市","大字コード":"129","丁目コード":"002","小字コード":"0000","予備コード":"00","大字名":"白樺十六条西","丁目名":"２丁目","小字名":null,"予備名":null,"地番":"20","精度区分":null,"座標値種別":"図上測量","筆界未定構成筆":null,"代表点緯度":375.217,"代表点経度":439.439349572}},{"type":"MultiPolygon","arcs":[[[-69,76,77]]],"properties":{"筆ID":"H000000030","version":"ver1.0","座標系":"任意座標系","測地系判別":null,"地図名":"帯広市区画整理図Ｄ（６００）","地図番号":"D7","縮尺分母":"600","市区町村コード":"01207","市区町村名":"帯広市","大字コード":"129","丁目コード":"002","小字コード":"0000","予備コード":"00","大字名":"白樺十六条西","丁目名":"２丁目","小字名":null,"予備名":null,"地番":"45-1","精度区分":null,"座標値種別":"図上測量","筆界未定構成筆":null,"代表点緯度":360.7065,"代表点経度":215.935947459}},{"type":"MultiPolygon","arcs":[[[-78,78,-29]]],"properties":{"筆ID":"H000000031","version":"ver1.0","座標系":"任意座標系","測地系判別":null,"地図名":"帯広市区画整理図Ｄ（６００）","地図番号":"D7","縮尺分母":"600","市区町村コード":"01207","市区町村名":"帯広市","大字コード":"129","丁目コード":"002","小字コード":"0000","予備コード":"00","大字名":"白樺十六条西","丁目名":"２丁目","小字名":null,"予備名":null,"地番":"45-2","精度区分":null,"座標値種別":"図上測量","筆界未定構成筆":null,"代表点緯度":387.7235,"代表点経度":212.754552908}},{"type":"MultiPolygon","arcs":[[[-18,-21,-15,-12,-3,-2,-7,-9,-30,-79,-77,-68,-31,-26,-40,-41,-51,-62,-76,79]]],"properties":{"筆ID":"H000000032","version":"ver1.0","座標系":"任意座標系","測地系判別":null,"地図名":"帯広市区画整理図Ｄ（６００）","地図番号":"D7","縮尺分母":"600","市区町村コード":"01207","市区町村名":"帯広市","大字コード":"129","丁目コード":"002","小字コード":"0000","予備コード":"00","大字名":"白樺十六条西","丁目名":"２丁目","小字名":null,"予備名":null,"地番":"83","精度区分":null,"座標値種別":"図上測量","筆界未定構成筆":null,"代表点緯度":438.1255,"代表点経度":189.779528976}}]}},"arcs":[[[204424,844060],[10622,-100544],[-166728,-22304]],[[48318,721212],[-8852,86045],[11358,16339],[153600,20464]],[[204424,844060],[59810,7966]],[[264234,852026],[25851,-252363]],[[290085,599663],[-132087,-17735],[2566,-25189]],[[160564,556739],[-94051,-12367]],[[66513,544372],[-18195,176840]],[[160564,556739],[17914,-175855],[-93816,-12855]],[[84662,368029],[-18149,176343]],[[480548,880843],[26623,-260296]],[[507171,620547],[-172251,-22984],[-1086,7970],[-43749,-5870]],[[264234,852026],[216314,28817]],[[667195,905708],[26767,-260236]],[[693962,645472],[-186791,-24925]],[[480548,880843],[186647,24865]],[[948173,679395],[-233872,-31206]],[[714301,648189],[-26588,260256]],[[687713,908445],[226548,30182]],[[914261,938627],[8239,-7782],[25673,-251450]],[[714301,648189],[-20339,-2717]],[[667195,905708],[20518,2737]],[[292703,574118],[-132139,-17379]],[[290085,599663],[2618,-25545]],[[292703,574118],[31582,-308297]],[[324285,265821],[19470,-190062]],[[343755,75759],[-27692,-3697]],[[316063,72062],[-19635,190454],[-78680,-10614]],[[217748,251902],[-33225,-4481]],[[184523,247421],[-2660,25745],[-86260,-11482]],[[95603,261684],[-10941,106345]],[[316063,72062],[-78354,-10462]],[[237709,61600],[-19961,190302]],[[507171,620547],[1844,-17987]],[[509015,602560],[-216312,-28442]],[[532602,371942],[7913,-77331]],[[540515,294611],[-177171,-23589]],[[363344,271022],[-39059,-5201]],[[509015,602560],[23587,-230618]],[[363344,271022],[19425,-190054]],[[382769,80968],[-39014,-5209]],[[559951,104617],[-177182,-23649]],[[540515,294611],[19436,-189994]],[[693962,645472],[1885,-18343]],[[695847,627129],[-203,-28]],[[695644,627101],[-85381,-11222]],[[610263,615879],[-101248,-13319]],[[610263,615879],[23203,-230830]],[[633466,385049],[-100864,-13107]],[[726931,319432],[20676,2752]],[[747607,322184],[19403,-189930]],[[767010,132254],[-207059,-27637]],[[540515,294611],[186416,24821]],[[948173,679395],[1822,-17839]],[[949995,661556],[-233823,-31671]],[[716172,629885],[-1871,18304]],[[949995,661556],[23560,-230762]],[[973555,430794],[-117614,-16003]],[[855941,414791],[-116177,-15812]],[[739764,398979],[-23592,230906]],[[981464,353322],[10902,-106773]],[[992366,246549],[-21292,-2812],[-733,6961],[-101434,-13447],[9192,-90166]],[[878099,147085],[-111089,-14831]],[[747607,322184],[116278,15483]],[[863885,337667],[117579,15655]],[[716172,629885],[-20325,-2756]],[[739764,398979],[-20564,-2800],[-73,-8]],[[719127,396171],[-23483,230930]],[[237709,61600],[-33509,-4469]],[[204200,57131],[-19677,190290]],[[719127,396171],[-85661,-11122]],[[719127,396171],[7804,-76739]],[[973555,430794],[7909,-77472]],[[863885,337667],[-7944,77124]],[[747607,322184],[-7843,76795]],[[992366,246549],[7633,-74767],[-6798,-9334]],[[993201,162448],[-115102,-15363]],[[204200,57131],[-79286,-10586],[-7952,7546],[-18696,181704]],[[98266,235795],[86257,11626]],[[98266,235795],[-2663,25889]],[[993201,162448],[3367,-32650],[-412476,-55387],[-7019,-9718],[-28098,-3849],[-8978,8006],[-410706,-54683],[-7244,-10134],[-31532,-4033],[-90515,878463],[907837,121536],[6424,-61372]]],"bbox":[172.787,324.098,458.144,574.048],"transform":{"scale":[0.00028535728535728535,0.00024995024995024993],"translate":[172.787,324.098]}}
