{"type":"Topology","objects":{"01207-4601-14.featurecollection":{"type":"GeometryCollection","geometries":[{"type":"Polygon","arcs":[[0,1]],"properties":{"市区町村名":"帯広市","大字名":"西五条南","丁目名":"３５丁目","小字名":null,"地番":"8-80","精度区分":null,"座標系":"任意座標系"}},{"type":"Polygon","arcs":[[2,3,4,5,6,7,8,9,10,11,12,13,-1,14]],"properties":{"市区町村名":"帯広市","大字名":"西五条南","丁目名":"３６丁目","小字名":null,"地番":"8-1","精度区分":null,"座標系":"任意座標系"}},{"type":"Polygon","arcs":[[-14,15,16,17,18,19,20,21]],"properties":{"市区町村名":"帯広市","大字名":"西五条南","丁目名":"３６丁目","小字名":null,"地番":"8-67","精度区分":null,"座標系":"任意座標系"}},{"type":"Polygon","arcs":[[22,23,24,25,26,27,28,29,30,31,32,33,34,35,36,37,38,39,40,41,-19]],"properties":{"市区町村名":"帯広市","大字名":"西五条南","丁目名":"３６丁目","小字名":null,"地番":"8-68","精度区分":null,"座標系":"任意座標系"}},{"type":"Polygon","arcs":[[42,43,-21,44]],"properties":{"市区町村名":"帯広市","大字名":"西五条南","丁目名":"３６丁目","小字名":null,"地番":"22-1","精度区分":null,"座標系":"任意座標系"}},{"type":"Polygon","arcs":[[-42,45,-45,-20]],"properties":{"市区町村名":"帯広市","大字名":"西五条南","丁目名":"３６丁目","小字名":null,"地番":"22-2","精度区分":null,"座標系":"任意座標系"}},{"type":"Polygon","arcs":[[-46,-41,46,47,-43]],"properties":{"市区町村名":"帯広市","大字名":"西五条南","丁目名":"３６丁目","小字名":null,"地番":"22-3","精度区分":null,"座標系":"任意座標系"}},{"type":"Polygon","arcs":[[48,49,-47,-40]],"properties":{"市区町村名":"帯広市","大字名":"西五条南","丁目名":"３６丁目","小字名":null,"地番":"22-4","精度区分":null,"座標系":"任意座標系"}},{"type":"Polygon","arcs":[[50,51,52,-38]],"properties":{"市区町村名":"帯広市","大字名":"西五条南","丁目名":"３６丁目","小字名":null,"地番":"22-5","精度区分":null,"座標系":"任意座標系"}},{"type":"Polygon","arcs":[[-37,53,54,-51]],"properties":{"市区町村名":"帯広市","大字名":"西五条南","丁目名":"３６丁目","小字名":null,"地番":"22-6","精度区分":null,"座標系":"任意座標系"}},{"type":"Polygon","arcs":[[-36,55,56,-54]],"properties":{"市区町村名":"帯広市","大字名":"西五条南","丁目名":"３６丁目","小字名":null,"地番":"22-7","精度区分":null,"座標系":"任意座標系"}},{"type":"Polygon","arcs":[[-35,57,58,-56]],"properties":{"市区町村名":"帯広市","大字名":"西五条南","丁目名":"３６丁目","小字名":null,"地番":"22-8","精度区分":null,"座標系":"任意座標系"}},{"type":"Polygon","arcs":[[59,60,61,-58,-34]],"properties":{"市区町村名":"帯広市","大字名":"西五条南","丁目名":"３６丁目","小字名":null,"地番":"22-9","精度区分":null,"座標系":"任意座標系"}},{"type":"Polygon","arcs":[[62,63,-61,64]],"properties":{"市区町村名":"帯広市","大字名":"西五条南","丁目名":"３６丁目","小字名":null,"地番":"22-10","精度区分":null,"座標系":"任意座標系"}},{"type":"Polygon","arcs":[[65,-65,-60,-33]],"properties":{"市区町村名":"帯広市","大字名":"西五条南","丁目名":"３６丁目","小字名":null,"地番":"22-11","精度区分":null,"座標系":"任意座標系"}},{"type":"Polygon","arcs":[[-53,66,-49,-39]],"properties":{"市区町村名":"帯広市","大字名":"西五条南","丁目名":"３６丁目","小字名":null,"地番":"22-12","精度区分":null,"座標系":"任意座標系"}},{"type":"Polygon","arcs":[[-18,67,68,-23]],"properties":{"市区町村名":"帯広市","大字名":"西五条南","丁目名":"３６丁目","小字名":null,"地番":"23-1","精度区分":null,"座標系":"任意座標系"}},{"type":"Polygon","arcs":[[69,70,-68,-17,71]],"properties":{"市区町村名":"帯広市","大字名":"西五条南","丁目名":"３６丁目","小字名":null,"地番":"23-2","精度区分":null,"座標系":"任意座標系"}},{"type":"Polygon","arcs":[[-13,72,-72,-16]],"properties":{"市区町村名":"帯広市","大字名":"西五条南","丁目名":"３６丁目","小字名":null,"地番":"23-3","精度区分":null,"座標系":"任意座標系"}},{"type":"Polygon","arcs":[[73,74,-24,-69,-71]],"properties":{"市区町村名":"帯広市","大字名":"西五条南","丁目名":"３６丁目","小字名":null,"地番":"23-4","精度区分":null,"座標系":"任意座標系"}},{"type":"Polygon","arcs":[[-73,-12,75,-74,-70]],"properties":{"市区町村名":"帯広市","大字名":"西五条南","丁目名":"３６丁目","小字名":null,"地番":"23-5","精度区分":null,"座標系":"任意座標系"}},{"type":"Polygon","arcs":[[76,-25,-75,77]],"properties":{"市区町村名":"帯広市","大字名":"西五条南","丁目名":"３６丁目","小字名":null,"地番":"23-6","精度区分":null,"座標系":"任意座標系"}},{"type":"Polygon","arcs":[[78,-78,-76,-11]],"properties":{"市区町村名":"帯広市","大字名":"西五条南","丁目名":"３６丁目","小字名":null,"地番":"23-7","精度区分":null,"座標系":"任意座標系"}},{"type":"Polygon","arcs":[[79,-26,-77,80]],"properties":{"市区町村名":"帯広市","大字名":"西五条南","丁目名":"３６丁目","小字名":null,"地番":"23-8","精度区分":null,"座標系":"任意座標系"}},{"type":"Polygon","arcs":[[81,-81,-79,-10]],"properties":{"市区町村名":"帯広市","大字名":"西五条南","丁目名":"３６丁目","小字名":null,"地番":"23-9","精度区分":null,"座標系":"任意座標系"}},{"type":"Polygon","arcs":[[82,-27,-80,83]],"properties":{"市区町村名":"帯広市","大字名":"西五条南","丁目名":"３６丁目","小字名":null,"地番":"23-10","精度区分":null,"座標系":"任意座標系"}},{"type":"Polygon","arcs":[[84,-84,-82,-9]],"properties":{"市区町村名":"帯広市","大字名":"西五条南","丁目名":"３６丁目","小字名":null,"地番":"23-11","精度区分":null,"座標系":"任意座標系"}},{"type":"Polygon","arcs":[[85,86,-28,-83]],"properties":{"市区町村名":"帯広市","大字名":"西五条南","丁目名":"３６丁目","小字名":null,"地番":"23-12","精度区分":null,"座標系":"任意座標系"}},{"type":"Polygon","arcs":[[87,-86,-85,-8]],"properties":{"市区町村名":"帯広市","大字名":"西五条南","丁目名":"３６丁目","小字名":null,"地番":"23-13","精度区分":null,"座標系":"任意座標系"}},{"type":"Polygon","arcs":[[88,89,-29,-87]],"properties":{"市区町村名":"帯広市","大字名":"西五条南","丁目名":"３６丁目","小字名":null,"地番":"23-14","精度区分":null,"座標系":"任意座標系"}},{"type":"Polygon","arcs":[[90,-89,-88,-7]],"properties":{"市区町村名":"帯広市","大字名":"西五条南","丁目名":"３６丁目","小字名":null,"地番":"23-15","精度区分":null,"座標系":"任意座標系"}},{"type":"Polygon","arcs":[[91,92,-30,-90,93]],"properties":{"市区町村名":"帯広市","大字名":"西五条南","丁目名":"３６丁目","小字名":null,"地番":"23-16","精度区分":null,"座標系":"任意座標系"}},{"type":"Polygon","arcs":[[94,95,-94,-91,-6]],"properties":{"市区町村名":"帯広市","大字名":"西五条南","丁目名":"３６丁目","小字名":null,"地番":"23-17","精度区分":null,"座標系":"任意座標系"}},{"type":"Polygon","arcs":[[96,97,-31,-93]],"properties":{"市区町村名":"帯広市","大字名":"西五条南","丁目名":"３６丁目","小字名":null,"地番":"23-18","精度区分":null,"座標系":"任意座標系"}},{"type":"Polygon","arcs":[[-96,98,99,-97,-92]],"properties":{"市区町村名":"帯広市","大字名":"西五条南","丁目名":"３６丁目","小字名":null,"地番":"23-19","精度区分":null,"座標系":"任意座標系"}},{"type":"Polygon","arcs":[[100,-99,-95,-5]],"properties":{"市区町村名":"帯広市","大字名":"西五条南","丁目名":"３６丁目","小字名":null,"地番":"23-20","精度区分":null,"座標系":"任意座標系"}},{"type":"Polygon","arcs":[[-66,-32,-98,-100,-101,-4,101,102,-63]],"properties":{"市区町村名":"帯広市","大字名":"西五条南","丁目名":"３６丁目","小字名":null,"地番":"24-1","精度区分":null,"座標系":"任意座標系"}},{"type":"Polygon","arcs":[[103,104,105,106,107,108,109,-102,110]],"properties":{"市区町村名":"帯広市","大字名":"西五条南","丁目名":"３７丁目","小字名":null,"地番":"7-2","精度区分":null,"座標系":"任意座標系"}},{"type":"Polygon","arcs":[[111,-109,112]],"properties":{"市区町村名":"帯広市","大字名":"西五条南","丁目名":"３７丁目","小字名":null,"地番":"7-3","精度区分":null,"座標系":"任意座標系"}},{"type":"Polygon","arcs":[[-108,113,114,115,116,117,118,119,-113]],"properties":{"市区町村名":"帯広市","大字名":"西五条南","丁目名":"３７丁目","小字名":null,"地番":"7-15","精度区分":null,"座標系":"任意座標系"}},{"type":"Polygon","arcs":[[120,121,122,123,124,125,126,127,128,129,130,131,132,133,134,-111,-3]],"properties":{"市区町村名":"帯広市","大字名":"西五条南","丁目名":"３７丁目","小字名":null,"地番":"7-20","精度区分":null,"座標系":"任意座標系"}},{"type":"Polygon","arcs":[[135,136,-119,137]],"properties":{"市区町村名":"帯広市","大字名":"西五条南","丁目名":"３７丁目","小字名":null,"地番":"22-1","精度区分":null,"座標系":"任意座標系"}},{"type":"Polygon","arcs":[[138,139,-138,-118]],"properties":{"市区町村名":"帯広市","大字名":"西五条南","丁目名":"３７丁目","小字名":null,"地番":"22-2","精度区分":null,"座標系":"任意座標系"}},{"type":"Polygon","arcs":[[140,141,142,143]],"properties":{"市区町村名":"帯広市","大字名":"西五条南","丁目名":"３７丁目","小字名":null,"地番":"22-6","精度区分":null,"座標系":"任意座標系"}},{"type":"Polygon","arcs":[[144,145,146,147,-142]],"properties":{"市区町村名":"帯広市","大字名":"西五条南","丁目名":"３７丁目","小字名":null,"地番":"22-7","精度区分":null,"座標系":"任意座標系"}},{"type":"Polygon","arcs":[[148,149,150,-147]],"properties":{"市区町村名":"帯広市","大字名":"西五条南","丁目名":"３７丁目","小字名":null,"地番":"22-8","精度区分":null,"座標系":"任意座標系"}},{"type":"Polygon","arcs":[[151,152,-149,-146]],"properties":{"市区町村名":"帯広市","大字名":"西五条南","丁目名":"３７丁目","小字名":null,"地番":"22-9","精度区分":null,"座標系":"任意座標系"}},{"type":"Polygon","arcs":[[153,154,-114,-107]],"properties":{"市区町村名":"帯広市","大字名":"西五条南","丁目名":"３７丁目","小字名":null,"地番":"23-1","精度区分":null,"座標系":"任意座標系"}},{"type":"Polygon","arcs":[[155,-154,-106,156]],"properties":{"市区町村名":"帯広市","大字名":"西五条南","丁目名":"３７丁目","小字名":null,"地番":"23-2","精度区分":null,"座標系":"任意座標系"}},{"type":"Polygon","arcs":[[-135,157,158,-104]],"properties":{"市区町村名":"帯広市","大字名":"西五条南","丁目名":"３７丁目","小字名":null,"地番":"23-3","精度区分":null,"座標系":"任意座標系"}},{"type":"Polygon","arcs":[[-156,159,160,-115,-155]],"properties":{"市区町村名":"帯広市","大字名":"西五条南","丁目名":"３７丁目","小字名":null,"地番":"23-5","精度区分":null,"座標系":"任意座標系"}},{"type":"Polygon","arcs":[[-158,-134,161,-160,162]],"properties":{"市区町村名":"帯広市","大字名":"西五条南","丁目名":"３７丁目","小字名":null,"地番":"23-6","精度区分":null,"座標系":"任意座標系"}},{"type":"Polygon","arcs":[[163,164,165,166,167,-116,-161]],"properties":{"市区町村名":"帯広市","大字名":"西五条南","丁目名":"３７丁目","小字名":null,"地番":"23-7","精度区分":null,"座標系":"任意座標系"}},{"type":"Polygon","arcs":[[-133,168,-164,-162]],"properties":{"市区町村名":"帯広市","大字名":"西五条南","丁目名":"３７丁目","小字名":null,"地番":"23-8","精度区分":null,"座標系":"任意座標系"}},{"type":"Polygon","arcs":[[-131,169,170,-166,171]],"properties":{"市区町村名":"帯広市","大字名":"西五条南","丁目名":"３７丁目","小字名":null,"地番":"23-10","精度区分":null,"座標系":"任意座標系"}},{"type":"Polygon","arcs":[[-130,172,173,-170]],"properties":{"市区町村名":"帯広市","大字名":"西五条南","丁目名":"３７丁目","小字名":null,"地番":"23-12","精度区分":null,"座標系":"任意座標系"}},{"type":"Polygon","arcs":[[-128,174,175,176]],"properties":{"市区町村名":"帯広市","大字名":"西五条南","丁目名":"３７丁目","小字名":null,"地番":"23-14","精度区分":null,"座標系":"任意座標系"}},{"type":"Polygon","arcs":[[177,178,179,-175,-127]],"properties":{"市区町村名":"帯広市","大字名":"西五条南","丁目名":"３７丁目","小字名":null,"地番":"23-16","精度区分":null,"座標系":"任意座標系"}},{"type":"Polygon","arcs":[[180,181,-178,-126]],"properties":{"市区町村名":"帯広市","大字名":"西五条南","丁目名":"３７丁目","小字名":null,"地番":"23-18","精度区分":null,"座標系":"任意座標系"}},{"type":"Polygon","arcs":[[-125,182,183,184,-181]],"properties":{"市区町村名":"帯広市","大字名":"西五条南","丁目名":"３７丁目","小字名":null,"地番":"23-20","精度区分":null,"座標系":"任意座標系"}},{"type":"Polygon","arcs":[[185,186,187,-183,-124]],"properties":{"市区町村名":"帯広市","大字名":"西五条南","丁目名":"３７丁目","小字名":null,"地番":"23-22","精度区分":null,"座標系":"任意座標系"}},{"type":"Polygon","arcs":[[188,189,190,191]],"properties":{"市区町村名":"帯広市","大字名":"西五条南","丁目名":"３７丁目","小字名":null,"地番":"23-23","精度区分":null,"座標系":"任意座標系"}},{"type":"Polygon","arcs":[[192,193,-192,194]],"properties":{"市区町村名":"帯広市","大字名":"西五条南","丁目名":"３７丁目","小字名":null,"地番":"23-24","精度区分":null,"座標系":"任意座標系"}},{"type":"Polygon","arcs":[[195,196,-193,-187]],"properties":{"市区町村名":"帯広市","大字名":"西五条南","丁目名":"３７丁目","小字名":null,"地番":"23-25","精度区分":null,"座標系":"任意座標系"}},{"type":"Polygon","arcs":[[197,-196,-186,-123]],"properties":{"市区町村名":"帯広市","大字名":"西五条南","丁目名":"３７丁目","小字名":null,"地番":"23-26","精度区分":null,"座標系":"任意座標系"}},{"type":"Polygon","arcs":[[-174,198,199,200,-167,-171]],"properties":{"市区町村名":"帯広市","大字名":"西五条南","丁目名":"３７丁目","小字名":null,"地番":"23-27","精度区分":null,"座標系":"任意座標系"}},{"type":"Polygon","arcs":[[-176,-180,201,202,-200,203]],"properties":{"市区町村名":"帯広市","大字名":"西五条南","丁目名":"３７丁目","小字名":null,"地番":"23-28","精度区分":null,"座標系":"任意座標系"}},{"type":"Polygon","arcs":[[-182,-185,204,205,-202,-179]],"properties":{"市区町村名":"帯広市","大字名":"西五条南","丁目名":"３７丁目","小字名":null,"地番":"23-29","精度区分":null,"座標系":"任意座標系"}},{"type":"Polygon","arcs":[[-184,-188,-195,-191,206,-205]],"properties":{"市区町村名":"帯広市","大字名":"西五条南","丁目名":"３７丁目","小字名":null,"地番":"23-30","精度区分":null,"座標系":"任意座標系"}},{"type":"Polygon","arcs":[[-163,-157,-105,-159]],"properties":{"市区町村名":"帯広市","大字名":"西五条南","丁目名":"３７丁目","小字名":null,"地番":"23-31","精度区分":null,"座標系":"任意座標系"}},{"type":"Polygon","arcs":[[-132,-172,-165,-169]],"properties":{"市区町村名":"帯広市","大字名":"西五条南","丁目名":"３７丁目","小字名":null,"地番":"23-32","精度区分":null,"座標系":"任意座標系"}},{"type":"Polygon","arcs":[[-177,-204,-199,-173,-129]],"properties":{"市区町村名":"帯広市","大字名":"西五条南","丁目名":"３７丁目","小字名":null,"地番":"23-33","精度区分":null,"座標系":"任意座標系"}},{"type":"Polygon","arcs":[[-168,-201,-203,-206,-207,-190,207,-152,-145,-141,208,209,210,-139,-117]],"properties":{"市区町村名":"帯広市","大字名":"西五条南","丁目名":"３７丁目","小字名":null,"地番":"26-1","精度区分":null,"座標系":"任意座標系"}},{"type":"Polygon","arcs":[[211,212,213,214,215,216,217,218,219,220,221,-122,222]],"properties":{"市区町村名":"帯広市","大字名":"西五条南","丁目名":"３８丁目","小字名":null,"地番":"7-1","精度区分":null,"座標系":"任意座標系"}},{"type":"Polygon","arcs":[[223,224,225,226]],"properties":{"市区町村名":"帯広市","大字名":"西五条南","丁目名":"３８丁目","小字名":null,"地番":"24-1","精度区分":null,"座標系":"任意座標系"}},{"type":"Polygon","arcs":[[227,228,-227,229]],"properties":{"市区町村名":"帯広市","大字名":"西五条南","丁目名":"３８丁目","小字名":null,"地番":"24-2","精度区分":null,"座標系":"任意座標系"}},{"type":"Polygon","arcs":[[230,231,232,233]],"properties":{"市区町村名":"帯広市","大字名":"西五条南","丁目名":"３８丁目","小字名":null,"地番":"24-11","精度区分":null,"座標系":"任意座標系"}},{"type":"Polygon","arcs":[[234,235,236,237]],"properties":{"市区町村名":"帯広市","大字名":"西五条南","丁目名":"３８丁目","小字名":null,"地番":"25-1","精度区分":null,"座標系":"任意座標系"}},{"type":"Polygon","arcs":[[-221,238,-236,239]],"properties":{"市区町村名":"帯広市","大字名":"西五条南","丁目名":"３８丁目","小字名":null,"地番":"25-2","精度区分":null,"座標系":"任意座標系"}},{"type":"Polygon","arcs":[[240,241,242,-237]],"properties":{"市区町村名":"帯広市","大字名":"西五条南","丁目名":"３８丁目","小字名":null,"地番":"25-3","精度区分":null,"座標系":"任意座標系"}},{"type":"Polygon","arcs":[[243,-241,-239,-220]],"properties":{"市区町村名":"帯広市","大字名":"西五条南","丁目名":"３８丁目","小字名":null,"地番":"25-4","精度区分":null,"座標系":"任意座標系"}},{"type":"Polygon","arcs":[[244,245,246,-242,247]],"properties":{"市区町村名":"帯広市","大字名":"西五条南","丁目名":"３８丁目","小字名":null,"地番":"25-5","精度区分":null,"座標系":"任意座標系"}},{"type":"Polygon","arcs":[[-218,248,-245,249]],"properties":{"市区町村名":"帯広市","大字名":"西五条南","丁目名":"３８丁目","小字名":null,"地番":"25-6","精度区分":null,"座標系":"任意座標系"}},{"type":"Polygon","arcs":[[250,251,252,-246]],"properties":{"市区町村名":"帯広市","大字名":"西五条南","丁目名":"３８丁目","小字名":null,"地番":"25-7","精度区分":null,"座標系":"任意座標系"}},{"type":"Polygon","arcs":[[253,-251,-249,-217]],"properties":{"市区町村名":"帯広市","大字名":"西五条南","丁目名":"３８丁目","小字名":null,"地番":"25-8","精度区分":null,"座標系":"任意座標系"}},{"type":"Polygon","arcs":[[254,255,256,-252]],"properties":{"市区町村名":"帯広市","大字名":"西五条南","丁目名":"３８丁目","小字名":null,"地番":"25-9","精度区分":null,"座標系":"任意座標系"}},{"type":"Polygon","arcs":[[257,-255,-254,-216]],"properties":{"市区町村名":"帯広市","大字名":"西五条南","丁目名":"３８丁目","小字名":null,"地番":"25-10","精度区分":null,"座標系":"任意座標系"}},{"type":"Polygon","arcs":[[258,259,260,-256]],"properties":{"市区町村名":"帯広市","大字名":"西五条南","丁目名":"３８丁目","小字名":null,"地番":"25-11","精度区分":null,"座標系":"任意座標系"}},{"type":"Polygon","arcs":[[-215,261,-259,-258]],"properties":{"市区町村名":"帯広市","大字名":"西五条南","丁目名":"３８丁目","小字名":null,"地番":"25-12","精度区分":null,"座標系":"任意座標系"}},{"type":"Polygon","arcs":[[262,263,-260,264]],"properties":{"市区町村名":"帯広市","大字名":"西五条南","丁目名":"３８丁目","小字名":null,"地番":"25-13","精度区分":null,"座標系":"任意座標系"}},{"type":"Polygon","arcs":[[-214,265,266,-265,-262]],"properties":{"市区町村名":"帯広市","大字名":"西五条南","丁目名":"３８丁目","小字名":null,"地番":"25-14","精度区分":null,"座標系":"任意座標系"}},{"type":"Polygon","arcs":[[267,268,-263,269]],"properties":{"市区町村名":"帯広市","大字名":"西五条南","丁目名":"３８丁目","小字名":null,"地番":"25-15","精度区分":null,"座標系":"任意座標系"}},{"type":"Polygon","arcs":[[270,-270,-267]],"properties":{"市区町村名":"帯広市","大字名":"西五条南","丁目名":"３８丁目","小字名":null,"地番":"25-16","精度区分":null,"座標系":"任意座標系"}},{"type":"Polygon","arcs":[[-219,-250,-248,-244]],"properties":{"市区町村名":"帯広市","大字名":"西五条南","丁目名":"３８丁目","小字名":null,"地番":"25-17","精度区分":null,"座標系":"任意座標系"}},{"type":"Polygon","arcs":[[271,-266,-213]],"properties":{"市区町村名":"帯広市","大字名":"西五条南","丁目名":"３８丁目","小字名":null,"地番":"25-18","精度区分":null,"座標系":"任意座標系"}},{"type":"Polygon","arcs":[[272,273,274,-268]],"properties":{"市区町村名":"帯広市","大字名":"西五条南","丁目名":"３８丁目","小字名":null,"地番":"25-19","精度区分":null,"座標系":"任意座標系"}},{"type":"Polygon","arcs":[[-272,-212,275,-273,-271]],"properties":{"市区町村名":"帯広市","大字名":"西五条南","丁目名":"３８丁目","小字名":null,"地番":"25-20","精度区分":null,"座標系":"任意座標系"}},{"type":"Polygon","arcs":[[-153,-208,-189,-194,-197,-198,-222,-240,-235,276,-230,-226,277,-150]],"properties":{"市区町村名":"帯広市","大字名":"西五条南","丁目名":"３８丁目","小字名":null,"地番":"26-2","精度区分":null,"座標系":"任意座標系"}},{"type":"Polygon","arcs":[[-234,278,279,280,281]],"properties":{"市区町村名":"帯広市","大字名":"西五条南","丁目名":"３８丁目","小字名":null,"地番":"24-14","精度区分":null,"座標系":"任意座標系"}},{"type":"Polygon","arcs":[[-281,282,283,284]],"properties":{"市区町村名":"帯広市","大字名":"西五条南","丁目名":"３８丁目","小字名":null,"地番":"24-13","精度区分":null,"座標系":"任意座標系"}},{"type":"Polygon","arcs":[[-284,285,286,287]],"properties":{"市区町村名":"帯広市","大字名":"西五条南","丁目名":"３８丁目","小字名":null,"地番":"24-12","精度区分":null,"座標系":"任意座標系"}},{"type":"Polygon","arcs":[[-287,288,289,290]],"properties":{"市区町村名":"帯広市","大字名":"西五条南","丁目名":"３８丁目","小字名":null,"地番":"24-4","精度区分":null,"座標系":"任意座標系"}},{"type":"Polygon","arcs":[[-289,291,292,293]],"properties":{"市区町村名":"帯広市","大字名":"西五条南","丁目名":"３８丁目","小字名":null,"地番":"24-15","精度区分":null,"座標系":"任意座標系"}},{"type":"Polygon","arcs":[[-286,294,295,-292]],"properties":{"市区町村名":"帯広市","大字名":"西五条南","丁目名":"３８丁目","小字名":null,"地番":"24-16","精度区分":null,"座標系":"任意座標系"}},{"type":"Polygon","arcs":[[-283,296,297,-295]],"properties":{"市区町村名":"帯広市","大字名":"西五条南","丁目名":"３８丁目","小字名":null,"地番":"24-17","精度区分":null,"座標系":"任意座標系"}},{"type":"Polygon","arcs":[[-280,298,299,-297]],"properties":{"市区町村名":"帯広市","大字名":"西五条南","丁目名":"３８丁目","小字名":null,"地番":"24-18","精度区分":null,"座標系":"任意座標系"}},{"type":"Polygon","arcs":[[-243,-247,-253,-257,-261,-264,-269,-275,300,-231,-282,-285,-288,-291,301,-228,-277,-238]],"properties":{"市区町村名":"帯広市","大字名":"西五条南","丁目名":"３８丁目","小字名":null,"地番":"26-3","精度区分":null,"座標系":"任意座標系"}},{"type":"Polygon","arcs":[[-302,-290,-294,302,-224,-229]],"properties":{"市区町村名":"帯広市","大字名":"西五条南","丁目名":"３８丁目","小字名":null,"地番":"24-3","精度区分":null,"座標系":"任意座標系"}},{"type":"Polygon","arcs":[[-279,-233,303,-299]],"properties":{"市区町村名":"帯広市","大字名":"西五条南","丁目名":"３８丁目","小字名":null,"地番":"24-10","精度区分":null,"座標系":"任意座標系"}},{"type":"Polygon","arcs":[[-210,304,305,306]],"properties":{"市区町村名":"帯広市","大字名":"西五条南","丁目名":"３７丁目","小字名":null,"地番":"22-10","精度区分":null,"座標系":"任意座標系"}},{"type":"Polygon","arcs":[[-306,307,308,309]],"properties":{"市区町村名":"帯広市","大字名":"西五条南","丁目名":"３７丁目","小字名":null,"地番":"22-4","精度区分":null,"座標系":"任意座標系"}},{"type":"Polygon","arcs":[[-209,-144,310,-308,-305]],"properties":{"市区町村名":"帯広市","大字名":"西五条南","丁目名":"３７丁目","小字名":null,"地番":"22-5","精度区分":null,"座標系":"任意座標系"}},{"type":"Polygon","arcs":[[-211,-307,-310,311,-136,-140]],"properties":{"市区町村名":"帯広市","大字名":"西五条南","丁目名":"３７丁目","小字名":null,"地番":"22-3","精度区分":null,"座標系":"任意座標系"}}]}},"arcs":[[[790834,776741],[-71301,-339]],[[719533,776402],[-93452,222451],[70554,1146],[94199,-223258]],[[829805,512498],[-7058,-136]],[[822747,512362],[-6436,17434]],[[816311,529796],[-9547,24556]],[[806764,554352],[-9405,24189]],[[797359,578541],[-9298,23912]],[[788061,602453],[-9521,24500]],[[778540,626953],[-9307,23924]],[[769233,650877],[-9600,24687]],[[759633,675564],[-9298,23930]],[[750335,699494],[-9494,24430]],[[740841,723924],[-9840,25296]],[[731001,749220],[-11468,27182]],[[790834,776741],[102991,-263018],[-64020,-1225]],[[731001,749220],[-33673,5967],[-117258,-2410]],[[580070,752777],[-142913,-2935]],[[437157,749842],[-112227,-1991]],[[324930,747851],[-130664,-2319]],[[194266,745532],[-75532,-1344]],[[118734,744188],[-112663,-2003]],[[6071,742185],[-6071,14853],[692581,12622],[26952,6742]],[[324930,747851],[-28757,-7081],[10089,-24412]],[[306262,716358],[10098,-24426]],[[316360,691932],[9965,-24087]],[[326325,667845],[10107,-24459]],[[336432,643386],[9894,-23931]],[[346326,619455],[10054,-24298]],[[356380,595157],[10009,-24211]],[[366389,570946],[9930,-24038]],[[376319,546908],[10267,-24818],[32517,-5710]],[[419103,516380],[-133126,-2280]],[[285977,514100],[29406,6676],[-9992,24831]],[[305391,545607],[-9689,24117]],[[295702,569724],[-9734,24215]],[[285968,593939],[-9769,24273]],[[276199,618212],[-9681,24083]],[[266518,642295],[-5031,12156]],[[261487,654451],[-5058,12200]],[[256429,666651],[-9992,24101]],[[246437,690752],[-10027,24170]],[[236410,714922],[-10436,25168],[-31708,5442]],[[131108,713201],[-112449,-1838]],[[18659,711363],[-12588,30822]],[[118734,744188],[12374,-30987]],[[236410,714922],[-105302,-1721]],[[246437,690752],[-217796,-3809]],[[28641,686943],[-9982,24420]],[[256429,666651],[-218001,-3640]],[[38428,663011],[-9787,23932]],[[266518,642295],[-218125,-3668]],[[48393,638627],[-4942,12080]],[[43451,650707],[218036,3744]],[[276199,618212],[-217956,-3702]],[[58243,614510],[-9850,24117]],[[285968,593939],[-217796,-3725]],[[68172,590214],[-9929,24296]],[[295702,569724],[-217645,-3703]],[[78057,566021],[-9885,24193]],[[305391,545607],[-106271,-1775]],[[199120,543832],[-111232,-1858]],[[87888,541974],[-9831,24047]],[[212134,512836],[-111570,-1908]],[[100564,510928],[-12676,31046]],[[199120,543832],[13014,-30996]],[[285977,514100],[-73843,-1264]],[[43451,650707],[-5023,12304]],[[437157,749842],[11920,-30998]],[[449077,718844],[-142815,-2486]],[[592515,721341],[-69283,-1205]],[[523232,720136],[-74155,-1292]],[[580070,752777],[12445,-31436]],[[740841,723924],[-148326,-2583]],[[523232,720136],[9973,-24424]],[[533205,695712],[-216845,-3780]],[[750335,699494],[-217130,-3782]],[[542992,671706],[-216667,-3861]],[[533205,695712],[9787,-24006]],[[759633,675564],[-216641,-3858]],[[553020,647135],[-216588,-3749]],[[542992,671706],[10028,-24571]],[[769233,650877],[-216213,-3742]],[[562789,623211],[-216463,-3756]],[[553020,647135],[9769,-23924]],[[778540,626953],[-215751,-3742]],[[562789,623211],[9956,-24399]],[[572745,598812],[-216365,-3655]],[[788061,602453],[-215316,-3641]],[[572745,598812],[9814,-24056]],[[582559,574756],[-216170,-3810]],[[797359,578541],[-214800,-3785]],[[592399,550645],[-73630,-1273]],[[518769,549372],[-142450,-2464]],[[582559,574756],[9840,-24111]],[[806764,554352],[-144246,-2493]],[[662518,551859],[-70119,-1214]],[[518769,549372],[11112,-31095]],[[529881,518277],[-110778,-1897]],[[662518,551859],[12978,-31091]],[[675496,520768],[-145615,-2491]],[[816311,529796],[-28001,-7095],[-112814,-1933]],[[822747,512362],[-717871,-12474]],[[104876,499888],[-4312,11040]],[[829183,494953],[-30908,5496],[-114805,-1937]],[[683470,498512],[-69639,-1174]],[[613831,497338],[-112574,-1897]],[[501257,495441],[-72145,-1218]],[[429112,494223],[-132681,-2237]],[[296431,491986],[-187235,-3158]],[[109196,488828],[-4320,11060]],[[822747,512362],[6436,-17409]],[[140459,408749],[-31263,80079]],[[296431,491986],[33939,-5754],[25397,-67369],[-27299,-7079],[-188009,-3035]],[[429112,494223],[-29059,-6740],[9600,-24861]],[[409653,462622],[11805,-30559]],[[421458,432063],[12943,-33491]],[[434401,398572],[-102822,-1616]],[[331579,396956],[-73861,-1083]],[[257718,395873],[-111587,-1640]],[[146131,394233],[-5672,14516]],[[829805,512498],[33957,-96966],[8489,-24228],[58269,-166341]],[[930520,224963],[-12196,-139]],[[918324,224824],[-6996,22896]],[[911328,247720],[-7395,24218]],[[903933,271938],[-7236,23707]],[[896697,295645],[-7307,23943]],[[889390,319588],[-7423,24320]],[[881967,343908],[-3636,11900]],[[878331,355808],[-3626,11877]],[[874705,367685],[-7192,23547]],[[867513,391232],[-4524,12246]],[[862989,403478],[-4436,11985]],[[858553,415463],[-9,30],[-8676,23493]],[[849868,438986],[-11440,30943]],[[838428,469929],[-9245,25024]],[[266367,364131],[-111960,-1586]],[[154407,362545],[-8276,31688]],[[257718,395873],[8649,-31742]],[[331579,396956],[34766,-5980],[8107,-25311]],[[374452,365665],[-108085,-1534]],[[397831,292628],[7822,-24419]],[[405653,268209],[-220312,-3150]],[[185341,265059],[-8187,24350]],[[177154,289409],[220677,3219]],[[405653,268209],[7805,-24400]],[[413458,243809],[-106814,-1519]],[[306644,242290],[-113116,-1609]],[[193528,240681],[-8187,24378]],[[306644,242290],[10383,-32535]],[[317027,209755],[-112591,-1565]],[[204436,208190],[-10908,32491]],[[413458,243809],[8276,-25836],[-28481,-7159]],[[393253,210814],[-76226,-1059]],[[501257,495441],[13299,-31031]],[[514556,464410],[-104903,-1788]],[[625574,466301],[-111018,-1891]],[[613831,497338],[11743,-31037]],[[838428,469929],[-142976,-2436]],[[695452,467493],[-11982,31019]],[[625574,466301],[11654,-30750]],[[637228,435551],[-215770,-3488]],[[849868,438986],[-212640,-3435]],[[625574,466301],[69878,1192]],[[637228,435551],[8969,-23697]],[[646197,411854],[4222,-11952]],[[650419,399902],[854,-2406]],[[651273,397496],[-215156,-3359]],[[436117,394137],[-1716,4435]],[[858553,415463],[-212356,-3609]],[[867513,391232],[-212871,-3289]],[[654642,387943],[-3369,9553]],[[650419,399902],[212570,3576]],[[874705,367685],[-212472,-3243]],[[662233,364442],[-7591,23501]],[[881967,343908],[-212089,-3122]],[[669878,340786],[-3885,12013]],[[665993,352799],[212338,3009]],[[889390,319588],[-211681,-3028]],[[677709,316560],[-1457,4525]],[[676252,321085],[-6374,19701]],[[896697,295645],[-211218,-3115]],[[685479,292530],[-7770,24030]],[[903933,271938],[-210818,-3061]],[[693115,268877],[-4525,13981]],[[688590,282858],[-3111,9672]],[[911328,247720],[-96777,-1298]],[[814551,246422],[-113694,-1523]],[[700857,244899],[-7742,23978]],[[599697,213681],[-75603,-1050]],[[524094,212631],[-31130,5841],[-7627,23544]],[[485337,242016],[106049,1419]],[[591386,243435],[8311,-29754]],[[700857,244899],[9592,-29678]],[[710449,215221],[-110752,-1540]],[[591386,243435],[109471,1464]],[[814551,246422],[8311,-29639]],[[822862,216783],[-112413,-1562]],[[918324,224824],[-30117,-7134],[-65345,-907]],[[662233,364442],[1760,-5428]],[[663993,359014],[-215600,-2843]],[[448393,356171],[-12276,37966]],[[676252,321085],[-215574,-2871]],[[460678,318214],[-12285,37957]],[[663993,359014],[2000,-6215]],[[688590,282858],[-215574,-2736]],[[473016,280122],[-12338,38092]],[[485337,242016],[-12321,38106]],[[524094,212631],[-130841,-1817]],[[397831,292628],[-7894,24672]],[[389937,317300],[-7725,24108]],[[382212,341408],[-7760,24257]],[[954406,9278],[27459,6599],[-4889,16093]],[[976976,31970],[-1156,3783]],[[975820,35753],[-6116,20112]],[[969704,55865],[-7476,24564]],[[962228,80429],[-7307,24029]],[[954921,104458],[-7315,24070]],[[947606,128528],[-3707,12202]],[[943899,140730],[-3618,11886]],[[940281,152616],[-7449,24478]],[[932832,177094],[-5023,16503]],[[927809,193597],[-9485,31227]],[[930520,224963],[69479,-215102],[-45593,-583]],[[334477,156408],[-112574,-1499]],[[221903,154909],[-11521,35151]],[[210382,190060],[113019,1556]],[[323401,191616],[11076,-35208]],[[398711,192653],[32943,-5884],[9165,-28949]],[[440819,157820],[-106342,-1412]],[[323401,191616],[75310,1037]],[[484821,22916],[4498,-13370],[-28970,-6812]],[[460349,2734],[-74981,-1092]],[[385368,1642],[-3911,13079]],[[381457,14721],[74465,1203],[28899,6992]],[[533481,194505],[181243,2477]],[[714724,196982],[7361,-23218]],[[722085,173764],[-212943,-3366]],[[509142,170398],[-5520,17369],[29859,6738]],[[932832,177094],[-210747,-3330]],[[714724,196982],[181466,2481],[31619,-5866]],[[722085,173764],[7769,-24483]],[[729854,149281],[-212934,-3380]],[[516920,145901],[-7778,24497]],[[940281,152616],[-210427,-3335]],[[733703,137134],[3787,-11935]],[[737490,125199],[-212916,-3374]],[[524574,121825],[-7654,24076]],[[729854,149281],[3849,-12147]],[[947606,128528],[-210116,-3329]],[[733703,137134],[210196,3596]],[[737490,125199],[7600,-23960]],[[745090,101239],[-212934,-3265]],[[532156,97974],[-7582,23851]],[[954921,104458],[-209831,-3219]],[[745090,101239],[7574,-23897]],[[752664,77342],[-212952,-3135]],[[539712,74207],[-7556,23767]],[[962228,80429],[-209564,-3087]],[[752664,77342],[7742,-24402]],[[760406,52940],[-212996,-2979]],[[547410,49961],[-7698,24246]],[[969704,55865],[-209298,-2925]],[[767953,29157],[-213013,-2871]],[[554940,26286],[-7530,23675]],[[760406,52940],[7547,-23783]],[[975820,35753],[-17023,-4028]],[[958797,31725],[-190844,-2568]],[[770771,20277],[-181777,-2217],[-33361,6029]],[[555633,24089],[-693,2197]],[[767953,29157],[2818,-8880]],[[958797,31725],[-40828,-9655],[-147198,-1793]],[[976976,31970],[-18179,-245]],[[770771,20277],[4214,-13289]],[[774985,6988],[-183884,-2348]],[[591101,4640],[-31094,5706],[-4374,13743]],[[954406,9278],[-179421,-2290]],[[533481,194505],[-134770,-1852]],[[210382,190060],[-5946,18130]],[[381457,14721],[-3761,-61]],[[377696,14660],[-9813,29719]],[[367883,44379],[109231,1416]],[[477114,45795],[2578,-7659],[5129,-15220]],[[367883,44379],[-9743,29510]],[[358140,73889],[109045,1418]],[[467185,75307],[4329,-12865],[5600,-16647]],[[358140,73889],[-9707,29384]],[[348433,103273],[109178,1538]],[[457611,104811],[5814,-18348],[3760,-11156]],[[348433,103273],[-9672,29279]],[[338761,132552],[109525,1678]],[[448286,134230],[7654,-24154],[1671,-5265]],[[348433,103273],[-109107,-1536]],[[239326,101737],[-1716,5236],[-7831,23908]],[[229779,130881],[108982,1671]],[[358140,73889],[-109223,-1420]],[[248917,72469],[-3555,10846],[-6036,18422]],[[367883,44379],[-109294,-1418]],[[258589,42961],[-5351,16326],[-4321,13182]],[[377696,14660],[-77452,-1251],[-33992,6159]],[[266252,19568],[-5165,15764],[-2498,7629]],[[591101,4640],[-130752,-1906]],[[448286,134230],[-7467,23590]],[[229779,130881],[-7876,24028]],[[385368,1642],[-112707,-1642],[-6409,19568]],[[389937,317300],[-110503,-1721]],[[279434,315579],[-7956,24283]],[[271478,339862],[110734,1546]],[[279434,315579],[-110493,-1721]],[[168941,313858],[-8205,24459]],[[160736,338317],[110742,1545]],[[177154,289409],[-8213,24449]],[[160736,338317],[-6329,24228]]],"bbox":[43.068,315.41,155.563,855.734],"transform":{"scale":[0.00011249511249511248,0.0005403245403245404],"translate":[43.068,315.41]}}