{"type":"Topology","objects":{"01207-4601-51.featurecollection":{"type":"GeometryCollection","geometries":[{"type":"Polygon","arcs":[[0,1,2,3]],"properties":{"市区町村名":"帯広市","大字名":"西十九条南","丁目名":"４丁目","小字名":null,"地番":"35-1","精度区分":null,"座標系":"任意座標系"}},{"type":"Polygon","arcs":[[4,5,6,7]],"properties":{"市区町村名":"帯広市","大字名":"西十九条南","丁目名":"４丁目","小字名":null,"地番":"35-8","精度区分":null,"座標系":"任意座標系"}},{"type":"Polygon","arcs":[[8,-5,9,10]],"properties":{"市区町村名":"帯広市","大字名":"西十九条南","丁目名":"４丁目","小字名":null,"地番":"35-9","精度区分":null,"座標系":"任意座標系"}},{"type":"Polygon","arcs":[[11,12,-11,13]],"properties":{"市区町村名":"帯広市","大字名":"西十九条南","丁目名":"４丁目","小字名":null,"地番":"35-10","精度区分":null,"座標系":"任意座標系"}},{"type":"Polygon","arcs":[[14,15,-4,16]],"properties":{"市区町村名":"帯広市","大字名":"西十九条南","丁目名":"４丁目","小字名":null,"地番":"35-11","精度区分":null,"座標系":"任意座標系"}},{"type":"Polygon","arcs":[[17,18,-15,19]],"properties":{"市区町村名":"帯広市","大字名":"西十九条南","丁目名":"４丁目","小字名":null,"地番":"35-12","精度区分":null,"座標系":"任意座標系"}},{"type":"Polygon","arcs":[[20,21,-18,22]],"properties":{"市区町村名":"帯広市","大字名":"西十九条南","丁目名":"４丁目","小字名":null,"地番":"35-13","精度区分":null,"座標系":"任意座標系"}},{"type":"Polygon","arcs":[[23,-21,24,25]],"properties":{"市区町村名":"帯広市","大字名":"西十九条南","丁目名":"４丁目","小字名":null,"地番":"35-14","精度区分":null,"座標系":"任意座標系"}},{"type":"Polygon","arcs":[[26,-26,27,-7]],"properties":{"市区町村名":"帯広市","大字名":"西十九条南","丁目名":"４丁目","小字名":null,"地番":"35-15","精度区分":null,"座標系":"任意座標系"}},{"type":"Polygon","arcs":[[28,29,30,31]],"properties":{"市区町村名":"帯広市","大字名":"西十九条南","丁目名":"４丁目","小字名":null,"地番":"36-1","精度区分":null,"座標系":"任意座標系"}},{"type":"Polygon","arcs":[[32,-29,33,34]],"properties":{"市区町村名":"帯広市","大字名":"西十九条南","丁目名":"４丁目","小字名":null,"地番":"36-9","精度区分":null,"座標系":"任意座標系"}},{"type":"Polygon","arcs":[[35,36,37,-30]],"properties":{"市区町村名":"帯広市","大字名":"西十九条南","丁目名":"４丁目","小字名":null,"地番":"36-10","精度区分":null,"座標系":"任意座標系"}},{"type":"Polygon","arcs":[[38,-36,-33,39]],"properties":{"市区町村名":"帯広市","大字名":"西十九条南","丁目名":"４丁目","小字名":null,"地番":"36-11","精度区分":null,"座標系":"任意座標系"}},{"type":"Polygon","arcs":[[40,41,-37,42]],"properties":{"市区町村名":"帯広市","大字名":"西十九条南","丁目名":"４丁目","小字名":null,"地番":"36-12","精度区分":null,"座標系":"任意座標系"}},{"type":"Polygon","arcs":[[43,44,-43,-39]],"properties":{"市区町村名":"帯広市","大字名":"西十九条南","丁目名":"４丁目","小字名":null,"地番":"36-13","精度区分":null,"座標系":"任意座標系"}},{"type":"Polygon","arcs":[[45,46,47,48]],"properties":{"市区町村名":"帯広市","大字名":"西十九条南","丁目名":"４丁目","小字名":null,"地番":"37-1","精度区分":null,"座標系":"任意座標系"}},{"type":"Polygon","arcs":[[49,50,-46,51]],"properties":{"市区町村名":"帯広市","大字名":"西十九条南","丁目名":"４丁目","小字名":null,"地番":"37-2","精度区分":null,"座標系":"任意座標系"}},{"type":"Polygon","arcs":[[52,53,54,-47]],"properties":{"市区町村名":"帯広市","大字名":"西十九条南","丁目名":"４丁目","小字名":null,"地番":"37-3","精度区分":null,"座標系":"任意座標系"}},{"type":"Polygon","arcs":[[55,-53,-51,56]],"properties":{"市区町村名":"帯広市","大字名":"西十九条南","丁目名":"４丁目","小字名":null,"地番":"37-4","精度区分":null,"座標系":"任意座標系"}},{"type":"Polygon","arcs":[[57,58,-54,59]],"properties":{"市区町村名":"帯広市","大字名":"西十九条南","丁目名":"４丁目","小字名":null,"地番":"37-5","精度区分":null,"座標系":"任意座標系"}},{"type":"Polygon","arcs":[[60,-60,-56,61]],"properties":{"市区町村名":"帯広市","大字名":"西十九条南","丁目名":"４丁目","小字名":null,"地番":"37-6","精度区分":null,"座標系":"任意座標系"}},{"type":"Polygon","arcs":[[62,63,-58,64]],"properties":{"市区町村名":"帯広市","大字名":"西十九条南","丁目名":"４丁目","小字名":null,"地番":"37-7","精度区分":null,"座標系":"任意座標系"}},{"type":"Polygon","arcs":[[65,66,-65,-61]],"properties":{"市区町村名":"帯広市","大字名":"西十九条南","丁目名":"４丁目","小字名":null,"地番":"37-8","精度区分":null,"座標系":"任意座標系"}},{"type":"Polygon","arcs":[[67,68,69,70,71]],"properties":{"市区町村名":"帯広市","大字名":"西十九条南","丁目名":"４丁目","小字名":null,"地番":"38-1","精度区分":null,"座標系":"任意座標系"}},{"type":"Polygon","arcs":[[72,73,74,-70]],"properties":{"市区町村名":"帯広市","大字名":"西十九条南","丁目名":"４丁目","小字名":null,"地番":"38-2","精度区分":null,"座標系":"任意座標系"}},{"type":"Polygon","arcs":[[75,-73,-69,76]],"properties":{"市区町村名":"帯広市","大字名":"西十九条南","丁目名":"４丁目","小字名":null,"地番":"38-3","精度区分":null,"座標系":"任意座標系"}},{"type":"Polygon","arcs":[[77,78,-74,79]],"properties":{"市区町村名":"帯広市","大字名":"西十九条南","丁目名":"４丁目","小字名":null,"地番":"38-4","精度区分":null,"座標系":"任意座標系"}},{"type":"Polygon","arcs":[[80,-80,-76,81]],"properties":{"市区町村名":"帯広市","大字名":"西十九条南","丁目名":"４丁目","小字名":null,"地番":"38-5","精度区分":null,"座標系":"任意座標系"}},{"type":"Polygon","arcs":[[82,83,84,85]],"properties":{"市区町村名":"帯広市","大字名":"西十九条南","丁目名":"４丁目","小字名":null,"地番":"39-1","精度区分":null,"座標系":"任意座標系"}},{"type":"Polygon","arcs":[[86,-86,87,88]],"properties":{"市区町村名":"帯広市","大字名":"西十九条南","丁目名":"４丁目","小字名":null,"地番":"39-2","精度区分":null,"座標系":"任意座標系"}},{"type":"Polygon","arcs":[[89,90,91,-83]],"properties":{"市区町村名":"帯広市","大字名":"西十九条南","丁目名":"４丁目","小字名":null,"地番":"39-3","精度区分":null,"座標系":"任意座標系"}},{"type":"Polygon","arcs":[[92,-90,-87,93]],"properties":{"市区町村名":"帯広市","大字名":"西十九条南","丁目名":"４丁目","小字名":null,"地番":"39-4","精度区分":null,"座標系":"任意座標系"}},{"type":"Polygon","arcs":[[94,95,-91,96]],"properties":{"市区町村名":"帯広市","大字名":"西十九条南","丁目名":"４丁目","小字名":null,"地番":"39-5","精度区分":null,"座標系":"任意座標系"}},{"type":"Polygon","arcs":[[97,98,-97,-93]],"properties":{"市区町村名":"帯広市","大字名":"西十九条南","丁目名":"４丁目","小字名":null,"地番":"39-6","精度区分":null,"座標系":"任意座標系"}},{"type":"Polygon","arcs":[[99,100,-95,101]],"properties":{"市区町村名":"帯広市","大字名":"西十九条南","丁目名":"４丁目","小字名":null,"地番":"39-7","精度区分":null,"座標系":"任意座標系"}},{"type":"Polygon","arcs":[[102,-102,-99,103]],"properties":{"市区町村名":"帯広市","大字名":"西十九条南","丁目名":"４丁目","小字名":null,"地番":"39-8","精度区分":null,"座標系":"任意座標系"}},{"type":"Polygon","arcs":[[104,105,-100,106]],"properties":{"市区町村名":"帯広市","大字名":"西十九条南","丁目名":"４丁目","小字名":null,"地番":"39-9","精度区分":null,"座標系":"任意座標系"}},{"type":"Polygon","arcs":[[107,-107,-103,108]],"properties":{"市区町村名":"帯広市","大字名":"西十九条南","丁目名":"４丁目","小字名":null,"地番":"39-10","精度区分":null,"座標系":"任意座標系"}},{"type":"Polygon","arcs":[[109,110,111,112,-105]],"properties":{"市区町村名":"帯広市","大字名":"西十九条南","丁目名":"４丁目","小字名":null,"地番":"39-11","精度区分":null,"座標系":"任意座標系"}},{"type":"Polygon","arcs":[[113,-110,-108,114]],"properties":{"市区町村名":"帯広市","大字名":"西十九条南","丁目名":"４丁目","小字名":null,"地番":"39-12","精度区分":null,"座標系":"任意座標系"}},{"type":"Polygon","arcs":[[115,116,117,-111,118]],"properties":{"市区町村名":"帯広市","大字名":"西十九条南","丁目名":"４丁目","小字名":null,"地番":"39-13","精度区分":null,"座標系":"任意座標系"}},{"type":"Polygon","arcs":[[119,120,-119,-114]],"properties":{"市区町村名":"帯広市","大字名":"西十九条南","丁目名":"４丁目","小字名":null,"地番":"39-14","精度区分":null,"座標系":"任意座標系"}},{"type":"Polygon","arcs":[[121,122,-116,123]],"properties":{"市区町村名":"帯広市","大字名":"西十九条南","丁目名":"４丁目","小字名":null,"地番":"39-15","精度区分":null,"座標系":"任意座標系"}},{"type":"Polygon","arcs":[[124,125,-124,-121]],"properties":{"市区町村名":"帯広市","大字名":"西十九条南","丁目名":"４丁目","小字名":null,"地番":"39-16","精度区分":null,"座標系":"任意座標系"}},{"type":"Polygon","arcs":[[126,127,-122,128]],"properties":{"市区町村名":"帯広市","大字名":"西十九条南","丁目名":"４丁目","小字名":null,"地番":"39-17","精度区分":null,"座標系":"任意座標系"}},{"type":"Polygon","arcs":[[129,-129,-126,130]],"properties":{"市区町村名":"帯広市","大字名":"西十九条南","丁目名":"４丁目","小字名":null,"地番":"39-18","精度区分":null,"座標系":"任意座標系"}},{"type":"Polygon","arcs":[[131,132,133,134]],"properties":{"市区町村名":"帯広市","大字名":"西十九条南","丁目名":"４丁目","小字名":null,"地番":"40-1","精度区分":null,"座標系":"任意座標系"}},{"type":"Polygon","arcs":[[135,136,137,-133]],"properties":{"市区町村名":"帯広市","大字名":"西十九条南","丁目名":"４丁目","小字名":null,"地番":"40-2","精度区分":null,"座標系":"任意座標系"}},{"type":"Polygon","arcs":[[138,-132,139,140]],"properties":{"市区町村名":"帯広市","大字名":"西十九条南","丁目名":"４丁目","小字名":null,"地番":"40-3","精度区分":null,"座標系":"任意座標系"}},{"type":"Polygon","arcs":[[141,-136,-139,142]],"properties":{"市区町村名":"帯広市","大字名":"西十九条南","丁目名":"４丁目","小字名":null,"地番":"40-4","精度区分":null,"座標系":"任意座標系"}},{"type":"Polygon","arcs":[[143,-141,144,145]],"properties":{"市区町村名":"帯広市","大字名":"西十九条南","丁目名":"４丁目","小字名":null,"地番":"40-5","精度区分":null,"座標系":"任意座標系"}},{"type":"Polygon","arcs":[[146,-143,-144,147]],"properties":{"市区町村名":"帯広市","大字名":"西十九条南","丁目名":"４丁目","小字名":null,"地番":"40-6","精度区分":null,"座標系":"任意座標系"}},{"type":"Polygon","arcs":[[148,149,150,151]],"properties":{"市区町村名":"帯広市","大字名":"西十九条南","丁目名":"４丁目","小字名":null,"地番":"40-9","精度区分":null,"座標系":"任意座標系"}},{"type":"Polygon","arcs":[[152,153,-150,154]],"properties":{"市区町村名":"帯広市","大字名":"西十九条南","丁目名":"４丁目","小字名":null,"地番":"40-10","精度区分":null,"座標系":"任意座標系"}},{"type":"Polygon","arcs":[[155,156,-149,157]],"properties":{"市区町村名":"帯広市","大字名":"西十九条南","丁目名":"４丁目","小字名":null,"地番":"40-11","精度区分":null,"座標系":"任意座標系"}},{"type":"Polygon","arcs":[[158,159,-155,-157]],"properties":{"市区町村名":"帯広市","大字名":"西十九条南","丁目名":"４丁目","小字名":null,"地番":"40-12","精度区分":null,"座標系":"任意座標系"}},{"type":"Polygon","arcs":[[160,-131,-125,-120,-115,-109,-104,-98,-94,-89,161]],"properties":{"市区町村名":"帯広市","大字名":"西十九条南","丁目名":"４丁目","小字名":null,"地番":"41-20","精度区分":null,"座標系":"任意座標系"}},{"type":"Polygon","arcs":[[162,-31,-38,-42,163,-134,-138,164,165,-2]],"properties":{"市区町村名":"帯広市","大字名":"西十九条南","丁目名":"４丁目","小字名":null,"地番":"41-21","精度区分":null,"座標系":"任意座標系"}},{"type":"Polygon","arcs":[[-16,-19,-22,-24,-27,-6,-9,-13,166,-52,-49,167,-72,168,-34,-32,-163,-1]],"properties":{"市区町村名":"帯広市","大字名":"西十九条南","丁目名":"４丁目","小字名":null,"地番":"41-22","精度区分":null,"座標系":"任意座標系"}},{"type":"Polygon","arcs":[[-75,-79,169,-44,-40,-35,-169,-71]],"properties":{"市区町村名":"帯広市","大字名":"西十九条南","丁目名":"４丁目","小字名":null,"地番":"41-23","精度区分":null,"座標系":"任意座標系"}},{"type":"Polygon","arcs":[[-55,-59,-64,170,-82,-77,-68,-168,-48]],"properties":{"市区町村名":"帯広市","大字名":"西十九条南","丁目名":"４丁目","小字名":null,"地番":"41-24","精度区分":null,"座標系":"任意座標系"}},{"type":"Polygon","arcs":[[-84,-92,-96,-101,-106,-113,171,-66,-62,-57,-50,-167,-12,172]],"properties":{"市区町村名":"帯広市","大字名":"西十九条南","丁目名":"４丁目","小字名":null,"地番":"41-25","精度区分":null,"座標系":"任意座標系"}},{"type":"Polygon","arcs":[[-117,-123,-128,173,-159,-156,174]],"properties":{"市区町村名":"帯広市","大字名":"西十九条南","丁目名":"４丁目","小字名":null,"地番":"41-27","精度区分":null,"座標系":"任意座標系"}},{"type":"Polygon","arcs":[[175,176,-146,177]],"properties":{"市区町村名":"帯広市","大字名":"西十九条南","丁目名":"４丁目","小字名":null,"地番":"40-13","精度区分":null,"座標系":"任意座標系"}},{"type":"Polygon","arcs":[[178,179,-176,180]],"properties":{"市区町村名":"帯広市","大字名":"西十九条南","丁目名":"４丁目","小字名":null,"地番":"40-14","精度区分":null,"座標系":"任意座標系"}},{"type":"Polygon","arcs":[[-45,-170,-78,-81,-171,-63,-67,-172,-112,-118,-175,-158,-152,181,-181,-178,-145,-140,-135,-164,-41]],"properties":{"市区町村名":"帯広市","大字名":"西十九条南","丁目名":"４丁目","小字名":null,"地番":"41-26","精度区分":null,"座標系":"任意座標系"}},{"type":"Polygon","arcs":[[-154,182,183,184]],"properties":{"市区町村名":"帯広市","大字名":"西十九条南","丁目名":"４丁目","小字名":null,"地番":"40-16","精度区分":null,"座標系":"任意座標系"}},{"type":"Polygon","arcs":[[-184,185,-148,-177,-180,186]],"properties":{"市区町村名":"帯広市","大字名":"西十九条南","丁目名":"４丁目","小字名":null,"地番":"40-8","精度区分":null,"座標系":"任意座標系"}},{"type":"Polygon","arcs":[[-137,-142,-147,-186,-183,-153,-160,-174,-127,-130,-161,187,-165]],"properties":{"市区町村名":"帯広市","大字名":"西十九条南","丁目名":"４丁目","小字名":null,"地番":"41-19","精度区分":null,"座標系":"任意座標系"}},{"type":"Polygon","arcs":[[-151,-185,-187,-179,-182]],"properties":{"市区町村名":"帯広市","大字名":"西十九条南","丁目名":"４丁目","小字名":null,"地番":"40-15","精度区分":null,"座標系":"任意座標系"}}]}},"arcs":[[[134421,758732],[-55243,-7902],[-19121,19531]],[[60057,770361],[-9679,104299]],[[50378,874660],[72241,10414]],[[122619,885074],[11802,-126342]],[[539560,945148],[11705,-126803]],[[551265,818345],[-60871,-8707]],[[490394,809638],[-11497,126771]],[[478897,936409],[60663,8739]],[[612051,827033],[-60786,-8688]],[[539560,945148],[61126,8810]],[[600686,953958],[11365,-126925]],[[660856,962626],[9644,-104619]],[[670500,858007],[-14805,-24728],[-43644,-6246]],[[600686,953958],[60170,8668]],[[193745,895316],[11863,-126407]],[[205608,768909],[-71187,-10177]],[[122619,885074],[71126,10242]],[[265263,905627],[11624,-126527]],[[276887,779100],[-71279,-10191]],[[193745,895316],[71518,10311]],[[336156,915843],[11618,-126604]],[[347774,789239],[-70887,-10139]],[[265263,905627],[70893,10216]],[[419313,799467],[-71539,-10228]],[[336156,915843],[71472,10293]],[[407628,926136],[11685,-126669]],[[490394,809638],[-71081,-10171]],[[407628,926136],[71269,10273]],[[154843,709922],[11258,-120895]],[[166101,589027],[-88048,-12473]],[[78053,576554],[-9156,98604]],[[68897,675158],[15777,24708],[70169,10056]],[[254235,601506],[-88134,-12479]],[[154843,709922],[70277,10082]],[[225120,720004],[19970,-19051],[9145,-99447]],[[166101,589027],[11176,-120065]],[[177277,468962],[-88064,-12626]],[[89213,456336],[-11160,120218]],[[265269,481575],[-87992,-12613]],[[254235,601506],[11034,-119931]],[[188625,347037],[-70128,-10094],[-20042,19875]],[[98455,356818],[-9242,99518]],[[177277,468962],[11348,-121925]],[[265269,481575],[9186,-99844],[-15548,-24574]],[[258907,357157],[-70282,-10120]],[[588544,772112],[8295,-90414]],[[596839,681698],[-87692,-12818]],[[509147,668880],[-6061,68525],[14626,24555]],[[517712,761960],[70832,10152]],[[679299,762478],[6250,-67815]],[[685549,694663],[-88710,-12965]],[[588544,772112],[70734,10146],[20021,-19780]],[[596839,681698],[8331,-90773]],[[605170,590925],[-88007,-12677]],[[517163,578248],[-8016,90632]],[[693925,603698],[-88755,-12773]],[[685549,694663],[8376,-90965]],[[613481,500332],[-88293,-12805]],[[525188,487527],[-8025,90721]],[[605170,590925],[8311,-90593]],[[702267,513207],[-88786,-12875]],[[693925,603698],[8342,-90491]],[[621827,409412],[-71498,-10292]],[[550329,399120],[-19049,19556],[-6092,68851]],[[613481,500332],[8346,-90920]],[[702267,513207],[6336,-68762],[-15584,-24785]],[[693019,419660],[-71192,-10248]],[[442321,751150],[19904,-19115],[10692,-117156]],[[472917,614879],[-88363,-12568]],[[384554,602311],[-88094,-12524]],[[296460,589787],[-10580,116901],[15201,24209]],[[301081,730897],[141240,20253]],[[384554,602311],[10204,-113812]],[[394758,488499],[-87992,-12524]],[[306766,475975],[-10306,113812]],[[483304,501099],[-88546,-12600]],[[472917,614879],[10387,-113780]],[[404651,378139],[-70175,-10101]],[[334476,368038],[-19674,19255],[-8036,88682]],[[394758,488499],[9893,-110360]],[[475386,388329],[-70735,-10190]],[[483304,501099],[7990,-87538],[-15908,-25232]],[[805251,890195],[-95478,-14403]],[[709773,875792],[-8560,92645]],[[701213,968437],[95493,13764]],[[796706,982201],[8545,-92006]],[[901523,904720],[-96272,-14525]],[[796706,982201],[96379,13886]],[[893085,996087],[8438,-91367]],[[805251,890195],[8586,-92409]],[[813837,797786],[-95555,-14141]],[[718282,783645],[-8509,92147]],[[910078,812036],[-96241,-14250]],[[901523,904720],[8555,-92684]],[[822422,705332],[-95600,-14166]],[[726822,691166],[-8540,92479]],[[813837,797786],[8585,-92454]],[[910078,812036],[8540,-92454]],[[918618,719582],[-96196,-14250]],[[831079,612162],[-95662,-14077]],[[735417,598085],[-8595,93081]],[[822422,705332],[8657,-93170]],[[927234,626297],[-96155,-14135]],[[918618,719582],[8616,-93285]],[[839674,519664],[-95707,-14135]],[[743967,505529],[-8550,92556]],[[831079,612162],[8595,-92498]],[[935774,533850],[-96100,-14186]],[[927234,626297],[8540,-92447]],[[839674,519664],[8591,-92473]],[[848265,427191],[-95789,-13834]],[[752476,413357],[-1353,14672]],[[751123,428029],[-7156,77500]],[[944339,441083],[-96074,-13892]],[[935774,533850],[8565,-92767]],[[856896,334213],[-95819,-14019]],[[761077,320194],[-4097,44417]],[[756980,364611],[-4504,48746]],[[848265,427191],[8631,-92978]],[[944339,441083],[8570,-92812]],[[952909,348271],[-96013,-14058]],[[865482,241836],[-95880,-13904]],[[769602,227932],[-8525,92262]],[[856896,334213],[8586,-92377]],[[952909,348271],[8545,-92518]],[[961454,255753],[-95972,-13917]],[[874159,148423],[-78404,-11283]],[[795755,137140],[-19543,19179],[-6610,71613]],[[865482,241836],[8677,-93413]],[[934532,157111],[-60373,-8688]],[[961454,255753],[4483,-48528],[-31405,-50114]],[[181974,281600],[10514,-114554]],[[192488,167046],[-75416,-10779]],[[117072,156267],[-8601,92703]],[[108471,248970],[14860,24172],[58643,8458]],[[192488,167046],[10586,-115193]],[[203074,51853],[-57849,-8324]],[[145225,43529],[-19461,19147],[-8692,93591]],[[267879,177824],[-75391,-10778]],[[181974,281600],[75610,10919]],[[257584,292519],[10295,-114695]],[[278215,62663],[-75141,-10810]],[[267879,177824],[10336,-115161]],[[343118,188571],[-75239,-10747]],[[257584,292519],[74969,10823]],[[332553,303342],[10565,-114771]],[[353708,73531],[-75493,-10868]],[[343118,188571],[10590,-115040]],[[627639,345938],[10616,-115194]],[[638255,230744],[-80562,-11462]],[[557693,219282],[-10555,115040]],[[547138,334322],[80501,11616]],[[648840,115999],[-80612,-11603]],[[568228,104396],[-10535,114886]],[[638255,230744],[10585,-114745]],[[689905,354926],[18764,-19556],[8743,-93361]],[[717412,242009],[-79157,-11265]],[[627639,345938],[62266,8988]],[[717412,242009],[8636,-92192],[-15593,-24951]],[[710455,124866],[-61615,-8867]],[[996956,166093],[-62424,-8982]],[[893085,996087],[27146,3912],[76725,-833906]],[[60057,770361],[8840,-95203]],[[98455,356818],[10016,-107848]],[[145225,43529],[-67656,-9743]],[[77569,33786],[-77569,833618],[50378,7256]],[[670500,858007],[8799,-95529]],[[517712,761960],[-75391,-10810]],[[301081,730897],[-75961,-10893]],[[334476,368038],[-75569,-10881]],[[550329,399120],[-74943,-10791]],[[751123,428029],[-58104,-8369]],[[660856,962626],[40357,5811]],[[795755,137140],[-85300,-12274]],[[689905,354926],[67075,9685]],[[389511,311563],[10326,-114873]],[[399837,196690],[-56719,-8119]],[[332553,303342],[56958,8221]],[[446489,319791],[10530,-114919]],[[457019,204872],[-57182,-8182]],[[389511,311563],[56978,8228]],[[547138,334322],[-100649,-14531]],[[568228,104396],[-70195,-10101]],[[498033,94295],[-10164,114995]],[[487869,209290],[69824,9992]],[[498033,94295],[-144325,-20764]],[[457019,204872],[30850,4418]],[[996956,166093],[3043,-33115],[-919285,-132978],[-3145,33786]]],"bbox":[182.689,831.3,379.184,987.724],"transform":{"scale":[0.00019649519649519653,0.0001564241564241565],"translate":[182.689,831.3]}}