{"type":"Topology","objects":{"01207-4601-38":{"type":"GeometryCollection","geometries":[{"type":"MultiPolygon","arcs":[[[0,1,2,3,4,5,6,7,8,9,10,11,12,13]]],"properties":{"筆ID":"H000000001","version":"ver1.0","座標系":"任意座標系","測地系判別":null,"地図名":"帯広市区画整理図Ｋ（５００）３","地図番号":"K5","縮尺分母":"500","市区町村コード":"01207","市区町村名":"帯広市","大字コード":"046","丁目コード":"007","小字コード":"0000","予備コード":"00","大字名":"西九条北","丁目名":"７丁目","小字名":null,"予備名":null,"地番":"2-3","精度区分":null,"座標値種別":"図上測量","筆界未定構成筆":null,"代表点緯度":324.9025,"代表点経度":439.654698472}},{"type":"MultiPolygon","arcs":[[[14,15,16,17,-7,18,19,20,21,22,23,24,25,26,27]]],"properties":{"筆ID":"H000000002","version":"ver1.0","座標系":"任意座標系","測地系判別":null,"地図名":"帯広市区画整理図Ｋ（５００）３","地図番号":"K5","縮尺分母":"500","市区町村コード":"01207","市区町村名":"帯広市","大字コード":"046","丁目コード":"007","小字コード":"0000","予備コード":"00","大字名":"西九条北","丁目名":"７丁目","小字名":null,"予備名":null,"地番":"2-5","精度区分":null,"座標値種別":"図上測量","筆界未定構成筆":null,"代表点緯度":277.413,"代表点経度":443.728947075}},{"type":"MultiPolygon","arcs":[[[28,29,30,31,32,33,34,35,36]]],"properties":{"筆ID":"H000000003","version":"ver1.0","座標系":"任意座標系","測地系判別":null,"地図名":"帯広市区画整理図Ｋ（５００）３","地図番号":"K5","縮尺分母":"500","市区町村コード":"01207","市区町村名":"帯広市","大字コード":"046","丁目コード":"007","小字コード":"0000","予備コード":"00","大字名":"西九条北","丁目名":"７丁目","小字名":null,"予備名":null,"地番":"2-7","精度区分":null,"座標値種別":"図上測量","筆界未定構成筆":null,"代表点緯度":207.1025,"代表点経度":424.932473252}},{"type":"MultiPolygon","arcs":[[[37,38,39,40]]],"properties":{"筆ID":"H000000004","version":"ver1.0","座標系":"任意座標系","測地系判別":null,"地図名":"帯広市区画整理図Ｋ（５００）３","地図番号":"K5","縮尺分母":"500","市区町村コード":"01207","市区町村名":"帯広市","大字コード":"046","丁目コード":"007","小字コード":"0000","予備コード":"00","大字名":"西九条北","丁目名":"７丁目","小字名":null,"予備名":null,"地番":"4-1","精度区分":null,"座標値種別":"図上測量","筆界未定構成筆":null,"代表点緯度":367.7265,"代表点経度":395.439676772}},{"type":"MultiPolygon","arcs":[[[41,-38,42,43]]],"properties":{"筆ID":"H000000005","version":"ver1.0","座標系":"任意座標系","測地系判別":null,"地図名":"帯広市区画整理図Ｋ（５００）３","地図番号":"K5","縮尺分母":"500","市区町村コード":"01207","市区町村名":"帯広市","大字コード":"046","丁目コード":"007","小字コード":"0000","予備コード":"00","大字名":"西九条北","丁目名":"７丁目","小字名":null,"予備名":null,"地番":"4-2","精度区分":null,"座標値種別":"図上測量","筆界未定構成筆":null,"代表点緯度":368.725,"代表点経度":406.184809213}},{"type":"MultiPolygon","arcs":[[[44,45,-44,46]]],"properties":{"筆ID":"H000000006","version":"ver1.0","座標系":"任意座標系","測地系判別":null,"地図名":"帯広市区画整理図Ｋ（５００）３","地図番号":"K5","縮尺分母":"500","市区町村コード":"01207","市区町村名":"帯広市","大字コード":"046","丁目コード":"007","小字コード":"0000","予備コード":"00","大字名":"西九条北","丁目名":"７丁目","小字名":null,"予備名":null,"地番":"4-3","精度区分":null,"座標値種別":"図上測量","筆界未定構成筆":null,"代表点緯度":369.9395,"代表点経度":419.262245318}},{"type":"MultiPolygon","arcs":[[[47,-45,48,49]]],"properties":{"筆ID":"H000000007","version":"ver1.0","座標系":"任意座標系","測地系判別":null,"地図名":"帯広市区画整理図Ｋ（５００）３","地図番号":"K5","縮尺分母":"500","市区町村コード":"01207","市区町村名":"帯広市","大字コード":"046","丁目コード":"007","小字コード":"0000","予備コード":"00","大字名":"西九条北","丁目名":"７丁目","小字名":null,"予備名":null,"地番":"4-4","精度区分":null,"座標値種別":"図上測量","筆界未定構成筆":null,"代表点緯度":371.1555,"代表点経度":432.357443115}},{"type":"MultiPolygon","arcs":[[[50,51,52,53]]],"properties":{"筆ID":"H000000008","version":"ver1.0","座標系":"任意座標系","測地系判別":null,"地図名":"帯広市区画整理図Ｋ（５００）３","地図番号":"K5","縮尺分母":"500","市区町村コード":"01207","市区町村名":"帯広市","大字コード":"046","丁目コード":"007","小字コード":"0000","予備コード":"00","大字名":"西九条北","丁目名":"７丁目","小字名":null,"予備名":null,"地番":"4-5","精度区分":null,"座標値種別":"図上測量","筆界未定構成筆":null,"代表点緯度":373.5765,"代表点経度":458.6332606}},{"type":"MultiPolygon","arcs":[[[54,-51,55,56]]],"properties":{"筆ID":"H000000009","version":"ver1.0","座標系":"任意座標系","測地系判別":null,"地図名":"帯広市区画整理図Ｋ（５００）３","地図番号":"K5","縮尺分母":"500","市区町村コード":"01207","市区町村名":"帯広市","大字コード":"046","丁目コード":"007","小字コード":"0000","予備コード":"00","大字名":"西九条北","丁目名":"７丁目","小字名":null,"予備名":null,"地番":"4-6","精度区分":null,"座標値種別":"図上測量","筆界未定構成筆":null,"代表点緯度":376.517,"代表点経度":471.737804348}},{"type":"MultiPolygon","arcs":[[[57,-50,58,-53]]],"properties":{"筆ID":"H000000010","version":"ver1.0","座標系":"任意座標系","測地系判別":null,"地図名":"帯広市区画整理図Ｋ（５００）３","地図番号":"K5","縮尺分母":"500","市区町村コード":"01207","市区町村名":"帯広市","大字コード":"046","丁目コード":"007","小字コード":"0000","予備コード":"00","大字名":"西九条北","丁目名":"７丁目","小字名":null,"予備名":null,"地番":"4-11","精度区分":null,"座標値種別":"図上測量","筆界未定構成筆":null,"代表点緯度":372.375,"代表点経度":445.488592013}},{"type":"MultiPolygon","arcs":[[[59,60,61,62,63]]],"properties":{"筆ID":"H000000011","version":"ver1.0","座標系":"任意座標系","測地系判別":null,"地図名":"帯広市区画整理図Ｋ（５００）３","地図番号":"K5","縮尺分母":"500","市区町村コード":"01207","市区町村名":"帯広市","大字コード":"046","丁目コード":"007","小字コード":"0000","予備コード":"00","大字名":"西九条北","丁目名":"７丁目","小字名":null,"予備名":null,"地番":"5-1","精度区分":null,"座標値種別":"図上測量","筆界未定構成筆":null,"代表点緯度":338.97,"代表点経度":400.259867129}},{"type":"MultiPolygon","arcs":[[[64,-13,65,-61]]],"properties":{"筆ID":"H000000012","version":"ver1.0","座標系":"任意座標系","測地系判別":null,"地図名":"帯広市区画整理図Ｋ（５００）３","地図番号":"K5","縮尺分母":"500","市区町村コード":"01207","市区町村名":"帯広市","大字コード":"046","丁目コード":"007","小字コード":"0000","予備コード":"00","大字名":"西九条北","丁目名":"７丁目","小字名":null,"予備名":null,"地番":"5-2","精度区分":null,"座標値種別":"図上測量","筆界未定構成筆":null,"代表点緯度":318.068,"代表点経度":400.699763853}},{"type":"MultiPolygon","arcs":[[[66,-14,-65,-60,67]]],"properties":{"筆ID":"H000000013","version":"ver1.0","座標系":"任意座標系","測地系判別":null,"地図名":"帯広市区画整理図Ｋ（５００）３","地図番号":"K5","縮尺分母":"500","市区町村コード":"01207","市区町村名":"帯広市","大字コード":"046","丁目コード":"007","小字コード":"0000","予備コード":"00","大字名":"西九条北","丁目名":"７丁目","小字名":null,"予備名":null,"地番":"5-3","精度区分":null,"座標値種別":"図上測量","筆界未定構成筆":null,"代表点緯度":319.184,"代表点経度":412.860129106}},{"type":"MultiPolygon","arcs":[[[68,69,70,-2]]],"properties":{"筆ID":"H000000014","version":"ver1.0","座標系":"任意座標系","測地系判別":null,"地図名":"帯広市区画整理図Ｋ（５００）３","地図番号":"K5","縮尺分母":"500","市区町村コード":"01207","市区町村名":"帯広市","大字コード":"046","丁目コード":"007","小字コード":"0000","予備コード":"00","大字名":"西九条北","丁目名":"７丁目","小字名":null,"予備名":null,"地番":"5-4","精度区分":null,"座標値種別":"図上測量","筆界未定構成筆":null,"代表点緯度":340.2435,"代表点経度":426.514193543}},{"type":"MultiPolygon","arcs":[[[-69,-1,-67,71]]],"properties":{"筆ID":"H000000015","version":"ver1.0","座標系":"任意座標系","測地系判別":null,"地図名":"帯広市区画整理図Ｋ（５００）３","地図番号":"K5","縮尺分母":"500","市区町村コード":"01207","市区町村名":"帯広市","大字コード":"046","丁目コード":"007","小字コード":"0000","予備コード":"00","大字名":"西九条北","丁目名":"７丁目","小字名":null,"予備名":null,"地番":"5-5","精度区分":null,"座標値種別":"図上測量","筆界未定構成筆":null,"代表点緯度":322.2745,"代表点経度":427.331214933}},{"type":"MultiPolygon","arcs":[[[-72,-68,-64,72,-70]]],"properties":{"筆ID":"H000000016","version":"ver1.0","座標系":"任意座標系","測地系判別":null,"地図名":"帯広市区画整理図Ｋ（５００）３","地図番号":"K5","縮尺分母":"500","市区町村コード":"01207","市区町村名":"帯広市","大字コード":"046","丁目コード":"007","小字コード":"0000","予備コード":"00","大字名":"西九条北","丁目名":"７丁目","小字名":null,"予備名":null,"地番":"5-6","精度区分":null,"座標値種別":"図上測量","筆界未定構成筆":null,"代表点緯度":340.165,"代表点経度":413.16822724}},{"type":"MultiPolygon","arcs":[[[73,74,75,-11]]],"properties":{"筆ID":"H000000017","version":"ver1.0","座標系":"任意座標系","測地系判別":null,"地図名":"帯広市区画整理図Ｋ（５００）３","地図番号":"K5","縮尺分母":"500","市区町村コード":"01207","市区町村名":"帯広市","大字コード":"046","丁目コード":"007","小字コード":"0000","予備コード":"00","大字名":"西九条北","丁目名":"７丁目","小字名":null,"予備名":null,"地番":"6-1","精度区分":null,"座標値種別":"図上測量","筆界未定構成筆":null,"代表点緯度":289.46,"代表点経度":399.763172122}},{"type":"MultiPolygon","arcs":[[[76,-28,77,-75]]],"properties":{"筆ID":"H000000018","version":"ver1.0","座標系":"任意座標系","測地系判別":null,"地図名":"帯広市区画整理図Ｋ（５００）３","地図番号":"K5","縮尺分母":"500","市区町村コード":"01207","市区町村名":"帯広市","大字コード":"046","丁目コード":"007","小字コード":"0000","予備コード":"00","大字名":"西九条北","丁目名":"７丁目","小字名":null,"予備名":null,"地番":"6-2","精度区分":null,"座標値種別":"図上測量","筆界未定構成筆":null,"代表点緯度":269.4285,"代表点経度":401.496897291}},{"type":"MultiPolygon","arcs":[[[78,-74,-10,79]]],"properties":{"筆ID":"H000000019","version":"ver1.0","座標系":"任意座標系","測地系判別":null,"地図名":"帯広市区画整理図Ｋ（５００）３","地図番号":"K5","縮尺分母":"500","市区町村コード":"01207","市区町村名":"帯広市","大字コード":"046","丁目コード":"007","小字コード":"0000","予備コード":"00","大字名":"西九条北","丁目名":"７丁目","小字名":null,"予備名":null,"地番":"6-3","精度区分":null,"座標値種別":"図上測量","筆界未定構成筆":null,"代表点緯度":290.153,"代表点経度":407.480799953}},{"type":"MultiPolygon","arcs":[[[80,-15,-77,-79]]],"properties":{"筆ID":"H000000020","version":"ver1.0","座標系":"任意座標系","測地系判別":null,"地図名":"帯広市区画整理図Ｋ（５００）３","地図番号":"K5","縮尺分母":"500","市区町村コード":"01207","市区町村名":"帯広市","大字コード":"046","丁目コード":"007","小字コード":"0000","予備コード":"00","大字名":"西九条北","丁目名":"７丁目","小字名":null,"予備名":null,"地番":"6-4","精度区分":null,"座標値種別":"図上測量","筆界未定構成筆":null,"代表点緯度":270.115,"代表点経度":409.220781091}},{"type":"MultiPolygon","arcs":[[[81,82,-80,-9]]],"properties":{"筆ID":"H000000021","version":"ver1.0","座標系":"任意座標系","測地系判別":null,"地図名":"帯広市区画整理図Ｋ（５００）３","地図番号":"K5","縮尺分母":"500","市区町村コード":"01207","市区町村名":"帯広市","大字コード":"046","丁目コード":"007","小字コード":"0000","予備コード":"00","大字名":"西九条北","丁目名":"７丁目","小字名":null,"予備名":null,"地番":"6-5","精度区分":null,"座標値種別":"図上測量","筆界未定構成筆":null,"代表点緯度":291.2345,"代表点経度":419.462863387}},{"type":"MultiPolygon","arcs":[[[83,-16,-81,-83]]],"properties":{"筆ID":"H000000022","version":"ver1.0","座標系":"任意座標系","測地系判別":null,"地図名":"帯広市区画整理図Ｋ（５００）３","地図番号":"K5","縮尺分母":"500","市区町村コード":"01207","市区町村名":"帯広市","大字コード":"046","丁目コード":"007","小字コード":"0000","予備コード":"00","大字名":"西九条北","丁目名":"７丁目","小字名":null,"予備名":null,"地番":"6-6","精度区分":null,"座標値種別":"図上測量","筆界未定構成筆":null,"代表点緯度":271.1835,"代表点経度":421.167290116}},{"type":"MultiPolygon","arcs":[[[84,-82,-8,-18]]],"properties":{"筆ID":"H000000023","version":"ver1.0","座標系":"任意座標系","測地系判別":null,"地図名":"帯広市区画整理図Ｋ（５００）３","地図番号":"K5","縮尺分母":"500","市区町村コード":"01207","市区町村名":"帯広市","大字コード":"046","丁目コード":"007","小字コード":"0000","予備コード":"00","大字名":"西九条北","丁目名":"７丁目","小字名":null,"予備名":null,"地番":"6-7","精度区分":null,"座標値種別":"図上測量","筆界未定構成筆":null,"代表点緯度":291.152,"代表点経度":431.553866108}},{"type":"MultiPolygon","arcs":[[[-17,-84,-85]]],"properties":{"筆ID":"H000000024","version":"ver1.0","座標系":"任意座標系","測地系判別":null,"地図名":"帯広市区画整理図Ｋ（５００）３","地図番号":"K5","縮尺分母":"500","市区町村コード":"01207","市区町村名":"帯広市","大字コード":"046","丁目コード":"007","小字コード":"0000","予備コード":"00","大字名":"西九条北","丁目名":"７丁目","小字名":null,"予備名":null,"地番":"6-8","精度区分":null,"座標値種別":"図上測量","筆界未定構成筆":null,"代表点緯度":273.991,"代表点経度":432.9982233}},{"type":"MultiPolygon","arcs":[[[85,86,87,-26]]],"properties":{"筆ID":"H000000025","version":"ver1.0","座標系":"任意座標系","測地系判別":null,"地図名":"帯広市区画整理図Ｋ（５００）３","地図番号":"K5","縮尺分母":"500","市区町村コード":"01207","市区町村名":"帯広市","大字コード":"046","丁目コード":"007","小字コード":"0000","予備コード":"00","大字名":"西九条北","丁目名":"７丁目","小字名":null,"予備名":null,"地番":"7-1","精度区分":null,"座標値種別":"図上測量","筆界未定構成筆":null,"代表点緯度":241.902,"代表点経度":409.044399744}},{"type":"MultiPolygon","arcs":[[[88,-37,89,-87]]],"properties":{"筆ID":"H000000026","version":"ver1.0","座標系":"任意座標系","測地系判別":null,"地図名":"帯広市区画整理図Ｋ（５００）３","地図番号":"K5","縮尺分母":"500","市区町村コード":"01207","市区町村名":"帯広市","大字コード":"046","丁目コード":"007","小字コード":"0000","予備コード":"00","大字名":"西九条北","丁目名":"７丁目","小字名":null,"予備名":null,"地番":"7-2","精度区分":null,"座標値種別":"図上測量","筆界未定構成筆":null,"代表点緯度":221.9195,"代表点経度":410.747593397}},{"type":"MultiPolygon","arcs":[[[90,-86,-25,91]]],"properties":{"筆ID":"H000000027","version":"ver1.0","座標系":"任意座標系","測地系判別":null,"地図名":"帯広市区画整理図Ｋ（５００）３","地図番号":"K5","縮尺分母":"500","市区町村コード":"01207","市区町村名":"帯広市","大字コード":"046","丁目コード":"007","小字コード":"0000","予備コード":"00","大字名":"西九条北","丁目名":"７丁目","小字名":null,"予備名":null,"地番":"7-3","精度区分":null,"座標値種別":"図上測量","筆界未定構成筆":null,"代表点緯度":243.0955,"代表点経度":422.338259409}},{"type":"MultiPolygon","arcs":[[[92,93,-29,-89,-91]]],"properties":{"筆ID":"H000000028","version":"ver1.0","座標系":"任意座標系","測地系判別":null,"地図名":"帯広市区画整理図Ｋ（５００）３","地図番号":"K5","縮尺分母":"500","市区町村コード":"01207","市区町村名":"帯広市","大字コード":"046","丁目コード":"007","小字コード":"0000","予備コード":"00","大字名":"西九条北","丁目名":"７丁目","小字名":null,"予備名":null,"地番":"7-4","精度区分":null,"座標値種別":"図上測量","筆界未定構成筆":null,"代表点緯度":218.3815,"代表点経度":424.450180851}},{"type":"MultiPolygon","arcs":[[[94,-92,-24,95]]],"properties":{"筆ID":"H000000029","version":"ver1.0","座標系":"任意座標系","測地系判別":null,"地図名":"帯広市区画整理図Ｋ（５００）３","地図番号":"K5","縮尺分母":"500","市区町村コード":"01207","市区町村名":"帯広市","大字コード":"046","丁目コード":"007","小字コード":"0000","予備コード":"00","大字名":"西九条北","丁目名":"７丁目","小字名":null,"予備名":null,"地番":"7-5","精度区分":null,"座標値種別":"図上測量","筆界未定構成筆":null,"代表点緯度":243.1145,"代表点経度":435.21920733}},{"type":"MultiPolygon","arcs":[[[96,-93,-95,97]]],"properties":{"筆ID":"H000000030","version":"ver1.0","座標系":"任意座標系","測地系判別":null,"地図名":"帯広市区画整理図Ｋ（５００）３","地図番号":"K5","縮尺分母":"500","市区町村コード":"01207","市区町村名":"帯広市","大字コード":"046","丁目コード":"007","小字コード":"0000","予備コード":"00","大字名":"西九条北","丁目名":"７丁目","小字名":null,"予備名":null,"地番":"7-6","精度区分":null,"座標値種別":"図上測量","筆界未定構成筆":null,"代表点緯度":228.998,"代表点経度":436.44132285}},{"type":"MultiPolygon","arcs":[[[-30,-94,-97,98]]],"properties":{"筆ID":"H000000031","version":"ver1.0","座標系":"任意座標系","測地系判別":null,"地図名":"帯広市区画整理図Ｋ（５００）３","地図番号":"K5","縮尺分母":"500","市区町村コード":"01207","市区町村名":"帯広市","大字コード":"046","丁目コード":"007","小字コード":"0000","予備コード":"00","大字名":"西九条北","丁目名":"７丁目","小字名":null,"予備名":null,"地番":"7-7","精度区分":null,"座標値種別":"図上測量","筆界未定構成筆":null,"代表点緯度":220.6535,"代表点経度":437.163438338}},{"type":"MultiPolygon","arcs":[[[99,100,101,-4]]],"properties":{"筆ID":"H000000032","version":"ver1.0","座標系":"任意座標系","測地系判別":null,"地図名":"帯広市区画整理図Ｋ（５００）３","地図番号":"K5","縮尺分母":"500","市区町村コード":"01207","市区町村名":"帯広市","大字コード":"046","丁目コード":"007","小字コード":"0000","予備コード":"00","大字名":"西九条北","丁目名":"７丁目","小字名":null,"予備名":null,"地番":"8-1","精度区分":null,"座標値種別":"図上測量","筆界未定構成筆":null,"代表点緯度":341.872,"代表点経度":450.258114011}},{"type":"MultiPolygon","arcs":[[[102,103,104,-5,-102]]],"properties":{"筆ID":"H000000033","version":"ver1.0","座標系":"任意座標系","測地系判別":null,"地図名":"帯広市区画整理図Ｋ（５００）３","地図番号":"K5","縮尺分母":"500","市区町村コード":"01207","市区町村名":"帯広市","大字コード":"046","丁目コード":"007","小字コード":"0000","予備コード":"00","大字名":"西九条北","丁目名":"７丁目","小字名":null,"予備名":null,"地番":"8-3","精度区分":null,"座標値種別":"図上測量","筆界未定構成筆":null,"代表点緯度":324.5615,"代表点経度":451.748563}},{"type":"MultiPolygon","arcs":[[[105,106,107,108,-19,109]]],"properties":{"筆ID":"H000000034","version":"ver1.0","座標系":"任意座標系","測地系判別":null,"地図名":"帯広市区画整理図Ｋ（５００）３","地図番号":"K5","縮尺分母":"500","市区町村コード":"01207","市区町村名":"帯広市","大字コード":"046","丁目コード":"007","小字コード":"0000","予備コード":"00","大字名":"西九条北","丁目名":"７丁目","小字名":null,"予備名":null,"地番":"8-5","精度区分":null,"座標値種別":"図上測量","筆界未定構成筆":null,"代表点緯度":296.7,"代表点経度":456.639443098}},{"type":"MultiPolygon","arcs":[[[110,-107,111,112]]],"properties":{"筆ID":"H000000035","version":"ver1.0","座標系":"任意座標系","測地系判別":null,"地図名":"帯広市区画整理図Ｋ（５００）３","地図番号":"K5","縮尺分母":"500","市区町村コード":"01207","市区町村名":"帯広市","大字コード":"046","丁目コード":"007","小字コード":"0000","予備コード":"00","大字名":"西九条北","丁目名":"７丁目","小字名":null,"予備名":null,"地番":"8-6","精度区分":null,"座標値種別":"図上測量","筆界未定構成筆":null,"代表点緯度":298.435,"代表点経度":475.62641233}},{"type":"MultiPolygon","arcs":[[[113,114,-20,-109]]],"properties":{"筆ID":"H000000036","version":"ver1.0","座標系":"任意座標系","測地系判別":null,"地図名":"帯広市区画整理図Ｋ（５００）３","地図番号":"K5","縮尺分母":"500","市区町村コード":"01207","市区町村名":"帯広市","大字コード":"046","丁目コード":"007","小字コード":"0000","予備コード":"00","大字名":"西九条北","丁目名":"７丁目","小字名":null,"予備名":null,"地番":"8-7","精度区分":null,"座標値種別":"図上測量","筆界未定構成筆":null,"代表点緯度":280.5915,"代表点経度":455.727124821}},{"type":"MultiPolygon","arcs":[[[115,116,117,-111]]],"properties":{"筆ID":"H000000037","version":"ver1.0","座標系":"任意座標系","測地系判別":null,"地図名":"帯広市区画整理図Ｋ（５００）３","地図番号":"K5","縮尺分母":"500","市区町村コード":"01207","市区町村名":"帯広市","大字コード":"046","丁目コード":"007","小字コード":"0000","予備コード":"00","大字名":"西九条北","丁目名":"７丁目","小字名":null,"予備名":null,"地番":"8-8","精度区分":null,"座標値種別":"図上測量","筆界未定構成筆":null,"代表点緯度":282.5475,"代表点経度":477.018520061}},{"type":"MultiPolygon","arcs":[[[118,119,-21,-115]]],"properties":{"筆ID":"H000000038","version":"ver1.0","座標系":"任意座標系","測地系判別":null,"地図名":"帯広市区画整理図Ｋ（５００）３","地図番号":"K5","縮尺分母":"500","市区町村コード":"01207","市区町村名":"帯広市","大字コード":"046","丁目コード":"007","小字コード":"0000","予備コード":"00","大字名":"西九条北","丁目名":"７丁目","小字名":null,"予備名":null,"地番":"8-9","精度区分":null,"座標値種別":"図上測量","筆界未定構成筆":null,"代表点緯度":264.697,"代表点経度":457.116532343}},{"type":"MultiPolygon","arcs":[[[120,121,-117,122]]],"properties":{"筆ID":"H000000039","version":"ver1.0","座標系":"任意座標系","測地系判別":null,"地図名":"帯広市区画整理図Ｋ（５００）３","地図番号":"K5","縮尺分母":"500","市区町村コード":"01207","市区町村名":"帯広市","大字コード":"046","丁目コード":"007","小字コード":"0000","予備コード":"00","大字名":"西九条北","丁目名":"７丁目","小字名":null,"予備名":null,"地番":"8-10","精度区分":null,"座標値種別":"図上測量","筆界未定構成筆":null,"代表点緯度":266.6395,"代表点経度":478.412504716}},{"type":"MultiPolygon","arcs":[[[123,-110,-6,-105]]],"properties":{"筆ID":"H000000040","version":"ver1.0","座標系":"任意座標系","測地系判別":null,"地図名":"帯広市区画整理図Ｋ（５００）３","地図番号":"K5","縮尺分母":"500","市区町村コード":"01207","市区町村名":"帯広市","大字コード":"046","丁目コード":"007","小字コード":"0000","予備コード":"00","大字名":"西九条北","丁目名":"７丁目","小字名":null,"予備名":null,"地番":"8-12","精度区分":null,"座標値種別":"図上測量","筆界未定構成筆":null,"代表点緯度":311.6335,"代表点経度":452.861887026}},{"type":"MultiPolygon","arcs":[[[124,-114,-108,-118]]],"properties":{"筆ID":"H000000041","version":"ver1.0","座標系":"任意座標系","測地系判別":null,"地図名":"帯広市区画整理図Ｋ（５００）３","地図番号":"K5","縮尺分母":"500","市区町村コード":"01207","市区町村名":"帯広市","大字コード":"046","丁目コード":"007","小字コード":"0000","予備コード":"00","大字名":"西九条北","丁目名":"７丁目","小字名":null,"予備名":null,"地番":"8-13","精度区分":null,"座標値種別":"図上測量","筆界未定構成筆":null,"代表点緯度":281.468,"代表点経度":465.265891949}},{"type":"MultiPolygon","arcs":[[[-122,125,-119,-125]]],"properties":{"筆ID":"H000000042","version":"ver1.0","座標系":"任意座標系","測地系判別":null,"地図名":"帯広市区画整理図Ｋ（５００）３","地図番号":"K5","縮尺分母":"500","市区町村コード":"01207","市区町村名":"帯広市","大字コード":"046","丁目コード":"007","小字コード":"0000","予備コード":"00","大字名":"西九条北","丁目名":"７丁目","小字名":null,"予備名":null,"地番":"8-14","精度区分":null,"座標値種別":"図上測量","筆界未定構成筆":null,"代表点緯度":265.568,"代表点経度":466.64975688}},{"type":"MultiPolygon","arcs":[[[126,127,-35,128]]],"properties":{"筆ID":"H000000043","version":"ver1.0","座標系":"任意座標系","測地系判別":null,"地図名":"帯広市区画整理図Ｋ（５００）３","地図番号":"K5","縮尺分母":"500","市区町村コード":"01207","市区町村名":"帯広市","大字コード":"046","丁目コード":"007","小字コード":"0000","予備コード":"00","大字名":"西九条北","丁目名":"７丁目","小字名":null,"予備名":null,"地番":"9-1","精度区分":null,"座標値種別":"図上測量","筆界未定構成筆":null,"代表点緯度":189.843,"代表点経度":410.772518339}},{"type":"MultiPolygon","arcs":[[[129,130,-129,-34]]],"properties":{"筆ID":"H000000044","version":"ver1.0","座標系":"任意座標系","測地系判別":null,"地図名":"帯広市区画整理図Ｋ（５００）３","地図番号":"K5","縮尺分母":"500","市区町村コード":"01207","市区町村名":"帯広市","大字コード":"046","丁目コード":"007","小字コード":"0000","予備コード":"00","大字名":"西九条北","丁目名":"７丁目","小字名":null,"予備名":null,"地番":"9-2","精度区分":null,"座標値種別":"図上測量","筆界未定構成筆":null,"代表点緯度":190.8055,"代表点経度":421.566743183}},{"type":"MultiPolygon","arcs":[[[131,132,-130,-33]]],"properties":{"筆ID":"H000000045","version":"ver1.0","座標系":"任意座標系","測地系判別":null,"地図名":"帯広市区画整理図Ｋ（５００）３","地図番号":"K5","縮尺分母":"500","市区町村コード":"01207","市区町村名":"帯広市","大字コード":"046","丁目コード":"007","小字コード":"0000","予備コード":"00","大字名":"西九条北","丁目名":"７丁目","小字名":null,"予備名":null,"地番":"9-3","精度区分":null,"座標値種別":"図上測量","筆界未定構成筆":null,"代表点緯度":191.979,"代表点経度":434.687281149}},{"type":"MultiPolygon","arcs":[[[133,134,135,-132,-32]]],"properties":{"筆ID":"H000000046","version":"ver1.0","座標系":"任意座標系","測地系判別":null,"地図名":"帯広市区画整理図Ｋ（５００）３","地図番号":"K5","縮尺分母":"500","市区町村コード":"01207","市区町村名":"帯広市","大字コード":"046","丁目コード":"007","小字コード":"0000","予備コード":"00","大字名":"西九条北","丁目名":"７丁目","小字名":null,"予備名":null,"地番":"9-4","精度区分":null,"座標値種別":"図上測量","筆界未定構成筆":null,"代表点緯度":193.156,"代表点経度":447.853065474}},{"type":"MultiPolygon","arcs":[[[136,-135,137,138]]],"properties":{"筆ID":"H000000047","version":"ver1.0","座標系":"任意座標系","測地系判別":null,"地図名":"帯広市区画整理図Ｋ（５００）３","地図番号":"K5","縮尺分母":"500","市区町村コード":"01207","市区町村名":"帯広市","大字コード":"046","丁目コード":"007","小字コード":"0000","予備コード":"00","大字名":"西九条北","丁目名":"７丁目","小字名":null,"予備名":null,"地番":"9-5","精度区分":null,"座標値種別":"図上測量","筆界未定構成筆":null,"代表点緯度":194.314,"代表点経度":461.129303423}},{"type":"MultiPolygon","arcs":[[[139,-139,140,141]]],"properties":{"筆ID":"H000000048","version":"ver1.0","座標系":"任意座標系","測地系判別":null,"地図名":"帯広市区画整理図Ｋ（５００）３","地図番号":"K5","縮尺分母":"500","市区町村コード":"01207","市区町村名":"帯広市","大字コード":"046","丁目コード":"007","小字コード":"0000","予備コード":"00","大字名":"西九条北","丁目名":"７丁目","小字名":null,"予備名":null,"地番":"9-6","精度区分":null,"座標値種別":"図上測量","筆界未定構成筆":null,"代表点緯度":195.477,"代表点経度":474.345429489}},{"type":"MultiPolygon","arcs":[[[142,143,-142,144]]],"properties":{"筆ID":"H000000049","version":"ver1.0","座標系":"任意座標系","測地系判別":null,"地図名":"帯広市区画整理図Ｋ（５００）３","地図番号":"K5","縮尺分母":"500","市区町村コード":"01207","市区町村名":"帯広市","大字コード":"046","丁目コード":"007","小字コード":"0000","予備コード":"00","大字名":"西九条北","丁目名":"７丁目","小字名":null,"予備名":null,"地番":"9-7","精度区分":null,"座標値種別":"図上測量","筆界未定構成筆":null,"代表点緯度":195.527,"代表点経度":487.634907035}},{"type":"MultiPolygon","arcs":[[[145,146,147,148,149,150,151,152,153,154,155,156]]],"properties":{"筆ID":"H000000050","version":"ver1.0","座標系":"任意座標系","測地系判別":null,"地図名":"帯広市区画整理図Ｋ（５００）３","地図番号":"K4","縮尺分母":"500","市区町村コード":"01207","市区町村名":"帯広市","大字コード":"048","丁目コード":"007","小字コード":"0000","予備コード":"00","大字名":"西十条北","丁目名":"７丁目","小字名":null,"予備名":null,"地番":"1-1","精度区分":null,"座標値種別":"図上測量","筆界未定構成筆":null,"代表点緯度":438.7705,"代表点経度":301.470968293}},{"type":"MultiPolygon","arcs":[[[157,158,-155]]],"properties":{"筆ID":"H000000051","version":"ver1.0","座標系":"任意座標系","測地系判別":null,"地図名":"帯広市区画整理図Ｋ（５００）３","地図番号":"K4","縮尺分母":"500","市区町村コード":"01207","市区町村名":"帯広市","大字コード":"048","丁目コード":"007","小字コード":"0000","予備コード":"00","大字名":"西十条北","丁目名":"７丁目","小字名":null,"予備名":null,"地番":"1-2","精度区分":null,"座標値種別":"図上測量","筆界未定構成筆":null,"代表点緯度":428.193,"代表点経度":231.043675689}},{"type":"MultiPolygon","arcs":[[[159,160,161,162,163,164,165,166,167,168,169,170,171]]],"properties":{"筆ID":"H000000052","version":"ver1.0","座標系":"任意座標系","測地系判別":null,"地図名":"帯広市区画整理図Ｋ（５００）３","地図番号":"K4","縮尺分母":"500","市区町村コード":"01207","市区町村名":"帯広市","大字コード":"048","丁目コード":"007","小字コード":"0000","予備コード":"00","大字名":"西十条北","丁目名":"７丁目","小字名":null,"予備名":null,"地番":"3-1","精度区分":null,"座標値種別":"図上測量","筆界未定構成筆":null,"代表点緯度":351.7575,"代表点経度":259.762705068}},{"type":"MultiPolygon","arcs":[[[172,173,174,175,176,177,178,179,180,-167,181,182,183]]],"properties":{"筆ID":"H000000053","version":"ver1.0","座標系":"任意座標系","測地系判別":null,"地図名":"帯広市区画整理図Ｋ（５００）３","地図番号":"K5","縮尺分母":"500","市区町村コード":"01207","市区町村名":"帯広市","大字コード":"048","丁目コード":"007","小字コード":"0000","予備コード":"00","大字名":"西十条北","丁目名":"７丁目","小字名":null,"予備名":null,"地番":"3-2","精度区分":null,"座標値種別":"図上測量","筆界未定構成筆":null,"代表点緯度":365.533,"代表点経度":350.472237839}},{"type":"MultiPolygon","arcs":[[[184,185,186,187,188,-168,-181]]],"properties":{"筆ID":"H000000054","version":"ver1.0","座標系":"任意座標系","測地系判別":null,"地図名":"帯広市区画整理図Ｋ（５００）３","地図番号":"K5","縮尺分母":"500","市区町村コード":"01207","市区町村名":"帯広市","大字コード":"048","丁目コード":"007","小字コード":"0000","予備コード":"00","大字名":"西十条北","丁目名":"７丁目","小字名":null,"予備名":null,"地番":"3-3","精度区分":null,"座標値種別":"図上測量","筆界未定構成筆":null,"代表点緯度":316.0435,"代表点経度":355.659617937}},{"type":"MultiPolygon","arcs":[[[-188,189,190,191,-12,192,193,194,195,196,197]]],"properties":{"筆ID":"H000000055","version":"ver1.0","座標系":"任意座標系","測地系判別":null,"地図名":"帯広市区画整理図Ｋ（５００）３","地図番号":"K5","縮尺分母":"500","市区町村コード":"01207","市区町村名":"帯広市","大字コード":"048","丁目コード":"007","小字コード":"0000","予備コード":"00","大字名":"西十条北","丁目名":"７丁目","小字名":null,"予備名":null,"地番":"3-4","精度区分":null,"座標値種別":"図上測量","筆界未定構成筆":null,"代表点緯度":300.3245,"代表点経度":365.263037826}},{"type":"MultiPolygon","arcs":[[[-198,198,-169,-189]]],"properties":{"筆ID":"H000000056","version":"ver1.0","座標系":"任意座標系","測地系判別":null,"地図名":"帯広市区画整理図Ｋ（５００）３","地図番号":"K5","縮尺分母":"500","市区町村コード":"01207","市区町村名":"帯広市","大字コード":"048","丁目コード":"007","小字コード":"0000","予備コード":"00","大字名":"西十条北","丁目名":"７丁目","小字名":null,"予備名":null,"地番":"6-2","精度区分":null,"座標値種別":"図上測量","筆界未定構成筆":null,"代表点緯度":321.969,"代表点経度":333.516080669}},{"type":"MultiPolygon","arcs":[[[199,200,201,-158,-154]]],"properties":{"筆ID":"H000000057","version":"ver1.0","座標系":"任意座標系","測地系判別":null,"地図名":"帯広市区画整理図Ｋ（５００）３","地図番号":"K4","縮尺分母":"500","市区町村コード":"01207","市区町村名":"帯広市","大字コード":"048","丁目コード":"007","小字コード":"0000","予備コード":"00","大字名":"西十条北","丁目名":"７丁目","小字名":null,"予備名":null,"地番":"10-1","精度区分":null,"座標値種別":"図上測量","筆界未定構成筆":null,"代表点緯度":422.0835,"代表点経度":238.234425083}},{"type":"MultiPolygon","arcs":[[[202,203,204,205]]],"properties":{"筆ID":"H000000058","version":"ver1.0","座標系":"任意座標系","測地系判別":null,"地図名":"帯広市区画整理図Ｋ（５００）３","地図番号":"K4","縮尺分母":"500","市区町村コード":"01207","市区町村名":"帯広市","大字コード":"048","丁目コード":"007","小字コード":"0000","予備コード":"00","大字名":"西十条北","丁目名":"７丁目","小字名":null,"予備名":null,"地番":"10-2","精度区分":null,"座標値種別":"図上測量","筆界未定構成筆":null,"代表点緯度":397.853,"代表点経度":240.412100381}},{"type":"MultiPolygon","arcs":[[[206,207,208,-149]]],"properties":{"筆ID":"H000000059","version":"ver1.0","座標系":"任意座標系","測地系判別":null,"地図名":"帯広市区画整理図Ｋ（５００）３","地図番号":"K4","縮尺分母":"500","市区町村コード":"01207","市区町村名":"帯広市","大字コード":"048","丁目コード":"007","小字コード":"0000","予備コード":"00","大字名":"西十条北","丁目名":"７丁目","小字名":null,"予備名":null,"地番":"10-10","精度区分":null,"座標値種別":"図上測量","筆界未定構成筆":null,"代表点緯度":428.529,"代表点経度":320.978102064}},{"type":"MultiPolygon","arcs":[[[209,-207,-148,210]]],"properties":{"筆ID":"H000000060","version":"ver1.0","座標系":"任意座標系","測地系判別":null,"地図名":"帯広市区画整理図Ｋ（５００）３","地図番号":"K4","縮尺分母":"500","市区町村コード":"01207","市区町村名":"帯広市","大字コード":"048","丁目コード":"007","小字コード":"0000","予備コード":"00","大字名":"西十条北","丁目名":"７丁目","小字名":null,"予備名":null,"地番":"10-12","精度区分":null,"座標値種別":"図上測量","筆界未定構成筆":null,"代表点緯度":428.5505,"代表点経度":333.462127423}},{"type":"MultiPolygon","arcs":[[[211,212,-210]]],"properties":{"筆ID":"H000000061","version":"ver1.0","座標系":"任意座標系","測地系判別":null,"地図名":"帯広市区画整理図Ｋ（５００）３","地図番号":"K4","縮尺分母":"500","市区町村コード":"01207","市区町村名":"帯広市","大字コード":"048","丁目コード":"007","小字コード":"0000","予備コード":"00","大字名":"西十条北","丁目名":"７丁目","小字名":null,"予備名":null,"地番":"10-13","精度区分":null,"座標値種別":"図上測量","筆界未定構成筆":null,"代表点緯度":411.064,"代表点経度":335.075658483}},{"type":"MultiPolygon","arcs":[[[213,214,215,-201]]],"properties":{"筆ID":"H000000062","version":"ver1.0","座標系":"任意座標系","測地系判別":null,"地図名":"帯広市区画整理図Ｋ（５００）３","地図番号":"K4","縮尺分母":"500","市区町村コード":"01207","市区町村名":"帯広市","大字コード":"048","丁目コード":"007","小字コード":"0000","予備コード":"00","大字名":"西十条北","丁目名":"７丁目","小字名":null,"予備名":null,"地番":"10-14","精度区分":null,"座標値種別":"図上測量","筆界未定構成筆":null,"代表点緯度":413.7375,"代表点経度":238.984585887}},{"type":"MultiPolygon","arcs":[[[-206,216,-215,217]]],"properties":{"筆ID":"H000000063","version":"ver1.0","座標系":"任意座標系","測地系判別":null,"地図名":"帯広市区画整理図Ｋ（５００）３","地図番号":"K4","縮尺分母":"500","市区町村コード":"01207","市区町村名":"帯広市","大字コード":"048","丁目コード":"007","小字コード":"0000","予備コード":"00","大字名":"西十条北","丁目名":"７丁目","小字名":null,"予備名":null,"地番":"10-15","精度区分":null,"座標値種別":"図上測量","筆界未定構成筆":null,"代表点緯度":406.9385,"代表点経度":239.595708756}},{"type":"MultiPolygon","arcs":[[[218,219,220,-172,221,222]]],"properties":{"筆ID":"H000000064","version":"ver1.0","座標系":"任意座標系","測地系判別":null,"地図名":"帯広市区画整理図Ｋ（５００）３","地図番号":"K4","縮尺分母":"500","市区町村コード":"01207","市区町村名":"帯広市","大字コード":"048","丁目コード":"007","小字コード":"0000","予備コード":"00","大字名":"西十条北","丁目名":"７丁目","小字名":null,"予備名":null,"地番":"11-1","精度区分":null,"座標値種別":"図上測量","筆界未定構成筆":null,"代表点緯度":372.7955,"代表点経度":242.684843339}},{"type":"MultiPolygon","arcs":[[[223,-219,224,225]]],"properties":{"筆ID":"H000000065","version":"ver1.0","座標系":"任意座標系","測地系判別":null,"地図名":"帯広市区画整理図Ｋ（５００）３","地図番号":"K4","縮尺分母":"500","市区町村コード":"01207","市区町村名":"帯広市","大字コード":"048","丁目コード":"007","小字コード":"0000","予備コード":"00","大字名":"西十条北","丁目名":"７丁目","小字名":null,"予備名":null,"地番":"11-2","精度区分":null,"座標値種別":"図上測量","筆界未定構成筆":null,"代表点緯度":375.927,"代表点経度":256.881661237}},{"type":"MultiPolygon","arcs":[[[226,-160,-221,227]]],"properties":{"筆ID":"H000000066","version":"ver1.0","座標系":"任意座標系","測地系判別":null,"地図名":"帯広市区画整理図Ｋ（５００）３","地図番号":"K4","縮尺分母":"500","市区町村コード":"01207","市区町村名":"帯広市","大字コード":"048","丁目コード":"007","小字コード":"0000","予備コード":"00","大字名":"西十条北","丁目名":"７丁目","小字名":null,"予備名":null,"地番":"11-3","精度区分":null,"座標値種別":"図上測量","筆界未定構成筆":null,"代表点緯度":361.874,"代表点経度":258.150601052}},{"type":"MultiPolygon","arcs":[[[228,229,230,-226,231,232]]],"properties":{"筆ID":"H000000067","version":"ver1.0","座標系":"任意座標系","測地系判別":null,"地図名":"帯広市区画整理図Ｋ（５００）３","地図番号":"K4","縮尺分母":"500","市区町村コード":"01207","市区町村名":"帯広市","大字コード":"048","丁目コード":"007","小字コード":"0000","予備コード":"00","大字名":"西十条北","丁目名":"７丁目","小字名":null,"予備名":null,"地番":"11-4","精度区分":null,"座標値種別":"図上測量","筆界未定構成筆":null,"代表点緯度":376.594,"代表点経度":270.792283788}},{"type":"MultiPolygon","arcs":[[[233,234,-233,235]]],"properties":{"筆ID":"H000000068","version":"ver1.0","座標系":"任意座標系","測地系判別":null,"地図名":"帯広市区画整理図Ｋ（５００）３","地図番号":"K4","縮尺分母":"500","市区町村コード":"01207","市区町村名":"帯広市","大字コード":"048","丁目コード":"007","小字コード":"0000","予備コード":"00","大字名":"西十条北","丁目名":"７丁目","小字名":null,"予備名":null,"地番":"11-5","精度区分":null,"座標値種別":"図上測量","筆界未定構成筆":null,"代表点緯度":377.774,"代表点経度":284.592615339}},{"type":"MultiPolygon","arcs":[[[236,237,-162,238,-229,-235]]],"properties":{"筆ID":"H000000069","version":"ver1.0","座標系":"任意座標系","測地系判別":null,"地図名":"帯広市区画整理図Ｋ（５００）３","地図番号":"K4","縮尺分母":"500","市区町村コード":"01207","市区町村名":"帯広市","大字コード":"048","丁目コード":"007","小字コード":"0000","予備コード":"00","大字名":"西十条北","丁目名":"７丁目","小字名":null,"予備名":null,"地番":"11-6","精度区分":null,"座標値種別":"図上測量","筆界未定構成筆":null,"代表点緯度":359.1745,"代表点経度":285.727900482}},{"type":"MultiPolygon","arcs":[[[239,-237,-234,240,241]]],"properties":{"筆ID":"H000000070","version":"ver1.0","座標系":"任意座標系","測地系判別":null,"地図名":"帯広市区画整理図Ｋ（５００）３","地図番号":"K4","縮尺分母":"500","市区町村コード":"01207","市区町村名":"帯広市","大字コード":"048","丁目コード":"007","小字コード":"0000","予備コード":"00","大字名":"西十条北","丁目名":"７丁目","小字名":null,"予備名":null,"地番":"11-7","精度区分":null,"座標値種別":"図上測量","筆界未定構成筆":null,"代表点緯度":378.438,"代表点経度":296.918362025}},{"type":"MultiPolygon","arcs":[[[242,-163,-238,-240,243]]],"properties":{"筆ID":"H000000071","version":"ver1.0","座標系":"任意座標系","測地系判別":null,"地図名":"帯広市区画整理図Ｋ（５００）３","地図番号":"K4","縮尺分母":"500","市区町村コード":"01207","市区町村名":"帯広市","大字コード":"048","丁目コード":"007","小字コード":"0000","予備コード":"00","大字名":"西十条北","丁目名":"７丁目","小字名":null,"予備名":null,"地番":"11-8","精度区分":null,"座標値種別":"図上測量","筆界未定構成筆":null,"代表点緯度":357.976,"代表点経度":299.966356217}},{"type":"MultiPolygon","arcs":[[[244,245,-164,-243,246]]],"properties":{"筆ID":"H000000072","version":"ver1.0","座標系":"任意座標系","測地系判別":null,"地図名":"帯広市区画整理図Ｋ（５００）３","地図番号":"K4","縮尺分母":"500","市区町村コード":"01207","市区町村名":"帯広市","大字コード":"048","丁目コード":"007","小字コード":"0000","予備コード":"00","大字名":"西十条北","丁目名":"７丁目","小字名":null,"予備名":null,"地番":"11-10","精度区分":null,"座標値種別":"図上測量","筆界未定構成筆":null,"代表点緯度":359.212,"代表点経度":312.981262762}},{"type":"MultiPolygon","arcs":[[[247,248,-165,-246,249]]],"properties":{"筆ID":"H000000073","version":"ver1.0","座標系":"任意座標系","測地系判別":null,"地図名":"帯広市区画整理図Ｋ（５００）３","地図番号":"K4","縮尺分母":"500","市区町村コード":"01207","市区町村名":"帯広市","大字コード":"048","丁目コード":"007","小字コード":"0000","予備コード":"00","大字名":"西十条北","丁目名":"７丁目","小字名":null,"予備名":null,"地番":"11-12","精度区分":null,"座標値種別":"図上測量","筆界未定構成筆":null,"代表点緯度":360.456,"代表点経度":326.101726839}},{"type":"MultiPolygon","arcs":[[[250,-182,-166,-249,251]]],"properties":{"筆ID":"H000000074","version":"ver1.0","座標系":"任意座標系","測地系判別":null,"地図名":"帯広市区画整理図Ｋ（５００）３","地図番号":"K4","縮尺分母":"500","市区町村コード":"01207","市区町村名":"帯広市","大字コード":"048","丁目コード":"007","小字コード":"0000","予備コード":"00","大字名":"西十条北","丁目名":"７丁目","小字名":null,"予備名":null,"地番":"11-14","精度区分":null,"座標値種別":"図上測量","筆界未定構成筆":null,"代表点緯度":363.429,"代表点経度":339.081368231}},{"type":"MultiPolygon","arcs":[[[-231,-228,-220,-224]]],"properties":{"筆ID":"H000000075","version":"ver1.0","座標系":"任意座標系","測地系判別":null,"地図名":"帯広市区画整理図Ｋ（５００）３","地図番号":"K4","縮尺分母":"500","市区町村コード":"01207","市区町村名":"帯広市","大字コード":"048","丁目コード":"007","小字コード":"0000","予備コード":"00","大字名":"西十条北","丁目名":"７丁目","小字名":null,"予備名":null,"地番":"11-15","精度区分":null,"座標値種別":"図上測量","筆界未定構成筆":null,"代表点緯度":367.515,"代表点経度":257.641514951}},{"type":"MultiPolygon","arcs":[[[-239,-161,-227,-230]]],"properties":{"筆ID":"H000000076","version":"ver1.0","座標系":"任意座標系","測地系判別":null,"地図名":"帯広市区画整理図Ｋ（５００）３","地図番号":"K4","縮尺分母":"500","市区町村コード":"01207","市区町村名":"帯広市","大字コード":"048","丁目コード":"007","小字コード":"0000","予備コード":"00","大字名":"西十条北","丁目名":"７丁目","小字名":null,"予備名":null,"地番":"11-16","精度区分":null,"座標値種別":"図上測量","筆界未定構成筆":null,"代表点緯度":360.8295,"代表点経度":271.66234869}},{"type":"MultiPolygon","arcs":[[[-247,-244,-242,252,253]]],"properties":{"筆ID":"H000000077","version":"ver1.0","座標系":"任意座標系","測地系判別":null,"地図名":"帯広市区画整理図Ｋ（５００）３","地図番号":"K4","縮尺分母":"500","市区町村コード":"01207","市区町村名":"帯広市","大字コード":"048","丁目コード":"007","小字コード":"0000","予備コード":"00","大字名":"西十条北","丁目名":"７丁目","小字名":null,"予備名":null,"地番":"11-17","精度区分":null,"座標値種別":"図上測量","筆界未定構成筆":null,"代表点緯度":378.553,"代表点経度":307.860156316}},{"type":"MultiPolygon","arcs":[[[254,-250,-245,-254,255]]],"properties":{"筆ID":"H000000078","version":"ver1.0","座標系":"任意座標系","測地系判別":null,"地図名":"帯広市区画整理図Ｋ（５００）３","地図番号":"K4","縮尺分母":"500","市区町村コード":"01207","市区町村名":"帯広市","大字コード":"048","丁目コード":"007","小字コード":"0000","予備コード":"00","大字名":"西十条北","丁目名":"７丁目","小字名":null,"予備名":null,"地番":"11-18","精度区分":null,"座標値種別":"図上測量","筆界未定構成筆":null,"代表点緯度":379.595,"代表点経度":318.707832753}},{"type":"MultiPolygon","arcs":[[[256,-252,-248,-255,257]]],"properties":{"筆ID":"H000000079","version":"ver1.0","座標系":"任意座標系","測地系判別":null,"地図名":"帯広市区画整理図Ｋ（５００）３","地図番号":"K4","縮尺分母":"500","市区町村コード":"01207","市区町村名":"帯広市","大字コード":"048","丁目コード":"007","小字コード":"0000","予備コード":"00","大字名":"西十条北","丁目名":"７丁目","小字名":null,"予備名":null,"地番":"11-19","精度区分":null,"座標値種別":"図上測量","筆界未定構成筆":null,"代表点緯度":380.6325,"代表点経度":329.540552089}},{"type":"MultiPolygon","arcs":[[[-251,-257,258,-183]]],"properties":{"筆ID":"H000000080","version":"ver1.0","座標系":"任意座標系","測地系判別":null,"地図名":"帯広市区画整理図Ｋ（５００）３","地図番号":"K4","縮尺分母":"500","市区町村コード":"01207","市区町村名":"帯広市","大字コード":"048","丁目コード":"007","小字コード":"0000","予備コード":"00","大字名":"西十条北","丁目名":"７丁目","小字名":null,"予備名":null,"地番":"11-20","精度区分":null,"座標値種別":"図上測量","筆界未定構成筆":null,"代表点緯度":380.2955,"代表点経度":339.568902837}},{"type":"MultiPolygon","arcs":[[[259,260,261,-146]]],"properties":{"筆ID":"H000000081","version":"ver1.0","座標系":"任意座標系","測地系判別":null,"地図名":"帯広市区画整理図Ｋ（５００）３","地図番号":"K4","縮尺分母":"500","市区町村コード":"01207","市区町村名":"帯広市","大字コード":"048","丁目コード":"007","小字コード":"0000","予備コード":"00","大字名":"西十条北","丁目名":"７丁目","小字名":null,"予備名":null,"地番":"12-1","精度区分":null,"座標値種別":"図上測量","筆界未定構成筆":null,"代表点緯度":431.9375,"代表点経度":358.256612312}},{"type":"MultiPolygon","arcs":[[[262,263,-261,264]]],"properties":{"筆ID":"H000000082","version":"ver1.0","座標系":"任意座標系","測地系判別":null,"地図名":"帯広市区画整理図Ｋ（５００）３","地図番号":"K4","縮尺分母":"500","市区町村コード":"01207","市区町村名":"帯広市","大字コード":"048","丁目コード":"007","小字コード":"0000","予備コード":"00","大字名":"西十条北","丁目名":"７丁目","小字名":null,"予備名":null,"地番":"12-2","精度区分":null,"座標値種別":"図上測量","筆界未定構成筆":null,"代表点緯度":416.509,"代表点経度":359.697748917}},{"type":"MultiPolygon","arcs":[[[265,-173,266,-263,267]]],"properties":{"筆ID":"H000000083","version":"ver1.0","座標系":"任意座標系","測地系判別":null,"地図名":"帯広市区画整理図Ｋ（５００）３","地図番号":"K4","縮尺分母":"500","市区町村コード":"01207","市区町村名":"帯広市","大字コード":"048","丁目コード":"007","小字コード":"0000","予備コード":"00","大字名":"西十条北","丁目名":"７丁目","小字名":null,"予備名":null,"地番":"12-3","精度区分":null,"座標値種別":"図上測量","筆界未定構成筆":null,"代表点緯度":399.9795,"代表点経度":361.241052882}},{"type":"MultiPolygon","arcs":[[[268,269,-174,-266]]],"properties":{"筆ID":"H000000084","version":"ver1.0","座標系":"任意座標系","測地系判別":null,"地図名":"帯広市区画整理図Ｋ（５００）３","地図番号":"K4","縮尺分母":"500","市区町村コード":"01207","市区町村名":"帯広市","大字コード":"048","丁目コード":"007","小字コード":"0000","予備コード":"00","大字名":"西十条北","丁目名":"７丁目","小字名":null,"予備名":null,"地番":"12-4","精度区分":null,"座標値種別":"図上測量","筆界未定構成筆":null,"代表点緯度":382.0305,"代表点経度":362.905333259}},{"type":"MultiPolygon","arcs":[[[-175,-270,270]]],"properties":{"筆ID":"H000000085","version":"ver1.0","座標系":"任意座標系","測地系判別":null,"地図名":"帯広市区画整理図Ｋ（５００）３","地図番号":"K4","縮尺分母":"500","市区町村コード":"01207","市区町村名":"帯広市","大字コード":"048","丁目コード":"007","小字コード":"0000","予備コード":"00","大字名":"西十条北","丁目名":"７丁目","小字名":null,"予備名":null,"地番":"12-5","精度区分":null,"座標値種別":"図上測量","筆界未定構成筆":null,"代表点緯度":365.801,"代表点経度":364.368354311}},{"type":"MultiPolygon","arcs":[[[271,-176,-271,272]]],"properties":{"筆ID":"H000000086","version":"ver1.0","座標系":"任意座標系","測地系判別":null,"地図名":"帯広市区画整理図Ｋ（５００）３","地図番号":"K5","縮尺分母":"500","市区町村コード":"01207","市区町村名":"帯広市","大字コード":"048","丁目コード":"007","小字コード":"0000","予備コード":"00","大字名":"西十条北","丁目名":"７丁目","小字名":null,"予備名":null,"地番":"12-6","精度区分":null,"座標値種別":"図上測量","筆界未定構成筆":null,"代表点緯度":366.279,"代表点経度":379.844365338}},{"type":"MultiPolygon","arcs":[[[-177,-272,273,-40]]],"properties":{"筆ID":"H000000087","version":"ver1.0","座標系":"任意座標系","測地系判別":null,"地図名":"帯広市区画整理図Ｋ（５００）３","地図番号":"K5","縮尺分母":"500","市区町村コード":"01207","市区町村名":"帯広市","大字コード":"048","丁目コード":"007","小字コード":"0000","予備コード":"00","大字名":"西十条北","丁目名":"７丁目","小字名":null,"予備名":null,"地番":"12-7","精度区分":null,"座標値種別":"図上測量","筆界未定構成筆":null,"代表点緯度":367.112,"代表点経度":388.862227264}},{"type":"MultiPolygon","arcs":[[[274,275,-185,-180]]],"properties":{"筆ID":"H000000088","version":"ver1.0","座標系":"任意座標系","測地系判別":null,"地図名":"帯広市区画整理図Ｋ（５００）３","地図番号":"K5","縮尺分母":"500","市区町村コード":"01207","市区町村名":"帯広市","大字コード":"048","丁目コード":"007","小字コード":"0000","予備コード":"00","大字名":"西十条北","丁目名":"７丁目","小字名":null,"予備名":null,"地番":"13-1","精度区分":null,"座標値種別":"図上測量","筆界未定構成筆":null,"代表点緯度":339.3745,"代表点経度":367.169580827}},{"type":"MultiPolygon","arcs":[[[276,277,-190,-187,278]]],"properties":{"筆ID":"H000000089","version":"ver1.0","座標系":"任意座標系","測地系判別":null,"地図名":"帯広市区画整理図Ｋ（５００）３","地図番号":"K5","縮尺分母":"500","市区町村コード":"01207","市区町村名":"帯広市","大字コード":"048","丁目コード":"007","小字コード":"0000","予備コード":"00","大字名":"西十条北","丁目名":"７丁目","小字名":null,"予備名":null,"地番":"13-2","精度区分":null,"座標値種別":"図上測量","筆界未定構成筆":null,"代表点緯度":316.0435,"代表点経度":369.903240715}},{"type":"MultiPolygon","arcs":[[[279,280,-277,281,-275,-179,-62]]],"properties":{"筆ID":"H000000090","version":"ver1.0","座標系":"任意座標系","測地系判別":null,"地図名":"帯広市区画整理図Ｋ（５００）３","地図番号":"K5","縮尺分母":"500","市区町村コード":"01207","市区町村名":"帯広市","大字コード":"048","丁目コード":"007","小字コード":"0000","予備コード":"00","大字名":"西十条北","丁目名":"７丁目","小字名":null,"予備名":null,"地番":"13-3","精度区分":null,"座標値種別":"図上測量","筆界未定構成筆":null,"代表点緯度":341.9765,"代表点経度":384.956283608}},{"type":"MultiPolygon","arcs":[[[282,-191,-278,-281]]],"properties":{"筆ID":"H000000091","version":"ver1.0","座標系":"任意座標系","測地系判別":null,"地図名":"帯広市区画整理図Ｋ（５００）３","地図番号":"K5","縮尺分母":"500","市区町村コード":"01207","市区町村名":"帯広市","大字コード":"048","丁目コード":"007","小字コード":"0000","予備コード":"00","大字名":"西十条北","丁目名":"７丁目","小字名":null,"予備名":null,"地番":"13-4","精度区分":null,"座標値種別":"図上測量","筆界未定構成筆":null,"代表点緯度":316.7025,"代表点経度":385.891580476}},{"type":"MultiPolygon","arcs":[[[-66,-192,-283,-280]]],"properties":{"筆ID":"H000000092","version":"ver1.0","座標系":"任意座標系","測地系判別":null,"地図名":"帯広市区画整理図Ｋ（５００）３","地図番号":"K5","縮尺分母":"500","市区町村コード":"01207","市区町村名":"帯広市","大字コード":"048","丁目コード":"007","小字コード":"0000","予備コード":"00","大字名":"西十条北","丁目名":"７丁目","小字名":null,"予備名":null,"地番":"13-5","精度区分":null,"座標値種別":"図上測量","筆界未定構成筆":null,"代表点緯度":317.4125,"代表点経度":393.619632936}},{"type":"MultiPolygon","arcs":[[[-279,-186,-276,-282]]],"properties":{"筆ID":"H000000093","version":"ver1.0","座標系":"任意座標系","測地系判別":null,"地図名":"帯広市区画整理図Ｋ（５００）３","地図番号":"K5","縮尺分母":"500","市区町村コード":"01207","市区町村名":"帯広市","大字コード":"048","丁目コード":"007","小字コード":"0000","予備コード":"00","大字名":"西十条北","丁目名":"７丁目","小字名":null,"予備名":null,"地番":"13-6","精度区分":null,"座標値種別":"図上測量","筆界未定構成筆":null,"代表点緯度":330.7335,"代表点経度":367.919631409}},{"type":"MultiPolygon","arcs":[[[283,284,-196,285]]],"properties":{"筆ID":"H000000094","version":"ver1.0","座標系":"任意座標系","測地系判別":null,"地図名":"帯広市区画整理図Ｋ（５００）３","地図番号":"K5","縮尺分母":"500","市区町村コード":"01207","市区町村名":"帯広市","大字コード":"048","丁目コード":"007","小字コード":"0000","予備コード":"00","大字名":"西十条北","丁目名":"７丁目","小字名":null,"予備名":null,"地番":"14-1","精度区分":null,"座標値種別":"図上測量","筆界未定構成筆":null,"代表点緯度":285.0115,"代表点経度":354.033954916}},{"type":"MultiPolygon","arcs":[[[286,287,-193,-76]]],"properties":{"筆ID":"H000000095","version":"ver1.0","座標系":"任意座標系","測地系判別":null,"地図名":"帯広市区画整理図Ｋ（５００）３","地図番号":"K5","縮尺分母":"500","市区町村コード":"01207","市区町村名":"帯広市","大字コード":"048","丁目コード":"007","小字コード":"0000","予備コード":"00","大字名":"西十条北","丁目名":"７丁目","小字名":null,"予備名":null,"地番":"14-6","精度区分":null,"座標値種別":"図上測量","筆界未定構成筆":null,"代表点緯度":288.92,"代表点経度":393.802114167}},{"type":"MultiPolygon","arcs":[[[-78,288,289,-287]]],"properties":{"筆ID":"H000000096","version":"ver1.0","座標系":"任意座標系","測地系判別":null,"地図名":"帯広市区画整理図Ｋ（５００）３","地図番号":"K5","縮尺分母":"500","市区町村コード":"01207","市区町村名":"帯広市","大字コード":"048","丁目コード":"007","小字コード":"0000","予備コード":"00","大字名":"西十条北","丁目名":"７丁目","小字名":null,"予備名":null,"地番":"14-7","精度区分":null,"座標値種別":"図上測量","筆界未定構成筆":null,"代表点緯度":268.8915,"代表点経度":395.472418711}},{"type":"MultiPolygon","arcs":[[[290,291,292]]],"properties":{"筆ID":"H000000097","version":"ver1.0","座標系":"任意座標系","測地系判別":null,"地図名":"帯広市区画整理図Ｋ（５００）３","地図番号":"K5","縮尺分母":"500","市区町村コード":"01207","市区町村名":"帯広市","大字コード":"048","丁目コード":"007","小字コード":"0000","予備コード":"00","大字名":"西十条北","丁目名":"７丁目","小字名":null,"予備名":null,"地番":"15-1","精度区分":null,"座標値種別":"図上測量","筆界未定構成筆":null,"代表点緯度":241.4575,"代表点経度":381.131703413}},{"type":"MultiPolygon","arcs":[[[293,-292,294]]],"properties":{"筆ID":"H000000098","version":"ver1.0","座標系":"任意座標系","測地系判別":null,"地図名":"帯広市区画整理図Ｋ（５００）３","地図番号":"K5","縮尺分母":"500","市区町村コード":"01207","市区町村名":"帯広市","大字コード":"048","丁目コード":"007","小字コード":"0000","予備コード":"00","大字名":"西十条北","丁目名":"７丁目","小字名":null,"予備名":null,"地番":"15-2","精度区分":null,"座標値種別":"図上測量","筆界未定構成筆":null,"代表点緯度":220.711,"代表点経度":386.138611981}},{"type":"MultiPolygon","arcs":[[[295,-291,296,-88]]],"properties":{"筆ID":"H000000099","version":"ver1.0","座標系":"任意座標系","測地系判別":null,"地図名":"帯広市区画整理図Ｋ（５００）３","地図番号":"K5","縮尺分母":"500","市区町村コード":"01207","市区町村名":"帯広市","大字コード":"048","丁目コード":"007","小字コード":"0000","予備コード":"00","大字名":"西十条北","丁目名":"７丁目","小字名":null,"予備名":null,"地番":"15-3","精度区分":null,"座標値種別":"図上測量","筆界未定構成筆":null,"代表点緯度":240.7485,"代表点経度":396.174184282}},{"type":"MultiPolygon","arcs":[[[-90,297,-295,-296]]],"properties":{"筆ID":"H000000100","version":"ver1.0","座標系":"任意座標系","測地系判別":null,"地図名":"帯広市区画整理図Ｋ（５００）３","地図番号":"K5","縮尺分母":"500","市区町村コード":"01207","市区町村名":"帯広市","大字コード":"048","丁目コード":"007","小字コード":"0000","予備コード":"00","大字名":"西十条北","丁目名":"７丁目","小字名":null,"予備名":null,"地番":"15-4","精度区分":null,"座標値種別":"図上測量","筆界未定構成筆":null,"代表点緯度":220.771,"代表点経度":397.863818543}},{"type":"MultiPolygon","arcs":[[[298,299,300]]],"properties":{"筆ID":"H000000101","version":"ver1.0","座標系":"任意座標系","測地系判別":null,"地図名":"帯広市区画整理図Ｋ（５００）３","地図番号":"K5","縮尺分母":"500","市区町村コード":"01207","市区町村名":"帯広市","大字コード":"048","丁目コード":"007","小字コード":"0000","予備コード":"00","大字名":"西十条北","丁目名":"７丁目","小字名":null,"予備名":null,"地番":"16-1","精度区分":null,"座標値種別":"図上測量","筆界未定構成筆":null,"代表点緯度":188.1605,"代表点経度":393.491101873}},{"type":"MultiPolygon","arcs":[[[-128,301,-299,302]]],"properties":{"筆ID":"H000000102","version":"ver1.0","座標系":"任意座標系","測地系判別":null,"地図名":"帯広市区画整理図Ｋ（５００）３","地図番号":"K5","縮尺分母":"500","市区町村コード":"01207","市区町村名":"帯広市","大字コード":"048","丁目コード":"007","小字コード":"0000","予備コード":"00","大字名":"西十条北","丁目名":"７丁目","小字名":null,"予備名":null,"地番":"16-2","精度区分":null,"座標値種別":"図上測量","筆界未定構成筆":null,"代表点緯度":189.2455,"代表点経度":404.102038227}},{"type":"MultiPolygon","arcs":[[[303,304,305,306,307,308,309,310,311,312,-156]]],"properties":{"筆ID":"H000000103","version":"ver1.0","座標系":"任意座標系","測地系判別":null,"地図名":"帯広市区画整理図Ｋ（５００）３","地図番号":"K4","縮尺分母":"500","市区町村コード":"01207","市区町村名":"帯広市","大字コード":"050","丁目コード":"007","小字コード":"0000","予備コード":"00","大字名":"西十一条北","丁目名":"７丁目","小字名":null,"予備名":null,"地番":"1-1","精度区分":null,"座標値種別":"図上測量","筆界未定構成筆":null,"代表点緯度":425.5855,"代表点経度":167.047372646}},{"type":"MultiPolygon","arcs":[[[313,314,315,316,317,318,319,320,321,322,323,324,325,326,327,328,329,-312,330]]],"properties":{"筆ID":"H000000104","version":"ver1.0","座標系":"任意座標系","測地系判別":null,"地図名":"帯広市区画整理図Ｋ（５００）３","地図番号":"K4","縮尺分母":"500","市区町村コード":"01207","市区町村名":"帯広市","大字コード":"050","丁目コード":"007","小字コード":"0000","予備コード":"00","大字名":"西十一条北","丁目名":"７丁目","小字名":null,"予備名":null,"地番":"1-2","精度区分":null,"座標値種別":"図上測量","筆界未定構成筆":null,"代表点緯度":395.5015,"代表点経度":121.580445205}},{"type":"MultiPolygon","arcs":[[[-202,-216,-217,-205,331,-222,-171,332,333,-321,334,335,-304,-159]]],"properties":{"筆ID":"H000000105","version":"ver1.0","座標系":"任意座標系","測地系判別":null,"地図名":"帯広市区画整理図Ｋ（５００）３","地図番号":"K4","縮尺分母":"500","市区町村コード":"01207","市区町村名":"帯広市","大字コード":"050","丁目コード":"007","小字コード":"0000","予備コード":"00","大字名":"西十一条北","丁目名":"７丁目","小字名":null,"予備名":null,"地番":"1-3","精度区分":null,"座標値種別":"図上測量","筆界未定構成筆":null,"代表点緯度":384.75,"代表点経度":228.130442703}},{"type":"MultiPolygon","arcs":[[[-311,336,337,-331]]],"properties":{"筆ID":"H000000106","version":"ver1.0","座標系":"任意座標系","測地系判別":null,"地図名":"帯広市区画整理図Ｋ（５００）３","地図番号":"K4","縮尺分母":"500","市区町村コード":"01207","市区町村名":"帯広市","大字コード":"050","丁目コード":"007","小字コード":"0000","予備コード":"00","大字名":"西十一条北","丁目名":"７丁目","小字名":null,"予備名":null,"地番":"4-1","精度区分":null,"座標値種別":"図上測量","筆界未定構成筆":null,"代表点緯度":408.382,"代表点経度":132.242790494}},{"type":"MultiPolygon","arcs":[[[-314,-338,338]]],"properties":{"筆ID":"H000000107","version":"ver1.0","座標系":"任意座標系","測地系判別":null,"地図名":"帯広市区画整理図Ｋ（５００）３","地図番号":"K4","縮尺分母":"500","市区町村コード":"01207","市区町村名":"帯広市","大字コード":"050","丁目コード":"007","小字コード":"0000","予備コード":"00","大字名":"西十一条北","丁目名":"７丁目","小字名":null,"予備名":null,"地番":"4-2","精度区分":null,"座標値種別":"図上測量","筆界未定構成筆":null,"代表点緯度":390.9605,"代表点経度":133.782559242}},{"type":"MultiPolygon","arcs":[[[339,-337,-310,340]]],"properties":{"筆ID":"H000000108","version":"ver1.0","座標系":"任意座標系","測地系判別":null,"地図名":"帯広市区画整理図Ｋ（５００）３","地図番号":"K4","縮尺分母":"500","市区町村コード":"01207","市区町村名":"帯広市","大字コード":"050","丁目コード":"007","小字コード":"0000","予備コード":"00","大字名":"西十一条北","丁目名":"７丁目","小字名":null,"予備名":null,"地番":"4-3","精度区分":null,"座標値種別":"図上測量","筆界未定構成筆":null,"代表点緯度":411.46,"代表点経度":145.493113442}},{"type":"MultiPolygon","arcs":[[[-315,-339,-340,341]]],"properties":{"筆ID":"H000000109","version":"ver1.0","座標系":"任意座標系","測地系判別":null,"地図名":"帯広市区画整理図Ｋ（５００）３","地図番号":"K4","縮尺分母":"500","市区町村コード":"01207","市区町村名":"帯広市","大字コード":"050","丁目コード":"007","小字コード":"0000","予備コード":"00","大字名":"西十一条北","丁目名":"７丁目","小字名":null,"予備名":null,"地番":"4-4","精度区分":null,"座標値種別":"図上測量","筆界未定構成筆":null,"代表点緯度":391.219,"代表点経度":147.321037288}},{"type":"MultiPolygon","arcs":[[[342,343,-341,-309]]],"properties":{"筆ID":"H000000110","version":"ver1.0","座標系":"任意座標系","測地系判別":null,"地図名":"帯広市区画整理図Ｋ（５００）３","地図番号":"K4","縮尺分母":"500","市区町村コード":"01207","市区町村名":"帯広市","大字コード":"050","丁目コード":"007","小字コード":"0000","予備コード":"00","大字名":"西十一条北","丁目名":"７丁目","小字名":null,"予備名":null,"地番":"4-5","精度区分":null,"座標値種別":"図上測量","筆界未定構成筆":null,"代表点緯度":412.773,"代表点経度":158.956867672}},{"type":"MultiPolygon","arcs":[[[-316,-342,-344,344]]],"properties":{"筆ID":"H000000111","version":"ver1.0","座標系":"任意座標系","測地系判別":null,"地図名":"帯広市区画整理図Ｋ（５００）３","地図番号":"K4","縮尺分母":"500","市区町村コード":"01207","市区町村名":"帯広市","大字コード":"050","丁目コード":"007","小字コード":"0000","予備コード":"00","大字名":"西十一条北","丁目名":"７丁目","小字名":null,"予備名":null,"地番":"4-6","精度区分":null,"座標値種別":"図上測量","筆界未定構成筆":null,"代表点緯度":392.5085,"代表点経度":160.801670685}},{"type":"MultiPolygon","arcs":[[[345,346,-343,-308]]],"properties":{"筆ID":"H000000112","version":"ver1.0","座標系":"任意座標系","測地系判別":null,"地図名":"帯広市区画整理図Ｋ（５００）３","地図番号":"K4","縮尺分母":"500","市区町村コード":"01207","市区町村名":"帯広市","大字コード":"050","丁目コード":"007","小字コード":"0000","予備コード":"00","大字名":"西十一条北","丁目名":"７丁目","小字名":null,"予備名":null,"地番":"4-7","精度区分":null,"座標値種別":"図上測量","筆界未定構成筆":null,"代表点緯度":414.084,"代表点経度":172.375786814}},{"type":"MultiPolygon","arcs":[[[-317,-345,-347,347]]],"properties":{"筆ID":"H000000113","version":"ver1.0","座標系":"任意座標系","測地系判別":null,"地図名":"帯広市区画整理図Ｋ（５００）３","地図番号":"K4","縮尺分母":"500","市区町村コード":"01207","市区町村名":"帯広市","大字コード":"050","丁目コード":"007","小字コード":"0000","予備コード":"00","大字名":"西十一条北","丁目名":"７丁目","小字名":null,"予備名":null,"地番":"4-8","精度区分":null,"座標値種別":"図上測量","筆界未定構成筆":null,"代表点緯度":393.794,"代表点経度":174.216582555}},{"type":"MultiPolygon","arcs":[[[348,349,-346,-307]]],"properties":{"筆ID":"H000000114","version":"ver1.0","座標系":"任意座標系","測地系判別":null,"地図名":"帯広市区画整理図Ｋ（５００）３","地図番号":"K4","縮尺分母":"500","市区町村コード":"01207","市区町村名":"帯広市","大字コード":"050","丁目コード":"007","小字コード":"0000","予備コード":"00","大字名":"西十一条北","丁目名":"７丁目","小字名":null,"予備名":null,"地番":"4-9","精度区分":null,"座標値種別":"図上測量","筆界未定構成筆":null,"代表点緯度":415.3935,"代表点経度":185.801431701}},{"type":"MultiPolygon","arcs":[[[350,-318,-348,-350]]],"properties":{"筆ID":"H000000115","version":"ver1.0","座標系":"任意座標系","測地系判別":null,"地図名":"帯広市区画整理図Ｋ（５００）３","地図番号":"K4","縮尺分母":"500","市区町村コード":"01207","市区町村名":"帯広市","大字コード":"050","丁目コード":"007","小字コード":"0000","予備コード":"00","大字名":"西十一条北","丁目名":"７丁目","小字名":null,"予備名":null,"地番":"4-10","精度区分":null,"座標値種別":"図上測量","筆界未定構成筆":null,"代表点緯度":395.078,"代表点経度":187.632273181}},{"type":"MultiPolygon","arcs":[[[351,-349,-306,352]]],"properties":{"筆ID":"H000000116","version":"ver1.0","座標系":"任意座標系","測地系判別":null,"地図名":"帯広市区画整理図Ｋ（５００）３","地図番号":"K4","縮尺分母":"500","市区町村コード":"01207","市区町村名":"帯広市","大字コード":"050","丁目コード":"007","小字コード":"0000","予備コード":"00","大字名":"西十一条北","丁目名":"７丁目","小字名":null,"予備名":null,"地番":"4-11","精度区分":null,"座標値種別":"図上測量","筆界未定構成筆":null,"代表点緯度":416.7,"代表点経度":199.158936527}},{"type":"MultiPolygon","arcs":[[[353,-319,-351,-352]]],"properties":{"筆ID":"H000000117","version":"ver1.0","座標系":"任意座標系","測地系判別":null,"地図名":"帯広市区画整理図Ｋ（５００）３","地図番号":"K4","縮尺分母":"500","市区町村コード":"01207","市区町村名":"帯広市","大字コード":"050","丁目コード":"007","小字コード":"0000","予備コード":"00","大字名":"西十一条北","丁目名":"７丁目","小字名":null,"予備名":null,"地番":"4-12","精度区分":null,"座標値種別":"図上測量","筆界未定構成筆":null,"代表点緯度":396.3585,"代表点経度":200.98675394}},{"type":"MultiPolygon","arcs":[[[354,-353,-305,-336]]],"properties":{"筆ID":"H000000118","version":"ver1.0","座標系":"任意座標系","測地系判別":null,"地図名":"帯広市区画整理図Ｋ（５００）３","地図番号":"K4","縮尺分母":"500","市区町村コード":"01207","市区町村名":"帯広市","大字コード":"050","丁目コード":"007","小字コード":"0000","予備コード":"00","大字名":"西十一条北","丁目名":"７丁目","小字名":null,"予備名":null,"地番":"4-13","精度区分":null,"座標値種別":"図上測量","筆界未定構成筆":null,"代表点緯度":416.8855,"代表点経度":212.554518301}},{"type":"MultiPolygon","arcs":[[[-335,-320,-354,-355]]],"properties":{"筆ID":"H000000119","version":"ver1.0","座標系":"任意座標系","測地系判別":null,"地図名":"帯広市区画整理図Ｋ（５００）３","地図番号":"K4","縮尺分母":"500","市区町村コード":"01207","市区町村名":"帯広市","大字コード":"050","丁目コード":"007","小字コード":"0000","予備コード":"00","大字名":"西十一条北","丁目名":"７丁目","小字名":null,"予備名":null,"地番":"4-14","精度区分":null,"座標値種別":"図上測量","筆界未定構成筆":null,"代表点緯度":399.3825,"代表点経度":214.119402817}},{"type":"MultiPolygon","arcs":[[[355,356,-329]]],"properties":{"筆ID":"H000000120","version":"ver1.0","座標系":"任意座標系","測地系判別":null,"地図名":"帯広市区画整理図Ｋ（５００）３","地図番号":"K4","縮尺分母":"500","市区町村コード":"01207","市区町村名":"帯広市","大字コード":"050","丁目コード":"007","小字コード":"0000","予備コード":"00","大字名":"西十一条北","丁目名":"７丁目","小字名":null,"予備名":null,"地番":"5-1","精度区分":null,"座標値種別":"図上測量","筆界未定構成筆":null,"代表点緯度":360.9655,"代表点経度":126.089196456}},{"type":"MultiPolygon","arcs":[[[357,-356,-328,358]]],"properties":{"筆ID":"H000000121","version":"ver1.0","座標系":"任意座標系","測地系判別":null,"地図名":"帯広市区画整理図Ｋ（５００）３","地図番号":"K4","縮尺分母":"500","市区町村コード":"01207","市区町村名":"帯広市","大字コード":"050","丁目コード":"007","小字コード":"0000","予備コード":"00","大字名":"西十一条北","丁目名":"７丁目","小字名":null,"予備名":null,"地番":"5-2","精度区分":null,"座標値種別":"図上測量","筆界未定構成筆":null,"代表点緯度":362.2345,"代表点経度":138.975318037}},{"type":"MultiPolygon","arcs":[[[359,-359,-327,360]]],"properties":{"筆ID":"H000000122","version":"ver1.0","座標系":"任意座標系","測地系判別":null,"地図名":"帯広市区画整理図Ｋ（５００）３","地図番号":"K4","縮尺分母":"500","市区町村コード":"01207","市区町村名":"帯広市","大字コード":"050","丁目コード":"007","小字コード":"0000","予備コード":"00","大字名":"西十一条北","丁目名":"７丁目","小字名":null,"予備名":null,"地番":"5-3","精度区分":null,"座標値種別":"図上測量","筆界未定構成筆":null,"代表点緯度":363.4975,"代表点経度":151.829468443}},{"type":"MultiPolygon","arcs":[[[361,-361,-326,362]]],"properties":{"筆ID":"H000000123","version":"ver1.0","座標系":"任意座標系","測地系判別":null,"地図名":"帯広市区画整理図Ｋ（５００）３","地図番号":"K4","縮尺分母":"500","市区町村コード":"01207","市区町村名":"帯広市","大字コード":"050","丁目コード":"007","小字コード":"0000","予備コード":"00","大字名":"西十一条北","丁目名":"７丁目","小字名":null,"予備名":null,"地番":"5-4","精度区分":null,"座標値種別":"図上測量","筆界未定構成筆":null,"代表点緯度":364.7695,"代表点経度":164.716565897}},{"type":"MultiPolygon","arcs":[[[363,-363,-325,364]]],"properties":{"筆ID":"H000000124","version":"ver1.0","座標系":"任意座標系","測地系判別":null,"地図名":"帯広市区画整理図Ｋ（５００）３","地図番号":"K4","縮尺分母":"500","市区町村コード":"01207","市区町村名":"帯広市","大字コード":"050","丁目コード":"007","小字コード":"0000","予備コード":"00","大字名":"西十一条北","丁目名":"７丁目","小字名":null,"予備名":null,"地番":"5-5","精度区分":null,"座標値種別":"図上測量","筆界未定構成筆":null,"代表点緯度":366.038,"代表点経度":177.620054298}},{"type":"MultiPolygon","arcs":[[[365,-365,-324,366]]],"properties":{"筆ID":"H000000125","version":"ver1.0","座標系":"任意座標系","測地系判別":null,"地図名":"帯広市区画整理図Ｋ（５００）３","地図番号":"K4","縮尺分母":"500","市区町村コード":"01207","市区町村名":"帯広市","大字コード":"050","丁目コード":"007","小字コード":"0000","予備コード":"00","大字名":"西十一条北","丁目名":"７丁目","小字名":null,"予備名":null,"地番":"5-6","精度区分":null,"座標値種別":"図上測量","筆界未定構成筆":null,"代表点緯度":367.3135,"代表点経度":190.554446826}},{"type":"MultiPolygon","arcs":[[[367,368,-367,-323]]],"properties":{"筆ID":"H000000126","version":"ver1.0","座標系":"任意座標系","測地系判別":null,"地図名":"帯広市区画整理図Ｋ（５００）３","地図番号":"K4","縮尺分母":"500","市区町村コード":"01207","市区町村名":"帯広市","大字コード":"050","丁目コード":"007","小字コード":"0000","予備コード":"00","大字名":"西十一条北","丁目名":"７丁目","小字名":null,"予備名":null,"地番":"5-7","精度区分":null,"座標値種別":"図上測量","筆界未定構成筆":null,"代表点緯度":368.578,"代表点経度":203.434960598}},{"type":"MultiPolygon","arcs":[[[-334,369,-368,-322]]],"properties":{"筆ID":"H000000127","version":"ver1.0","座標系":"任意座標系","測地系判別":null,"地図名":"帯広市区画整理図Ｋ（５００）３","地図番号":"K4","縮尺分母":"500","市区町村コード":"01207","市区町村名":"帯広市","大字コード":"050","丁目コード":"007","小字コード":"0000","予備コード":"00","大字名":"西十一条北","丁目名":"７丁目","小字名":null,"予備名":null,"地番":"5-8","精度区分":null,"座標値種別":"図上測量","筆界未定構成筆":null,"代表点緯度":368.095,"代表点経度":216.793699673}},{"type":"MultiPolygon","arcs":[[[-290,370,371,372]]],"properties":{"筆ID":"H000000128","version":"ver1.0","座標系":"任意座標系","測地系判別":null,"地図名":"帯広市区画整理図Ｋ（５００）３","地図番号":"K5","縮尺分母":"500","市区町村コード":"01207","市区町村名":"帯広市","大字コード":"048","丁目コード":"007","小字コード":"0000","予備コード":"00","大字名":"西十条北","丁目名":"７丁目","小字名":null,"予備名":null,"地番":"14-9","精度区分":null,"座標値種別":"図上測量","筆界未定構成筆":null,"代表点緯度":268.058,"代表点経度":386.264953362}},{"type":"MultiPolygon","arcs":[[[-372,373,374,375,376]]],"properties":{"筆ID":"H000000129","version":"ver1.0","座標系":"任意座標系","測地系判別":null,"地図名":"帯広市区画整理図Ｋ（５００）３","地図番号":"K5","縮尺分母":"500","市区町村コード":"01207","市区町村名":"帯広市","大字コード":"048","丁目コード":"007","小字コード":"0000","予備コード":"00","大字名":"西十条北","丁目名":"７丁目","小字名":null,"予備名":null,"地番":"14-8","精度区分":null,"座標値種別":"図上測量","筆界未定構成筆":null,"代表点緯度":267.2005,"代表点経度":376.733896737}},{"type":"MultiPolygon","arcs":[[[-375,377,378,-284,379]]],"properties":{"筆ID":"H000000130","version":"ver1.0","座標系":"任意座標系","測地系判別":null,"地図名":"帯広市区画整理図Ｋ（５００）３","地図番号":"K5","縮尺分母":"500","市区町村コード":"01207","市区町村名":"帯広市","大字コード":"048","丁目コード":"007","小字コード":"0000","予備コード":"00","大字名":"西十条北","丁目名":"７丁目","小字名":null,"予備名":null,"地番":"14-3","精度区分":null,"座標値種別":"図上測量","筆界未定構成筆":null,"代表点緯度":265.689,"代表点経度":364.559509756}},{"type":"MultiPolygon","arcs":[[[-373,-377,380,-194,-288]]],"properties":{"筆ID":"H000000131","version":"ver1.0","座標系":"任意座標系","測地系判別":null,"地図名":"帯広市区画整理図Ｋ（５００）３","地図番号":"K5","縮尺分母":"500","市区町村コード":"01207","市区町村名":"帯広市","大字コード":"048","丁目コード":"007","小字コード":"0000","予備コード":"00","大字名":"西十条北","丁目名":"７丁目","小字名":null,"予備名":null,"地番":"14-4","精度区分":null,"座標値種別":"図上測量","筆界未定構成筆":null,"代表点緯度":287.921,"代表点経度":382.763276358}},{"type":"MultiPolygon","arcs":[[[-289,-27,-297,-293,-294,-298,-36,-303,-301,381,-378,-374,-371]]],"properties":{"筆ID":"H000000132","version":"ver1.0","座標系":"任意座標系","測地系判別":null,"地図名":"帯広市区画整理図Ｋ（５００）３","地図番号":"K5","縮尺分母":"500","市区町村コード":"01207","市区町村名":"帯広市","大字コード":"048","丁目コード":"007","小字コード":"0000","予備コード":"00","大字名":"西十条北","丁目名":"７丁目","小字名":null,"予備名":null,"地番":"6-1","精度区分":null,"座標値種別":"図上測量","筆界未定構成筆":null,"代表点緯度":220.711,"代表点経度":376.111685009}},{"type":"MultiPolygon","arcs":[[[-381,-376,-380,-286,-195]]],"properties":{"筆ID":"H000000133","version":"ver1.0","座標系":"任意座標系","測地系判別":null,"地図名":"帯広市区画整理図Ｋ（５００）３","地図番号":"K5","縮尺分母":"500","市区町村コード":"01207","市区町村名":"帯広市","大字コード":"048","丁目コード":"007","小字コード":"0000","予備コード":"00","大字名":"西十条北","丁目名":"７丁目","小字名":null,"予備名":null,"地番":"14-2","精度区分":null,"座標値種別":"図上測量","筆界未定構成筆":null,"代表点緯度":286.676,"代表点経度":369.047892903}},{"type":"MultiPolygon","arcs":[[[382,383,384,-22,-120,-126,-121]]],"properties":{"筆ID":"H000000134","version":"ver1.0","座標系":"任意座標系","測地系判別":null,"地図名":"帯広市区画整理図Ｋ（５００）３","地図番号":"K5","縮尺分母":"500","市区町村コード":"01207","市区町村名":"帯広市","大字コード":"046","丁目コード":"007","小字コード":"0000","予備コード":"00","大字名":"西九条北","丁目名":"７丁目","小字名":null,"予備名":null,"地番":"8-11","精度区分":null,"座標値種別":"図上測量","筆界未定構成筆":null,"代表点緯度":247.985,"代表点経度":470.444595857}},{"type":"MultiPolygon","arcs":[[[385,386,-384]]],"properties":{"筆ID":"H000000135","version":"ver1.0","座標系":"任意座標系","測地系判別":null,"地図名":"帯広市区画整理図Ｋ（５００）３","地図番号":"K5","縮尺分母":"500","市区町村コード":"01207","市区町村名":"帯広市","大字コード":"046","丁目コード":"007","小字コード":"0000","予備コード":"00","大字名":"西九条北","丁目名":"７丁目","小字名":null,"予備名":null,"地番":"8-15","精度区分":null,"座標値種別":"図上測量","筆界未定構成筆":null,"代表点緯度":229.6215,"代表点経度":472.060448304}},{"type":"MultiPolygon","arcs":[[[-143,387,-386,-383,-123,-116,-113,388,389,390,-57,391]]],"properties":{"筆ID":"H000000136","version":"ver1.0","座標系":"任意座標系","測地系判別":null,"地図名":"帯広市区画整理図Ｋ（５００）３","地図番号":"K5","縮尺分母":"500","市区町村コード":"01207","市区町村名":"帯広市","大字コード":"046","丁目コード":"007","小字コード":"0000","予備コード":"00","大字名":"西九条北","丁目名":"７丁目","小字名":null,"予備名":null,"地番":"2-1","精度区分":null,"座標値種別":"図上測量","筆界未定構成筆":null,"代表点緯度":283.4175,"代表点経度":487.692349502}},{"type":"MultiPolygon","arcs":[[[-385,-387,-388,-145,-141,-138,-134,-31,-99,-98,-96,-23]]],"properties":{"筆ID":"H000000137","version":"ver1.0","座標系":"任意座標系","測地系判別":null,"地図名":"帯広市区画整理図Ｋ（５００）３","地図番号":"K5","縮尺分母":"500","市区町村コード":"01207","市区町村名":"帯広市","大字コード":"046","丁目コード":"007","小字コード":"0000","予備コード":"00","大字名":"西九条北","丁目名":"７丁目","小字名":null,"予備名":null,"地番":"2-6","精度区分":null,"座標値種別":"図上測量","筆界未定構成筆":null,"代表点緯度":229.5675,"代表点経度":447.845533336}},{"type":"MultiPolygon","arcs":[[[-390,392,393,394]]],"properties":{"筆ID":"H000000138","version":"ver1.0","座標系":"任意座標系","測地系判別":null,"地図名":"帯広市区画整理図Ｋ（５００）３","地図番号":"K5","縮尺分母":"500","市区町村コード":"01207","市区町村名":"帯広市","大字コード":"046","丁目コード":"007","小字コード":"0000","予備コード":"00","大字名":"西九条北","丁目名":"７丁目","小字名":null,"予備名":null,"地番":"8-16","精度区分":null,"座標値種別":"図上測量","筆界未定構成筆":null,"代表点緯度":342.6595,"代表点経度":475.299270614}},{"type":"MultiPolygon","arcs":[[[-394,395,-103,-101,396]]],"properties":{"筆ID":"H000000139","version":"ver1.0","座標系":"任意座標系","測地系判別":null,"地図名":"帯広市区画整理図Ｋ（５００）３","地図番号":"K5","縮尺分母":"500","市区町村コード":"01207","市区町村名":"帯広市","大字コード":"046","丁目コード":"007","小字コード":"0000","予備コード":"00","大字名":"西九条北","丁目名":"７丁目","小字名":null,"予備名":null,"地番":"8-2","精度区分":null,"座標値種別":"図上測量","筆界未定構成筆":null,"代表点緯度":344.267,"代表点経度":463.132767515}},{"type":"MultiPolygon","arcs":[[[-42,-46,-48,-58,-52,-55,-391,-395,-397,-100,-3,-71,-73,-63,-178,-39]]],"properties":{"筆ID":"H000000140","version":"ver1.0","座標系":"任意座標系","測地系判別":null,"地図名":"帯広市区画整理図Ｋ（５００）３","地図番号":"K5","縮尺分母":"500","市区町村コード":"01207","市区町村名":"帯広市","大字コード":"046","丁目コード":"007","小字コード":"0000","予備コード":"00","大字名":"西九条北","丁目名":"７丁目","小字名":null,"予備名":null,"地番":"2-2","精度区分":null,"座標値種別":"図上測量","筆界未定構成筆":null,"代表点緯度":359.1565,"代表点経度":438.027391581}},{"type":"MultiPolygon","arcs":[[[-112,-106,-124,-104,-396,-393,-389]]],"properties":{"筆ID":"H000000141","version":"ver1.0","座標系":"任意座標系","測地系判別":null,"地図名":"帯広市区画整理図Ｋ（５００）３","地図番号":"K5","縮尺分母":"500","市区町村コード":"01207","市区町村名":"帯広市","大字コード":"046","丁目コード":"007","小字コード":"0000","予備コード":"00","大字名":"西九条北","丁目名":"７丁目","小字名":null,"予備名":null,"地番":"8-4","精度区分":null,"座標値種別":"図上測量","筆界未定構成筆":null,"代表点緯度":313.3485,"代表点経度":471.828584439}},{"type":"MultiPolygon","arcs":[[[397,398,399,400]]],"properties":{"筆ID":"H000000142","version":"ver1.0","座標系":"任意座標系","測地系判別":null,"地図名":"帯広市区画整理図Ｋ（５００）３","地図番号":"K4","縮尺分母":"500","市区町村コード":"01207","市区町村名":"帯広市","大字コード":"048","丁目コード":"007","小字コード":"0000","予備コード":"00","大字名":"西十条北","丁目名":"７丁目","小字名":null,"予備名":null,"地番":"10-9","精度区分":null,"座標値種別":"図上測量","筆界未定構成筆":null,"代表点緯度":405.8535,"代表点経度":309.651435863}},{"type":"MultiPolygon","arcs":[[[401,-398,402,-208,-213]]],"properties":{"筆ID":"H000000143","version":"ver1.0","座標系":"任意座標系","測地系判別":null,"地図名":"帯広市区画整理図Ｋ（５００）３","地図番号":"K4","縮尺分母":"500","市区町村コード":"01207","市区町村名":"帯広市","大字コード":"048","丁目コード":"007","小字コード":"0000","予備コード":"00","大字名":"西十条北","丁目名":"７丁目","小字名":null,"予備名":null,"地番":"10-11","精度区分":null,"座標値種別":"図上測量","筆界未定構成筆":null,"代表点緯度":407.1335,"代表点経度":322.985084959}},{"type":"MultiPolygon","arcs":[[[403,-150,-209,-403,-401]]],"properties":{"筆ID":"H000000144","version":"ver1.0","座標系":"任意座標系","測地系判別":null,"地図名":"帯広市区画整理図Ｋ（５００）３","地図番号":"K4","縮尺分母":"500","市区町村コード":"01207","市区町村名":"帯広市","大字コード":"048","丁目コード":"007","小字コード":"0000","予備コード":"00","大字名":"西十条北","丁目名":"７丁目","小字名":null,"予備名":null,"地番":"10-8","精度区分":null,"座標値種別":"図上測量","筆界未定構成筆":null,"代表点緯度":426.989,"代表点経度":305.101252389}},{"type":"MultiPolygon","arcs":[[[404,405,-151,-404,-400,406]]],"properties":{"筆ID":"H000000145","version":"ver1.0","座標系":"任意座標系","測地系判別":null,"地図名":"帯広市区画整理図Ｋ（５００）３","地図番号":"K4","縮尺分母":"500","市区町村コード":"01207","市区町村名":"帯広市","大字コード":"048","丁目コード":"007","小字コード":"0000","予備コード":"00","大字名":"西十条北","丁目名":"７丁目","小字名":null,"予備名":null,"地番":"10-7","精度区分":null,"座標値種別":"図上測量","筆界未定構成筆":null,"代表点緯度":415.0525,"代表点経度":290.992188041}},{"type":"MultiPolygon","arcs":[[[-405,407,408,409]]],"properties":{"筆ID":"H000000146","version":"ver1.0","座標系":"任意座標系","測地系判別":null,"地図名":"帯広市区画整理図Ｋ（５００）３","地図番号":"K4","縮尺分母":"500","市区町村コード":"01207","市区町村名":"帯広市","大字コード":"048","丁目コード":"007","小字コード":"0000","予備コード":"00","大字名":"西十条北","丁目名":"７丁目","小字名":null,"予備名":null,"地番":"10-20","精度区分":null,"座標値種別":"図上測量","筆界未定構成筆":null,"代表点緯度":403.5355,"代表点経度":274.912304024}},{"type":"MultiPolygon","arcs":[[[-409,410,411,412,413]]],"properties":{"筆ID":"H000000147","version":"ver1.0","座標系":"任意座標系","測地系判別":null,"地図名":"帯広市区画整理図Ｋ（５００）３","地図番号":"K4","縮尺分母":"500","市区町村コード":"01207","市区町村名":"帯広市","大字コード":"048","丁目コード":"007","小字コード":"0000","予備コード":"00","大字名":"西十条北","丁目名":"７丁目","小字名":null,"予備名":null,"地番":"10-19","精度区分":null,"座標値種別":"図上測量","筆界未定構成筆":null,"代表点緯度":402.486,"代表点経度":264.026779649}},{"type":"MultiPolygon","arcs":[[[-412,414,-203,-218,415]]],"properties":{"筆ID":"H000000148","version":"ver1.0","座標系":"任意座標系","測地系判別":null,"地図名":"帯広市区画整理図Ｋ（５００）３","地図番号":"K4","縮尺分母":"500","市区町村コード":"01207","市区町村名":"帯広市","大字コード":"048","丁目コード":"007","小字コード":"0000","予備コード":"00","大字名":"西十条北","丁目名":"７丁目","小字名":null,"予備名":null,"地番":"10-4","精度区分":null,"座標値種別":"図上測量","筆界未定構成筆":null,"代表点緯度":398.053,"代表点経度":253.421624201}},{"type":"MultiPolygon","arcs":[[[-410,-414,416,-152,-406]]],"properties":{"筆ID":"H000000149","version":"ver1.0","座標系":"任意座標系","測地系判別":null,"地図名":"帯広市区画整理図Ｋ（５００）３","地図番号":"K4","縮尺分母":"500","市区町村コード":"01207","市区町村名":"帯広市","大字コード":"048","丁目コード":"007","小字コード":"0000","予備コード":"00","大字名":"西十条北","丁目名":"７丁目","小字名":null,"予備名":null,"地番":"10-5","精度区分":null,"座標値種別":"図上測量","筆界未定構成筆":null,"代表点緯度":423.7065,"代表点経度":271.041665968}},{"type":"MultiPolygon","arcs":[[[-415,-411,-408,-407,-399,-402,-212,-211,-147,-262,-264,-267,-184,-259,-258,-256,-253,-241,-236,-232,-225,-223,-332,-204]]],"properties":{"筆ID":"H000000150","version":"ver1.0","座標系":"任意座標系","測地系判別":null,"地図名":"帯広市区画整理図Ｋ（５００）３","地図番号":"K4","縮尺分母":"500","市区町村コード":"01207","市区町村名":"帯広市","大字コード":"048","丁目コード":"007","小字コード":"0000","予備コード":"00","大字名":"西十条北","丁目名":"７丁目","小字名":null,"予備名":null,"地番":"2","精度区分":null,"座標値種別":"図上測量","筆界未定構成筆":null,"代表点緯度":413.5835,"代表点経度":346.059125227}},{"type":"MultiPolygon","arcs":[[[-413,-416,-214,-200,-153,-417]]],"properties":{"筆ID":"H000000151","version":"ver1.0","座標系":"任意座標系","測地系判別":null,"地図名":"帯広市区画整理図Ｋ（５００）３","地図番号":"K4","縮尺分母":"500","市区町村コード":"01207","市区町村名":"帯広市","大字コード":"048","丁目コード":"007","小字コード":"0000","予備コード":"00","大字名":"西十条北","丁目名":"７丁目","小字名":null,"予備名":null,"地番":"10-3","精度区分":null,"座標値種別":"図上測量","筆界未定構成筆":null,"代表点緯度":424.657,"代表点経度":253.941593897}}]}},"arcs":[[[800403,489152],[30281,3976],[8217,14123],[-3868,64156]],[[835033,571407],[-3874,64328],[-9894,12015]],[[821265,647750],[43709,5778]],[[864974,653528],[-8014,-14138],[3838,-64346]],[[860798,575044],[3190,-53402]],[[863988,521642],[3203,-53678]],[[867191,467964],[-34693,-4488]],[[832498,463476],[-22285,-2882]],[[810213,460594],[-31255,-4046]],[[778958,456548],[-31393,-4057]],[[747565,452491],[-8883,-1149]],[[738682,451342],[-1765,29481]],[[736917,480823],[26569,3484]],[[763486,484307],[36917,4845]],[[756746,303517],[31200,3953]],[[787946,307470],[31077,3942]],[[819023,311412],[22296,2822],[8350,14071],[-3652,61818]],[[846017,390123],[-3654,61795],[-9865,11558]],[[867191,467964],[3532,-59155]],[[870723,408809],[3605,-59070]],[[874328,349739],[3610,-59095]],[[877938,290644],[91,-1484]],[[878029,289160],[-34815,-4485]],[[843214,284675],[-24442,-3149]],[[818772,281526],[-33366,-4295]],[[785406,277231],[-36022,-4641]],[[749384,272590],[-1780,29767]],[[747604,302357],[9142,1160]],[[794294,128544],[33432,4250]],[[827726,132794],[24575,3127],[8131,13770]],[[860432,149691],[3477,-56701]],[[863909,92990],[-12624,-1547]],[[851285,91443],[-34105,-4365]],[[817180,87078],[-34395,-4407]],[[782785,82671],[-21862,-2800]],[[760923,79871],[-2637,44091]],[[758286,123962],[36008,4582]],[[742945,739044],[3834,-63714]],[[746779,675330],[-21596,-2859]],[[725183,672471],[-3707,63736]],[[721476,736207],[21469,2837]],[[781396,679919],[-34617,-4589]],[[742945,739044],[34515,4563]],[[777460,743607],[3936,-63688]],[[811126,748062],[4023,-63673]],[[815149,684389],[-33753,-4470]],[[777460,743607],[33666,4455]],[[849808,688977],[-34659,-4588]],[[811126,748062],[34664,4585]],[[845790,752647],[4018,-63670]],[[914439,761720],[3961,-63803]],[[918400,697917],[-34724,-4455]],[[883676,693462],[-3960,63666]],[[879716,757128],[34723,4592]],[[952061,715193],[-8225,-14011],[-25436,-3265]],[[914439,761720],[34529,4570]],[[948968,766290],[3093,-51097]],[[883676,693462],[-33868,-4485]],[[845790,752647],[33926,4481]],[[765961,562334],[-7364,-967]],[[758597,561367],[-26295,-3454]],[[732302,557913],[-4957,77424]],[[727345,635337],[33771,4462]],[[761116,639799],[4845,-77465]],[[758597,561367],[4889,-77060]],[[736917,480823],[-4615,77090]],[[795819,566253],[4584,-77101]],[[765961,562334],[29858,3919]],[[835033,571407],[-35369,-4648]],[[799664,566759],[-4905,77491]],[[794759,644250],[26506,3500]],[[795819,566253],[3845,506]],[[761116,639799],[33643,4451]],[[747565,452491],[4584,-74375]],[[752149,378116],[-9014,-1153]],[[743135,376963],[-4453,74379]],[[752149,378116],[4597,-74599]],[[747604,302357],[-4469,74606]],[[783448,382121],[-31299,-4005]],[[778958,456548],[4490,-74427]],[[783448,382121],[4498,-74651]],[[810213,460594],[4401,-74487]],[[814614,386107],[-31166,-3986]],[[814614,386107],[4409,-74695]],[[846017,390123],[-31403,-4016]],[[785406,277231],[4430,-74059]],[[789836,203172],[-36022,-4567]],[[753814,198605],[-4430,73985]],[[789836,203172],[4458,-74628]],[[758286,123962],[-4472,74643]],[[823236,207407],[-33400,-4235]],[[818772,281526],[4464,-74119]],[[823236,207407],[2370,-39365]],[[825606,168042],[2120,-35248]],[[856634,211643],[-33398,-4236]],[[843214,284675],[9648,-11538],[3772,-61494]],[[859041,172386],[-33435,-4344]],[[856634,211643],[2407,-39257]],[[859041,172386],[1391,-22695]],[[864974,653528],[27773,3674]],[[892747,657202],[4733,-77339]],[[897480,579863],[-36682,-4819]],[[897480,579863],[960,-15700]],[[898440,564163],[2316,-37814]],[[900756,526349],[-36768,-4707]],[[904037,472724],[12929,1673]],[[916966,474397],[3574,-59058]],[[920540,415339],[-11943,-1566]],[[908597,413773],[-37874,-4964]],[[867191,467964],[36846,4760]],[[969924,421809],[-49384,-6470]],[[916966,474397],[49272,6374]],[[966238,480771],[3686,-58962]],[[908597,413773],[3645,-59081]],[[912242,354692],[-37914,-4953]],[[969924,421809],[3694,-59099]],[[973618,362710],[-49502,-6463]],[[924116,356247],[-3576,59092]],[[912242,354692],[3646,-59140]],[[915888,295552],[-37950,-4908]],[[977320,303491],[-49622,-6414]],[[927698,297077],[-3582,59170]],[[973618,362710],[3702,-59219]],[[900756,526349],[3281,-53625]],[[924116,356247],[-11874,-1555]],[[927698,297077],[-11810,-1525]],[[787421,8720],[-22068,-2796]],[[765353,5924],[-4430,73947]],[[782785,82671],[4636,-73951]],[[817180,87078],[4631,-74000]],[[821811,13078],[-34390,-4358]],[[851285,91443],[4636,-74044]],[[855921,17399],[-34110,-4321]],[[863909,92990],[22022,2696]],[[885931,95686],[4615,-73899]],[[890546,21787],[-34625,-4388]],[[925038,26156],[-34492,-4369]],[[885931,95686],[34883,4277]],[[920814,99963],[4224,-73807]],[[959532,30529],[-34494,-4373]],[[920814,99963],[34090,4176]],[[954904,104139],[4628,-73610]],[[990288,95958],[3814,-61052]],[[994102,34906],[-34570,-4377]],[[954904,104139],[25872,3168],[9512,-11349]],[[657505,986556],[-36872,-5090]],[[620633,981466],[-44365,-6121]],[[576268,975345],[-22937,-3168]],[[553331,972177],[-32237,-4452]],[[521094,967725],[-50650,-6994]],[[470444,960731],[-41440,-5716]],[[429004,955015],[-44255,-6109]],[[384749,948906],[-43712,-6035]],[[341037,942871],[-29195,-4028]],[[311842,938843],[-9507,-1338]],[[302335,937505],[-822,13149]],[[301513,950654],[355105,49345],[887,-13443]],[[311842,938843],[-8643,-15112]],[[303199,923731],[-864,13774]],[[358300,668797],[37588,-12811]],[[395888,655986],[34001,-11583]],[[429889,644403],[39814,-13573],[478,67]],[[470181,630897],[88,11],[34064,4581]],[[504333,635489],[551,75],[33343,4484]],[[538227,640048],[214,30],[34121,4589],[318,45]],[[572880,644712],[24951,3350],[8074,14045]],[[605905,662107],[2756,-42369]],[[608661,619738],[-4080,-554]],[[604581,619184],[-135513,-18426]],[[469068,600758],[-148525,50844]],[[320543,651602],[-2684,41555]],[[317859,693157],[8309,-13409],[32132,-10951]],[[623220,799300],[738,-11360]],[[623958,787940],[4151,-63852]],[[628109,724088],[3313,-50959],[9387,-11833],[37308,4942]],[[678117,666238],[34403,4556]],[[712520,670794],[12663,1677]],[[725183,672471],[2162,-37134]],[[727345,635337],[-44080,-5827]],[[683265,629510],[-40136,-5306]],[[643129,624204],[-34468,-4466]],[[605905,662107],[-3903,59988]],[[602002,722095],[-3957,60825],[-9923,11553]],[[588122,794473],[35098,4827]],[[643129,624204],[-8212,-14045],[1517,-25856]],[[636434,584303],[2271,-38684]],[[638705,545619],[3761,-64075],[9677,-11851]],[[652143,469693],[-38524,-5053]],[[613619,464640],[8332,14279],[-7515,128391],[-9855,11874]],[[652143,469693],[44383,5827]],[[696526,475520],[29923,3927]],[[726449,479447],[10468,1376]],[[738682,451342],[-22147,-2863]],[[716535,448479],[-35533,-4597]],[[681002,443882],[-36050,-4663]],[[644952,439219],[-59307,-7667]],[[585645,431552],[-15615,27365]],[[570030,458917],[43589,5723]],[[570030,458917],[-76113,133396],[-24849,8445]],[[341037,942871],[3222,-50804]],[[344259,892067],[-38750,-5168]],[[305509,886899],[-2310,36832]],[[347456,841673],[3188,-50204]],[[350644,791469],[-29527,-4046],[-10123,12026]],[[310994,799449],[-2300,36695]],[[308694,836144],[38762,5529]],[[553331,972177],[5027,-76168]],[[558358,896009],[-32262,-4459]],[[526096,891550],[-5002,76175]],[[590631,900475],[-32273,-4466]],[[576268,975345],[10364,-11926],[3999,-62944]],[[590631,900475],[3978,-62639],[-8251,-14079],[-23019,-3153]],[[563339,820604],[-4981,75405]],[[344259,892067],[1602,-25238]],[[345861,866829],[-38757,-5339]],[[307104,861490],[-1595,25409]],[[308694,836144],[-1590,25346]],[[345861,866829],[1595,-25156]],[[352541,762085],[3483,-56378]],[[356024,705707],[399,-6492]],[[356423,699215],[1877,-30418]],[[317859,693157],[-3255,50372]],[[314604,743529],[8335,14484],[29602,4072]],[[392345,710441],[-36321,-4734]],[[352541,762085],[36121,4960]],[[388662,767045],[3683,-56604]],[[392747,704257],[3141,-48271]],[[356423,699215],[36324,5042]],[[428873,709273],[-3020,-420]],[[425853,708853],[-33106,-4596]],[[392747,704257],[-402,6184]],[[388662,767045],[36060,4961]],[[424722,772006],[4151,-62733]],[[460632,776944],[4101,-62688]],[[464733,714256],[-35860,-4983]],[[424722,772006],[35910,4938]],[[464733,714256],[702,-10724]],[[465435,703532],[4746,-72635]],[[429889,644403],[-4036,64450]],[[493580,707355],[-28145,-3823]],[[460632,776944],[28271,3886]],[[488903,780830],[4677,-73475]],[[499527,708165],[4806,-72676]],[[493580,707355],[5947,810]],[[522042,711226],[11241,1528]],[[533283,712754],[4944,-72706]],[[499527,708165],[22515,3061]],[[550271,715063],[17720,2406]],[[567991,717469],[4889,-72757]],[[533283,712754],[16988,2309]],[[578615,718916],[23387,3179]],[[567991,717469],[10624,1447]],[[488903,780830],[28477,3912]],[[517380,784742],[4662,-73516]],[[545473,788605],[4798,-73542]],[[517380,784742],[28093,3863]],[[573930,792521],[4685,-73605]],[[545473,788605],[28457,3916]],[[573930,792521],[14192,1952]],[[657505,986556],[4247,-64193]],[[661752,922363],[-46116,-6355]],[[615636,916008],[-3297,50713],[8294,14745]],[[665986,858332],[-46196,-6224]],[[619790,852108],[-4154,63900]],[[661752,922363],[4234,-64031]],[[670207,794466],[-46249,-6526]],[[623220,799300],[-3430,52808]],[[665986,858332],[4221,-63866]],[[670207,794466],[4154,-64488]],[[674361,729978],[-46252,-5890]],[[674361,729978],[3756,-63740]],[[708534,734497],[3986,-63703]],[[674361,729978],[34173,4519]],[[708534,734497],[12942,1710]],[[683265,629510],[2462,-38989]],[[685727,590521],[-49293,-6218]],[[688154,552112],[3835,505]],[[691989,552617],[4537,-77097]],[[638705,545619],[49449,6493]],[[732302,557913],[-10585,-1391]],[[721717,556522],[-29728,-3905]],[[688154,552112],[-2427,38409]],[[721717,556522],[4732,-77075]],[[649282,364822],[-23802,-3094]],[[625480,361728],[-39835,69824]],[[644952,439219],[4330,-74397]],[[743135,376963],[-22202,-2834]],[[720933,374129],[-4398,74350]],[[747604,302357],[-22559,-2859]],[[725045,299498],[-4112,74631]],[[718250,268578],[4351,-73933]],[[722601,194645],[-36679,-4652]],[[685922,189993],[-9961,34152],[-5242,24167],[7442,15108],[40089,5158]],[[726995,119987],[-11747,-1495],[-11290,9676],[-18036,61825]],[[722601,194645],[4394,-74658]],[[753814,198605],[-31213,-3960]],[[718250,268578],[31134,4012]],[[758286,123962],[-31291,-3975]],[[748051,78224],[4461,-73929]],[[752512,4295],[-33904,-4295],[-20876,71783]],[[697732,71783],[50319,6441]],[[765353,5924],[-12841,-1629]],[[748051,78224],[12872,1647]],[[302335,937505],[-40112,-5645]],[[262223,931860],[-25689,-3615]],[[236534,928245],[-34416,-4837]],[[202118,923408],[-35327,-4972]],[[166791,918436],[-34797,-4894]],[[131994,913542],[-35267,-4960]],[[96727,908582],[-34985,-4920]],[[61742,903662],[-25846,-3637]],[[35896,900025],[-35108,-4938]],[[788,895087],[-788,12914],[301513,42653]],[[31477,823489],[3858,-62646],[9546,-11476],[26277,3670]],[[71158,753037],[35251,4920]],[[106409,757957],[35168,4760]],[[141577,762717],[34854,4715]],[[176431,767432],[35165,4760]],[[211596,772192],[34547,4678]],[[246143,776870],[25934,3506],[8077,14239]],[[280154,794615],[3441,-55407]],[[283595,739208],[-10011,11918],[-26243,-3644]],[[247341,747482],[-33682,-4682]],[[213659,742800],[-33649,-4674]],[[180010,738126],[-33823,-4700]],[[146187,733426],[-33487,-4652]],[[112700,728774],[-33779,-4693]],[[78921,724081],[-33332,-4634]],[[45589,719447],[-33779,-4692]],[[11810,714755],[-11022,180332]],[[35896,900025],[-8244,-14424],[3825,-62112]],[[310994,799449],[3610,-55920]],[[320543,651602],[-32195,11018]],[[288348,662620],[-4753,76588]],[[280154,794615],[-3882,62542]],[[276272,857157],[-3897,62826],[-10152,11877]],[[61742,903662],[4712,-75364]],[[66454,828298],[-34977,-4809]],[[66454,828298],[4704,-75261]],[[101577,833128],[-35123,-4830]],[[96727,908582],[4850,-75454]],[[101577,833128],[4832,-75171]],[[131994,913542],[4803,-75569]],[[136797,837973],[-35220,-4845]],[[136797,837973],[4780,-75256]],[[166791,918436],[4834,-75673]],[[171625,842763],[-34828,-4790]],[[171625,842763],[4806,-75331]],[[202118,923408],[4748,-75800]],[[206866,847608],[-35241,-4845]],[[206866,847608],[4730,-75416]],[[241350,852353],[-34484,-4745]],[[236534,928245],[4816,-75892]],[[241350,852353],[4793,-75483]],[[276272,857157],[-34922,-4804]],[[45589,719447],[4638,-72947]],[[50227,646500],[-33954,-4808],[-4463,73063]],[[83717,651245],[-33490,-4745]],[[78921,724081],[4796,-72836]],[[117352,656005],[-33635,-4760]],[[112700,728774],[4652,-72769]],[[150998,660772],[-33646,-4767]],[[146187,733426],[4811,-72654]],[[184787,665554],[-33789,-4782]],[[180010,738126],[4777,-72572]],[[218574,670340],[-33787,-4786]],[[213659,742800],[4915,-72460]],[[247341,747482],[4634,-72412]],[[251975,675070],[-33401,-4730]],[[288348,662620],[-36373,12450]],[[725045,299498],[-25689,-3254]],[[699356,296244],[-4107,74546]],[[695249,370790],[25684,3339]],[[699356,296244],[-14410,-1826],[-9666,-1223]],[[675280,293195],[-4101,74472]],[[671179,367667],[9340,1212],[5046,654]],[[685565,369533],[9684,1257]],[[675280,293195],[-34129,-4329]],[[641151,288866],[-14384,70609],[-1287,2253]],[[649282,364822],[21897,2845]],[[685565,369533],[-4563,74349]],[[697732,71783],[-41274,141927],[-15307,75156]],[[977320,303491],[4476,-71649]],[[981796,231842],[-99449,-13413]],[[882347,218429],[-4318,70731]],[[981796,231842],[4114,-65841]],[[985910,166001],[-8024,-14484],[-81670,-9995],[-9899,11903],[-3970,65004]],[[990288,95958],[-4378,70043]],[[966238,480771],[-5547,91715]],[[960691,572486],[-4847,80139]],[[955844,652625],[-3783,62568]],[[948968,766290],[6035,796],[44996,-731432],[-5897,-748]],[[960691,572486],[-31124,-4161]],[[929567,568325],[-5686,92990]],[[923881,661315],[22108,2923],[9855,-11613]],[[929567,568325],[-31127,-4162]],[[892747,657202],[31134,4113]],[[526592,884009],[4453,-67830]],[[531045,816179],[-37373,-5117]],[[493672,811062],[-4375,67853]],[[489297,878915],[37295,5094]],[[563339,820604],[-32294,-4425]],[[526592,884009],[-496,7541]],[[489297,878915],[-554,7467],[-13276,-1837],[-5023,76186]],[[436347,803208],[-5414,75335]],[[430933,878543],[3051,420],[-4980,76052]],[[493672,811062],[-13240,-1815],[-41509,-5685],[-2576,-354]],[[436347,803208],[-28399,-3893]],[[407948,799315],[-5307,75331]],[[402641,874646],[28292,3897]],[[407948,799315],[-13306,-1822],[-15231,-2086]],[[379411,795407],[-5206,75327]],[[374205,870734],[15514,2134]],[[389719,872868],[12922,1778]],[[379411,795407],[-28767,-3938]],[[345861,866829],[28344,3905]],[[389719,872868],[-4970,76038]]],"bbox":[114.223,177.931,497.301,446.851],"transform":{"scale":[0.00038307838307838305,0.0002689202689202689],"translate":[114.223,177.931]}}
