{"type":"Topology","objects":{"01207-4601-1":{"type":"GeometryCollection","geometries":[{"type":"MultiPolygon","arcs":[[[0,1,2,3,4,5,6,7,8]]],"properties":{"筆ID":"H000000001","version":"ver1.0","座標系":"任意座標系","測地系判別":null,"地図名":"帯広市岩内開拓図（２５００）","地図番号":"1-2","縮尺分母":"2500","市区町村コード":"01207","市区町村名":"帯広市","大字コード":"645","丁目コード":"000","小字コード":"0000","予備コード":"00","大字名":"岩内町三線","丁目名":null,"小字名":null,"予備名":null,"地番":"92-7","精度区分":null,"座標値種別":"図上測量","筆界未定構成筆":null,"代表点緯度":-961.284,"代表点経度":4902.026919501}},{"type":"MultiPolygon","arcs":[[[9,-1,10]]],"properties":{"筆ID":"H000000002","version":"ver1.0","座標系":"任意座標系","測地系判別":null,"地図名":"帯広市岩内開拓図（２５００）","地図番号":"1-2","縮尺分母":"2500","市区町村コード":"01207","市区町村名":"帯広市","大字コード":"645","丁目コード":"000","小字コード":"0000","予備コード":"00","大字名":"岩内町三線","丁目名":null,"小字名":null,"予備名":null,"地番":"92-8","精度区分":null,"座標値種別":"図上測量","筆界未定構成筆":null,"代表点緯度":-636.0935,"代表点経度":5386.083365609}},{"type":"MultiPolygon","arcs":[[[11,12,13,-2,-10]]],"properties":{"筆ID":"H000000003","version":"ver1.0","座標系":"任意座標系","測地系判別":null,"地図名":"帯広市岩内開拓図（２５００）","地図番号":"1-2","縮尺分母":"2500","市区町村コード":"01207","市区町村名":"帯広市","大字コード":"645","丁目コード":"000","小字コード":"0000","予備コード":"00","大字名":"岩内町三線","丁目名":null,"小字名":null,"予備名":null,"地番":"94-8","精度区分":null,"座標値種別":"図上測量","筆界未定構成筆":null,"代表点緯度":-826.3995,"代表点経度":5154.485094397}},{"type":"MultiPolygon","arcs":[[[14,15]]],"properties":{"筆ID":"H000000004","version":"ver1.0","座標系":"任意座標系","測地系判別":null,"地図名":"帯広市岩内開拓図（２５００）","地図番号":"1-1","縮尺分母":"2500","市区町村コード":"01207","市区町村名":"帯広市","大字コード":"645","丁目コード":"000","小字コード":"0000","予備コード":"00","大字名":"岩内町三線","丁目名":null,"小字名":null,"予備名":null,"地番":"95-4","精度区分":null,"座標値種別":"図上測量","筆界未定構成筆":null,"代表点緯度":-1153.195,"代表点経度":4824.26042578}},{"type":"MultiPolygon","arcs":[[[16,-16,17,-7,18]]],"properties":{"筆ID":"H000000005","version":"ver1.0","座標系":"任意座標系","測地系判別":null,"地図名":"帯広市岩内開拓図（２５００）","地図番号":"1-1","縮尺分母":"2500","市区町村コード":"01207","市区町村名":"帯広市","大字コード":"645","丁目コード":"000","小字コード":"0000","予備コード":"00","大字名":"岩内町三線","丁目名":null,"小字名":null,"予備名":null,"地番":"95-5","精度区分":null,"座標値種別":"図上測量","筆界未定構成筆":null,"代表点緯度":-1150.9985,"代表点経度":4812.311661452}},{"type":"MultiPolygon","arcs":[[[19,-4,20,-13,21,-19,-6]]],"properties":{"筆ID":"H000000006","version":"ver1.0","座標系":"任意座標系","測地系判別":null,"地図名":"帯広市岩内開拓図（２５００）","地図番号":"1-1","縮尺分母":"2500","市区町村コード":"01207","市区町村名":"帯広市","大字コード":"645","丁目コード":"000","小字コード":"0000","予備コード":"00","大字名":"岩内町三線","丁目名":null,"小字名":null,"予備名":null,"地番":"96-5","精度区分":null,"座標値種別":"図上測量","筆界未定構成筆":null,"代表点緯度":-993.5105,"代表点経度":4902.443676398}},{"type":"MultiPolygon","arcs":[[[-21,-3,-14]]],"properties":{"筆ID":"H000000007","version":"ver1.0","座標系":"任意座標系","測地系判別":null,"地図名":"帯広市岩内開拓図（２５００）","地図番号":"1-2","縮尺分母":"2500","市区町村コード":"01207","市区町村名":"帯広市","大字コード":"645","丁目コード":"000","小字コード":"0000","予備コード":"00","大字名":"岩内町三線","丁目名":null,"小字名":null,"予備名":null,"地番":"96-6","精度区分":null,"座標値種別":"図上測量","筆界未定構成筆":null,"代表点緯度":-833.5635,"代表点経度":5136.003968052}},{"type":"MultiPolygon","arcs":[[[-20,-5]]],"properties":{"筆ID":"H000000008","version":"ver1.0","座標系":"任意座標系","測地系判別":null,"地図名":"帯広市岩内開拓図（２５００）","地図番号":"1-1","縮尺分母":"2500","市区町村コード":"01207","市区町村名":"帯広市","大字コード":"645","丁目コード":"000","小字コード":"0000","予備コード":"00","大字名":"岩内町三線","丁目名":null,"小字名":null,"予備名":null,"地番":"96-7","精度区分":null,"座標値種別":"図上測量","筆界未定構成筆":null,"代表点緯度":-1073.9685,"代表点経度":4840.38464967}},{"type":"MultiPolygon","arcs":[[[22,23,24]]],"properties":{"筆ID":"H000000009","version":"ver1.0","座標系":"任意座標系","測地系判別":null,"地図名":"帯広市岩内開拓図（２５００）","地図番号":"1-1","縮尺分母":"2500","市区町村コード":"01207","市区町村名":"帯広市","大字コード":"645","丁目コード":"000","小字コード":"0000","予備コード":"00","大字名":"岩内町三線","丁目名":null,"小字名":null,"予備名":null,"地番":"99","精度区分":null,"座標値種別":"図上測量","筆界未定構成筆":null,"代表点緯度":-1323.937,"代表点経度":4639.310281203}},{"type":"MultiPolygon","arcs":[[[25,26,27]]],"properties":{"筆ID":"H000000010","version":"ver1.0","座標系":"任意座標系","測地系判別":null,"地図名":"帯広市岩内開拓図（２５００）","地図番号":"1-1","縮尺分母":"2500","市区町村コード":"01207","市区町村名":"帯広市","大字コード":"645","丁目コード":"000","小字コード":"0000","予備コード":"00","大字名":"岩内町三線","丁目名":null,"小字名":null,"予備名":null,"地番":"100","精度区分":null,"座標値種別":"図上測量","筆界未定構成筆":null,"代表点緯度":-1174.523,"代表点経度":4629.649998687}},{"type":"MultiPolygon","arcs":[[[28,29,30,-24]]],"properties":{"筆ID":"H000000011","version":"ver1.0","座標系":"任意座標系","測地系判別":null,"地図名":"帯広市岩内開拓図（２５００）","地図番号":"2","縮尺分母":"2500","市区町村コード":"01207","市区町村名":"帯広市","大字コード":"645","丁目コード":"000","小字コード":"0000","予備コード":"00","大字名":"岩内町三線","丁目名":null,"小字名":null,"予備名":null,"地番":"101-1","精度区分":null,"座標値種別":"図上測量","筆界未定構成筆":null,"代表点緯度":-1370.398,"代表点経度":4558.364452411}},{"type":"MultiPolygon","arcs":[[[-30,31,32]]],"properties":{"筆ID":"H000000012","version":"ver1.0","座標系":"任意座標系","測地系判別":null,"地図名":"帯広市岩内開拓図（２５００）","地図番号":"2","縮尺分母":"2500","市区町村コード":"01207","市区町村名":"帯広市","大字コード":"645","丁目コード":"000","小字コード":"0000","予備コード":"00","大字名":"岩内町三線","丁目名":null,"小字名":null,"予備名":null,"地番":"101-2","精度区分":null,"座標値種別":"図上測量","筆界未定構成筆":null,"代表点緯度":-1445.426,"代表点経度":4444.973911088}},{"type":"MultiPolygon","arcs":[[[-27,33,34]]],"properties":{"筆ID":"H000000013","version":"ver1.0","座標系":"任意座標系","測地系判別":null,"地図名":"帯広市岩内開拓図（２５００）","地図番号":"2","縮尺分母":"2500","市区町村コード":"01207","市区町村名":"帯広市","大字コード":"645","丁目コード":"000","小字コード":"0000","予備コード":"00","大字名":"岩内町三線","丁目名":null,"小字名":null,"予備名":null,"地番":"102","精度区分":null,"座標値種別":"図上測量","筆界未定構成筆":null,"代表点緯度":-1289.991,"代表点経度":4414.414685005}},{"type":"MultiPolygon","arcs":[[[35,36,37]]],"properties":{"筆ID":"H000000014","version":"ver1.0","座標系":"任意座標系","測地系判別":null,"地図名":"帯広市岩内開拓図（２５００）","地図番号":"2","縮尺分母":"2500","市区町村コード":"01207","市区町村名":"帯広市","大字コード":"645","丁目コード":"000","小字コード":"0000","予備コード":"00","大字名":"岩内町三線","丁目名":null,"小字名":null,"予備名":null,"地番":"103-1","精度区分":null,"座標値種別":"図上測量","筆界未定構成筆":null,"代表点緯度":-1508.39,"代表点経度":4319.852739998}},{"type":"MultiPolygon","arcs":[[[-37,38,39,40]]],"properties":{"筆ID":"H000000015","version":"ver1.0","座標系":"任意座標系","測地系判別":null,"地図名":"帯広市岩内開拓図（２５００）","地図番号":"2","縮尺分母":"2500","市区町村コード":"01207","市区町村名":"帯広市","大字コード":"645","丁目コード":"000","小字コード":"0000","予備コード":"00","大字名":"岩内町三線","丁目名":null,"小字名":null,"予備名":null,"地番":"103-2","精度区分":null,"座標値種別":"図上測量","筆界未定構成筆":null,"代表点緯度":-1573.5245,"代表点経度":4201.472287464}},{"type":"MultiPolygon","arcs":[[[41,42,43]]],"properties":{"筆ID":"H000000016","version":"ver1.0","座標系":"任意座標系","測地系判別":null,"地図名":"帯広市岩内開拓図（２５００）","地図番号":"2","縮尺分母":"2500","市区町村コード":"01207","市区町村名":"帯広市","大字コード":"645","丁目コード":"000","小字コード":"0000","予備コード":"00","大字名":"岩内町三線","丁目名":null,"小字名":null,"予備名":null,"地番":"104-1","精度区分":null,"座標値種別":"図上測量","筆界未定構成筆":null,"代表点緯度":-1401.061,"代表点経度":4179.523846103}},{"type":"MultiPolygon","arcs":[[[-43,44,45,46]]],"properties":{"筆ID":"H000000017","version":"ver1.0","座標系":"任意座標系","測地系判別":null,"地図名":"帯広市岩内開拓図（２５００）","地図番号":"2","縮尺分母":"2500","市区町村コード":"01207","市区町村名":"帯広市","大字コード":"645","丁目コード":"000","小字コード":"0000","予備コード":"00","大字名":"岩内町三線","丁目名":null,"小字名":null,"予備名":null,"地番":"104-2","精度区分":null,"座標値種別":"図上測量","筆界未定構成筆":null,"代表点緯度":-1459.971,"代表点経度":4057.7212219}},{"type":"MultiPolygon","arcs":[[[47,48,49,-40]]],"properties":{"筆ID":"H000000018","version":"ver1.0","座標系":"任意座標系","測地系判別":null,"地図名":"帯広市岩内開拓図（２５００）","地図番号":"2","縮尺分母":"2500","市区町村コード":"01207","市区町村名":"帯広市","大字コード":"645","丁目コード":"000","小字コード":"0000","予備コード":"00","大字名":"岩内町三線","丁目名":null,"小字名":null,"予備名":null,"地番":"105-1","精度区分":null,"座標値種別":"図上測量","筆界未定構成筆":null,"代表点緯度":-1613.191,"代表点経度":4034.395739839}},{"type":"MultiPolygon","arcs":[[[50,51,52]]],"properties":{"筆ID":"H000000019","version":"ver1.0","座標系":"任意座標系","測地系判別":null,"地図名":"帯広市岩内開拓図（２５００）","地図番号":"2","縮尺分母":"2500","市区町村コード":"01207","市区町村名":"帯広市","大字コード":"645","丁目コード":"000","小字コード":"0000","予備コード":"00","大字名":"岩内町三線","丁目名":null,"小字名":null,"予備名":null,"地番":"105-2","精度区分":null,"座標値種別":"図上測量","筆界未定構成筆":null,"代表点緯度":-1689.513,"代表点経度":3879.676677108}},{"type":"MultiPolygon","arcs":[[[53,54,55,-49]]],"properties":{"筆ID":"H000000020","version":"ver1.0","座標系":"任意座標系","測地系判別":null,"地図名":"帯広市岩内開拓図（２５００）","地図番号":"2","縮尺分母":"2500","市区町村コード":"01207","市区町村名":"帯広市","大字コード":"645","丁目コード":"000","小字コード":"0000","予備コード":"00","大字名":"岩内町三線","丁目名":null,"小字名":null,"予備名":null,"地番":"105-3","精度区分":null,"座標値種別":"図上測量","筆界未定構成筆":null,"代表点緯度":-1646.9085,"代表点経度":3977.972290822}},{"type":"MultiPolygon","arcs":[[[-55,56,57,58]]],"properties":{"筆ID":"H000000021","version":"ver1.0","座標系":"任意座標系","測地系判別":null,"地図名":"帯広市岩内開拓図（２５００）","地図番号":"2","縮尺分母":"2500","市区町村コード":"01207","市区町村名":"帯広市","大字コード":"645","丁目コード":"000","小字コード":"0000","予備コード":"00","大字名":"岩内町三線","丁目名":null,"小字名":null,"予備名":null,"地番":"105-4","精度区分":null,"座標値種別":"図上測量","筆界未定構成筆":null,"代表点緯度":-1659.9405,"代表点経度":3955.860407632}},{"type":"MultiPolygon","arcs":[[[-46,59,60,61]]],"properties":{"筆ID":"H000000022","version":"ver1.0","座標系":"任意座標系","測地系判別":null,"地図名":"帯広市岩内開拓図（２５００）","地図番号":"2","縮尺分母":"2500","市区町村コード":"01207","市区町村名":"帯広市","大字コード":"645","丁目コード":"000","小字コード":"0000","予備コード":"00","大字名":"岩内町三線","丁目名":null,"小字名":null,"予備名":null,"地番":"106-1","精度区分":null,"座標値種別":"図上測量","筆界未定構成筆":null,"代表点緯度":-1503.576,"代表点経度":3972.307561294}},{"type":"MultiPolygon","arcs":[[[62,63,64]]],"properties":{"筆ID":"H000000023","version":"ver1.0","座標系":"任意座標系","測地系判別":null,"地図名":"帯広市岩内開拓図（２５００）","地図番号":"2","縮尺分母":"2500","市区町村コード":"01207","市区町村名":"帯広市","大字コード":"645","丁目コード":"000","小字コード":"0000","予備コード":"00","大字名":"岩内町三線","丁目名":null,"小字名":null,"予備名":null,"地番":"107-1","精度区分":null,"座標値種別":"図上測量","筆界未定構成筆":null,"代表点緯度":-1733.9465,"代表点経度":3791.074794056}},{"type":"MultiPolygon","arcs":[[[-64,65,66]]],"properties":{"筆ID":"H000000024","version":"ver1.0","座標系":"任意座標系","測地系判別":null,"地図名":"帯広市岩内開拓図（２５００）","地図番号":"2","縮尺分母":"2500","市区町村コード":"01207","市区町村名":"帯広市","大字コード":"645","丁目コード":"000","小字コード":"0000","予備コード":"00","大字名":"岩内町三線","丁目名":null,"小字名":null,"予備名":null,"地番":"107-2","精度区分":null,"座標値種別":"図上測量","筆界未定構成筆":null,"代表点緯度":-1840.9105,"代表点経度":3628.658271477}},{"type":"MultiPolygon","arcs":[[[67,68]]],"properties":{"筆ID":"H000000025","version":"ver1.0","座標系":"任意座標系","測地系判別":null,"地図名":"帯広市岩内開拓図（２５００）","地図番号":"2","縮尺分母":"2500","市区町村コード":"01207","市区町村名":"帯広市","大字コード":"645","丁目コード":"000","小字コード":"0000","予備コード":"00","大字名":"岩内町三線","丁目名":null,"小字名":null,"予備名":null,"地番":"108","精度区分":null,"座標値種別":"図上測量","筆界未定構成筆":null,"代表点緯度":-1723.825,"代表点経度":3639.617747783}},{"type":"MultiPolygon","arcs":[[[69,70,71,-60,-45,-42,72,-34,-26,73,-8,-18,74,-25,-31,-33,75,-38,-41,-50,-56,-59,76,-53,77,-65,-67,78,-68]]],"properties":{"筆ID":"H000000026","version":"ver1.0","座標系":"任意座標系","測地系判別":null,"地図名":"帯広市岩内開拓図（２５００）","地図番号":"2","縮尺分母":"2500","市区町村コード":"01207","市区町村名":"帯広市","大字コード":"645","丁目コード":"000","小字コード":"0000","予備コード":"00","大字名":"岩内町三線","丁目名":null,"小字名":null,"予備名":null,"地番":"道-1","精度区分":null,"座標値種別":"図上測量","筆界未定構成筆":null,"代表点緯度":-1420.2215,"代表点経度":4304.069680368}},{"type":"MultiPolygon","arcs":[[[-58,79,-51,-77]]],"properties":{"筆ID":"H000000027","version":"ver1.0","座標系":"任意座標系","測地系判別":null,"地図名":"帯広市岩内開拓図（２５００）","地図番号":"2","縮尺分母":"2500","市区町村コード":"01207","市区町村名":"帯広市","大字コード":"645","丁目コード":"000","小字コード":"0000","予備コード":"00","大字名":"岩内町三線","丁目名":null,"小字名":null,"予備名":null,"地番":"水-1","精度区分":null,"座標値種別":"図上測量","筆界未定構成筆":null,"代表点緯度":-1664.0685,"代表点経度":3923.631011305}},{"type":"MultiPolygon","arcs":[[[-61,-72,80,81]]],"properties":{"筆ID":"H000000028","version":"ver1.0","座標系":"任意座標系","測地系判別":null,"地図名":"帯広市岩内開拓図（２５００）","地図番号":"2","縮尺分母":"2500","市区町村コード":"01207","市区町村名":"帯広市","大字コード":"645","丁目コード":"000","小字コード":"0000","予備コード":"00","大字名":"岩内町三線","丁目名":null,"小字名":null,"予備名":null,"地番":"水-2","精度区分":null,"座標値種別":"図上測量","筆界未定構成筆":null,"代表点緯度":-1574.385,"代表点経度":3912.319375384}},{"type":"MultiPolygon","arcs":[[[-81,-71,82]]],"properties":{"筆ID":"H000000029","version":"ver1.0","座標系":"任意座標系","測地系判別":null,"地図名":"帯広市岩内開拓図（２５００）","地図番号":"2","縮尺分母":"2500","市区町村コード":"01207","市区町村名":"帯広市","大字コード":"645","丁目コード":"000","小字コード":"0000","予備コード":"00","大字名":"岩内町三線","丁目名":null,"小字名":null,"予備名":null,"地番":"無地番-1","精度区分":null,"座標値種別":"図上測量","筆界未定構成筆":null,"代表点緯度":-1582.195,"代表点経度":3855.954255838}}]}},"arcs":[[[832966,784628],[-9739,-18066],[-23215,-25800]],[[800012,740762],[-4224,-4694]],[[795788,736068],[-8871,-9860]],[[786917,726208],[-36895,-41005],[-2869,-137],[-10179,-9467],[-26716,-16990],[-37298,-33953],[-8535,-9633],[-6897,-9356],[-1696,-2940],[-5315,-8146],[-4334,-12953]],[[646183,581628],[-1390,-4155],[-5096,-26759],[-288,-5088]],[[639409,545626],[-353,-6228],[-2805,-9584],[-8357,-14945]],[[627894,514869],[-8565,-6058]],[[619329,508811],[-25408,66948]],[[593921,575759],[103222,110457],[24238,16725],[58588,39345],[36150,24276],[16847,18066]],[[805095,732785],[-5083,7977]],[[832966,784628],[27215,29182],[22406,18885],[8071,11507],[14135,14324],[28386,40225],[15539,29655],[5093,22422],[7128,10245],[10217,7573],[8694,15849],[9105,6607],[7588,8897],[3456,-5557],[-9294,-10369],[-9006,-11398],[-6116,-8406],[-8626,-13615],[-7014,-12591],[-6467,-13330],[-13915,-33050],[-6160,-11388],[-7923,-12882],[-2964,-4030],[-11015,-14607],[-23122,-28418],[-83282,-87573]],[[805095,732785],[-4348,-4572]],[[800747,728213],[-2913,4614]],[[797834,732827],[-2046,3241]],[[637493,513367],[-1709,-7579],[-5105,-4148],[-8775,388]],[[621904,502028],[15589,11339]],[[639718,523233],[-2225,-9866]],[[621904,502028],[-2575,6783]],[[627894,514869],[11824,8364]],[[639409,545626],[6774,36002]],[[786917,726208],[10917,6619]],[[800747,728213],[-13971,-14691],[-49797,-51447],[-20549,-20321],[-7451,-4874],[-17480,-8180],[-7977,-4809],[-15263,-15492],[-6410,-9912],[-5599,-10315],[-4284,-11071],[-3418,-13200],[-4579,-21818],[-4251,-18850]],[[623236,481144],[-30759,-26275],[-3345,-40753],[-29129,-44054],[-27013,-42087]],[[532990,327975],[-33237,86837]],[[499753,414812],[116999,83301],[6484,-16969]],[[588334,572812],[25673,-67666],[-117261,-84088],[-2862,-2069]],[[493884,418989],[-26631,70399]],[[467253,489388],[12669,11027],[34058,25102],[74354,47295]],[[532990,327975],[-24824,-38679]],[[508166,289296],[-39542,102966]],[[468624,392262],[31129,22550]],[[508166,289296],[-49600,-9583],[-22730,-27869],[-18670,-22018]],[[417166,229826],[-37668,97861],[89126,64575]],[[493884,418989],[-116855,-84474],[-25933,67654]],[[351096,402169],[11855,9736],[64977,45768],[39325,31715]],[[412757,224626],[-24162,-21277]],[[388595,203349],[-39415,102355]],[[349180,305704],[25264,18279],[38313,-99357]],[[388595,203349],[-43966,-32009],[-25000,11143],[-34896,-24911]],[[284733,157572],[-30318,79771]],[[254415,237343],[85846,61796],[2955,111],[4283,3017],[1681,3437]],[[346326,398251],[25773,-67923],[-91962,-66019]],[[280137,264309],[-31341,83402]],[[248796,347711],[18492,7974],[48306,20567],[30732,21999]],[[280137,264309],[-28191,-20238]],[[251946,244071],[-33877,88585]],[[218069,332656],[11951,6958],[18776,8097]],[[284733,157572],[-18466,-13182],[-46812,8864]],[[219455,153254],[-15420,32198],[-593,15198]],[[203442,200650],[50973,36693]],[[176525,181125],[3875,-14496],[-2937,-19084],[7667,-14023]],[[185130,133522],[-34797,-25267]],[[150333,108255],[-15949,42343],[42141,30527]],[[219455,153254],[-5247,993]],[[214208,154247],[-15349,32181],[-5555,6923]],[[193304,193351],[10138,7299]],[[214208,154247],[-23997,-17008]],[[190211,137239],[-6938,12216],[2736,18062],[-4418,17403]],[[181591,184920],[11713,8431]],[[251946,244071],[-72129,-51780]],[[179817,192291],[-3418,11780],[4783,31603],[-7398,25635],[-7634,14338]],[[166150,275647],[10252,13804],[17796,29305],[23871,13900]],[[145375,104655],[-43992,-31943]],[[101383,72712],[-16333,42549]],[[85050,115261],[44008,31648],[16317,-42254]],[[101383,72712],[-88234,-72712],[-6632,74059]],[[6517,74059],[30718,6818],[47815,34384]],[[111413,193766],[15523,-39855],[-91394,-65788],[-29703,-6495]],[[5839,81628],[-5839,64095],[24903,215],[42654,7817],[35259,24689],[8597,15322]],[[111413,193766],[4010,7147]],[[115423,200913],[16299,-43138],[43257,31002]],[[174979,188777],[4838,3514]],[[346326,398251],[4770,3918]],[[588334,572812],[5587,2947]],[[621904,502028],[6305,-16615],[-4973,-4269]],[[417166,229826],[-4409,-5200]],[[181591,184920],[-5066,-3795]],[[150333,108255],[-4958,-3600]],[[6517,74059],[-678,7569]],[[190211,137239],[-5081,-3717]],[[174979,188777],[-3939,15567],[4939,30819],[-6658,22556],[-6837,12992]],[[162484,270711],[3666,4936]],[[115423,200913],[13186,23502],[19286,26650],[14589,19646]]],"bbox":[3561.843,-1893.745,5551.59,-440.483],"transform":{"scale":[0.00198974898974899,0.0014532634532634532],"translate":[3561.843,-1893.745]}}
