{"type":"Topology","objects":{"01207-4601-5.featurecollection":{"type":"GeometryCollection","geometries":[{"type":"Polygon","arcs":[[0,1,2,3,4]],"properties":{"市区町村名":"帯広市","大字名":"西十八条南","丁目名":"５丁目","小字名":null,"地番":"1-2","精度区分":null,"座標系":"任意座標系"}},{"type":"Polygon","arcs":[[5,6,7,8,9]],"properties":{"市区町村名":"帯広市","大字名":"西十八条南","丁目名":"５丁目","小字名":null,"地番":"1-4","精度区分":null,"座標系":"任意座標系"}},{"type":"Polygon","arcs":[[10,11,12,13,-7,14]],"properties":{"市区町村名":"帯広市","大字名":"西十八条南","丁目名":"５丁目","小字名":null,"地番":"1-5","精度区分":null,"座標系":"任意座標系"}},{"type":"Polygon","arcs":[[15,16,17,-12,18]],"properties":{"市区町村名":"帯広市","大字名":"西十八条南","丁目名":"５丁目","小字名":null,"地番":"1-6","精度区分":null,"座標系":"任意座標系"}},{"type":"Polygon","arcs":[[19,20,21,-16,22]],"properties":{"市区町村名":"帯広市","大字名":"西十八条南","丁目名":"５丁目","小字名":null,"地番":"1-7","精度区分":null,"座標系":"任意座標系"}},{"type":"Polygon","arcs":[[23,24,25,26,-20]],"properties":{"市区町村名":"帯広市","大字名":"西十八条南","丁目名":"５丁目","小字名":null,"地番":"1-8","精度区分":null,"座標系":"任意座標系"}},{"type":"Polygon","arcs":[[27,28,29,30,31,-25]],"properties":{"市区町村名":"帯広市","大字名":"西十八条南","丁目名":"５丁目","小字名":null,"地番":"1-9","精度区分":null,"座標系":"任意座標系"}},{"type":"Polygon","arcs":[[-31,32,33,34]],"properties":{"市区町村名":"帯広市","大字名":"西十八条南","丁目名":"５丁目","小字名":null,"地番":"1-10","精度区分":null,"座標系":"任意座標系"}},{"type":"Polygon","arcs":[[35,36,-34]],"properties":{"市区町村名":"帯広市","大字名":"西十八条南","丁目名":"５丁目","小字名":null,"地番":"1-11","精度区分":null,"座標系":"任意座標系"}},{"type":"Polygon","arcs":[[-32,-35,-37,37,38,-26]],"properties":{"市区町村名":"帯広市","大字名":"西十八条南","丁目名":"５丁目","小字名":null,"地番":"1-12","精度区分":null,"座標系":"任意座標系"}},{"type":"Polygon","arcs":[[-27,-39,39,40,-21]],"properties":{"市区町村名":"帯広市","大字名":"西十八条南","丁目名":"５丁目","小字名":null,"地番":"1-15","精度区分":null,"座標系":"任意座標系"}},{"type":"Polygon","arcs":[[-22,-41,41,42,-17]],"properties":{"市区町村名":"帯広市","大字名":"西十八条南","丁目名":"５丁目","小字名":null,"地番":"1-16","精度区分":null,"座標系":"任意座標系"}},{"type":"Polygon","arcs":[[-18,-43,43,44,-13]],"properties":{"市区町村名":"帯広市","大字名":"西十八条南","丁目名":"５丁目","小字名":null,"地番":"1-17","精度区分":null,"座標系":"任意座標系"}},{"type":"Polygon","arcs":[[-14,-45,45,46,-8]],"properties":{"市区町村名":"帯広市","大字名":"西十八条南","丁目名":"５丁目","小字名":null,"地番":"1-18","精度区分":null,"座標系":"任意座標系"}},{"type":"Polygon","arcs":[[47,48,49,50]],"properties":{"市区町村名":"帯広市","大字名":"西十八条南","丁目名":"５丁目","小字名":null,"地番":"1-22","精度区分":null,"座標系":"任意座標系"}},{"type":"Polygon","arcs":[[51,52,-48,53,54]],"properties":{"市区町村名":"帯広市","大字名":"西十八条南","丁目名":"５丁目","小字名":null,"地番":"1-23","精度区分":null,"座標系":"任意座標系"}},{"type":"Polygon","arcs":[[55,-55,56,57]],"properties":{"市区町村名":"帯広市","大字名":"西十八条南","丁目名":"５丁目","小字名":null,"地番":"1-24","精度区分":null,"座標系":"任意座標系"}},{"type":"Polygon","arcs":[[58,59,60,61]],"properties":{"市区町村名":"帯広市","大字名":"西十八条南","丁目名":"５丁目","小字名":null,"地番":"1-26","精度区分":null,"座標系":"任意座標系"}},{"type":"Polygon","arcs":[[62,63,64,65]],"properties":{"市区町村名":"帯広市","大字名":"西十八条南","丁目名":"５丁目","小字名":null,"地番":"1-27","精度区分":null,"座標系":"任意座標系"}},{"type":"Polygon","arcs":[[66,67,68,-63,69,70]],"properties":{"市区町村名":"帯広市","大字名":"西十八条南","丁目名":"５丁目","小字名":null,"地番":"1-29","精度区分":null,"座標系":"任意座標系"}},{"type":"Polygon","arcs":[[71,-71,72]],"properties":{"市区町村名":"帯広市","大字名":"西十八条南","丁目名":"５丁目","小字名":null,"地番":"1-30","精度区分":null,"座標系":"任意座標系"}},{"type":"Polygon","arcs":[[73,74,-67,-72]],"properties":{"市区町村名":"帯広市","大字名":"西十八条南","丁目名":"５丁目","小字名":null,"地番":"1-31","精度区分":null,"座標系":"任意座標系"}},{"type":"Polygon","arcs":[[-75,75,76,-68]],"properties":{"市区町村名":"帯広市","大字名":"西十八条南","丁目名":"５丁目","小字名":null,"地番":"1-32","精度区分":null,"座標系":"任意座標系"}},{"type":"Polygon","arcs":[[-69,-77,77,78,79,-64]],"properties":{"市区町村名":"帯広市","大字名":"西十八条南","丁目名":"５丁目","小字名":null,"地番":"1-33","精度区分":null,"座標系":"任意座標系"}},{"type":"Polygon","arcs":[[-79,80,-59,81,82]],"properties":{"市区町村名":"帯広市","大字名":"西十八条南","丁目名":"５丁目","小字名":null,"地番":"1-34","精度区分":null,"座標系":"任意座標系"}},{"type":"Polygon","arcs":[[83,84,85,-61]],"properties":{"市区町村名":"帯広市","大字名":"西十八条南","丁目名":"５丁目","小字名":null,"地番":"1-35","精度区分":null,"座標系":"任意座標系"}},{"type":"Polygon","arcs":[[-85,86,87,-56]],"properties":{"市区町村名":"帯広市","大字名":"西十八条南","丁目名":"５丁目","小字名":null,"地番":"1-36","精度区分":null,"座標系":"任意座標系"}},{"type":"Polygon","arcs":[[88,89,90,-52,-88]],"properties":{"市区町村名":"帯広市","大字名":"西十八条南","丁目名":"５丁目","小字名":null,"地番":"1-37","精度区分":null,"座標系":"任意座標系"}},{"type":"Polygon","arcs":[[91,92,-90]],"properties":{"市区町村名":"帯広市","大字名":"西十八条南","丁目名":"５丁目","小字名":null,"地番":"1-38","精度区分":null,"座標系":"任意座標系"}},{"type":"Polygon","arcs":[[-53,-91,-93,93,-49]],"properties":{"市区町村名":"帯広市","大字名":"西十八条南","丁目名":"５丁目","小字名":null,"地番":"1-39","精度区分":null,"座標系":"任意座標系"}},{"type":"Polygon","arcs":[[94,95,96,97]],"properties":{"市区町村名":"帯広市","大字名":"西十八条南","丁目名":"５丁目","小字名":null,"地番":"1-40","精度区分":null,"座標系":"任意座標系"}},{"type":"Polygon","arcs":[[98,99,100,101]],"properties":{"市区町村名":"帯広市","大字名":"西十八条南","丁目名":"５丁目","小字名":null,"地番":"1-41","精度区分":null,"座標系":"任意座標系"}},{"type":"Polygon","arcs":[[102,-102,103,104]],"properties":{"市区町村名":"帯広市","大字名":"西十八条南","丁目名":"５丁目","小字名":null,"地番":"1-42","精度区分":null,"座標系":"任意座標系"}},{"type":"Polygon","arcs":[[105,106,-105,107]],"properties":{"市区町村名":"帯広市","大字名":"西十八条南","丁目名":"５丁目","小字名":null,"地番":"1-43","精度区分":null,"座標系":"任意座標系"}},{"type":"Polygon","arcs":[[108,109,-106,110]],"properties":{"市区町村名":"帯広市","大字名":"西十八条南","丁目名":"５丁目","小字名":null,"地番":"1-44","精度区分":null,"座標系":"任意座標系"}},{"type":"Polygon","arcs":[[111,112,113,-109,114]],"properties":{"市区町村名":"帯広市","大字名":"西十八条南","丁目名":"５丁目","小字名":null,"地番":"1-45","精度区分":null,"座標系":"任意座標系"}},{"type":"Polygon","arcs":[[115,116,117,-113]],"properties":{"市区町村名":"帯広市","大字名":"西十八条南","丁目名":"５丁目","小字名":null,"地番":"1-47","精度区分":null,"座標系":"任意座標系"}},{"type":"Polygon","arcs":[[-118,118,119,-110,-114]],"properties":{"市区町村名":"帯広市","大字名":"西十八条南","丁目名":"５丁目","小字名":null,"地番":"1-48","精度区分":null,"座標系":"任意座標系"}},{"type":"Polygon","arcs":[[120,121,-107,-120]],"properties":{"市区町村名":"帯広市","大字名":"西十八条南","丁目名":"５丁目","小字名":null,"地番":"1-50","精度区分":null,"座標系":"任意座標系"}},{"type":"Polygon","arcs":[[-122,122,123,-103]],"properties":{"市区町村名":"帯広市","大字名":"西十八条南","丁目名":"５丁目","小字名":null,"地番":"1-51","精度区分":null,"座標系":"任意座標系"}},{"type":"Polygon","arcs":[[-124,124,125,-99]],"properties":{"市区町村名":"帯広市","大字名":"西十八条南","丁目名":"５丁目","小字名":null,"地番":"1-52","精度区分":null,"座標系":"任意座標系"}},{"type":"Polygon","arcs":[[126,127,-96]],"properties":{"市区町村名":"帯広市","大字名":"西十八条南","丁目名":"５丁目","小字名":null,"地番":"1-53","精度区分":null,"座標系":"任意座標系"}},{"type":"Polygon","arcs":[[128,129,130,131]],"properties":{"市区町村名":"帯広市","大字名":"西十八条南","丁目名":"５丁目","小字名":null,"地番":"1-54","精度区分":null,"座標系":"任意座標系"}},{"type":"Polygon","arcs":[[132,133,134,-129,135]],"properties":{"市区町村名":"帯広市","大字名":"西十八条南","丁目名":"５丁目","小字名":null,"地番":"1-55","精度区分":null,"座標系":"任意座標系"}},{"type":"Polygon","arcs":[[136,137,138,-133,139]],"properties":{"市区町村名":"帯広市","大字名":"西十八条南","丁目名":"５丁目","小字名":null,"地番":"1-56","精度区分":null,"座標系":"任意座標系"}},{"type":"Polygon","arcs":[[140,141,142,143,-137,144]],"properties":{"市区町村名":"帯広市","大字名":"西十八条南","丁目名":"５丁目","小字名":null,"地番":"1-57","精度区分":null,"座標系":"任意座標系"}},{"type":"Polygon","arcs":[[145,146,147,-141,148]],"properties":{"市区町村名":"帯広市","大字名":"西十八条南","丁目名":"５丁目","小字名":null,"地番":"1-58","精度区分":null,"座標系":"任意座標系"}},{"type":"Polygon","arcs":[[149,150,-146,151,152]],"properties":{"市区町村名":"帯広市","大字名":"西十八条南","丁目名":"５丁目","小字名":null,"地番":"1-59","精度区分":null,"座標系":"任意座標系"}},{"type":"Polygon","arcs":[[153,-153,154,155]],"properties":{"市区町村名":"帯広市","大字名":"西十八条南","丁目名":"５丁目","小字名":null,"地番":"1-60","精度区分":null,"座標系":"任意座標系"}},{"type":"Polygon","arcs":[[156,157,-156,158,159]],"properties":{"市区町村名":"帯広市","大字名":"西十八条南","丁目名":"５丁目","小字名":null,"地番":"1-61","精度区分":null,"座標系":"任意座標系"}},{"type":"Polygon","arcs":[[160,161,-160,162,163]],"properties":{"市区町村名":"帯広市","大字名":"西十八条南","丁目名":"５丁目","小字名":null,"地番":"1-62","精度区分":null,"座標系":"任意座標系"}},{"type":"Polygon","arcs":[[164,165,166,-164,167]],"properties":{"市区町村名":"帯広市","大字名":"西十八条南","丁目名":"５丁目","小字名":null,"地番":"1-63","精度区分":null,"座標系":"任意座標系"}},{"type":"Polygon","arcs":[[168,-166,169]],"properties":{"市区町村名":"帯広市","大字名":"西十八条南","丁目名":"５丁目","小字名":null,"地番":"1-64","精度区分":null,"座標系":"任意座標系"}},{"type":"Polygon","arcs":[[-167,-169,170,171,-161]],"properties":{"市区町村名":"帯広市","大字名":"西十八条南","丁目名":"５丁目","小字名":null,"地番":"1-65","精度区分":null,"座標系":"任意座標系"}},{"type":"Polygon","arcs":[[-162,-172,172,173,-157]],"properties":{"市区町村名":"帯広市","大字名":"西十八条南","丁目名":"５丁目","小字名":null,"地番":"1-66","精度区分":null,"座標系":"任意座標系"}},{"type":"Polygon","arcs":[[-154,-158,-174,174,175,-150]],"properties":{"市区町村名":"帯広市","大字名":"西十八条南","丁目名":"５丁目","小字名":null,"地番":"1-67","精度区分":null,"座標系":"任意座標系"}},{"type":"Polygon","arcs":[[-176,176,177,-147,-151]],"properties":{"市区町村名":"帯広市","大字名":"西十八条南","丁目名":"５丁目","小字名":null,"地番":"1-68","精度区分":null,"座標系":"任意座標系"}},{"type":"Polygon","arcs":[[-178,178,179,-142,-148]],"properties":{"市区町村名":"帯広市","大字名":"西十八条南","丁目名":"５丁目","小字名":null,"地番":"1-69","精度区分":null,"座標系":"任意座標系"}},{"type":"Polygon","arcs":[[180,181,-143,-180]],"properties":{"市区町村名":"帯広市","大字名":"西十八条南","丁目名":"５丁目","小字名":null,"地番":"1-70","精度区分":null,"座標系":"任意座標系"}},{"type":"Polygon","arcs":[[-144,-182,182,183,-138]],"properties":{"市区町村名":"帯広市","大字名":"西十八条南","丁目名":"５丁目","小字名":null,"地番":"1-71","精度区分":null,"座標系":"任意座標系"}},{"type":"Polygon","arcs":[[-139,-184,184,185,-134]],"properties":{"市区町村名":"帯広市","大字名":"西十八条南","丁目名":"５丁目","小字名":null,"地番":"1-72","精度区分":null,"座標系":"任意座標系"}},{"type":"Polygon","arcs":[[-135,-186,186,-130]],"properties":{"市区町村名":"帯広市","大字名":"西十八条南","丁目名":"５丁目","小字名":null,"地番":"1-73","精度区分":null,"座標系":"任意座標系"}},{"type":"Polygon","arcs":[[187,188,189,190]],"properties":{"市区町村名":"帯広市","大字名":"西十八条南","丁目名":"５丁目","小字名":null,"地番":"1-74","精度区分":null,"座標系":"任意座標系"}},{"type":"Polygon","arcs":[[191,192,193,194,-188,195]],"properties":{"市区町村名":"帯広市","大字名":"西十八条南","丁目名":"５丁目","小字名":null,"地番":"1-75","精度区分":null,"座標系":"任意座標系"}},{"type":"Polygon","arcs":[[196,197,198,199,-193]],"properties":{"市区町村名":"帯広市","大字名":"西十八条南","丁目名":"５丁目","小字名":null,"地番":"1-76","精度区分":null,"座標系":"任意座標系"}},{"type":"Polygon","arcs":[[200,201,202,-199]],"properties":{"市区町村名":"帯広市","大字名":"西十八条南","丁目名":"５丁目","小字名":null,"地番":"1-77","精度区分":null,"座標系":"任意座標系"}},{"type":"Polygon","arcs":[[203,204,205,-202]],"properties":{"市区町村名":"帯広市","大字名":"西十八条南","丁目名":"５丁目","小字名":null,"地番":"1-78","精度区分":null,"座標系":"任意座標系"}},{"type":"Polygon","arcs":[[206,207,208,-205]],"properties":{"市区町村名":"帯広市","大字名":"西十八条南","丁目名":"５丁目","小字名":null,"地番":"1-79","精度区分":null,"座標系":"任意座標系"}},{"type":"Polygon","arcs":[[209,210,211,-208]],"properties":{"市区町村名":"帯広市","大字名":"西十八条南","丁目名":"５丁目","小字名":null,"地番":"1-80","精度区分":null,"座標系":"任意座標系"}},{"type":"Polygon","arcs":[[212,213,-212]],"properties":{"市区町村名":"帯広市","大字名":"西十八条南","丁目名":"５丁目","小字名":null,"地番":"1-81","精度区分":null,"座標系":"任意座標系"}},{"type":"Polygon","arcs":[[-209,-214,214,215]],"properties":{"市区町村名":"帯広市","大字名":"西十八条南","丁目名":"５丁目","小字名":null,"地番":"1-82","精度区分":null,"座標系":"任意座標系"}},{"type":"Polygon","arcs":[[-206,-216,216,217,218]],"properties":{"市区町村名":"帯広市","大字名":"西十八条南","丁目名":"５丁目","小字名":null,"地番":"1-83","精度区分":null,"座標系":"任意座標系"}},{"type":"Polygon","arcs":[[-218,219,220,221]],"properties":{"市区町村名":"帯広市","大字名":"西十八条南","丁目名":"５丁目","小字名":null,"地番":"1-84","精度区分":null,"座標系":"任意座標系"}},{"type":"Polygon","arcs":[[-200,222,-221,223,224,-194]],"properties":{"市区町村名":"帯広市","大字名":"西十八条南","丁目名":"５丁目","小字名":null,"地番":"1-85","精度区分":null,"座標系":"任意座標系"}},{"type":"Polygon","arcs":[[-225,225,-189,-195]],"properties":{"市区町村名":"帯広市","大字名":"西十八条南","丁目名":"５丁目","小字名":null,"地番":"1-86","精度区分":null,"座標系":"任意座標系"}},{"type":"Polygon","arcs":[[226,227,228,229]],"properties":{"市区町村名":"帯広市","大字名":"西十八条南","丁目名":"５丁目","小字名":null,"地番":"1-87","精度区分":null,"座標系":"任意座標系"}},{"type":"Polygon","arcs":[[230,-227,231,232]],"properties":{"市区町村名":"帯広市","大字名":"西十八条南","丁目名":"５丁目","小字名":null,"地番":"1-88","精度区分":null,"座標系":"任意座標系"}},{"type":"Polygon","arcs":[[233,234,-233,235]],"properties":{"市区町村名":"帯広市","大字名":"西十八条南","丁目名":"５丁目","小字名":null,"地番":"1-89","精度区分":null,"座標系":"任意座標系"}},{"type":"Polygon","arcs":[[236,237,-234,238,239]],"properties":{"市区町村名":"帯広市","大字名":"西十八条南","丁目名":"５丁目","小字名":null,"地番":"1-90","精度区分":null,"座標系":"任意座標系"}},{"type":"Polygon","arcs":[[240,241,-240,242,243]],"properties":{"市区町村名":"帯広市","大字名":"西十八条南","丁目名":"５丁目","小字名":null,"地番":"1-91","精度区分":null,"座標系":"任意座標系"}},{"type":"Polygon","arcs":[[244,245,246,-241]],"properties":{"市区町村名":"帯広市","大字名":"西十八条南","丁目名":"５丁目","小字名":null,"地番":"1-92","精度区分":null,"座標系":"任意座標系"}},{"type":"Polygon","arcs":[[-242,-247,247,248,-237]],"properties":{"市区町村名":"帯広市","大字名":"西十八条南","丁目名":"５丁目","小字名":null,"地番":"1-93","精度区分":null,"座標系":"任意座標系"}},{"type":"Polygon","arcs":[[-238,-249,249,250,-235]],"properties":{"市区町村名":"帯広市","大字名":"西十八条南","丁目名":"５丁目","小字名":null,"地番":"1-94","精度区分":null,"座標系":"任意座標系"}},{"type":"Polygon","arcs":[[-251,251,252,-231]],"properties":{"市区町村名":"帯広市","大字名":"西十八条南","丁目名":"５丁目","小字名":null,"地番":"1-95","精度区分":null,"座標系":"任意座標系"}},{"type":"Polygon","arcs":[[253,-228,-253]],"properties":{"市区町村名":"帯広市","大字名":"西十八条南","丁目名":"５丁目","小字名":null,"地番":"1-96","精度区分":null,"座標系":"任意座標系"}},{"type":"Polygon","arcs":[[254,255,256,257]],"properties":{"市区町村名":"帯広市","大字名":"西十八条南","丁目名":"５丁目","小字名":null,"地番":"1-97","精度区分":null,"座標系":"任意座標系"}},{"type":"Polygon","arcs":[[258,259,-255,260]],"properties":{"市区町村名":"帯広市","大字名":"西十八条南","丁目名":"５丁目","小字名":null,"地番":"1-98","精度区分":null,"座標系":"任意座標系"}},{"type":"Polygon","arcs":[[261,262,263,-259,264,265]],"properties":{"市区町村名":"帯広市","大字名":"西十八条南","丁目名":"５丁目","小字名":null,"地番":"1-100","精度区分":null,"座標系":"任意座標系"}},{"type":"Polygon","arcs":[[266,267,-266,268]],"properties":{"市区町村名":"帯広市","大字名":"西十八条南","丁目名":"５丁目","小字名":null,"地番":"1-101","精度区分":null,"座標系":"任意座標系"}},{"type":"Polygon","arcs":[[269,270,-262,-268,271]],"properties":{"市区町村名":"帯広市","大字名":"西十八条南","丁目名":"５丁目","小字名":null,"地番":"1-102","精度区分":null,"座標系":"任意座標系"}},{"type":"Polygon","arcs":[[272,273,274,-270]],"properties":{"市区町村名":"帯広市","大字名":"西十八条南","丁目名":"５丁目","小字名":null,"地番":"1-103","精度区分":null,"座標系":"任意座標系"}},{"type":"Polygon","arcs":[[-271,-275,275,276,-263]],"properties":{"市区町村名":"帯広市","大字名":"西十八条南","丁目名":"５丁目","小字名":null,"地番":"1-104","精度区分":null,"座標系":"任意座標系"}},{"type":"Polygon","arcs":[[277,278,279]],"properties":{"市区町村名":"帯広市","大字名":"西十八条南","丁目名":"５丁目","小字名":null,"地番":"1-106","精度区分":null,"座標系":"任意座標系"}},{"type":"Polygon","arcs":[[280,-280,281,-256]],"properties":{"市区町村名":"帯広市","大字名":"西十八条南","丁目名":"５丁目","小字名":null,"地番":"1-107","精度区分":null,"座標系":"任意座標系"}},{"type":"Polygon","arcs":[[282,283,284,285]],"properties":{"市区町村名":"帯広市","大字名":"西十八条南","丁目名":"５丁目","小字名":null,"地番":"1-109","精度区分":null,"座標系":"任意座標系"}},{"type":"Polygon","arcs":[[286,287,288,289,290]],"properties":{"市区町村名":"帯広市","大字名":"西十八条南","丁目名":"５丁目","小字名":null,"地番":"1-111","精度区分":null,"座標系":"任意座標系"}},{"type":"Polygon","arcs":[[291,292,293,-289,294]],"properties":{"市区町村名":"帯広市","大字名":"西十八条南","丁目名":"５丁目","小字名":null,"地番":"1-112","精度区分":null,"座標系":"任意座標系"}},{"type":"Polygon","arcs":[[295,296,-292,297]],"properties":{"市区町村名":"帯広市","大字名":"西十八条南","丁目名":"５丁目","小字名":null,"地番":"1-113","精度区分":null,"座標系":"任意座標系"}},{"type":"Polygon","arcs":[[298,299,300,-296]],"properties":{"市区町村名":"帯広市","大字名":"西十八条南","丁目名":"５丁目","小字名":null,"地番":"1-114","精度区分":null,"座標系":"任意座標系"}},{"type":"Polygon","arcs":[[301,302,303,304,-300]],"properties":{"市区町村名":"帯広市","大字名":"西十八条南","丁目名":"５丁目","小字名":null,"地番":"1-115","精度区分":null,"座標系":"任意座標系"}},{"type":"Polygon","arcs":[[305,306,307,308,-304]],"properties":{"市区町村名":"帯広市","大字名":"西十八条南","丁目名":"５丁目","小字名":null,"地番":"1-116","精度区分":null,"座標系":"任意座標系"}},{"type":"Polygon","arcs":[[309,310,311,-307]],"properties":{"市区町村名":"帯広市","大字名":"西十八条南","丁目名":"５丁目","小字名":null,"地番":"1-117","精度区分":null,"座標系":"任意座標系"}},{"type":"Polygon","arcs":[[-312,312,313,-308]],"properties":{"市区町村名":"帯広市","大字名":"西十八条南","丁目名":"５丁目","小字名":null,"地番":"1-118","精度区分":null,"座標系":"任意座標系"}},{"type":"Polygon","arcs":[[-314,314,315,-309]],"properties":{"市区町村名":"帯広市","大字名":"西十八条南","丁目名":"５丁目","小字名":null,"地番":"1-119","精度区分":null,"座標系":"任意座標系"}},{"type":"Polygon","arcs":[[-316,316,317,-305]],"properties":{"市区町村名":"帯広市","大字名":"西十八条南","丁目名":"５丁目","小字名":null,"地番":"1-120","精度区分":null,"座標系":"任意座標系"}},{"type":"Polygon","arcs":[[-301,-318,318,319]],"properties":{"市区町村名":"帯広市","大字名":"西十八条南","丁目名":"５丁目","小字名":null,"地番":"1-121","精度区分":null,"座標系":"任意座標系"}},{"type":"Polygon","arcs":[[-320,320,321,-297]],"properties":{"市区町村名":"帯広市","大字名":"西十八条南","丁目名":"５丁目","小字名":null,"地番":"1-122","精度区分":null,"座標系":"任意座標系"}},{"type":"Polygon","arcs":[[-293,-322,322,323]],"properties":{"市区町村名":"帯広市","大字名":"西十八条南","丁目名":"５丁目","小字名":null,"地番":"1-123","精度区分":null,"座標系":"任意座標系"}},{"type":"Polygon","arcs":[[-294,-324,324,325,-290]],"properties":{"市区町村名":"帯広市","大字名":"西十八条南","丁目名":"５丁目","小字名":null,"地番":"1-124","精度区分":null,"座標系":"任意座標系"}},{"type":"Polygon","arcs":[[-326,326,327,328]],"properties":{"市区町村名":"帯広市","大字名":"西十八条南","丁目名":"５丁目","小字名":null,"地番":"1-125","精度区分":null,"座標系":"任意座標系"}},{"type":"Polygon","arcs":[[329,330,-115,-111,-108,-104,-101,331,-98,332,-15,-6,333,-1,334,-50,-94,-92,-89,-87,-84,-60,-81,-78,-76,-74,-73,-70,-66,335,336,337,-57,-54,-51,-335,-5,338,339]],"properties":{"市区町村名":"帯広市","大字名":"西十八条南","丁目名":"５丁目","小字名":null,"地番":"1-128","精度区分":null,"座標系":"任意座標系"}},{"type":"Polygon","arcs":[[-128,340,-125,-123,-121,-119,-117,341,-155,-152,-149,-145,-140,-136,-132,342,-28,-24,-23,-19,-11,-333,-97]],"properties":{"市区町村名":"帯広市","大字名":"西十八条南","丁目名":"５丁目","小字名":null,"地番":"1-129","精度区分":null,"座標系":"任意座標系"}},{"type":"Polygon","arcs":[[343,344,-168,-163,-159,-342,-116,-112,-331,345]],"properties":{"市区町村名":"帯広市","大字名":"西十八条南","丁目名":"５丁目","小字名":null,"地番":"1-130","精度区分":null,"座標系":"任意座標系"}},{"type":"Polygon","arcs":[[-343,-131,-187,-185,-183,-181,-179,-177,-175,-173,-171,-170,-165,-345,346,347,-196,-191,348,-269,-265,-261,-258,349,-287,350,-286,351,-29]],"properties":{"市区町村名":"帯広市","大字名":"西十八条南","丁目名":"５丁目","小字名":null,"地番":"1-131","精度区分":null,"座標系":"任意座標系"}},{"type":"Polygon","arcs":[[-226,-224,-220,-217,-215,-213,-211,352,353,-245,-244,354,-273,-272,-267,-349,-190]],"properties":{"市区町村名":"帯広市","大字名":"西十八条南","丁目名":"５丁目","小字名":null,"地番":"1-132","精度区分":null,"座標系":"任意座標系"}},{"type":"Polygon","arcs":[[-257,-282,-279,355,-276,-274,-355,-243,-239,-236,-232,-230,356,-302,-299,-298,-295,-288,-350]],"properties":{"市区町村名":"帯広市","大字名":"西十八条南","丁目名":"５丁目","小字名":null,"地番":"1-133","精度区分":null,"座標系":"任意座標系"}},{"type":"Polygon","arcs":[[-229,-254,-252,-250,-248,-246,-354,357,358,-310,-306,-303,-357]],"properties":{"市区町村名":"帯広市","大字名":"西十八条南","丁目名":"５丁目","小字名":null,"地番":"1-134","精度区分":null,"座標系":"任意座標系"}},{"type":"Polygon","arcs":[[-327,-325,-323,-321,-319,-317,-315,-313,-311,-359,359,360,361]],"properties":{"市区町村名":"帯広市","大字名":"西十八条南","丁目名":"５丁目","小字名":null,"地番":"1-135","精度区分":null,"座標系":"任意座標系"}},{"type":"Polygon","arcs":[[-10,362,363,-2,-334]],"properties":{"市区町村名":"帯広市","大字名":"西十八条南","丁目名":"５丁目","小字名":null,"地番":"1-136","精度区分":null,"座標系":"任意座標系"}},{"type":"Polygon","arcs":[[364,365,366,-284]],"properties":{"市区町村名":"帯広市","大字名":"西十八条南","丁目名":"５丁目","小字名":null,"地番":"1-137","精度区分":null,"座標系":"任意座標系"}},{"type":"Polygon","arcs":[[-366,-328,-362,367]],"properties":{"市区町村名":"帯広市","大字名":"西十八条南","丁目名":"５丁目","小字名":null,"地番":"1-138","精度区分":null,"座標系":"任意座標系"}},{"type":"Polygon","arcs":[[-351,-291,-329,-365,-283]],"properties":{"市区町村名":"帯広市","大字名":"西十八条南","丁目名":"５丁目","小字名":null,"地番":"1-139","精度区分":null,"座標系":"任意座標系"}},{"type":"Polygon","arcs":[[368,-197,-192,-348]],"properties":{"市区町村名":"帯広市","大字名":"西十八条南","丁目名":"５丁目","小字名":null,"地番":"1-141","精度区分":null,"座標系":"任意座標系"}},{"type":"Polygon","arcs":[[369,-95,-332,-100]],"properties":{"市区町村名":"帯広市","大字名":"西十八条南","丁目名":"５丁目","小字名":null,"地番":"1-143","精度区分":null,"座標系":"任意座標系"}},{"type":"Polygon","arcs":[[-126,-341,-127,-370]],"properties":{"市区町村名":"帯広市","大字名":"西十八条南","丁目名":"５丁目","小字名":null,"地番":"1-144","精度区分":null,"座標系":"任意座標系"}},{"type":"Polygon","arcs":[[-203,-219,-222,-223]],"properties":{"市区町村名":"帯広市","大字名":"西十八条南","丁目名":"５丁目","小字名":null,"地番":"1-145","精度区分":null,"座標系":"任意座標系"}},{"type":"Polygon","arcs":[[-277,-356,-278,-281,-260,-264]],"properties":{"市区町村名":"帯広市","大字名":"西十八条南","丁目名":"５丁目","小字名":null,"地番":"1-147","精度区分":null,"座標系":"任意座標系"}},{"type":"Polygon","arcs":[[370,-346,-330]],"properties":{"市区町村名":"帯広市","大字名":"西十八条南","丁目名":"５丁目","小字名":null,"地番":"1-126W2","精度区分":null,"座標系":"任意座標系"}},{"type":"Polygon","arcs":[[-364,371,372,373,-3]],"properties":{"市区町村名":"帯広市","大字名":"西十八条南","丁目名":"５丁目","小字名":null,"地番":"1-148","精度区分":null,"座標系":"任意座標系"}},{"type":"Polygon","arcs":[[-373,374,375]],"properties":{"市区町村名":"帯広市","大字名":"西十八条南","丁目名":"５丁目","小字名":null,"地番":"1-1","精度区分":null,"座標系":"任意座標系"}},{"type":"Polygon","arcs":[[-9,-47,376,-375,-372,-363]],"properties":{"市区町村名":"帯広市","大字名":"西十八条南","丁目名":"５丁目","小字名":null,"地番":"1-19","精度区分":null,"座標系":"任意座標系"}},{"type":"Polygon","arcs":[[-339,-4,-374,-376,-377,-46,-44,-42,-40,-38,-36,-33,-30,-352,-285,-367,-368,-361,377]],"properties":{"市区町村名":"帯広市","大字名":"西十八条南","丁目名":"５丁目","小字名":null,"地番":"1-127","精度区分":null,"座標系":"任意座標系"}},{"type":"Polygon","arcs":[[-82,-62,378,379,380]],"properties":{"市区町村名":"帯広市","大字名":"西十八条南","丁目名":"５丁目","小字名":null,"地番":"1-149","精度区分":null,"座標系":"任意座標系"}},{"type":"Polygon","arcs":[[381,-380,382,-337]],"properties":{"市区町村名":"帯広市","大字名":"西十八条南","丁目名":"５丁目","小字名":null,"地番":"1-140","精度区分":null,"座標系":"任意座標系"}},{"type":"Polygon","arcs":[[-80,-83,-381,-382,-336,-65]],"properties":{"市区町村名":"帯広市","大字名":"西十八条南","丁目名":"５丁目","小字名":null,"地番":"1-28","精度区分":null,"座標系":"任意座標系"}},{"type":"Polygon","arcs":[[-86,-58,-338,-383,-379]],"properties":{"市区町村名":"帯広市","大字名":"西十八条南","丁目名":"５丁目","小字名":null,"地番":"1-25","精度区分":null,"座標系":"任意座標系"}}]}},"arcs":[[[243240,924415],[4099,-42257]],[[247339,882158],[-91942,-5665]],[[155397,876493],[-152,1557],[-472,4823],[-4324,44224]],[[150449,927097],[81399,5207]],[[231848,932304],[11392,-7889]],[[252268,831333],[4934,-50810]],[[257202,780523],[-91848,-5799]],[[165354,774724],[-1302,13290]],[[164052,788014],[-3656,37381]],[[160396,825395],[91872,5938]],[[261487,736382],[590,-6068]],[[262077,730314],[-91803,-5886]],[[170274,724428],[-1858,18986]],[[168416,743414],[-3062,31310]],[[257202,780523],[4285,-44141]],[[266967,679923],[-91764,-5875]],[[175203,674048],[-2418,24748]],[[172785,698796],[-2511,25632]],[[262077,730314],[4890,-50391]],[[271892,629173],[-91720,-5942]],[[180172,623231],[-3003,30740]],[[177169,653971],[-1966,20077]],[[266967,679923],[4925,-50750]],[[271892,629173],[5568,-57325]],[[277460,571848],[-74426,-4859]],[[203034,566989],[-4187,43090],[-17289,-972],[-359,3663]],[[181199,612770],[-1027,10461]],[[277460,571848],[2270,-23419]],[[279730,548429],[5136,-52919],[-9461,-8668]],[[275405,486842],[-76342,-5006]],[[199063,481836],[-6576,69102]],[[192487,550938],[-1454,15269],[12001,782]],[[199063,481836],[-46314,-3042]],[[152749,478794],[-5795,58415]],[[146954,537209],[-1071,10797],[46604,2932]],[[152749,478794],[-62292,-4089],[-5765,58743]],[[84692,533448],[62262,3761]],[[84692,533448],[-7057,72021]],[[77635,605469],[103564,7301]],[[77635,605469],[-4109,41877]],[[73526,647346],[103643,6625]],[[73526,647346],[-4403,44872]],[[69123,692218],[103662,6578]],[[69123,692218],[-4374,44575]],[[64749,736793],[103667,6621]],[[64749,736793],[-4369,44564]],[[60380,781357],[103672,6657]],[[368177,941122],[4964,-51908]],[[373141,889214],[-86663,-5460]],[[286478,883754],[-4207,43244]],[[282271,926998],[10301,9209],[75605,4915]],[[434641,866304],[-58940,-3824]],[[375701,862480],[-2560,26734]],[[368177,941122],[58768,3820]],[[426945,944942],[7696,-78638]],[[493856,870144],[-59215,-3840]],[[426945,944942],[59269,3852]],[[486214,948794],[7642,-78650]],[[646797,880072],[7553,-77520]],[[654350,802552],[-93558,-6151]],[[560792,796401],[-7504,77599]],[[553288,874000],[93509,6072]],[[738398,965186],[6301,-64230]],[[744699,900956],[-29821,-1909]],[[714878,899047],[-6714,64171]],[[708164,963218],[30234,1968]],[[805674,897522],[648,-6747]],[[806322,890775],[-60232,-3983]],[[746090,886792],[-1391,14164]],[[738398,965186],[60385,3919]],[[798783,969105],[6891,-71583]],[[877760,902445],[-72086,-4923]],[[798783,969105],[60945,3962],[11982,-8419],[6050,-62203]],[[877760,902445],[7396,-76011],[-9966,-9367],[-61378,-4038]],[[813812,813029],[-7490,77746]],[[813812,813029],[-60100,-3950]],[[753712,809079],[-7622,77713]],[[753712,809079],[-49740,-3268]],[[703972,805811],[-8915,91968]],[[695057,897779],[19821,1268]],[[703972,805811],[-49622,-3259]],[[646797,880072],[-1411,14523]],[[645386,894595],[49671,3184]],[[560792,796401],[-59397,-3903]],[[501395,792498],[-7539,77646]],[[493856,870144],[59432,3856]],[[501395,792498],[-59146,-3892]],[[442249,788606],[-7608,77698]],[[442249,788606],[-59107,-3879]],[[383142,784727],[-4856,50699]],[[378286,835426],[-2585,27054]],[[383142,784727],[-75969,-4994],[-11313,7728],[-4158,42675]],[[291702,830136],[86584,5290]],[[291702,830136],[-5224,53618]],[[346995,750676],[7466,-78018]],[[354461,672658],[-47032,-3097]],[[307429,669561],[-6846,69204]],[[300583,738765],[10350,9497],[36062,2414]],[[460482,679647],[-59156,-3900]],[[401326,675747],[-7515,78062]],[[393811,753809],[59294,3962]],[[453105,757771],[7377,-78124]],[[519874,683562],[-59392,-3915]],[[453105,757771],[59264,3967]],[[512369,761738],[7505,-78176]],[[571545,765696],[7446,-78239]],[[578991,687457],[-59117,-3895]],[[512369,761738],[59176,3958]],[[630181,769623],[7494,-78302]],[[637675,691321],[-58684,-3864]],[[571545,765696],[58636,3927]],[[725862,767573],[6742,-69994]],[[732604,697579],[-85940,-5666]],[[646664,691913],[-8989,-592]],[[630181,769623],[83999,5614],[11682,-7664]],[[732604,697579],[6704,-69512],[-10586,-9846]],[[728722,618221],[-74431,-4910]],[[654291,613311],[-7627,78602]],[[654291,613311],[-67830,-4476]],[[586461,608835],[-7470,78622]],[[586461,608835],[-59043,-3892]],[[527418,604943],[-7544,78619]],[[527418,604943],[-59515,-3931]],[[467903,601012],[-7421,78635]],[[467903,601012],[-59004,-3891]],[[408899,597121],[-7573,78626]],[[354461,672658],[7529,-78634]],[[361990,594024],[-36068,-2379],[-11535,7669],[-6958,70247]],[[375986,563347],[8365,-80938]],[[384351,482409],[-57874,-3773]],[[326477,478636],[-7175,72361]],[[319302,550997],[8807,9193],[47877,3157]],[[433309,567120],[8527,-80966]],[[441836,486154],[-55377,-3607]],[[386459,482547],[-2108,-138]],[[375986,563347],[57323,3773]],[[491345,570944],[8581,-81009]],[[499926,489935],[-53795,-3500]],[[446131,486435],[-4295,-281]],[[433309,567120],[58036,3824]],[[560551,575499],[8218,-81080]],[[568769,494419],[-4084,-265]],[[564685,494154],[-59221,-3859]],[[505464,490295],[-5538,-360]],[[491345,570944],[69206,4555]],[[618066,579288],[8463,-81104]],[[626529,498184],[-2157,-142]],[[624372,498042],[-55603,-3623]],[[560551,575499],[57515,3789]],[[684516,501961],[-674,-43]],[[683842,501918],[-57313,-3734]],[[618066,579288],[58060,3824]],[[676126,583112],[8390,-81151]],[[742178,505714],[-57662,-3753]],[[676126,583112],[56739,3741]],[[732865,586853],[9313,-81139]],[[799697,509463],[-56836,-3705]],[[742861,505758],[-683,-44]],[[732865,586853],[58320,3836]],[[791185,590689],[8512,-81226]],[[857178,513209],[-56065,-3655]],[[801113,509554],[-1416,-91]],[[791185,590689],[58031,3824]],[[849216,594513],[7962,-81304]],[[908205,589836],[7559,-72811]],[[915764,517025],[-55539,-3619]],[[860225,513406],[-3047,-197]],[[849216,594513],[46693,3074],[12296,-7751]],[[868240,435712],[-8015,77694]],[[915764,517025],[7165,-68999],[-9524,-9375],[-45165,-2939]],[[868240,435712],[-58885,-3844]],[[809355,431868],[-8242,77686]],[[809355,431868],[-58420,-3808]],[[750935,428060],[-8074,77698]],[[750935,428060],[-59048,-3852]],[[691887,424208],[-8045,77710]],[[691887,424208],[-59534,-3880]],[[632353,420328],[-7981,77714]],[[632353,420328],[-59923,-3907]],[[572430,416421],[-7745,77733]],[[572430,416421],[-58896,-3844]],[[513534,412577],[-8070,77718]],[[513534,412577],[-59672,-3891]],[[453862,408686],[-7731,77749]],[[453862,408686],[-59402,-3872]],[[394460,404814],[-8001,77733]],[[394460,404814],[-50074,-3263],[-11019,7601],[-6890,69484]],[[837628,402799],[5145,-49818]],[[842773,352981],[-120936,-8083]],[[721837,344898],[-4212,41557]],[[717625,386455],[9952,9106],[110051,7238]],[[903954,407157],[6050,-63116],[6610,-62887]],[[916614,281154],[-61259,-4077]],[[855355,277077],[-4714,-316]],[[850641,276761],[-7868,76220]],[[837628,402799],[66326,4358]],[[916614,281154],[62542,4164]],[[979156,285318],[1455,-14065]],[[980611,271253],[-123812,-8296]],[[856799,262957],[-1444,14120]],[[980611,271253],[4644,-45025]],[[985255,226228],[-123865,-8186]],[[861390,218042],[-4591,44915]],[[985255,226228],[4620,-44817]],[[989875,181411],[-123905,-8182]],[[865970,173229],[-4580,44813]],[[989875,181411],[4644,-45046]],[[994519,136365],[-123944,-8189]],[[870575,128176],[-4605,45053]],[[994519,136365],[5480,-53152],[-39547,-2631]],[[960452,80582],[-84442,-5618]],[[876010,74964],[-5435,53212]],[[876010,74964],[-115491,-7688],[-11363,8095],[-4511,44485]],[[744645,119856],[125930,8320]],[[744645,119856],[-4566,45053]],[[740079,164909],[125891,8320]],[[740079,164909],[-4541,44813]],[[735538,209722],[109801,7257]],[[845339,216979],[16051,1063]],[[735538,209722],[-4546,44812]],[[730992,254534],[109830,7352]],[[840822,261886],[4517,-44907]],[[856799,262957],[-15977,-1071]],[[730992,254534],[-1430,14171]],[[729562,268705],[121079,8056]],[[729562,268705],[-7725,76193]],[[426970,194800],[7760,-74545]],[[434730,120255],[-71841,-4694]],[[362889,115561],[-6738,66253]],[[356151,181814],[9687,8968],[61132,4018]],[[496682,124296],[-61952,-4041]],[[426970,194800],[61893,4065]],[[488863,198865],[7819,-74569]],[[551489,202978],[7711,-74601]],[[559200,128377],[-62518,-4081]],[[488863,198865],[62626,4113]],[[620966,132411],[-51411,-3354]],[[569555,129057],[-10355,-680]],[[551489,202978],[62051,4077]],[[613540,207055],[7426,-74644]],[[703604,137807],[-71664,-4677]],[[631940,133130],[-10974,-719]],[[613540,207055],[71904,4729]],[[685444,211784],[11363,-7921],[6797,-66056]],[[703604,137807],[6688,-64968],[-9686,-9506]],[[700606,63333],[-60744,-3998]],[[639862,59335],[-7922,73795]],[[639862,59335],[-62596,-4116]],[[577266,55219],[-7711,73838]],[[577266,55219],[-72834,-4797]],[[504432,50422],[-7750,73874]],[[504432,50422],[-62006,-4081]],[[442426,46341],[-7696,73914]],[[442426,46341],[-62144,-4085],[-10709,7499],[-6684,65806]],[[431309,376065],[5003,-49862]],[[436312,326203],[-94005,-6088]],[[342307,320115],[-4138,41573]],[[338169,361688],[9873,8953],[83267,5424]],[[525157,382180],[4969,-49897]],[[530126,332283],[-93814,-6080]],[[431309,376065],[93848,6115]],[[592059,334761],[2324,-23005]],[[594383,311756],[-61805,-4077]],[[532578,307679],[-2452,24604]],[[525157,382180],[61712,4022]],[[586869,386202],[5190,-51441]],[[678662,383634],[4355,-42983]],[[683017,340651],[-90958,-5890]],[[586869,386202],[80780,5263],[11013,-7831]],[[688197,289442],[-90968,-5882]],[[597229,283560],[-2846,28196]],[[683017,340651],[5180,-51209]],[[688197,289442],[3803,-37590],[-9843,-8723]],[[682157,243129],[-80309,-5330]],[[601848,237799],[-4619,45761]],[[601848,237799],[-61898,-4109]],[[539950,233690],[-7372,73989]],[[441227,277254],[4998,-49782]],[[446225,227472],[-83488,-5539],[-11422,7728],[-4103,41201]],[[347212,270862],[94015,6392]],[[436312,326203],[4915,-48949]],[[347212,270862],[-4905,49253]],[[294022,407398],[-60877,-3908]],[[233145,403490],[-5022,47863]],[[228123,451353],[49917,3275]],[[278040,454628],[12094,-8225],[3888,-39005]],[[298749,359962],[84,-861]],[[298833,359101],[2664,-26711]],[[301497,332390],[-97706,-6467]],[[203791,325923],[-2836,27789]],[[200955,353712],[97794,6250]],[[306254,284626],[-97608,-6253]],[[208646,278373],[-2830,27706]],[[205816,306079],[-2025,19844]],[[301497,332390],[4757,-47764]],[[310947,237495],[-97484,-6361]],[[213463,231134],[-4817,47239]],[[306254,284626],[4693,-47131]],[[310947,237495],[4753,-47689]],[[315700,189806],[-97382,-6269]],[[218318,183537],[-4855,47597]],[[315700,189806],[1051,-10536]],[[316751,179270],[3701,-37148]],[[320452,142122],[-97268,-6290]],[[223184,135832],[-4866,47705]],[[320452,142122],[4821,-48404]],[[325273,93718],[-97140,-6404]],[[228133,87314],[-64,660]],[[228069,87974],[-4885,47858]],[[325273,93718],[4625,-46413],[-9412,-8758]],[[320486,38547],[-86795,-5713]],[[233691,32834],[-5558,54480]],[[233691,32834],[-80770,-5314],[-18779,12374],[-4212,41853]],[[129930,81747],[98139,6227]],[[129930,81747],[-4806,47752]],[[125124,129499],[98060,6333]],[[125124,129499],[-4806,47720]],[[120318,177219],[98000,6318]],[[120318,177219],[-4777,47519]],[[115541,224738],[97922,6396]],[[115541,224738],[-4767,47361]],[[110774,272099],[97872,6274]],[[110774,272099],[-2807,27864]],[[107967,299963],[97849,6116]],[[107967,299963],[-4782,47503]],[[103185,347466],[97770,6246]],[[103185,347466],[-4767,47384]],[[98418,394850],[97701,6266]],[[196119,401116],[4836,-47404]],[[928227,789511],[-152778,-10197],[-10163,-9272]],[[765286,770042],[-39424,-2469]],[[393811,753809],[-46816,-3133]],[[300583,738765],[-39096,-2383]],[[252268,831333],[-4929,50825]],[[243240,924415],[39031,2583]],[[708164,963218],[-69024,-4488]],[[639140,958730],[-93465,-6072]],[[545675,952658],[-59461,-3864]],[[231848,932304],[-2457,23835]],[[229391,956139],[678392,43860],[3135,-32289],[17309,-178199]],[[361990,594024],[46909,3097]],[[728722,618221],[4143,-31368]],[[319302,550997],[-39572,-2568]],[[943492,632460],[4000,-40115]],[[947492,592345],[-39287,-2509]],[[765286,770042],[13633,-139407],[11947,-8198],[152626,10023]],[[947492,592345],[18680,-181095]],[[966172,411250],[-62218,-4093]],[[717625,386455],[-38963,-2821]],[[338169,361688],[-39336,-2587]],[[298749,359962],[-4727,47436]],[[278040,454628],[-2635,32214]],[[960452,80582],[2521,-23349],[-260072,-17142]],[[702901,40091],[-2295,23242]],[[685444,211784],[-3287,31345]],[[446225,227472],[93725,6218]],[[356151,181814],[-39400,-2544]],[[702901,40091],[-379889,-25039]],[[323012,15052],[-2526,23495]],[[323012,15052],[-228378,-15052],[-44860,439655]],[[49774,439655],[43843,2876]],[[93617,442531],[4801,-47681]],[[160396,825395],[-733,7455]],[[159663,832850],[-4266,43643]],[[233145,403490],[-37026,-2374]],[[196119,401116],[-4875,47819]],[[191244,448935],[36879,2418]],[[93617,442531],[97627,6404]],[[966172,411250],[12984,-125932]],[[401326,675747],[-46865,-3089]],[[928227,789511],[15265,-157051]],[[159663,832850],[-58419,-3698]],[[101244,829152],[-9239,94204]],[[92005,923356],[58444,3741]],[[101244,829152],[-45267,-2864]],[[55977,826288],[-4419,45045],[-476,4868],[-4345,44259],[45268,2896]],[[60380,781357],[-4403,44931]],[[49774,439655],[-49774,501657],[229391,14827]],[[553288,874000],[-3814,39408]],[[549474,913408],[93499,5942]],[[642973,919350],[2413,-24755]],[[639140,958730],[3833,-39380]],[[549474,913408],[-3799,39250]]],"bbox":[181.742,203.677,385.22,456.798],"transform":{"scale":[0.00020347820347820352,0.0002531212531212531],"translate":[181.742,203.677]}}