{"type":"Topology","objects":{"01207-4601-32.featurecollection":{"type":"GeometryCollection","geometries":[{"type":"Polygon","arcs":[[0,1,2,3,4,5,6]],"properties":{"市区町村名":"帯広市","大字名":"西二十四条南","丁目名":"１丁目","小字名":null,"地番":"37-1","精度区分":null,"座標系":"任意座標系"}},{"type":"Polygon","arcs":[[7,8,9,10,11,12,13,14,15,16,17,18,19,20,21,-5,22,23,24,25,26,27,28,29,30,31,32,33,34,35,36,37,38]],"properties":{"市区町村名":"帯広市","大字名":"西二十四条南","丁目名":"１丁目","小字名":null,"地番":"37-2","精度区分":null,"座標系":"任意座標系"}},{"type":"Polygon","arcs":[[39,40,41,-36,42]],"properties":{"市区町村名":"帯広市","大字名":"西二十四条南","丁目名":"１丁目","小字名":null,"地番":"37-17","精度区分":null,"座標系":"任意座標系"}},{"type":"Polygon","arcs":[[-42,43,44,-37]],"properties":{"市区町村名":"帯広市","大字名":"西二十四条南","丁目名":"１丁目","小字名":null,"地番":"38-1","精度区分":null,"座標系":"任意座標系"}},{"type":"Polygon","arcs":[[-41,45,46,47,48,49,50,51,52,53,54,55,56,57,58,-2,59,60,61,62,63,64,65,66,67,68,69,70,71,72,73,74,75,-44]],"properties":{"市区町村名":"帯広市","大字名":"西二十四条南","丁目名":"１丁目","小字名":null,"地番":"39-1","精度区分":null,"座標系":"任意座標系"}},{"type":"Polygon","arcs":[[-39,76,77]],"properties":{"市区町村名":"帯広市","大字名":"西二十四条南","丁目名":"１丁目","小字名":null,"地番":"42-1","精度区分":null,"座標系":"任意座標系"}},{"type":"Polygon","arcs":[[78,-8,-78,79]],"properties":{"市区町村名":"帯広市","大字名":"西二十四条南","丁目名":"１丁目","小字名":null,"地番":"42-2","精度区分":null,"座標系":"任意座標系"}},{"type":"Polygon","arcs":[[-9,-79,80,81]],"properties":{"市区町村名":"帯広市","大字名":"西二十四条南","丁目名":"１丁目","小字名":null,"地番":"42-3","精度区分":null,"座標系":"任意座標系"}},{"type":"Polygon","arcs":[[82,-10,-82,83]],"properties":{"市区町村名":"帯広市","大字名":"西二十四条南","丁目名":"１丁目","小字名":null,"地番":"42-4","精度区分":null,"座標系":"任意座標系"}},{"type":"Polygon","arcs":[[-11,-83,84,85]],"properties":{"市区町村名":"帯広市","大字名":"西二十四条南","丁目名":"１丁目","小字名":null,"地番":"42-5","精度区分":null,"座標系":"任意座標系"}},{"type":"Polygon","arcs":[[-12,-86,86,87]],"properties":{"市区町村名":"帯広市","大字名":"西二十四条南","丁目名":"１丁目","小字名":null,"地番":"42-6","精度区分":null,"座標系":"任意座標系"}},{"type":"Polygon","arcs":[[-13,-88,88,89]],"properties":{"市区町村名":"帯広市","大字名":"西二十四条南","丁目名":"１丁目","小字名":null,"地番":"42-7","精度区分":null,"座標系":"任意座標系"}},{"type":"Polygon","arcs":[[-14,-90,90,91]],"properties":{"市区町村名":"帯広市","大字名":"西二十四条南","丁目名":"１丁目","小字名":null,"地番":"42-8","精度区分":null,"座標系":"任意座標系"}},{"type":"Polygon","arcs":[[-15,-92,92,93]],"properties":{"市区町村名":"帯広市","大字名":"西二十四条南","丁目名":"１丁目","小字名":null,"地番":"42-9","精度区分":null,"座標系":"任意座標系"}},{"type":"Polygon","arcs":[[94,-16,-94,95]],"properties":{"市区町村名":"帯広市","大字名":"西二十四条南","丁目名":"１丁目","小字名":null,"地番":"42-10","精度区分":null,"座標系":"任意座標系"}},{"type":"Polygon","arcs":[[96,-17,-95,97]],"properties":{"市区町村名":"帯広市","大字名":"西二十四条南","丁目名":"１丁目","小字名":null,"地番":"42-11","精度区分":null,"座標系":"任意座標系"}},{"type":"Polygon","arcs":[[98,-18,-97,99]],"properties":{"市区町村名":"帯広市","大字名":"西二十四条南","丁目名":"１丁目","小字名":null,"地番":"42-12","精度区分":null,"座標系":"任意座標系"}},{"type":"Polygon","arcs":[[100,-19,-99,101]],"properties":{"市区町村名":"帯広市","大字名":"西二十四条南","丁目名":"１丁目","小字名":null,"地番":"42-13","精度区分":null,"座標系":"任意座標系"}},{"type":"Polygon","arcs":[[102,-20,-101,103]],"properties":{"市区町村名":"帯広市","大字名":"西二十四条南","丁目名":"１丁目","小字名":null,"地番":"42-14","精度区分":null,"座標系":"任意座標系"}},{"type":"Polygon","arcs":[[-21,-103,104,105]],"properties":{"市区町村名":"帯広市","大字名":"西二十四条南","丁目名":"１丁目","小字名":null,"地番":"42-15","精度区分":null,"座標系":"任意座標系"}},{"type":"Polygon","arcs":[[-6,-22,-106,106]],"properties":{"市区町村名":"帯広市","大字名":"西二十四条南","丁目名":"１丁目","小字名":null,"地番":"42-16","精度区分":null,"座標系":"任意座標系"}},{"type":"Polygon","arcs":[[107,108,-43,-35]],"properties":{"市区町村名":"帯広市","大字名":"西二十四条南","丁目名":"１丁目","小字名":null,"地番":"43-1","精度区分":null,"座標系":"任意座標系"}},{"type":"Polygon","arcs":[[109,-46,-40,-109]],"properties":{"市区町村名":"帯広市","大字名":"西二十四条南","丁目名":"１丁目","小字名":null,"地番":"43-2","精度区分":null,"座標系":"任意座標系"}},{"type":"Polygon","arcs":[[110,111,-108,-34]],"properties":{"市区町村名":"帯広市","大字名":"西二十四条南","丁目名":"１丁目","小字名":null,"地番":"43-3","精度区分":null,"座標系":"任意座標系"}},{"type":"Polygon","arcs":[[-47,-110,-112,112]],"properties":{"市区町村名":"帯広市","大字名":"西二十四条南","丁目名":"１丁目","小字名":null,"地番":"43-4","精度区分":null,"座標系":"任意座標系"}},{"type":"Polygon","arcs":[[113,-111,-33,114]],"properties":{"市区町村名":"帯広市","大字名":"西二十四条南","丁目名":"１丁目","小字名":null,"地番":"43-5","精度区分":null,"座標系":"任意座標系"}},{"type":"Polygon","arcs":[[115,-48,-113,-114]],"properties":{"市区町村名":"帯広市","大字名":"西二十四条南","丁目名":"１丁目","小字名":null,"地番":"43-6","精度区分":null,"座標系":"任意座標系"}},{"type":"Polygon","arcs":[[116,-115,-32,117]],"properties":{"市区町村名":"帯広市","大字名":"西二十四条南","丁目名":"１丁目","小字名":null,"地番":"43-7","精度区分":null,"座標系":"任意座標系"}},{"type":"Polygon","arcs":[[-49,-116,-117,118]],"properties":{"市区町村名":"帯広市","大字名":"西二十四条南","丁目名":"１丁目","小字名":null,"地番":"43-8","精度区分":null,"座標系":"任意座標系"}},{"type":"Polygon","arcs":[[119,-118,-31,120]],"properties":{"市区町村名":"帯広市","大字名":"西二十四条南","丁目名":"１丁目","小字名":null,"地番":"43-9","精度区分":null,"座標系":"任意座標系"}},{"type":"Polygon","arcs":[[121,-50,-119,-120]],"properties":{"市区町村名":"帯広市","大字名":"西二十四条南","丁目名":"１丁目","小字名":null,"地番":"43-10","精度区分":null,"座標系":"任意座標系"}},{"type":"Polygon","arcs":[[122,-121,-30,123]],"properties":{"市区町村名":"帯広市","大字名":"西二十四条南","丁目名":"１丁目","小字名":null,"地番":"43-11","精度区分":null,"座標系":"任意座標系"}},{"type":"Polygon","arcs":[[124,-51,-122,-123]],"properties":{"市区町村名":"帯広市","大字名":"西二十四条南","丁目名":"１丁目","小字名":null,"地番":"43-12","精度区分":null,"座標系":"任意座標系"}},{"type":"Polygon","arcs":[[125,-124,-29,126]],"properties":{"市区町村名":"帯広市","大字名":"西二十四条南","丁目名":"１丁目","小字名":null,"地番":"43-13","精度区分":null,"座標系":"任意座標系"}},{"type":"Polygon","arcs":[[127,-52,-125,-126]],"properties":{"市区町村名":"帯広市","大字名":"西二十四条南","丁目名":"１丁目","小字名":null,"地番":"43-14","精度区分":null,"座標系":"任意座標系"}},{"type":"Polygon","arcs":[[128,129,130,-127,-28]],"properties":{"市区町村名":"帯広市","大字名":"西二十四条南","丁目名":"１丁目","小字名":null,"地番":"43-15","精度区分":null,"座標系":"任意座標系"}},{"type":"Polygon","arcs":[[131,-53,-128,-131]],"properties":{"市区町村名":"帯広市","大字名":"西二十四条南","丁目名":"１丁目","小字名":null,"地番":"43-16","精度区分":null,"座標系":"任意座標系"}},{"type":"Polygon","arcs":[[132,133,-129,-27]],"properties":{"市区町村名":"帯広市","大字名":"西二十四条南","丁目名":"１丁目","小字名":null,"地番":"43-17","精度区分":null,"座標系":"任意座標系"}},{"type":"Polygon","arcs":[[134,-55,135,-134]],"properties":{"市区町村名":"帯広市","大字名":"西二十四条南","丁目名":"１丁目","小字名":null,"地番":"43-18","精度区分":null,"座標系":"任意座標系"}},{"type":"Polygon","arcs":[[136,-133,-26,137]],"properties":{"市区町村名":"帯広市","大字名":"西二十四条南","丁目名":"１丁目","小字名":null,"地番":"43-19","精度区分":null,"座標系":"任意座標系"}},{"type":"Polygon","arcs":[[-56,-135,-137,138]],"properties":{"市区町村名":"帯広市","大字名":"西二十四条南","丁目名":"１丁目","小字名":null,"地番":"43-20","精度区分":null,"座標系":"任意座標系"}},{"type":"Polygon","arcs":[[139,140,-138,-25]],"properties":{"市区町村名":"帯広市","大字名":"西二十四条南","丁目名":"１丁目","小字名":null,"地番":"43-21","精度区分":null,"座標系":"任意座標系"}},{"type":"Polygon","arcs":[[141,-57,-139,-141]],"properties":{"市区町村名":"帯広市","大字名":"西二十四条南","丁目名":"１丁目","小字名":null,"地番":"43-22","精度区分":null,"座標系":"任意座標系"}},{"type":"Polygon","arcs":[[142,-140,-24,143]],"properties":{"市区町村名":"帯広市","大字名":"西二十四条南","丁目名":"１丁目","小字名":null,"地番":"43-23","精度区分":null,"座標系":"任意座標系"}},{"type":"Polygon","arcs":[[144,-58,-142,-143]],"properties":{"市区町村名":"帯広市","大字名":"西二十四条南","丁目名":"１丁目","小字名":null,"地番":"43-24","精度区分":null,"座標系":"任意座標系"}},{"type":"Polygon","arcs":[[-4,145,-144,-23]],"properties":{"市区町村名":"帯広市","大字名":"西二十四条南","丁目名":"１丁目","小字名":null,"地番":"43-25","精度区分":null,"座標系":"任意座標系"}},{"type":"Polygon","arcs":[[-59,-145,-146,-3]],"properties":{"市区町村名":"帯広市","大字名":"西二十四条南","丁目名":"１丁目","小字名":null,"地番":"43-26","精度区分":null,"座標系":"任意座標系"}},{"type":"Polygon","arcs":[[-54,-132,-130,-136]],"properties":{"市区町村名":"帯広市","大字名":"西二十四条南","丁目名":"１丁目","小字名":null,"地番":"43-27","精度区分":null,"座標系":"任意座標系"}},{"type":"Polygon","arcs":[[146,147,-75]],"properties":{"市区町村名":"帯広市","大字名":"西二十四条南","丁目名":"１丁目","小字名":null,"地番":"44-1","精度区分":null,"座標系":"任意座標系"}},{"type":"Polygon","arcs":[[148,-147,-74,149]],"properties":{"市区町村名":"帯広市","大字名":"西二十四条南","丁目名":"１丁目","小字名":null,"地番":"44-2","精度区分":null,"座標系":"任意座標系"}},{"type":"Polygon","arcs":[[150,151,-72,152]],"properties":{"市区町村名":"帯広市","大字名":"西二十四条南","丁目名":"１丁目","小字名":null,"地番":"44-3","精度区分":null,"座標系":"任意座標系"}},{"type":"Polygon","arcs":[[153,-153,-71,154]],"properties":{"市区町村名":"帯広市","大字名":"西二十四条南","丁目名":"１丁目","小字名":null,"地番":"44-4","精度区分":null,"座標系":"任意座標系"}},{"type":"Polygon","arcs":[[155,156,157,-64]],"properties":{"市区町村名":"帯広市","大字名":"西二十四条南","丁目名":"１丁目","小字名":null,"地番":"44-12","精度区分":null,"座標系":"任意座標系"}},{"type":"Polygon","arcs":[[158,159,-156,-63]],"properties":{"市区町村名":"帯広市","大字名":"西二十四条南","丁目名":"１丁目","小字名":null,"地番":"44-13","精度区分":null,"座標系":"任意座標系"}},{"type":"Polygon","arcs":[[160,161,-159,-62]],"properties":{"市区町村名":"帯広市","大字名":"西二十四条南","丁目名":"１丁目","小字名":null,"地番":"44-14","精度区分":null,"座標系":"任意座標系"}},{"type":"Polygon","arcs":[[162,163,-161,-61]],"properties":{"市区町村名":"帯広市","大字名":"西二十四条南","丁目名":"１丁目","小字名":null,"地番":"44-15","精度区分":null,"座標系":"任意座標系"}},{"type":"Polygon","arcs":[[-1,164,-163,-60]],"properties":{"市区町村名":"帯広市","大字名":"西二十四条南","丁目名":"１丁目","小字名":null,"地番":"44-16","精度区分":null,"座標系":"任意座標系"}},{"type":"Polygon","arcs":[[165,166,-155,-70]],"properties":{"市区町村名":"帯広市","大字名":"西二十四条南","丁目名":"１丁目","小字名":null,"地番":"44-17","精度区分":null,"座標系":"任意座標系"}},{"type":"Polygon","arcs":[[167,-166,-69,168]],"properties":{"市区町村名":"帯広市","大字名":"西二十四条南","丁目名":"１丁目","小字名":null,"地番":"44-18","精度区分":null,"座標系":"任意座標系"}},{"type":"Polygon","arcs":[[169,-169,-68,170]],"properties":{"市区町村名":"帯広市","大字名":"西二十四条南","丁目名":"１丁目","小字名":null,"地番":"44-19","精度区分":null,"座標系":"任意座標系"}},{"type":"Polygon","arcs":[[171,172,-171,-67]],"properties":{"市区町村名":"帯広市","大字名":"西二十四条南","丁目名":"１丁目","小字名":null,"地番":"44-20","精度区分":null,"座標系":"任意座標系"}},{"type":"Polygon","arcs":[[173,174,-172,-66]],"properties":{"市区町村名":"帯広市","大字名":"西二十四条南","丁目名":"１丁目","小字名":null,"地番":"44-21","精度区分":null,"座標系":"任意座標系"}},{"type":"Polygon","arcs":[[175,-174,-65,-158]],"properties":{"市区町村名":"帯広市","大字名":"西二十四条南","丁目名":"１丁目","小字名":null,"地番":"44-22","精度区分":null,"座標系":"任意座標系"}},{"type":"Polygon","arcs":[[176,-150,-73,-152]],"properties":{"市区町村名":"帯広市","大字名":"西二十四条南","丁目名":"１丁目","小字名":null,"地番":"44-23","精度区分":null,"座標系":"任意座標系"}}]}},"arcs":[[[959711,159545],[-7557,140551]],[[952154,300096],[-8066,136213]],[[944088,436309],[-8035,138964]],[[936053,575273],[-7705,140874]],[[928348,716147],[-6023,139129]],[[922325,855276],[-7435,137663]],[[914890,992939],[39625,7060],[45484,-833440],[-40288,-7014]],[[66567,669558],[56548,10050]],[[123115,679608],[56554,10051]],[[179669,689659],[57392,10207]],[[237061,699866],[57471,10217]],[[294532,710083],[57848,10291]],[[352380,720374],[57743,10262]],[[410123,730636],[55651,9894]],[[465774,740530],[57689,10263]],[[523463,750793],[57546,10226]],[[581009,761019],[56718,10078]],[[637727,771097],[57286,10189]],[[695013,781286],[57169,10161]],[[752182,791447],[57232,10180]],[[809414,801627],[58241,10355]],[[867655,811982],[37227,6618],[17443,36676]],[[928348,716147],[-18902,27041],[-37598,-6580]],[[871848,736608],[-57557,-10069]],[[814291,726539],[-54860,-9599]],[[759431,716940],[-56225,-9847]],[[703206,707093],[-56230,-9838]],[[646976,697255],[-55731,-9746]],[[591245,687509],[-56622,-9913]],[[534623,677596],[-55911,-9792]],[[478712,667804],[-56034,-9801]],[[422678,658003],[-55051,-9635]],[[367627,648368],[-57504,-10060]],[[310123,638308],[-55678,-9746]],[[254445,628562],[-39158,-6857]],[[215287,621705],[-78183,-13678]],[[137104,608027],[-106224,-18588],[-16419,-35800]],[[14461,553639],[-7191,137377]],[[7270,691016],[20155,-28417],[39142,6959]],[[206627,448335],[7434,-138512],[20856,-30604]],[[234917,279219],[-80720,-14213]],[[154197,265006],[18000,34822],[-15108,277863],[-19985,30336]],[[215287,621705],[-16121,-34453],[7461,-138917]],[[154197,265006],[-105673,-18615],[-19629,31573]],[[28895,277964],[-14434,275675]],[[234917,279219],[37194,6544]],[[272111,285763],[56867,10023]],[[328978,295786],[56591,9967]],[[385569,305753],[55884,9848]],[[441453,315601],[56336,9912]],[[497789,325513],[55620,9801]],[[553409,335314],[55980,9857]],[[609389,345171],[28253,4984]],[[637642,350155],[28529,5020]],[[666171,355175],[55768,9829]],[[721939,365004],[55959,9848]],[[777898,374852],[56230,9903]],[[834128,384755],[56463,9949]],[[890591,394704],[37126,6543],[16371,35062]],[[952154,300096],[-19874,27475],[-38526,-6774]],[[893754,320797],[-57674,-10152]],[[836080,310645],[-58071,-10217]],[[778009,300428],[-57185,-10060]],[[720824,290368],[-56834,-9986]],[[663990,280382],[-72166,-12699]],[[591824,267683],[-57196,-10060]],[[534628,257623],[-57370,-10097]],[[477258,247526],[-74841,-13160]],[[402417,234366],[-57577,-10060]],[[344840,224306],[-64360,-11241]],[[280480,213065],[-74548,-13023]],[[205932,200042],[-56596,-9884]],[[149336,190158],[-16356,-2852]],[[132980,187306],[-40442,-7070]],[[92538,180236],[-40230,-7032],[-15968,-37341]],[[36340,135863],[-7445,142101]],[[7270,691016],[-7270,138862],[56362,10050]],[[56362,839928],[10205,-170370]],[[113701,850145],[9414,-170537]],[[56362,839928],[57339,10217]],[[113701,850145],[56877,10134]],[[170578,860279],[9091,-170620]],[[227880,870495],[9181,-170629]],[[170578,860279],[57302,10216]],[[227880,870495],[57212,10199]],[[285092,880694],[9440,-170611]],[[285092,880694],[58028,10345]],[[343120,891039],[9260,-170665]],[[343120,891039],[58093,10356]],[[401213,901395],[8910,-170759]],[[401213,901395],[55423,9866]],[[456636,911261],[9138,-170731]],[[456636,911261],[57901,10318]],[[514537,921579],[8926,-170786]],[[571674,931768],[9335,-170749]],[[514537,921579],[57137,10189]],[[628483,941892],[9244,-170795]],[[571674,931768],[56809,10124]],[[685763,952100],[9250,-170814]],[[628483,941892],[57280,10208]],[[743213,962335],[8969,-170888]],[[685763,952100],[57450,10235]],[[800048,972468],[9366,-170841]],[[743213,962335],[56835,10133]],[[800048,972468],[58379,10411]],[[858427,982879],[9228,-170897]],[[858427,982879],[56463,10060]],[[254445,628562],[8772,-170131]],[[263217,458431],[-56590,-10096]],[[263217,458431],[8894,-172668]],[[310123,638308],[9351,-169854]],[[319474,468454],[-56257,-10023]],[[319474,468454],[9504,-172668]],[[376547,478136],[-56925,-9654],[-148,-28]],[[367627,648368],[8920,-170232]],[[376547,478136],[9022,-172383]],[[432023,487540],[-55476,-9404]],[[422678,658003],[9345,-170463]],[[432023,487540],[9430,-171939]],[[488227,497065],[-56204,-9525]],[[478712,667804],[9515,-170739]],[[488227,497065],[9562,-171552]],[[544011,506506],[-55784,-9441]],[[534623,677596],[9388,-171090]],[[544011,506506],[9398,-171192]],[[600315,516391],[-56161,-9857],[-143,-28]],[[591245,687509],[9070,-171118]],[[600315,516391],[9074,-171220]],[[646976,697255],[9595,-170999]],[[656571,526256],[-28619,-5020]],[[627952,521236],[-27637,-4845]],[[627952,521236],[9690,-171081]],[[703206,707093],[9366,-171017]],[[712572,536076],[-56001,-9820]],[[712572,536076],[9367,-171072]],[[666171,355175],[-9600,171081]],[[768664,545924],[-56092,-9848]],[[759431,716940],[9233,-171016]],[[768664,545924],[9234,-171072]],[[814291,726539],[9924,-170888]],[[824215,555651],[-55551,-9727]],[[824215,555651],[9913,-170896]],[[881225,565656],[-57010,-10005]],[[871848,736608],[9377,-170952]],[[881225,565656],[9366,-170952]],[[936053,575273],[-54828,-9617]],[[92538,180236],[9016,-170121]],[[101554,10115],[-58103,-10115],[-7111,135863]],[[142103,17175],[-40549,-7060]],[[132980,187306],[9123,-170131]],[[215213,29903],[-56628,-9857]],[[158585,20046],[-9249,170112]],[[205932,200042],[9281,-170139]],[[289671,42869],[-74458,-12966]],[[280480,213065],[9191,-170196]],[[720824,290368],[9234,-170813]],[[730058,119555],[-56771,-9894]],[[673287,109661],[-9297,170721]],[[778009,300428],[9478,-170869]],[[787487,129559],[-57429,-10004]],[[836080,310645],[9388,-170989]],[[845468,139656],[-57981,-10097]],[[893754,320797],[9074,-171155]],[[902828,149642],[-57360,-9986]],[[959711,159545],[-56883,-9903]],[[344840,224306],[9159,-170232]],[[353999,54074],[-64328,-11205]],[[411582,64097],[-57583,-10023]],[[402417,234366],[9165,-170269]],[[486635,77165],[-75053,-13068]],[[477258,247526],[9377,-170361]],[[534628,257623],[9393,-170463]],[[544021,87160],[-57386,-9995]],[[591824,267683],[9191,-170592]],[[601015,97091],[-56994,-9931]],[[673287,109661],[-72272,-12570]],[[158585,20046],[-16482,-2871]]],"bbox":[154.469,320.468,342.91,428.82],"transform":{"scale":[0.00018844118844118846,0.00010835210835210833],"translate":[154.469,320.468]}}