{"type":"Topology","objects":{"01661-4600-2":{"type":"GeometryCollection","geometries":[{"type":"MultiPolygon","arcs":[[[0,1]]],"properties":{"筆ID":"H000000001","version":"ver1.0","座標系":"任意座標系","測地系判別":null,"地図名":"釧路町・切図（５０００）","地図番号":"切76","縮尺分母":"5000","市区町村コード":"01661","市区町村名":"釧路郡釧路町","大字コード":"000","丁目コード":"000","小字コード":"0045","予備コード":"00","大字名":null,"丁目名":null,"小字名":"字別保","予備名":null,"地番":"117-2","精度区分":null,"座標値種別":"図上測量","筆界未定構成筆":null,"代表点緯度":-109815.314,"代表点経度":20679.009296845}},{"type":"MultiPolygon","arcs":[[[2,3]]],"properties":{"筆ID":"H000000002","version":"ver1.0","座標系":"任意座標系","測地系判別":null,"地図名":"釧路町・切図（５０００）","地図番号":"切76","縮尺分母":"5000","市区町村コード":"01661","市区町村名":"釧路郡釧路町","大字コード":"000","丁目コード":"000","小字コード":"0045","予備コード":"00","大字名":null,"丁目名":null,"小字名":"字別保","予備名":null,"地番":"118-2","精度区分":null,"座標値種別":"図上測量","筆界未定構成筆":null,"代表点緯度":-109995.62,"代表点経度":20639.216389395}},{"type":"MultiPolygon","arcs":[[[4,5,-3,6]]],"properties":{"筆ID":"H000000003","version":"ver1.0","座標系":"任意座標系","測地系判別":null,"地図名":"釧路町・切図（５０００）","地図番号":"切76","縮尺分母":"5000","市区町村コード":"01661","市区町村名":"釧路郡釧路町","大字コード":"000","丁目コード":"000","小字コード":"0045","予備コード":"00","大字名":null,"丁目名":null,"小字名":"字別保","予備名":null,"地番":"118-4","精度区分":null,"座標値種別":"図上測量","筆界未定構成筆":null,"代表点緯度":-110071.725,"代表点経度":20697.256188142}},{"type":"MultiPolygon","arcs":[[[7,8,9,10]]],"properties":{"筆ID":"H000000004","version":"ver1.0","座標系":"任意座標系","測地系判別":null,"地図名":"釧路町・切図（５０００）","地図番号":"切76","縮尺分母":"5000","市区町村コード":"01661","市区町村名":"釧路郡釧路町","大字コード":"000","丁目コード":"000","小字コード":"0045","予備コード":"00","大字名":null,"丁目名":null,"小字名":"字別保","予備名":null,"地番":"119-2","精度区分":null,"座標値種別":"図上測量","筆界未定構成筆":null,"代表点緯度":-110171.8205,"代表点経度":20649.96053563}},{"type":"MultiPolygon","arcs":[[[11,12,13]]],"properties":{"筆ID":"H000000005","version":"ver1.0","座標系":"任意座標系","測地系判別":null,"地図名":"釧路町・切図（５０００）","地図番号":"切76","縮尺分母":"5000","市区町村コード":"01661","市区町村名":"釧路郡釧路町","大字コード":"000","丁目コード":"000","小字コード":"0045","予備コード":"00","大字名":null,"丁目名":null,"小字名":"字別保","予備名":null,"地番":"119-5","精度区分":null,"座標値種別":"図上測量","筆界未定構成筆":null,"代表点緯度":-109979.9865,"代表点経度":20622.655802291}},{"type":"MultiPolygon","arcs":[[[14,-8,15]]],"properties":{"筆ID":"H000000006","version":"ver1.0","座標系":"任意座標系","測地系判別":null,"地図名":"釧路町・切図（５０００）","地図番号":"切76","縮尺分母":"5000","市区町村コード":"01661","市区町村名":"釧路郡釧路町","大字コード":"000","丁目コード":"000","小字コード":"0045","予備コード":"00","大字名":null,"丁目名":null,"小字名":"字別保","予備名":null,"地番":"119-6","精度区分":null,"座標値種別":"図上測量","筆界未定構成筆":null,"代表点緯度":-110091.937,"代表点経度":20629.312766473}},{"type":"MultiPolygon","arcs":[[[16,17,-10]]],"properties":{"筆ID":"H000000007","version":"ver1.0","座標系":"任意座標系","測地系判別":null,"地図名":"釧路町・切図（５０００）","地図番号":"切76","縮尺分母":"5000","市区町村コード":"01661","市区町村名":"釧路郡釧路町","大字コード":"000","丁目コード":"000","小字コード":"0045","予備コード":"00","大字名":null,"丁目名":null,"小字名":"字別保","予備名":null,"地番":"119-7","精度区分":null,"座標値種別":"図上測量","筆界未定構成筆":null,"代表点緯度":-110227.1475,"代表点経度":20648.487268586}},{"type":"MultiPolygon","arcs":[[[18,-12,19]]],"properties":{"筆ID":"H000000008","version":"ver1.0","座標系":"任意座標系","測地系判別":null,"地図名":"釧路町・切図（５０００）","地図番号":"切76","縮尺分母":"5000","市区町村コード":"01661","市区町村名":"釧路郡釧路町","大字コード":"000","丁目コード":"000","小字コード":"0045","予備コード":"00","大字名":null,"丁目名":null,"小字名":"字別保","予備名":null,"地番":"119-10","精度区分":null,"座標値種別":"図上測量","筆界未定構成筆":null,"代表点緯度":-109904.0105,"代表点経度":20621.510405397}},{"type":"MultiPolygon","arcs":[[[20,21,22,23,24,25,26,27,28]]],"properties":{"筆ID":"H000000009","version":"ver1.0","座標系":"任意座標系","測地系判別":null,"地図名":"釧路町・切図（５０００）","地図番号":"切76","縮尺分母":"5000","市区町村コード":"01661","市区町村名":"釧路郡釧路町","大字コード":"000","丁目コード":"000","小字コード":"0045","予備コード":"00","大字名":null,"丁目名":null,"小字名":"字別保","予備名":null,"地番":"122-26","精度区分":null,"座標値種別":"図上測量","筆界未定構成筆":null,"代表点緯度":-109743.9525,"代表点経度":20252.837207811}},{"type":"MultiPolygon","arcs":[[[29,30,31,32,33,34,35,36,37,38,39]]],"properties":{"筆ID":"H000000010","version":"ver1.0","座標系":"任意座標系","測地系判別":null,"地図名":"釧路町・切図（５０００）","地図番号":"切76","縮尺分母":"5000","市区町村コード":"01661","市区町村名":"釧路郡釧路町","大字コード":"000","丁目コード":"000","小字コード":"0045","予備コード":"00","大字名":null,"丁目名":null,"小字名":"字別保","予備名":null,"地番":"122-27","精度区分":null,"座標値種別":"図上測量","筆界未定構成筆":null,"代表点緯度":-109662.374,"代表点経度":20156.021074249}},{"type":"MultiPolygon","arcs":[[[40,41,-39,42,43,44,45,46,47,48,49,50,51,52]]],"properties":{"筆ID":"H000000011","version":"ver1.0","座標系":"任意座標系","測地系判別":null,"地図名":"釧路町・切図（５０００）","地図番号":"切76","縮尺分母":"5000","市区町村コード":"01661","市区町村名":"釧路郡釧路町","大字コード":"000","丁目コード":"000","小字コード":"0045","予備コード":"00","大字名":null,"丁目名":null,"小字名":"字別保","予備名":null,"地番":"122-28","精度区分":null,"座標値種別":"図上測量","筆界未定構成筆":null,"代表点緯度":-109739.141,"代表点経度":20047.458775857}},{"type":"MultiPolygon","arcs":[[[53,54,55,56,57,58,59,-29,60,61,62,63,64]]],"properties":{"筆ID":"H000000012","version":"ver1.0","座標系":"任意座標系","測地系判別":null,"地図名":"釧路町・切図（５０００）","地図番号":"切76","縮尺分母":"5000","市区町村コード":"01661","市区町村名":"釧路郡釧路町","大字コード":"000","丁目コード":"000","小字コード":"0045","予備コード":"00","大字名":null,"丁目名":null,"小字名":"字別保","予備名":null,"地番":"122-29","精度区分":null,"座標値種別":"図上測量","筆界未定構成筆":null,"代表点緯度":-109822.4615,"代表点経度":20139.997666009}},{"type":"MultiPolygon","arcs":[[[65,66,67,68]]],"properties":{"筆ID":"H000000013","version":"ver1.0","座標系":"任意座標系","測地系判別":null,"地図名":"釧路町・切図（５０００）","地図番号":"切76","縮尺分母":"5000","市区町村コード":"01661","市区町村名":"釧路郡釧路町","大字コード":"000","丁目コード":"000","小字コード":"0045","予備コード":"00","大字名":null,"丁目名":null,"小字名":"字別保","予備名":null,"地番":"122-30","精度区分":null,"座標値種別":"図上測量","筆界未定構成筆":null,"代表点緯度":-109879.647,"代表点経度":20087.183204}},{"type":"MultiPolygon","arcs":[[[69,70,71,72,73,74,75]]],"properties":{"筆ID":"H000000014","version":"ver1.0","座標系":"任意座標系","測地系判別":null,"地図名":"釧路町・切図（５０００）","地図番号":"切76","縮尺分母":"5000","市区町村コード":"01661","市区町村名":"釧路郡釧路町","大字コード":"000","丁目コード":"000","小字コード":"0045","予備コード":"00","大字名":null,"丁目名":null,"小字名":"字別保","予備名":null,"地番":"122-31","精度区分":null,"座標値種別":"図上測量","筆界未定構成筆":null,"代表点緯度":-109801.4855,"代表点経度":20011.758424782}},{"type":"MultiPolygon","arcs":[[[76,77,78,79]]],"properties":{"筆ID":"H000000015","version":"ver1.0","座標系":"任意座標系","測地系判別":null,"地図名":"釧路町・切図（５０００）","地図番号":"切76","縮尺分母":"5000","市区町村コード":"01661","市区町村名":"釧路郡釧路町","大字コード":"000","丁目コード":"000","小字コード":"0045","予備コード":"00","大字名":null,"丁目名":null,"小字名":"字別保","予備名":null,"地番":"122-32","精度区分":null,"座標値種別":"図上測量","筆界未定構成筆":null,"代表点緯度":-109869.4335,"代表点経度":19936.464601904}},{"type":"MultiPolygon","arcs":[[[80,81,82]]],"properties":{"筆ID":"H000000016","version":"ver1.0","座標系":"任意座標系","測地系判別":null,"地図名":"釧路町・切図（５０００）","地図番号":"切76","縮尺分母":"5000","市区町村コード":"01661","市区町村名":"釧路郡釧路町","大字コード":"000","丁目コード":"000","小字コード":"0045","予備コード":"00","大字名":null,"丁目名":null,"小字名":"字別保","予備名":null,"地番":"122-33","精度区分":null,"座標値種別":"図上測量","筆界未定構成筆":null,"代表点緯度":-109946.904,"代表点経度":19990.843048153}},{"type":"MultiPolygon","arcs":[[[83,84,-26]]],"properties":{"筆ID":"H000000017","version":"ver1.0","座標系":"任意座標系","測地系判別":null,"地図名":"釧路町・切図（５０００）","地図番号":"切76","縮尺分母":"5000","市区町村コード":"01661","市区町村名":"釧路郡釧路町","大字コード":"000","丁目コード":"000","小字コード":"0045","予備コード":"00","大字名":null,"丁目名":null,"小字名":"字別保","予備名":null,"地番":"122-34","精度区分":null,"座標値種別":"図上測量","筆界未定構成筆":null,"代表点緯度":-109756.592,"代表点経度":20264.615060904}},{"type":"MultiPolygon","arcs":[[[85,-27,-85,86]]],"properties":{"筆ID":"H000000018","version":"ver1.0","座標系":"任意座標系","測地系判別":null,"地図名":"釧路町・切図（５０００）","地図番号":"切76","縮尺分母":"5000","市区町村コード":"01661","市区町村名":"釧路郡釧路町","大字コード":"000","丁目コード":"000","小字コード":"0045","予備コード":"00","大字名":null,"丁目名":null,"小字名":"字別保","予備名":null,"地番":"122-35","精度区分":null,"座標値種別":"図上測量","筆界未定構成筆":null,"代表点緯度":-109776.7165,"代表点経度":20235.522193546}},{"type":"MultiPolygon","arcs":[[[87,-28,-86,88]]],"properties":{"筆ID":"H000000019","version":"ver1.0","座標系":"任意座標系","測地系判別":null,"地図名":"釧路町・切図（５０００）","地図番号":"切76","縮尺分母":"5000","市区町村コード":"01661","市区町村名":"釧路郡釧路町","大字コード":"000","丁目コード":"000","小字コード":"0045","予備コード":"00","大字名":null,"丁目名":null,"小字名":"字別保","予備名":null,"地番":"122-36","精度区分":null,"座標値種別":"図上測量","筆界未定構成筆":null,"代表点緯度":-109787.1345,"代表点経度":20208.597955286}},{"type":"MultiPolygon","arcs":[[[89,90,91,-21]]],"properties":{"筆ID":"H000000020","version":"ver1.0","座標系":"任意座標系","測地系判別":null,"地図名":"釧路町・切図（５０００）","地図番号":"切76","縮尺分母":"5000","市区町村コード":"01661","市区町村名":"釧路郡釧路町","大字コード":"000","丁目コード":"000","小字コード":"0045","予備コード":"00","大字名":null,"丁目名":null,"小字名":"字別保","予備名":null,"地番":"122-37","精度区分":null,"座標値種別":"図上測量","筆界未定構成筆":null,"代表点緯度":-109771.4035,"代表点経度":20182.529699197}},{"type":"MultiPolygon","arcs":[[[92,93,94,-91]]],"properties":{"筆ID":"H000000021","version":"ver1.0","座標系":"任意座標系","測地系判別":null,"地図名":"釧路町・切図（５０００）","地図番号":"切76","縮尺分母":"5000","市区町村コード":"01661","市区町村名":"釧路郡釧路町","大字コード":"000","丁目コード":"000","小字コード":"0045","予備コード":"00","大字名":null,"丁目名":null,"小字名":"字別保","予備名":null,"地番":"122-38","精度区分":null,"座標値種別":"図上測量","筆界未定構成筆":null,"代表点緯度":-109748.771,"代表点経度":20166.545354948}},{"type":"MultiPolygon","arcs":[[[-92,95,96,-22]]],"properties":{"筆ID":"H000000022","version":"ver1.0","座標系":"任意座標系","測地系判別":null,"地図名":"釧路町・切図（５０００）","地図番号":"切76","縮尺分母":"5000","市区町村コード":"01661","市区町村名":"釧路郡釧路町","大字コード":"000","丁目コード":"000","小字コード":"0045","予備コード":"00","大字名":null,"丁目名":null,"小字名":"字別保","予備名":null,"地番":"122-39","精度区分":null,"座標値種別":"図上測量","筆界未定構成筆":null,"代表点緯度":-109751.503,"代表点経度":20211.175883931}},{"type":"MultiPolygon","arcs":[[[-95,97,98,-96]]],"properties":{"筆ID":"H000000023","version":"ver1.0","座標系":"任意座標系","測地系判別":null,"地図名":"釧路町・切図（５０００）","地図番号":"切76","縮尺分母":"5000","市区町村コード":"01661","市区町村名":"釧路郡釧路町","大字コード":"000","丁目コード":"000","小字コード":"0045","予備コード":"00","大字名":null,"丁目名":null,"小字名":"字別保","予備名":null,"地番":"122-40","精度区分":null,"座標値種別":"図上測量","筆界未定構成筆":null,"代表点緯度":-109728.725,"代表点経度":20195.735938823}},{"type":"MultiPolygon","arcs":[[[-23,-97,99]]],"properties":{"筆ID":"H000000024","version":"ver1.0","座標系":"任意座標系","測地系判別":null,"地図名":"釧路町・切図（５０００）","地図番号":"切76","縮尺分母":"5000","市区町村コード":"01661","市区町村名":"釧路郡釧路町","大字コード":"000","丁目コード":"000","小字コード":"0045","予備コード":"00","大字名":null,"丁目名":null,"小字名":"字別保","予備名":null,"地番":"122-41","精度区分":null,"座標値種別":"図上測量","筆界未定構成筆":null,"代表点緯度":-109731.795,"代表点経度":20240.447807796}},{"type":"MultiPolygon","arcs":[[[-24,-100,-99,100]]],"properties":{"筆ID":"H000000025","version":"ver1.0","座標系":"任意座標系","測地系判別":null,"地図名":"釧路町・切図（５０００）","地図番号":"切76","縮尺分母":"5000","市区町村コード":"01661","市区町村名":"釧路郡釧路町","大字コード":"000","丁目コード":"000","小字コード":"0045","予備コード":"00","大字名":null,"丁目名":null,"小字名":"字別保","予備名":null,"地番":"122-42","精度区分":null,"座標値種別":"図上測量","筆界未定構成筆":null,"代表点緯度":-109708.3945,"代表点経度":20225.185397201}},{"type":"MultiPolygon","arcs":[[[101,102,103,-34]]],"properties":{"筆ID":"H000000026","version":"ver1.0","座標系":"任意座標系","測地系判別":null,"地図名":"釧路町・切図（５０００）","地図番号":"切76","縮尺分母":"5000","市区町村コード":"01661","市区町村名":"釧路郡釧路町","大字コード":"000","丁目コード":"000","小字コード":"0045","予備コード":"00","大字名":null,"丁目名":null,"小字名":"字別保","予備名":null,"地番":"122-43","精度区分":null,"座標値種別":"図上測量","筆界未定構成筆":null,"代表点緯度":-109677.051,"代表点経度":20210.548920148}},{"type":"MultiPolygon","arcs":[[[-104,104,-35]]],"properties":{"筆ID":"H000000027","version":"ver1.0","座標系":"任意座標系","測地系判別":null,"地図名":"釧路町・切図（５０００）","地図番号":"切76","縮尺分母":"5000","市区町村コード":"01661","市区町村名":"釧路郡釧路町","大字コード":"000","丁目コード":"000","小字コード":"0045","予備コード":"00","大字名":null,"丁目名":null,"小字名":"字別保","予備名":null,"地番":"122-44","精度区分":null,"座標値種別":"図上測量","筆界未定構成筆":null,"代表点緯度":-109655.229,"代表点経度":20195.398001448}},{"type":"MultiPolygon","arcs":[[[105,106,-103,107]]],"properties":{"筆ID":"H000000028","version":"ver1.0","座標系":"任意座標系","測地系判別":null,"地図名":"釧路町・切図（５０００）","地図番号":"切76","縮尺分母":"5000","市区町村コード":"01661","市区町村名":"釧路郡釧路町","大字コード":"000","丁目コード":"000","小字コード":"0045","予備コード":"00","大字名":null,"丁目名":null,"小字名":"字別保","予備名":null,"地番":"122-45","精度区分":null,"座標値種別":"図上測量","筆界未定構成筆":null,"代表点緯度":-109692.0625,"代表点経度":20191.815952459}},{"type":"MultiPolygon","arcs":[[[-105,-107,108,-36]]],"properties":{"筆ID":"H000000029","version":"ver1.0","座標系":"任意座標系","測地系判別":null,"地図名":"釧路町・切図（５０００）","地図番号":"切76","縮尺分母":"5000","市区町村コード":"01661","市区町村名":"釧路郡釧路町","大字コード":"000","丁目コード":"000","小字コード":"0045","予備コード":"00","大字名":null,"丁目名":null,"小字名":"字別保","予備名":null,"地番":"122-46","精度区分":null,"座標値種別":"図上測量","筆界未定構成筆":null,"代表点緯度":-109668.876,"代表点経度":20176.048718743}},{"type":"MultiPolygon","arcs":[[[109,110,-106,111]]],"properties":{"筆ID":"H000000030","version":"ver1.0","座標系":"任意座標系","測地系判別":null,"地図名":"釧路町・切図（５０００）","地図番号":"切76","縮尺分母":"5000","市区町村コード":"01661","市区町村名":"釧路郡釧路町","大字コード":"000","丁目コード":"000","小字コード":"0045","予備コード":"00","大字名":null,"丁目名":null,"小字名":"字別保","予備名":null,"地番":"122-47","精度区分":null,"座標値種別":"図上測量","筆界未定構成筆":null,"代表点緯度":-109705.9455,"代表点経度":20171.92124238}},{"type":"MultiPolygon","arcs":[[[-109,-111,112,-37]]],"properties":{"筆ID":"H000000031","version":"ver1.0","座標系":"任意座標系","測地系判別":null,"地図名":"釧路町・切図（５０００）","地図番号":"切76","縮尺分母":"5000","市区町村コード":"01661","市区町村名":"釧路郡釧路町","大字コード":"000","丁目コード":"000","小字コード":"0045","予備コード":"00","大字名":null,"丁目名":null,"小字名":"字別保","予備名":null,"地番":"122-48","精度区分":null,"座標値種別":"図上測量","筆界未定構成筆":null,"代表点緯度":-109682.819,"代表点経度":20156.069322477}},{"type":"MultiPolygon","arcs":[[[113,114,-110,115]]],"properties":{"筆ID":"H000000032","version":"ver1.0","座標系":"任意座標系","測地系判別":null,"地図名":"釧路町・切図（５０００）","地図番号":"切76","縮尺分母":"5000","市区町村コード":"01661","市区町村名":"釧路郡釧路町","大字コード":"000","丁目コード":"000","小字コード":"0045","予備コード":"00","大字名":null,"丁目名":null,"小字名":"字別保","予備名":null,"地番":"122-49","精度区分":null,"座標値種別":"図上測量","筆界未定構成筆":null,"代表点緯度":-109722.4855,"代表点経度":20148.292316616}},{"type":"MultiPolygon","arcs":[[[-113,-115,116,-38]]],"properties":{"筆ID":"H000000033","version":"ver1.0","座標系":"任意座標系","測地系判別":null,"地図名":"釧路町・切図（５０００）","地図番号":"切76","縮尺分母":"5000","市区町村コード":"01661","市区町村名":"釧路郡釧路町","大字コード":"000","丁目コード":"000","小字コード":"0045","予備コード":"00","大字名":null,"丁目名":null,"小字名":"字別保","予備名":null,"地番":"122-50","精度区分":null,"座標値種別":"図上測量","筆界未定構成筆":null,"代表点緯度":-109699.455,"代表点経度":20132.237565122}},{"type":"MultiPolygon","arcs":[[[-32,117,118]]],"properties":{"筆ID":"H000000034","version":"ver1.0","座標系":"任意座標系","測地系判別":null,"地図名":"釧路町・切図（５０００）","地図番号":"切76","縮尺分母":"5000","市区町村コード":"01661","市区町村名":"釧路郡釧路町","大字コード":"000","丁目コード":"000","小字コード":"0045","予備コード":"00","大字名":null,"丁目名":null,"小字名":"字別保","予備名":null,"地番":"122-51","精度区分":null,"座標値種別":"図上測量","筆界未定構成筆":null,"代表点緯度":-109624.858,"代表点経度":20180.460975184}},{"type":"MultiPolygon","arcs":[[[119,120,-118,-31]]],"properties":{"筆ID":"H000000035","version":"ver1.0","座標系":"任意座標系","測地系判別":null,"地図名":"釧路町・切図（５０００）","地図番号":"切76","縮尺分母":"5000","市区町村コード":"01661","市区町村名":"釧路郡釧路町","大字コード":"000","丁目コード":"000","小字コード":"0045","予備コード":"00","大字名":null,"丁目名":null,"小字名":"字別保","予備名":null,"地番":"122-52","精度区分":null,"座標値種別":"図上測量","筆界未定構成筆":null,"代表点緯度":-109638.681,"代表点経度":20160.876153941}},{"type":"MultiPolygon","arcs":[[[121,122,-120,-30]]],"properties":{"筆ID":"H000000036","version":"ver1.0","座標系":"任意座標系","測地系判別":null,"地図名":"釧路町・切図（５０００）","地図番号":"切76","縮尺分母":"5000","市区町村コード":"01661","市区町村名":"釧路郡釧路町","大字コード":"000","丁目コード":"000","小字コード":"0045","予備コード":"00","大字名":null,"丁目名":null,"小字名":"字別保","予備名":null,"地番":"122-53","精度区分":null,"座標値種別":"図上測量","筆界未定構成筆":null,"代表点緯度":-109652.431,"代表点経度":20141.10103823}},{"type":"MultiPolygon","arcs":[[[123,124,-122,-40]]],"properties":{"筆ID":"H000000037","version":"ver1.0","座標系":"任意座標系","測地系判別":null,"地図名":"釧路町・切図（５０００）","地図番号":"切76","縮尺分母":"5000","市区町村コード":"01661","市区町村名":"釧路郡釧路町","大字コード":"000","丁目コード":"000","小字コード":"0045","予備コード":"00","大字名":null,"丁目名":null,"小字名":"字別保","予備名":null,"地番":"122-54","精度区分":null,"座標値種別":"図上測量","筆界未定構成筆":null,"代表点緯度":-109659.2485,"代表点経度":20119.289964793}},{"type":"MultiPolygon","arcs":[[[125,126,-114,127]]],"properties":{"筆ID":"H000000038","version":"ver1.0","座標系":"任意座標系","測地系判別":null,"地図名":"釧路町・切図（５０００）","地図番号":"切76","縮尺分母":"5000","市区町村コード":"01661","市区町村名":"釧路郡釧路町","大字コード":"000","丁目コード":"000","小字コード":"0045","予備コード":"00","大字名":null,"丁目名":null,"小字名":"字別保","予備名":null,"地番":"122-55","精度区分":null,"座標値種別":"図上測量","筆界未定構成筆":null,"代表点緯度":-109742.313,"代表点経度":20119.492808189}},{"type":"MultiPolygon","arcs":[[[-117,-127,128,-43]]],"properties":{"筆ID":"H000000039","version":"ver1.0","座標系":"任意座標系","測地系判別":null,"地図名":"釧路町・切図（５０００）","地図番号":"切76","縮尺分母":"5000","市区町村コード":"01661","市区町村名":"釧路郡釧路町","大字コード":"000","丁目コード":"000","小字コード":"0045","予備コード":"00","大字名":null,"丁目名":null,"小字名":"字別保","予備名":null,"地番":"122-56","精度区分":null,"座標値種別":"図上測量","筆界未定構成筆":null,"代表点緯度":-109719.2355,"代表点経度":20103.982342232}},{"type":"MultiPolygon","arcs":[[[129,130,-124,-42]]],"properties":{"筆ID":"H000000040","version":"ver1.0","座標系":"任意座標系","測地系判別":null,"地図名":"釧路町・切図（５０００）","地図番号":"切76","縮尺分母":"5000","市区町村コード":"01661","市区町村名":"釧路郡釧路町","大字コード":"000","丁目コード":"000","小字コード":"0045","予備コード":"00","大字名":null,"丁目名":null,"小字名":"字別保","予備名":null,"地番":"122-57","精度区分":null,"座標値種別":"図上測量","筆界未定構成筆":null,"代表点緯度":-109691.8935,"代表点経度":20084.564468764}},{"type":"MultiPolygon","arcs":[[[131,-126,132,-45]]],"properties":{"筆ID":"H000000041","version":"ver1.0","座標系":"任意座標系","測地系判別":null,"地図名":"釧路町・切図（５０００）","地図番号":"切76","縮尺分母":"5000","市区町村コード":"01661","市区町村名":"釧路郡釧路町","大字コード":"000","丁目コード":"000","小字コード":"0045","予備コード":"00","大字名":null,"丁目名":null,"小字名":"字別保","予備名":null,"地番":"122-58","精度区分":null,"座標値種別":"図上測量","筆界未定構成筆":null,"代表点緯度":-109762.5835,"代表点経度":20090.374031955}},{"type":"MultiPolygon","arcs":[[[-129,-132,-44]]],"properties":{"筆ID":"H000000042","version":"ver1.0","座標系":"任意座標系","測地系判別":null,"地図名":"釧路町・切図（５０００）","地図番号":"切76","縮尺分母":"5000","市区町村コード":"01661","市区町村名":"釧路郡釧路町","大字コード":"000","丁目コード":"000","小字コード":"0045","予備コード":"00","大字名":null,"丁目名":null,"小字名":"字別保","予備名":null,"地番":"122-59","精度区分":null,"座標値種別":"図上測量","筆界未定構成筆":null,"代表点緯度":-109739.141,"代表点経度":20074.548722794}},{"type":"MultiPolygon","arcs":[[[133,134,-130,-41]]],"properties":{"筆ID":"H000000043","version":"ver1.0","座標系":"任意座標系","測地系判別":null,"地図名":"釧路町・切図（５０００）","地図番号":"切76","縮尺分母":"5000","市区町村コード":"01661","市区町村名":"釧路郡釧路町","大字コード":"000","丁目コード":"000","小字コード":"0045","予備コード":"00","大字名":null,"丁目名":null,"小字名":"字別保","予備名":null,"地番":"122-60","精度区分":null,"座標値種別":"図上測量","筆界未定構成筆":null,"代表点緯度":-109712.256,"代表点経度":20055.480505233}},{"type":"MultiPolygon","arcs":[[[135,-48,136,137,-71]]],"properties":{"筆ID":"H000000044","version":"ver1.0","座標系":"任意座標系","測地系判別":null,"地図名":"釧路町・切図（５０００）","地図番号":"切76","縮尺分母":"5000","市区町村コード":"01661","市区町村名":"釧路郡釧路町","大字コード":"000","丁目コード":"000","小字コード":"0045","予備コード":"00","大字名":null,"丁目名":null,"小字名":"字別保","予備名":null,"地番":"122-61","精度区分":null,"座標値種別":"図上測量","筆界未定構成筆":null,"代表点緯度":-109771.1345,"代表点経度":20055.304201773}},{"type":"MultiPolygon","arcs":[[[138,-49,-136,139,140]]],"properties":{"筆ID":"H000000045","version":"ver1.0","座標系":"任意座標系","測地系判別":null,"地図名":"釧路町・切図（５０００）","地図番号":"切76","縮尺分母":"5000","市区町村コード":"01661","市区町村名":"釧路郡釧路町","大字コード":"000","丁目コード":"000","小字コード":"0045","予備コード":"00","大字名":null,"丁目名":null,"小字名":"字別保","予備名":null,"地番":"122-62","精度区分":null,"座標値種別":"図上測量","筆界未定構成筆":null,"代表点緯度":-109777.8755,"代表点経度":20042.577051743}},{"type":"MultiPolygon","arcs":[[[141,142,-134,-53]]],"properties":{"筆ID":"H000000046","version":"ver1.0","座標系":"任意座標系","測地系判別":null,"地図名":"釧路町・切図（５０００）","地図番号":"切76","縮尺分母":"5000","市区町村コード":"01661","市区町村名":"釧路郡釧路町","大字コード":"000","丁目コード":"000","小字コード":"0045","予備コード":"00","大字名":null,"丁目名":null,"小字名":"字別保","予備名":null,"地番":"122-63","精度区分":null,"座標値種別":"図上測量","筆界未定構成筆":null,"代表点緯度":-109745.3815,"代表点経度":20020.226880114}},{"type":"MultiPolygon","arcs":[[[143,-61,-88,144]]],"properties":{"筆ID":"H000000047","version":"ver1.0","座標系":"任意座標系","測地系判別":null,"地図名":"釧路町・切図（５０００）","地図番号":"切76","縮尺分母":"5000","市区町村コード":"01661","市区町村名":"釧路郡釧路町","大字コード":"000","丁目コード":"000","小字コード":"0045","予備コード":"00","大字名":null,"丁目名":null,"小字名":"字別保","予備名":null,"地番":"122-64","精度区分":null,"座標値種別":"図上測量","筆界未定構成筆":null,"代表点緯度":-109816.4665,"代表点経度":20178.419074727}},{"type":"MultiPolygon","arcs":[[[145,146,-90,-60]]],"properties":{"筆ID":"H000000048","version":"ver1.0","座標系":"任意座標系","測地系判別":null,"地図名":"釧路町・切図（５０００）","地図番号":"切76","縮尺分母":"5000","市区町村コード":"01661","市区町村名":"釧路郡釧路町","大字コード":"000","丁目コード":"000","小字コード":"0045","予備コード":"00","大字名":null,"丁目名":null,"小字名":"字別保","予備名":null,"地番":"122-65","精度区分":null,"座標値種別":"図上測量","筆界未定構成筆":null,"代表点緯度":-109788.143,"代表点経度":20158.50554302}},{"type":"MultiPolygon","arcs":[[[147,148,-93,-147]]],"properties":{"筆ID":"H000000049","version":"ver1.0","座標系":"任意座標系","測地系判別":null,"地図名":"釧路町・切図（５０００）","地図番号":"切76","縮尺分母":"5000","市区町村コード":"01661","市区町村名":"釧路郡釧路町","大字コード":"000","丁目コード":"000","小字コード":"0045","予備コード":"00","大字名":null,"丁目名":null,"小字名":"字別保","予備名":null,"地番":"122-66","精度区分":null,"座標値種別":"図上測量","筆界未定構成筆":null,"代表点緯度":-109765.385,"代表点経度":20142.579173819}},{"type":"MultiPolygon","arcs":[[[149,-62,-144,150]]],"properties":{"筆ID":"H000000050","version":"ver1.0","座標系":"任意座標系","測地系判別":null,"地図名":"釧路町・切図（５０００）","地図番号":"切76","縮尺分母":"5000","市区町村コード":"01661","市区町村名":"釧路郡釧路町","大字コード":"000","丁目コード":"000","小字コード":"0045","予備コード":"00","大字名":null,"丁目名":null,"小字名":"字別保","予備名":null,"地番":"122-67","精度区分":null,"座標値種別":"図上測量","筆界未定構成筆":null,"代表点緯度":-109829.919,"代表点経度":20159.028625809}},{"type":"MultiPolygon","arcs":[[[151,152,-146,-59]]],"properties":{"筆ID":"H000000051","version":"ver1.0","座標系":"任意座標系","測地系判別":null,"地図名":"釧路町・切図（５０００）","地図番号":"切76","縮尺分母":"5000","市区町村コード":"01661","市区町村名":"釧路郡釧路町","大字コード":"000","丁目コード":"000","小字コード":"0045","予備コード":"00","大字名":null,"丁目名":null,"小字名":"字別保","予備名":null,"地番":"122-68","精度区分":null,"座標値種別":"図上測量","筆界未定構成筆":null,"代表点緯度":-109801.701,"代表点経度":20139.144665541}},{"type":"MultiPolygon","arcs":[[[153,154,-148,-153]]],"properties":{"筆ID":"H000000052","version":"ver1.0","座標系":"任意座標系","測地系判別":null,"地図名":"釧路町・切図（５０００）","地図番号":"切76","縮尺分母":"5000","市区町村コード":"01661","市区町村名":"釧路郡釧路町","大字コード":"000","丁目コード":"000","小字コード":"0045","予備コード":"00","大字名":null,"丁目名":null,"小字名":"字別保","予備名":null,"地番":"122-69","精度区分":null,"座標値種別":"図上測量","筆界未定構成筆":null,"代表点緯度":-109778.853,"代表点経度":20123.224134107}},{"type":"MultiPolygon","arcs":[[[155,-63,-150,156]]],"properties":{"筆ID":"H000000053","version":"ver1.0","座標系":"任意座標系","測地系判別":null,"地図名":"釧路町・切図（５０００）","地図番号":"切76","縮尺分母":"5000","市区町村コード":"01661","市区町村名":"釧路郡釧路町","大字コード":"000","丁目コード":"000","小字コード":"0045","予備コード":"00","大字名":null,"丁目名":null,"小字名":"字別保","予備名":null,"地番":"122-70","精度区分":null,"座標値種別":"図上測量","筆界未定構成筆":null,"代表点緯度":-109843.152,"代表点経度":20139.880731788}},{"type":"MultiPolygon","arcs":[[[-58,157,-152]]],"properties":{"筆ID":"H000000054","version":"ver1.0","座標系":"任意座標系","測地系判別":null,"地図名":"釧路町・切図（５０００）","地図番号":"切76","縮尺分母":"5000","市区町村コード":"01661","市区町村名":"釧路郡釧路町","大字コード":"000","丁目コード":"000","小字コード":"0045","予備コード":"00","大字名":null,"丁目名":null,"小字名":"字別保","予備名":null,"地番":"122-71","精度区分":null,"座標値種別":"図上測量","筆界未定構成筆":null,"代表点緯度":-109814.907,"代表点経度":20120.3213578}},{"type":"MultiPolygon","arcs":[[[158,-154,-158,-57]]],"properties":{"筆ID":"H000000055","version":"ver1.0","座標系":"任意座標系","測地系判別":null,"地図名":"釧路町・切図（５０００）","地図番号":"切76","縮尺分母":"5000","市区町村コード":"01661","市区町村名":"釧路郡釧路町","大字コード":"000","丁目コード":"000","小字コード":"0045","予備コード":"00","大字名":null,"丁目名":null,"小字名":"字別保","予備名":null,"地番":"122-72","精度区分":null,"座標値種別":"図上測量","筆界未定構成筆":null,"代表点緯度":-109793.3355,"代表点経度":20104.928617064}},{"type":"MultiPolygon","arcs":[[[-68,-64,-156,159]]],"properties":{"筆ID":"H000000056","version":"ver1.0","座標系":"任意座標系","測地系判別":null,"地図名":"釧路町・切図（５０００）","地図番号":"切76","縮尺分母":"5000","市区町村コード":"01661","市区町村名":"釧路郡釧路町","大字コード":"000","丁目コード":"000","小字コード":"0045","予備コード":"00","大字名":null,"丁目名":null,"小字名":"字別保","予備名":null,"地番":"122-73","精度区分":null,"座標値種別":"図上測量","筆界未定構成筆":null,"代表点緯度":-109861.283,"代表点経度":20113.474874718}},{"type":"MultiPolygon","arcs":[[[-54,160,161]]],"properties":{"筆ID":"H000000057","version":"ver1.0","座標系":"任意座標系","測地系判別":null,"地図名":"釧路町・切図（５０００）","地図番号":"切76","縮尺分母":"5000","市区町村コード":"01661","市区町村名":"釧路郡釧路町","大字コード":"000","丁目コード":"000","小字コード":"0045","予備コード":"00","大字名":null,"丁目名":null,"小字名":"字別保","予備名":null,"地番":"122-74","精度区分":null,"座標値種別":"図上測量","筆界未定構成筆":null,"代表点緯度":-109836.252,"代表点経度":20091.624043305}},{"type":"MultiPolygon","arcs":[[[-55,-162,162,163]]],"properties":{"筆ID":"H000000058","version":"ver1.0","座標系":"任意座標系","測地系判別":null,"地図名":"釧路町・切図（５０００）","地図番号":"切76","縮尺分母":"5000","市区町村コード":"01661","市区町村名":"釧路郡釧路町","大字コード":"000","丁目コード":"000","小字コード":"0045","予備コード":"00","大字名":null,"丁目名":null,"小字名":"字別保","予備名":null,"地番":"122-75","精度区分":null,"座標値種別":"図上測量","筆界未定構成筆":null,"代表点緯度":-109812.0395,"代表点経度":20075.498992588}},{"type":"MultiPolygon","arcs":[[[164,165,-82,166]]],"properties":{"筆ID":"H000000059","version":"ver1.0","座標系":"任意座標系","測地系判別":null,"地図名":"釧路町・切図（５０００）","地図番号":"切76","縮尺分母":"5000","市区町村コード":"01661","市区町村名":"釧路郡釧路町","大字コード":"000","丁目コード":"000","小字コード":"0045","予備コード":"00","大字名":null,"丁目名":null,"小字名":"字別保","予備名":null,"地番":"122-76","精度区分":null,"座標値種別":"図上測量","筆界未定構成筆":null,"代表点緯度":-109933.201,"代表点経度":19981.188991354}},{"type":"MultiPolygon","arcs":[[[-165,167,168,169]]],"properties":{"筆ID":"H000000060","version":"ver1.0","座標系":"任意座標系","測地系判別":null,"地図名":"釧路町・切図（５０００）","地図番号":"切76","縮尺分母":"5000","市区町村コード":"01661","市区町村名":"釧路郡釧路町","大字コード":"000","丁目コード":"000","小字コード":"0045","予備コード":"00","大字名":null,"丁目名":null,"小字名":"字別保","予備名":null,"地番":"122-77","精度区分":null,"座標値種別":"図上測量","筆界未定構成筆":null,"代表点緯度":-109919.0615,"代表点経度":19971.172512759}},{"type":"MultiPolygon","arcs":[[[170,-169,171]]],"properties":{"筆ID":"H000000061","version":"ver1.0","座標系":"任意座標系","測地系判別":null,"地図名":"釧路町・切図（５０００）","地図番号":"切76","縮尺分母":"5000","市区町村コード":"01661","市区町村名":"釧路郡釧路町","大字コード":"000","丁目コード":"000","小字コード":"0045","予備コード":"00","大字名":null,"丁目名":null,"小字名":"字別保","予備名":null,"地番":"122-78","精度区分":null,"座標値種別":"図上測量","筆界未定構成筆":null,"代表点緯度":-109895.773,"代表点経度":19954.707577753}},{"type":"MultiPolygon","arcs":[[[172,173,174,175,-77]]],"properties":{"筆ID":"H000000062","version":"ver1.0","座標系":"任意座標系","測地系判別":null,"地図名":"釧路町・切図（５０００）","地図番号":"切76","縮尺分母":"5000","市区町村コード":"01661","市区町村名":"釧路郡釧路町","大字コード":"000","丁目コード":"000","小字コード":"0045","予備コード":"00","大字名":null,"丁目名":null,"小字名":"字別保","予備名":null,"地番":"122-79","精度区分":null,"座標値種別":"図上測量","筆界未定構成筆":null,"代表点緯度":-109847.0705,"代表点経度":19920.986227892}},{"type":"MultiPolygon","arcs":[[[-174,176,177,178]]],"properties":{"筆ID":"H000000063","version":"ver1.0","座標系":"任意座標系","測地系判別":null,"地図名":"釧路町・切図（５０００）","地図番号":"切76","縮尺分母":"5000","市区町村コード":"01661","市区町村名":"釧路郡釧路町","大字コード":"000","丁目コード":"000","小字コード":"0045","予備コード":"00","大字名":null,"丁目名":null,"小字名":"字別保","予備名":null,"地番":"122-80","精度区分":null,"座標値種別":"図上測量","筆界未定構成筆":null,"代表点緯度":-109832.999,"代表点経度":19911.542306891}},{"type":"MultiPolygon","arcs":[[[179,-178,180]]],"properties":{"筆ID":"H000000064","version":"ver1.0","座標系":"任意座標系","測地系判別":null,"地図名":"釧路町・切図（５０００）","地図番号":"切76","縮尺分母":"5000","市区町村コード":"01661","市区町村名":"釧路郡釧路町","大字コード":"000","丁目コード":"000","小字コード":"0045","予備コード":"00","大字名":null,"丁目名":null,"小字名":"字別保","予備名":null,"地番":"122-81","精度区分":null,"座標値種別":"図上測量","筆界未定構成筆":null,"代表点緯度":-109819.161,"代表点経度":19901.573981388}},{"type":"MultiPolygon","arcs":[[[-70,181,182,183,184,185,-140]]],"properties":{"筆ID":"H000000065","version":"ver1.0","座標系":"任意座標系","測地系判別":null,"地図名":"釧路町・切図（５０００）","地図番号":"切76","縮尺分母":"5000","市区町村コード":"01661","市区町村名":"釧路郡釧路町","大字コード":"000","丁目コード":"000","小字コード":"0045","予備コード":"00","大字名":null,"丁目名":null,"小字名":"字別保","予備名":null,"地番":"122-82","精度区分":null,"座標値種別":"図上測量","筆界未定構成筆":null,"代表点緯度":-109799.2935,"代表点経度":20011.809736293}},{"type":"MultiPolygon","arcs":[[[186,187,-142,188]]],"properties":{"筆ID":"H000000066","version":"ver1.0","座標系":"任意座標系","測地系判別":null,"地図名":"釧路町・切図（５０００）","地図番号":"切76","縮尺分母":"5000","市区町村コード":"01661","市区町村名":"釧路郡釧路町","大字コード":"000","丁目コード":"000","小字コード":"0045","予備コード":"00","大字名":null,"丁目名":null,"小字名":"字別保","予備名":null,"地番":"122-83","精度区分":null,"座標値種別":"図上測量","筆界未定構成筆":null,"代表点緯度":-109762.358,"代表点経度":19983.358179138}},{"type":"MultiPolygon","arcs":[[[189,-76,190,191,192,-78]]],"properties":{"筆ID":"H000000067","version":"ver1.0","座標系":"任意座標系","測地系判別":null,"地図名":"釧路町・切図（５０００）","地図番号":"切76","縮尺分母":"5000","市区町村コード":"01661","市区町村名":"釧路郡釧路町","大字コード":"000","丁目コード":"000","小字コード":"0045","予備コード":"00","大字名":null,"丁目名":null,"小字名":"字別保","予備名":null,"地番":"122-84","精度区分":null,"座標値種別":"図上測量","筆界未定構成筆":null,"代表点緯度":-109832.983,"代表点経度":19966.56202073}},{"type":"MultiPolygon","arcs":[[[-180,193,-187,194]]],"properties":{"筆ID":"H000000068","version":"ver1.0","座標系":"任意座標系","測地系判別":null,"地図名":"釧路町・切図（５０００）","地図番号":"切76","縮尺分母":"5000","市区町村コード":"01661","市区町村名":"釧路郡釧路町","大字コード":"000","丁目コード":"000","小字コード":"0045","予備コード":"00","大字名":null,"丁目名":null,"小字名":"字別保","予備名":null,"地番":"122-86","精度区分":null,"座標値種別":"図上測量","筆界未定構成筆":null,"代表点緯度":-109793.7545,"代表点経度":19937.900567332}},{"type":"MultiPolygon","arcs":[[[195,196,197,198,199,200,-179,-195,-189,-52,201]]],"properties":{"筆ID":"H000000069","version":"ver1.0","座標系":"任意座標系","測地系判別":null,"地図名":"釧路町・切図（５０００）","地図番号":"切76","縮尺分母":"5000","市区町村コード":"01661","市区町村名":"釧路郡釧路町","大字コード":"000","丁目コード":"000","小字コード":"0045","予備コード":"00","大字名":null,"丁目名":null,"小字名":"字別保","予備名":null,"地番":"122-87","精度区分":null,"座標値種別":"図上測量","筆界未定構成筆":null,"代表点緯度":-109786.505,"代表点経度":19978.159923292}},{"type":"MultiPolygon","arcs":[[[202,203,-161,204]]],"properties":{"筆ID":"H000000070","version":"ver1.0","座標系":"任意座標系","測地系判別":null,"地図名":"釧路町・切図（５０００）","地図番号":"切76","縮尺分母":"5000","市区町村コード":"01661","市区町村名":"釧路郡釧路町","大字コード":"000","丁目コード":"000","小字コード":"0045","予備コード":"00","大字名":null,"丁目名":null,"小字名":"字別保","予備名":null,"地番":"122-88","精度区分":null,"座標値種別":"図上測量","筆界未定構成筆":null,"代表点緯度":-109851.692,"代表点経度":20067.737451558}},{"type":"MultiPolygon","arcs":[[[205,206,-163,-204]]],"properties":{"筆ID":"H000000071","version":"ver1.0","座標系":"任意座標系","測地系判別":null,"地図名":"釧路町・切図（５０００）","地図番号":"切76","縮尺分母":"5000","市区町村コード":"01661","市区町村名":"釧路郡釧路町","大字コード":"000","丁目コード":"000","小字コード":"0045","予備コード":"00","大字名":null,"丁目名":null,"小字名":"字別保","予備名":null,"地番":"122-89","精度区分":null,"座標値種別":"図上測量","筆界未定構成筆":null,"代表点緯度":-109828.3945,"代表点経度":20051.935042559}},{"type":"MultiPolygon","arcs":[[[207,208,-66,209]]],"properties":{"筆ID":"H000000072","version":"ver1.0","座標系":"任意座標系","測地系判別":null,"地図名":"釧路町・切図（５０００）","地図番号":"切76","縮尺分母":"5000","市区町村コード":"01661","市区町村名":"釧路郡釧路町","大字コード":"000","丁目コード":"000","小字コード":"0045","予備コード":"00","大字名":null,"丁目名":null,"小字名":"字別保","予備名":null,"地番":"122-90","精度区分":null,"座標値種別":"図上測量","筆界未定構成筆":null,"代表点緯度":-109893.428,"代表点経度":20067.714721398}},{"type":"MultiPolygon","arcs":[[[210,211,-203,212]]],"properties":{"筆ID":"H000000073","version":"ver1.0","座標系":"任意座標系","測地系判別":null,"地図名":"釧路町・切図（５０００）","地図番号":"切76","縮尺分母":"5000","市区町村コード":"01661","市区町村名":"釧路郡釧路町","大字コード":"000","丁目コード":"000","小字コード":"0045","予備コード":"00","大字名":null,"丁目名":null,"小字名":"字別保","予備名":null,"地番":"122-91","精度区分":null,"座標値種別":"図上測量","筆界未定構成筆":null,"代表点緯度":-109865.365,"代表点経度":20047.941263177}},{"type":"MultiPolygon","arcs":[[[213,214,-206,-212]]],"properties":{"筆ID":"H000000074","version":"ver1.0","座標系":"任意座標系","測地系判別":null,"地図名":"釧路町・切図（５０００）","地図番号":"切76","縮尺分母":"5000","市区町村コード":"01661","市区町村名":"釧路郡釧路町","大字コード":"000","丁目コード":"000","小字コード":"0045","予備コード":"00","大字名":null,"丁目名":null,"小字名":"字別保","予備名":null,"地番":"122-92","精度区分":null,"座標値種別":"図上測量","筆界未定構成筆":null,"代表点緯度":-109841.9595,"代表点経度":20032.399720636}},{"type":"MultiPolygon","arcs":[[[215,216,-208,217]]],"properties":{"筆ID":"H000000075","version":"ver1.0","座標系":"任意座標系","測地系判別":null,"地図名":"釧路町・切図（５０００）","地図番号":"切76","縮尺分母":"5000","市区町村コード":"01661","市区町村名":"釧路郡釧路町","大字コード":"000","丁目コード":"000","小字コード":"0045","予備コード":"00","大字名":null,"丁目名":null,"小字名":"字別保","予備名":null,"地番":"122-93","精度区分":null,"座標値種別":"図上測量","筆界未定構成筆":null,"代表点緯度":-109906.8585,"代表点経度":20048.188871858}},{"type":"MultiPolygon","arcs":[[[218,219,-211,220]]],"properties":{"筆ID":"H000000076","version":"ver1.0","座標系":"任意座標系","測地系判別":null,"地図名":"釧路町・切図（５０００）","地図番号":"切76","縮尺分母":"5000","市区町村コード":"01661","市区町村名":"釧路郡釧路町","大字コード":"000","丁目コード":"000","小字コード":"0045","予備コード":"00","大字名":null,"丁目名":null,"小字名":"字別保","予備名":null,"地番":"122-94","精度区分":null,"座標値種別":"図上測量","筆界未定構成筆":null,"代表点緯度":-109878.7435,"代表点経度":20028.666567948}},{"type":"MultiPolygon","arcs":[[[221,222,-214,-220]]],"properties":{"筆ID":"H000000077","version":"ver1.0","座標系":"任意座標系","測地系判別":null,"地図名":"釧路町・切図（５０００）","地図番号":"切76","縮尺分母":"5000","市区町村コード":"01661","市区町村名":"釧路郡釧路町","大字コード":"000","丁目コード":"000","小字コード":"0045","予備コード":"00","大字名":null,"丁目名":null,"小字名":"字別保","予備名":null,"地番":"122-95","精度区分":null,"座標値種別":"図上測量","筆界未定構成筆":null,"代表点緯度":-109855.5735,"代表点経度":20012.828799836}},{"type":"MultiPolygon","arcs":[[[-83,223,-216,224]]],"properties":{"筆ID":"H000000078","version":"ver1.0","座標系":"任意座標系","測地系判別":null,"地図名":"釧路町・切図（５０００）","地図番号":"切76","縮尺分母":"5000","市区町村コード":"01661","市区町村名":"釧路郡釧路町","大字コード":"000","丁目コード":"000","小字コード":"0045","予備コード":"00","大字名":null,"丁目名":null,"小字名":"字別保","予備名":null,"地番":"122-96","精度区分":null,"座標値種別":"図上測量","筆界未定構成筆":null,"代表点緯度":-109924.857,"代表点経度":20022.330669146}},{"type":"MultiPolygon","arcs":[[[-170,225,-219,226]]],"properties":{"筆ID":"H000000079","version":"ver1.0","座標系":"任意座標系","測地系判別":null,"地図名":"釧路町・切図（５０００）","地図番号":"切76","縮尺分母":"5000","市区町村コード":"01661","市区町村名":"釧路郡釧路町","大字コード":"000","丁目コード":"000","小字コード":"0045","予備コード":"00","大字名":null,"丁目名":null,"小字名":"字別保","予備名":null,"地番":"122-97","精度区分":null,"座標値種別":"図上測量","筆界未定構成筆":null,"代表点緯度":-109885.44,"代表点経度":20006.800801731}},{"type":"MultiPolygon","arcs":[[[-171,227,-222,-226]]],"properties":{"筆ID":"H000000080","version":"ver1.0","座標系":"任意座標系","測地系判別":null,"地図名":"釧路町・切図（５０００）","地図番号":"切76","縮尺分母":"5000","市区町村コード":"01661","市区町村名":"釧路郡釧路町","大字コード":"000","丁目コード":"000","小字コード":"0045","予備コード":"00","大字名":null,"丁目名":null,"小字名":"字別保","予備名":null,"地番":"122-98","精度区分":null,"座標値種別":"図上測量","筆界未定構成筆":null,"代表点緯度":-109873.525,"代表点経度":19986.744751558}},{"type":"MultiPolygon","arcs":[[[-227,-221,-213,-205,-65,-67,-209,-217,-224,-166]]],"properties":{"筆ID":"H000000081","version":"ver1.0","座標系":"任意座標系","測地系判別":null,"地図名":"釧路町・切図（５０００）","地図番号":"切76","縮尺分母":"5000","市区町村コード":"01661","市区町村名":"釧路郡釧路町","大字コード":"000","丁目コード":"000","小字コード":"0045","予備コード":"00","大字名":null,"丁目名":null,"小字名":"字別保","予備名":null,"地番":"122-99","精度区分":null,"座標値種別":"図上測量","筆界未定構成筆":null,"代表点緯度":-109893.262,"代表点経度":20038.539170052}},{"type":"MultiPolygon","arcs":[[[-47,228,229,-137]]],"properties":{"筆ID":"H000000082","version":"ver1.0","座標系":"任意座標系","測地系判別":null,"地図名":"釧路町・切図（５０００）","地図番号":"切76","縮尺分母":"5000","市区町村コード":"01661","市区町村名":"釧路郡釧路町","大字コード":"000","丁目コード":"000","小字コード":"0045","予備コード":"00","大字名":null,"丁目名":null,"小字名":"字別保","予備名":null,"地番":"122-100","精度区分":null,"座標値種別":"図上測量","筆界未定構成筆":null,"代表点緯度":-109781.546,"代表点経度":20064.201918674}},{"type":"MultiPolygon","arcs":[[[230,-138,-230,231]]],"properties":{"筆ID":"H000000083","version":"ver1.0","座標系":"任意座標系","測地系判別":null,"地図名":"釧路町・切図（５０００）","地図番号":"切76","縮尺分母":"5000","市区町村コード":"01661","市区町村名":"釧路郡釧路町","大字コード":"000","丁目コード":"000","小字コード":"0045","予備コード":"00","大字名":null,"丁目名":null,"小字名":"字別保","予備名":null,"地番":"122-101","精度区分":null,"座標値種別":"図上測量","筆界未定構成筆":null,"代表点緯度":-109791.4155,"代表点経度":20050.258978201}},{"type":"MultiPolygon","arcs":[[[-50,-139,232]]],"properties":{"筆ID":"H000000084","version":"ver1.0","座標系":"任意座標系","測地系判別":null,"地図名":"釧路町・切図（５０００）","地図番号":"切76","縮尺分母":"5000","市区町村コード":"01661","市区町村名":"釧路郡釧路町","大字コード":"000","丁目コード":"000","小字コード":"0045","予備コード":"00","大字名":null,"丁目名":null,"小字名":"字別保","予備名":null,"地番":"122-102","精度区分":null,"座標値種別":"図上測量","筆界未定構成筆":null,"代表点緯度":-109757.3965,"代表点経度":20047.440791015}},{"type":"MultiPolygon","arcs":[[[-233,-141,233,-51]]],"properties":{"筆ID":"H000000085","version":"ver1.0","座標系":"任意座標系","測地系判別":null,"地図名":"釧路町・切図（５０００）","地図番号":"切76","縮尺分母":"5000","市区町村コード":"01661","市区町村名":"釧路郡釧路町","大字コード":"000","丁目コード":"000","小字コード":"0045","予備コード":"00","大字名":null,"丁目名":null,"小字名":"字別保","予備名":null,"地番":"122-103","精度区分":null,"座標値種別":"図上測量","筆界未定構成筆":null,"代表点緯度":-109767.076,"代表点経度":20033.537011585}},{"type":"MultiPolygon","arcs":[[[234,-72,-231,235]]],"properties":{"筆ID":"H000000086","version":"ver1.0","座標系":"任意座標系","測地系判別":null,"地図名":"釧路町・切図（５０００）","地図番号":"切76","縮尺分母":"5000","市区町村コード":"01661","市区町村名":"釧路郡釧路町","大字コード":"000","丁目コード":"000","小字コード":"0045","予備コード":"00","大字名":null,"丁目名":null,"小字名":"字別保","予備名":null,"地番":"122-104","精度区分":null,"座標値種別":"図上測量","筆界未定構成筆":null,"代表点緯度":-109801.5425,"代表点経度":20035.731555176}},{"type":"MultiPolygon","arcs":[[[236,-73,-235,237]]],"properties":{"筆ID":"H000000087","version":"ver1.0","座標系":"任意座標系","測地系判別":null,"地図名":"釧路町・切図（５０００）","地図番号":"切76","縮尺分母":"5000","市区町村コード":"01661","市区町村名":"釧路郡釧路町","大字コード":"000","丁目コード":"000","小字コード":"0045","予備コード":"00","大字名":null,"丁目名":null,"小字名":"字別保","予備名":null,"地番":"122-105","精度区分":null,"座標値種別":"図上測量","筆界未定構成筆":null,"代表点緯度":-109811.986,"代表点経度":20020.497177444}},{"type":"MultiPolygon","arcs":[[[238,-74,-237,239]]],"properties":{"筆ID":"H000000088","version":"ver1.0","座標系":"任意座標系","測地系判別":null,"地図名":"釧路町・切図（５０００）","地図番号":"切76","縮尺分母":"5000","市区町村コード":"01661","市区町村名":"釧路郡釧路町","大字コード":"000","丁目コード":"000","小字コード":"0045","予備コード":"00","大字名":null,"丁目名":null,"小字名":"字別保","予備名":null,"地番":"122-106","精度区分":null,"座標値種別":"図上測量","筆界未定構成筆":null,"代表点緯度":-109822.1345,"代表点経度":20005.651221575}},{"type":"MultiPolygon","arcs":[[[240,-75,-239,241]]],"properties":{"筆ID":"H000000089","version":"ver1.0","座標系":"任意座標系","測地系判別":null,"地図名":"釧路町・切図（５０００）","地図番号":"切76","縮尺分母":"5000","市区町村コード":"01661","市区町村名":"釧路郡釧路町","大字コード":"000","丁目コード":"000","小字コード":"0045","予備コード":"00","大字名":null,"丁目名":null,"小字名":"字別保","予備名":null,"地番":"122-107","精度区分":null,"座標値種別":"図上測量","筆界未定構成筆":null,"代表点緯度":-109828.625,"代表点経度":19996.429689185}},{"type":"MultiPolygon","arcs":[[[-234,-186,242,-202]]],"properties":{"筆ID":"H000000090","version":"ver1.0","座標系":"任意座標系","測地系判別":null,"地図名":"釧路町・切図（５０００）","地図番号":"切76","縮尺分母":"5000","市区町村コード":"01661","市区町村名":"釧路郡釧路町","大字コード":"000","丁目コード":"000","小字コード":"0045","予備コード":"00","大字名":null,"丁目名":null,"小字名":"字別保","予備名":null,"地番":"122-108","精度区分":null,"座標値種別":"図上測量","筆界未定構成筆":null,"代表点緯度":-109777.386,"代表点経度":20018.922878006}},{"type":"MultiPolygon","arcs":[[[-243,-185,243,-196]]],"properties":{"筆ID":"H000000091","version":"ver1.0","座標系":"任意座標系","測地系判別":null,"地図名":"釧路町・切図（５０００）","地図番号":"切76","縮尺分母":"5000","市区町村コード":"01661","市区町村名":"釧路郡釧路町","大字コード":"000","丁目コード":"000","小字コード":"0045","予備コード":"00","大字名":null,"丁目名":null,"小字名":"字別保","予備名":null,"地番":"122-109","精度区分":null,"座標値種別":"図上測量","筆界未定構成筆":null,"代表点緯度":-109787.899,"代表点経度":20003.708590635}},{"type":"MultiPolygon","arcs":[[[-244,-184,244,-197]]],"properties":{"筆ID":"H000000092","version":"ver1.0","座標系":"任意座標系","測地系判別":null,"地図名":"釧路町・切図（５０００）","地図番号":"切76","縮尺分母":"5000","市区町村コード":"01661","市区町村名":"釧路郡釧路町","大字コード":"000","丁目コード":"000","小字コード":"0045","予備コード":"00","大字名":null,"丁目名":null,"小字名":"字別保","予備名":null,"地番":"122-110","精度区分":null,"座標値種別":"図上測量","筆界未定構成筆":null,"代表点緯度":-109798.13,"代表点経度":19988.869272472}},{"type":"MultiPolygon","arcs":[[[-245,-183,245,-198]]],"properties":{"筆ID":"H000000093","version":"ver1.0","座標系":"任意座標系","測地系判別":null,"地図名":"釧路町・切図（５０００）","地図番号":"切76","縮尺分母":"5000","市区町村コード":"01661","市区町村名":"釧路郡釧路町","大字コード":"000","丁目コード":"000","小字コード":"0045","予備コード":"00","大字名":null,"丁目名":null,"小字名":"字別保","予備名":null,"地番":"122-111","精度区分":null,"座標値種別":"図上測量","筆界未定構成筆":null,"代表点緯度":-109804.79,"代表点経度":19979.776257093}},{"type":"MultiPolygon","arcs":[[[246,-191,-241,247]]],"properties":{"筆ID":"H000000094","version":"ver1.0","座標系":"任意座標系","測地系判別":null,"地図名":"釧路町・切図（５０００）","地図番号":"切76","縮尺分母":"5000","市区町村コード":"01661","市区町村名":"釧路郡釧路町","大字コード":"000","丁目コード":"000","小字コード":"0045","予備コード":"00","大字名":null,"丁目名":null,"小字名":"字別保","予備名":null,"地番":"122-112","精度区分":null,"座標値種別":"図上測量","筆界未定構成筆":null,"代表点緯度":-109834.2105,"代表点経度":19988.482927365}},{"type":"MultiPolygon","arcs":[[[248,-192,-247,249]]],"properties":{"筆ID":"H000000095","version":"ver1.0","座標系":"任意座標系","測地系判別":null,"地図名":"釧路町・切図（５０００）","地図番号":"切76","縮尺分母":"5000","市区町村コード":"01661","市区町村名":"釧路郡釧路町","大字コード":"000","丁目コード":"000","小字コード":"0045","予備コード":"00","大字名":null,"丁目名":null,"小字名":"字別保","予備名":null,"地番":"122-113","精度区分":null,"座標値種別":"図上測量","筆界未定構成筆":null,"代表点緯度":-109843.597,"代表点経度":19975.241961589}},{"type":"MultiPolygon","arcs":[[[-79,-193,-249,250]]],"properties":{"筆ID":"H000000096","version":"ver1.0","座標系":"任意座標系","測地系判別":null,"地図名":"釧路町・切図（５０００）","地図番号":"切76","縮尺分母":"5000","市区町村コード":"01661","市区町村名":"釧路郡釧路町","大字コード":"000","丁目コード":"000","小字コード":"0045","予備コード":"00","大字名":null,"丁目名":null,"小字名":"字別保","予備名":null,"地番":"122-114","精度区分":null,"座標値種別":"図上測量","筆界未定構成筆":null,"代表点緯度":-109853.9765,"代表点経度":19960.059068686}},{"type":"MultiPolygon","arcs":[[[-246,251,252,-199]]],"properties":{"筆ID":"H000000097","version":"ver1.0","座標系":"任意座標系","測地系判別":null,"地図名":"釧路町・切図（５０００）","地図番号":"切76","縮尺分母":"5000","市区町村コード":"01661","市区町村名":"釧路郡釧路町","大字コード":"000","丁目コード":"000","小字コード":"0045","予備コード":"00","大字名":null,"丁目名":null,"小字名":"字別保","予備名":null,"地番":"122-115","精度区分":null,"座標値種別":"図上測量","筆界未定構成筆":null,"代表点緯度":-109810.0835,"代表点経度":19972.121029302}},{"type":"MultiPolygon","arcs":[[[253,-2,254,-7,-4,-6,255,-17,-9,-15,256,-13,-19]]],"properties":{"筆ID":"H000000098","version":"ver1.0","座標系":"任意座標系","測地系判別":null,"地図名":"釧路町・切図（５０００）","地図番号":"切76","縮尺分母":"5000","市区町村コード":"01661","市区町村名":"釧路郡釧路町","大字コード":"000","丁目コード":"000","小字コード":"0045","予備コード":"00","大字名":null,"丁目名":null,"小字名":"字別保","予備名":null,"地番":"水-90","精度区分":null,"座標値種別":"図上測量","筆界未定構成筆":null,"代表点緯度":-110050.9375,"代表点経度":20614.094322212}},{"type":"MultiPolygon","arcs":[[[-175,-201,257,258]]],"properties":{"筆ID":"H000000099","version":"ver1.0","座標系":"任意座標系","測地系判別":null,"地図名":"釧路町・切図（５０００）","地図番号":"切76","縮尺分母":"5000","市区町村コード":"01661","市区町村名":"釧路郡釧路町","大字コード":"000","丁目コード":"000","小字コード":"0045","予備コード":"00","大字名":null,"丁目名":null,"小字名":"字別保","予備名":null,"地番":"122-117","精度区分":null,"座標値種別":"図上測量","筆界未定構成筆":null,"代表点緯度":-109830.0965,"代表点経度":19943.556086092}},{"type":"MultiPolygon","arcs":[[[-176,-259,259,-252,-182,-190]]],"properties":{"筆ID":"H000000100","version":"ver1.0","座標系":"任意座標系","測地系判別":null,"地図名":"釧路町・切図（５０００）","地図番号":"切76","縮尺分母":"5000","市区町村コード":"01661","市区町村名":"釧路郡釧路町","大字コード":"000","丁目コード":"000","小字コード":"0045","予備コード":"00","大字名":null,"丁目名":null,"小字名":"字別保","予備名":null,"地番":"122-85","精度区分":null,"座標値種別":"図上測量","筆界未定構成筆":null,"代表点緯度":-109830.249,"代表点経度":19967.740398814}},{"type":"MultiPolygon","arcs":[[[-253,-260,-258,-200]]],"properties":{"筆ID":"H000000101","version":"ver1.0","座標系":"任意座標系","測地系判別":null,"地図名":"釧路町・切図（５０００）","地図番号":"切76","縮尺分母":"5000","市区町村コード":"01661","市区町村名":"釧路郡釧路町","大字コード":"000","丁目コード":"000","小字コード":"0045","予備コード":"00","大字名":null,"丁目名":null,"小字名":"字別保","予備名":null,"地番":"122-116","精度区分":null,"座標値種別":"図上測量","筆界未定構成筆":null,"代表点緯度":-109819.2395,"代表点経度":19958.817607864}}]}},"arcs":[[[816110,689220],[-2228,39618],[149957,98890],[-2280,-200929]],[[961559,626799],[-60511,-25029],[-46206,-42514],[-20165,94965],[-18567,34999]],[[855277,524994],[-13249,-155054]],[[842028,369940],[-17873,18891],[31122,136163]],[[961137,612004],[-6228,-538833],[-24362,811]],[[930547,73982],[1309,89547],[-50118,77164],[-4027,90361],[-35683,38886]],[[855277,524994],[42976,55263],[62884,31747]],[[832725,302991],[4126,38489]],[[836851,341480],[25017,-18943],[12036,-84800],[48399,-79696],[-1072,-73002]],[[921231,85039],[-37244,25870],[-39649,44531]],[[844338,155440],[-24720,27897],[13107,119654]],[[821473,498310],[22655,29212]],[[844128,527522],[-20188,-68287]],[[823940,459235],[-2467,39075]],[[832035,344922],[4816,-3442]],[[832725,302991],[-690,41931]],[[921231,85039],[-93,-11138]],[[921138,73901],[-72263,758],[-4537,80781]],[[817484,642492],[26644,-114970]],[[821473,498310],[-3989,144182]],[[331535,740831],[30825,27075]],[[362360,767906],[32798,28853]],[[395158,796759],[29980,26048],[-165,6962],[-15353,27124]],[[409620,856893],[-17226,30660]],[[392394,887553],[5027,4564],[38882,-71253]],[[436303,820864],[-31814,-28086]],[[404489,792778],[-33237,-28785]],[[371252,763993],[-35741,-31279]],[[335511,732714],[-3976,8117]],[[289684,911171],[21659,19333]],[[311343,930504],[21839,19297]],[[333182,949801],[21415,19224]],[[354597,969025],[39543,-71400],[-6807,-6333]],[[387333,891292],[46,5741],[-16377,28833]],[[371002,925866],[-15625,29018],[-4283,808],[-17916,-15816]],[[333178,939876],[-22531,-19981]],[[310647,919895],[-21667,-19095]],[[288980,900800],[-31077,-27375]],[[257903,873425],[-3707,6456]],[[254196,879881],[35488,31290]],[[189562,822982],[32371,28529]],[[221933,851511],[32263,28370]],[[257903,873425],[-32003,-28177]],[[225900,845248],[-30942,-27102],[-357,-5213],[15733,-28585]],[[210334,784348],[15851,-27876],[4837,-1113]],[[231022,755359],[-8495,-6833]],[[222527,748526],[-16068,29116]],[[206459,777642],[-1519,2178]],[[204940,779820],[-765,1957]],[[204175,781777],[-15364,28515],[-2855,359],[-14419,-12401]],[[171537,798250],[-14812,-13340]],[[156725,784910],[-3919,5734]],[[152806,790644],[36756,32338]],[[230056,651380],[29416,26034],[165,4676],[-16426,29148]],[[243211,711238],[-16973,32032]],[[226238,743270],[6608,6141]],[[232846,749411],[38,-4890],[16343,-28474]],[[249227,716047],[15959,-29158],[4540,-416],[18774,16676]],[[288500,703149],[20471,17978]],[[308971,721127],[22564,19704]],[[335511,732714],[-22249,-19713]],[[313262,713001],[-20553,-18081]],[[292709,694920],[-21580,-18882]],[[271129,676038],[-37198,-32199]],[[233931,643839],[-3875,7541]],[[230017,594304],[-17299,30830]],[[212718,625134],[21213,18705]],[[233931,643839],[17418,-30825]],[[251349,613014],[-21332,-18710]],[[119995,704703],[36965,32736],[17140,14939]],[[174100,752378],[1115,-1949]],[[175215,750429],[-16999,-14920]],[[158216,735509],[-16555,-14289]],[[141661,721220],[-16460,-14318]],[[125201,706902],[-4070,-3540]],[[121131,703362],[-1136,1341]],[[39377,634261],[34026,29465]],[[73403,663726],[708,-1293]],[[74111,662433],[16052,-29983]],[[90163,632450],[-33871,-29062],[-16915,30873]],[[150709,525418],[-34921,-30770],[-16250,29995]],[[99538,524643],[33815,30719]],[[133353,555362],[17356,-29944]],[[436303,820864],[16981,-31366],[-31278,-27494]],[[422006,762004],[-17517,30774]],[[388808,732869],[-17556,31124]],[[422006,762004],[-33198,-29135]],[[353263,701833],[-17752,30881]],[[388808,732869],[-35545,-31036]],[[331535,740831],[-18228,32118]],[[313307,772949],[30720,26800]],[[344027,799749],[18333,-31843]],[[313307,772949],[-17222,31450]],[[296085,804399],[31425,26994]],[[327510,831393],[16517,-31644]],[[344027,799749],[33432,29065]],[[377459,828814],[17699,-32055]],[[327510,831393],[33229,28776]],[[360739,860169],[16720,-31355]],[[377459,828814],[32161,28079]],[[360739,860169],[31655,27384]],[[387333,891292],[-19194,-16342]],[[368139,874950],[-17514,32732]],[[350625,907682],[20377,18184]],[[350625,907682],[-17447,32194]],[[345989,855274],[-17990,32511]],[[327999,887785],[22626,19897]],[[368139,874950],[-22150,-19676]],[[327999,887785],[-17352,32110]],[[324199,836160],[-18115,32477]],[[306084,868637],[21915,19148]],[[345989,855274],[-21790,-19114]],[[306084,868637],[-17104,32163]],[[293088,809365],[-17597,32132]],[[275491,841497],[30593,27140]],[[324199,836160],[-31111,-26795]],[[275491,841497],[-17588,31928]],[[333182,949801],[-16689,31850]],[[316493,981651],[21704,18348],[16400,-30974]],[[311343,930504],[-17011,31714]],[[294332,962218],[22161,19433]],[[289684,911171],[-17377,31892]],[[272307,943063],[22025,19155]],[[254196,879881],[-17754,31557]],[[236442,911438],[35865,31625]],[[260799,781173],[-18185,31670]],[[242614,812843],[32877,28654]],[[293088,809365],[-32289,-28192]],[[242614,812843],[-16714,32405]],[[221933,851511],[-17898,31816]],[[204035,883327],[32407,28111]],[[210334,784348],[32280,28495]],[[260799,781173],[-29777,-25814]],[[189562,822982],[-17807,31770]],[[171755,854752],[32280,28575]],[[174100,752378],[30840,27442]],[[206459,777642],[-15946,-13676]],[[190513,763966],[-15298,-13537]],[[188285,768047],[15890,13730]],[[174100,752378],[-719,2331]],[[173381,754709],[14904,13338]],[[152806,790644],[-17232,32608]],[[135574,823252],[36181,31500]],[[330904,682294],[-17642,30707]],[[353263,701833],[-22359,-19539]],[[308971,721127],[-18169,32084]],[[290802,753211],[22505,19738]],[[290802,753211],[-17093,31526]],[[273709,784737],[22376,19662]],[[309777,664170],[-17068,30750]],[[330904,682294],[-21127,-18124]],[[288500,703149],[-18130,31851]],[[270370,735000],[20432,18211]],[[270370,735000],[-17115,31811]],[[253255,766811],[20454,17926]],[[288444,645665],[-17315,30373]],[[309777,664170],[-21333,-18505]],[[249227,716047],[21143,18953]],[[232846,749411],[20409,17400]],[[288444,645665],[-37095,-32651]],[[230056,651380],[-17881,32288]],[[212175,683668],[31036,27570]],[[212175,683668],[-17286,32309]],[[194889,715977],[31349,27293]],[[95054,533020],[34212,30097]],[[129266,563117],[4087,-7755]],[[99538,524643],[-4484,8377]],[[95054,533020],[-17730,31787]],[[77324,564807],[33767,30147]],[[111091,594954],[18175,-31837]],[[93709,628275],[17382,-33321]],[[77324,564807],[-18427,33290],[34812,30178]],[[39377,634261],[-17670,31497]],[[21707,665758],[34080,30312]],[[55787,696070],[16525,-30547]],[[72312,665523],[1091,-1797]],[[21707,665758],[-3614,6773]],[[18093,672531],[34036,29469]],[[52129,702000],[3658,-5930]],[[33566,735214],[18563,-33214]],[[18093,672531],[-18093,32769],[33566,29914]],[[119995,704703],[-780,2208]],[[119215,706911],[3950,3390]],[[123165,710301],[16249,15120]],[[139414,725421],[16503,13816]],[[155917,739237],[17464,15472]],[[99060,743135],[-18384,32372]],[[80676,775507],[54898,47745]],[[152806,790644],[-53746,-47509]],[[73403,663726],[46592,40977]],[[121131,703362],[-13555,-11955]],[[107576,691407],[-16102,-14168]],[[91474,677239],[-17363,-14806]],[[33566,735214],[47110,40293]],[[99060,743135],[-46931,-41135]],[[139137,769416],[-16203,-13928]],[[122934,755488],[-16517,-14795]],[[106417,740693],[-3926,-3506]],[[102491,737187],[-13063,-11412]],[[89428,725775],[-16225,-14338]],[[73203,711437],[-17416,-15367]],[[156725,784910],[-17588,-15494]],[[208017,632636],[-16999,32310]],[[191018,664946],[21157,18722]],[[230056,651380],[-22039,-18744]],[[191018,664946],[-17320,32863]],[[173698,697809],[21191,18168]],[[207976,575036],[-17195,30269]],[[190781,605305],[21937,19829]],[[230017,594304],[-22041,-19268]],[[186839,613681],[-18204,31771]],[[168635,645452],[22383,19494]],[[208017,632636],[-21178,-18955]],[[168635,645452],[-17120,33145]],[[151515,678597],[22183,19212]],[[186773,556355],[-17205,30660]],[[169568,587015],[21213,18290]],[[207976,575036],[-21203,-18681]],[[165461,594768],[-18036,32226]],[[147425,626994],[21210,18458]],[[186839,613681],[-21378,-18913]],[[147425,626994],[-17026,33024]],[[130399,660018],[21116,18579]],[[133353,555362],[36215,31653]],[[186773,556355],[-36064,-30937]],[[111091,594954],[36334,32040]],[[165461,594768],[-36195,-31651]],[[93709,628275],[36690,31743]],[[222527,748526],[-15733,-14064]],[[206794,734462],[-16281,29504]],[[191743,721061],[-16528,29368]],[[206794,734462],[-15051,-13401]],[[188285,768047],[-16748,30203]],[[173381,754709],[-16656,30201]],[[174323,706144],[-16107,29365]],[[191743,721061],[-17420,-14917]],[[157882,692082],[-16221,29138]],[[174323,706144],[-16441,-14062]],[[141644,677471],[-16443,29431]],[[157882,692082],[-16238,-14611]],[[137318,673806],[-16187,29556]],[[141644,677471],[-4326,-3665]],[[155917,739237],[-16780,30179]],[[139414,725421],[-16480,30067]],[[123165,710301],[-16748,30392]],[[119215,706911],[-16724,30276]],[[124179,661724],[-16603,29683]],[[137318,673806],[-13139,-12082]],[[107942,647504],[-16468,29735]],[[124179,661724],[-16237,-14220]],[[107942,647504],[-17779,-15054]],[[119215,706911],[-13012,-11268]],[[106203,695643],[-16775,30132]],[[817484,642492],[-45405,93352],[13064,11643],[30967,-58267]],[[961559,626799],[30875,77168],[7565,-9305],[-31877,-78975],[-6985,-3683]],[[930547,73982],[-2046,-73755],[-9005,-227],[1642,73901]],[[832035,344922],[-34263,25375],[26168,88938]],[[73203,711437],[16181,-30789]],[[89384,680648],[-17072,-15125]],[[89384,680648],[16819,14995]]],"bbox":[19878.09,-110322.39,20779.27,-109607.221],"transform":{"scale":[0.0009011809011809014,0.0007151697151697096],"translate":[19878.09,-110322.39]}}
