{"type":"Topology","objects":{"01516-4503-12":{"type":"GeometryCollection","geometries":[{"type":"MultiPolygon","arcs":[[[0,1,2,3]]],"properties":{"筆ID":"H000000001","version":"ver1.0","座標系":"任意座標系","測地系判別":null,"地図名":"H20450301516011","地図番号":"殖-A-2","縮尺分母":"5000","市区町村コード":"01516","市区町村名":"天塩郡豊富町","大字コード":"000","丁目コード":"000","小字コード":"0000","予備コード":"00","大字名":null,"丁目名":null,"小字名":null,"予備名":null,"地番":"地区外-574860","精度区分":null,"座標値種別":"図上測量","筆界未定構成筆":null,"代表点緯度":3831.969,"代表点経度":2283.731345115}},{"type":"MultiPolygon","arcs":[[[4,5,6,7,8,-2]]],"properties":{"筆ID":"H000000002","version":"ver1.0","座標系":"任意座標系","測地系判別":null,"地図名":"H20450301516011","地図番号":"殖-A-2","縮尺分母":"5000","市区町村コード":"01516","市区町村名":"天塩郡豊富町","大字コード":"601","丁目コード":"000","小字コード":"0000","予備コード":"00","大字名":"字アチャルペシペ","丁目名":null,"小字名":null,"予備名":null,"地番":"長狭物不明-1","精度区分":null,"座標値種別":"図上測量","筆界未定構成筆":null,"代表点緯度":4576.7735,"代表点経度":2637.815626197}},{"type":"MultiPolygon","arcs":[[[-9,9,-3]]],"properties":{"筆ID":"H000000003","version":"ver1.0","座標系":"任意座標系","測地系判別":null,"地図名":"H20450301516011","地図番号":"殖-A-2","縮尺分母":"5000","市区町村コード":"01516","市区町村名":"天塩郡豊富町","大字コード":"601","丁目コード":"000","小字コード":"0000","予備コード":"00","大字名":"字アチャルペシペ","丁目名":null,"小字名":null,"予備名":null,"地番":"1564","精度区分":null,"座標値種別":"図上測量","筆界未定構成筆":null,"代表点緯度":4580.2535,"代表点経度":2778.31268536}},{"type":"MultiPolygon","arcs":[[[-7,10]]],"properties":{"筆ID":"H000000004","version":"ver1.0","座標系":"任意座標系","測地系判別":null,"地図名":"H20450301516011","地図番号":"殖-A-2","縮尺分母":"5000","市区町村コード":"01516","市区町村名":"天塩郡豊富町","大字コード":"601","丁目コード":"000","小字コード":"0000","予備コード":"00","大字名":"字アチャルペシペ","丁目名":null,"小字名":null,"予備名":null,"地番":"1563","精度区分":null,"座標値種別":"図上測量","筆界未定構成筆":null,"代表点緯度":4998.7345,"代表点経度":2840.275440583}},{"type":"MultiPolygon","arcs":[[[-5,-1,11]]],"properties":{"筆ID":"H000000005","version":"ver1.0","座標系":"任意座標系","測地系判別":null,"地図名":"H20450301516011","地図番号":"殖-A-2","縮尺分母":"5000","市区町村コード":"01516","市区町村名":"天塩郡豊富町","大字コード":"601","丁目コード":"000","小字コード":"0000","予備コード":"00","大字名":"字アチャルペシペ","丁目名":null,"小字名":null,"予備名":null,"地番":"1562","精度区分":null,"座標値種別":"図上測量","筆界未定構成筆":null,"代表点緯度":4576.6765,"代表点経度":2500.956064794}}]}},"arcs":[[[522972,570248],[306741,5051]],[[829713,575299],[6062,100]],[[835775,575399],[155492,2701]],[[991267,578100],[8732,-569086],[-155291,-1399],[-5596,-51],[-173747,-1566],[-7830,-71],[-127677,-1150],[-7095,-65],[-310000,-2794],[-5578,-50],[-207185,-1868],[54094,73921],[150538,208616],[6171,4048],[96678,88273],[93638,81634],[64423,60467],[48618,45909],[8812,7380]],[[829713,575299],[-4878,276900]],[[824835,852199],[6227,5542]],[[831062,857741],[155111,3914]],[[986173,861655],[62,-4983]],[[986235,856672],[-154196,-3595],[3736,-277678]],[[986235,856672],[5032,-278572]],[[831062,857741],[152119,142258],[2992,-138344]],[[522972,570248],[301863,281951]]],"bbox":[1192.54,3188.959,2932.591,5133.223],"transform":{"scale":[0.0017400527400527402,0.0019442659442659444],"translate":[1192.54,3188.959]}}
