{"type":"Topology","objects":{"01218-4315-22":{"type":"GeometryCollection","geometries":[{"type":"MultiPolygon","arcs":[[[0,1,2,3]]],"properties":{"筆ID":"H000000001","version":"ver1.0","座標系":"任意座標系","測地系判別":null,"地図名":"赤平市土地連絡整理図３０００図無Ｈ１７","地図番号":"附連-41","縮尺分母":"3000","市区町村コード":"01218","市区町村名":"赤平市","大字コード":"000","丁目コード":"000","小字コード":"0002","予備コード":"00","大字名":null,"丁目名":null,"小字名":"字豊里","予備名":null,"地番":"1-2","精度区分":null,"座標値種別":"図上測量","筆界未定構成筆":null,"代表点緯度":122.2935,"代表点経度":1322.510641282}},{"type":"MultiPolygon","arcs":[[[4,5,6,7,-3]]],"properties":{"筆ID":"H000000002","version":"ver1.0","座標系":"任意座標系","測地系判別":null,"地図名":"赤平市土地連絡整理図３０００図無Ｈ１７","地図番号":"附連-41","縮尺分母":"3000","市区町村コード":"01218","市区町村名":"赤平市","大字コード":"000","丁目コード":"000","小字コード":"0002","予備コード":"00","大字名":null,"丁目名":null,"小字名":"字豊里","予備名":null,"地番":"1-3","精度区分":null,"座標値種別":"図上測量","筆界未定構成筆":null,"代表点緯度":151.621,"代表点経度":1318.022696341}},{"type":"MultiPolygon","arcs":[[[8,9,10,-6]]],"properties":{"筆ID":"H000000003","version":"ver1.0","座標系":"任意座標系","測地系判別":null,"地図名":"赤平市土地連絡整理図３０００図無Ｈ１７","地図番号":"附連-41","縮尺分母":"3000","市区町村コード":"01218","市区町村名":"赤平市","大字コード":"000","丁目コード":"000","小字コード":"0002","予備コード":"00","大字名":null,"丁目名":null,"小字名":"字豊里","予備名":null,"地番":"1-4","精度区分":null,"座標値種別":"図上測量","筆界未定構成筆":null,"代表点緯度":195.2875,"代表点経度":1303.977389323}},{"type":"MultiPolygon","arcs":[[[-11,11,12,-7]]],"properties":{"筆ID":"H000000004","version":"ver1.0","座標系":"任意座標系","測地系判別":null,"地図名":"赤平市土地連絡整理図３０００図無Ｈ１７","地図番号":"附連-41","縮尺分母":"3000","市区町村コード":"01218","市区町村名":"赤平市","大字コード":"000","丁目コード":"000","小字コード":"0002","予備コード":"00","大字名":null,"丁目名":null,"小字名":"字豊里","予備名":null,"地番":"1-19","精度区分":null,"座標値種別":"図上測量","筆界未定構成筆":null,"代表点緯度":202.9865,"代表点経度":1344.715493331}},{"type":"MultiPolygon","arcs":[[[13,14,15,16]]],"properties":{"筆ID":"H000000005","version":"ver1.0","座標系":"任意座標系","測地系判別":null,"地図名":"赤平市土地連絡整理図３０００図無Ｈ１７","地図番号":"附連-40","縮尺分母":"3000","市区町村コード":"01218","市区町村名":"赤平市","大字コード":"000","丁目コード":"000","小字コード":"0002","予備コード":"00","大字名":null,"丁目名":null,"小字名":"字豊里","予備名":null,"地番":"1-16","精度区分":null,"座標値種別":"図上測量","筆界未定構成筆":null,"代表点緯度":267.4785,"代表点経度":1303.397305741}},{"type":"MultiPolygon","arcs":[[[17,-16,18]]],"properties":{"筆ID":"H000000006","version":"ver1.0","座標系":"任意座標系","測地系判別":null,"地図名":"赤平市土地連絡整理図３０００図無Ｈ１７","地図番号":"附連-40","縮尺分母":"3000","市区町村コード":"01218","市区町村名":"赤平市","大字コード":"000","丁目コード":"000","小字コード":"0002","予備コード":"00","大字名":null,"丁目名":null,"小字名":"字豊里","予備名":null,"地番":"1-17","精度区分":null,"座標値種別":"図上測量","筆界未定構成筆":null,"代表点緯度":285.0835,"代表点経度":1313.042007386}},{"type":"MultiPolygon","arcs":[[[19,20]]],"properties":{"筆ID":"H000000007","version":"ver1.0","座標系":"任意座標系","測地系判別":null,"地図名":"赤平市土地連絡整理図３０００図無Ｈ１７","地図番号":"附連-40","縮尺分母":"3000","市区町村コード":"01218","市区町村名":"赤平市","大字コード":"000","丁目コード":"000","小字コード":"0002","予備コード":"00","大字名":null,"丁目名":null,"小字名":"字豊里","予備名":null,"地番":"5-152","精度区分":null,"座標値種別":"図上測量","筆界未定構成筆":null,"代表点緯度":567.7175,"代表点経度":1477.31487398}},{"type":"MultiPolygon","arcs":[[[21,22,23]]],"properties":{"筆ID":"H000000008","version":"ver1.0","座標系":"任意座標系","測地系判別":null,"地図名":"赤平市土地連絡整理図３０００図無Ｈ１７","地図番号":"附連-40","縮尺分母":"3000","市区町村コード":"01218","市区町村名":"赤平市","大字コード":"000","丁目コード":"000","小字コード":"0002","予備コード":"00","大字名":null,"丁目名":null,"小字名":"字豊里","予備名":null,"地番":"5-90","精度区分":null,"座標値種別":"図上測量","筆界未定構成筆":null,"代表点緯度":469.0055,"代表点経度":1402.801159719}},{"type":"MultiPolygon","arcs":[[[24,25,26,27,28]]],"properties":{"筆ID":"H000000009","version":"ver1.0","座標系":"任意座標系","測地系判別":null,"地図名":"赤平市土地連絡整理図３０００図無Ｈ１７","地図番号":"附連-40","縮尺分母":"3000","市区町村コード":"01218","市区町村名":"赤平市","大字コード":"000","丁目コード":"000","小字コード":"0002","予備コード":"00","大字名":null,"丁目名":null,"小字名":"字豊里","予備名":null,"地番":"5-148","精度区分":null,"座標値種別":"図上測量","筆界未定構成筆":null,"代表点緯度":446.318,"代表点経度":1425.688608149}},{"type":"MultiPolygon","arcs":[[[29,30,31,32]]],"properties":{"筆ID":"H000000010","version":"ver1.0","座標系":"任意座標系","測地系判別":null,"地図名":"赤平市土地連絡整理図３０００図無Ｈ１７","地図番号":"附連-40","縮尺分母":"3000","市区町村コード":"01218","市区町村名":"赤平市","大字コード":"000","丁目コード":"000","小字コード":"0002","予備コード":"00","大字名":null,"丁目名":null,"小字名":"字豊里","予備名":null,"地番":"5-52","精度区分":null,"座標値種別":"図上測量","筆界未定構成筆":null,"代表点緯度":444.372,"代表点経度":1403.394505631}},{"type":"MultiPolygon","arcs":[[[33,-29,34,-32]]],"properties":{"筆ID":"H000000011","version":"ver1.0","座標系":"任意座標系","測地系判別":null,"地図名":"赤平市土地連絡整理図３０００図無Ｈ１７","地図番号":"附連-40","縮尺分母":"3000","市区町村コード":"01218","市区町村名":"赤平市","大字コード":"000","丁目コード":"000","小字コード":"0002","予備コード":"00","大字名":null,"丁目名":null,"小字名":"字豊里","予備名":null,"地番":"5-92","精度区分":null,"座標値種別":"図上測量","筆界未定構成筆":null,"代表点緯度":445.6195,"代表点経度":1412.216041887}},{"type":"MultiPolygon","arcs":[[[35,36,37,38]]],"properties":{"筆ID":"H000000012","version":"ver1.0","座標系":"任意座標系","測地系判別":null,"地図名":"赤平市土地連絡整理図３０００図無Ｈ１７","地図番号":"附連-40","縮尺分母":"3000","市区町村コード":"01218","市区町村名":"赤平市","大字コード":"000","丁目コード":"000","小字コード":"0002","予備コード":"00","大字名":null,"丁目名":null,"小字名":"字豊里","予備名":null,"地番":"5-14","精度区分":null,"座標値種別":"図上測量","筆界未定構成筆":null,"代表点緯度":441.726,"代表点経度":1385.09025517}},{"type":"MultiPolygon","arcs":[[[39,40,41,42]]],"properties":{"筆ID":"H000000013","version":"ver1.0","座標系":"任意座標系","測地系判別":null,"地図名":"赤平市土地連絡整理図３０００図無Ｈ１７","地図番号":"附連-40","縮尺分母":"3000","市区町村コード":"01218","市区町村名":"赤平市","大字コード":"000","丁目コード":"000","小字コード":"0002","予備コード":"00","大字名":null,"丁目名":null,"小字名":"字豊里","予備名":null,"地番":"1-9","精度区分":null,"座標値種別":"図上測量","筆界未定構成筆":null,"代表点緯度":406.507,"代表点経度":1365.462923082}},{"type":"MultiPolygon","arcs":[[[43,44,-41,45,46,47,48]]],"properties":{"筆ID":"H000000014","version":"ver1.0","座標系":"任意座標系","測地系判別":null,"地図名":"赤平市土地連絡整理図３０００図無Ｈ１７","地図番号":"附連-40","縮尺分母":"3000","市区町村コード":"01218","市区町村名":"赤平市","大字コード":"000","丁目コード":"000","小字コード":"0002","予備コード":"00","大字名":null,"丁目名":null,"小字名":"字豊里","予備名":null,"地番":"1-7","精度区分":null,"座標値種別":"図上測量","筆界未定構成筆":null,"代表点緯度":346.76,"代表点経度":1361.320397544}},{"type":"MultiPolygon","arcs":[[[49,50,51,-47]]],"properties":{"筆ID":"H000000015","version":"ver1.0","座標系":"任意座標系","測地系判別":null,"地図名":"赤平市土地連絡整理図３０００図無Ｈ１７","地図番号":"附連-40","縮尺分母":"3000","市区町村コード":"01218","市区町村名":"赤平市","大字コード":"000","丁目コード":"000","小字コード":"0002","予備コード":"00","大字名":null,"丁目名":null,"小字名":"字豊里","予備名":null,"地番":"1-14","精度区分":null,"座標値種別":"図上測量","筆界未定構成筆":null,"代表点緯度":346.76,"代表点経度":1346.72802933}},{"type":"MultiPolygon","arcs":[[[52,53,-48,-52,54]]],"properties":{"筆ID":"H000000016","version":"ver1.0","座標系":"任意座標系","測地系判別":null,"地図名":"赤平市土地連絡整理図３０００図無Ｈ１７","地図番号":"附連-40","縮尺分母":"3000","市区町村コード":"01218","市区町村名":"赤平市","大字コード":"000","丁目コード":"000","小字コード":"0002","予備コード":"00","大字名":null,"丁目名":null,"小字名":"字豊里","予備名":null,"地番":"1-13","精度区分":null,"座標値種別":"図上測量","筆界未定構成筆":null,"代表点緯度":316.204,"代表点経度":1349.919837654}},{"type":"MultiPolygon","arcs":[[[-54,-49]]],"properties":{"筆ID":"H000000017","version":"ver1.0","座標系":"任意座標系","測地系判別":null,"地図名":"赤平市土地連絡整理図３０００図無Ｈ１７","地図番号":"附連-40","縮尺分母":"3000","市区町村コード":"01218","市区町村名":"赤平市","大字コード":"000","丁目コード":"000","小字コード":"0002","予備コード":"00","大字名":null,"丁目名":null,"小字名":"字豊里","予備名":null,"地番":"1-12","精度区分":null,"座標値種別":"図上測量","筆界未定構成筆":null,"代表点緯度":316.1985,"代表点経度":1321.327647227}},{"type":"MultiPolygon","arcs":[[[55,56,57]]],"properties":{"筆ID":"H000000018","version":"ver1.0","座標系":"任意座標系","測地系判別":null,"地図名":"赤平市土地連絡整理図３０００図無Ｈ１７","地図番号":"附連-40","縮尺分母":"3000","市区町村コード":"01218","市区町村名":"赤平市","大字コード":"000","丁目コード":"000","小字コード":"0002","予備コード":"00","大字名":null,"丁目名":null,"小字名":"字豊里","予備名":null,"地番":"1-15","精度区分":null,"座標値種別":"図上測量","筆界未定構成筆":null,"代表点緯度":273.256,"代表点経度":1340.184699413}},{"type":"MultiPolygon","arcs":[[[58,-17,-18,59,-56]]],"properties":{"筆ID":"H000000019","version":"ver1.0","座標系":"任意座標系","測地系判別":null,"地図名":"赤平市土地連絡整理図３０００図無Ｈ１７","地図番号":"附連-40","縮尺分母":"3000","市区町村コード":"01218","市区町村名":"赤平市","大字コード":"000","丁目コード":"000","小字コード":"0002","予備コード":"00","大字名":null,"丁目名":null,"小字名":"字豊里","予備名":null,"地番":"1-18","精度区分":null,"座標値種別":"図上測量","筆界未定構成筆":null,"代表点緯度":277.2585,"代表点経度":1326.109054421}},{"type":"MultiPolygon","arcs":[[[60,61,-14,-59,-58,62,63,-12,-10]]],"properties":{"筆ID":"H000000020","version":"ver1.0","座標系":"任意座標系","測地系判別":null,"地図名":"赤平市土地連絡整理図３０００図無Ｈ１７","地図番号":"附連-40","縮尺分母":"3000","市区町村コード":"01218","市区町村名":"赤平市","大字コード":"000","丁目コード":"000","小字コード":"0002","予備コード":"00","大字名":null,"丁目名":null,"小字名":"字豊里","予備名":null,"地番":"1-5","精度区分":null,"座標値種別":"図上測量","筆界未定構成筆":null,"代表点緯度":248.088,"代表点経度":1319.644275681}},{"type":"MultiPolygon","arcs":[[[64,-44,65,66,-63,-57,-60,-19,-15,-62]]],"properties":{"筆ID":"H000000021","version":"ver1.0","座標系":"任意座標系","測地系判別":null,"地図名":"赤平市土地連絡整理図３０００図無Ｈ１７","地図番号":"附連-40","縮尺分母":"3000","市区町村コード":"01218","市区町村名":"赤平市","大字コード":"000","丁目コード":"000","小字コード":"0002","予備コード":"00","大字名":null,"丁目名":null,"小字名":"字豊里","予備名":null,"地番":"1-6","精度区分":null,"座標値種別":"図上測量","筆界未定構成筆":null,"代表点緯度":281.3905,"代表点経度":1346.062691059}},{"type":"MultiPolygon","arcs":[[[-66,-53,67,68]]],"properties":{"筆ID":"H000000022","version":"ver1.0","座標系":"任意座標系","測地系判別":null,"地図名":"赤平市土地連絡整理図３０００図無Ｈ１７","地図番号":"附連-40","縮尺分母":"3000","市区町村コード":"01218","市区町村名":"赤平市","大字コード":"000","丁目コード":"000","小字コード":"0002","予備コード":"00","大字名":null,"丁目名":null,"小字名":"字豊里","予備名":null,"地番":"1-11","精度区分":null,"座標値種別":"図上測量","筆界未定構成筆":null,"代表点緯度":298.0735,"代表点経度":1351.917653003}},{"type":"MultiPolygon","arcs":[[[69,70,71]]],"properties":{"筆ID":"H000000023","version":"ver1.0","座標系":"任意座標系","測地系判別":null,"地図名":"赤平市土地連絡整理図３０００図無Ｈ１７","地図番号":"附連-40","縮尺分母":"3000","市区町村コード":"01218","市区町村名":"赤平市","大字コード":"000","丁目コード":"000","小字コード":"0002","予備コード":"00","大字名":null,"丁目名":null,"小字名":"字豊里","予備名":null,"地番":"5-149","精度区分":null,"座標値種別":"図上測量","筆界未定構成筆":null,"代表点緯度":361.5665,"代表点経度":1394.178180878}},{"type":"MultiPolygon","arcs":[[[72,-23,73,-21,74,-25]]],"properties":{"筆ID":"H000000024","version":"ver1.0","座標系":"任意座標系","測地系判別":null,"地図名":"赤平市土地連絡整理図３０００図無Ｈ１７","地図番号":"附連-40","縮尺分母":"3000","市区町村コード":"01218","市区町村名":"赤平市","大字コード":"000","丁目コード":"000","小字コード":"0002","予備コード":"00","大字名":null,"丁目名":null,"小字名":"字豊里","予備名":null,"地番":"5-151","精度区分":null,"座標値種別":"図上測量","筆界未定構成筆":null,"代表点緯度":509.996,"代表点経度":1445.235842918}},{"type":"MultiPolygon","arcs":[[[75,76,-27]]],"properties":{"筆ID":"H000000025","version":"ver1.0","座標系":"任意座標系","測地系判別":null,"地図名":"赤平市土地連絡整理図３０００図無Ｈ１７","地図番号":"附連-40","縮尺分母":"3000","市区町村コード":"01218","市区町村名":"赤平市","大字コード":"000","丁目コード":"000","小字コード":"0002","予備コード":"00","大字名":null,"丁目名":null,"小字名":"字豊里","予備名":null,"地番":"5-150","精度区分":null,"座標値種別":"図上測量","筆界未定構成筆":null,"代表点緯度":439.923,"代表点経度":1431.586710772}},{"type":"MultiPolygon","arcs":[[[77,78]]],"properties":{"筆ID":"H000000026","version":"ver1.0","座標系":"任意座標系","測地系判別":null,"地図名":"赤平市土地連絡整理図３０００図無Ｈ１７","地図番号":"附連-40","縮尺分母":"3000","市区町村コード":"01218","市区町村名":"赤平市","大字コード":"000","丁目コード":"000","小字コード":"0002","予備コード":"00","大字名":null,"丁目名":null,"小字名":"字豊里","予備名":null,"地番":"5-87","精度区分":null,"座標値種別":"図上測量","筆界未定構成筆":null,"代表点緯度":437.1665,"代表点経度":1395.744507863}},{"type":"MultiPolygon","arcs":[[[-38,79,-24,80,-31,-78]]],"properties":{"筆ID":"H000000027","version":"ver1.0","座標系":"任意座標系","測地系判別":null,"地図名":"赤平市土地連絡整理図３０００図無Ｈ１７","地図番号":"附連-40","縮尺分母":"3000","市区町村コード":"01218","市区町村名":"赤平市","大字コード":"000","丁目コード":"000","小字コード":"0002","予備コード":"00","大字名":null,"丁目名":null,"小字名":"字豊里","予備名":null,"地番":"5-89","精度区分":null,"座標値種別":"図上測量","筆界未定構成筆":null,"代表点緯度":450.001,"代表点経度":1395.145412116}},{"type":"MultiPolygon","arcs":[[[-81,-73,-34]]],"properties":{"筆ID":"H000000028","version":"ver1.0","座標系":"任意座標系","測地系判別":null,"地図名":"赤平市土地連絡整理図３０００図無Ｈ１７","地図番号":"附連-40","縮尺分母":"3000","市区町村コード":"01218","市区町村名":"赤平市","大字コード":"000","丁目コード":"000","小字コード":"0002","予備コード":"00","大字名":null,"丁目名":null,"小字名":"字豊里","予備名":null,"地番":"5-91","精度区分":null,"座標値種別":"図上測量","筆界未定構成筆":null,"代表点緯度":451.638,"代表点経度":1407.811590136}},{"type":"MultiPolygon","arcs":[[[81,82,-33,-35,-28,-77]]],"properties":{"筆ID":"H000000029","version":"ver1.0","座標系":"任意座標系","測地系判別":null,"地図名":"赤平市土地連絡整理図３０００図無Ｈ１７","地図番号":"附連-40","縮尺分母":"3000","市区町村コード":"01218","市区町村名":"赤平市","大字コード":"000","丁目コード":"000","小字コード":"0002","予備コード":"00","大字名":null,"丁目名":null,"小字名":"字豊里","予備名":null,"地番":"長狭物不明-10","精度区分":null,"座標値種別":"図上測量","筆界未定構成筆":null,"代表点緯度":432.7825,"代表点経度":1421.054935883}},{"type":"MultiPolygon","arcs":[[[-71,83,-68,-55,-51,84,85,86]]],"properties":{"筆ID":"H000000030","version":"ver1.0","座標系":"任意座標系","測地系判別":null,"地図名":"赤平市土地連絡整理図３０００図無Ｈ１７","地図番号":"附連-40","縮尺分母":"3000","市区町村コード":"01218","市区町村名":"赤平市","大字コード":"000","丁目コード":"000","小字コード":"0002","予備コード":"00","大字名":null,"丁目名":null,"小字名":"字豊里","予備名":null,"地番":"164","精度区分":null,"座標値種別":"図上測量","筆界未定構成筆":null,"代表点緯度":348.7385,"代表点経度":1381.666747208}},{"type":"MultiPolygon","arcs":[[[87,-86,88,-43,89,-36]]],"properties":{"筆ID":"H000000031","version":"ver1.0","座標系":"任意座標系","測地系判別":null,"地図名":"赤平市土地連絡整理図３０００図無Ｈ１７","地図番号":"附連-40","縮尺分母":"3000","市区町村コード":"01218","市区町村名":"赤平市","大字コード":"000","丁目コード":"000","小字コード":"0002","予備コード":"00","大字名":null,"丁目名":null,"小字名":"字豊里","予備名":null,"地番":"長狭物不明-11","精度区分":null,"座標値種別":"図上測量","筆界未定構成筆":null,"代表点緯度":405.197,"代表点経度":1375.938974191}},{"type":"MultiPolygon","arcs":[[[-46,-40,-89,-85,-50]]],"properties":{"筆ID":"H000000032","version":"ver1.0","座標系":"任意座標系","測地系判別":null,"地図名":"赤平市土地連絡整理図３０００図無Ｈ１７","地図番号":"附連-40","縮尺分母":"3000","市区町村コード":"01218","市区町村名":"赤平市","大字コード":"000","丁目コード":"000","小字コード":"0002","予備コード":"00","大字名":null,"丁目名":null,"小字名":"字豊里","予備名":null,"地番":"1-8","精度区分":null,"座標値種別":"図上測量","筆界未定構成筆":null,"代表点緯度":377.18,"代表点経度":1367.339304398}},{"type":"MultiPolygon","arcs":[[[-87,-88,-39,-79,-30,-83,90,-72]]],"properties":{"筆ID":"H000000033","version":"ver1.0","座標系":"任意座標系","測地系判別":null,"地図名":"赤平市土地連絡整理図３０００図無Ｈ１７","地図番号":"附連-40","縮尺分母":"3000","市区町村コード":"01218","市区町村名":"赤平市","大字コード":"000","丁目コード":"000","小字コード":"0002","予備コード":"00","大字名":null,"丁目名":null,"小字名":"字豊里","予備名":null,"地番":"5-153","精度区分":null,"座標値種別":"図上測量","筆界未定構成筆":null,"代表点緯度":406.858,"代表点経度":1401.213422284}},{"type":"MultiPolygon","arcs":[[[91,92,93,94]]],"properties":{"筆ID":"H000000034","version":"ver1.0","座標系":"任意座標系","測地系判別":null,"地図名":"赤平市土地連絡整理図３０００図無Ｈ１７","地図番号":"附連-41","縮尺分母":"3000","市区町村コード":"01218","市区町村名":"赤平市","大字コード":"000","丁目コード":"000","小字コード":"0002","予備コード":"00","大字名":null,"丁目名":null,"小字名":"字豊里","予備名":null,"地番":"長狭物不明-13","精度区分":null,"座標値種別":"図上測量","筆界未定構成筆":null,"代表点緯度":55.035,"代表点経度":1332.746933317}},{"type":"MultiPolygon","arcs":[[[95,96,97,98]]],"properties":{"筆ID":"H000000035","version":"ver1.0","座標系":"任意座標系","測地系判別":null,"地図名":"赤平市土地連絡整理図３０００図無Ｈ１７","地図番号":"附連-41","縮尺分母":"3000","市区町村コード":"01218","市区町村名":"赤平市","大字コード":"000","丁目コード":"000","小字コード":"0002","予備コード":"00","大字名":null,"丁目名":null,"小字名":"字豊里","予備名":null,"地番":"長狭物不明-14","精度区分":null,"座標値種別":"図上測量","筆界未定構成筆":null,"代表点緯度":11.424,"代表点経度":1415.046232443}},{"type":"MultiPolygon","arcs":[[[99,-93,100,-98]]],"properties":{"筆ID":"H000000036","version":"ver1.0","座標系":"任意座標系","測地系判別":null,"地図名":"赤平市土地連絡整理図３０００図無Ｈ１７","地図番号":"附連-41","縮尺分母":"3000","市区町村コード":"01218","市区町村名":"赤平市","大字コード":"000","丁目コード":"000","小字コード":"0002","予備コード":"00","大字名":null,"丁目名":null,"小字名":"字豊里","予備名":null,"地番":"3","精度区分":null,"座標値種別":"図上測量","筆界未定構成筆":null,"代表点緯度":14.9805,"代表点経度":1374.926981192}},{"type":"MultiPolygon","arcs":[[[-95,101,-1,102,103]]],"properties":{"筆ID":"H000000037","version":"ver1.0","座標系":"任意座標系","測地系判別":null,"地図名":"赤平市土地連絡整理図３０００図無Ｈ１７","地図番号":"附連-41","縮尺分母":"3000","市区町村コード":"01218","市区町村名":"赤平市","大字コード":"000","丁目コード":"000","小字コード":"0002","予備コード":"00","大字名":null,"丁目名":null,"小字名":"字豊里","予備名":null,"地番":"1-1","精度区分":null,"座標値種別":"図上測量","筆界未定構成筆":null,"代表点緯度":91.2795,"代表点経度":1332.500329401}},{"type":"MultiPolygon","arcs":[[[-96,104,105]]],"properties":{"筆ID":"H000000038","version":"ver1.0","座標系":"任意座標系","測地系判別":null,"地図名":"赤平市土地連絡整理図３０００図無Ｈ１７","地図番号":"附連-41","縮尺分母":"3000","市区町村コード":"01218","市区町村名":"赤平市","大字コード":"000","丁目コード":"000","小字コード":"0002","予備コード":"00","大字名":null,"丁目名":null,"小字名":"字豊里","予備名":null,"地番":"4-1","精度区分":null,"座標値種別":"図上測量","筆界未定構成筆":null,"代表点緯度":8.915,"代表点経度":1455.615924982}},{"type":"MultiPolygon","arcs":[[[-105,-99,-101,-92,-104,106]]],"properties":{"筆ID":"H000000039","version":"ver1.0","座標系":"任意座標系","測地系判別":null,"地図名":"赤平市土地連絡整理図３０００図無Ｈ１７","地図番号":"附連-41","縮尺分母":"3000","市区町村コード":"01218","市区町村名":"赤平市","大字コード":"000","丁目コード":"000","小字コード":"0002","予備コード":"00","大字名":null,"丁目名":null,"小字名":"字豊里","予備名":null,"地番":"165","精度区分":null,"座標値種別":"図上測量","筆界未定構成筆":null,"代表点緯度":55.3475,"代表点経度":1404.623473232}}]}},"arcs":[[[361960,215089],[-359298,-18917]],[[2662,196172],[-1093,41596]],[[1569,237768],[335862,16969]],[[337431,254737],[24529,-39648]],[[1569,237768],[-1569,59823]],[[0,297591],[229755,11808]],[[229755,309399],[71579,3678]],[[301334,313077],[36097,-58340]],[[0,297591],[4395,93441]],[[4395,391032],[207721,9739]],[[212116,400771],[17639,-91372]],[[212116,400771],[87010,4080]],[[299126,404851],[-5647,-79079],[7855,-12695]],[[130142,461891],[-68201,-2920]],[[61941,458971],[43511,38433]],[[105452,497404],[49984,-14014]],[[155436,483390],[-25294,-21499]],[[183914,507588],[-28478,-24198]],[[105452,497404],[21999,19434],[19072,1513],[37391,-10763]],[[722493,999999],[25666,-1820],[-19294,-32758],[16603,-3974],[-16053,-18374]],[[729415,943073],[-6922,56926]],[[441815,804045],[29660,20708]],[[471475,824753],[9381,-38263]],[[480856,786490],[-6786,2390],[-486,6841],[-31769,8324]],[[489615,783404],[104988,5359]],[[594603,788763],[-17747,-20317]],[[576856,768446],[-23921,-1199]],[[552935,767247],[-15270,-766]],[[537665,766481],[-48050,16923]],[[464157,762792],[-11793,-592]],[[452364,762200],[-3156,19141],[32502,1659]],[[481710,783000],[4681,-19092]],[[486391,763908],[-22234,-1116]],[[481710,783000],[7905,404]],[[537665,766481],[-51274,-2573]],[[383494,758746],[-868,3977]],[[382626,762723],[15512,10829]],[[398138,773552],[35336,-12300]],[[433474,761252],[-49980,-2506]],[[347730,686717],[-30765,2961]],[[316965,689678],[-15388,1482]],[[301577,691160],[38030,34503]],[[339607,725663],[8123,-38946]],[[166407,534670],[-39277,-1772]],[[127130,532898],[174447,158262]],[[316965,689678],[19990,-92979]],[[336955,596699],[-79758,22107],[-14816,-1326],[-44988,-39106]],[[197393,578374],[-13833,-12022]],[[183560,566352],[-25519,-22180],[8366,-9502]],[[336955,596699],[1673,-7779],[29224,1332]],[[367852,590252],[994,-4757]],[[368846,585495],[-171453,-7121]],[[377458,544191],[-211051,-9521]],[[166407,534670],[17153,31682]],[[368846,585495],[8612,-41304]],[[189614,464438],[37819,30624]],[[227433,495062],[87709,-25248]],[[315142,469814],[-125528,-5376]],[[189614,464438],[-59472,-2547]],[[183914,507588],[43519,-12526]],[[4395,391032],[-303,30244],[40746,36962]],[[44838,458238],[17103,733]],[[315142,469814],[14941,640]],[[330083,470454],[-30332,-51095],[-625,-14508]],[[44838,458238],[82292,74660]],[[166407,534670],[172689,-49033]],[[339096,485637],[-9013,-15183]],[[377458,544191],[833,-3980]],[[378291,540211],[-22135,-25832],[-17060,-28742]],[[498441,678694],[-77893,-89163]],[[420548,589531],[-18686,85337]],[[401862,674868],[96579,3826]],[[489615,783404],[-8759,3086]],[[471475,824753],[251018,175246]],[[729415,943073],[-134812,-154310]],[[576856,768446],[-4835,-5533]],[[572021,762913],[-19086,4334]],[[433474,761252],[18890,948]],[[452364,762200],[-12769,-2642],[-6121,1694]],[[398138,773552],[43677,30493]],[[480856,786490],[854,-3490]],[[572021,762913],[-20612,-23593]],[[551409,739320],[-19994,3829],[-67258,19643]],[[420548,589531],[-42257,-49320]],[[367852,590252],[-8426,40386]],[[359426,630638],[42125,45646]],[[401551,676284],[311,-1416]],[[383494,758746],[18057,-82462]],[[359426,630638],[-11696,56079]],[[339607,725663],[43019,37060]],[[551409,739320],[-52968,-60626]],[[378927,132839],[51123,-22848]],[[430050,109991],[-420484,-21107]],[[9566,88884],[-4763,25862]],[[4803,114746],[374124,18093]],[[527941,75326],[15338,-73830]],[[543279,1496],[-52531,-1496]],[[490748,0],[-20009,93933]],[[470739,93933],[57202,-18607]],[[490748,0],[-481182,88884]],[[430050,109991],[36873,1850],[3816,-17908]],[[4803,114746],[-2141,81426]],[[361960,215089],[97111,-63594]],[[459071,151495],[3227,-14623],[-83371,-4033]],[[527941,75326],[-8022,38630],[34585,1674]],[[554504,115630],[72679,-24061],[213149,-23206],[159667,-1547],[-456720,-65320]],[[459071,151495],[13223,-8454],[82210,-27411]]],"bbox":[1272.587,-11.226,1552.419,578.449],"transform":{"scale":[0.00027983227983227995,0.0005896755896755896],"translate":[1272.587,-11.226]}}
