{"type":"Topology","objects":{"01218-4315-19.featurecollection":{"type":"GeometryCollection","geometries":[{"type":"Polygon","arcs":[[0,1,2,3,4]],"properties":{"市区町村名":"赤平市","大字名":"百戸町北","丁目名":null,"小字名":null,"地番":"245","精度区分":null,"座標系":"任意座標系"}},{"type":"Polygon","arcs":[[5,6,7,8,9,10,11]],"properties":{"市区町村名":"赤平市","大字名":"百戸町北","丁目名":null,"小字名":null,"地番":"139","精度区分":null,"座標系":"任意座標系"}},{"type":"Polygon","arcs":[[-7,12,13,14]],"properties":{"市区町村名":"赤平市","大字名":"百戸町北","丁目名":null,"小字名":null,"地番":"140","精度区分":null,"座標系":"任意座標系"}},{"type":"Polygon","arcs":[[-14,15,16,17,18]],"properties":{"市区町村名":"赤平市","大字名":"百戸町北","丁目名":null,"小字名":null,"地番":"113","精度区分":null,"座標系":"任意座標系"}},{"type":"Polygon","arcs":[[-18,19,20,21,22]],"properties":{"市区町村名":"赤平市","大字名":"百戸町北","丁目名":null,"小字名":null,"地番":"114","精度区分":null,"座標系":"任意座標系"}},{"type":"Polygon","arcs":[[23,24,-22]],"properties":{"市区町村名":"赤平市","大字名":"百戸町北","丁目名":null,"小字名":null,"地番":"115","精度区分":null,"座標系":"任意座標系"}},{"type":"Polygon","arcs":[[25,26,27,28]],"properties":{"市区町村名":"赤平市","大字名":"百戸町北","丁目名":null,"小字名":null,"地番":"124","精度区分":null,"座標系":"任意座標系"}},{"type":"Polygon","arcs":[[29,30,31,32,-26,33,34,35,36]],"properties":{"市区町村名":"赤平市","大字名":"百戸町北","丁目名":null,"小字名":null,"地番":"119","精度区分":null,"座標系":"任意座標系"}},{"type":"Polygon","arcs":[[37,38,39,-28]],"properties":{"市区町村名":"赤平市","大字名":"百戸町北","丁目名":null,"小字名":null,"地番":"125","精度区分":null,"座標系":"任意座標系"}},{"type":"Polygon","arcs":[[40,41,42,43,44,-39]],"properties":{"市区町村名":"赤平市","大字名":"百戸町北","丁目名":null,"小字名":null,"地番":"129","精度区分":null,"座標系":"任意座標系"}},{"type":"Polygon","arcs":[[-44,45,46,47,48,49,50,51,52,53]],"properties":{"市区町村名":"赤平市","大字名":"百戸町北","丁目名":null,"小字名":null,"地番":"132","精度区分":null,"座標系":"任意座標系"}},{"type":"Polygon","arcs":[[54,-46,-43]],"properties":{"市区町村名":"赤平市","大字名":"百戸町北","丁目名":null,"小字名":null,"地番":"128","精度区分":null,"座標系":"任意座標系"}},{"type":"Polygon","arcs":[[-32,55,56,-47,-55,-42]],"properties":{"市区町村名":"赤平市","大字名":"百戸町北","丁目名":null,"小字名":null,"地番":"水-1","精度区分":null,"座標系":"任意座標系"}},{"type":"Polygon","arcs":[[-41,-38,-27,-33]],"properties":{"市区町村名":"赤平市","大字名":"百戸町北","丁目名":null,"小字名":null,"地番":"126","精度区分":null,"座標系":"任意座標系"}},{"type":"Polygon","arcs":[[57,58,-37,59,-35,60,-24,-21]],"properties":{"市区町村名":"赤平市","大字名":"百戸町北","丁目名":null,"小字名":null,"地番":"116","精度区分":null,"座標系":"任意座標系"}},{"type":"Polygon","arcs":[[-36,-60]],"properties":{"市区町村名":"赤平市","大字名":"百戸町北","丁目名":null,"小字名":null,"地番":"120","精度区分":null,"座標系":"任意座標系"}},{"type":"Polygon","arcs":[[-16,-13,-6,61,-30,-59,62]],"properties":{"市区町村名":"赤平市","大字名":"百戸町北","丁目名":null,"小字名":null,"地番":"118","精度区分":null,"座標系":"任意座標系"}},{"type":"Polygon","arcs":[[-31,63,-56]],"properties":{"市区町村名":"赤平市","大字名":"百戸町北","丁目名":null,"小字名":null,"地番":"127","精度区分":null,"座標系":"任意座標系"}},{"type":"Polygon","arcs":[[-62,-12,64,65,66,67,68,69,-48,-57,-64]],"properties":{"市区町村名":"赤平市","大字名":"百戸町北","丁目名":null,"小字名":null,"地番":"138","精度区分":null,"座標系":"任意座標系"}},{"type":"Polygon","arcs":[[-58,-20,-17,-63]],"properties":{"市区町村名":"赤平市","大字名":"百戸町北","丁目名":null,"小字名":null,"地番":"117","精度区分":null,"座標系":"任意座標系"}},{"type":"Polygon","arcs":[[70,71,-53,72]],"properties":{"市区町村名":"赤平市","大字名":"百戸町北","丁目名":null,"小字名":null,"地番":"135","精度区分":null,"座標系":"任意座標系"}},{"type":"Polygon","arcs":[[-71,73,74,75,76]],"properties":{"市区町村名":"赤平市","大字名":"百戸町北","丁目名":null,"小字名":null,"地番":"159","精度区分":null,"座標系":"任意座標系"}},{"type":"Polygon","arcs":[[-76,77,78]],"properties":{"市区町村名":"赤平市","大字名":"百戸町北","丁目名":null,"小字名":null,"地番":"162","精度区分":null,"座標系":"任意座標系"}},{"type":"Polygon","arcs":[[-70,79,80,81,82,83,84,85,86,87,88,89,90,91,92,93,-74,-73,-52,94,95,-49]],"properties":{"市区町村名":"赤平市","大字名":"百戸町北","丁目名":null,"小字名":null,"地番":"191","精度区分":null,"座標系":"任意座標系"}},{"type":"Polygon","arcs":[[96,-95,-51]],"properties":{"市区町村名":"赤平市","大字名":"百戸町北","丁目名":null,"小字名":null,"地番":"133","精度区分":null,"座標系":"任意座標系"}},{"type":"Polygon","arcs":[[-97,-50,-96]],"properties":{"市区町村名":"赤平市","大字名":"百戸町北","丁目名":null,"小字名":null,"地番":"134","精度区分":null,"座標系":"任意座標系"}},{"type":"Polygon","arcs":[[-69,97,98,-66,99,100,101,-80]],"properties":{"市区町村名":"赤平市","大字名":"百戸町北","丁目名":null,"小字名":null,"地番":"151","精度区分":null,"座標系":"任意座標系"}},{"type":"Polygon","arcs":[[102,103,-82]],"properties":{"市区町村名":"赤平市","大字名":"百戸町北","丁目名":null,"小字名":null,"地番":"158","精度区分":null,"座標系":"任意座標系"}},{"type":"Polygon","arcs":[[-102,104,105,106,107,-103,-81]],"properties":{"市区町村名":"赤平市","大字名":"百戸町北","丁目名":null,"小字名":null,"地番":"157","精度区分":null,"座標系":"任意座標系"}},{"type":"Polygon","arcs":[[-65,-11,108,-100]],"properties":{"市区町村名":"赤平市","大字名":"百戸町北","丁目名":null,"小字名":null,"地番":"150","精度区分":null,"座標系":"任意座標系"}},{"type":"Polygon","arcs":[[-67,-99,109]],"properties":{"市区町村名":"赤平市","大字名":"百戸町北","丁目名":null,"小字名":null,"地番":"137","精度区分":null,"座標系":"任意座標系"}},{"type":"Polygon","arcs":[[-68,-110,-98]],"properties":{"市区町村名":"赤平市","大字名":"百戸町北","丁目名":null,"小字名":null,"地番":"136","精度区分":null,"座標系":"任意座標系"}},{"type":"Polygon","arcs":[[-101,110,111,-105]],"properties":{"市区町村名":"赤平市","大字名":"百戸町北","丁目名":null,"小字名":null,"地番":"152","精度区分":null,"座標系":"任意座標系"}},{"type":"Polygon","arcs":[[112,113,114,115,116,117,118,119,120,121,122]],"properties":{"市区町村名":"赤平市","大字名":"百戸町北","丁目名":null,"小字名":null,"地番":"水-2","精度区分":null,"座標系":"任意座標系"}},{"type":"Polygon","arcs":[[123,124,125,126]],"properties":{"市区町村名":"赤平市","大字名":"百戸町北","丁目名":null,"小字名":null,"地番":"水-3","精度区分":null,"座標系":"任意座標系"}},{"type":"Polygon","arcs":[[127,-4,128,129,130]],"properties":{"市区町村名":"赤平市","大字名":"百戸町北","丁目名":null,"小字名":null,"地番":"水-4","精度区分":null,"座標系":"任意座標系"}},{"type":"Polygon","arcs":[[131,132,133,134,135]],"properties":{"市区町村名":"赤平市","大字名":"百戸町北","丁目名":null,"小字名":null,"地番":"水-5","精度区分":null,"座標系":"任意座標系"}},{"type":"Polygon","arcs":[[136,137,138]],"properties":{"市区町村名":"赤平市","大字名":"百戸町北","丁目名":null,"小字名":null,"地番":"水-6","精度区分":null,"座標系":"任意座標系"}},{"type":"Polygon","arcs":[[139,140,141,142,143,144,145,146,147,148,149,150]],"properties":{"市区町村名":"赤平市","大字名":"百戸町北","丁目名":null,"小字名":null,"地番":"233","精度区分":null,"座標系":"任意座標系"}},{"type":"Polygon","arcs":[[-145,151,152,153,154,155,156]],"properties":{"市区町村名":"赤平市","大字名":"百戸町北","丁目名":null,"小字名":null,"地番":"217","精度区分":null,"座標系":"任意座標系"}},{"type":"Polygon","arcs":[[157,158,159,-156,160,161]],"properties":{"市区町村名":"赤平市","大字名":"百戸町北","丁目名":null,"小字名":null,"地番":"181","精度区分":null,"座標系":"任意座標系"}},{"type":"Polygon","arcs":[[162,-159,163,164,165,166,167,-9]],"properties":{"市区町村名":"赤平市","大字名":"百戸町北","丁目名":null,"小字名":null,"地番":"170","精度区分":null,"座標系":"任意座標系"}},{"type":"Polygon","arcs":[[-154,168,169,170,171]],"properties":{"市区町村名":"赤平市","大字名":"百戸町北","丁目名":null,"小字名":null,"地番":"236","精度区分":null,"座標系":"任意座標系"}},{"type":"Polygon","arcs":[[-161,-155,-172,172,173,174,175,176,177,178,179,180,181,182,183,184,185,186,187,188,189,190]],"properties":{"市区町村名":"赤平市","大字名":"百戸町北","丁目名":null,"小字名":null,"地番":"197","精度区分":null,"座標系":"任意座標系"}},{"type":"Polygon","arcs":[[191,-162,-191,192]],"properties":{"市区町村名":"赤平市","大字名":"百戸町北","丁目名":null,"小字名":null,"地番":"196","精度区分":null,"座標系":"任意座標系"}},{"type":"Polygon","arcs":[[193,194,195,196,197,-164,-158,-192,198,199]],"properties":{"市区町村名":"赤平市","大字名":"百戸町北","丁目名":null,"小字名":null,"地番":"182","精度区分":null,"座標系":"任意座標系"}},{"type":"Polygon","arcs":[[-165,-198,200,201]],"properties":{"市区町村名":"赤平市","大字名":"百戸町北","丁目名":null,"小字名":null,"地番":"169","精度区分":null,"座標系":"任意座標系"}},{"type":"Polygon","arcs":[[202,-167,203]],"properties":{"市区町村名":"赤平市","大字名":"百戸町北","丁目名":null,"小字名":null,"地番":"154","精度区分":null,"座標系":"任意座標系"}},{"type":"Polygon","arcs":[[-10,-168,-203,204,-111,-109]],"properties":{"市区町村名":"赤平市","大字名":"百戸町北","丁目名":null,"小字名":null,"地番":"153","精度区分":null,"座標系":"任意座標系"}},{"type":"Polygon","arcs":[[-2,205,206,207,-116,208,-114,209,-125,210]],"properties":{"市区町村名":"赤平市","大字名":"百戸町北","丁目名":null,"小字名":null,"地番":"257","精度区分":null,"座標系":"任意座標系"}},{"type":"Polygon","arcs":[[211,-117,-208]],"properties":{"市区町村名":"赤平市","大字名":"百戸町北","丁目名":null,"小字名":null,"地番":"262","精度区分":null,"座標系":"任意座標系"}},{"type":"Polygon","arcs":[[-209,-115]],"properties":{"市区町村名":"赤平市","大字名":"百戸町北","丁目名":null,"小字名":null,"地番":"256","精度区分":null,"座標系":"任意座標系"}},{"type":"Polygon","arcs":[[-113,212,-126,-210]],"properties":{"市区町村名":"赤平市","大字名":"百戸町北","丁目名":null,"小字名":null,"地番":"255","精度区分":null,"座標系":"任意座標系"}},{"type":"Polygon","arcs":[[-129,-3,-211,-124,213]],"properties":{"市区町村名":"赤平市","大字名":"百戸町北","丁目名":null,"小字名":null,"地番":"246","精度区分":null,"座標系":"任意座標系"}},{"type":"Polygon","arcs":[[214,215,-5,-128,216,-132]],"properties":{"市区町村名":"赤平市","大字名":"百戸町北","丁目名":null,"小字名":null,"地番":"243","精度区分":null,"座標系":"任意座標系"}},{"type":"Polygon","arcs":[[-133,-217,-131,217]],"properties":{"市区町村名":"赤平市","大字名":"百戸町北","丁目名":null,"小字名":null,"地番":"244","精度区分":null,"座標系":"任意座標系"}},{"type":"Polygon","arcs":[[218,-91,-215,-136,219,-137]],"properties":{"市区町村名":"赤平市","大字名":"百戸町北","丁目名":null,"小字名":null,"地番":"207","精度区分":null,"座標系":"任意座標系"}},{"type":"Polygon","arcs":[[-135,220,-138,-220]],"properties":{"市区町村名":"赤平市","大字名":"百戸町北","丁目名":null,"小字名":null,"地番":"208","精度区分":null,"座標系":"任意座標系"}},{"type":"Polygon","arcs":[[-92,-219,221,222]],"properties":{"市区町村名":"赤平市","大字名":"百戸町北","丁目名":null,"小字名":null,"地番":"190","精度区分":null,"座標系":"任意座標系"}},{"type":"Polygon","arcs":[[223,224,-93,-223,225,226]],"properties":{"市区町村名":"赤平市","大字名":"百戸町北","丁目名":null,"小字名":null,"地番":"184","精度区分":null,"座標系":"任意座標系"}},{"type":"Polygon","arcs":[[227,-227]],"properties":{"市区町村名":"赤平市","大字名":"百戸町北","丁目名":null,"小字名":null,"地番":"185","精度区分":null,"座標系":"任意座標系"}},{"type":"Polygon","arcs":[[-78,-75,-94,-225,228]],"properties":{"市区町村名":"赤平市","大字名":"百戸町北","丁目名":null,"小字名":null,"地番":"163","精度区分":null,"座標系":"任意座標系"}},{"type":"Polygon","arcs":[[229,230,231,232,233,234,235,236,237,238,239,240,241,242,-206,-1,-216,-90]],"properties":{"市区町村名":"赤平市","大字名":"百戸町北","丁目名":null,"小字名":null,"地番":"261","精度区分":null,"座標系":"任意座標系"}},{"type":"Polygon","arcs":[[243,244,245,246,-231,247]],"properties":{"市区町村名":"赤平市","大字名":"百戸町北","丁目名":null,"小字名":null,"地番":"249","精度区分":null,"座標系":"任意座標系"}},{"type":"Polygon","arcs":[[248,249,250,-233]],"properties":{"市区町村名":"赤平市","大字名":"百戸町北","丁目名":null,"小字名":null,"地番":"247","精度区分":null,"座標系":"任意座標系"}},{"type":"Polygon","arcs":[[-251,251,252,253,254,255,-234]],"properties":{"市区町村名":"赤平市","大字名":"百戸町北","丁目名":null,"小字名":null,"地番":"254","精度区分":null,"座標系":"任意座標系"}},{"type":"Polygon","arcs":[[-235,-256,256,257,-148,258,259,260,261]],"properties":{"市区町村名":"赤平市","大字名":"百戸町北","丁目名":null,"小字名":null,"地番":"518","精度区分":null,"座標系":"任意座標系"}},{"type":"Polygon","arcs":[[262,-140,263,-174]],"properties":{"市区町村名":"赤平市","大字名":"百戸町北","丁目名":null,"小字名":null,"地番":"239","精度区分":null,"座標系":"任意座標系"}},{"type":"Polygon","arcs":[[264,265,266,267]],"properties":{"市区町村名":"赤平市","大字名":"百戸町北","丁目名":null,"小字名":null,"地番":"205","精度区分":null,"座標系":"任意座標系"}},{"type":"Polygon","arcs":[[268,-244,269,-267]],"properties":{"市区町村名":"赤平市","大字名":"百戸町北","丁目名":null,"小字名":null,"地番":"241","精度区分":null,"座標系":"任意座標系"}},{"type":"Polygon","arcs":[[270,-270,-248,-230]],"properties":{"市区町村名":"赤平市","大字名":"百戸町北","丁目名":null,"小字名":null,"地番":"242","精度区分":null,"座標系":"任意座標系"}},{"type":"Polygon","arcs":[[271,-268,-271,-89]],"properties":{"市区町村名":"赤平市","大字名":"百戸町北","丁目名":null,"小字名":null,"地番":"206","精度区分":null,"座標系":"任意座標系"}},{"type":"Polygon","arcs":[[-88,272,-272]],"properties":{"市区町村名":"赤平市","大字名":"百戸町北","丁目名":null,"小字名":null,"地番":"192","精度区分":null,"座標系":"任意座標系"}},{"type":"Polygon","arcs":[[273,-265,-273,-87]],"properties":{"市区町村名":"赤平市","大字名":"百戸町北","丁目名":null,"小字名":null,"地番":"193","精度区分":null,"座標系":"任意座標系"}},{"type":"Polygon","arcs":[[-86,274,-193,275,-274]],"properties":{"市区町村名":"赤平市","大字名":"百戸町北","丁目名":null,"小字名":null,"地番":"195","精度区分":null,"座標系":"任意座標系"}},{"type":"Polygon","arcs":[[-85,276,-199,-275]],"properties":{"市区町村名":"赤平市","大字名":"百戸町北","丁目名":null,"小字名":null,"地番":"194","精度区分":null,"座標系":"任意座標系"}},{"type":"Polygon","arcs":[[-84,277,-200,-277]],"properties":{"市区町村名":"赤平市","大字名":"百戸町北","丁目名":null,"小字名":null,"地番":"183","精度区分":null,"座標系":"任意座標系"}},{"type":"Polygon","arcs":[[-104,278,-278,-83]],"properties":{"市区町村名":"赤平市","大字名":"百戸町北","丁目名":null,"小字名":null,"地番":"164","精度区分":null,"座標系":"任意座標系"}},{"type":"Polygon","arcs":[[-257,-255]],"properties":{"市区町村名":"赤平市","大字名":"百戸町北","丁目名":null,"小字名":null,"地番":"258","精度区分":null,"座標系":"任意座標系"}},{"type":"Polygon","arcs":[[279,-149,-258,-254]],"properties":{"市区町村名":"赤平市","大字名":"百戸町北","丁目名":null,"小字名":null,"地番":"253","精度区分":null,"座標系":"任意座標系"}},{"type":"Polygon","arcs":[[-150,-280,280,281,282]],"properties":{"市区町村名":"赤平市","大字名":"百戸町北","丁目名":null,"小字名":null,"地番":"252","精度区分":null,"座標系":"任意座標系"}},{"type":"Polygon","arcs":[[-264,-151,-283,-245,-269,283]],"properties":{"市区町村名":"赤平市","大字名":"百戸町北","丁目名":null,"小字名":null,"地番":"240","精度区分":null,"座標系":"任意座標系"}},{"type":"Polygon","arcs":[[-189,284,285,286]],"properties":{"市区町村名":"赤平市","大字名":"百戸町北","丁目名":null,"小字名":null,"地番":"204","精度区分":null,"座標系":"任意座標系"}},{"type":"Polygon","arcs":[[-190,-287,287,-175,-284,-266,-276]],"properties":{"市区町村名":"赤平市","大字名":"百戸町北","丁目名":null,"小字名":null,"地番":"209","精度区分":null,"座標系":"任意座標系"}},{"type":"Polygon","arcs":[[-279,-108,288,-194]],"properties":{"市区町村名":"赤平市","大字名":"百戸町北","丁目名":null,"小字名":null,"地番":"165","精度区分":null,"座標系":"任意座標系"}},{"type":"Polygon","arcs":[[-250,-246,-282,289,-252]],"properties":{"市区町村名":"赤平市","大字名":"百戸町北","丁目名":null,"小字名":null,"地番":"250","精度区分":null,"座標系":"任意座標系"}},{"type":"Polygon","arcs":[[-247,-249,-232]],"properties":{"市区町村名":"赤平市","大字名":"百戸町北","丁目名":null,"小字名":null,"地番":"248","精度区分":null,"座標系":"任意座標系"}},{"type":"Polygon","arcs":[[-290,-281,-253]],"properties":{"市区町村名":"赤平市","大字名":"百戸町北","丁目名":null,"小字名":null,"地番":"251","精度区分":null,"座標系":"任意座標系"}},{"type":"Polygon","arcs":[[-107,290,291]],"properties":{"市区町村名":"赤平市","大字名":"百戸町北","丁目名":null,"小字名":null,"地番":"156","精度区分":null,"座標系":"任意座標系"}},{"type":"Polygon","arcs":[[-292,292,-195,-289]],"properties":{"市区町村名":"赤平市","大字名":"百戸町北","丁目名":null,"小字名":null,"地番":"166","精度区分":null,"座標系":"任意座標系"}},{"type":"Polygon","arcs":[[-106,-112,-205,-204,-166,-202,293,294,-291]],"properties":{"市区町村名":"赤平市","大字名":"百戸町北","丁目名":null,"小字名":null,"地番":"155","精度区分":null,"座標系":"任意座標系"}},{"type":"Polygon","arcs":[[295,-196,-293,-295]],"properties":{"市区町村名":"赤平市","大字名":"百戸町北","丁目名":null,"小字名":null,"地番":"167","精度区分":null,"座標系":"任意座標系"}},{"type":"Polygon","arcs":[[-296,-294,-201,-197]],"properties":{"市区町村名":"赤平市","大字名":"百戸町北","丁目名":null,"小字名":null,"地番":"168","精度区分":null,"座標系":"任意座標系"}},{"type":"Polygon","arcs":[[-183,296,297,298]],"properties":{"市区町村名":"赤平市","大字名":"百戸町北","丁目名":null,"小字名":null,"地番":"198","精度区分":null,"座標系":"任意座標系"}},{"type":"Polygon","arcs":[[299,-297,-182]],"properties":{"市区町村名":"赤平市","大字名":"百戸町北","丁目名":null,"小字名":null,"地番":"216","精度区分":null,"座標系":"任意座標系"}},{"type":"Polygon","arcs":[[300,301,-176,-288,-286]],"properties":{"市区町村名":"赤平市","大字名":"百戸町北","丁目名":null,"小字名":null,"地番":"210","精度区分":null,"座標系":"任意座標系"}},{"type":"Polygon","arcs":[[302,-184,-299,303,304]],"properties":{"市区町村名":"赤平市","大字名":"百戸町北","丁目名":null,"小字名":null,"地番":"199","精度区分":null,"座標系":"任意座標系"}},{"type":"Polygon","arcs":[[305,-185,-303,306,307]],"properties":{"市区町村名":"赤平市","大字名":"百戸町北","丁目名":null,"小字名":null,"地番":"200","精度区分":null,"座標系":"任意座標系"}},{"type":"Polygon","arcs":[[-186,-306,308,309,310,311]],"properties":{"市区町村名":"赤平市","大字名":"百戸町北","丁目名":null,"小字名":null,"地番":"201","精度区分":null,"座標系":"任意座標系"}},{"type":"Polygon","arcs":[[312,-187,-312,313]],"properties":{"市区町村名":"赤平市","大字名":"百戸町北","丁目名":null,"小字名":null,"地番":"202","精度区分":null,"座標系":"任意座標系"}},{"type":"Polygon","arcs":[[-285,-188,-313,314,-301]],"properties":{"市区町村名":"赤平市","大字名":"百戸町北","丁目名":null,"小字名":null,"地番":"203","精度区分":null,"座標系":"任意座標系"}},{"type":"Polygon","arcs":[[-315,-314,-311,315,-177,-302]],"properties":{"市区町村名":"赤平市","大字名":"百戸町北","丁目名":null,"小字名":null,"地番":"211","精度区分":null,"座標系":"任意座標系"}},{"type":"Polygon","arcs":[[-316,-310,316,-178]],"properties":{"市区町村名":"赤平市","大字名":"百戸町北","丁目名":null,"小字名":null,"地番":"212","精度区分":null,"座標系":"任意座標系"}},{"type":"Polygon","arcs":[[-317,-309,-308,317,-179]],"properties":{"市区町村名":"赤平市","大字名":"百戸町北","丁目名":null,"小字名":null,"地番":"213","精度区分":null,"座標系":"任意座標系"}},{"type":"Polygon","arcs":[[-318,-307,-305,318,-180]],"properties":{"市区町村名":"赤平市","大字名":"百戸町北","丁目名":null,"小字名":null,"地番":"214","精度区分":null,"座標系":"任意座標系"}},{"type":"Polygon","arcs":[[-319,-304,-298,-300,-181]],"properties":{"市区町村名":"赤平市","大字名":"百戸町北","丁目名":null,"小字名":null,"地番":"215","精度区分":null,"座標系":"任意座標系"}},{"type":"Polygon","arcs":[[-263,-173,-171,319,-141]],"properties":{"市区町村名":"赤平市","大字名":"百戸町北","丁目名":null,"小字名":null,"地番":"238","精度区分":null,"座標系":"任意座標系"}},{"type":"Polygon","arcs":[[320,-152,-144]],"properties":{"市区町村名":"赤平市","大字名":"百戸町北","丁目名":null,"小字名":null,"地番":"234","精度区分":null,"座標系":"任意座標系"}},{"type":"Polygon","arcs":[[-169,-153,-321,-143,321]],"properties":{"市区町村名":"赤平市","大字名":"百戸町北","丁目名":null,"小字名":null,"地番":"235","精度区分":null,"座標系":"任意座標系"}},{"type":"Polygon","arcs":[[-322,-142,-320,-170]],"properties":{"市区町村名":"赤平市","大字名":"百戸町北","丁目名":null,"小字名":null,"地番":"237","精度区分":null,"座標系":"任意座標系"}},{"type":"Polygon","arcs":[[322,323,324,325,326,327]],"properties":{"市区町村名":"赤平市","大字名":"百戸町北","丁目名":null,"小字名":null,"地番":"水-7","精度区分":null,"座標系":"任意座標系"}},{"type":"Polygon","arcs":[[328,329,330,331]],"properties":{"市区町村名":"赤平市","大字名":"百戸町北","丁目名":null,"小字名":null,"地番":"345","精度区分":null,"座標系":"任意座標系"}},{"type":"Polygon","arcs":[[332,333,334,335,336,337]],"properties":{"市区町村名":"赤平市","大字名":"百戸町北","丁目名":null,"小字名":null,"地番":"349","精度区分":null,"座標系":"任意座標系"}},{"type":"Polygon","arcs":[[-335,338,339,340]],"properties":{"市区町村名":"赤平市","大字名":"百戸町北","丁目名":null,"小字名":null,"地番":"350","精度区分":null,"座標系":"任意座標系"}},{"type":"Polygon","arcs":[[341,342,343,344,345,-340]],"properties":{"市区町村名":"赤平市","大字名":"百戸町北","丁目名":null,"小字名":null,"地番":"352","精度区分":null,"座標系":"任意座標系"}},{"type":"Polygon","arcs":[[346,347,348,-345]],"properties":{"市区町村名":"赤平市","大字名":"百戸町北","丁目名":null,"小字名":null,"地番":"353","精度区分":null,"座標系":"任意座標系"}},{"type":"Polygon","arcs":[[-348,349,350,351]],"properties":{"市区町村名":"赤平市","大字名":"百戸町北","丁目名":null,"小字名":null,"地番":"354","精度区分":null,"座標系":"任意座標系"}},{"type":"Polygon","arcs":[[352,353]],"properties":{"市区町村名":"赤平市","大字名":"百戸町北","丁目名":null,"小字名":null,"地番":"357","精度区分":null,"座標系":"任意座標系"}},{"type":"Polygon","arcs":[[354,355,-354,356,-351,357,358,359]],"properties":{"市区町村名":"赤平市","大字名":"百戸町北","丁目名":null,"小字名":null,"地番":"283","精度区分":null,"座標系":"任意座標系"}},{"type":"Polygon","arcs":[[360]],"properties":{"市区町村名":"赤平市","大字名":"百戸町北","丁目名":null,"小字名":null,"地番":"280","精度区分":null,"座標系":"任意座標系"}},{"type":"Polygon","arcs":[[361,-360,362,363]],"properties":{"市区町村名":"赤平市","大字名":"百戸町北","丁目名":null,"小字名":null,"地番":"284","精度区分":null,"座標系":"任意座標系"}},{"type":"Polygon","arcs":[[364,365,366,367]],"properties":{"市区町村名":"赤平市","大字名":"百戸町北","丁目名":null,"小字名":null,"地番":"273","精度区分":null,"座標系":"任意座標系"}},{"type":"Polygon","arcs":[[368,-358,-350,-347,369]],"properties":{"市区町村名":"赤平市","大字名":"百戸町北","丁目名":null,"小字名":null,"地番":"335","精度区分":null,"座標系":"任意座標系"}},{"type":"Polygon","arcs":[[370,-359,-369,371]],"properties":{"市区町村名":"赤平市","大字名":"百戸町北","丁目名":null,"小字名":null,"地番":"334","精度区分":null,"座標系":"任意座標系"}},{"type":"Polygon","arcs":[[372,-365,373,-364,374,375]],"properties":{"市区町村名":"赤平市","大字名":"百戸町北","丁目名":null,"小字名":null,"地番":"285","精度区分":null,"座標系":"任意座標系"}},{"type":"Polygon","arcs":[[376,377,378,379,-375,380,381,382]],"properties":{"市区町村名":"赤平市","大字名":"百戸町北","丁目名":null,"小字名":null,"地番":"309","精度区分":null,"座標系":"任意座標系"}},{"type":"Polygon","arcs":[[383,384,-376,-380]],"properties":{"市区町村名":"赤平市","大字名":"百戸町北","丁目名":null,"小字名":null,"地番":"307","精度区分":null,"座標系":"任意座標系"}},{"type":"Polygon","arcs":[[385,386,-366,-373,-385,387,388,389]],"properties":{"市区町村名":"赤平市","大字名":"百戸町北","丁目名":null,"小字名":null,"地番":"286","精度区分":null,"座標系":"任意座標系"}},{"type":"Polygon","arcs":[[390,-367,-387,391]],"properties":{"市区町村名":"赤平市","大字名":"百戸町北","丁目名":null,"小字名":null,"地番":"272","精度区分":null,"座標系":"任意座標系"}},{"type":"Polygon","arcs":[[392,-392,-386,393,394]],"properties":{"市区町村名":"赤平市","大字名":"百戸町北","丁目名":null,"小字名":null,"地番":"271","精度区分":null,"座標系":"任意座標系"}},{"type":"Polygon","arcs":[[395,396,397,398,399,400]],"properties":{"市区町村名":"赤平市","大字名":"百戸町北","丁目名":null,"小字名":null,"地番":"321","精度区分":null,"座標系":"任意座標系"}},{"type":"Polygon","arcs":[[-400,401]],"properties":{"市区町村名":"赤平市","大字名":"百戸町北","丁目名":null,"小字名":null,"地番":"319","精度区分":null,"座標系":"任意座標系"}},{"type":"Polygon","arcs":[[402,403,404,405]],"properties":{"市区町村名":"赤平市","大字名":"百戸町北","丁目名":null,"小字名":null,"地番":"315","精度区分":null,"座標系":"任意座標系"}},{"type":"Polygon","arcs":[[406,-403,407,408,409,-326]],"properties":{"市区町村名":"赤平市","大字名":"百戸町北","丁目名":null,"小字名":null,"地番":"316","精度区分":null,"座標系":"任意座標系"}},{"type":"Polygon","arcs":[[410,411,412,-404,413]],"properties":{"市区町村名":"赤平市","大字名":"百戸町北","丁目名":null,"小字名":null,"地番":"294","精度区分":null,"座標系":"任意座標系"}},{"type":"Polygon","arcs":[[414,-414,-407,-325]],"properties":{"市区町村名":"赤平市","大字名":"百戸町北","丁目名":null,"小字名":null,"地番":"293","精度区分":null,"座標系":"任意座標系"}},{"type":"Polygon","arcs":[[415,-411,416,-240]],"properties":{"市区町村名":"赤平市","大字名":"百戸町北","丁目名":null,"小字名":null,"地番":"291","精度区分":null,"座標系":"任意座標系"}},{"type":"Polygon","arcs":[[417,-241,-417,-415,-324]],"properties":{"市区町村名":"赤平市","大字名":"百戸町北","丁目名":null,"小字名":null,"地番":"292","精度区分":null,"座標系":"任意座標系"}},{"type":"Polygon","arcs":[[-243,418,-120,419,-118,-212,-207]],"properties":{"市区町村名":"赤平市","大字名":"百戸町北","丁目名":null,"小字名":null,"地番":"263","精度区分":null,"座標系":"任意座標系"}},{"type":"Polygon","arcs":[[-420,-119]],"properties":{"市区町村名":"赤平市","大字名":"百戸町北","丁目名":null,"小字名":null,"地番":"264","精度区分":null,"座標系":"任意座標系"}},{"type":"Polygon","arcs":[[-419,-242,-418,420,-121]],"properties":{"市区町村名":"赤平市","大字名":"百戸町北","丁目名":null,"小字名":null,"地番":"265","精度区分":null,"座標系":"任意座標系"}},{"type":"Polygon","arcs":[[-323,421,-122,-421]],"properties":{"市区町村名":"赤平市","大字名":"百戸町北","丁目名":null,"小字名":null,"地番":"266","精度区分":null,"座標系":"任意座標系"}},{"type":"Polygon","arcs":[[-327,-410,422,423,424,425,426]],"properties":{"市区町村名":"赤平市","大字名":"百戸町北","丁目名":null,"小字名":null,"地番":"317","精度区分":null,"座標系":"任意座標系"}},{"type":"Polygon","arcs":[[427,-402,428,-408]],"properties":{"市区町村名":"赤平市","大字名":"百戸町北","丁目名":null,"小字名":null,"地番":"320","精度区分":null,"座標系":"任意座標系"}},{"type":"Polygon","arcs":[[-401,-428,-406,429]],"properties":{"市区町村名":"赤平市","大字名":"百戸町北","丁目名":null,"小字名":null,"地番":"322","精度区分":null,"座標系":"任意座標系"}},{"type":"Polygon","arcs":[[430,431,432,433]],"properties":{"市区町村名":"赤平市","大字名":"百戸町北","丁目名":null,"小字名":null,"地番":"297","精度区分":null,"座標系":"任意座標系"}},{"type":"Polygon","arcs":[[-413,434,-433,435]],"properties":{"市区町村名":"赤平市","大字名":"百戸町北","丁目名":null,"小字名":null,"地番":"296","精度区分":null,"座標系":"任意座標系"}},{"type":"Polygon","arcs":[[436,437,-434,438]],"properties":{"市区町村名":"赤平市","大字名":"百戸町北","丁目名":null,"小字名":null,"地番":"298","精度区分":null,"座標系":"任意座標系"}},{"type":"Polygon","arcs":[[439,-439,-435,-412]],"properties":{"市区町村名":"赤平市","大字名":"百戸町北","丁目名":null,"小字名":null,"地番":"295","精度区分":null,"座標系":"任意座標系"}},{"type":"Polygon","arcs":[[-370,-344,440,441]],"properties":{"市区町村名":"赤平市","大字名":"百戸町北","丁目名":null,"小字名":null,"地番":"336","精度区分":null,"座標系":"任意座標系"}},{"type":"Polygon","arcs":[[442,-372,-442,443]],"properties":{"市区町村名":"赤平市","大字名":"百戸町北","丁目名":null,"小字名":null,"地番":"333","精度区分":null,"座標系":"任意座標系"}},{"type":"Polygon","arcs":[[444,445,-342,446,447]],"properties":{"市区町村名":"赤平市","大字名":"百戸町北","丁目名":null,"小字名":null,"地番":"338","精度区分":null,"座標系":"任意座標系"}},{"type":"Polygon","arcs":[[-447,-339,-334,448]],"properties":{"市区町村名":"赤平市","大字名":"百戸町北","丁目名":null,"小字名":null,"地番":"339","精度区分":null,"座標系":"任意座標系"}},{"type":"Polygon","arcs":[[-448,-449,-333,449,-329,450,451,452,453]],"properties":{"市区町村名":"赤平市","大字名":"百戸町北","丁目名":null,"小字名":null,"地番":"340","精度区分":null,"座標系":"任意座標系"}},{"type":"Polygon","arcs":[[-398,454,455,456,457,458,459,460,-445,461,462]],"properties":{"市区町村名":"赤平市","大字名":"百戸町北","丁目名":null,"小字名":null,"地番":"328","精度区分":null,"座標系":"任意座標系"}},{"type":"Polygon","arcs":[[-454,463,-462]],"properties":{"市区町村名":"赤平市","大字名":"百戸町北","丁目名":null,"小字名":null,"地番":"325","精度区分":null,"座標系":"任意座標系"}},{"type":"Polygon","arcs":[[464,465,466,467,-330]],"properties":{"市区町村名":"赤平市","大字名":"百戸町北","丁目名":null,"小字名":null,"地番":"346","精度区分":null,"座標系":"任意座標系"}},{"type":"Polygon","arcs":[[468,-465,-450]],"properties":{"市区町村名":"赤平市","大字名":"百戸町北","丁目名":null,"小字名":null,"地番":"342","精度区分":null,"座標系":"任意座標系"}},{"type":"Polygon","arcs":[[-337,469,-467]],"properties":{"市区町村名":"赤平市","大字名":"百戸町北","丁目名":null,"小字名":null,"地番":"348","精度区分":null,"座標系":"任意座標系"}},{"type":"Polygon","arcs":[[470,471,-441,472,-446]],"properties":{"市区町村名":"赤平市","大字名":"百戸町北","丁目名":null,"小字名":null,"地番":"337","精度区分":null,"座標系":"任意座標系"}},{"type":"Polygon","arcs":[[-383,473,-471,-461]],"properties":{"市区町村名":"赤平市","大字名":"百戸町北","丁目名":null,"小字名":null,"地番":"331","精度区分":null,"座標系":"任意座標系"}},{"type":"Polygon","arcs":[[-389,474,-378,475]],"properties":{"市区町村名":"赤平市","大字名":"百戸町北","丁目名":null,"小字名":null,"地番":"305","精度区分":null,"座標系":"任意座標系"}},{"type":"Polygon","arcs":[[-476,476,477,478,479]],"properties":{"市区町村名":"赤平市","大字名":"百戸町北","丁目名":null,"小字名":null,"地番":"304","精度区分":null,"座標系":"任意座標系"}},{"type":"Polygon","arcs":[[480,-390,-480,481]],"properties":{"市区町村名":"赤平市","大字名":"百戸町北","丁目名":null,"小字名":null,"地番":"287","精度区分":null,"座標系":"任意座標系"}},{"type":"Polygon","arcs":[[482,-260,-394,-481]],"properties":{"市区町村名":"赤平市","大字名":"百戸町北","丁目名":null,"小字名":null,"地番":"519","精度区分":null,"座標系":"任意座標系"}},{"type":"Polygon","arcs":[[-147,483,-395,-259]],"properties":{"市区町村名":"赤平市","大字名":"百戸町北","丁目名":null,"小字名":null,"地番":"270","精度区分":null,"座標系":"任意座標系"}},{"type":"Polygon","arcs":[[-382,-444,-472,-474]],"properties":{"市区町村名":"赤平市","大字名":"百戸町北","丁目名":null,"小字名":null,"地番":"332","精度区分":null,"座標系":"任意座標系"}},{"type":"Polygon","arcs":[[-473,-343]],"properties":{"市区町村名":"赤平市","大字名":"百戸町北","丁目名":null,"小字名":null,"地番":"351","精度区分":null,"座標系":"任意座標系"}},{"type":"Polygon","arcs":[[484,-459,485,-457,486]],"properties":{"市区町村名":"赤平市","大字名":"百戸町北","丁目名":null,"小字名":null,"地番":"329","精度区分":null,"座標系":"任意座標系"}},{"type":"Polygon","arcs":[[487,-487,-456]],"properties":{"市区町村名":"赤平市","大字名":"百戸町北","丁目名":null,"小字名":null,"地番":"327","精度区分":null,"座標系":"任意座標系"}},{"type":"Polygon","arcs":[[488,489,490,491,-485,492,-397]],"properties":{"市区町村名":"赤平市","大字名":"百戸町北","丁目名":null,"小字名":null,"地番":"311","精度区分":null,"座標系":"任意座標系"}},{"type":"Polygon","arcs":[[-416,493,-440]],"properties":{"市区町村名":"赤平市","大字名":"百戸町北","丁目名":null,"小字名":null,"地番":"289","精度区分":null,"座標系":"任意座標系"}},{"type":"Polygon","arcs":[[494,495,-482,-479,496,497,498,499,-238]],"properties":{"市区町村名":"赤平市","大字名":"百戸町北","丁目名":null,"小字名":null,"地番":"288","精度区分":null,"座標系":"任意座標系"}},{"type":"Polygon","arcs":[[-262,500,501,502,503,-236]],"properties":{"市区町村名":"赤平市","大字名":"百戸町北","丁目名":null,"小字名":null,"地番":"260","精度区分":null,"座標系":"任意座標系"}},{"type":"Polygon","arcs":[[-500,-437,-494,-239]],"properties":{"市区町村名":"赤平市","大字名":"百戸町北","丁目名":null,"小字名":null,"地番":"290","精度区分":null,"座標系":"任意座標系"}},{"type":"Polygon","arcs":[[-499,504,505,-438]],"properties":{"市区町村名":"赤平市","大字名":"百戸町北","丁目名":null,"小字名":null,"地番":"299","精度区分":null,"座標系":"任意座標系"}},{"type":"Polygon","arcs":[[-506,506,507,-431]],"properties":{"市区町村名":"赤平市","大字名":"百戸町北","丁目名":null,"小字名":null,"地番":"300","精度区分":null,"座標系":"任意座標系"}},{"type":"Polygon","arcs":[[-432,508,-430,509]],"properties":{"市区町村名":"赤平市","大字名":"百戸町北","丁目名":null,"小字名":null,"地番":"313","精度区分":null,"座標系":"任意座標系"}},{"type":"Polygon","arcs":[[-508,510,511,-489,-396,-509]],"properties":{"市区町村名":"赤平市","大字名":"百戸町北","丁目名":null,"小字名":null,"地番":"312","精度区分":null,"座標系":"任意座標系"}},{"type":"Polygon","arcs":[[512,-511,-507,-505]],"properties":{"市区町村名":"赤平市","大字名":"百戸町北","丁目名":null,"小字名":null,"地番":"301","精度区分":null,"座標系":"任意座標系"}},{"type":"Polygon","arcs":[[-497,-478,-491,513]],"properties":{"市区町村名":"赤平市","大字名":"百戸町北","丁目名":null,"小字名":null,"地番":"303","精度区分":null,"座標系":"任意座標系"}},{"type":"Polygon","arcs":[[-486,-458]],"properties":{"市区町村名":"赤平市","大字名":"百戸町北","丁目名":null,"小字名":null,"地番":"330","精度区分":null,"座標系":"任意座標系"}},{"type":"Polygon","arcs":[[-502,-483,-496,514]],"properties":{"市区町村名":"赤平市","大字名":"百戸町北","丁目名":null,"小字名":null,"地番":"269","精度区分":null,"座標系":"任意座標系"}},{"type":"Polygon","arcs":[[-261,-501]],"properties":{"市区町村名":"赤平市","大字名":"百戸町北","丁目名":null,"小字名":null,"地番":"259","精度区分":null,"座標系":"任意座標系"}},{"type":"Polygon","arcs":[[515,-495,-237,-504]],"properties":{"市区町村名":"赤平市","大字名":"百戸町北","丁目名":null,"小字名":null,"地番":"267","精度区分":null,"座標系":"任意座標系"}},{"type":"Polygon","arcs":[[-516,-503,-515]],"properties":{"市区町村名":"赤平市","大字名":"百戸町北","丁目名":null,"小字名":null,"地番":"268","精度区分":null,"座標系":"任意座標系"}},{"type":"Polygon","arcs":[[-377,-460,-492,-477]],"properties":{"市区町村名":"赤平市","大字名":"百戸町北","丁目名":null,"小字名":null,"地番":"310","精度区分":null,"座標系":"任意座標系"}},{"type":"Polygon","arcs":[[-498,-514,-490,-512,-513]],"properties":{"市区町村名":"赤平市","大字名":"百戸町北","丁目名":null,"小字名":null,"地番":"302","精度区分":null,"座標系":"任意座標系"}},{"type":"Polygon","arcs":[[-493,-488,-455]],"properties":{"市区町村名":"赤平市","大字名":"百戸町北","丁目名":null,"小字名":null,"地番":"326","精度区分":null,"座標系":"任意座標系"}},{"type":"Polygon","arcs":[[-363,-371,-443,-381]],"properties":{"市区町村名":"赤平市","大字名":"百戸町北","丁目名":null,"小字名":null,"地番":"308","精度区分":null,"座標系":"任意座標系"}},{"type":"Polygon","arcs":[[-475,-388,-384,-379]],"properties":{"市区町村名":"赤平市","大字名":"百戸町北","丁目名":null,"小字名":null,"地番":"306","精度区分":null,"座標系":"任意座標系"}},{"type":"Polygon","arcs":[[-466,-469,-338]],"properties":{"市区町村名":"赤平市","大字名":"百戸町北","丁目名":null,"小字名":null,"地番":"347","精度区分":null,"座標系":"任意座標系"}},{"type":"Polygon","arcs":[[-436,-510,-405]],"properties":{"市区町村名":"赤平市","大字名":"百戸町北","丁目名":null,"小字名":null,"地番":"314","精度区分":null,"座標系":"任意座標系"}},{"type":"Polygon","arcs":[[-423,-409,-429,-399,-463,516,517,518,519,-452,520,521,522,523]],"properties":{"市区町村名":"赤平市","大字名":"百戸町北","丁目名":null,"小字名":null,"地番":"318","精度区分":null,"座標系":"任意座標系"}},{"type":"Polygon","arcs":[[-524,524,-522,525,526,-424]],"properties":{"市区町村名":"赤平市","大字名":"百戸町北","丁目名":null,"小字名":null,"地番":"水-8","精度区分":null,"座標系":"任意座標系"}},{"type":"Polygon","arcs":[[527,-426]],"properties":{"市区町村名":"赤平市","大字名":"百戸町北","丁目名":null,"小字名":null,"地番":"水-9","精度区分":null,"座標系":"任意座標系"}},{"type":"Polygon","arcs":[[-332,528,-526,-521,-451]],"properties":{"市区町村名":"赤平市","大字名":"百戸町北","丁目名":null,"小字名":null,"地番":"344","精度区分":null,"座標系":"任意座標系"}},{"type":"Polygon","arcs":[[-520,529,-453]],"properties":{"市区町村名":"赤平市","大字名":"百戸町北","丁目名":null,"小字名":null,"地番":"341","精度区分":null,"座標系":"任意座標系"}},{"type":"Polygon","arcs":[[530,-518]],"properties":{"市区町村名":"赤平市","大字名":"百戸町北","丁目名":null,"小字名":null,"地番":"323","精度区分":null,"座標系":"任意座標系"}},{"type":"Polygon","arcs":[[-517,-464,-530,-519,-531]],"properties":{"市区町村名":"赤平市","大字名":"百戸町北","丁目名":null,"小字名":null,"地番":"324","精度区分":null,"座標系":"任意座標系"}},{"type":"Polygon","arcs":[[-523,-525]],"properties":{"市区町村名":"赤平市","大字名":"百戸町北","丁目名":null,"小字名":null,"地番":"343","精度区分":null,"座標系":"任意座標系"}}]}},"arcs":[[[741920,512090],[4721,6863],[25254,20545]],[[771895,539498],[3632,-678]],[[775527,538820],[-4281,-6303],[3609,-7945],[-5948,-4002]],[[768907,520570],[-15745,-10593]],[[753162,509977],[-11242,2113]],[[193761,176449],[482,-3737]],[[194243,172712],[-97379,935]],[[96864,173647],[9692,65758],[6436,43665]],[[112992,283070],[83329,1319]],[[196321,284389],[-119,-524]],[[196202,283865],[-6509,-28580],[-1694,-6320],[-887,-4705]],[[187112,244260],[-255,-1349],[-441,-9499],[7345,-56963]],[[194243,172712],[3022,-23438],[11334,-27590],[11858,-16482]],[[220457,105202],[-32790,-25315],[-20093,-15191]],[[167574,64696],[-25123,38948],[-45587,70003]],[[220457,105202],[18527,-25751],[7503,-11077],[7907,-11116],[19078,-21903]],[[273472,35355],[11513,-13217]],[[284985,22138],[-4335,1527],[-18150,6384],[-6534,-3723]],[[255966,26326],[-24603,-14017],[-5968,2515],[-55131,45702],[-2690,4170]],[[284985,22138],[3258,-1148]],[[288243,20990],[7147,-2517]],[[295390,18473],[2352,-829],[10473,-1380],[6868,7596],[29371,7],[13769,-1241],[50525,11415],[29499,3993],[29695,4034],[366,3167]],[[468308,45235],[1147,-1521],[2591,-5603],[1033,-6376],[-119774,-24591],[-34614,6209],[-2683,-13353],[-29040,1144],[-31002,25182]],[[295390,18473],[16730,5784],[48505,1744],[56053,13123],[42998,10189],[9351,2147]],[[469027,51460],[-719,-6225]],[[470910,67763],[447,3874],[6145,3115],[36144,2942]],[[513646,77694],[16588,1350]],[[530234,79044],[29068,2366]],[[559302,81410],[1016,-629],[-44251,-12512],[-10333,2313],[3143,2024],[-8542,1458],[-2849,-1657],[-26576,-4644]],[[306650,27742],[1573,23945],[103989,23324],[5200,35751],[-1244,15768]],[[416168,126530],[7746,-1200],[132994,-19061]],[[556908,106269],[-10472,-11865]],[[546436,94404],[-32790,-16710]],[[470910,67763],[-1348,-11668]],[[469562,56095],[-444,228]],[[469118,56323],[-9913,5083],[-9698,3244],[-42056,-2312],[-25872,-10741],[2138,-6105],[-27122,-8409],[-1151,-7609]],[[355444,29474],[-48794,-1732]],[[530234,79044],[17674,9045]],[[547908,88089],[335,171]],[[548243,88260],[11059,-6850]],[[547908,88089],[-1472,6315]],[[546436,94404],[8467,4315],[14718,16203]],[[569621,114922],[12618,13891],[32293,16089]],[[614532,144902],[3005,1498],[10000,-1622],[-2871,-1412]],[[624666,143366],[-35867,-17635],[-28258,-31177],[-12298,-6294]],[[614532,144902],[-19399,3194],[-2898,358]],[[592235,148454],[-9376,-461]],[[582859,147993],[8239,5705],[34489,-2806],[966,125]],[[626553,151017],[17136,2207]],[[643689,153224],[19155,4252],[10199,2414]],[[673043,159890],[872,207],[-7385,4549]],[[666530,164646],[3486,1716]],[[670016,166362],[44835,2541]],[[714851,168903],[-30522,-11924],[-17398,-14658],[-14032,-3579],[-28233,4624]],[[569621,114922],[5340,19166],[8047,7848],[9227,6518]],[[556908,106269],[1699,1925],[7786,28397],[12732,8816]],[[579125,145407],[3734,2586]],[[288243,20990],[14337,5119]],[[302580,26109],[4070,1633]],[[355444,29474],[88448,20771],[25226,6078]],[[469562,56095],[-535,-4635]],[[193761,176449],[48858,-11100],[133122,-29755],[40427,-9064]],[[302580,26109],[-12265,6496],[-11296,3607],[-5547,-857]],[[416168,126530],[18584,30878],[4490,18819],[99726,-11771],[40157,-19049]],[[187112,244260],[19980,-4855],[142961,-32139]],[[350053,207266],[91604,-20609]],[[441657,186657],[9216,-1246],[126802,-14940]],[[577675,170471],[39186,-4617]],[[616861,165854],[32395,-3817]],[[649256,162037],[-22703,-11020]],[[669112,213350],[28425,-4529]],[[697537,208821],[-1793,-6661],[7694,-4082],[13470,-6692],[3318,-19663],[-5375,-2820]],[[670016,166362],[30397,14961],[-34008,28831],[2707,3196]],[[669112,213350],[13877,16385],[-17533,13769],[-267,12411]],[[665189,255915],[48649,-7767]],[[713838,248148],[-13507,-9433],[1016,-4660]],[[701347,234055],[3331,-15274],[-6265,-6708],[-876,-3252]],[[713838,248148],[25836,18059]],[[739674,266207],[-14006,-21107],[-12541,-5695],[-11780,-5350]],[[649256,162037],[41101,20212],[-32012,27280],[3649,4925]],[[661994,214454],[12204,14723]],[[674198,229177],[145,173],[-16689,13299],[-303,14564]],[[657351,257213],[-346,16680],[9317,19781]],[[666322,293674],[17466,29716]],[[683788,323390],[1755,1951]],[[685543,325341],[1717,2160]],[[687260,327501],[15261,15093],[13434,20386]],[[715955,362980],[-6072,8475]],[[709883,371455],[-6181,8625],[1769,31008],[-8309,19564],[-61,870]],[[697101,431522],[8680,-1454]],[[705781,430068],[3338,-8209],[4351,-10044],[-1916,-31208],[8024,-10757]],[[719578,369850],[5075,-6804],[-15295,-23005],[-15721,-15863]],[[693637,324178],[-2466,-2487],[-16558,-29355]],[[674613,292336],[-9799,-18931],[375,-17490]],[[666530,164646],[-7131,-3509]],[[659399,161137],[-15710,-7913]],[[673043,159890],[-13644,1247]],[[616861,165854],[13890,36767],[-166229,24463],[-20629,-34704]],[[443893,192380],[-2236,-5723]],[[350053,207266],[13685,40439]],[[363738,247705],[62927,-9722],[5834,12281]],[[432499,250264],[28429,-4271],[155196,-24282],[45870,-7257]],[[674198,229177],[-45711,1823],[-52262,23047],[-5046,2331],[-10504,16190]],[[560675,272568],[96676,-15355]],[[432499,250264],[-17870,2685]],[[414629,252949],[3758,7386]],[[418387,260335],[16137,6074],[87125,-12178],[-3051,24900]],[[518598,279131],[42077,-6563]],[[196202,283865],[148372,-33272],[19164,-2888]],[[443893,192380],[107529,-9727],[26253,-12182]],[[363738,247705],[4300,12243]],[[368038,259948],[46591,-6999]],[[790985,595940],[-156,3155]],[[790829,599095],[2406,1609]],[[793235,600704],[12433,5248],[-930,2161]],[[804738,608113],[5105,1937],[18866,11151],[14285,19064],[-15309,2623]],[[827685,642888],[-4790,13148]],[[822895,656036],[4346,13883]],[[827241,669919],[5185,5456],[-4160,8354]],[[828266,683729],[9491,5724]],[[837757,689453],[8183,4934],[5402,7561]],[[851342,701948],[4693,2773]],[[856035,704721],[1708,-2660],[32,-1517],[-1571,-2719],[-2503,-2561],[-2275,-1909],[-4973,-2648],[-5096,-2407],[-5838,-3275],[-2725,-1712],[-1897,-1883],[-352,-1106],[1355,-2939],[1161,-1799],[102,-2930],[-1365,-3353],[-783,-2685],[-354,-2763],[-1339,-3536],[-2503,-5520],[-354,-1679],[-227,-3691],[631,-1799],[1113,-1342],[6693,-2038],[2788,-689],[4784,-1182],[3673,-682],[1278,-481],[1175,-1020],[-241,-1212],[-1210,-2058],[-3051,-2957],[-2177,-1846],[-4603,-6595],[-2627,-3751],[-5219,-4237],[-4722,-3264],[-4023,-2733],[-4303,-2441],[-4277,-1880],[-7633,-2336],[-1550,-879],[-7293,-4998],[-4459,-3069]],[[780757,537476],[-1296,2760],[559,5198]],[[780020,545434],[-3505,12445],[7910,7551],[10368,4866],[6566,7887]],[[801359,578183],[-4332,5756]],[[797027,583939],[5228,-1871],[2557,-1269],[861,-1175],[-55,-1516],[-808,-1942],[-1724,-2104],[-3755,-4109],[-5957,-4033],[-5697,-3340],[-3673,-2501],[-1362,-1840],[-834,-1868],[55,-2521],[974,-3242],[1973,-3418],[137,-2843],[-555,-1453],[-3635,-5418]],[[738363,496847],[2129,4605],[12670,8525]],[[768907,520570],[9007,2636]],[[777914,523206],[-3038,-2637],[-6506,-4401],[-5300,-3912],[-6163,-4148],[-3889,-2485],[-2393,-1381],[-6299,-3103],[-1470,-1387],[-1435,-1986],[-1406,-4481]],[[740015,493285],[-1652,3562]],[[725424,426776],[-1872,2607],[17101,11776],[-2517,14557]],[[738136,455716],[4741,3456]],[[742877,459172],[859,-3976],[1099,-5091],[567,-5502],[107,-1990],[-937,-2478],[-719,-1420],[-1890,-1836],[-1150,-759],[-5394,-2705],[-2950,-1805],[-827,-1239],[-449,-1927],[180,-2737],[413,-1950],[1008,-1868],[1132,-1641],[1918,-1868],[3512,-2365]],[[739356,416015],[-5940,-367]],[[733416,415648],[-7992,11128]],[[769319,361466],[13210,4123],[3166,6864],[-2825,2235],[-21946,5313],[-4875,11098],[-10989,496]],[[745060,391595],[4856,3673]],[[749916,395268],[3199,-1140],[4981,-1047],[3451,-938],[2272,-1035],[643,-1478],[253,-1916],[-780,-2845],[229,-1456],[1469,-1022],[3204,-1022],[8756,-2204],[8523,-2618],[2470,-1106],[2096,-1944],[791,-2229],[-139,-2671],[-1170,-1776],[-3028,-2696],[-4332,-2282],[-5195,-1992],[-8290,1615]],[[478894,525459],[-61093,12814]],[[417801,538273],[-15687,3290]],[[402114,541563],[-107345,22288]],[[294769,563851],[-55239,11469]],[[239530,575320],[-51974,10791]],[[187556,586111],[-5847,10333],[-1226,4125],[1824,7245],[-22420,-493]],[[159887,607321],[-23818,36240],[-46959,71453],[6932,4933]],[[96042,719947],[172172,-16711],[120664,-11953],[113833,-11134]],[[502711,680149],[703,-28382]],[[503414,651767],[-23371,-55495]],[[480043,596272],[-8346,-32900],[162,-852]],[[471859,562520],[7035,-37061]],[[187556,586111],[11565,-20436]],[[199121,565675],[11697,-20672]],[[210818,545003],[5157,-9112],[4560,-11926],[1217,-2954]],[[221752,521011],[8365,-20296]],[[230117,500715],[-46957,-1427]],[[183160,499288],[-23273,108033]],[[226637,416543],[-6915,-22996]],[[219722,393547],[-97500,948]],[[122222,394495],[46079,78678],[14859,26115]],[[230117,500715],[5642,-14732],[3790,-21132]],[[239549,464851],[603,-3364],[-13515,-44944]],[[112992,283070],[9230,111425]],[[219722,393547],[-2968,-9870],[-1765,-10656]],[[214989,373021],[-2223,-13416],[-4272,-22661]],[[208494,336944],[-7597,-33835]],[[200897,303109],[-1561,-6950]],[[199336,296159],[-1297,-4210],[-1718,-7560]],[[210818,545003],[25689,5768]],[[236507,550771],[131366,-27981]],[[367873,522790],[-14607,-9197],[-11200,-17549]],[[342066,496044],[-120314,24967]],[[342066,496044],[23949,-4970]],[[366015,491074],[106969,-22198]],[[472984,468876],[722,-2094]],[[473706,466782],[-24920,5178]],[[448786,471960],[-37325,7757]],[[411461,479717],[-29593,6149]],[[381868,485866],[-37276,7747]],[[344592,493613],[-36927,7674]],[[307665,501287],[-27646,5745]],[[280019,507032],[-52468,10903],[11290,-28692]],[[238841,489243],[665,-1688],[3923,-22160],[30569,-6802]],[[273998,458593],[33848,-7532]],[[307846,451061],[37996,-8455]],[[345842,442606],[37494,-8343]],[[383336,434263],[30530,-6793]],[[413866,427470],[29864,-6646]],[[443730,420824],[41209,-9170]],[[484939,411654],[-1034,-1290]],[[483905,410364],[-79328,17706],[-105038,23337],[-59990,13444]],[[404240,375904],[-120544,27581],[-57059,13058]],[[483905,410364],[-11842,-14758],[-67823,-19702]],[[548526,312135],[-34621,5309]],[[513905,317444],[-30027,4776],[-31726,4894]],[[452152,327114],[-37188,5737]],[[414964,332851],[-39996,6171]],[[374968,339022],[-10269,1584],[-76171,16406],[-73539,16009]],[[404240,375904],[-4318,-1255],[54778,-10009]],[[454700,364640],[-7500,-11335],[-10185,-15749],[102708,4110],[3059,-10825],[5744,-18706]],[[374968,339022],[-18608,-34423]],[[356360,304599],[-6360,996],[-141506,31349]],[[349045,262735],[-58957,13035],[-90752,20389]],[[200897,303109],[45957,-7996],[69122,-19851],[33069,-12527]],[[349045,262735],[18993,-2787]],[[771895,539498],[3444,19867],[11915,16133],[-17217,13411],[41329,55375]],[[811366,644284],[11476,-430]],[[822842,643854],[4843,-966]],[[804738,608113],[-3704,-62],[-7799,-7347]],[[790829,599095],[-13035,-8716],[23565,-12196]],[[780020,545434],[-4493,-6614]],[[822842,643854],[-2559,3838],[2612,8344]],[[790985,595940],[210,-4253],[5832,-7748]],[[780757,537476],[5547,-11815],[-8390,-2455]],[[725424,426776],[-19643,3292]],[[705781,430068],[-181,445],[8476,8763],[10581,47717],[17263,25097]],[[738363,496847],[-5342,-11554],[5115,-29577]],[[740015,493285],[491,-1061],[4259,-10330],[366,-21080],[-2254,-1642]],[[769319,361466],[-49741,8384]],[[733416,415648],[11644,-24053]],[[739356,416015],[5063,314],[8734,-8287],[6226,-5615],[-9463,-7159]],[[769319,361466],[-8105,-10249],[-973,-9695],[-5361,-8200],[-7328,-18679]],[[747552,314643],[-53915,9535]],[[760418,280708],[-1953,-1366]],[[758465,279342],[-83852,12994]],[[747552,314643],[1477,-19164],[13929,-4897]],[[762958,290582],[-19498,-2758],[2154,-3178],[189,-2960],[14615,-978]],[[762958,290582],[3875,-1362],[1547,-2948],[-7962,-5564]],[[758465,279342],[-18791,-13135]],[[697101,431522],[9208,9238],[3995,19286]],[[710304,460046],[5837,28183]],[[716141,488229],[17614,25438]],[[733755,513667],[4873,7037],[25472,20298]],[[764100,541002],[3327,17968],[11225,16073],[-17260,13467],[34368,46436],[5149,7202]],[[800909,642148],[2326,4345]],[[803235,646493],[583,16521],[8749,29177]],[[812567,692191],[12733,42464]],[[825300,734655],[2485,8286],[8093,7994]],[[835878,750935],[5039,4976]],[[840917,755911],[556,-2574],[-3714,-9434]],[[837759,743903],[-1690,-1632],[-2548,-8469]],[[833521,733802],[-12815,-42597]],[[820706,691205],[-8638,-28710],[-702,-18211]],[[526286,517761],[-39312,6161]],[[486974,523922],[-6924,38258]],[[480050,562180],[191882,-36691]],[[671932,525489],[-57193,-21423],[101402,-15837]],[[710304,460046],[-29098,-2128],[-47227,18744],[-63305,50400],[-37722,419],[-6666,-9720]],[[733755,513667],[-61823,11822]],[[671932,525489],[58477,21903]],[[730409,547392],[33691,-6390]],[[730409,547392],[-60232,11809]],[[670177,559201],[-90087,17469],[-75701,14704],[-16220,3287]],[[488169,594661],[24002,56021]],[[512171,650682],[1573,-78],[101701,-12322],[28717,-3331],[9767,25067]],[[653929,660018],[136790,-16457],[10190,-1413]],[[653929,660018],[-142886,17202],[1128,-26538]],[[512171,650682],[-8757,1085]],[[502711,680149],[-10,385],[-23579,45107]],[[479122,725641],[8051,-494]],[[487173,725147],[23100,-43105],[239714,-29088]],[[749987,652954],[53248,-6461]],[[366015,491074],[51786,47199]],[[478894,525459],[-5910,-56583]],[[625926,385736],[-134171,22823]],[[491755,408559],[7394,9454],[-17680,49647]],[[481469,467660],[70,-11],[73509,-12321],[86589,-14511]],[[641637,440817],[-15711,-55081]],[[481469,467660],[-373,1046],[2274,23483],[3088,28815],[516,2918]],[[526286,517761],[-1271,-5496],[11728,-28364],[36499,-15141],[68395,-27943]],[[697101,431522],[-55464,9295]],[[709883,371455],[-83957,14281]],[[715955,362980],[-26520,4188],[-50591,7657],[-12918,10911]],[[687260,327501],[-267165,47765],[59080,17204],[12580,16089]],[[685543,325341],[-149072,26933],[-132231,23630]],[[483905,410364],[7850,-1805]],[[683788,323390],[-97758,17729],[-131330,23521]],[[666322,293674],[-117796,18461]],[[560675,272568],[-12149,39567]],[[488169,594661],[-8126,1611]],[[488169,594661],[-5603,-21860]],[[482566,572801],[-2601,-10147],[85,-474]],[[480050,562180],[-8191,340]],[[481469,467660],[-8485,1216]],[[443730,420824],[15437,22738]],[[459167,443562],[24269,-5032]],[[483436,438530],[6928,-20116],[-5425,-6760]],[[483436,438530],[-9730,28252]],[[518598,279131],[-4693,38313]],[[482566,572801],[187611,-13600]],[[418387,260335],[16284,32005]],[[434671,292340],[38464,-6154],[45463,-7055]],[[434671,292340],[17481,34774]],[[356360,304599],[40046,-6269]],[[396406,298330],[38265,-5990]],[[396406,298330],[18558,34521]],[[238841,489243],[25585,-5305]],[[264426,483938],[23364,-4844]],[[287790,479094],[-13792,-20501]],[[280019,507032],[-15593,-23094]],[[459167,443562],[-25888,5367]],[[433279,448929],[15507,23031]],[[321972,472007],[-14126,-20946]],[[287790,479094],[4308,-893]],[[292098,478201],[29874,-6194]],[[360350,464050],[-14508,-21444]],[[321972,472007],[7064,-1465]],[[329036,470542],[31314,-6492]],[[360350,464050],[6021,-1248]],[[366371,462802],[29430,-6102]],[[395801,456700],[2307,-479]],[[398108,456221],[-14772,-21958]],[[428970,449823],[-15104,-22353]],[[398108,456221],[30862,-6398]],[[428970,449823],[4309,-894]],[[395801,456700],[15660,23017]],[[366371,462802],[15497,23064]],[[329036,470542],[15556,23071]],[[292098,478201],[15567,23086]],[[367873,522790],[34241,18773]],[[239530,575320],[-40409,-9645]],[[294769,563851],[-58262,-13080]],[[847329,714977],[-4540,2332],[-3863,16006]],[[838926,733315],[1857,7676],[12954,3627],[11230,4725],[4268,5888],[2879,7145],[-50,349]],[[872064,762725],[-1480,10589],[7448,6577],[7643,10481],[-3963,10437]],[[881712,800809],[2579,4262],[3254,4739]],[[887545,809810],[4398,-1027]],[[891943,808783],[-3474,-1616],[-1125,-1222],[-432,-1407],[230,-3319],[-603,-4038],[1581,-2070],[2386,-2895],[230,-1514],[-1495,-2015],[-2702,-5783],[-1527,-2361],[-7390,-7079],[-920,-1535],[345,-2025],[1065,-4644],[344,-2160],[0,-2024],[-1151,-3031],[-1666,-2880],[-2791,-3559],[-2447,-2745],[-2500,-1679],[-3023,-1304],[-6638,-2527],[-11250,-3863],[-2365,-1255],[-1005,-992],[-230,-1616],[230,-4741],[950,-4586],[574,-6181],[748,-3256],[1437,-1884]],[[979328,888054],[-33592,3977],[-10700,1149],[-50259,5855]],[[884777,899035],[13768,10941],[4351,9160],[-7413,7832],[-32426,22022],[-9577,6956]],[[853480,955946],[28635,-7226],[23771,-6080],[3347,-856]],[[909233,941784],[4293,-6562],[58951,-15680],[15135,-3927],[2485,-8717],[-10769,-18844]],[[874804,900211],[-55920,6592],[-90063,10814]],[[728821,917617],[-126396,15176]],[[602425,932793],[49381,47148]],[[651806,979941],[1814,123],[97150,-7314],[42847,-1697],[7141,-1802]],[[800758,969251],[227,-36241],[75018,-31847]],[[876003,901163],[-1199,-952]],[[602425,932793],[-39111,4696]],[[563314,937489],[85,11437],[3267,25371]],[[566666,974297],[1632,-26],[83508,5670]],[[563314,937489],[-7583,910]],[[555731,938399],[67,8043],[-42548,-4123]],[[513250,942319],[-23795,2097]],[[489455,944416],[66880,6563],[2541,23443]],[[558876,974422],[7790,-125]],[[489455,944416],[-32504,2896]],[[456951,947312],[7677,32225]],[[464628,979537],[94248,-5115]],[[456951,947312],[-44372,3843],[-136416,12062],[-53516,4762]],[[222647,967979],[-4132,9601],[-3184,15035]],[[215331,992615],[133632,-7055],[115665,-6023]],[[59837,993967],[9298,6032],[46724,-6600],[31684,-250]],[[147543,993149],[-9760,-6826],[-24832,203],[-53114,7441]],[[143241,863936],[36847,104764],[-137123,1071]],[[42965,969771],[8438,18725],[8434,5471]],[[147543,993149],[67788,-534]],[[222647,967979],[10681,-24825],[453,-7107]],[[233781,936047],[1931,-30325],[-922,-4540]],[[234790,901182],[-43133,-17636],[-48416,-19610]],[[42965,969771],[-5441,-29018],[-25828,-14963],[-3074,-11525],[11881,-15097],[-10314,-35433],[-8405,223],[10255,34009],[-12039,15712],[3603,14252],[25997,14856],[5424,27046],[7941,-62]],[[143551,859093],[-1295,2044],[985,2799]],[[234790,901182],[-1085,-5345]],[[233705,895837],[-90154,-36744]],[[170333,816783],[33168,-11132]],[[203501,805651],[-3025,-8935]],[[200476,796716],[-10900,-10334]],[[189576,786382],[-19243,30401]],[[330012,926365],[-49759,5010],[-46472,4672]],[[489455,944416],[-81463,-7994],[-71436,-8866],[-6544,-1191]],[[238312,902622],[-3522,-1440]],[[330012,926365],[-60609,-11031],[-31091,-12712]],[[212908,833436],[-9407,-27785]],[[170333,816783],[-26782,42310]],[[233705,895837],[-219,-1081],[-7198,-22216]],[[226288,872540],[-2553,-7882],[-10827,-31222]],[[509629,872766],[-18816,-27392]],[[490813,845374],[-77632,7921]],[[413181,853295],[-40981,4181]],[[372200,857476],[-145912,15064]],[[233705,895837],[14081,5740]],[[247786,901577],[228990,-25256]],[[476776,876321],[32853,-3555]],[[372200,857476],[-43275,-35446]],[[328925,822030],[-116017,11406]],[[482764,768347],[-112415,11312]],[[370349,779659],[-169873,17057]],[[328925,822030],[57718,-5674]],[[386643,816356],[79188,-7785]],[[465831,808571],[18345,-23679],[-1412,-16545]],[[177766,778006],[11810,8376]],[[370349,779659],[-10049,-10180],[-11730,-8252],[-170804,16779]],[[152684,760251],[25082,17755]],[[482764,768347],[-3642,-42706]],[[479122,725641],[-31943,3252],[-104730,11188],[-76464,8032],[-113301,12138]],[[872499,815605],[3342,6802]],[[875841,822407],[3458,7039],[-875,408]],[[878424,829854],[31256,-3252]],[[909680,826602],[-4857,-1571]],[[904823,825031],[-18122,1834],[-3945,-8149]],[[882756,818716],[-6758,-1609],[-3499,-1502]],[[904823,825031],[-9842,-3404],[-12225,-2911]],[[881206,815514],[-7071,-14604]],[[874135,800910],[-8394,942]],[[865741,801852],[4704,9574]],[[870445,811426],[6917,3152],[3844,936]],[[881712,800809],[-7577,101]],[[881206,815514],[15621,3804],[14034,4858]],[[910861,824176],[12207,-1269]],[[923068,822907],[-19578,-9726],[-14451,-1195],[-1494,-2176]],[[852989,764822],[-8096,872]],[[844893,765694],[3975,9781]],[[848868,775475],[16873,26377]],[[874135,800910],[-17586,-27313],[-3560,-8775]],[[872064,762725],[-7815,885],[-11260,1212]],[[840917,755911],[3976,9783]],[[852989,764822],[-4146,-10220],[-11084,-10699]],[[838926,733315],[-5405,487]],[[820706,691205],[17051,-1752]],[[828266,683729],[-2910,-1756],[3635,-6465],[-1750,-5589]],[[838926,733315],[755,-15724],[11661,-15643]],[[847329,714977],[13945,-7160],[-5239,-3096]],[[923068,822907],[14165,7061]],[[937233,829968],[-943,-4409]],[[936290,825559],[-1029,-4803],[-10148,-1310]],[[925113,819446],[-8372,-1081],[-3837,-4654]],[[912904,813711],[-7018,-7846],[-251,-281],[-13692,3199]],[[881206,815514],[1550,3202]],[[904823,825031],[6038,-855]],[[870445,811426],[2054,4179]],[[830056,780801],[15633,23300]],[[845689,804101],[6967,-782]],[[852656,803319],[-1679,-765],[-14487,-23574]],[[836490,778980],[-6434,1821]],[[848868,775475],[-12378,3505]],[[852656,803319],[13085,-1467]],[[838656,766365],[-5677,612]],[[832979,766977],[-4006,12210],[1083,1614]],[[836490,778980],[-415,-676],[2581,-11939]],[[844893,765694],[-6237,671]],[[513250,942319],[-102122,-9896],[-53136,-6353],[-11645,-1493]],[[346347,924577],[-16335,1788]],[[247786,901577],[-9474,1045]],[[346347,924577],[-5713,-732],[-68055,-12164],[-24793,-10104]],[[787204,877625],[-192633,21696],[-40493,4417]],[[554078,903738],[1374,908],[279,33753]],[[563314,937489],[-238,-32098],[101534,-11554]],[[664610,893837],[116027,-13202],[6567,-3010]],[[728821,917617],[-64211,-23780]],[[874804,900211],[-17567,-13952],[-4567,-11967],[6661,-844],[6530,10555],[18916,15032]],[[979328,888054],[-2844,-4977]],[[976484,883077],[-1112,-1946]],[[975372,881131],[-16759,-21826]],[[958613,859305],[-116267,12248],[-55142,6072]],[[878424,829854],[-21439,9980]],[[856985,839834],[-25972,12060],[-53156,24326],[-67174,7661]],[[710683,883881],[-35312,4027],[-104010,12040]],[[571361,899948],[-11408,1321],[-24646,-16553]],[[535307,884716],[-16103,-10816],[-1504,-2190]],[[517700,871710],[-8071,1056]],[[509629,872766],[1755,2553],[21252,14255],[21442,14164]],[[787204,877625],[37185,-17038],[63613,-29432],[26484,-2850]],[[914486,828305],[-4806,-1703]],[[958613,859305],[-1735,-2259],[-13460,-9414],[-27337,-18761],[-1595,-566]],[[884777,899035],[-5207,614]],[[879570,899649],[-3567,1514]],[[876003,901163],[14289,11348],[2715,5817],[-4530,6007],[-36670,26036],[-12668,9194]],[[839139,959565],[14341,-3619]],[[874804,900211],[4766,-562]],[[800758,969251],[38381,-9686]],[[554078,903738],[-67414,6726]],[[486664,910464],[-131873,13379],[-8444,734]],[[513250,942319],[36996,-3261],[5485,-659]],[[476776,876321],[20723,9814],[-18108,5803],[7273,18526]],[[386643,816356],[26538,36939]],[[490813,845374],[-16313,-23747],[-8669,-13056]],[[490813,845374],[8229,-840]],[[499042,844534],[-24307,-35874],[328,-424]],[[475063,808236],[251,-325]],[[475314,807911],[-9483,660]],[[490928,767816],[-8164,531]],[[475314,807911],[17187,-22231],[-1573,-17864]],[[490928,767816],[-3755,-42669]],[[96042,719947],[56642,40304]],[[711297,849180],[-193597,22530]],[[535307,884716],[18888,-2322],[17166,17554]],[[710683,883881],[614,-34701]],[[856985,839834],[-76780,7698],[-61905,7548],[-7003,-5900]],[[875841,822407],[-128776,16203],[-92417,11819],[-57388,-17280]],[[597260,833149],[-51520,5972]],[[545740,839121],[-46698,5413]],[[499042,844534],[18658,27176]],[[711297,849180],[134082,-15639],[33045,-3687]],[[840917,755911],[-2261,10454]],[[825300,734655],[-44612,4474],[-107972,10740]],[[672716,749869],[-181788,17947]],[[475063,808236],[39209,-4615],[86242,-9919]],[[600514,793702],[91223,-10492]],[[691737,783210],[141242,-16233]],[[832979,766977],[4230,-12893],[-1331,-3149]],[[749987,652954],[-60819,29210],[-104022,22269],[-57918,12353],[-21442,4425],[-18613,3936]],[[487173,725147],[37096,-3757]],[[524269,721390],[158221,-16025]],[[682490,705365],[130077,-13174]],[[691737,783210],[7643,20185]],[[699380,803395],[83846,-9381],[46830,-13213]],[[699380,803395],[42014,13046]],[[741394,816441],[104295,-12340]],[[845689,804101],[26810,11504]],[[870445,811426],[-17789,-8107]],[[741394,816441],[-143798,16669]],[[597596,833110],[-336,39]],[[691737,783210],[-94141,49900]],[[545740,839121],[54774,-45419]],[[672716,749869],[-148447,-28479]],[[682490,705365],[-9774,44504]],[[914486,828305],[5720,-603]],[[920206,827702],[1079,-114],[19010,9912],[6211,5938]],[[946506,843438],[16148,15437]],[[962654,858875],[12718,22256]],[[976484,883077],[3760,5042],[14269,11999]],[[994513,900118],[-6966,-12231],[-10380,-17698]],[[977167,870189],[-7882,-13438],[-21606,-20933]],[[947679,835818],[-1364,-1322],[-9082,-4528]],[[947679,835818],[6621,2285],[11824,9255],[14984,21423],[-3941,1408]],[[994513,900118],[3637,6857]],[[998150,906975],[1849,-5881],[-4224,-4402],[-1943,-2544],[-692,-2137],[-335,-1247],[-1769,-5095],[-5298,-13046],[-1018,-2962],[-187,-2282],[2315,-4919],[-556,-2292],[-561,-1200],[-2823,-2936],[-9122,-7764],[-4083,-4241],[-2869,-2137],[-12826,-7040],[-9725,-5082],[-7993,-4209]],[[925113,819446],[-6405,-3245],[-5804,-2490]],[[909233,941784],[10212,-2745],[343,-403],[74655,-19876],[3707,-11785]],[[962654,858875],[-4041,430]],[[920206,827702],[26300,15736]]],"bbox":[1.314,407.642,1379.726,2881.933],"transform":{"scale":[0.0013784133784133783,0.0024742934742934745],"translate":[1.314,407.642]}}