{"type":"Topology","objects":{"01206-4600-53.featurecollection":{"type":"GeometryCollection","geometries":[{"type":"Polygon","arcs":[[0,1,2]],"properties":{"市区町村名":"釧路市","大字名":"新野","丁目名":null,"小字名":null,"地番":"30-1","精度区分":null,"座標系":"任意座標系"}},{"type":"Polygon","arcs":[[3,4]],"properties":{"市区町村名":"釧路市","大字名":"新野","丁目名":null,"小字名":null,"地番":"無地番-1","精度区分":null,"座標系":"任意座標系"}},{"type":"Polygon","arcs":[[5,6]],"properties":{"市区町村名":"釧路市","大字名":"新野","丁目名":null,"小字名":null,"地番":"道-6","精度区分":null,"座標系":"任意座標系"}},{"type":"Polygon","arcs":[[7,8,9]],"properties":{"市区町村名":"釧路市","大字名":"新野","丁目名":null,"小字名":null,"地番":"道-7","精度区分":null,"座標系":"任意座標系"}},{"type":"Polygon","arcs":[[10,11]],"properties":{"市区町村名":"釧路市","大字名":"新野","丁目名":null,"小字名":null,"地番":"道-8","精度区分":null,"座標系":"任意座標系"}},{"type":"Polygon","arcs":[[12,13]],"properties":{"市区町村名":"釧路市","大字名":"新野","丁目名":null,"小字名":null,"地番":"道-18","精度区分":null,"座標系":"任意座標系"}},{"type":"Polygon","arcs":[[14,15,16]],"properties":{"市区町村名":"釧路市","大字名":"新野","丁目名":null,"小字名":null,"地番":"道-19","精度区分":null,"座標系":"任意座標系"}},{"type":"Polygon","arcs":[[17,18,19,20]],"properties":{"市区町村名":"釧路市","大字名":"新野","丁目名":null,"小字名":null,"地番":"道-20","精度区分":null,"座標系":"任意座標系"}},{"type":"Polygon","arcs":[[21,-15,22]],"properties":{"市区町村名":"釧路市","大字名":"新野","丁目名":null,"小字名":null,"地番":"水-5","精度区分":null,"座標系":"任意座標系"}},{"type":"Polygon","arcs":[[23,24,25]],"properties":{"市区町村名":"釧路市","大字名":"美濃","丁目名":null,"小字名":null,"地番":"28-2","精度区分":null,"座標系":"任意座標系"}},{"type":"Polygon","arcs":[[26,27]],"properties":{"市区町村名":"釧路市","大字名":"美濃","丁目名":null,"小字名":null,"地番":"道-9","精度区分":null,"座標系":"任意座標系"}},{"type":"Polygon","arcs":[[28,29]],"properties":{"市区町村名":"釧路市","大字名":"美濃","丁目名":null,"小字名":null,"地番":"道-11","精度区分":null,"座標系":"任意座標系"}},{"type":"Polygon","arcs":[[30,31,32,33,34]],"properties":{"市区町村名":"釧路市","大字名":"鶴丘","丁目名":null,"小字名":null,"地番":"5-1","精度区分":null,"座標系":"任意座標系"}},{"type":"Polygon","arcs":[[35,36,37,38,39,40]],"properties":{"市区町村名":"釧路市","大字名":"鶴丘","丁目名":null,"小字名":null,"地番":"5-2","精度区分":null,"座標系":"任意座標系"}},{"type":"Polygon","arcs":[[41,42,-41,43]],"properties":{"市区町村名":"釧路市","大字名":"鶴丘","丁目名":null,"小字名":null,"地番":"5-3","精度区分":null,"座標系":"任意座標系"}},{"type":"Polygon","arcs":[[44,-34,45,46,47,48,-42]],"properties":{"市区町村名":"釧路市","大字名":"鶴丘","丁目名":null,"小字名":null,"地番":"5-4","精度区分":null,"座標系":"任意座標系"}},{"type":"Polygon","arcs":[[49,-44,-40,50,51,52]],"properties":{"市区町村名":"釧路市","大字名":"鶴丘","丁目名":null,"小字名":null,"地番":"5-5","精度区分":null,"座標系":"任意座標系"}},{"type":"Polygon","arcs":[[-50,53,54,55,-35,-45]],"properties":{"市区町村名":"釧路市","大字名":"鶴丘","丁目名":null,"小字名":null,"地番":"5-6","精度区分":null,"座標系":"任意座標系"}},{"type":"Polygon","arcs":[[-39,56,57,58]],"properties":{"市区町村名":"釧路市","大字名":"鶴丘","丁目名":null,"小字名":null,"地番":"5-7","精度区分":null,"座標系":"任意座標系"}},{"type":"Polygon","arcs":[[-31,-56,59,60]],"properties":{"市区町村名":"釧路市","大字名":"鶴丘","丁目名":null,"小字名":null,"地番":"5-8","精度区分":null,"座標系":"任意座標系"}},{"type":"Polygon","arcs":[[61,62,-54,-53]],"properties":{"市区町村名":"釧路市","大字名":"鶴丘","丁目名":null,"小字名":null,"地番":"5-9","精度区分":null,"座標系":"任意座標系"}},{"type":"Polygon","arcs":[[-51,-59,63,64]],"properties":{"市区町村名":"釧路市","大字名":"鶴丘","丁目名":null,"小字名":null,"地番":"5-10","精度区分":null,"座標系":"任意座標系"}},{"type":"Polygon","arcs":[[-65,65,-62,-52]],"properties":{"市区町村名":"釧路市","大字名":"鶴丘","丁目名":null,"小字名":null,"地番":"5-11","精度区分":null,"座標系":"任意座標系"}},{"type":"Polygon","arcs":[[66,67,-48]],"properties":{"市区町村名":"釧路市","大字名":"鶴丘","丁目名":null,"小字名":null,"地番":"6-1","精度区分":null,"座標系":"任意座標系"}},{"type":"Polygon","arcs":[[-43,68,69,-36]],"properties":{"市区町村名":"釧路市","大字名":"鶴丘","丁目名":null,"小字名":null,"地番":"6-2","精度区分":null,"座標系":"任意座標系"}},{"type":"Polygon","arcs":[[-68,70,-69,-49]],"properties":{"市区町村名":"釧路市","大字名":"鶴丘","丁目名":null,"小字名":null,"地番":"6-3","精度区分":null,"座標系":"任意座標系"}},{"type":"Polygon","arcs":[[-38,71,-20,72,73,74,75]],"properties":{"市区町村名":"釧路市","大字名":"鶴丘","丁目名":null,"小字名":null,"地番":"7-1","精度区分":null,"座標系":"任意座標系"}},{"type":"Polygon","arcs":[[-76,76,-57]],"properties":{"市区町村名":"釧路市","大字名":"鶴丘","丁目名":null,"小字名":null,"地番":"7-2","精度区分":null,"座標系":"任意座標系"}},{"type":"Polygon","arcs":[[77,78,-2,79,-46,-33,80]],"properties":{"市区町村名":"釧路市","大字名":"鶴丘","丁目名":null,"小字名":null,"地番":"道-3","精度区分":null,"座標系":"任意座標系"}},{"type":"Polygon","arcs":[[-60,-55,-63,-66,-64,-58,-77,-75,81,82]],"properties":{"市区町村名":"釧路市","大字名":"鶴丘","丁目名":null,"小字名":null,"地番":"道-4","精度区分":null,"座標系":"任意座標系"}},{"type":"Polygon","arcs":[[-19,83,-73]],"properties":{"市区町村名":"釧路市","大字名":"鶴丘","丁目名":null,"小字名":null,"地番":"道-21","精度区分":null,"座標系":"任意座標系"}},{"type":"Polygon","arcs":[[84,85,86]],"properties":{"市区町村名":"釧路市","大字名":"山花","丁目名":null,"小字名":null,"地番":"20-2","精度区分":null,"座標系":"任意座標系"}},{"type":"Polygon","arcs":[[87,-85,88]],"properties":{"市区町村名":"釧路市","大字名":"山花","丁目名":null,"小字名":null,"地番":"20-3","精度区分":null,"座標系":"任意座標系"}},{"type":"Polygon","arcs":[[89,-89,-87,90,-83,91,92]],"properties":{"市区町村名":"釧路市","大字名":"山花","丁目名":null,"小字名":null,"地番":"道-14","精度区分":null,"座標系":"任意座標系"}},{"type":"Polygon","arcs":[[93,-25,94,95,96,97]],"properties":{"市区町村名":"釧路市","大字名":"美濃","丁目名":null,"小字名":null,"地番":"28-1","精度区分":null,"座標系":"任意座標系"}},{"type":"Polygon","arcs":[[98,99,100]],"properties":{"市区町村名":"釧路市","大字名":"美濃","丁目名":null,"小字名":null,"地番":"29-1","精度区分":null,"座標系":"任意座標系"}},{"type":"Polygon","arcs":[[101,102,103,-99,104]],"properties":{"市区町村名":"釧路市","大字名":"美濃","丁目名":null,"小字名":null,"地番":"29-2","精度区分":null,"座標系":"任意座標系"}},{"type":"Polygon","arcs":[[-94,105,106,107,-102,108,-26]],"properties":{"市区町村名":"釧路市","大字名":"美濃","丁目名":null,"小字名":null,"地番":"道-12","精度区分":null,"座標系":"任意座標系"}},{"type":"Polygon","arcs":[[-101,109,-95,-24,-109,-105]],"properties":{"市区町村名":"釧路市","大字名":"美濃","丁目名":null,"小字名":null,"地番":"水-2","精度区分":null,"座標系":"任意座標系"}},{"type":"Polygon","arcs":[[-97,-78,110,111]],"properties":{"市区町村名":"釧路市","大字名":"山花","丁目名":null,"小字名":null,"地番":"道-15","精度区分":null,"座標系":"任意座標系"}},{"type":"Polygon","arcs":[[-3,-79,-96,112]],"properties":{"市区町村名":"釧路市","大字名":"新野","丁目名":null,"小字名":null,"地番":"30-2","精度区分":null,"座標系":"任意座標系"}},{"type":"Polygon","arcs":[[-106,-98,-112,113,114]],"properties":{"市区町村名":"釧路市","大字名":"山花","丁目名":null,"小字名":null,"地番":"道-13","精度区分":null,"座標系":"任意座標系"}},{"type":"Polygon","arcs":[[115,-103,116]],"properties":{"市区町村名":"釧路市","大字名":"新野","丁目名":null,"小字名":null,"地番":"31-3","精度区分":null,"座標系":"任意座標系"}},{"type":"Polygon","arcs":[[-116,117,118,-100,-104]],"properties":{"市区町村名":"釧路市","大字名":"新野","丁目名":null,"小字名":null,"地番":"31-2","精度区分":null,"座標系":"任意座標系"}},{"type":"Polygon","arcs":[[-110,-119,119,-113]],"properties":{"市区町村名":"釧路市","大字名":"新野","丁目名":null,"小字名":null,"地番":"水-4","精度区分":null,"座標系":"任意座標系"}},{"type":"Polygon","arcs":[[-120,120,-47,-80,-1]],"properties":{"市区町村名":"釧路市","大字名":"新野","丁目名":null,"小字名":null,"地番":"30-3","精度区分":null,"座標系":"任意座標系"}},{"type":"Polygon","arcs":[[121,122]],"properties":{"市区町村名":"釧路市","大字名":"新野","丁目名":null,"小字名":null,"地番":"31-8","精度区分":null,"座標系":"任意座標系"}},{"type":"Polygon","arcs":[[123,124,125,-122]],"properties":{"市区町村名":"釧路市","大字名":"新野","丁目名":null,"小字名":null,"地番":"31-7","精度区分":null,"座標系":"任意座標系"}},{"type":"Polygon","arcs":[[126,127]],"properties":{"市区町村名":"釧路市","大字名":"新野","丁目名":null,"小字名":null,"地番":"31-6","精度区分":null,"座標系":"任意座標系"}},{"type":"Polygon","arcs":[[128,129,130,131]],"properties":{"市区町村名":"釧路市","大字名":"新野","丁目名":null,"小字名":null,"地番":"31-5","精度区分":null,"座標系":"任意座標系"}},{"type":"Polygon","arcs":[[-131,132,133,134,-37,135,-125,136,-127,137,138,139]],"properties":{"市区町村名":"釧路市","大字名":"新野","丁目名":null,"小字名":null,"地番":"31-4","精度区分":null,"座標系":"任意座標系"}},{"type":"Polygon","arcs":[[140,-139,141,-123,142,-71]],"properties":{"市区町村名":"釧路市","大字名":"新野","丁目名":null,"小字名":null,"地番":"31-11","精度区分":null,"座標系":"任意座標系"}},{"type":"Polygon","arcs":[[-117,-108,143,-4,144,-13,145,-132,-140,-141,-67,-121,-118]],"properties":{"市区町村名":"釧路市","大字名":"新野","丁目名":null,"小字名":null,"地番":"31-1","精度区分":null,"座標系":"任意座標系"}},{"type":"Polygon","arcs":[[-138,-128,-137,-124,-142]],"properties":{"市区町村名":"釧路市","大字名":"新野","丁目名":null,"小字名":null,"地番":"31-10","精度区分":null,"座標系":"任意座標系"}},{"type":"Polygon","arcs":[[-70,-143,-126,-136]],"properties":{"市区町村名":"釧路市","大字名":"新野","丁目名":null,"小字名":null,"地番":"31-9","精度区分":null,"座標系":"任意座標系"}},{"type":"Polygon","arcs":[[146,147,148,-134]],"properties":{"市区町村名":"釧路市","大字名":"新野","丁目名":null,"小字名":null,"地番":"32-3","精度区分":null,"座標系":"任意座標系"}},{"type":"Polygon","arcs":[[-149,149,-23,-17,150,-21,-72,-135]],"properties":{"市区町村名":"釧路市","大字名":"新野","丁目名":null,"小字名":null,"地番":"32-1","精度区分":null,"座標系":"任意座標系"}},{"type":"Polygon","arcs":[[151,-147,-133,-130]],"properties":{"市区町村名":"釧路市","大字名":"新野","丁目名":null,"小字名":null,"地番":"32-2","精度区分":null,"座標系":"任意座標系"}},{"type":"Polygon","arcs":[[-8,152,153,154,155]],"properties":{"市区町村名":"釧路市","大字名":"新野","丁目名":null,"小字名":null,"地番":"33-3","精度区分":null,"座標系":"任意座標系"}},{"type":"Polygon","arcs":[[156,157,158,-9,-156,159,-6]],"properties":{"市区町村名":"釧路市","大字名":"新野","丁目名":null,"小字名":null,"地番":"33-1","精度区分":null,"座標系":"任意座標系"}},{"type":"Polygon","arcs":[[160,-11,161,-154]],"properties":{"市区町村名":"釧路市","大字名":"新野","丁目名":null,"小字名":null,"地番":"33-2","精度区分":null,"座標系":"任意座標系"}},{"type":"Polygon","arcs":[[-93,162,163,164]],"properties":{"市区町村名":"釧路市","大字名":"山花","丁目名":null,"小字名":null,"地番":"20-5","精度区分":null,"座標系":"任意座標系"}},{"type":"Polygon","arcs":[[-29,165,-27,166,-158,167,168,169,170,171]],"properties":{"市区町村名":"釧路市","大字名":"美濃","丁目名":null,"小字名":null,"地番":"30-1","精度区分":null,"座標系":"任意座標系"}},{"type":"Polygon","arcs":[[172,-171]],"properties":{"市区町村名":"釧路市","大字名":"美濃","丁目名":null,"小字名":null,"地番":"30-2","精度区分":null,"座標系":"任意座標系"}},{"type":"Polygon","arcs":[[-169,173]],"properties":{"市区町村名":"釧路市","大字名":"美濃","丁目名":null,"小字名":null,"地番":"道-10","精度区分":null,"座標系":"任意座標系"}},{"type":"Polygon","arcs":[[-111,-81,-32,174,175,176,-114]],"properties":{"市区町村名":"釧路市","大字名":"山花","丁目名":null,"小字名":null,"地番":"20-1","精度区分":null,"座標系":"任意座標系"}},{"type":"Polygon","arcs":[[177,-176,178,179]],"properties":{"市区町村名":"釧路市","大字名":"山花","丁目名":null,"小字名":null,"地番":"20-7","精度区分":null,"座標系":"任意座標系"}},{"type":"Polygon","arcs":[[180,181,182,-164]],"properties":{"市区町村名":"釧路市","大字名":"山花","丁目名":null,"小字名":null,"地番":"20-8","精度区分":null,"座標系":"任意座標系"}},{"type":"Polygon","arcs":[[-182,183,184,185]],"properties":{"市区町村名":"釧路市","大字名":"山花","丁目名":null,"小字名":null,"地番":"20-6","精度区分":null,"座標系":"任意座標系"}},{"type":"Polygon","arcs":[[-185,186,-180,187]],"properties":{"市区町村名":"釧路市","大字名":"山花","丁目名":null,"小字名":null,"地番":"20-9","精度区分":null,"座標系":"任意座標系"}},{"type":"Polygon","arcs":[[-183,-186,-188,-179,-175,-61,-91,-86,-88,-90,-165]],"properties":{"市区町村名":"釧路市","大字名":"山花","丁目名":null,"小字名":null,"地番":"20-4","精度区分":null,"座標系":"任意座標系"}}]}},"arcs":[[[243426,614161],[-13283,-30899],[-21405,-20796]],[[208738,562466],[12662,60010]],[[221400,622476],[22026,-8315]],[[455533,539617],[-10805,-5514],[-11914,3527],[-15811,11309],[-10844,-518],[-20318,11699],[-4055,7035]],[[381786,567155],[73747,-27538]],[[858308,282945],[-760,-3556],[-49863,18277]],[[807685,297666],[-2599,6177],[2959,13688],[3551,-1342],[-3081,-14381],[49793,-18863]],[[906588,260948],[440,2061]],[[907028,263009],[377,1764]],[[907405,264773],[6926,-2578],[-798,-3730],[-6945,2483]],[[863501,63679],[915,-333]],[[864416,63346],[6819,-2478],[-895,-4182],[-6649,2510],[473,2156],[-663,2327]],[[526074,402803],[-23685,9146],[21658,101975]],[[524047,513924],[3019,-1249],[-20669,-97916],[28752,-10917],[-900,-4057],[-8175,3018]],[[270228,71951],[-867,-4450]],[[269361,67501],[-3160,1329],[21215,99394]],[[287416,168224],[2671,-1107],[-19859,-95166]],[[258171,285849],[-98319,36051],[-2399,-10884],[-1636,621]],[[155817,311637],[3093,14659]],[[158910,326296],[146,692]],[[159056,326988],[100015,-36782],[-900,-4357]],[[442267,7553],[9577,-3323],[-895,-4230],[-181588,67501]],[[270228,71951],[172039,-64398]],[[375983,585891],[-25436,23463],[-13836,10146],[-37097,19046],[-18397,11394]],[[281217,649940],[12198,57751]],[[293415,707691],[100400,-37546],[-17832,-84254]],[[949516,462089],[878,4110]],[[950394,466199],[6915,-2673],[-897,-4092],[-6896,2655]],[[992410,663068],[-49022,18221]],[[943388,681289],[-6808,2532],[868,4047],[62551,-23661],[-770,-3618],[-6819,2479]],[[58822,584854],[4971,23549],[7646,36226],[532,7553],[4482,22028],[1442,7321]],[[77895,681531],[141608,-52864]],[[219503,628667],[-14393,-71401]],[[205110,557266],[-25965,-28130],[-695,-680]],[[178450,528456],[-9874,9949],[-8858,8767],[-10783,4182],[-13947,5186],[-27471,10490],[-27343,10172],[-21352,7652]],[[174054,518809],[-7968,-4132],[28377,-19875]],[[194463,494802],[-1990,-9432]],[[192473,485370],[-55701,36299],[-43062,-6401],[-21459,1950],[-24783,-10116],[-4723,577]],[[42745,507679],[1882,8841]],[[44627,516520],[29816,11338],[23591,-3797],[40197,7285],[19241,-13311],[10933,5252]],[[168405,523287],[1780,-714],[3869,-3764]],[[172981,525485],[-106,-178],[1358,-941],[359,623],[4039,-3806]],[[178631,521183],[-4577,-2374]],[[168405,523287],[4576,2198]],[[172981,525485],[1343,645],[3436,1651],[690,675]],[[205110,557266],[3256,3435]],[[208366,560701],[-2650,-12560]],[[205716,548141],[-22741,-24071]],[[182975,524070],[-1332,-1329],[-3012,-1558]],[[57240,577356],[21102,-8100],[5379,-2280],[22135,-8470],[5933,489],[20635,-7742],[-231,-1071],[1391,-531],[245,1038],[13646,-5049],[9736,-4989],[8490,-7003],[7617,-7503],[-337,-660]],[[44627,516520],[1047,4766],[1658,7960]],[[47332,529246],[1032,5084]],[[48364,534330],[7776,37795],[1100,5231]],[[57240,577356],[-3758,1411],[-2765,328]],[[50717,579095],[2154,9601]],[[52871,588696],[3105,-2822],[2846,-1020]],[[42745,507679],[-6757,826]],[[35988,508505],[1728,8820]],[[37716,517325],[6438,-982],[473,177]],[[52871,588696],[20133,94661]],[[73004,683357],[4891,-1826]],[[48364,534330],[-3262,-137],[-3820,89]],[[41282,534282],[9256,44015],[179,798]],[[37716,517325],[2552,12134]],[[40268,529459],[3510,-197],[3554,-16]],[[40268,529459],[1014,4823]],[[205716,548141],[-8194,-38840]],[[197522,509301],[-14547,14769]],[[178631,521183],[17579,-18100]],[[196210,503083],[-1747,-8281]],[[197522,509301],[-1312,-6218]],[[192473,485370],[-33417,-158382]],[[158910,326296],[-50636,18877],[-750,-3640]],[[107524,341533],[-20687,-99151],[-49758,18918],[20619,98754]],[[57698,360054],[827,3975],[-43586,16602]],[[14939,380631],[3881,16908],[4462,21767],[3179,15256],[4407,21676],[2341,6617],[6318,29684],[2639,12114],[579,3026]],[[14939,380631],[-5437,2070],[871,4137],[7668,36423],[7668,36422],[4701,22327],[2967,14095],[2611,12400]],[[220272,628376],[2197,-832]],[[222469,627544],[-1069,-5068]],[[208738,562466],[-372,-1765]],[[219503,628667],[769,-291]],[[57698,360054],[-48739,18548],[-2391,-11188],[-3344,1249],[2233,11075],[-5457,2087],[767,3754],[5547,-2007],[41444,197426],[-5337,1974],[910,4391],[5506,-2004],[20833,99292]],[[69670,684651],[3334,-1294]],[[155817,311637],[-1211,440],[2075,10892],[-49157,18564]],[[135999,983086],[-4477,-21535]],[[131522,961551],[-36420,-175191],[-591,155]],[[94511,786515],[40856,196791],[632,-220]],[[139102,981952],[-4751,-23000],[-2829,2599]],[[135999,983086],[3103,-1134]],[[139488,981811],[-386,141]],[[94511,786515],[-21507,-103158]],[[69670,684651],[20672,98303],[-8172,2788],[839,4047],[8286,-3025],[40928,197807],[-8201,2948],[973,4692],[8096,-3058],[2135,10846],[3269,-1209],[-2230,-11218],[56141,-20599],[-854,-4068],[-6839,2384]],[[184713,965289],[-45225,16522]],[[244294,726070],[49121,-18379]],[[281217,649940],[-3456,2210],[-14099,-3862],[-12536,-17615],[-5392,-11948]],[[245734,618725],[-23265,8819]],[[222469,627544],[20860,98871]],[[243329,726415],[965,-345]],[[279885,643678],[-7364,-35107]],[[272521,608571],[-20424,7742]],[[252097,616313],[6016,13040],[8165,11717],[12195,3291],[1412,-683]],[[374471,578766],[-1855,-8136]],[[372616,570630],[-99618,37760]],[[272998,608390],[-477,181]],[[279885,643678],[18375,-11574],[35778,-18665],[16597,-11851],[23836,-22822]],[[244294,726070],[1003,4736]],[[245297,730806],[149577,-56134],[1462,6927],[3176,-1192],[-1478,-7294],[5292,-1957],[-840,-3993],[-5407,2002],[-21078,-99818]],[[376001,569347],[-3385,1283]],[[374471,578766],[1512,7125]],[[252097,616313],[-6363,2412]],[[220272,628376],[19870,99146]],[[240142,727522],[3187,-1107]],[[245734,618725],[-2308,-4564]],[[240142,727522],[-46990,17332],[953,4512]],[[194105,749366],[49613,-18339],[74,359],[1505,-580]],[[271886,603273],[1112,5117]],[[372616,570630],[-1077,-5066],[-99653,37709]],[[271886,603273],[-22093,8392]],[[249793,611665],[2304,4648]],[[249793,611665],[-6367,2496]],[[249793,611665],[-15152,-32818],[-28925,-30706]],[[221894,481779],[-7659,2680],[-4591,4927]],[[209644,489386],[4542,-1506],[7708,-6101]],[[221894,481779],[23914,-18760]],[[245808,463019],[-13021,5457],[-6783,3012],[-6609,3628],[-6320,4556],[-6319,4787],[-5855,5405],[-3868,4021]],[[197033,493885],[12611,-4499]],[[280492,450296],[-24427,9035]],[[256065,459331],[17591,-4703],[6836,-4332]],[[518038,366551],[-1803,-8483]],[[516235,358068],[-28454,13496],[-15344,4192]],[[472437,375756],[-67079,26580]],[[405358,402336],[84073,-22503],[28607,-13282]],[[472437,375756],[-72815,19891]],[[399622,395647],[-5575,1671]],[[394047,397318],[-37429,11359],[-23633,7207],[-23239,13983],[-21131,6652],[-18398,10783],[-25922,7056],[-31618,24564],[-20204,6448]],[[194463,494802],[2570,-917]],[[245808,463019],[1830,-1435],[8427,-2253]],[[280492,450296],[8181,-5183],[21526,-7470],[24679,-14411],[20709,-5598],[36249,-11597]],[[391836,406037],[6277,-1762]],[[398113,404275],[7245,-1939]],[[197522,509301],[13836,-13791],[5724,-4551],[7737,-4059],[154867,-58860],[6726,-3584],[6450,-7088],[4785,-8460],[466,-4633]],[[391836,406037],[-3185,5585],[-2109,4489],[-3044,2924],[-5307,3077],[-105038,40083],[-300,-1643],[-1741,667],[305,1523],[-49523,19037]],[[209644,489386],[-13434,13697]],[[376001,569347],[5785,-2192]],[[455533,539617],[68514,-25693]],[[526074,402803],[-8036,-36252]],[[399622,395647],[646,-8112],[-925,-9960],[-19320,-93615],[1061,-6066],[-515,-5688],[1269,-4845],[2851,-4403],[3577,-2470],[8761,-3241],[4326,-4064],[86018,-32461]],[[487371,220722],[-1049,-4998]],[[486322,215724],[-100177,38342],[-4937,3879],[-4530,6612],[-1836,7417],[277,5237],[20934,101936],[-1029,13027],[-977,5144]],[[486322,215724],[-44055,-208171]],[[287416,168224],[-49919,18815],[20674,98810]],[[516235,358068],[-28864,-137346]],[[906588,260948],[-1135,-5319]],[[905453,255629],[-2214,-2151],[-8646,4639],[-8718,2828],[-5775,378],[-2795,1125],[-3877,-4129],[-1730,-4772],[-12294,-57978],[-2724,-8617],[-4267,-7781],[-5921,-6362],[-5596,-4104],[-2469,-1100]],[[838427,167605],[-1610,6369]],[[836817,173974],[1434,3558],[4460,2539],[4908,5390],[3475,6323],[1967,6736],[12146,57628],[2986,7830],[5779,6602],[6882,2826],[7064,-753],[7680,-3054],[5652,-1007],[5778,-5583]],[[858308,282945],[20936,98024]],[[879244,380969],[49071,-18222]],[[928315,362747],[-20910,-97974]],[[836817,173974],[-29442,122473],[310,1219]],[[905453,255629],[-41037,-192283]],[[863501,63679],[-25074,103926]],[[184713,965289],[-7083,-33733]],[[177630,931556],[-7971,3708],[-10336,4309],[-24854,8722],[-1243,3594]],[[133226,951889],[987,4820],[5275,25102]],[[992410,663068],[-42016,-196869]],[[949516,462089],[-21201,-99342]],[[879244,380969],[21200,99260]],[[900444,480229],[945,4424]],[[901389,484653],[29688,138999]],[[931077,623652],[6751,-2478],[11463,-4490],[13582,-5388],[14256,-4875],[4335,20270],[-2119,1155],[-19073,7312],[-16183,5645],[-8729,2901]],[[935360,643704],[8028,37585]],[[931077,623652],[4283,20052]],[[900444,480229],[-6983,2637],[934,4313],[6994,-2526]],[[77895,681531],[2826,14664],[4309,22374],[8937,42590],[4289,21462],[4367,21649],[4267,22054],[4463,21589],[4750,21794],[4588,21421],[3529,17021]],[[124220,908149],[2436,-855],[4523,2195],[27424,-9842],[11735,-2815]],[[170338,896832],[-6205,-29554],[49988,-18390],[-20016,-99522]],[[171252,901182],[-914,-4350]],[[124220,908149],[1243,5998]],[[125463,914147],[2536,1256],[15386,-5464],[16096,-5779],[11771,-2978]],[[177630,931556],[-1138,-5419]],[[176492,926137],[-45201,16305]],[[131291,942442],[1935,9447]],[[176492,926137],[-4223,-20111]],[[172269,906026],[-45077,16463]],[[127192,922489],[1069,5157],[3030,14796]],[[172269,906026],[-1017,-4844]],[[125463,914147],[1729,8342]]],"bbox":[740.865,-386.391,4277.743,2270.991],"transform":{"scale":[0.003536881536881538,0.0026573846573846576],"translate":[740.865,-386.391]}}