{"type":"Topology","objects":{"01206-4600-42":{"type":"GeometryCollection","geometries":[{"type":"MultiPolygon","arcs":[[[0,1,2,3,4]]],"properties":{"筆ID":"H000000001","version":"ver1.0","座標系":"任意座標系","測地系判別":null,"地図名":"大楽毛３・４丁目","地図番号":"T-4","縮尺分母":"2000","市区町村コード":"01206","市区町村名":"釧路市","大字コード":"037","丁目コード":"003","小字コード":"0000","予備コード":"00","大字名":"大楽毛","丁目名":"３丁目","小字名":null,"予備名":null,"地番":"2-1","精度区分":null,"座標値種別":"図上測量","筆界未定構成筆":null,"代表点緯度":9068.4025,"代表点経度":1235.252611724}},{"type":"MultiPolygon","arcs":[[[5,6,7,-2,8]]],"properties":{"筆ID":"H000000002","version":"ver1.0","座標系":"任意座標系","測地系判別":null,"地図名":"大楽毛３・４丁目","地図番号":"T-4","縮尺分母":"2000","市区町村コード":"01206","市区町村名":"釧路市","大字コード":"037","丁目コード":"003","小字コード":"0000","予備コード":"00","大字名":"大楽毛","丁目名":"３丁目","小字名":null,"予備名":null,"地番":"2-2","精度区分":null,"座標値種別":"図上測量","筆界未定構成筆":null,"代表点緯度":8851.8415,"代表点経度":1211.578414555}},{"type":"MultiPolygon","arcs":[[[9,10,11,-6,12]]],"properties":{"筆ID":"H000000003","version":"ver1.0","座標系":"任意座標系","測地系判別":null,"地図名":"大楽毛３・４丁目","地図番号":"T-4","縮尺分母":"2000","市区町村コード":"01206","市区町村名":"釧路市","大字コード":"037","丁目コード":"003","小字コード":"0000","予備コード":"00","大字名":"大楽毛","丁目名":"３丁目","小字名":null,"予備名":null,"地番":"2-3","精度区分":null,"座標値種別":"図上測量","筆界未定構成筆":null,"代表点緯度":8650.087,"代表点経度":1189.718339031}},{"type":"MultiPolygon","arcs":[[[-12,13,14,15,-7]]],"properties":{"筆ID":"H000000004","version":"ver1.0","座標系":"任意座標系","測地系判別":null,"地図名":"大楽毛３・４丁目","地図番号":"T-4","縮尺分母":"2000","市区町村コード":"01206","市区町村名":"釧路市","大字コード":"037","丁目コード":"003","小字コード":"0000","予備コード":"00","大字名":"大楽毛","丁目名":"３丁目","小字名":null,"予備名":null,"地番":"2-4","精度区分":null,"座標値種別":"図上測量","筆界未定構成筆":null,"代表点緯度":8667.6025,"代表点経度":960.692851738}},{"type":"MultiPolygon","arcs":[[[-8,-16,16,17,18,-3]]],"properties":{"筆ID":"H000000005","version":"ver1.0","座標系":"任意座標系","測地系判別":null,"地図名":"大楽毛３・４丁目","地図番号":"T-4","縮尺分母":"2000","市区町村コード":"01206","市区町村名":"釧路市","大字コード":"037","丁目コード":"003","小字コード":"0000","予備コード":"00","大字名":"大楽毛","丁目名":"３丁目","小字名":null,"予備名":null,"地番":"2-5","精度区分":null,"座標値種別":"図上測量","筆界未定構成筆":null,"代表点緯度":8923.8125,"代表点経度":989.438811687}},{"type":"MultiPolygon","arcs":[[[19,20,21,22,23,24,25,26]]],"properties":{"筆ID":"H000000006","version":"ver1.0","座標系":"任意座標系","測地系判別":null,"地図名":"大楽毛３・４丁目","地図番号":"T-4","縮尺分母":"2000","市区町村コード":"01206","市区町村名":"釧路市","大字コード":"037","丁目コード":"003","小字コード":"0000","予備コード":"00","大字名":"大楽毛","丁目名":"３丁目","小字名":null,"予備名":null,"地番":"2-6","精度区分":null,"座標値種別":"図上測量","筆界未定構成筆":null,"代表点緯度":8787.5635,"代表点経度":687.48782978}},{"type":"MultiPolygon","arcs":[[[27,28,29,30,31,32,33,34,35,36,37,38]]],"properties":{"筆ID":"H000000007","version":"ver1.0","座標系":"任意座標系","測地系判別":null,"地図名":"大楽毛３・４丁目","地図番号":"T-5","縮尺分母":"2000","市区町村コード":"01206","市区町村名":"釧路市","大字コード":"037","丁目コード":"003","小字コード":"0000","予備コード":"00","大字名":"大楽毛","丁目名":"３丁目","小字名":null,"予備名":null,"地番":"2-8","精度区分":null,"座標値種別":"図上測量","筆界未定構成筆":null,"代表点緯度":8952.0595,"代表点経度":3000.844592876}},{"type":"MultiPolygon","arcs":[[[39,40,-35]]],"properties":{"筆ID":"H000000008","version":"ver1.0","座標系":"任意座標系","測地系判別":null,"地図名":"大楽毛３・４丁目","地図番号":"T-5","縮尺分母":"2000","市区町村コード":"01206","市区町村名":"釧路市","大字コード":"037","丁目コード":"003","小字コード":"0000","予備コード":"00","大字名":"大楽毛","丁目名":"３丁目","小字名":null,"予備名":null,"地番":"2-9","精度区分":null,"座標値種別":"図上測量","筆界未定構成筆":null,"代表点緯度":8937.2895,"代表点経度":2691.629509461}},{"type":"MultiPolygon","arcs":[[[-41,41,42,-36]]],"properties":{"筆ID":"H000000009","version":"ver1.0","座標系":"任意座標系","測地系判別":null,"地図名":"大楽毛３・４丁目","地図番号":"T-5","縮尺分母":"2000","市区町村コード":"01206","市区町村名":"釧路市","大字コード":"037","丁目コード":"003","小字コード":"0000","予備コード":"00","大字名":"大楽毛","丁目名":"３丁目","小字名":null,"予備名":null,"地番":"2-10","精度区分":null,"座標値種別":"図上測量","筆界未定構成筆":null,"代表点緯度":9027.1435,"代表点経度":2674.347322035}},{"type":"MultiPolygon","arcs":[[[-15,43,44,45,-17]]],"properties":{"筆ID":"H000000010","version":"ver1.0","座標系":"任意座標系","測地系判別":null,"地図名":"大楽毛３・４丁目","地図番号":"T-4","縮尺分母":"2000","市区町村コード":"01206","市区町村名":"釧路市","大字コード":"037","丁目コード":"003","小字コード":"0000","予備コード":"00","大字名":"大楽毛","丁目名":"３丁目","小字名":null,"予備名":null,"地番":"2-13","精度区分":null,"座標値種別":"図上測量","筆界未定構成筆":null,"代表点緯度":8682.8645,"代表点経度":844.803815451}},{"type":"MultiPolygon","arcs":[[[-46,46,47,48,-26,49,50,-18]]],"properties":{"筆ID":"H000000011","version":"ver1.0","座標系":"任意座標系","測地系判別":null,"地図名":"大楽毛３・４丁目","地図番号":"T-4","縮尺分母":"2000","市区町村コード":"01206","市区町村名":"釧路市","大字コード":"037","丁目コード":"003","小字コード":"0000","予備コード":"00","大字名":"大楽毛","丁目名":"３丁目","小字名":null,"予備名":null,"地番":"2-14","精度区分":null,"座標値種別":"図上測量","筆界未定構成筆":null,"代表点緯度":9095.4105,"代表点経度":815.782323488}},{"type":"MultiPolygon","arcs":[[[51,52,-22]]],"properties":{"筆ID":"H000000012","version":"ver1.0","座標系":"任意座標系","測地系判別":null,"地図名":"大楽毛３・４丁目","地図番号":"T-4","縮尺分母":"2000","市区町村コード":"01206","市区町村名":"釧路市","大字コード":"037","丁目コード":"003","小字コード":"0000","予備コード":"00","大字名":"大楽毛","丁目名":"３丁目","小字名":null,"予備名":null,"地番":"2-15","精度区分":null,"座標値種別":"図上測量","筆界未定構成筆":null,"代表点緯度":8668.077,"代表点経度":721.646467265}},{"type":"MultiPolygon","arcs":[[[53,54,55,56,-47,-45]]],"properties":{"筆ID":"H000000013","version":"ver1.0","座標系":"任意座標系","測地系判別":null,"地図名":"大楽毛３・４丁目","地図番号":"T-4","縮尺分母":"2000","市区町村コード":"01206","市区町村名":"釧路市","大字コード":"037","丁目コード":"003","小字コード":"0000","予備コード":"00","大字名":"大楽毛","丁目名":"３丁目","小字名":null,"予備名":null,"地番":"2-16","精度区分":null,"座標値種別":"図上測量","筆界未定構成筆":null,"代表点緯度":8736.7465,"代表点経度":815.495343044}},{"type":"MultiPolygon","arcs":[[[57,-20,58,-48,-57]]],"properties":{"筆ID":"H000000014","version":"ver1.0","座標系":"任意座標系","測地系判別":null,"地図名":"大楽毛３・４丁目","地図番号":"T-4","縮尺分母":"2000","市区町村コード":"01206","市区町村名":"釧路市","大字コード":"037","丁目コード":"003","小字コード":"0000","予備コード":"00","大字名":"大楽毛","丁目名":"３丁目","小字名":null,"予備名":null,"地番":"2-17","精度区分":null,"座標値種別":"図上測量","筆界未定構成筆":null,"代表点緯度":8729.6025,"代表点経度":795.393423391}},{"type":"MultiPolygon","arcs":[[[-27,-49,-59]]],"properties":{"筆ID":"H000000015","version":"ver1.0","座標系":"任意座標系","測地系判別":null,"地図名":"大楽毛３・４丁目","地図番号":"T-4","縮尺分母":"2000","市区町村コード":"01206","市区町村名":"釧路市","大字コード":"037","丁目コード":"003","小字コード":"0000","予備コード":"00","大字名":"大楽毛","丁目名":"３丁目","小字名":null,"予備名":null,"地番":"2-18","精度区分":null,"座標値種別":"図上測量","筆界未定構成筆":null,"代表点緯度":8846.039,"代表点経度":768.515665169}},{"type":"MultiPolygon","arcs":[[[59,-30,60,61,62]]],"properties":{"筆ID":"H000000016","version":"ver1.0","座標系":"任意座標系","測地系判別":null,"地図名":"大楽毛３・４丁目","地図番号":"T-5","縮尺分母":"2000","市区町村コード":"01206","市区町村名":"釧路市","大字コード":"037","丁目コード":"003","小字コード":"0000","予備コード":"00","大字名":"大楽毛","丁目名":"３丁目","小字名":null,"予備名":null,"地番":"2-19","精度区分":null,"座標値種別":"図上測量","筆界未定構成筆":null,"代表点緯度":9194.861,"代表点経度":2880.613505482}},{"type":"MultiPolygon","arcs":[[[-29,63,64,-61]]],"properties":{"筆ID":"H000000017","version":"ver1.0","座標系":"任意座標系","測地系判別":null,"地図名":"大楽毛３・４丁目","地図番号":"T-5","縮尺分母":"2000","市区町村コード":"01206","市区町村名":"釧路市","大字コード":"037","丁目コード":"003","小字コード":"0000","予備コード":"00","大字名":"大楽毛","丁目名":"３丁目","小字名":null,"予備名":null,"地番":"2-20","精度区分":null,"座標値種別":"図上測量","筆界未定構成筆":null,"代表点緯度":9199.9715,"代表点経度":2828.355034327}},{"type":"MultiPolygon","arcs":[[[65,66,-37,-43,67,68,69,70]]],"properties":{"筆ID":"H000000018","version":"ver1.0","座標系":"任意座標系","測地系判別":null,"地図名":"大楽毛３・４丁目","地図番号":"T-5","縮尺分母":"2000","市区町村コード":"01206","市区町村名":"釧路市","大字コード":"037","丁目コード":"003","小字コード":"0000","予備コード":"00","大字名":"大楽毛","丁目名":"３丁目","小字名":null,"予備名":null,"地番":"2-21","精度区分":null,"座標値種別":"図上測量","筆界未定構成筆":null,"代表点緯度":9176.67,"代表点経度":2645.746679926}},{"type":"MultiPolygon","arcs":[[[-38,-67,71,72]]],"properties":{"筆ID":"H000000019","version":"ver1.0","座標系":"任意座標系","測地系判別":null,"地図名":"大楽毛３・４丁目","地図番号":"T-5","縮尺分母":"2000","市区町村コード":"01206","市区町村名":"釧路市","大字コード":"037","丁目コード":"003","小字コード":"0000","予備コード":"00","大字名":"大楽毛","丁目名":"３丁目","小字名":null,"予備名":null,"地番":"2-22","精度区分":null,"座標値種別":"図上測量","筆界未定構成筆":null,"代表点緯度":9188.3295,"代表点経度":2732.954527625}},{"type":"MultiPolygon","arcs":[[[73,74,-39,-73]]],"properties":{"筆ID":"H000000020","version":"ver1.0","座標系":"任意座標系","測地系判別":null,"地図名":"大楽毛３・４丁目","地図番号":"T-5","縮尺分母":"2000","市区町村コード":"01206","市区町村名":"釧路市","大字コード":"037","丁目コード":"003","小字コード":"0000","予備コード":"00","大字名":"大楽毛","丁目名":"３丁目","小字名":null,"予備名":null,"地番":"2-23","精度区分":null,"座標値種別":"図上測量","筆界未定構成筆":null,"代表点緯度":9192.0315,"代表点経度":2785.109280071}},{"type":"MultiPolygon","arcs":[[[75,-64,-28,-75]]],"properties":{"筆ID":"H000000021","version":"ver1.0","座標系":"任意座標系","測地系判別":null,"地図名":"大楽毛３・４丁目","地図番号":"T-5","縮尺分母":"2000","市区町村コード":"01206","市区町村名":"釧路市","大字コード":"037","丁目コード":"003","小字コード":"0000","予備コード":"00","大字名":"大楽毛","丁目名":"３丁目","小字名":null,"予備名":null,"地番":"2-24","精度区分":null,"座標値種別":"図上測量","筆界未定構成筆":null,"代表点緯度":9194.542,"代表点経度":2801.344070284}},{"type":"MultiPolygon","arcs":[[[76,77,78,-58,-56]]],"properties":{"筆ID":"H000000022","version":"ver1.0","座標系":"任意座標系","測地系判別":null,"地図名":"大楽毛３・４丁目","地図番号":"T-4","縮尺分母":"2000","市区町村コード":"01206","市区町村名":"釧路市","大字コード":"037","丁目コード":"003","小字コード":"0000","予備コード":"00","大字名":"大楽毛","丁目名":"３丁目","小字名":null,"予備名":null,"地番":"2-25","精度区分":null,"座標値種別":"図上測量","筆界未定構成筆":null,"代表点緯度":8623.993,"代表点経度":783.361022431}},{"type":"MultiPolygon","arcs":[[[79,80,-52]]],"properties":{"筆ID":"H000000023","version":"ver1.0","座標系":"任意座標系","測地系判別":null,"地図名":"大楽毛３・４丁目","地図番号":"T-4","縮尺分母":"2000","市区町村コード":"01206","市区町村名":"釧路市","大字コード":"037","丁目コード":"003","小字コード":"0000","予備コード":"00","大字名":"大楽毛","丁目名":"３丁目","小字名":null,"予備名":null,"地番":"2-26","精度区分":null,"座標値種別":"図上測量","筆界未定構成筆":null,"代表点緯度":8626.4655,"代表点経度":768.076787731}},{"type":"MultiPolygon","arcs":[[[81,82,-62]]],"properties":{"筆ID":"H000000024","version":"ver1.0","座標系":"任意座標系","測地系判別":null,"地図名":"大楽毛３・４丁目","地図番号":"T-5","縮尺分母":"2000","市区町村コード":"01206","市区町村名":"釧路市","大字コード":"037","丁目コード":"003","小字コード":"0000","予備コード":"00","大字名":"大楽毛","丁目名":"３丁目","小字名":null,"予備名":null,"地番":"2-30","精度区分":null,"座標値種別":"図上測量","筆界未定構成筆":null,"代表点緯度":9227.191,"代表点経度":2868.566112676}},{"type":"MultiPolygon","arcs":[[[-65,83,84,-82]]],"properties":{"筆ID":"H000000025","version":"ver1.0","座標系":"任意座標系","測地系判別":null,"地図名":"大楽毛３・４丁目","地図番号":"T-5","縮尺分母":"2000","市区町村コード":"01206","市区町村名":"釧路市","大字コード":"037","丁目コード":"003","小字コード":"0000","予備コード":"00","大字名":"大楽毛","丁目名":"３丁目","小字名":null,"予備名":null,"地番":"2-31","精度区分":null,"座標値種別":"図上測量","筆界未定構成筆":null,"代表点緯度":9227.775,"代表点経度":2820.871171228}},{"type":"MultiPolygon","arcs":[[[85,-70]]],"properties":{"筆ID":"H000000026","version":"ver1.0","座標系":"任意座標系","測地系判別":null,"地図名":"大楽毛３・４丁目","地図番号":"T-5","縮尺分母":"2000","市区町村コード":"01206","市区町村名":"釧路市","大字コード":"037","丁目コード":"003","小字コード":"0000","予備コード":"00","大字名":"大楽毛","丁目名":"３丁目","小字名":null,"予備名":null,"地番":"2-32","精度区分":null,"座標値種別":"図上測量","筆界未定構成筆":null,"代表点緯度":9233.0585,"代表点経度":2606.847918433}},{"type":"MultiPolygon","arcs":[[[86,-66,87,88]]],"properties":{"筆ID":"H000000027","version":"ver1.0","座標系":"任意座標系","測地系判別":null,"地図名":"大楽毛３・４丁目","地図番号":"T-5","縮尺分母":"2000","市区町村コード":"01206","市区町村名":"釧路市","大字コード":"037","丁目コード":"003","小字コード":"0000","予備コード":"00","大字名":"大楽毛","丁目名":"３丁目","小字名":null,"予備名":null,"地番":"2-33","精度区分":null,"座標値種別":"図上測量","筆界未定構成筆":null,"代表点緯度":9224.7775,"代表点経度":2674.736058887}},{"type":"MultiPolygon","arcs":[[[-72,-87,89,90]]],"properties":{"筆ID":"H000000028","version":"ver1.0","座標系":"任意座標系","測地系判別":null,"地図名":"大楽毛３・４丁目","地図番号":"T-5","縮尺分母":"2000","市区町村コード":"01206","市区町村名":"釧路市","大字コード":"037","丁目コード":"003","小字コード":"0000","予備コード":"00","大字名":"大楽毛","丁目名":"３丁目","小字名":null,"予備名":null,"地番":"2-34","精度区分":null,"座標値種別":"図上測量","筆界未定構成筆":null,"代表点緯度":9226.177,"代表点経度":2722.699961799}},{"type":"MultiPolygon","arcs":[[[-91,91,92,-74]]],"properties":{"筆ID":"H000000029","version":"ver1.0","座標系":"任意座標系","測地系判別":null,"地図名":"大楽毛３・４丁目","地図番号":"T-5","縮尺分母":"2000","市区町村コード":"01206","市区町村名":"釧路市","大字コード":"037","丁目コード":"003","小字コード":"0000","予備コード":"00","大字名":"大楽毛","丁目名":"３丁目","小字名":null,"予備名":null,"地番":"2-35","精度区分":null,"座標値種別":"図上測量","筆界未定構成筆":null,"代表点緯度":9226.3165,"代表点経度":2775.969717926}},{"type":"MultiPolygon","arcs":[[[-93,93,-84,-76]]],"properties":{"筆ID":"H000000030","version":"ver1.0","座標系":"任意座標系","測地系判別":null,"地図名":"大楽毛３・４丁目","地図番号":"T-5","縮尺分母":"2000","市区町村コード":"01206","市区町村名":"釧路市","大字コード":"037","丁目コード":"003","小字コード":"0000","予備コード":"00","大字名":"大楽毛","丁目名":"３丁目","小字名":null,"予備名":null,"地番":"2-36","精度区分":null,"座標値種別":"図上測量","筆界未定構成筆":null,"代表点緯度":9226.8445,"代表点経度":2792.763606809}},{"type":"MultiPolygon","arcs":[[[94,95,-33,96]]],"properties":{"筆ID":"H000000031","version":"ver1.0","座標系":"任意座標系","測地系判別":null,"地図名":"大楽毛３・４丁目","地図番号":"T-5","縮尺分母":"2000","市区町村コード":"01206","市区町村名":"釧路市","大字コード":"037","丁目コード":"003","小字コード":"0000","予備コード":"00","大字名":"大楽毛","丁目名":"３丁目","小字名":null,"予備名":null,"地番":"2-7W1","精度区分":null,"座標値種別":"図上測量","筆界未定構成筆":null,"代表点緯度":8497.0815,"代表点経度":2839.573860699}},{"type":"MultiPolygon","arcs":[[[-4,-19,-51,97,98,99,100,101]]],"properties":{"筆ID":"H000000032","version":"ver1.0","座標系":"任意座標系","測地系判別":null,"地図名":"大楽毛３・４丁目","地図番号":"T-4","縮尺分母":"2000","市区町村コード":"01206","市区町村名":"釧路市","大字コード":"037","丁目コード":"003","小字コード":"0000","予備コード":"00","大字名":"大楽毛","丁目名":"３丁目","小字名":null,"予備名":null,"地番":"2-7W2","精度区分":null,"座標値種別":"図上測量","筆界未定構成筆":null,"代表点緯度":9181.0775,"代表点経度":552.222930351}},{"type":"MultiPolygon","arcs":[[[102,103,-69]]],"properties":{"筆ID":"H000000033","version":"ver1.0","座標系":"任意座標系","測地系判別":null,"地図名":"大楽毛３・４丁目","地図番号":"T-5","縮尺分母":"2000","市区町村コード":"01206","市区町村名":"釧路市","大字コード":"037","丁目コード":"003","小字コード":"0000","予備コード":"00","大字名":"大楽毛","丁目名":"３丁目","小字名":null,"予備名":null,"地番":"6-12","精度区分":null,"座標値種別":"図上測量","筆界未定構成筆":null,"代表点緯度":9229.537,"代表点経度":2594.938540507}},{"type":"MultiPolygon","arcs":[[[-88,-71,104]]],"properties":{"筆ID":"H000000034","version":"ver1.0","座標系":"任意座標系","測地系判別":null,"地図名":"大楽毛３・４丁目","地図番号":"T-5","縮尺分母":"2000","市区町村コード":"01206","市区町村名":"釧路市","大字コード":"037","丁目コード":"003","小字コード":"0000","予備コード":"00","大字名":"大楽毛","丁目名":"３丁目","小字名":null,"予備名":null,"地番":"6-13","精度区分":null,"座標値種別":"図上測量","筆界未定構成筆":null,"代表点緯度":9235.4775,"代表点経度":2662.268445846}},{"type":"MultiPolygon","arcs":[[[105,-83,-85,-94,-92,-90,-89,-105,-86,-104,106,107]]],"properties":{"筆ID":"H000000035","version":"ver1.0","座標系":"任意座標系","測地系判別":null,"地図名":"大楽毛３・４丁目","地図番号":"T-5","縮尺分母":"2000","市区町村コード":"01206","市区町村名":"釧路市","大字コード":"037","丁目コード":"003","小字コード":"0000","予備コード":"00","大字名":"大楽毛","丁目名":"３丁目","小字名":null,"予備名":null,"地番":"6-14","精度区分":null,"座標値種別":"図上測量","筆界未定構成筆":null,"代表点緯度":9245.5485,"代表点経度":2837.594407751}},{"type":"MultiPolygon","arcs":[[[108,109,110,-107]]],"properties":{"筆ID":"H000000036","version":"ver1.0","座標系":"任意座標系","測地系判別":null,"地図名":"大楽毛３・４丁目","地図番号":"T-5","縮尺分母":"2000","市区町村コード":"01206","市区町村名":"釧路市","大字コード":"037","丁目コード":"003","小字コード":"0000","予備コード":"00","大字名":"大楽毛","丁目名":"３丁目","小字名":null,"予備名":null,"地番":"6-18","精度区分":null,"座標値種別":"図上測量","筆界未定構成筆":null,"代表点緯度":9241.076,"代表点経度":2576.949619257}},{"type":"MultiPolygon","arcs":[[[111,112]]],"properties":{"筆ID":"H000000037","version":"ver1.0","座標系":"任意座標系","測地系判別":null,"地図名":"大楽毛３・４丁目","地図番号":"T-4","縮尺分母":"2000","市区町村コード":"01206","市区町村名":"釧路市","大字コード":"037","丁目コード":"003","小字コード":"0000","予備コード":"00","大字名":"大楽毛","丁目名":"３丁目","小字名":null,"予備名":null,"地番":"6-3W4","精度区分":null,"座標値種別":"図上測量","筆界未定構成筆":null,"代表点緯度":8838.0955,"代表点経度":1387.770319503}},{"type":"MultiPolygon","arcs":[[[113,114,115,-112]]],"properties":{"筆ID":"H000000038","version":"ver1.0","座標系":"任意座標系","測地系判別":null,"地図名":"大楽毛３・４丁目","地図番号":"T-4","縮尺分母":"2000","市区町村コード":"01206","市区町村名":"釧路市","大字コード":"037","丁目コード":"003","小字コード":"0000","予備コード":"00","大字名":"大楽毛","丁目名":"３丁目","小字名":null,"予備名":null,"地番":"6-5W5","精度区分":null,"座標値種別":"図上測量","筆界未定構成筆":null,"代表点緯度":8895.7095,"代表点経度":1372.434853951}},{"type":"MultiPolygon","arcs":[[[116,-5,-102,117]]],"properties":{"筆ID":"H000000039","version":"ver1.0","座標系":"任意座標系","測地系判別":null,"地図名":"大楽毛３・４丁目","地図番号":"T-4","縮尺分母":"2000","市区町村コード":"01206","市区町村名":"釧路市","大字コード":"037","丁目コード":"003","小字コード":"0000","予備コード":"00","大字名":"大楽毛","丁目名":"３丁目","小字名":null,"予備名":null,"地番":"6-11W3","精度区分":null,"座標値種別":"図上測量","筆界未定構成筆":null,"代表点緯度":9269.4345,"代表点経度":1109.005616394}},{"type":"MultiPolygon","arcs":[[[118,-115,119,-13,-9,-1,-117]]],"properties":{"筆ID":"H000000040","version":"ver1.0","座標系":"任意座標系","測地系判別":null,"地図名":"大楽毛３・４丁目","地図番号":"T-4","縮尺分母":"2000","市区町村コード":"01206","市区町村名":"釧路市","大字コード":"037","丁目コード":"003","小字コード":"0000","予備コード":"00","大字名":"大楽毛","丁目名":"３丁目","小字名":null,"予備名":null,"地番":"6-16W3","精度区分":null,"座標値種別":"図上測量","筆界未定構成筆":null,"代表点緯度":8834.4,"代表点経度":1349.33487844}},{"type":"MultiPolygon","arcs":[[[120,121,-99]]],"properties":{"筆ID":"H000000041","version":"ver1.0","座標系":"任意座標系","測地系判別":null,"地図名":"大楽毛３・４丁目","地図番号":"T-4","縮尺分母":"2000","市区町村コード":"01206","市区町村名":"釧路市","大字コード":"037","丁目コード":"003","小字コード":"0000","予備コード":"00","大字名":"大楽毛","丁目名":"３丁目","小字名":null,"予備名":null,"地番":"無地番-1290","精度区分":null,"座標値種別":"図上測量","筆界未定構成筆":null,"代表点緯度":9152.7655,"代表点経度":355.016445237}},{"type":"MultiPolygon","arcs":[[[122,123,124]]],"properties":{"筆ID":"H000000042","version":"ver1.0","座標系":"任意座標系","測地系判別":null,"地図名":"大楽毛３・４丁目","地図番号":"T-5","縮尺分母":"2000","市区町村コード":"01206","市区町村名":"釧路市","大字コード":"000","丁目コード":"000","小字コード":"0000","予備コード":"00","大字名":null,"丁目名":null,"小字名":null,"予備名":null,"地番":"地区外-977819","精度区分":null,"座標値種別":"図上測量","筆界未定構成筆":null,"代表点緯度":9132.958,"代表点経度":3341.965009469}},{"type":"MultiPolygon","arcs":[[[125,126,127,-123]]],"properties":{"筆ID":"H000000043","version":"ver1.0","座標系":"任意座標系","測地系判別":null,"地図名":"大楽毛３・４丁目","地図番号":"T-5","縮尺分母":"2000","市区町村コード":"01206","市区町村名":"釧路市","大字コード":"000","丁目コード":"000","小字コード":"0000","予備コード":"00","大字名":null,"丁目名":null,"小字名":null,"予備名":null,"地番":"地区外-977820","精度区分":null,"座標値種別":"図上測量","筆界未定構成筆":null,"代表点緯度":8954.7915,"代表点経度":3336.859579829}},{"type":"MultiPolygon","arcs":[[[128,129]]],"properties":{"筆ID":"H000000044","version":"ver1.0","座標系":"任意座標系","測地系判別":null,"地図名":"大楽毛３・４丁目","地図番号":"T-5","縮尺分母":"2000","市区町村コード":"01206","市区町村名":"釧路市","大字コード":"000","丁目コード":"000","小字コード":"0000","予備コード":"00","大字名":null,"丁目名":null,"小字名":null,"予備名":null,"地番":"地区外-977821","精度区分":null,"座標値種別":"図上測量","筆界未定構成筆":null,"代表点緯度":8719.7625,"代表点経度":3358.341424616}},{"type":"MultiPolygon","arcs":[[[130,131,132]]],"properties":{"筆ID":"H000000045","version":"ver1.0","座標系":"任意座標系","測地系判別":null,"地図名":"大楽毛３・４丁目","地図番号":"T-4","縮尺分母":"2000","市区町村コード":"01206","市区町村名":"釧路市","大字コード":"000","丁目コード":"000","小字コード":"0000","予備コード":"00","大字名":null,"丁目名":null,"小字名":null,"予備名":null,"地番":"地区外-977828","精度区分":null,"座標値種別":"図上測量","筆界未定構成筆":null,"代表点緯度":9109.96,"代表点経度":314.350255889}},{"type":"MultiPolygon","arcs":[[[-98,-50,-25,133,134,135,136,137,138,139,140,141,142,143,-133,144,-121]]],"properties":{"筆ID":"H000000046","version":"ver1.0","座標系":"任意座標系","測地系判別":null,"地図名":"大楽毛３・４丁目","地図番号":"T-4","縮尺分母":"2000","市区町村コード":"01206","市区町村名":"釧路市","大字コード":"000","丁目コード":"000","小字コード":"0000","予備コード":"00","大字名":null,"丁目名":null,"小字名":null,"予備名":null,"地番":"地区外-977829","精度区分":null,"座標値種別":"図上測量","筆界未定構成筆":null,"代表点緯度":8924.7375,"代表点経度":534.014132726}},{"type":"MultiPolygon","arcs":[[[145,-143]]],"properties":{"筆ID":"H000000047","version":"ver1.0","座標系":"任意座標系","測地系判別":null,"地図名":"大楽毛３・４丁目","地図番号":"T-4","縮尺分母":"2000","市区町村コード":"01206","市区町村名":"釧路市","大字コード":"000","丁目コード":"000","小字コード":"0000","予備コード":"00","大字名":null,"丁目名":null,"小字名":null,"予備名":null,"地番":"地区外-977830","精度区分":null,"座標値種別":"図上測量","筆界未定構成筆":null,"代表点緯度":9058.443,"代表点経度":393.404984966}},{"type":"MultiPolygon","arcs":[[[146,-141]]],"properties":{"筆ID":"H000000048","version":"ver1.0","座標系":"任意座標系","測地系判別":null,"地図名":"大楽毛３・４丁目","地図番号":"T-4","縮尺分母":"2000","市区町村コード":"01206","市区町村名":"釧路市","大字コード":"000","丁目コード":"000","小字コード":"0000","予備コード":"00","大字名":null,"丁目名":null,"小字名":null,"予備名":null,"地番":"地区外-977831","精度区分":null,"座標値種別":"図上測量","筆界未定構成筆":null,"代表点緯度":8901.648,"代表点経度":512.216197704}},{"type":"MultiPolygon","arcs":[[[147,-139]]],"properties":{"筆ID":"H000000049","version":"ver1.0","座標系":"任意座標系","測地系判別":null,"地図名":"大楽毛３・４丁目","地図番号":"T-4","縮尺分母":"2000","市区町村コード":"01206","市区町村名":"釧路市","大字コード":"000","丁目コード":"000","小字コード":"0000","予備コード":"00","大字名":null,"丁目名":null,"小字名":null,"予備名":null,"地番":"地区外-977832","精度区分":null,"座標値種別":"図上測量","筆界未定構成筆":null,"代表点緯度":8778.9015,"代表点経度":550.869500374}},{"type":"MultiPolygon","arcs":[[[148,-137]]],"properties":{"筆ID":"H000000050","version":"ver1.0","座標系":"任意座標系","測地系判別":null,"地図名":"大楽毛３・４丁目","地図番号":"T-4","縮尺分母":"2000","市区町村コード":"01206","市区町村名":"釧路市","大字コード":"000","丁目コード":"000","小字コード":"0000","予備コード":"00","大字名":null,"丁目名":null,"小字名":null,"予備名":null,"地番":"地区外-977833","精度区分":null,"座標値種別":"図上測量","筆界未定構成筆":null,"代表点緯度":8670.642,"代表点経度":568.133571939}},{"type":"MultiPolygon","arcs":[[[-135,149]]],"properties":{"筆ID":"H000000051","version":"ver1.0","座標系":"任意座標系","測地系判別":null,"地図名":"大楽毛３・４丁目","地図番号":"T-4","縮尺分母":"2000","市区町村コード":"01206","市区町村名":"釧路市","大字コード":"000","丁目コード":"000","小字コード":"0000","予備コード":"00","大字名":null,"丁目名":null,"小字名":null,"予備名":null,"地番":"地区外-977834","精度区分":null,"座標値種別":"図上測量","筆界未定構成筆":null,"代表点緯度":8603.444,"代表点経度":576.825403678}},{"type":"MultiPolygon","arcs":[[[150,-129,151,-97,-32,152,153,-127]]],"properties":{"筆ID":"H000000052","version":"ver1.0","座標系":"任意座標系","測地系判別":null,"地図名":"大楽毛３・４丁目","地図番号":"T-5","縮尺分母":"2000","市区町村コード":"01206","市区町村名":"釧路市","大字コード":"037","丁目コード":"003","小字コード":"0000","予備コード":"00","大字名":"大楽毛","丁目名":"３丁目","小字名":null,"予備名":null,"地番":"6-11W5","精度区分":null,"座標値種別":"図上測量","筆界未定構成筆":null,"代表点緯度":8915.869,"代表点経度":3264.032997255}},{"type":"MultiPolygon","arcs":[[[-128,-154,154,-63,-106,155,-124]]],"properties":{"筆ID":"H000000053","version":"ver1.0","座標系":"任意座標系","測地系判別":null,"地図名":"大楽毛３・４丁目","地図番号":"T-5","縮尺分母":"2000","市区町村コード":"01206","市区町村名":"釧路市","大字コード":"037","丁目コード":"003","小字コード":"0000","予備コード":"00","大字名":"大楽毛","丁目名":"３丁目","小字名":null,"予備名":null,"地番":"6-17W2","精度区分":null,"座標値種別":"図上測量","筆界未定構成筆":null,"代表点緯度":9183.0465,"代表点経度":3224.639931201}},{"type":"MultiPolygon","arcs":[[[-153,-31,-60,-155]]],"properties":{"筆ID":"H000000054","version":"ver1.0","座標系":"任意座標系","測地系判別":null,"地図名":"大楽毛３・４丁目","地図番号":"T-5","縮尺分母":"2000","市区町村コード":"01206","市区町村名":"釧路市","大字コード":"037","丁目コード":"003","小字コード":"0000","予備コード":"00","大字名":"大楽毛","丁目名":"３丁目","小字名":null,"予備名":null,"地番":"2-11","精度区分":null,"座標値種別":"図上測量","筆界未定構成筆":null,"代表点緯度":9114.011,"代表点経度":3113.020251542}},{"type":"MultiPolygon","arcs":[[[-23,156]]],"properties":{"筆ID":"H000000055","version":"ver1.0","座標系":"任意座標系","測地系判別":null,"地図名":"大楽毛３・４丁目","地図番号":"T-4","縮尺分母":"2000","市区町村コード":"01206","市区町村名":"釧路市","大字コード":"037","丁目コード":"003","小字コード":"0000","予備コード":"00","大字名":"大楽毛","丁目名":"３丁目","小字名":null,"予備名":null,"地番":"2-28","精度区分":null,"座標値種別":"図上測量","筆界未定構成筆":null,"代表点緯度":8636.466,"代表点経度":666.0740897}},{"type":"MultiPolygon","arcs":[[[-109,-103,-68,-42,-40,-34,-96,157,158]]],"properties":{"筆ID":"H000000056","version":"ver1.0","座標系":"任意座標系","測地系判別":null,"地図名":"大楽毛３・４丁目","地図番号":"T-5","縮尺分母":"2000","市区町村コード":"01206","市区町村名":"釧路市","大字コード":"037","丁目コード":"003","小字コード":"0000","予備コード":"00","大字名":"大楽毛","丁目名":"３丁目","小字名":null,"予備名":null,"地番":"6-9W2","精度区分":null,"座標値種別":"図上測量","筆界未定構成筆":null,"代表点緯度":8748.505,"代表点経度":2638.604433093}},{"type":"MultiPolygon","arcs":[[[159,-159,160]]],"properties":{"筆ID":"H000000057","version":"ver1.0","座標系":"任意座標系","測地系判別":null,"地図名":"大楽毛３・４丁目","地図番号":"T-5","縮尺分母":"2000","市区町村コード":"01206","市区町村名":"釧路市","大字コード":"037","丁目コード":"003","小字コード":"0000","予備コード":"00","大字名":"大楽毛","丁目名":"３丁目","小字名":null,"予備名":null,"地番":"6-10W2","精度区分":null,"座標値種別":"図上測量","筆界未定構成筆":null,"代表点緯度":8753.5135,"代表点経度":2617.866914336}},{"type":"MultiPolygon","arcs":[[[-110,-160,161]]],"properties":{"筆ID":"H000000058","version":"ver1.0","座標系":"任意座標系","測地系判別":null,"地図名":"大楽毛３・４丁目","地図番号":"T-5","縮尺分母":"2000","市区町村コード":"01206","市区町村名":"釧路市","大字コード":"037","丁目コード":"003","小字コード":"0000","予備コード":"00","大字名":"大楽毛","丁目名":"３丁目","小字名":null,"予備名":null,"地番":"6-19","精度区分":null,"座標値種別":"図上測量","筆界未定構成筆":null,"代表点緯度":9232.4125,"代表点経度":2565.31571036}},{"type":"MultiPolygon","arcs":[[[-122,-145,162,163,-100]]],"properties":{"筆ID":"H000000059","version":"ver1.0","座標系":"任意座標系","測地系判別":null,"地図名":"大楽毛３・４丁目","地図番号":"T-4","縮尺分母":"2000","市区町村コード":"01206","市区町村名":"釧路市","大字コード":"037","丁目コード":"003","小字コード":"0000","予備コード":"00","大字名":"大楽毛","丁目名":"３丁目","小字名":null,"予備名":null,"地番":"6-9W1","精度区分":null,"座標値種別":"図上測量","筆界未定構成筆":null,"代表点緯度":9159.931,"代表点経度":342.795507618}},{"type":"MultiPolygon","arcs":[[[-132,164,-163]]],"properties":{"筆ID":"H000000060","version":"ver1.0","座標系":"任意座標系","測地系判別":null,"地図名":"大楽毛３・４丁目","地図番号":"T-4","縮尺分母":"2000","市区町村コード":"01206","市区町村名":"釧路市","大字コード":"037","丁目コード":"003","小字コード":"0000","予備コード":"00","大字名":"大楽毛","丁目名":"３丁目","小字名":null,"予備名":null,"地番":"6-10W1","精度区分":null,"座標値種別":"図上測量","筆界未定構成筆":null,"代表点緯度":9157.2605,"代表点経度":321.294427065}},{"type":"MultiPolygon","arcs":[[[-157,-53,-81,165,-78,166,-54,-44,-14,-11,167,-134,-24]]],"properties":{"筆ID":"H000000061","version":"ver1.0","座標系":"任意座標系","測地系判別":null,"地図名":"大楽毛３・４丁目","地図番号":"T-4","縮尺分母":"2000","市区町村コード":"01206","市区町村名":"釧路市","大字コード":"037","丁目コード":"003","小字コード":"0000","予備コード":"00","大字名":"大楽毛","丁目名":"３丁目","小字名":null,"予備名":null,"地番":"6-1X(3/3)","精度区分":null,"座標値種別":"図上測量","筆界未定構成筆":null,"代表点緯度":8614.827,"代表点経度":728.718974619}},{"type":"MultiPolygon","arcs":[[[-166,-80,-21,-79]]],"properties":{"筆ID":"H000000062","version":"ver1.0","座標系":"任意座標系","測地系判別":null,"地図名":"大楽毛３・４丁目","地図番号":"T-4","縮尺分母":"2000","市区町村コード":"01206","市区町村名":"釧路市","大字コード":"037","丁目コード":"003","小字コード":"0000","予備コード":"00","大字名":"大楽毛","丁目名":"３丁目","小字名":null,"予備名":null,"地番":"2-29","精度区分":null,"座標値種別":"図上測量","筆界未定構成筆":null,"代表点緯度":8625.1465,"代表点経度":778.64716514}},{"type":"MultiPolygon","arcs":[[[-167,-77,-55]]],"properties":{"筆ID":"H000000063","version":"ver1.0","座標系":"任意座標系","測地系判別":null,"地図名":"大楽毛３・４丁目","地図番号":"T-4","縮尺分母":"2000","市区町村コード":"01206","市区町村名":"釧路市","大字コード":"037","丁目コード":"003","小字コード":"0000","予備コード":"00","大字名":"大楽毛","丁目名":"３丁目","小字名":null,"予備名":null,"地番":"2-27","精度区分":null,"座標値種別":"図上測量","筆界未定構成筆":null,"代表点緯度":8622.6075,"代表点経度":792.641536522}}]}},"arcs":[[[345565,738029],[-5372,-149193]],[[340193,588836],[-84058,27134]],[[256135,615970],[6487,176856]],[[262622,792826],[2160,60154]],[[264782,852980],[80120,-110903],[663,-4048]],[[330522,318456],[-84349,28107]],[[246173,346563],[145,5188]],[[246318,351751],[9817,264219]],[[340193,588836],[-9671,-270380]],[[327592,236304],[-960,-2725]],[[326632,233579],[-84404,3407]],[[242228,236986],[3945,109577]],[[330522,318456],[-2930,-82152]],[[242228,236986],[-44195,1655],[-1613,173],[-1650,133],[-1461,340],[-1740,163],[-1588,330],[-1616,557],[-1650,132],[-1554,754],[-1495,-84],[-1502,682],[-1436,495]],[[180728,242316],[4899,128292]],[[185627,370608],[60691,-18857]],[[185627,370608],[3485,91401]],[[189112,462009],[13309,350596]],[[202421,812605],[60201,-19779]],[[163195,451248],[-7392,-195260]],[[155803,255988],[-308,50]],[[155495,256038],[2491,65933],[-45800,16287],[9325,-70444]],[[121511,267814],[-5514,1847]],[[115997,269661],[-19504,6562],[-902,3530]],[[95591,279753],[809,16365],[644,14893],[113,4381],[62,4454],[113,4381],[-70,4826],[-56,4712],[-121,4899],[-146,4742],[-211,4930],[-222,4660],[-287,4847],[-408,4069],[-401,4722],[-12009,131887]],[[83401,498521],[58147,-20218]],[[141548,478303],[-705,-19346],[22352,-7709]],[[798888,769073],[5226,4432]],[[804114,773505],[11724,9357]],[[815838,782862],[36998,29681]],[[852836,812543],[13151,-144454],[51656,-46920],[21868,7304]],[[939511,628473],[12124,-290112]],[[951635,338361],[-196624,-71203]],[[755011,267158],[-8059,209005]],[[746952,476163],[41190,35176],[-9852,109224]],[[778290,620563],[-5444,60626]],[[772846,681189],[-5471,62274]],[[767375,743463],[26740,22060]],[[794115,765523],[4773,3550]],[[746952,476163],[-4422,116204]],[[742530,592367],[35760,28196]],[[742530,592367],[-2378,62306]],[[740152,654673],[32694,26516]],[[180728,242316],[-13175,5090]],[[167553,247406],[8660,218834]],[[176213,466240],[12899,-4231]],[[176213,466240],[-9364,3447]],[[166849,469687],[-2987,867]],[[163862,470554],[-22314,7749]],[[83401,498521],[-8623,94430]],[[74778,592951],[56831,-20363],[9866,260272],[60946,-20255]],[[155495,256038],[-2714,1810],[-3711,461]],[[149070,258309],[-27559,9505]],[[167553,247406],[-5207,1795]],[[162346,249201],[-898,3148],[-2980,1519]],[[158468,253868],[-7,766]],[[158461,254634],[8388,215053]],[[158461,254634],[-2658,1354]],[[163195,451248],[667,19306]],[[851063,832411],[1773,-19868]],[[815838,782862],[-3796,41784]],[[812042,824646],[34840,7830]],[[846882,832476],[4181,-65]],[[804114,773505],[-4348,48794]],[[799766,822299],[12276,2347]],[[757726,835101],[285,-17885],[2772,198]],[[760783,817414],[6592,-73951]],[[740152,654673],[-6791,174906]],[[733361,829579],[1041,3463]],[[734402,833042],[10999,2239]],[[745401,835281],[12325,-180]],[[760783,817414],[28309,3517]],[[789092,820931],[5023,-55408]],[[789092,820931],[4409,247],[792,113]],[[794293,821291],[4595,-52218]],[[794293,821291],[5473,1008]],[[158468,253868],[-124,-3232]],[[158344,250636],[-2630,1126]],[[155714,251762],[89,4226]],[[155495,256038],[-179,-4194]],[[155316,251844],[-6363,2467],[117,3998]],[[812042,824646],[-787,8945]],[[811255,833591],[35627,-1115]],[[799766,822299],[-1058,11875]],[[798708,834174],[12547,-583]],[[734402,833042],[741,2748],[10258,-509]],[[759094,835179],[1689,-17765]],[[757726,835101],[511,43]],[[758237,835144],[857,35]],[[759094,835179],[28849,-923]],[[787943,834256],[1149,-13325]],[[787943,834256],[5217,-94]],[[793160,834162],[1133,-12871]],[[793160,834162],[5548,12]],[[960543,241138],[-196111,-218917]],[[764432,22221],[-9421,244937]],[[951635,338361],[595,-11608],[53,-2910],[209,-4545],[244,-4122],[351,-4648],[274,-4731],[313,-4691],[451,-4410],[292,-5229],[306,-3924],[482,-5021],[398,-4338],[545,-4824],[592,-4513],[530,-4710],[634,-4855],[569,-4669],[654,-4316],[648,-4968],[768,-4191]],[[74778,592951],[-329,3769],[-456,3759],[-564,5706],[-518,3562],[-549,4173],[-588,4131],[-746,4733],[-612,3976],[-864,4990],[-881,4070],[-749,3696],[-919,4028],[-995,3944],[-912,3261],[-1071,3862],[-1043,3634],[-1143,3395],[-1105,3437],[-1254,2888],[-1102,3054],[-591,1677],[-35309,81152]],[[22478,753848],[-1043,2215],[-870,2920]],[[20565,758983],[-70,3406],[-49,3946],[-111,2330],[-363,7602]],[[19972,776267],[196307,218019]],[[216279,994286],[529,-3293],[753,-4079],[691,-4276],[767,-4193],[781,-4308],[763,-3810],[792,-4039],[932,-4141],[698,-3623],[981,-3832],[760,-3426],[1116,-4587],[839,-3727],[954,-3603],[1033,-3903],[1067,-3479],[939,-3489],[1044,-3634],[1095,-3706],[1153,-3126],[1016,-3406],[1119,-3551],[1192,-3085],[1077,-3209],[1116,-3168],[1101,-3053],[1202,-2816],[1192,-3085],[1098,-2671],[1333,-3188],[1264,-2619],[1198,-2432],[1368,-2763],[1264,-2619],[1264,-2618],[1416,-2453],[1302,-2578],[1492,-2370],[1312,-2308],[1506,-2483],[1370,-1728],[1375,-2111],[1426,-2183],[1436,-1915],[377,-620]],[[733361,829579],[-125,2443]],[[733236,832022],[1166,1020]],[[745401,835281],[12659,2379],[177,-2516]],[[889470,845568],[-11769,-3339],[-13800,-6082],[-17019,-3671]],[[733236,832022],[-608,15596],[-433,12042]],[[732195,859660],[124078,-3606],[1819,-459],[1495,89],[1537,-253],[1764,-4],[1537,-253],[1536,-253],[1484,-180],[1603,-439],[1819,-459],[1513,-409],[1526,-522],[1526,-522],[1720,-698],[1616,-552],[1540,-636],[1464,-720],[1644,-781],[1426,-760],[1682,-739],[1530,-906],[1416,-1030]],[[733236,832022],[-3364,159],[-3712,-1076]],[[726160,831105],[-1796,4880],[-1508,26]],[[722856,836011],[-550,24304],[9889,-655]],[[338348,244054],[19206,536223]],[[357554,780277],[5735,-28825],[-326,-11838],[598,-5281],[2237,-2845],[1902,-22047],[-4365,6198],[-1446,-2612],[-1920,-50086],[-14299,-411535],[-7322,-7352]],[[338348,244054],[-7169,-7186]],[[331179,236868],[20612,572463]],[[351791,809331],[5763,-29054]],[[346484,763413],[-919,-25384]],[[216279,994286],[5112,5713],[491,-3334],[857,-4225],[705,-4389],[763,-3811],[712,-3737],[1002,-4712],[881,-4069],[891,-3800],[812,-3499],[919,-4028],[770,-3157],[1050,-4400],[1006,-3676],[1005,-3675],[1029,-3520],[1002,-3292],[1174,-4007],[1040,-3251],[1064,-3094],[1105,-3438],[970,-2681],[1237,-3810],[1309,-3344],[1088,-2939],[1191,-3085],[1230,-3043],[1264,-2618],[1191,-3085],[1109,-2402],[1433,-2950],[1237,-2390],[1457,-2795],[1277,-2733],[1313,-2308],[1457,-2794],[1271,-1967],[1402,-2338],[1506,-2484],[1281,-1697],[1478,-2255],[1502,-2101],[78269,-108409],[1343,2756]],[[346484,763413],[1858,48471],[3449,-2553]],[[331179,236868],[-3587,-564]],[[22478,753848],[-753,-177],[-1135,-209]],[[20590,753462],[-25,5521]],[[985791,702776],[-17394,23793]],[[968397,726569],[-7418,22072],[-5437,20630]],[[955542,769271],[29903,-40678],[346,-25817]],[[985791,702776],[14141,-333198]],[[999932,369578],[-45648,61889],[-910,2875],[-13851,326933],[1224,3018]],[[940747,764293],[27650,-37724]],[[965795,246760],[-848,4492],[-602,4244],[-554,4555],[-596,4896],[-575,4016],[-489,4369],[-558,4937],[-437,4297],[-492,4752],[-479,4638],[-243,4120],[-451,4411],[-316,5073],[-379,4876],[-285,4463],[-237,4773],[-288,4846],[-155,5509],[-3710,85624],[1380,2802],[44518,-60029]],[[999999,358424],[-34204,-111664]],[[7817,686491],[-7817,58029],[241,8648]],[[241,753168],[13291,327]],[[13532,753495],[-78,-9631],[-412,-12191],[-672,-10409],[-862,-9197],[-1076,-9561],[-1441,-10089],[-1174,-5926]],[[95591,279753],[-1376,-34012]],[[94215,245741],[-4782,1485]],[[89433,247226],[-73,953],[-691,2858],[-2941,1560],[-597,23343]],[[85131,275940],[5700,-2675],[1170,3470],[1707,41211],[-822,3230],[-9558,3624]],[[83328,324800],[-260,10294]],[[83068,335094],[9978,-3551],[777,3171],[-122,4898],[-187,5085],[-183,4702],[-270,4349],[-433,5333],[-373,4495],[-138,1138],[-6794,71918],[-1099,2671],[-10323,3560]],[[73901,442863],[-589,11226]],[[73312,454089],[9695,-3344],[670,3698],[-11604,126781],[-1054,1945],[-18085,6565]],[[52934,589734],[-547,10884]],[[52387,600618],[17302,-6130],[1018,3305],[-622,5126],[-723,4887],[-563,4287],[-691,4276],[-771,4577],[-711,3738],[-754,4080],[-839,3727],[-971,4099],[-877,3687],[-1047,4017],[-991,3561],[-909,2878],[-1208,3582],[-1144,3395],[-1139,3013],[-1206,3198],[-32557,73709],[-2861,-4416],[-1244,-19160],[-1155,-12098],[-2038,-14740],[-1342,-8432],[-1501,-7831],[-1611,-6920]],[[11232,664033],[-3415,22458]],[[13532,753495],[7058,-33]],[[52387,600618],[-41155,63415]],[[73312,454089],[-20378,135645]],[[83068,335094],[-9167,107769]],[[85131,275940],[-1803,48860]],[[94215,245741],[-1098,-28161],[-4502,3081],[818,26565]],[[999932,369578],[67,-11154]],[[965795,246760],[-5252,-5622]],[[939511,628473],[-6273,144502],[-612,2420]],[[932626,775395],[8121,-11102]],[[932626,775395],[-52,207],[-7411,10338],[-763,971],[-1306,1538],[-1309,1921],[-1541,2055],[-1461,1754],[-1396,1570],[-1413,2065],[-1509,1444],[-1475,1869],[-1523,1558],[-1565,1899],[-1665,1661],[-1330,1383],[-1637,1433],[-1405,1299],[-1496,1331],[-1468,1102],[-1651,1547],[-1326,1000],[-1571,1246],[-1534,1289],[-1571,1247],[-1326,1000],[-1285,657],[-1558,1133],[-1450,605],[-1568,864],[-1568,864],[-1502,678],[-1478,833],[-1464,720],[-1616,552],[-1682,739],[-1578,595],[-1616,553],[-1436,492],[-1616,552],[-1692,470],[-1640,397],[-1347,461],[-1702,201],[-1598,56],[-1499,294],[-1575,212],[-1608,-214],[-1664,242],[-5117,333]],[[889470,845568],[1464,-719],[1633,-1050],[1464,-719],[1430,-1145],[1520,-1174],[1713,-1350],[1495,-1330],[1544,-1019],[1392,-1186],[1496,-1330],[1523,-1558],[1547,-1402],[1368,-1341],[1406,-1300],[1485,-1599],[1409,-1683],[1434,-1527],[1343,-1496],[1617,-1972],[1513,-1827],[1281,-1694],[1424,-1797],[1357,-1610],[1545,-2438],[1488,-1982],[1178,-1550],[764,-970],[8149,-11464],[19090,-26065]],[[121511,267814],[1862,-7901],[-5283,1714],[-2093,8034]],[[764432,22221],[-3468,-3670],[-3492,-3824]],[[757472,14727],[-31179,816015],[-133,363]],[[722983,830515],[3177,590]],[[757472,14727],[-13093,-14727],[2242,84787],[1568,85728],[-5814,89126],[-8816,233599],[-7135,124717],[-915,103655],[-2526,108903]],[[722983,830515],[-127,5496]],[[13532,753495],[-292,15161]],[[13240,768656],[6732,7611]],[[241,753168],[-4,1802],[13003,13686]],[[155316,251844],[398,-82]],[[158344,250636],[4002,-1435]],[[326632,233579],[-18309,-23480],[-110267,4959],[-1739,164],[-1561,101],[-1433,113],[-1357,195],[-1612,174],[-1664,247],[-1602,443],[-1678,360],[-1423,382],[-1819,463],[-435,41],[-35825,13120],[-290,-4703],[-14698,5232],[-2373,9277],[-5334,1785],[2128,-9028],[-22253,7947],[165,4309],[-8130,2859],[-908,-2798]]],"bbox":[289.693,8359.124,3432.435,9406.803],"transform":{"scale":[0.0031427451427451427,0.0010476800476800477],"translate":[289.693,8359.124]}}
