{"type":"Topology","objects":{"01206-4600-3.featurecollection":{"type":"GeometryCollection","geometries":[{"type":"Polygon","arcs":[[0,1,2,3]],"properties":{"市区町村名":"釧路市","大字名":"中園町","丁目名":null,"小字名":null,"地番":"13-1","精度区分":null,"座標系":"任意座標系"}},{"type":"Polygon","arcs":[[-3,4,5,6]],"properties":{"市区町村名":"釧路市","大字名":"中園町","丁目名":null,"小字名":null,"地番":"13-2","精度区分":null,"座標系":"任意座標系"}},{"type":"Polygon","arcs":[[-4,-7,7]],"properties":{"市区町村名":"釧路市","大字名":"中園町","丁目名":null,"小字名":null,"地番":"長狭物不明-13","精度区分":null,"座標系":"任意座標系"}},{"type":"Polygon","arcs":[[8,-5,-2]],"properties":{"市区町村名":"釧路市","大字名":"中園町","丁目名":null,"小字名":null,"地番":"長狭物不明-14","精度区分":null,"座標系":"任意座標系"}}]}},"arcs":[[[449175,42276],[-388844,275229]],[[60331,317505],[-937,13077],[138204,182964]],[[197598,513546],[404692,-287469]],[[602290,226077],[-137728,-181371],[-15387,-2430]],[[197598,513546],[349881,462264]],[[547479,975810],[10502,635]],[[557981,976445],[305180,-389670],[379,-15103],[-261250,-345595]],[[557981,976445],[86530,-35163],[43189,-55684],[13226,-374],[6163,7674],[55837,-39597],[-18609,-24152],[19,-15568],[146311,-188205],[14466,910],[58501,76584],[36385,-27165],[-60022,-79853],[1218,-12062],[21860,-15155],[-19606,-26101],[-22384,15777],[-10136,-1140],[-128005,-167774],[691,-9497],[23466,-16319],[-14163,-19359],[-23507,16592],[-9578,-1063],[-102911,-140073],[1499,-12997],[18852,-13211],[-22127,-28400],[-18010,12357],[-12541,-2311],[-119157,-162781],[2260,-12335],[-58523,42276]],[[60331,317505],[-60331,42862],[14185,3791],[150490,199559],[-89,7355],[-14159,10533],[14806,18893],[12232,-8161],[12301,2972],[171737,228112],[-290,9690],[-12917,8900],[14564,18580],[11954,-8197],[9499,634],[110475,146971],[52691,-24189]]],"bbox":[463.818,5252.951,780.703,5579.26],"transform":{"scale":[0.00031688531688531685,0.0003263093263093265],"translate":[463.818,5252.951]}}