{"type":"Topology","objects":{"01206-4600-31.featurecollection":{"type":"GeometryCollection","geometries":[{"type":"Polygon","arcs":[[0]],"properties":{"市区町村名":"釧路市","大字名":"星が浦大通","丁目名":"３丁目","小字名":null,"地番":"1-1","精度区分":null,"座標系":"任意座標系"}},{"type":"Polygon","arcs":[[1,2,3,4]],"properties":{"市区町村名":"釧路市","大字名":"星が浦大通","丁目名":"３丁目","小字名":null,"地番":"1-2","精度区分":null,"座標系":"任意座標系"}},{"type":"Polygon","arcs":[[-3,5,6,7,8,9]],"properties":{"市区町村名":"釧路市","大字名":"星が浦大通","丁目名":"３丁目","小字名":null,"地番":"1-3","精度区分":null,"座標系":"任意座標系"}},{"type":"Polygon","arcs":[[10,11,12,13,14,15,16]],"properties":{"市区町村名":"釧路市","大字名":"星が浦大通","丁目名":"３丁目","小字名":null,"地番":"1-4","精度区分":null,"座標系":"任意座標系"}},{"type":"Polygon","arcs":[[17,18,19]],"properties":{"市区町村名":"釧路市","大字名":"星が浦大通","丁目名":"３丁目","小字名":null,"地番":"1-8","精度区分":null,"座標系":"任意座標系"}},{"type":"Polygon","arcs":[[-16,20,-20,21,22]],"properties":{"市区町村名":"釧路市","大字名":"星が浦大通","丁目名":"３丁目","小字名":null,"地番":"1-9","精度区分":null,"座標系":"任意座標系"}},{"type":"Polygon","arcs":[[-17,-23,23,24]],"properties":{"市区町村名":"釧路市","大字名":"星が浦大通","丁目名":"３丁目","小字名":null,"地番":"1-10","精度区分":null,"座標系":"任意座標系"}},{"type":"Polygon","arcs":[[25,26,-11,-25,27,28,29]],"properties":{"市区町村名":"釧路市","大字名":"星が浦大通","丁目名":"３丁目","小字名":null,"地番":"1-11","精度区分":null,"座標系":"任意座標系"}},{"type":"Polygon","arcs":[[30,-12,-27,31]],"properties":{"市区町村名":"釧路市","大字名":"星が浦大通","丁目名":"３丁目","小字名":null,"地番":"1-15","精度区分":null,"座標系":"任意座標系"}},{"type":"Polygon","arcs":[[32,-32,-26,33,-7]],"properties":{"市区町村名":"釧路市","大字名":"星が浦大通","丁目名":"３丁目","小字名":null,"地番":"1-16","精度区分":null,"座標系":"任意座標系"}},{"type":"Polygon","arcs":[[-21,34,35,36,-18]],"properties":{"市区町村名":"釧路市","大字名":"星が浦大通","丁目名":"３丁目","小字名":null,"地番":"1-17","精度区分":null,"座標系":"任意座標系"}},{"type":"Polygon","arcs":[[37,38,39]],"properties":{"市区町村名":"釧路市","大字名":"星が浦大通","丁目名":"３丁目","小字名":null,"地番":"1-18","精度区分":null,"座標系":"任意座標系"}},{"type":"Polygon","arcs":[[40,-40,41,42]],"properties":{"市区町村名":"釧路市","大字名":"星が浦大通","丁目名":"３丁目","小字名":null,"地番":"1-19","精度区分":null,"座標系":"任意座標系"}},{"type":"Polygon","arcs":[[43,44,45]],"properties":{"市区町村名":"釧路市","大字名":"星が浦大通","丁目名":"３丁目","小字名":null,"地番":"1-20","精度区分":null,"座標系":"任意座標系"}},{"type":"Polygon","arcs":[[-14,46,-44,47]],"properties":{"市区町村名":"釧路市","大字名":"星が浦大通","丁目名":"３丁目","小字名":null,"地番":"1-21","精度区分":null,"座標系":"任意座標系"}},{"type":"Polygon","arcs":[[48,-29,49]],"properties":{"市区町村名":"釧路市","大字名":"星が浦大通","丁目名":"３丁目","小字名":null,"地番":"1-22","精度区分":null,"座標系":"任意座標系"}},{"type":"Polygon","arcs":[[50,51,52,53,54,55,56,57,58]],"properties":{"市区町村名":"釧路市","大字名":"星が浦大通","丁目名":"３丁目","小字名":null,"地番":"4-1","精度区分":null,"座標系":"任意座標系"}},{"type":"Polygon","arcs":[[59,60,61,62,63]],"properties":{"市区町村名":"釧路市","大字名":"星が浦大通","丁目名":"３丁目","小字名":null,"地番":"4-2","精度区分":null,"座標系":"任意座標系"}},{"type":"Polygon","arcs":[[64,-63,65,66,67]],"properties":{"市区町村名":"釧路市","大字名":"星が浦大通","丁目名":"３丁目","小字名":null,"地番":"4-3","精度区分":null,"座標系":"任意座標系"}},{"type":"Polygon","arcs":[[68,-67,69,70,71]],"properties":{"市区町村名":"釧路市","大字名":"星が浦大通","丁目名":"３丁目","小字名":null,"地番":"4-4","精度区分":null,"座標系":"任意座標系"}},{"type":"Polygon","arcs":[[72,-71,73,74,75]],"properties":{"市区町村名":"釧路市","大字名":"星が浦大通","丁目名":"３丁目","小字名":null,"地番":"4-5","精度区分":null,"座標系":"任意座標系"}},{"type":"Polygon","arcs":[[76,-75,77,78,79]],"properties":{"市区町村名":"釧路市","大字名":"星が浦大通","丁目名":"３丁目","小字名":null,"地番":"4-6","精度区分":null,"座標系":"任意座標系"}},{"type":"Polygon","arcs":[[-79,80,81,82]],"properties":{"市区町村名":"釧路市","大字名":"星が浦大通","丁目名":"３丁目","小字名":null,"地番":"4-7","精度区分":null,"座標系":"任意座標系"}},{"type":"Polygon","arcs":[[83,84,-82,85,86,87,88]],"properties":{"市区町村名":"釧路市","大字名":"星が浦大通","丁目名":"３丁目","小字名":null,"地番":"4-8","精度区分":null,"座標系":"任意座標系"}},{"type":"Polygon","arcs":[[89,90,91,92,93]],"properties":{"市区町村名":"釧路市","大字名":"星が浦大通","丁目名":"３丁目","小字名":null,"地番":"4-9","精度区分":null,"座標系":"任意座標系"}},{"type":"Polygon","arcs":[[-92,94,95,96,97]],"properties":{"市区町村名":"釧路市","大字名":"星が浦大通","丁目名":"３丁目","小字名":null,"地番":"4-10","精度区分":null,"座標系":"任意座標系"}},{"type":"Polygon","arcs":[[-96,98,99,100,101]],"properties":{"市区町村名":"釧路市","大字名":"星が浦大通","丁目名":"３丁目","小字名":null,"地番":"4-11","精度区分":null,"座標系":"任意座標系"}},{"type":"Polygon","arcs":[[-100,102,103,104,105]],"properties":{"市区町村名":"釧路市","大字名":"星が浦大通","丁目名":"３丁目","小字名":null,"地番":"4-12","精度区分":null,"座標系":"任意座標系"}},{"type":"Polygon","arcs":[[106,-104,107,108,109,110]],"properties":{"市区町村名":"釧路市","大字名":"星が浦大通","丁目名":"３丁目","小字名":null,"地番":"4-13","精度区分":null,"座標系":"任意座標系"}},{"type":"Polygon","arcs":[[111,112,113,-109]],"properties":{"市区町村名":"釧路市","大字名":"星が浦大通","丁目名":"３丁目","小字名":null,"地番":"4-14","精度区分":null,"座標系":"任意座標系"}},{"type":"Polygon","arcs":[[-110,-114,114,115]],"properties":{"市区町村名":"釧路市","大字名":"星が浦大通","丁目名":"３丁目","小字名":null,"地番":"4-15","精度区分":null,"座標系":"任意座標系"}},{"type":"Polygon","arcs":[[-111,-116,116,117]],"properties":{"市区町村名":"釧路市","大字名":"星が浦大通","丁目名":"３丁目","小字名":null,"地番":"4-16","精度区分":null,"座標系":"任意座標系"}},{"type":"Polygon","arcs":[[-105,-107,-118,118,119]],"properties":{"市区町村名":"釧路市","大字名":"星が浦大通","丁目名":"３丁目","小字名":null,"地番":"4-17","精度区分":null,"座標系":"任意座標系"}},{"type":"Polygon","arcs":[[-101,-106,-120,120,121]],"properties":{"市区町村名":"釧路市","大字名":"星が浦大通","丁目名":"３丁目","小字名":null,"地番":"4-18","精度区分":null,"座標系":"任意座標系"}},{"type":"Polygon","arcs":[[-97,-102,-122,122,123]],"properties":{"市区町村名":"釧路市","大字名":"星が浦大通","丁目名":"３丁目","小字名":null,"地番":"4-19","精度区分":null,"座標系":"任意座標系"}},{"type":"Polygon","arcs":[[-93,-98,-124,124,125]],"properties":{"市区町村名":"釧路市","大字名":"星が浦大通","丁目名":"３丁目","小字名":null,"地番":"4-20","精度区分":null,"座標系":"任意座標系"}},{"type":"Polygon","arcs":[[-94,-126,126,127]],"properties":{"市区町村名":"釧路市","大字名":"星が浦大通","丁目名":"３丁目","小字名":null,"地番":"4-21","精度区分":null,"座標系":"任意座標系"}},{"type":"Polygon","arcs":[[128,129,130,131,132]],"properties":{"市区町村名":"釧路市","大字名":"星が浦大通","丁目名":"３丁目","小字名":null,"地番":"4-22","精度区分":null,"座標系":"任意座標系"}},{"type":"Polygon","arcs":[[133,134,135,136,-131]],"properties":{"市区町村名":"釧路市","大字名":"星が浦大通","丁目名":"３丁目","小字名":null,"地番":"4-23","精度区分":null,"座標系":"任意座標系"}},{"type":"Polygon","arcs":[[137,138,139,-135]],"properties":{"市区町村名":"釧路市","大字名":"星が浦大通","丁目名":"３丁目","小字名":null,"地番":"4-24","精度区分":null,"座標系":"任意座標系"}},{"type":"Polygon","arcs":[[140,-139,141,142,143,144]],"properties":{"市区町村名":"釧路市","大字名":"星が浦大通","丁目名":"３丁目","小字名":null,"地番":"4-25","精度区分":null,"座標系":"任意座標系"}},{"type":"Polygon","arcs":[[-143,145,146,147,148]],"properties":{"市区町村名":"釧路市","大字名":"星が浦大通","丁目名":"３丁目","小字名":null,"地番":"4-27","精度区分":null,"座標系":"任意座標系"}},{"type":"Polygon","arcs":[[149,150,-147]],"properties":{"市区町村名":"釧路市","大字名":"星が浦大通","丁目名":"３丁目","小字名":null,"地番":"4-28","精度区分":null,"座標系":"任意座標系"}},{"type":"Polygon","arcs":[[-148,-151,151,152]],"properties":{"市区町村名":"釧路市","大字名":"星が浦大通","丁目名":"３丁目","小字名":null,"地番":"4-29","精度区分":null,"座標系":"任意座標系"}},{"type":"Polygon","arcs":[[-144,-149,-153,153,154]],"properties":{"市区町村名":"釧路市","大字名":"星が浦大通","丁目名":"３丁目","小字名":null,"地番":"4-30","精度区分":null,"座標系":"任意座標系"}},{"type":"Polygon","arcs":[[-145,-155,155,156]],"properties":{"市区町村名":"釧路市","大字名":"星が浦大通","丁目名":"３丁目","小字名":null,"地番":"4-31","精度区分":null,"座標系":"任意座標系"}},{"type":"Polygon","arcs":[[-136,-140,-141,-157,157,158]],"properties":{"市区町村名":"釧路市","大字名":"星が浦大通","丁目名":"３丁目","小字名":null,"地番":"4-32","精度区分":null,"座標系":"任意座標系"}},{"type":"Polygon","arcs":[[-137,-159,159,160,-132]],"properties":{"市区町村名":"釧路市","大字名":"星が浦大通","丁目名":"３丁目","小字名":null,"地番":"4-33","精度区分":null,"座標系":"任意座標系"}},{"type":"Polygon","arcs":[[-133,-161,161]],"properties":{"市区町村名":"釧路市","大字名":"星が浦大通","丁目名":"３丁目","小字名":null,"地番":"4-34","精度区分":null,"座標系":"任意座標系"}},{"type":"Polygon","arcs":[[162,163,164,-87]],"properties":{"市区町村名":"釧路市","大字名":"星が浦大通","丁目名":"３丁目","小字名":null,"地番":"4-35","精度区分":null,"座標系":"任意座標系"}},{"type":"Polygon","arcs":[[165,166,167,-164]],"properties":{"市区町村名":"釧路市","大字名":"星が浦大通","丁目名":"３丁目","小字名":null,"地番":"4-36","精度区分":null,"座標系":"任意座標系"}},{"type":"Polygon","arcs":[[168,169,170,-167]],"properties":{"市区町村名":"釧路市","大字名":"星が浦大通","丁目名":"３丁目","小字名":null,"地番":"4-37","精度区分":null,"座標系":"任意座標系"}},{"type":"Polygon","arcs":[[171,172,173,-170]],"properties":{"市区町村名":"釧路市","大字名":"星が浦大通","丁目名":"３丁目","小字名":null,"地番":"4-38","精度区分":null,"座標系":"任意座標系"}},{"type":"Polygon","arcs":[[174,175,176,-173]],"properties":{"市区町村名":"釧路市","大字名":"星が浦大通","丁目名":"３丁目","小字名":null,"地番":"4-39","精度区分":null,"座標系":"任意座標系"}},{"type":"Polygon","arcs":[[177,178,179,-176]],"properties":{"市区町村名":"釧路市","大字名":"星が浦大通","丁目名":"３丁目","小字名":null,"地番":"4-40","精度区分":null,"座標系":"任意座標系"}},{"type":"Polygon","arcs":[[180,181,182,183]],"properties":{"市区町村名":"釧路市","大字名":"星が浦大通","丁目名":"３丁目","小字名":null,"地番":"4-41","精度区分":null,"座標系":"任意座標系"}},{"type":"Polygon","arcs":[[184,185,-182,186]],"properties":{"市区町村名":"釧路市","大字名":"星が浦大通","丁目名":"３丁目","小字名":null,"地番":"4-43","精度区分":null,"座標系":"任意座標系"}},{"type":"Polygon","arcs":[[187,188,-185,189]],"properties":{"市区町村名":"釧路市","大字名":"星が浦大通","丁目名":"３丁目","小字名":null,"地番":"4-44","精度区分":null,"座標系":"任意座標系"}},{"type":"Polygon","arcs":[[190,191,-188,192]],"properties":{"市区町村名":"釧路市","大字名":"星が浦大通","丁目名":"３丁目","小字名":null,"地番":"4-45","精度区分":null,"座標系":"任意座標系"}},{"type":"Polygon","arcs":[[193,194,-191,195]],"properties":{"市区町村名":"釧路市","大字名":"星が浦大通","丁目名":"３丁目","小字名":null,"地番":"4-46","精度区分":null,"座標系":"任意座標系"}},{"type":"Polygon","arcs":[[196,197,-194,198]],"properties":{"市区町村名":"釧路市","大字名":"星が浦大通","丁目名":"３丁目","小字名":null,"地番":"4-47","精度区分":null,"座標系":"任意座標系"}},{"type":"Polygon","arcs":[[199,200,-197,201]],"properties":{"市区町村名":"釧路市","大字名":"星が浦大通","丁目名":"３丁目","小字名":null,"地番":"4-48","精度区分":null,"座標系":"任意座標系"}},{"type":"Polygon","arcs":[[-183,-186,-189,-192,-195,-198,-201,202,203,204,205]],"properties":{"市区町村名":"釧路市","大字名":"星が浦大通","丁目名":"３丁目","小字名":null,"地番":"4-49","精度区分":null,"座標系":"任意座標系"}},{"type":"Polygon","arcs":[[206,207,-204]],"properties":{"市区町村名":"釧路市","大字名":"星が浦大通","丁目名":"３丁目","小字名":null,"地番":"4-50","精度区分":null,"座標系":"任意座標系"}},{"type":"Polygon","arcs":[[-179,208,-184,-206,209,210]],"properties":{"市区町村名":"釧路市","大字名":"星が浦大通","丁目名":"３丁目","小字名":null,"地番":"4-51","精度区分":null,"座標系":"任意座標系"}},{"type":"Polygon","arcs":[[-88,-165,-168,-171,-174,-177,-180,-211,211,212]],"properties":{"市区町村名":"釧路市","大字名":"星が浦大通","丁目名":"３丁目","小字名":null,"地番":"4-52","精度区分":null,"座標系":"任意座標系"}},{"type":"Polygon","arcs":[[213,214,215,216,217,218,219,220,221]],"properties":{"市区町村名":"釧路市","大字名":"星が浦大通","丁目名":"３丁目","小字名":null,"地番":"4-53","精度区分":null,"座標系":"任意座標系"}},{"type":"Polygon","arcs":[[222,223,224,225,226,227,228,229,230,231,232,233]],"properties":{"市区町村名":"釧路市","大字名":"星が浦大通","丁目名":"３丁目","小字名":null,"地番":"4-54","精度区分":null,"座標系":"任意座標系"}},{"type":"Polygon","arcs":[[-178,-175,-172,-169,-166,-163,-86,-81,-78,-74,-70,-66,-62,234,-90,-128,235,-129,-162,-160,-158,-156,-154,-152,-150,-146,-142,-138,-134,-130,-236,-127,-125,-123,-121,-119,-117,-115,-113,236,-202,-199,-196,-193,-190,-187,-181,-209]],"properties":{"市区町村名":"釧路市","大字名":"星が浦大通","丁目名":"３丁目","小字名":null,"地番":"4-55","精度区分":null,"座標系":"任意座標系"}},{"type":"Polygon","arcs":[[237,-89,-213,238,-220]],"properties":{"市区町村名":"釧路市","大字名":"星が浦大通","丁目名":"３丁目","小字名":null,"地番":"4-56","精度区分":null,"座標系":"任意座標系"}},{"type":"Polygon","arcs":[[239,240,241,242,243]],"properties":{"市区町村名":"釧路市","大字名":"星が浦大通","丁目名":"３丁目","小字名":null,"地番":"4-57","精度区分":null,"座標系":"任意座標系"}},{"type":"Polygon","arcs":[[244,245,-241,246]],"properties":{"市区町村名":"釧路市","大字名":"星が浦大通","丁目名":"３丁目","小字名":null,"地番":"4-58","精度区分":null,"座標系":"任意座標系"}},{"type":"Polygon","arcs":[[247,248,-245,249]],"properties":{"市区町村名":"釧路市","大字名":"星が浦大通","丁目名":"３丁目","小字名":null,"地番":"4-59","精度区分":null,"座標系":"任意座標系"}},{"type":"Polygon","arcs":[[250,251,252,253]],"properties":{"市区町村名":"釧路市","大字名":"星が浦大通","丁目名":"３丁目","小字名":null,"地番":"4-60","精度区分":null,"座標系":"任意座標系"}},{"type":"Polygon","arcs":[[-252,254,-53,255,256]],"properties":{"市区町村名":"釧路市","大字名":"星が浦大通","丁目名":"３丁目","小字名":null,"地番":"4-61","精度区分":null,"座標系":"任意座標系"}},{"type":"Polygon","arcs":[[-256,-52,257,-249]],"properties":{"市区町村名":"釧路市","大字名":"星が浦大通","丁目名":"３丁目","小字名":null,"地番":"4-62","精度区分":null,"座標系":"任意座標系"}},{"type":"Polygon","arcs":[[-258,-51,258,-246]],"properties":{"市区町村名":"釧路市","大字名":"星が浦大通","丁目名":"３丁目","小字名":null,"地番":"4-63","精度区分":null,"座標系":"任意座標系"}},{"type":"Polygon","arcs":[[259,-242,-259,-59,260,261,262]],"properties":{"市区町村名":"釧路市","大字名":"星が浦大通","丁目名":"３丁目","小字名":null,"地番":"4-64","精度区分":null,"座標系":"任意座標系"}},{"type":"Polygon","arcs":[[-261,-58,263,-72,-73,264,265]],"properties":{"市区町村名":"釧路市","大字名":"星が浦大通","丁目名":"３丁目","小字名":null,"地番":"4-65","精度区分":null,"座標系":"任意座標系"}},{"type":"Polygon","arcs":[[266,-68,-69,-264,-57]],"properties":{"市区町村名":"釧路市","大字名":"星が浦大通","丁目名":"３丁目","小字名":null,"地番":"4-66","精度区分":null,"座標系":"任意座標系"}},{"type":"Polygon","arcs":[[267,-64,-65,-267,-56]],"properties":{"市区町村名":"釧路市","大字名":"星が浦大通","丁目名":"３丁目","小字名":null,"地番":"4-67","精度区分":null,"座標系":"任意座標系"}},{"type":"Polygon","arcs":[[268,-60,-268,-55]],"properties":{"市区町村名":"釧路市","大字名":"星が浦大通","丁目名":"３丁目","小字名":null,"地番":"4-68","精度区分":null,"座標系":"任意座標系"}},{"type":"Polygon","arcs":[[269,-215,270,-225]],"properties":{"市区町村名":"釧路市","大字名":"星が浦大通","丁目名":"３丁目","小字名":null,"地番":"4-69","精度区分":null,"座標系":"任意座標系"}},{"type":"Polygon","arcs":[[-224,271,-216,-270]],"properties":{"市区町村名":"釧路市","大字名":"星が浦大通","丁目名":"３丁目","小字名":null,"地番":"4-70","精度区分":null,"座標系":"任意座標系"}},{"type":"Polygon","arcs":[[-223,272,-217,-272]],"properties":{"市区町村名":"釧路市","大字名":"星が浦大通","丁目名":"３丁目","小字名":null,"地番":"4-71","精度区分":null,"座標系":"任意座標系"}},{"type":"Polygon","arcs":[[-234,273,-218,-273]],"properties":{"市区町村名":"釧路市","大字名":"星が浦大通","丁目名":"３丁目","小字名":null,"地番":"4-72","精度区分":null,"座標系":"任意座標系"}},{"type":"Polygon","arcs":[[-274,-233,274,-84,-238,-219]],"properties":{"市区町村名":"釧路市","大字名":"星が浦大通","丁目名":"３丁目","小字名":null,"地番":"4-73","精度区分":null,"座標系":"任意座標系"}},{"type":"Polygon","arcs":[[-232,275,-80,-83,-85,-275]],"properties":{"市区町村名":"釧路市","大字名":"星が浦大通","丁目名":"３丁目","小字名":null,"地番":"4-74","精度区分":null,"座標系":"任意座標系"}},{"type":"Polygon","arcs":[[-265,-76,-77,-276,-231,276]],"properties":{"市区町村名":"釧路市","大字名":"星が浦大通","丁目名":"３丁目","小字名":null,"地番":"4-75","精度区分":null,"座標系":"任意座標系"}},{"type":"Polygon","arcs":[[-262,-266,-277,-230,277]],"properties":{"市区町村名":"釧路市","大字名":"星が浦大通","丁目名":"３丁目","小字名":null,"地番":"4-76","精度区分":null,"座標系":"任意座標系"}},{"type":"Polygon","arcs":[[-263,-278,-229,278]],"properties":{"市区町村名":"釧路市","大字名":"星が浦大通","丁目名":"３丁目","小字名":null,"地番":"4-77","精度区分":null,"座標系":"任意座標系"}},{"type":"Polygon","arcs":[[-243,-260,-279,-228,279]],"properties":{"市区町村名":"釧路市","大字名":"星が浦大通","丁目名":"３丁目","小字名":null,"地番":"4-78","精度区分":null,"座標系":"任意座標系"}},{"type":"Polygon","arcs":[[280,-244,-280,-227]],"properties":{"市区町村名":"釧路市","大字名":"星が浦大通","丁目名":"３丁目","小字名":null,"地番":"4-79","精度区分":null,"座標系":"任意座標系"}},{"type":"Polygon","arcs":[[-253,-257,-248,281]],"properties":{"市区町村名":"釧路市","大字名":"星が浦大通","丁目名":"３丁目","小字名":null,"地番":"4-80","精度区分":null,"座標系":"任意座標系"}},{"type":"Polygon","arcs":[[282,283,284,285,286,287,288,289,290]],"properties":{"市区町村名":"釧路市","大字名":"星が浦大通","丁目名":"３丁目","小字名":null,"地番":"10W3","精度区分":null,"座標系":"任意座標系"}},{"type":"Polygon","arcs":[[-221,-239,-212,-210,-205,-208,291,292]],"properties":{"市区町村名":"釧路市","大字名":"星が浦大通","丁目名":"３丁目","小字名":null,"地番":"11W2","精度区分":null,"座標系":"任意座標系"}},{"type":"Polygon","arcs":[[293,294,295,296,-285]],"properties":{"市区町村名":"釧路市","大字名":"星が浦大通","丁目名":"４丁目","小字名":null,"地番":"1-1","精度区分":null,"座標系":"任意座標系"}},{"type":"Polygon","arcs":[[297,298,299,-296,300]],"properties":{"市区町村名":"釧路市","大字名":"星が浦大通","丁目名":"４丁目","小字名":null,"地番":"1-2","精度区分":null,"座標系":"任意座標系"}},{"type":"Polygon","arcs":[[301,302,303,-298,304]],"properties":{"市区町村名":"釧路市","大字名":"星が浦大通","丁目名":"４丁目","小字名":null,"地番":"1-3","精度区分":null,"座標系":"任意座標系"}},{"type":"Polygon","arcs":[[305,306,-302,307]],"properties":{"市区町村名":"釧路市","大字名":"星が浦大通","丁目名":"４丁目","小字名":null,"地番":"1-4","精度区分":null,"座標系":"任意座標系"}},{"type":"Polygon","arcs":[[308,309,310,311,312,-306]],"properties":{"市区町村名":"釧路市","大字名":"星が浦大通","丁目名":"４丁目","小字名":null,"地番":"1-5","精度区分":null,"座標系":"任意座標系"}},{"type":"Polygon","arcs":[[313,314,-310,315]],"properties":{"市区町村名":"釧路市","大字名":"星が浦大通","丁目名":"４丁目","小字名":null,"地番":"1-6","精度区分":null,"座標系":"任意座標系"}},{"type":"Polygon","arcs":[[316,-314,317]],"properties":{"市区町村名":"釧路市","大字名":"星が浦大通","丁目名":"４丁目","小字名":null,"地番":"1-7","精度区分":null,"座標系":"任意座標系"}},{"type":"Polygon","arcs":[[-315,-317,318,319,320,321,-311]],"properties":{"市区町村名":"釧路市","大字名":"星が浦大通","丁目名":"４丁目","小字名":null,"地番":"1-8","精度区分":null,"座標系":"任意座標系"}},{"type":"Polygon","arcs":[[322,-320]],"properties":{"市区町村名":"釧路市","大字名":"星が浦大通","丁目名":"４丁目","小字名":null,"地番":"1-9","精度区分":null,"座標系":"任意座標系"}},{"type":"Polygon","arcs":[[-322,323,324,-312]],"properties":{"市区町村名":"釧路市","大字名":"星が浦大通","丁目名":"４丁目","小字名":null,"地番":"1-10","精度区分":null,"座標系":"任意座標系"}},{"type":"Polygon","arcs":[[-307,-313,-325,325,326,-303]],"properties":{"市区町村名":"釧路市","大字名":"星が浦大通","丁目名":"４丁目","小字名":null,"地番":"1-11","精度区分":null,"座標系":"任意座標系"}},{"type":"Polygon","arcs":[[-327,327,-299,-304]],"properties":{"市区町村名":"釧路市","大字名":"星が浦大通","丁目名":"４丁目","小字名":null,"地番":"1-12","精度区分":null,"座標系":"任意座標系"}},{"type":"Polygon","arcs":[[328,-294,-284]],"properties":{"市区町村名":"釧路市","大字名":"星が浦大通","丁目名":"４丁目","小字名":null,"地番":"1-13","精度区分":null,"座標系":"任意座標系"}},{"type":"Polygon","arcs":[[329]],"properties":{"市区町村名":"釧路市","大字名":"星が浦大通","丁目名":"４丁目","小字名":null,"地番":"3-1","精度区分":null,"座標系":"任意座標系"}},{"type":"Polygon","arcs":[[330,-287,331,332,333]],"properties":{"市区町村名":"釧路市","大字名":"星が浦大通","丁目名":"４丁目","小字名":null,"地番":"3-2","精度区分":null,"座標系":"任意座標系"}},{"type":"Polygon","arcs":[[334,335,336,337,338]],"properties":{"市区町村名":"釧路市","大字名":"星が浦大通","丁目名":"４丁目","小字名":null,"地番":"3-3","精度区分":null,"座標系":"任意座標系"}},{"type":"Polygon","arcs":[[339,340,341,-335]],"properties":{"市区町村名":"釧路市","大字名":"星が浦大通","丁目名":"４丁目","小字名":null,"地番":"3-4","精度区分":null,"座標系":"任意座標系"}},{"type":"Polygon","arcs":[[342,343,-341,344]],"properties":{"市区町村名":"釧路市","大字名":"星が浦大通","丁目名":"４丁目","小字名":null,"地番":"3-5","精度区分":null,"座標系":"任意座標系"}},{"type":"Polygon","arcs":[[345,346,347,348]],"properties":{"市区町村名":"釧路市","大字名":"星が浦大通","丁目名":"４丁目","小字名":null,"地番":"3-6","精度区分":null,"座標系":"任意座標系"}},{"type":"Polygon","arcs":[[349,350,351,352,-347]],"properties":{"市区町村名":"釧路市","大字名":"星が浦大通","丁目名":"４丁目","小字名":null,"地番":"3-7","精度区分":null,"座標系":"任意座標系"}},{"type":"Polygon","arcs":[[353,-351,354,355,356,357]],"properties":{"市区町村名":"釧路市","大字名":"星が浦大通","丁目名":"４丁目","小字名":null,"地番":"3-8","精度区分":null,"座標系":"任意座標系"}},{"type":"Polygon","arcs":[[358,359,360,-356,361]],"properties":{"市区町村名":"釧路市","大字名":"星が浦大通","丁目名":"４丁目","小字名":null,"地番":"3-9","精度区分":null,"座標系":"任意座標系"}},{"type":"Polygon","arcs":[[362,-359,363]],"properties":{"市区町村名":"釧路市","大字名":"星が浦大通","丁目名":"４丁目","小字名":null,"地番":"3-10","精度区分":null,"座標系":"任意座標系"}},{"type":"Polygon","arcs":[[-363,364,365,366,-360]],"properties":{"市区町村名":"釧路市","大字名":"星が浦大通","丁目名":"４丁目","小字名":null,"地番":"3-11","精度区分":null,"座標系":"任意座標系"}},{"type":"Polygon","arcs":[[367,368,369,-366]],"properties":{"市区町村名":"釧路市","大字名":"星が浦大通","丁目名":"４丁目","小字名":null,"地番":"3-12","精度区分":null,"座標系":"任意座標系"}},{"type":"Polygon","arcs":[[-361,-367,-370,370,371,-357]],"properties":{"市区町村名":"釧路市","大字名":"星が浦大通","丁目名":"４丁目","小字名":null,"地番":"3-13","精度区分":null,"座標系":"任意座標系"}},{"type":"Polygon","arcs":[[-358,-372,372,373,374]],"properties":{"市区町村名":"釧路市","大字名":"星が浦大通","丁目名":"４丁目","小字名":null,"地番":"3-14","精度区分":null,"座標系":"任意座標系"}},{"type":"Polygon","arcs":[[-374,375,376,377]],"properties":{"市区町村名":"釧路市","大字名":"星が浦大通","丁目名":"４丁目","小字名":null,"地番":"3-15","精度区分":null,"座標系":"任意座標系"}},{"type":"Polygon","arcs":[[-342,-344,378,379,-377,380,381,-336]],"properties":{"市区町村名":"釧路市","大字名":"星が浦大通","丁目名":"４丁目","小字名":null,"地番":"3-16","精度区分":null,"座標系":"任意座標系"}},{"type":"Polygon","arcs":[[382,-334,383,-337,-382,384,385,386]],"properties":{"市区町村名":"釧路市","大字名":"星が浦大通","丁目名":"４丁目","小字名":null,"地番":"3-17","精度区分":null,"座標系":"任意座標系"}},{"type":"Polygon","arcs":[[387,-386,388,-290]],"properties":{"市区町村名":"釧路市","大字名":"星が浦大通","丁目名":"４丁目","小字名":null,"地番":"3-18","精度区分":null,"座標系":"任意座標系"}},{"type":"Polygon","arcs":[[-387,-388,-289,389]],"properties":{"市区町村名":"釧路市","大字名":"星が浦大通","丁目名":"４丁目","小字名":null,"地番":"3-19","精度区分":null,"座標系":"任意座標系"}},{"type":"Polygon","arcs":[[390,-348,-353,391,392,-379,-343]],"properties":{"市区町村名":"釧路市","大字名":"星が浦大通","丁目名":"４丁目","小字名":null,"地番":"3-20","精度区分":null,"座標系":"任意座標系"}},{"type":"Polygon","arcs":[[-352,-354,-375,393,-392]],"properties":{"市区町村名":"釧路市","大字名":"星が浦大通","丁目名":"４丁目","小字名":null,"地番":"3-21","精度区分":null,"座標系":"任意座標系"}},{"type":"Polygon","arcs":[[-393,-394,-378,-380]],"properties":{"市区町村名":"釧路市","大字名":"星が浦大通","丁目名":"４丁目","小字名":null,"地番":"3-22","精度区分":null,"座標系":"任意座標系"}},{"type":"Polygon","arcs":[[-390,-288,-331,-383]],"properties":{"市区町村名":"釧路市","大字名":"星が浦大通","丁目名":"４丁目","小字名":null,"地番":"3-23","精度区分":null,"座標系":"任意座標系"}},{"type":"Polygon","arcs":[[-338,-384,-333,394]],"properties":{"市区町村名":"釧路市","大字名":"星が浦大通","丁目名":"４丁目","小字名":null,"地番":"3-24","精度区分":null,"座標系":"任意座標系"}},{"type":"Polygon","arcs":[[-365,-364,-362,-355,-350,-346,395,396,-396,-349,-391,-345,-340,-339,-395,-332,-286,-297,-300,-328,-326,-324,-321,-323,-319,-318,-316,-309,-308,-305,-301,-295,-329,-283,397,398,-368]],"properties":{"市区町村名":"釧路市","大字名":"星が浦大通","丁目名":"４丁目","小字名":null,"地番":"8W2","精度区分":null,"座標系":"任意座標系"}},{"type":"Polygon","arcs":[[-385,-381,-376,-373,-371,-369,-399,399,-389]],"properties":{"市区町村名":"釧路市","大字名":"星が浦大通","丁目名":"４丁目","小字名":null,"地番":"9W2","精度区分":null,"座標系":"任意座標系"}},{"type":"Polygon","arcs":[[400,401,402,403,404]],"properties":{"市区町村名":"釧路市","大字名":"星が浦大通","丁目名":"５丁目","小字名":null,"地番":"1-1","精度区分":null,"座標系":"任意座標系"}},{"type":"Polygon","arcs":[[405,406]],"properties":{"市区町村名":"釧路市","大字名":"星が浦大通","丁目名":"５丁目","小字名":null,"地番":"1-2","精度区分":null,"座標系":"任意座標系"}},{"type":"Polygon","arcs":[[407,408,409,410,-406]],"properties":{"市区町村名":"釧路市","大字名":"星が浦大通","丁目名":"５丁目","小字名":null,"地番":"1-3","精度区分":null,"座標系":"任意座標系"}},{"type":"Polygon","arcs":[[411,412,-402,413]],"properties":{"市区町村名":"釧路市","大字名":"星が浦大通","丁目名":"５丁目","小字名":null,"地番":"1-4","精度区分":null,"座標系":"任意座標系"}},{"type":"Polygon","arcs":[[414,-408,-407,-411,415,-401,416,417]],"properties":{"市区町村名":"釧路市","大字名":"星が浦大通","丁目名":"５丁目","小字名":null,"地番":"1-5","精度区分":null,"座標系":"任意座標系"}},{"type":"Polygon","arcs":[[-410,418,-414,-416]],"properties":{"市区町村名":"釧路市","大字名":"星が浦大通","丁目名":"５丁目","小字名":null,"地番":"1-6","精度区分":null,"座標系":"任意座標系"}},{"type":"Polygon","arcs":[[-417,-405,419,420]],"properties":{"市区町村名":"釧路市","大字名":"星が浦大通","丁目名":"５丁目","小字名":null,"地番":"1-7","精度区分":null,"座標系":"任意座標系"}},{"type":"Polygon","arcs":[[-413,421,422,423,-403]],"properties":{"市区町村名":"釧路市","大字名":"星が浦大通","丁目名":"５丁目","小字名":null,"地番":"7W2","精度区分":null,"座標系":"任意座標系"}},{"type":"Polygon","arcs":[[424,-420,-404,-424,425,426]],"properties":{"市区町村名":"釧路市","大字名":"星が浦大通","丁目名":"５丁目","小字名":null,"地番":"8W2","精度区分":null,"座標系":"任意座標系"}},{"type":"Polygon","arcs":[[427,-422,-412,-419,-409,-415,428,429]],"properties":{"市区町村名":"釧路市","大字名":"星が浦大通","丁目名":"５丁目","小字名":null,"地番":"12W2","精度区分":null,"座標系":"任意座標系"}},{"type":"Polygon","arcs":[[430,-429,-418,-421,-425,431]],"properties":{"市区町村名":"釧路市","大字名":"星が浦大通","丁目名":"５丁目","小字名":null,"地番":"13","精度区分":null,"座標系":"任意座標系"}},{"type":"Polygon","arcs":[[-430,-431,432]],"properties":{"市区町村名":"釧路市","大字名":"星が浦大通","丁目名":"５丁目","小字名":null,"地番":"無地番-67","精度区分":null,"座標系":"任意座標系"}},{"type":"Polygon","arcs":[[-432,-427,433]],"properties":{"市区町村名":"釧路市","大字名":"星が浦大通","丁目名":"５丁目","小字名":null,"地番":"水-1","精度区分":null,"座標系":"任意座標系"}},{"type":"Polygon","arcs":[[434,435,436,437]],"properties":{"市区町村名":"釧路市","大字名":"星が浦大通","丁目名":"３丁目","小字名":null,"地番":"1-23","精度区分":null,"座標系":"任意座標系"}},{"type":"Polygon","arcs":[[438,439,440,-43,441,-36]],"properties":{"市区町村名":"釧路市","大字名":"星が浦大通","丁目名":"３丁目","小字名":null,"地番":"1-7","精度区分":null,"座標系":"任意座標系"}},{"type":"Polygon","arcs":[[-441,442,-438,443,-38,-41]],"properties":{"市区町村名":"釧路市","大字名":"星が浦大通","丁目名":"３丁目","小字名":null,"地番":"1-6","精度区分":null,"座標系":"任意座標系"}},{"type":"Polygon","arcs":[[444,-9,445,446]],"properties":{"市区町村名":"釧路市","大字名":"星が浦大通","丁目名":"３丁目","小字名":null,"地番":"1-25","精度区分":null,"座標系":"任意座標系"}},{"type":"Polygon","arcs":[[447,-447,448,449]],"properties":{"市区町村名":"釧路市","大字名":"星が浦大通","丁目名":"３丁目","小字名":null,"地番":"1-13","精度区分":null,"座標系":"任意座標系"}},{"type":"Polygon","arcs":[[450,451,-448,452]],"properties":{"市区町村名":"釧路市","大字名":"星が浦大通","丁目名":"３丁目","小字名":null,"地番":"1-14","精度区分":null,"座標系":"任意座標系"}},{"type":"Polygon","arcs":[[453,-4,-10,-445,-452]],"properties":{"市区町村名":"釧路市","大字名":"星が浦大通","丁目名":"３丁目","小字名":null,"地番":"1-26","精度区分":null,"座標系":"任意座標系"}},{"type":"Polygon","arcs":[[454,-5,-454,-451,455,-254,-282,-250,-247,-240,-281,-226,-271,-214,456]],"properties":{"市区町村名":"釧路市","大字名":"星が浦大通","丁目名":"２丁目","小字名":null,"地番":"11W7","精度区分":null,"座標系":"任意座標系"}},{"type":"Polygon","arcs":[[-8,-34,-30,-49,457,-449,-446]],"properties":{"市区町村名":"釧路市","大字名":"星が浦大通","丁目名":"３丁目","小字名":null,"地番":"1-12","精度区分":null,"座標系":"任意座標系"}},{"type":"Polygon","arcs":[[458,459,460]],"properties":{"市区町村名":"釧路市","大字名":"星が浦大通","丁目名":"３丁目","小字名":null,"地番":"1-24","精度区分":null,"座標系":"任意座標系"}},{"type":"Polygon","arcs":[[-203,-200,-237,-112,-108,-103,-99,-95,-91,-235,-61,-269,-54,-255,-251,-456,-453,-450,-458,-50,-28,-24,-22,-19,-37,-442,-42,-39,-444,-437,461,462,-462,-436,463,-459,464,-45,-47,-13,-31,-33,-6,-2,-455,465,-292,-207]],"properties":{"市区町村名":"釧路市","大字名":"星が浦大通","丁目名":"３丁目","小字名":null,"地番":"10W4","精度区分":null,"座標系":"任意座標系"}},{"type":"Polygon","arcs":[[466,-460,-464,-435,-443,-440]],"properties":{"市区町村名":"釧路市","大字名":"星が浦大通","丁目名":"３丁目","小字名":null,"地番":"1-5","精度区分":null,"座標系":"任意座標系"}},{"type":"Polygon","arcs":[[-46,-465,-461,-467,-439,-35,-15,-48]],"properties":{"市区町村名":"釧路市","大字名":"星が浦大通","丁目名":"３丁目","小字名":null,"地番":"1-27","精度区分":null,"座標系":"任意座標系"}}]}},"arcs":[[[30323,280632],[-625,104464],[1429,14193],[16396,6708],[722,-112039],[-753,-6460],[-17169,-6866]],[[111490,135715],[-2542,-756]],[[108948,134959],[-915,147980]],[[108033,282939],[5129,1531]],[[113162,284470],[732,-127261],[-2404,-21494]],[[108948,134959],[-9458,-3633]],[[99490,131326],[-845,147639]],[[98645,278965],[566,438]],[[99211,279403],[8618,3446]],[[107829,282849],[204,90]],[[82658,303081],[223,-30173]],[[82881,272908],[938,-147972]],[[83819,124936],[-2147,-952]],[[81672,123984],[-804,118558],[-9007,-4086]],[[71861,238456],[-384,60043]],[[71477,298499],[5581,2100]],[[77058,300599],[5600,2482]],[[71090,356827],[-4353,-1930],[-436,58679]],[[66301,413576],[4424,1588]],[[70725,415164],[365,-58337]],[[71477,298499],[-387,58328]],[[70725,415164],[5623,2494]],[[76348,417658],[710,-117059]],[[76348,417658],[5578,2471]],[[81926,420129],[732,-117048]],[[91024,275960],[-202,-275]],[[90822,275685],[-7941,-2777]],[[81926,420129],[8188,3072]],[[90114,423201],[519,-83905]],[[90633,339296],[391,-63336]],[[91710,128248],[-7891,-3312]],[[90822,275685],[888,-147437]],[[99490,131326],[-7780,-3078]],[[91024,275960],[7621,3005]],[[71477,298499],[-5464,-2424]],[[66013,296075],[-777,117028]],[[65236,413103],[1065,473]],[[55322,347982],[-4580,-2030]],[[50742,345952],[-362,61310],[4583,1662]],[[54963,408924],[359,-60942]],[[60039,349886],[-4717,-1904]],[[54963,408924],[4739,1912]],[[59702,410836],[337,-60950]],[[72237,179631],[6862,2962],[397,-59573]],[[79496,123020],[-6878,-3046]],[[72618,119974],[-381,59657]],[[81672,123984],[-2176,-964]],[[72237,179631],[-376,58825]],[[96186,425754],[490,-83917],[-6043,-2541]],[[90114,423201],[6072,2553]],[[102538,565765],[12,-5196],[-1068,-102],[-552,-6001],[109,-19824]],[[101039,534642],[196,-32784]],[[101235,501858],[114,-27436],[717,-5254]],[[102066,469168],[-3515,-1557]],[[98551,467611],[615,6773],[-153,26490]],[[99013,500874],[-194,32600]],[[98819,533474],[-84,19461],[-471,5920],[-977,-245],[-34,5183]],[[97253,563793],[-62,12789],[2542,753]],[[99733,577335],[2696,1381],[109,-12951]],[[93909,498982],[174,-33164]],[[94083,465818],[-5147,-2097]],[[88936,463721],[-835,5759],[-185,31304]],[[87916,500784],[5966,2272]],[[93882,503056],[27,-4074]],[[93716,531398],[166,-28342]],[[87916,500784],[-239,35923]],[[87677,536707],[5989,2284]],[[93666,538991],[50,-7593]],[[93533,562330],[133,-23339]],[[87677,536707],[-238,35923]],[[87439,572630],[6010,2293]],[[93449,574923],[84,-12593]],[[93336,595488],[113,-20565]],[[87439,572630],[-211,35194]],[[87228,607824],[6009,2476]],[[93237,610300],[99,-14812]],[[93106,630115],[131,-19815]],[[87228,607824],[-240,36107]],[[86988,643931],[6032,2488]],[[93020,646419],[86,-16304]],[[86988,643931],[-175,26295]],[[86813,670226],[-61,9257],[6031,2673]],[[92783,682156],[237,-35737]],[[92569,717720],[209,-34823]],[[92778,682897],[5,-741]],[[86813,670226],[-1043,-461]],[[85770,669765],[-299,44994]],[[85471,714759],[2449,1086]],[[87920,715845],[4649,1875]],[[85016,505999],[203,-37424],[-821,-6492]],[[84398,462083],[-4717,-1904]],[[79681,460179],[-289,43513]],[[79392,503692],[748,333]],[[80140,504025],[4876,1974]],[[79681,460179],[-4807,-2132]],[[74874,458047],[-268,43896]],[[74606,501943],[725,321]],[[75331,502264],[4061,1428]],[[74874,458047],[-4921,-1995]],[[69953,456052],[-223,43917]],[[69730,499969],[1996,698]],[[71726,500667],[2880,1276]],[[69953,456052],[-4764,-1740]],[[65189,454312],[-269,43896]],[[64920,498208],[3153,1212]],[[68073,499420],[1657,549]],[[64445,497998],[475,210]],[[65189,454312],[-4852,-2149]],[[60337,452163],[-247,44091]],[[60090,496254],[703,310]],[[60793,496564],[3652,1434]],[[60337,452163],[-4082,-1624]],[[56255,450539],[-840,6685],[-180,37249]],[[55235,494473],[4855,1781]],[[55235,494473],[-179,33905],[751,6650],[4763,1924]],[[60570,536952],[223,-40388]],[[60570,536952],[3605,1598]],[[64175,538550],[270,-40552]],[[64175,538550],[3652,1431]],[[67827,539981],[246,-40561]],[[67827,539981],[3651,1434]],[[71478,541415],[248,-40748]],[[71478,541415],[3560,1577]],[[75038,542992],[293,-40728]],[[75038,542992],[4830,1956]],[[79868,544948],[272,-40923]],[[79868,544948],[4107,1446]],[[83975,546394],[811,-5768],[230,-34627]],[[84397,606010],[209,-34819],[-797,-6670]],[[83809,564521],[-4718,-1905]],[[79091,562616],[-318,41090]],[[78773,603706],[748,330]],[[79521,604036],[4876,1974]],[[79091,562616],[-4854,-1778]],[[74237,560838],[-293,40727]],[[73944,601565],[747,517]],[[74691,602082],[4082,1624]],[[74237,560838],[-3333,-1478]],[[70904,559360],[-272,40923]],[[70632,600283],[3312,1282]],[[69884,599950],[748,333]],[[70904,559360],[-6283,-2412]],[[64621,556948],[-316,40716]],[[64305,597664],[726,321]],[[65031,597985],[4853,1965]],[[64621,556948],[-4898,-1986]],[[59723,554962],[-247,40561]],[[59476,595523],[725,324]],[[60201,595847],[4104,1817]],[[59723,554962],[-4105,-1632],[-746,6167],[-204,34081]],[[54668,593578],[4808,1945]],[[54668,593578],[-229,34443],[752,6647],[4765,1556]],[[59956,636224],[245,-40377]],[[59956,636224],[4762,1925]],[[64718,638149],[313,-40164]],[[64718,638149],[4854,1965]],[[69572,640114],[312,-40164]],[[69572,640114],[4853,1965]],[[74425,642079],[266,-39997]],[[74425,642079],[4783,2305]],[[79208,644384],[313,-40348]],[[79208,644384],[4152,1469],[814,-6326],[223,-33517]],[[85770,669765],[-4287,-1531]],[[81483,668234],[-300,44997]],[[81183,713231],[4288,1528]],[[81483,668234],[-4355,-1743]],[[77128,666491],[-254,45017]],[[76874,711508],[4309,1723]],[[77128,666491],[-4286,-1714]],[[72842,664777],[-301,45180]],[[72541,709957],[4333,1551]],[[72842,664777],[-4264,-1703]],[[68578,663074],[-278,45190]],[[68300,708264],[4241,1693]],[[68578,663074],[-4333,-1551]],[[64245,661523],[-253,44834]],[[63992,706357],[4308,1907]],[[64245,661523],[-4332,-1734]],[[59913,659789],[-253,44833]],[[59660,704622],[4332,1735]],[[52475,656678],[-1090,-295]],[[51385,656383],[-5715,-2348]],[[45670,654035],[-273,44635]],[[45397,698670],[6780,2821],[298,-44813]],[[51596,624718],[-5739,-2173]],[[45857,622545],[-187,31490]],[[51385,656383],[211,-31665]],[[51801,593794],[-5760,-2365]],[[46041,591429],[-184,31116]],[[51596,624718],[205,-30924]],[[52015,558233],[-5783,-2377]],[[46232,555856],[-191,35573]],[[51801,593794],[214,-35561]],[[52231,522298],[-5782,-2561]],[[46449,519737],[-217,36119]],[[52015,558233],[216,-35935]],[[52447,486366],[-5784,-2193]],[[46663,484173],[-214,35564]],[[52231,522298],[216,-35932]],[[51833,448763],[-4922,-1994]],[[46911,446769],[-248,37404]],[[52447,486366],[156,-30389],[-770,-7214]],[[46911,446769],[-3357,-1303]],[[43554,445466],[-2398,395256]],[[41156,840722],[3423,1516]],[[44579,842238],[818,-143568]],[[43554,445466],[-12698,-5441],[-1575,11188],[-542,98747],[-1717,272055],[1478,13655]],[[28500,835670],[12656,5052]],[[59913,659789],[-7438,-3111]],[[44579,842238],[14243,5756]],[[58822,847994],[838,-143372]],[[58822,847994],[28190,11378]],[[87012,859372],[908,-143527]],[[107063,866959],[2681,-20171],[739,-121502]],[[110483,725286],[-3263,-1632]],[[107220,723654],[-3243,-1437]],[[103977,722217],[-3287,-1457]],[[100690,720760],[-3540,-1195]],[[97150,719565],[-999,-257]],[[96151,719308],[-906,143341]],[[95245,862649],[11700,4999]],[[106945,867648],[118,-689]],[[101040,667989],[3266,1262]],[[104306,669251],[3241,1620]],[[107547,670871],[2089,555],[1113,10522]],[[110749,681948],[240,-36110]],[[110989,645838],[-1356,8872],[-1927,-853]],[[107706,653857],[-3287,-1457]],[[104419,652400],[-3267,-1262]],[[101152,651138],[-1587,-703],[-1247,-10768],[15,-2222],[-635,-280]],[[97698,637165],[-1429,-634]],[[96269,636531],[-244,43534]],[[96025,680065],[1361,604]],[[97386,680669],[589,260],[23,-3332],[1318,-10189],[1724,581]],[[88936,463721],[-4538,-1638]],[[83975,546394],[-166,18127]],[[56255,450539],[-4422,-1776]],[[96151,719308],[-3582,-1588]],[[87012,859372],[8233,3277]],[[111277,602325],[174,-32983]],[[111451,569342],[-5353,-2000]],[[106098,567342],[-174,32982]],[[105924,600324],[2133,759]],[[108057,601083],[3220,1242]],[[111633,538596],[-5376,-2012]],[[106257,536584],[-159,30758]],[[111451,569342],[182,-30746]],[[111849,506005],[-5376,-2012]],[[106473,503993],[-216,32591]],[[111633,538596],[216,-32591]],[[111967,484885],[-1462,-12718],[-3857,-1338]],[[106648,470829],[-119,17961]],[[106529,488790],[5397,2207]],[[111926,490997],[41,-6112]],[[106648,470829],[-4582,-1661]],[[101235,501858],[5238,2135]],[[106473,503993],[56,-15203]],[[101039,534642],[5218,1942]],[[102538,565765],[3560,1577]],[[104745,599801],[1179,523]],[[99733,577335],[-92,20574]],[[99641,597909],[1814,806]],[[101455,598715],[3290,1086]],[[97253,563793],[-3720,-1463]],[[93336,595488],[4581,1843]],[[97917,597331],[1724,578]],[[98819,533474],[-5103,-2076]],[[99013,500874],[-5104,-1892]],[[98551,467611],[-4468,-1793]],[[107547,670871],[-327,52783]],[[110483,725286],[266,-43338]],[[104306,669251],[-329,52966]],[[101040,667989],[-350,52771]],[[97386,680669],[-236,38896]],[[96025,680065],[-26,4074],[-3221,-1242]],[[96269,636531],[34,-5000],[-3197,-1416]],[[97698,637165],[219,-39834]],[[101152,651138],[303,-52423]],[[104419,652400],[326,-52599]],[[107706,653857],[351,-52774]],[[110989,645838],[288,-43513]],[[111849,506005],[77,-15008]],[[569081,150697],[-1293,86331]],[[567788,237028],[1268,13708],[-1317,89667]],[[567739,340403],[-2776,179579]],[[564963,519982],[-945,65004]],[[564018,584986],[-2745,180730]],[[561273,765716],[-352,23185]],[[560921,788901],[-1058,69752]],[[559863,858653],[-1531,95067],[-1676,10175]],[[556656,963895],[8614,8334],[-1244,-13869],[5654,-368018],[1656,-10382],[17169,17549],[588,-41449],[-17132,-16952],[-1336,-13773],[4113,-269038],[1638,-10771],[17160,16606],[1671,-85599],[-26126,-25836]],[[28500,835670],[-8165,-3247]],[[20335,832423],[-20119,-7616],[-216,35935],[24836,9704],[81936,33526],[173,-36324]],[[567739,340403],[-17728,-18451],[1547,-101024]],[[551558,220928],[-10167,-9990]],[[541391,210938],[-4478,293149]],[[536913,504087],[26347,26417],[1703,-10522]],[[535441,204936],[-2263,146646],[-19390,-18903]],[[513788,332679],[-2184,145971]],[[511604,478650],[25309,25437]],[[541391,210938],[-5950,-6002]],[[513062,182458],[-2248,147219]],[[510814,329677],[654,619]],[[511468,330296],[2320,2383]],[[535441,204936],[-22379,-22478]],[[491460,242110],[-998,67194]],[[490462,309304],[20352,20373]],[[513062,182458],[-2008,-1898],[-19594,61550]],[[491460,242110],[-10430,32699]],[[481030,274809],[-1154,81420]],[[479876,356229],[2636,2681]],[[482512,358910],[7097,7274]],[[489609,366184],[853,-56880]],[[478423,282983],[-1023,70530]],[[477400,353513],[2476,2716]],[[481030,274809],[-2607,8174]],[[471132,347397],[6268,6116]],[[478423,282983],[-5479,17218],[-1322,14243],[-490,32953]],[[471132,347397],[-693,45643]],[[470439,393040],[4689,4623],[-682,43224]],[[474446,440887],[6714,6912]],[[481160,447799],[1352,-88889]],[[470439,393040],[-447,31499],[1206,13276],[3248,3072]],[[481160,447799],[7097,7272]],[[488257,455071],[1352,-88887]],[[488257,455071],[21026,21199]],[[509283,476270],[2185,-145974]],[[509283,476270],[2321,2380]],[[567788,237028],[-16230,-16100]],[[486918,494689],[-16269,-16512],[-1646,9646],[-1619,104505],[16961,17724],[910,-4553],[1663,-110810]],[[541941,745746],[19332,19970]],[[564018,584986],[-1451,-13693],[-17738,-17715]],[[544829,553578],[-2080,138606]],[[542749,692184],[-808,53562]],[[514678,523002],[-2103,138585]],[[512575,661587],[8922,9185]],[[521497,670772],[6163,6212]],[[527660,676984],[2093,-138694]],[[529753,538290],[-15075,-15288]],[[514678,523002],[-880,-833]],[[513798,522169],[-2103,138586]],[[511695,660755],[880,832]],[[510620,518977],[-2125,138563]],[[508495,657540],[3200,3215]],[[513798,522169],[-3178,-3192]],[[489692,497314],[-1362,92801]],[[488330,590115],[6511,6716]],[[494841,596831],[1339,-92820]],[[496180,504011],[-6488,-6697]],[[488330,590115],[-675,46030]],[[487655,636145],[451,427]],[[488106,636572],[6037,6270]],[[494143,642842],[698,-46011]],[[486208,759107],[1898,-122535]],[[487655,636145],[-2231,-2298]],[[485424,633847],[-1790,123011]],[[483634,756858],[225,214]],[[483859,757072],[2349,2035]],[[476700,625223],[-435,29084]],[[476265,654307],[-1403,94068]],[[474862,748375],[8772,8483]],[[485424,633847],[-8724,-8624]],[[466624,644252],[9641,10055]],[[476700,625223],[-9643,-9871],[-433,28900]],[[466624,644252],[-1718,111505]],[[464906,755757],[9691,9728]],[[474597,765485],[265,-17110]],[[464906,755757],[-1522,100864],[1274,13337]],[[464658,869958],[8224,8341]],[[472882,878299],[1715,-112814]],[[472882,878299],[8942,9392]],[[481824,887691],[2035,-130619]],[[481824,887691],[21405,21929]],[[503229,909620],[1995,-131031]],[[505224,778589],[-19016,-19482]],[[503229,909620],[1373,1486]],[[504602,911106],[1953,-131258]],[[506555,779848],[-1331,-1259]],[[508495,657540],[-135,-129]],[[508360,657411],[-1805,122437]],[[504602,911106],[13114,13340]],[[517716,924446],[3781,-253674]],[[541591,768934],[350,-23188]],[[542749,692184],[-15089,-15200]],[[517716,924446],[21227,21573]],[[538943,946019],[1605,-106757]],[[540548,839262],[1043,-70328]],[[559863,858653],[-19315,-19391]],[[538943,946019],[17713,17876]],[[560921,788901],[-19330,-19967]],[[510620,518977],[-14440,-14966]],[[494143,642842],[12889,13127]],[[507032,655969],[1328,1442]],[[505224,778589],[1808,-122620]],[[544829,553578],[-15076,-15288]],[[489692,497314],[-2774,-2625]],[[486918,494689],[-1663,110810],[-910,4553],[-16961,-17724],[1619,-104505],[1646,-9646],[16269,16512]],[[569081,150697],[-45777,-45730],[-13954,-13761],[-26649,85120],[-8297,22580],[-6257,14056],[-912,59438],[-1118,7902],[-16057,2360],[-219,28354],[15683,-1779],[1066,8662],[-8149,534233],[-1608,10239]],[[456833,862371],[7825,7587]],[[456833,862371],[-15888,-15966],[-1099,35553],[83135,83870],[33163,34171],[512,-36104]],[[919733,485259],[1391,-108115]],[[921124,377144],[-24915,-20104]],[[896209,357040],[-4856,385900],[1294,13375]],[[892647,756315],[23384,19940]],[[916031,776255],[3702,-290996]],[[952156,308475],[-1132,92120]],[[951024,400595],[15620,12826],[1154,-92097],[-15642,-12849]],[[952156,308475],[1203,-96533]],[[953359,211942],[-19931,-22367]],[[933428,189575],[-2366,194794]],[[931062,384369],[19962,16226]],[[923553,178490],[-24812,-27849]],[[898741,150641],[-2532,206399]],[[921124,377144],[2429,-198654]],[[984789,246969],[-31430,-35027]],[[931062,384369],[-8001,-6620],[-15,917],[-1922,-1522]],[[919733,485259],[61536,51407]],[[981269,536666],[3520,-289697]],[[933428,189575],[-9875,-11085]],[[916031,776255],[60025,49956]],[[976056,826211],[1734,-10840],[3479,-278705]],[[898741,150641],[-5126,-5934]],[[893615,144707],[-3265,269768],[-15937,-12984],[-236,22943],[15844,13071],[-1059,90514],[-2627,210789],[-1708,10679]],[[884627,749487],[8020,6828]],[[982614,831450],[-6558,-5239]],[[884627,749487],[-14291,-11386],[-910,36242],[112763,93127]],[[982189,867470],[425,-36020]],[[878154,103804],[-267,23468],[15728,17435]],[[984789,246969],[261,-23103]],[[985050,223866],[-106896,-120062]],[[990073,229129],[-5023,-5263]],[[982614,831450],[3312,-262797],[4147,-339524]],[[990073,229129],[1299,-105224],[-110957,-123905],[-2261,103804]],[[982189,867470],[9627,8011],[6732,-544934],[1451,-90651],[-9926,-10767]],[[55617,291937],[407,-74023],[-25254,-10279]],[[30770,207635],[-315,49839]],[[30455,257474],[20816,8854],[-135,23714]],[[51136,290042],[4481,1895]],[[66013,296075],[-4064,-1530]],[[61949,294545],[-1538,-581]],[[60411,293964],[-372,55922]],[[59702,410836],[5534,2267]],[[60411,293964],[-4794,-2027]],[[51136,290042],[-394,55910]],[[107375,356299],[454,-73450]],[[99211,279403],[-443,73456]],[[98768,352859],[8607,3440]],[[106919,430090],[456,-73791]],[[98768,352859],[-445,73794]],[[98323,426653],[8596,3437]],[[112401,419522],[346,-61430]],[[112747,358092],[-5372,-1793]],[[106919,430090],[3835,1142],[1647,-11710]],[[112747,358092],[415,-73622]],[[113069,48571],[-1579,87144]],[[112401,419522],[-434,65363]],[[107063,866959],[12881,5336],[-2394,-22975],[2243,-361523],[1530,-11209],[23835,9635],[108,-40252],[-23743,-9780],[-1342,-13594],[1610,-263002],[2718,-18854],[21228,8478],[511,-87059],[-20116,-8171],[-13063,-5418]],[[96186,425754],[2137,899]],[[70400,119054],[-7410,-3078]],[[62990,115976],[-531,91081]],[[62459,207057],[7432,2829],[509,-90832]],[[30455,257474],[-132,23158]],[[30323,280632],[17169,6866],[753,6460],[-722,112039],[-16396,-6708],[-1429,-14193],[625,-104464]],[[30770,207635],[584,-92392],[1647,-11713],[29989,12446]],[[70400,119054],[2218,920]],[[113069,48571],[-79622,-32687],[-8006,-3178],[-18533,-6912],[759,87809],[17285,6361],[1393,12873],[-1686,270770],[-1607,12660],[-18464,-7067],[-202,40765],[18372,7029],[1533,12380],[-2257,370430],[-1699,12619]],[[61949,294545],[510,-87488]]],"bbox":[370.371,5228.043,3166.928,5570.466],"transform":{"scale":[0.0027965597965597965,0.00034242334242334306],"translate":[370.371,5228.043]}}