{"type":"Topology","objects":{"01206-4600-34.featurecollection":{"type":"GeometryCollection","geometries":[{"type":"Polygon","arcs":[[0,1,2,3,4,5,6]],"properties":{"市区町村名":"釧路市","大字名":"星が浦大通","丁目名":"１丁目","小字名":null,"地番":"10W9","精度区分":null,"座標系":"任意座標系"}},{"type":"Polygon","arcs":[[7,8,9]],"properties":{"市区町村名":"釧路市","大字名":"星が浦南","丁目名":"１丁目","小字名":null,"地番":"6-1","精度区分":null,"座標系":"任意座標系"}},{"type":"Polygon","arcs":[[10,11,12,13,-8]],"properties":{"市区町村名":"釧路市","大字名":"星が浦南","丁目名":"１丁目","小字名":null,"地番":"6-2","精度区分":null,"座標系":"任意座標系"}},{"type":"Polygon","arcs":[[14,15,-12,16,17,18,19]],"properties":{"市区町村名":"釧路市","大字名":"星が浦南","丁目名":"１丁目","小字名":null,"地番":"6-3","精度区分":null,"座標系":"任意座標系"}},{"type":"Polygon","arcs":[[20,21,22,23,24,-18,25]],"properties":{"市区町村名":"釧路市","大字名":"星が浦南","丁目名":"１丁目","小字名":null,"地番":"6-4","精度区分":null,"座標系":"任意座標系"}},{"type":"Polygon","arcs":[[26,27,-21,28]],"properties":{"市区町村名":"釧路市","大字名":"星が浦南","丁目名":"１丁目","小字名":null,"地番":"6-5","精度区分":null,"座標系":"任意座標系"}},{"type":"Polygon","arcs":[[29,30,-27,31]],"properties":{"市区町村名":"釧路市","大字名":"星が浦南","丁目名":"１丁目","小字名":null,"地番":"6-6","精度区分":null,"座標系":"任意座標系"}},{"type":"Polygon","arcs":[[32,33,-30,34]],"properties":{"市区町村名":"釧路市","大字名":"星が浦南","丁目名":"１丁目","小字名":null,"地番":"6-7","精度区分":null,"座標系":"任意座標系"}},{"type":"Polygon","arcs":[[35,36,-33,37]],"properties":{"市区町村名":"釧路市","大字名":"星が浦南","丁目名":"１丁目","小字名":null,"地番":"6-8","精度区分":null,"座標系":"任意座標系"}},{"type":"Polygon","arcs":[[38,-36,39]],"properties":{"市区町村名":"釧路市","大字名":"星が浦南","丁目名":"１丁目","小字名":null,"地番":"6-9","精度区分":null,"座標系":"任意座標系"}},{"type":"Polygon","arcs":[[-31,-34,-37,-39,40,41,-22,-28]],"properties":{"市区町村名":"釧路市","大字名":"星が浦南","丁目名":"１丁目","小字名":null,"地番":"6-10","精度区分":null,"座標系":"任意座標系"}},{"type":"Polygon","arcs":[[42,43,44,45]],"properties":{"市区町村名":"釧路市","大字名":"星が浦南","丁目名":"１丁目","小字名":null,"地番":"6-11","精度区分":null,"座標系":"任意座標系"}},{"type":"Polygon","arcs":[[46,47,48,-44]],"properties":{"市区町村名":"釧路市","大字名":"星が浦南","丁目名":"１丁目","小字名":null,"地番":"6-12","精度区分":null,"座標系":"任意座標系"}},{"type":"Polygon","arcs":[[49,-45,-49,50,51,52]],"properties":{"市区町村名":"釧路市","大字名":"星が浦南","丁目名":"１丁目","小字名":null,"地番":"6-13","精度区分":null,"座標系":"任意座標系"}},{"type":"Polygon","arcs":[[53,-53,54,55,-24]],"properties":{"市区町村名":"釧路市","大字名":"星が浦南","丁目名":"１丁目","小字名":null,"地番":"6-14","精度区分":null,"座標系":"任意座標系"}},{"type":"Polygon","arcs":[[56,57,-19,-25,-56,58,59,60,61]],"properties":{"市区町村名":"釧路市","大字名":"星が浦南","丁目名":"１丁目","小字名":null,"地番":"6-15","精度区分":null,"座標系":"任意座標系"}},{"type":"Polygon","arcs":[[62,-61,63]],"properties":{"市区町村名":"釧路市","大字名":"星が浦南","丁目名":"１丁目","小字名":null,"地番":"6-16","精度区分":null,"座標系":"任意座標系"}},{"type":"Polygon","arcs":[[-62,-63,64,65]],"properties":{"市区町村名":"釧路市","大字名":"星が浦南","丁目名":"１丁目","小字名":null,"地番":"6-17","精度区分":null,"座標系":"任意座標系"}},{"type":"Polygon","arcs":[[-57,-66,66,67]],"properties":{"市区町村名":"釧路市","大字名":"星が浦南","丁目名":"１丁目","小字名":null,"地番":"6-18","精度区分":null,"座標系":"任意座標系"}},{"type":"Polygon","arcs":[[-20,-58,-68,68,69]],"properties":{"市区町村名":"釧路市","大字名":"星が浦南","丁目名":"１丁目","小字名":null,"地番":"6-22","精度区分":null,"座標系":"任意座標系"}},{"type":"Polygon","arcs":[[-15,-70,70,71]],"properties":{"市区町村名":"釧路市","大字名":"星が浦南","丁目名":"１丁目","小字名":null,"地番":"6-23","精度区分":null,"座標系":"任意座標系"}},{"type":"Polygon","arcs":[[-13,-16,-72,72,73]],"properties":{"市区町村名":"釧路市","大字名":"星が浦南","丁目名":"１丁目","小字名":null,"地番":"6-24","精度区分":null,"座標系":"任意座標系"}},{"type":"Polygon","arcs":[[74,-46,-50,-54,-23,-42]],"properties":{"市区町村名":"釧路市","大字名":"星が浦南","丁目名":"１丁目","小字名":null,"地番":"6-25","精度区分":null,"座標系":"任意座標系"}},{"type":"Polygon","arcs":[[-52,75,-59,-55]],"properties":{"市区町村名":"釧路市","大字名":"星が浦南","丁目名":"１丁目","小字名":null,"地番":"6-26","精度区分":null,"座標系":"任意座標系"}},{"type":"Polygon","arcs":[[-14,-74,76,-9]],"properties":{"市区町村名":"釧路市","大字名":"星が浦南","丁目名":"１丁目","小字名":null,"地番":"6-27","精度区分":null,"座標系":"任意座標系"}},{"type":"Polygon","arcs":[[77,78,79,80]],"properties":{"市区町村名":"釧路市","大字名":"星が浦南","丁目名":"１丁目","小字名":null,"地番":"7-1","精度区分":null,"座標系":"任意座標系"}},{"type":"Polygon","arcs":[[81,82,83,84,85]],"properties":{"市区町村名":"釧路市","大字名":"星が浦南","丁目名":"１丁目","小字名":null,"地番":"7-2","精度区分":null,"座標系":"任意座標系"}},{"type":"Polygon","arcs":[[86,87,-83,88]],"properties":{"市区町村名":"釧路市","大字名":"星が浦南","丁目名":"１丁目","小字名":null,"地番":"7-3","精度区分":null,"座標系":"任意座標系"}},{"type":"Polygon","arcs":[[89,90,91,-87,92]],"properties":{"市区町村名":"釧路市","大字名":"星が浦南","丁目名":"１丁目","小字名":null,"地番":"7-4","精度区分":null,"座標系":"任意座標系"}},{"type":"Polygon","arcs":[[93,94,-90,95]],"properties":{"市区町村名":"釧路市","大字名":"星が浦南","丁目名":"１丁目","小字名":null,"地番":"7-5","精度区分":null,"座標系":"任意座標系"}},{"type":"Polygon","arcs":[[96,97,-94,98]],"properties":{"市区町村名":"釧路市","大字名":"星が浦南","丁目名":"１丁目","小字名":null,"地番":"7-6","精度区分":null,"座標系":"任意座標系"}},{"type":"Polygon","arcs":[[99,100,-97,101]],"properties":{"市区町村名":"釧路市","大字名":"星が浦南","丁目名":"１丁目","小字名":null,"地番":"7-7","精度区分":null,"座標系":"任意座標系"}},{"type":"Polygon","arcs":[[102,103,-100,104]],"properties":{"市区町村名":"釧路市","大字名":"星が浦南","丁目名":"１丁目","小字名":null,"地番":"7-8","精度区分":null,"座標系":"任意座標系"}},{"type":"Polygon","arcs":[[105,106,-103,107]],"properties":{"市区町村名":"釧路市","大字名":"星が浦南","丁目名":"１丁目","小字名":null,"地番":"7-9","精度区分":null,"座標系":"任意座標系"}},{"type":"Polygon","arcs":[[108,109,-106,110]],"properties":{"市区町村名":"釧路市","大字名":"星が浦南","丁目名":"１丁目","小字名":null,"地番":"7-10","精度区分":null,"座標系":"任意座標系"}},{"type":"Polygon","arcs":[[111,-109,112]],"properties":{"市区町村名":"釧路市","大字名":"星が浦南","丁目名":"１丁目","小字名":null,"地番":"7-11","精度区分":null,"座標系":"任意座標系"}},{"type":"Polygon","arcs":[[113,-5,114,115]],"properties":{"市区町村名":"釧路市","大字名":"星が浦南","丁目名":"１丁目","小字名":null,"地番":"7-12","精度区分":null,"座標系":"任意座標系"}},{"type":"Polygon","arcs":[[-88,-92,116,-115,-4,117,-84]],"properties":{"市区町村名":"釧路市","大字名":"星が浦南","丁目名":"１丁目","小字名":null,"地番":"7-13","精度区分":null,"座標系":"任意座標系"}},{"type":"Polygon","arcs":[[118,119,-2,120]],"properties":{"市区町村名":"釧路市","大字名":"星が浦南","丁目名":"１丁目","小字名":null,"地番":"7-14","精度区分":null,"座標系":"任意座標系"}},{"type":"Polygon","arcs":[[121,-119,122,123]],"properties":{"市区町村名":"釧路市","大字名":"星が浦南","丁目名":"１丁目","小字名":null,"地番":"7-15","精度区分":null,"座標系":"任意座標系"}},{"type":"Polygon","arcs":[[124,125,-124,126]],"properties":{"市区町村名":"釧路市","大字名":"星が浦南","丁目名":"１丁目","小字名":null,"地番":"7-16","精度区分":null,"座標系":"任意座標系"}},{"type":"Polygon","arcs":[[127,-125,128,129]],"properties":{"市区町村名":"釧路市","大字名":"星が浦南","丁目名":"１丁目","小字名":null,"地番":"7-17","精度区分":null,"座標系":"任意座標系"}},{"type":"Polygon","arcs":[[130,-130,131,132]],"properties":{"市区町村名":"釧路市","大字名":"星が浦南","丁目名":"１丁目","小字名":null,"地番":"7-18","精度区分":null,"座標系":"任意座標系"}},{"type":"Polygon","arcs":[[133,-133,134,-80]],"properties":{"市区町村名":"釧路市","大字名":"星が浦南","丁目名":"１丁目","小字名":null,"地番":"7-19","精度区分":null,"座標系":"任意座標系"}},{"type":"Polygon","arcs":[[-126,-128,-131,-134,-79,135,-85,-118,-3,-120,-122]],"properties":{"市区町村名":"釧路市","大字名":"星が浦南","丁目名":"１丁目","小字名":null,"地番":"7-20","精度区分":null,"座標系":"任意座標系"}},{"type":"Polygon","arcs":[[-86,-136,-78,136]],"properties":{"市区町村名":"釧路市","大字名":"星が浦南","丁目名":"１丁目","小字名":null,"地番":"7-21","精度区分":null,"座標系":"任意座標系"}},{"type":"Polygon","arcs":[[-95,-98,-101,-104,-107,-110,-112,137,-116,-117,-91]],"properties":{"市区町村名":"釧路市","大字名":"星が浦南","丁目名":"１丁目","小字名":null,"地番":"7-22","精度区分":null,"座標系":"任意座標系"}},{"type":"Polygon","arcs":[[-6,-114,-138,-113,-111,-108,-105,-102,-99,-96,-93,-89,-82,-137,-81,-135,-132,-129,-127,-123,-121,-1,138]],"properties":{"市区町村名":"釧路市","大字名":"星が浦南","丁目名":"１丁目","小字名":null,"地番":"9-2W4","精度区分":null,"座標系":"任意座標系"}},{"type":"Polygon","arcs":[[-47,-43,-75,-41,-40,-38,-35,-32,-29,-26,-17,-11,-10,-77,-73,-71,-69,-67,-65,-64,-60,-76,-51,-48,139]],"properties":{"市区町村名":"釧路市","大字名":"星が浦南","丁目名":"１丁目","小字名":null,"地番":"9-2W5","精度区分":null,"座標系":"任意座標系"}},{"type":"Polygon","arcs":[[140,141,142]],"properties":{"市区町村名":"釧路市","大字名":"星が浦南","丁目名":"３丁目","小字名":null,"地番":"2-1","精度区分":null,"座標系":"任意座標系"}},{"type":"Polygon","arcs":[[143,144,-143,145]],"properties":{"市区町村名":"釧路市","大字名":"星が浦南","丁目名":"３丁目","小字名":null,"地番":"2-4","精度区分":null,"座標系":"任意座標系"}},{"type":"Polygon","arcs":[[146,147,148,149,-144]],"properties":{"市区町村名":"釧路市","大字名":"星が浦南","丁目名":"３丁目","小字名":null,"地番":"2-5","精度区分":null,"座標系":"任意座標系"}},{"type":"Polygon","arcs":[[150,151,-148,152]],"properties":{"市区町村名":"釧路市","大字名":"星が浦南","丁目名":"３丁目","小字名":null,"地番":"2-6","精度区分":null,"座標系":"任意座標系"}},{"type":"Polygon","arcs":[[153,154,-151,155]],"properties":{"市区町村名":"釧路市","大字名":"星が浦南","丁目名":"３丁目","小字名":null,"地番":"2-7","精度区分":null,"座標系":"任意座標系"}},{"type":"Polygon","arcs":[[156,157,-154,158]],"properties":{"市区町村名":"釧路市","大字名":"星が浦南","丁目名":"３丁目","小字名":null,"地番":"2-8","精度区分":null,"座標系":"任意座標系"}},{"type":"Polygon","arcs":[[159,160,161,162,163,164,165,166,167,168,-149,-152,-155,-158]],"properties":{"市区町村名":"釧路市","大字名":"星が浦南","丁目名":"３丁目","小字名":null,"地番":"2-9","精度区分":null,"座標系":"任意座標系"}},{"type":"Polygon","arcs":[[169,170,-163]],"properties":{"市区町村名":"釧路市","大字名":"星が浦南","丁目名":"３丁目","小字名":null,"地番":"2-10","精度区分":null,"座標系":"任意座標系"}},{"type":"Polygon","arcs":[[171,-165,172]],"properties":{"市区町村名":"釧路市","大字名":"星が浦南","丁目名":"３丁目","小字名":null,"地番":"2-11","精度区分":null,"座標系":"任意座標系"}},{"type":"Polygon","arcs":[[-166,-172,173,174]],"properties":{"市区町村名":"釧路市","大字名":"星が浦南","丁目名":"３丁目","小字名":null,"地番":"2-12","精度区分":null,"座標系":"任意座標系"}},{"type":"Polygon","arcs":[[-167,-175,175,176]],"properties":{"市区町村名":"釧路市","大字名":"星が浦南","丁目名":"３丁目","小字名":null,"地番":"2-13","精度区分":null,"座標系":"任意座標系"}},{"type":"Polygon","arcs":[[-168,-177,177,178]],"properties":{"市区町村名":"釧路市","大字名":"星が浦南","丁目名":"３丁目","小字名":null,"地番":"2-14","精度区分":null,"座標系":"任意座標系"}},{"type":"Polygon","arcs":[[-145,-150,-169,-179,179,-141]],"properties":{"市区町村名":"釧路市","大字名":"星が浦南","丁目名":"３丁目","小字名":null,"地番":"2-15","精度区分":null,"座標系":"任意座標系"}},{"type":"Polygon","arcs":[[-157,180,-160]],"properties":{"市区町村名":"釧路市","大字名":"星が浦南","丁目名":"３丁目","小字名":null,"地番":"2-16","精度区分":null,"座標系":"任意座標系"}},{"type":"Polygon","arcs":[[181,-161,-181,-159,-156,-153,-147,-146,-142,-180,-178,-176,-174,-173,-164,-171,182,183]],"properties":{"市区町村名":"釧路市","大字名":"星が浦南","丁目名":"３丁目","小字名":null,"地番":"7-1W4","精度区分":null,"座標系":"任意座標系"}},{"type":"Polygon","arcs":[[-170,-162,-182,184,-183]],"properties":{"市区町村名":"釧路市","大字名":"星が浦南","丁目名":"３丁目","小字名":null,"地番":"7-2W2","精度区分":null,"座標系":"任意座標系"}}]}},"arcs":[[[596855,824162],[-15332,-11430]],[[581523,812732],[-10862,-7878]],[[570661,804854],[-23356,-17181]],[[547305,787673],[-22777,-16636]],[[524528,771037],[-70960,-51593]],[[453568,719444],[-16476,-11944]],[[437092,707500],[-4131,132225],[2390,21645],[-819,28965],[10971,6524],[819,-28960],[3309,-16091],[127331,92849],[2457,21547],[-766,25721],[9510,8074],[772,-27427],[3193,-17029],[5440,4088],[3505,-132525],[-4218,-2944]],[[164023,186410],[-1374,89846]],[[162649,276256],[10370,6220]],[[173019,282476],[2410,-71083],[-2421,-21315],[-8985,-3668]],[[164023,186410],[-11685,-4773]],[[152338,181637],[-1431,100343]],[[150907,281980],[11579,6859]],[[162486,288839],[163,-12583]],[[148502,452996],[1051,-74055]],[[149553,378941],[1354,-96961]],[[152338,181637],[-46586,-19442]],[[105752,162195],[-4300,306561]],[[101452,468756],[36774,22834]],[[138226,491590],[662,-44510],[9614,5916]],[[81024,151815],[-1718,123820]],[[79306,275635],[-1659,117591]],[[77647,393226],[-896,60047]],[[76751,453273],[14764,9294]],[[91515,462567],[9937,6189]],[[105752,162195],[-24728,-10380]],[[71241,147682],[-1721,121827]],[[69520,269509],[9786,6126]],[[81024,151815],[-9783,-4133]],[[61285,143472],[-1614,119741]],[[59671,263213],[9849,6296]],[[71241,147682],[-9956,-4210]],[[51179,139062],[-1553,117774]],[[49626,256836],[10045,6377]],[[61285,143472],[-10106,-4410]],[[41115,134813],[-1663,115741]],[[39452,250554],[10174,6282]],[[51179,139062],[-10064,-4249]],[[28631,243860],[10821,6694]],[[41115,134813],[-6867,-2945],[-3150,16622],[-2467,95370]],[[28631,243860],[-3004,115335]],[[25627,359195],[52020,34031]],[[24024,420658],[-3692,139929]],[[20332,560587],[35930,22628]],[[56262,583215],[2081,-141439]],[[58343,441776],[-34319,-21118]],[[20332,560587],[-5351,200378],[1662,14469]],[[16643,775434],[36495,22570]],[[53138,798004],[3124,-214789]],[[69357,448689],[-11014,-6913]],[[53138,798004],[11013,7055]],[[64151,805059],[2327,-158254]],[[66478,646805],[2879,-198116]],[[76751,453273],[-7394,-4584]],[[66478,646805],[22162,13455]],[[88640,660260],[2875,-197693]],[[133948,789062],[3145,-219185]],[[137093,569877],[1133,-78287]],[[88640,660260],[-2263,158423]],[[86377,818683],[46714,28737]],[[133091,847420],[428,-29107]],[[133519,818313],[429,-29251]],[[154447,831544],[-20928,-13231]],[[133091,847420],[18603,11430],[2227,-10746],[526,-16560]],[[154447,831544],[970,-29027]],[[155417,802517],[-21469,-13455]],[[155417,802517],[7355,-217327]],[[162772,585190],[-25679,-15313]],[[162772,585190],[4102,-121425]],[[166874,463765],[-18372,-10769]],[[166874,463765],[2473,-73193]],[[169347,390572],[-19794,-11631]],[[169347,390572],[3228,-95624]],[[172575,294948],[-10089,-6109]],[[25627,359195],[-1603,61463]],[[64151,805059],[22226,13624]],[[172575,294948],[444,-12472]],[[583600,163147],[-1825,110871]],[[581775,274018],[8065,5920]],[[589840,279938],[13550,9898]],[[603390,289836],[3548,-96393],[-1637,-14415],[-21701,-15881]],[[561251,146958],[-13378,-9782]],[[547873,137176],[-1907,110527]],[[545966,247703],[10451,7735]],[[556417,255438],[2949,2060]],[[559366,257498],[1885,-110540]],[[541314,132306],[-2059,110562]],[[539255,242868],[6711,4835]],[[547873,137176],[-6559,-4870]],[[531332,125188],[-2015,110450]],[[529317,235638],[4283,2994]],[[533600,238632],[5655,4236]],[[541314,132306],[-9982,-7118]],[[521354,117783],[-1972,110482]],[[519382,228265],[9935,7373]],[[531332,125188],[-9978,-7405]],[[511414,110696],[-1928,110509]],[[509486,221205],[9896,7060]],[[521354,117783],[-9940,-7087]],[[501453,103592],[-1969,110339]],[[499484,213931],[10002,7274]],[[511414,110696],[-9961,-7104]],[[493494,97885],[-1946,110214]],[[491548,208099],[7936,5832]],[[501453,103592],[-7959,-5707]],[[485426,92103],[-1921,110089]],[[483505,202192],[8043,5907]],[[493494,97885],[-8068,-5782]],[[477427,86084],[-1968,110339]],[[475459,196423],[8046,5769]],[[485426,92103],[-7999,-6019]],[[466017,189537],[9442,6886]],[[477427,86084],[-6409,-4625],[-2121,9934],[-2880,98144]],[[460640,374258],[-9486,323666],[2414,21520]],[[524528,771037],[5909,-345995]],[[530437,425042],[-20254,-15157],[-49543,-35627]],[[533600,238632],[-3163,186410]],[[547305,787673],[9112,-532235]],[[587221,732675],[-13576,-9629]],[[573645,723046],[-2984,81808]],[[581523,812732],[3367,-15627],[2331,-64430]],[[577302,624016],[-3657,99030]],[[587221,732675],[3637,-99186]],[[590858,633489],[-13556,-9473]],[[594434,535403],[-13530,-9746]],[[580904,525657],[-3602,98359]],[[590858,633489],[3576,-98086]],[[582599,478904],[-1695,46753]],[[594434,535403],[1720,-46883]],[[596154,488520],[-13555,-9616]],[[584296,432151],[-1697,46753]],[[596154,488520],[1718,-46735]],[[597872,441785],[-13576,-9634]],[[589840,279938],[-5544,152213]],[[597872,441785],[5518,-151949]],[[581775,274018],[-22409,-16520]],[[583600,163147],[-22349,-16189]],[[466017,189537],[-5377,184721]],[[596855,824162],[-2362,-22056],[25325,-692688],[-9474,-7618],[-561,14446],[-2216,10434],[-134690,-97993],[-1712,-15179],[315,-10054],[-11064,-3454],[-8638,295582],[-1267,44488],[-10230,351965],[-3189,15465]],[[16643,775434],[-1543,52816],[45329,28455],[89120,54435],[1711,13919],[-1618,47097],[9697,6377],[15920,-468417],[10028,-297968],[3032,-15537],[-853,-54077],[-165404,-69940],[-1942,71987],[-20120,759950],[11011,5063],[1868,-71165],[2221,-10179],[1543,-52816]],[[970089,440154],[7271,3722],[3754,1993],[2913,1439]],[[984027,447308],[2324,-136435],[-2539,-20742],[-821,-407],[-3778,-1716],[-7229,-3566]],[[971984,284442],[-1895,155712]],[[964648,280684],[-1873,155721]],[[962775,436405],[7314,3749]],[[971984,284442],[-7336,-3758]],[[964648,280684],[-7335,-3757]],[[957313,276927],[-1873,155720]],[[955440,432647],[5177,2694]],[[960617,435341],[2158,1064]],[[949979,273026],[-1875,155863]],[[948104,428889],[7336,3758]],[[957313,276927],[-7334,-3901]],[[942708,269299],[-1875,155863]],[[940833,425162],[7271,3727]],[[949979,273026],[-7271,-3727]],[[935460,265443],[-1854,156015]],[[933606,421458],[7227,3704]],[[942708,269299],[-7248,-3856]],[[933606,421458],[-1359,-697],[1854,-156011]],[[934101,264750],[-7163,-3651]],[[926938,261099],[-3778,7673],[-54545,307168]],[[868615,575940],[33017,23960],[-3824,221768]],[[897808,821668],[55551,40328]],[[953359,861996],[1315,-76888]],[[954674,785108],[1313,-76607]],[[955987,708501],[1395,-81835]],[[957382,626666],[1341,-81004]],[[958723,545662],[1894,-110321]],[[868615,575940],[-32805,184721]],[[835810,760661],[788,16466],[61210,44541]],[[978040,802740],[-23366,-17632]],[[953359,861996],[21541,15881],[2080,-11064],[1060,-64073]],[[978040,802740],[1295,-76902]],[[979335,725838],[-23348,-17337]],[[979335,725838],[1379,-82406]],[[980714,643432],[-23332,-16766]],[[980714,643432],[1368,-81415]],[[982082,562017],[-23359,-16355]],[[982082,562017],[1945,-114709]],[[935460,265443],[-1359,-693]],[[911471,252909],[15467,8190]],[[835810,760661],[-12249,68943]],[[823561,829604],[2653,-6233],[147707,107662],[1732,13660],[-738,43599],[9514,10523],[736,-45167],[2275,-12963],[2603,1993],[1632,-53402],[-3489,-2288],[-1698,-14639],[9335,-558513],[3031,-16435],[819,549],[326,-53049],[-79803,-41328],[-8725,49336]],[[911471,252909],[-83392,468515],[-11181,60931],[4946,56928],[1717,-9679]]],"bbox":[146.218,2591.943,1613.338,2815.735],"transform":{"scale":[0.0014671214671214672,0.0002237922237922237],"translate":[146.218,2591.943]}}