{"type":"Topology","objects":{"01581-4323-6":{"type":"GeometryCollection","geometries":[{"type":"MultiPolygon","arcs":[[[0,1,2,3,4,5,6,7,8,9,10,11,12,13,14,15,16,17,18]]],"properties":{"筆ID":"H000000001","version":"ver1.0","座標系":"任意座標系","測地系判別":null,"地図名":"厚開Ｂ（３０００）図無Ｈ１３","地図番号":"開B-1","縮尺分母":"3000","市区町村コード":"01581","市区町村名":"勇払郡厚真町","大字コード":"000","丁目コード":"000","小字コード":"0190","予備コード":"00","大字名":null,"丁目名":null,"小字名":"字鯉沼","予備名":null,"地番":"158-1","精度区分":null,"座標値種別":null,"筆界未定構成筆":null,"代表点緯度":1197.232,"代表点経度":1515.031992284}},{"type":"MultiPolygon","arcs":[[[19,20]]],"properties":{"筆ID":"H000000002","version":"ver1.0","座標系":"任意座標系","測地系判別":null,"地図名":"厚開Ｂ（３０００）図無Ｈ１３","地図番号":"開B-1","縮尺分母":"3000","市区町村コード":"01581","市区町村名":"勇払郡厚真町","大字コード":"000","丁目コード":"000","小字コード":"0190","予備コード":"00","大字名":null,"丁目名":null,"小字名":"字鯉沼","予備名":null,"地番":"158-2","精度区分":null,"座標値種別":null,"筆界未定構成筆":null,"代表点緯度":1081.2795,"代表点経度":839.331590704}},{"type":"MultiPolygon","arcs":[[[21,22,23,24]]],"properties":{"筆ID":"H000000003","version":"ver1.0","座標系":"任意座標系","測地系判別":null,"地図名":"厚開Ｂ（３０００）図無Ｈ１３","地図番号":"開B-1","縮尺分母":"3000","市区町村コード":"01581","市区町村名":"勇払郡厚真町","大字コード":"000","丁目コード":"000","小字コード":"0190","予備コード":"00","大字名":null,"丁目名":null,"小字名":"字鯉沼","予備名":null,"地番":"158-3","精度区分":null,"座標値種別":null,"筆界未定構成筆":null,"代表点緯度":1115.099,"代表点経度":1006.602926313}},{"type":"MultiPolygon","arcs":[[[25,26,27,28]]],"properties":{"筆ID":"H000000004","version":"ver1.0","座標系":"任意座標系","測地系判別":null,"地図名":"厚開Ｂ（３０００）図無Ｈ１３","地図番号":"開B-1","縮尺分母":"3000","市区町村コード":"01581","市区町村名":"勇払郡厚真町","大字コード":"000","丁目コード":"000","小字コード":"0190","予備コード":"00","大字名":null,"丁目名":null,"小字名":"字鯉沼","予備名":null,"地番":"158-4","精度区分":null,"座標値種別":null,"筆界未定構成筆":null,"代表点緯度":1154.2605,"代表点経度":1084.975746126}},{"type":"MultiPolygon","arcs":[[[-18,29,30,31]]],"properties":{"筆ID":"H000000005","version":"ver1.0","座標系":"任意座標系","測地系判別":null,"地図名":"厚開Ｂ（３０００）図無Ｈ１３","地図番号":"開B-1","縮尺分母":"3000","市区町村コード":"01581","市区町村名":"勇払郡厚真町","大字コード":"000","丁目コード":"000","小字コード":"0190","予備コード":"00","大字名":null,"丁目名":null,"小字名":"字鯉沼","予備名":null,"地番":"158-5","精度区分":null,"座標値種別":null,"筆界未定構成筆":null,"代表点緯度":1282.5245,"代表点経度":1198.382128261}},{"type":"MultiPolygon","arcs":[[[32,33,-30,-17,34,35,-26,36,37]]],"properties":{"筆ID":"H000000006","version":"ver1.0","座標系":"任意座標系","測地系判別":null,"地図名":"厚開Ｂ（３０００）図無Ｈ１３","地図番号":"開B-1","縮尺分母":"3000","市区町村コード":"01581","市区町村名":"勇払郡厚真町","大字コード":"000","丁目コード":"000","小字コード":"0190","予備コード":"00","大字名":null,"丁目名":null,"小字名":"字鯉沼","予備名":null,"地番":"158-6","精度区分":null,"座標値種別":null,"筆界未定構成筆":null,"代表点緯度":1151.8115,"代表点経度":1211.139081664}},{"type":"MultiPolygon","arcs":[[[-16,38,-35]]],"properties":{"筆ID":"H000000007","version":"ver1.0","座標系":"任意座標系","測地系判別":null,"地図名":"厚開Ｂ（３０００）図無Ｈ１３","地図番号":"開B-1","縮尺分母":"3000","市区町村コード":"01581","市区町村名":"勇払郡厚真町","大字コード":"000","丁目コード":"000","小字コード":"0190","予備コード":"00","大字名":null,"丁目名":null,"小字名":"字鯉沼","予備名":null,"地番":"158-7","精度区分":null,"座標値種別":null,"筆界未定構成筆":null,"代表点緯度":1070.5265,"代表点経度":1263.142357861}},{"type":"MultiPolygon","arcs":[[[39,40,41,42,-6,43]]],"properties":{"筆ID":"H000000008","version":"ver1.0","座標系":"任意座標系","測地系判別":null,"地図名":"厚開Ｂ（３０００）図無Ｈ１３","地図番号":"開B-1","縮尺分母":"3000","市区町村コード":"01581","市区町村名":"勇払郡厚真町","大字コード":"000","丁目コード":"000","小字コード":"0190","予備コード":"00","大字名":null,"丁目名":null,"小字名":"字鯉沼","予備名":null,"地番":"158-8","精度区分":null,"座標値種別":null,"筆界未定構成筆":null,"代表点緯度":1139.1815,"代表点経度":1329.323754135}},{"type":"MultiPolygon","arcs":[[[44,45,-44,-5,46]]],"properties":{"筆ID":"H000000009","version":"ver1.0","座標系":"任意座標系","測地系判別":null,"地図名":"厚開Ｂ（３０００）図無Ｈ１３","地図番号":"開B-1","縮尺分母":"3000","市区町村コード":"01581","市区町村名":"勇払郡厚真町","大字コード":"000","丁目コード":"000","小字コード":"0190","予備コード":"00","大字名":null,"丁目名":null,"小字名":"字鯉沼","予備名":null,"地番":"158-9","精度区分":null,"座標値種別":null,"筆界未定構成筆":null,"代表点緯度":1184.0155,"代表点経度":1300.155916565}},{"type":"MultiPolygon","arcs":[[[47,48,49,-45,50]]],"properties":{"筆ID":"H000000010","version":"ver1.0","座標系":"任意座標系","測地系判別":null,"地図名":"厚開Ｂ（３０００）図無Ｈ１３","地図番号":"開B-1","縮尺分母":"3000","市区町村コード":"01581","市区町村名":"勇払郡厚真町","大字コード":"000","丁目コード":"000","小字コード":"0190","予備コード":"00","大字名":null,"丁目名":null,"小字名":"字鯉沼","予備名":null,"地番":"158-10","精度区分":null,"座標値種別":null,"筆界未定構成筆":null,"代表点緯度":1228.09,"代表点経度":1339.729193017}},{"type":"MultiPolygon","arcs":[[[51,52,53,54,55]]],"properties":{"筆ID":"H000000011","version":"ver1.0","座標系":"任意座標系","測地系判別":null,"地図名":"厚開Ｂ（３０００）図無Ｈ１３","地図番号":"開B-1","縮尺分母":"3000","市区町村コード":"01581","市区町村名":"勇払郡厚真町","大字コード":"000","丁目コード":"000","小字コード":"0190","予備コード":"00","大字名":null,"丁目名":null,"小字名":"字鯉沼","予備名":null,"地番":"158-11","精度区分":null,"座標値種別":null,"筆界未定構成筆":null,"代表点緯度":1317.4275,"代表点経度":1247.265888047}},{"type":"MultiPolygon","arcs":[[[56,57,58,59]]],"properties":{"筆ID":"H000000012","version":"ver1.0","座標系":"任意座標系","測地系判別":null,"地図名":"厚開Ｂ（３０００）図無Ｈ１３","地図番号":"開B-1","縮尺分母":"3000","市区町村コード":"01581","市区町村名":"勇払郡厚真町","大字コード":"000","丁目コード":"000","小字コード":"0190","予備コード":"00","大字名":null,"丁目名":null,"小字名":"字鯉沼","予備名":null,"地番":"158-12","精度区分":null,"座標値種別":null,"筆界未定構成筆":null,"代表点緯度":1323.9555,"代表点経度":1343.182144595}},{"type":"MultiPolygon","arcs":[[[60,61,62,63,-12,64,65,66,67,68]]],"properties":{"筆ID":"H000000013","version":"ver1.0","座標系":"任意座標系","測地系判別":null,"地図名":"厚開Ｂ（３０００）図無Ｈ１３","地図番号":"開B-1","縮尺分母":"3000","市区町村コード":"01581","市区町村名":"勇払郡厚真町","大字コード":"000","丁目コード":"000","小字コード":"0190","予備コード":"00","大字名":null,"丁目名":null,"小字名":"字鯉沼","予備名":null,"地番":"158-13","精度区分":null,"座標値種別":null,"筆界未定構成筆":null,"代表点緯度":1260.864,"代表点経度":1460.205602286}},{"type":"MultiPolygon","arcs":[[[69,-14,70,71,72,73,74]]],"properties":{"筆ID":"H000000014","version":"ver1.0","座標系":"任意座標系","測地系判別":null,"地図名":"厚開Ｂ（３０００）図無Ｈ１３","地図番号":"開B-1","縮尺分母":"3000","市区町村コード":"01581","市区町村名":"勇払郡厚真町","大字コード":"000","丁目コード":"000","小字コード":"0190","予備コード":"00","大字名":null,"丁目名":null,"小字名":"字鯉沼","予備名":null,"地番":"158-14","精度区分":null,"座標値種別":null,"筆界未定構成筆":null,"代表点緯度":1265.321,"代表点経度":1538.646438753}},{"type":"MultiPolygon","arcs":[[[-75,75,-69,76,-60,77,78,-52,79]]],"properties":{"筆ID":"H000000015","version":"ver1.0","座標系":"任意座標系","測地系判別":null,"地図名":"厚開Ｂ（３０００）図無Ｈ１３","地図番号":"開B-1","縮尺分母":"3000","市区町村コード":"01581","市区町村名":"勇払郡厚真町","大字コード":"000","丁目コード":"000","小字コード":"0190","予備コード":"00","大字名":null,"丁目名":null,"小字名":"字鯉沼","予備名":null,"地番":"158-15","精度区分":null,"座標値種別":null,"筆界未定構成筆":null,"代表点緯度":1340.124,"代表点経度":1422.541165918}},{"type":"MultiPolygon","arcs":[[[-31,-34,80,81]]],"properties":{"筆ID":"H000000016","version":"ver1.0","座標系":"任意座標系","測地系判別":null,"地図名":"厚開Ｂ（３０００）図無Ｈ１３","地図番号":"開B-1","縮尺分母":"3000","市区町村コード":"01581","市区町村名":"勇払郡厚真町","大字コード":"000","丁目コード":"000","小字コード":"0190","予備コード":"00","大字名":null,"丁目名":null,"小字名":"字鯉沼","予備名":null,"地番":"158-16","精度区分":null,"座標値種別":null,"筆界未定構成筆":null,"代表点緯度":1272.2735,"代表点経度":1179.082688715}},{"type":"MultiPolygon","arcs":[[[-81,-33,82,83]]],"properties":{"筆ID":"H000000017","version":"ver1.0","座標系":"任意座標系","測地系判別":null,"地図名":"厚開Ｂ（３０００）図無Ｈ１３","地図番号":"開B-1","縮尺分母":"3000","市区町村コード":"01581","市区町村名":"勇払郡厚真町","大字コード":"000","丁目コード":"000","小字コード":"0190","予備コード":"00","大字名":null,"丁目名":null,"小字名":"字鯉沼","予備名":null,"地番":"158-17","精度区分":null,"座標値種別":null,"筆界未定構成筆":null,"代表点緯度":1258.355,"代表点経度":1153.822747166}},{"type":"MultiPolygon","arcs":[[[-83,-38,84,85,86,87,88]]],"properties":{"筆ID":"H000000018","version":"ver1.0","座標系":"任意座標系","測地系判別":null,"地図名":"厚開Ｂ（３０００）図無Ｈ１３","地図番号":"開B-1","縮尺分母":"3000","市区町村コード":"01581","市区町村名":"勇払郡厚真町","大字コード":"000","丁目コード":"000","小字コード":"0190","予備コード":"00","大字名":null,"丁目名":null,"小字名":"字鯉沼","予備名":null,"地番":"158-18","精度区分":null,"座標値種別":null,"筆界未定構成筆":null,"代表点緯度":1238.7045,"代表点経度":1112.815530358}},{"type":"MultiPolygon","arcs":[[[-55,89,90,-1,91]]],"properties":{"筆ID":"H000000019","version":"ver1.0","座標系":"任意座標系","測地系判別":null,"地図名":"厚開Ｂ（３０００）図無Ｈ１３","地図番号":"開B-1","縮尺分母":"3000","市区町村コード":"01581","市区町村名":"勇払郡厚真町","大字コード":"000","丁目コード":"000","小字コード":"0190","予備コード":"00","大字名":null,"丁目名":null,"小字名":"字鯉沼","予備名":null,"地番":"158-19","精度区分":null,"座標値種別":null,"筆界未定構成筆":null,"代表点緯度":1297.479,"代表点経度":1226.696393661}},{"type":"MultiPolygon","arcs":[[[92,93,-3,94]]],"properties":{"筆ID":"H000000020","version":"ver1.0","座標系":"任意座標系","測地系判別":null,"地図名":"厚開Ｂ（３０００）図無Ｈ１３","地図番号":"開B-1","縮尺分母":"3000","市区町村コード":"01581","市区町村名":"勇払郡厚真町","大字コード":"000","丁目コード":"000","小字コード":"0190","予備コード":"00","大字名":null,"丁目名":null,"小字名":"字鯉沼","予備名":null,"地番":"158-20","精度区分":null,"座標値種別":null,"筆界未定構成筆":null,"代表点緯度":1244.542,"代表点経度":1260.941166022}},{"type":"MultiPolygon","arcs":[[[95,-47,-4,-94]]],"properties":{"筆ID":"H000000021","version":"ver1.0","座標系":"任意座標系","測地系判別":null,"地図名":"厚開Ｂ（３０００）図無Ｈ１３","地図番号":"開B-1","縮尺分母":"3000","市区町村コード":"01581","市区町村名":"勇払郡厚真町","大字コード":"000","丁目コード":"000","小字コード":"0190","予備コード":"00","大字名":null,"丁目名":null,"小字名":"字鯉沼","予備名":null,"地番":"158-21","精度区分":null,"座標値種別":null,"筆界未定構成筆":null,"代表点緯度":1222.2505,"代表点経度":1275.361670207}},{"type":"MultiPolygon","arcs":[[[96,97,98,99,-51,-96,-93,100,-90,-54]]],"properties":{"筆ID":"H000000022","version":"ver1.0","座標系":"任意座標系","測地系判別":null,"地図名":"厚開Ｂ（３０００）図無Ｈ１３","地図番号":"開B-1","縮尺分母":"3000","市区町村コード":"01581","市区町村名":"勇払郡厚真町","大字コード":"000","丁目コード":"000","小字コード":"0190","予備コード":"00","大字名":null,"丁目名":null,"小字名":"字鯉沼","予備名":null,"地番":"158-22","精度区分":null,"座標値種別":null,"筆界未定構成筆":null,"代表点緯度":1275.1565,"代表点経度":1286.321801007}},{"type":"MultiPolygon","arcs":[[[101,102,-97,-53,-79]]],"properties":{"筆ID":"H000000023","version":"ver1.0","座標系":"任意座標系","測地系判別":null,"地図名":"厚開Ｂ（３０００）図無Ｈ１３","地図番号":"開B-1","縮尺分母":"3000","市区町村コード":"01581","市区町村名":"勇払郡厚真町","大字コード":"000","丁目コード":"000","小字コード":"0190","予備コード":"00","大字名":null,"丁目名":null,"小字名":"字鯉沼","予備名":null,"地番":"158-23","精度区分":null,"座標値種別":null,"筆界未定構成筆":null,"代表点緯度":1317.363,"代表点経度":1293.870293786}},{"type":"MultiPolygon","arcs":[[[103,104,-98,-103]]],"properties":{"筆ID":"H000000024","version":"ver1.0","座標系":"任意座標系","測地系判別":null,"地図名":"厚開Ｂ（３０００）図無Ｈ１３","地図番号":"開B-1","縮尺分母":"3000","市区町村コード":"01581","市区町村名":"勇払郡厚真町","大字コード":"000","丁目コード":"000","小字コード":"0190","予備コード":"00","大字名":null,"丁目名":null,"小字名":"字鯉沼","予備名":null,"地番":"158-24","精度区分":null,"座標値種別":null,"筆界未定構成筆":null,"代表点緯度":1306.3585,"代表点経度":1312.422854229}},{"type":"MultiPolygon","arcs":[[[105,106,-99,-105]]],"properties":{"筆ID":"H000000025","version":"ver1.0","座標系":"任意座標系","測地系判別":null,"地図名":"厚開Ｂ（３０００）図無Ｈ１３","地図番号":"開B-1","縮尺分母":"3000","市区町村コード":"01581","市区町村名":"勇払郡厚真町","大字コード":"000","丁目コード":"000","小字コード":"0190","予備コード":"00","大字名":null,"丁目名":null,"小字名":"字鯉沼","予備名":null,"地番":"158-25","精度区分":null,"座標値種別":null,"筆界未定構成筆":null,"代表点緯度":1284.743,"代表点経度":1326.366809848}},{"type":"MultiPolygon","arcs":[[[107,-48,-100,-107]]],"properties":{"筆ID":"H000000026","version":"ver1.0","座標系":"任意座標系","測地系判別":null,"地図名":"厚開Ｂ（３０００）図無Ｈ１３","地図番号":"開B-1","縮尺分母":"3000","市区町村コード":"01581","市区町村名":"勇払郡厚真町","大字コード":"000","丁目コード":"000","小字コード":"0190","予備コード":"00","大字名":null,"丁目名":null,"小字名":"字鯉沼","予備名":null,"地番":"158-26","精度区分":null,"座標値種別":null,"筆界未定構成筆":null,"代表点緯度":1263.0185,"代表点経度":1340.381377007}},{"type":"MultiPolygon","arcs":[[[-59,108,109,110,111,-108,-106,-104,-102,-78]]],"properties":{"筆ID":"H000000027","version":"ver1.0","座標系":"任意座標系","測地系判別":null,"地図名":"厚開Ｂ（３０００）図無Ｈ１３","地図番号":"開B-1","縮尺分母":"3000","市区町村コード":"01581","市区町村名":"勇払郡厚真町","大字コード":"000","丁目コード":"000","小字コード":"0190","予備コード":"00","大字名":null,"丁目名":null,"小字名":"字鯉沼","予備名":null,"地番":"158-27","精度区分":null,"座標値種別":null,"筆界未定構成筆":null,"代表点緯度":1299.616,"代表点経度":1342.352795475}},{"type":"MultiPolygon","arcs":[[[112,113,114,115,116,117,118,-9,119,120,121,122,-49,-112]]],"properties":{"筆ID":"H000000028","version":"ver1.0","座標系":"任意座標系","測地系判別":null,"地図名":"厚開Ｂ（３０００）図無Ｈ１３","地図番号":"開B-1","縮尺分母":"3000","市区町村コード":"01581","市区町村名":"勇払郡厚真町","大字コード":"000","丁目コード":"000","小字コード":"0190","予備コード":"00","大字名":null,"丁目名":null,"小字名":"字鯉沼","予備名":null,"地番":"158-28","精度区分":null,"座標値種別":null,"筆界未定構成筆":null,"代表点緯度":1209.5495,"代表点経度":1400.462791927}},{"type":"MultiPolygon","arcs":[[[-123,123,-40,-46,-50]]],"properties":{"筆ID":"H000000029","version":"ver1.0","座標系":"任意座標系","測地系判別":null,"地図名":"厚開Ｂ（３０００）図無Ｈ１３","地図番号":"開B-1","縮尺分母":"3000","市区町村コード":"01581","市区町村名":"勇払郡厚真町","大字コード":"000","丁目コード":"000","小字コード":"0190","予備コード":"00","大字名":null,"丁目名":null,"小字名":"字鯉沼","予備名":null,"地番":"158-29","精度区分":null,"座標値種別":null,"筆界未定構成筆":null,"代表点緯度":1203.8105,"代表点経度":1355.445773985}},{"type":"MultiPolygon","arcs":[[[-122,124,-41,-124]]],"properties":{"筆ID":"H000000030","version":"ver1.0","座標系":"任意座標系","測地系判別":null,"地図名":"厚開Ｂ（３０００）図無Ｈ１３","地図番号":"開B-1","縮尺分母":"3000","市区町村コード":"01581","市区町村名":"勇払郡厚真町","大字コード":"000","丁目コード":"000","小字コード":"0190","予備コード":"00","大字名":null,"丁目名":null,"小字名":"字鯉沼","予備名":null,"地番":"158-30","精度区分":null,"座標値種別":null,"筆界未定構成筆":null,"代表点緯度":1181.7545,"代表点経度":1369.493818248}},{"type":"MultiPolygon","arcs":[[[-121,125,126,-42,-125]]],"properties":{"筆ID":"H000000031","version":"ver1.0","座標系":"任意座標系","測地系判別":null,"地図名":"厚開Ｂ（３０００）図無Ｈ１３","地図番号":"開B-1","縮尺分母":"3000","市区町村コード":"01581","市区町村名":"勇払郡厚真町","大字コード":"000","丁目コード":"000","小字コード":"0190","予備コード":"00","大字名":null,"丁目名":null,"小字名":"字鯉沼","予備名":null,"地番":"158-31","精度区分":null,"座標値種別":null,"筆界未定構成筆":null,"代表点緯度":1160.3865,"代表点経度":1383.625193657}},{"type":"MultiPolygon","arcs":[[[127,-7,-43,-127]]],"properties":{"筆ID":"H000000032","version":"ver1.0","座標系":"任意座標系","測地系判別":null,"地図名":"厚開Ｂ（３０００）図無Ｈ１３","地図番号":"開B-1","縮尺分母":"3000","市区町村コード":"01581","市区町村名":"勇払郡厚真町","大字コード":"000","丁目コード":"000","小字コード":"0190","予備コード":"00","大字名":null,"丁目名":null,"小字名":"字鯉沼","予備名":null,"地番":"158-32","精度区分":null,"座標値種別":null,"筆界未定構成筆":null,"代表点緯度":1128.013,"代表点経度":1381.592247223}},{"type":"MultiPolygon","arcs":[[[-120,-8,-128,-126]]],"properties":{"筆ID":"H000000033","version":"ver1.0","座標系":"任意座標系","測地系判別":null,"地図名":"厚開Ｂ（３０００）図無Ｈ１３","地図番号":"開B-1","縮尺分母":"3000","市区町村コード":"01581","市区町村名":"勇払郡厚真町","大字コード":"000","丁目コード":"000","小字コード":"0190","予備コード":"00","大字名":null,"丁目名":null,"小字名":"字鯉沼","予備名":null,"地番":"158-33","精度区分":null,"座標値種別":null,"筆界未定構成筆":null,"代表点緯度":1149.2045,"代表点経度":1413.820414723}},{"type":"MultiPolygon","arcs":[[[128,129,-109,-58]]],"properties":{"筆ID":"H000000034","version":"ver1.0","座標系":"任意座標系","測地系判別":null,"地図名":"厚開Ｂ（３０００）図無Ｈ１３","地図番号":"開B-1","縮尺分母":"3000","市区町村コード":"01581","市区町村名":"勇払郡厚真町","大字コード":"000","丁目コード":"000","小字コード":"0190","予備コード":"00","大字名":null,"丁目名":null,"小字名":"字鯉沼","予備名":null,"地番":"158-34","精度区分":null,"座標値種別":null,"筆界未定構成筆":null,"代表点緯度":1315.112,"代表点経度":1362.781964934}},{"type":"MultiPolygon","arcs":[[[130,131,-110,-130]]],"properties":{"筆ID":"H000000035","version":"ver1.0","座標系":"任意座標系","測地系判別":null,"地図名":"厚開Ｂ（３０００）図無Ｈ１３","地図番号":"開B-1","縮尺分母":"3000","市区町村コード":"01581","市区町村名":"勇払郡厚真町","大字コード":"000","丁目コード":"000","小字コード":"0190","予備コード":"00","大字名":null,"丁目名":null,"小字名":"字鯉沼","予備名":null,"地番":"158-35","精度区分":null,"座標値種別":null,"筆界未定構成筆":null,"代表点緯度":1297.249,"代表点経度":1374.308192084}},{"type":"MultiPolygon","arcs":[[[132,133,134,-113,-111,-132]]],"properties":{"筆ID":"H000000036","version":"ver1.0","座標系":"任意座標系","測地系判別":null,"地図名":"厚開Ｂ（３０００）図無Ｈ１３","地図番号":"開B-1","縮尺分母":"3000","市区町村コード":"01581","市区町村名":"勇払郡厚真町","大字コード":"000","丁目コード":"000","小字コード":"0190","予備コード":"00","大字名":null,"丁目名":null,"小字名":"字鯉沼","予備名":null,"地番":"158-36","精度区分":null,"座標値種別":null,"筆界未定構成筆":null,"代表点緯度":1279.8,"代表点経度":1385.649108407}},{"type":"MultiPolygon","arcs":[[[135,136,-114,-135]]],"properties":{"筆ID":"H000000037","version":"ver1.0","座標系":"任意座標系","測地系判別":null,"地図名":"厚開Ｂ（３０００）図無Ｈ１３","地図番号":"開B-1","縮尺分母":"3000","市区町村コード":"01581","市区町村名":"勇払郡厚真町","大字コード":"000","丁目コード":"000","小字コード":"0190","予備コード":"00","大字名":null,"丁目名":null,"小字名":"字鯉沼","予備名":null,"地番":"158-37","精度区分":null,"座標値種別":null,"筆界未定構成筆":null,"代表点緯度":1262.0035,"代表点経度":1397.060616479}},{"type":"MultiPolygon","arcs":[[[137,138,-115,-137]]],"properties":{"筆ID":"H000000038","version":"ver1.0","座標系":"任意座標系","測地系判別":null,"地図名":"厚開Ｂ（３０００）図無Ｈ１３","地図番号":"開B-1","縮尺分母":"3000","市区町村コード":"01581","市区町村名":"勇払郡厚真町","大字コード":"000","丁目コード":"000","小字コード":"0190","予備コード":"00","大字名":null,"丁目名":null,"小字名":"字鯉沼","予備名":null,"地番":"158-38","精度区分":null,"座標値種別":null,"筆界未定構成筆":null,"代表点緯度":1244.004,"代表点経度":1408.706658748}},{"type":"MultiPolygon","arcs":[[[139,140,141,-116,-139]]],"properties":{"筆ID":"H000000039","version":"ver1.0","座標系":"任意座標系","測地系判別":null,"地図名":"厚開Ｂ（３０００）図無Ｈ１３","地図番号":"開B-1","縮尺分母":"3000","市区町村コード":"01581","市区町村名":"勇払郡厚真町","大字コード":"000","丁目コード":"000","小字コード":"0190","予備コード":"00","大字名":null,"丁目名":null,"小字名":"字鯉沼","予備名":null,"地番":"158-39","精度区分":null,"座標値種別":null,"筆界未定構成筆":null,"代表点緯度":1226.397,"代表点経度":1420.084988511}},{"type":"MultiPolygon","arcs":[[[142,143,-117,-142]]],"properties":{"筆ID":"H000000040","version":"ver1.0","座標系":"任意座標系","測地系判別":null,"地図名":"厚開Ｂ（３０００）図無Ｈ１３","地図番号":"開B-1","縮尺分母":"3000","市区町村コード":"01581","市区町村名":"勇払郡厚真町","大字コード":"000","丁目コード":"000","小字コード":"0190","予備コード":"00","大字名":null,"丁目名":null,"小字名":"字鯉沼","予備名":null,"地番":"158-40","精度区分":null,"座標値種別":null,"筆界未定構成筆":null,"代表点緯度":1208.8705,"代表点経度":1431.38217033}},{"type":"MultiPolygon","arcs":[[[144,145,146,-118,-144]]],"properties":{"筆ID":"H000000041","version":"ver1.0","座標系":"任意座標系","測地系判別":null,"地図名":"厚開Ｂ（３０００）図無Ｈ１３","地図番号":"開B-1","縮尺分母":"3000","市区町村コード":"01581","市区町村名":"勇払郡厚真町","大字コード":"000","丁目コード":"000","小字コード":"0190","予備コード":"00","大字名":null,"丁目名":null,"小字名":"字鯉沼","予備名":null,"地番":"158-41","精度区分":null,"座標値種別":null,"筆界未定構成筆":null,"代表点緯度":1191.142,"代表点経度":1442.922522329}},{"type":"MultiPolygon","arcs":[[[147,-10,-119,-147]]],"properties":{"筆ID":"H000000042","version":"ver1.0","座標系":"任意座標系","測地系判別":null,"地図名":"厚開Ｂ（３０００）図無Ｈ１３","地図番号":"開B-1","縮尺分母":"3000","市区町村コード":"01581","市区町村名":"勇払郡厚真町","大字コード":"000","丁目コード":"000","小字コード":"0190","予備コード":"00","大字名":null,"丁目名":null,"小字名":"字鯉沼","予備名":null,"地番":"158-42","精度区分":null,"座標値種別":null,"筆界未定構成筆":null,"代表点緯度":1173.2075,"代表点経度":1454.532027641}},{"type":"MultiPolygon","arcs":[[[148,149,150,151]]],"properties":{"筆ID":"H000000043","version":"ver1.0","座標系":"任意座標系","測地系判別":null,"地図名":"厚開Ｂ（３０００）図無Ｈ１３","地図番号":"開B-1","縮尺分母":"3000","市区町村コード":"01581","市区町村名":"勇払郡厚真町","大字コード":"000","丁目コード":"000","小字コード":"0190","予備コード":"00","大字名":null,"丁目名":null,"小字名":"字鯉沼","予備名":null,"地番":"158-43","精度区分":null,"座標値種別":null,"筆界未定構成筆":null,"代表点緯度":1170.892,"代表点経度":938.905787218}},{"type":"MultiPolygon","arcs":[[[152,153,-149,154]]],"properties":{"筆ID":"H000000044","version":"ver1.0","座標系":"任意座標系","測地系判別":null,"地図名":"厚開Ｂ（３０００）図無Ｈ１３","地図番号":"開B-1","縮尺分母":"3000","市区町村コード":"01581","市区町村名":"勇払郡厚真町","大字コード":"000","丁目コード":"000","小字コード":"0190","予備コード":"00","大字名":null,"丁目名":null,"小字名":"字鯉沼","予備名":null,"地番":"158-44","精度区分":null,"座標値種別":null,"筆界未定構成筆":null,"代表点緯度":1179.9565,"代表点経度":956.911635598}},{"type":"MultiPolygon","arcs":[[[155,156,-153,157]]],"properties":{"筆ID":"H000000045","version":"ver1.0","座標系":"任意座標系","測地系判別":null,"地図名":"厚開Ｂ（３０００）図無Ｈ１３","地図番号":"開B-1","縮尺分母":"3000","市区町村コード":"01581","市区町村名":"勇払郡厚真町","大字コード":"000","丁目コード":"000","小字コード":"0190","予備コード":"00","大字名":null,"丁目名":null,"小字名":"字鯉沼","予備名":null,"地番":"158-45","精度区分":null,"座標値種別":null,"筆界未定構成筆":null,"代表点緯度":1189.6535,"代表点経度":976.319405199}},{"type":"MultiPolygon","arcs":[[[158,159,-156,160]]],"properties":{"筆ID":"H000000046","version":"ver1.0","座標系":"任意座標系","測地系判別":null,"地図名":"厚開Ｂ（３０００）図無Ｈ１３","地図番号":"開B-1","縮尺分母":"3000","市区町村コード":"01581","市区町村名":"勇払郡厚真町","大字コード":"000","丁目コード":"000","小字コード":"0190","予備コード":"00","大字名":null,"丁目名":null,"小字名":"字鯉沼","予備名":null,"地番":"158-46","精度区分":null,"座標値種別":null,"筆界未定構成筆":null,"代表点緯度":1199.309,"代表点経度":995.744212741}},{"type":"MultiPolygon","arcs":[[[-154,-157,-160,161,162,163,-150]]],"properties":{"筆ID":"H000000047","version":"ver1.0","座標系":"任意座標系","測地系判別":null,"地図名":"厚開Ｂ（３０００）図無Ｈ１３","地図番号":"開B-1","縮尺分母":"3000","市区町村コード":"01581","市区町村名":"勇払郡厚真町","大字コード":"000","丁目コード":"000","小字コード":"0190","予備コード":"00","大字名":null,"丁目名":null,"小字名":"字鯉沼","予備名":null,"地番":"158-47","精度区分":null,"座標値種別":null,"筆界未定構成筆":null,"代表点緯度":1159.419,"代表点経度":992.32351538}},{"type":"MultiPolygon","arcs":[[[164,-25,165,-163]]],"properties":{"筆ID":"H000000048","version":"ver1.0","座標系":"任意座標系","測地系判別":null,"地図名":"厚開Ｂ（３０００）図無Ｈ１３","地図番号":"開B-1","縮尺分母":"3000","市区町村コード":"01581","市区町村名":"勇払郡厚真町","大字コード":"000","丁目コード":"000","小字コード":"0190","予備コード":"00","大字名":null,"丁目名":null,"小字名":"字鯉沼","予備名":null,"地番":"158-48","精度区分":null,"座標値種別":null,"筆界未定構成筆":null,"代表点緯度":1134.8315,"代表点経度":995.218680532}},{"type":"MultiPolygon","arcs":[[[166,167,168,169]]],"properties":{"筆ID":"H000000049","version":"ver1.0","座標系":"任意座標系","測地系判別":null,"地図名":"厚開Ｂ（３０００）図無Ｈ１３","地図番号":"開B-1","縮尺分母":"3000","市区町村コード":"01581","市区町村名":"勇払郡厚真町","大字コード":"000","丁目コード":"000","小字コード":"0190","予備コード":"00","大字名":null,"丁目名":null,"小字名":"字鯉沼","予備名":null,"地番":"158-49","精度区分":null,"座標値種別":null,"筆界未定構成筆":null,"代表点緯度":1212.335,"代表点経度":1022.15302775}},{"type":"MultiPolygon","arcs":[[[170,171,-167,172]]],"properties":{"筆ID":"H000000050","version":"ver1.0","座標系":"任意座標系","測地系判別":null,"地図名":"厚開Ｂ（３０００）図無Ｈ１３","地図番号":"開B-1","縮尺分母":"3000","市区町村コード":"01581","市区町村名":"勇払郡厚真町","大字コード":"000","丁目コード":"000","小字コード":"0190","予備コード":"00","大字名":null,"丁目名":null,"小字名":"字鯉沼","予備名":null,"地番":"158-50","精度区分":null,"座標値種別":null,"筆界未定構成筆":null,"代表点緯度":1222.822,"代表点経度":1043.495896781}},{"type":"MultiPolygon","arcs":[[[-88,173,-171,174]]],"properties":{"筆ID":"H000000051","version":"ver1.0","座標系":"任意座標系","測地系判別":null,"地図名":"厚開Ｂ（３０００）図無Ｈ１３","地図番号":"開B-1","縮尺分母":"3000","市区町村コード":"01581","市区町村名":"勇払郡厚真町","大字コード":"000","丁目コード":"000","小字コード":"0190","予備コード":"00","大字名":null,"丁目名":null,"小字名":"字鯉沼","予備名":null,"地番":"158-51","精度区分":null,"座標値種別":null,"筆界未定構成筆":null,"代表点緯度":1233.88,"代表点経度":1065.217400856}},{"type":"MultiPolygon","arcs":[[[-172,-174,-87,175,176,-168]]],"properties":{"筆ID":"H000000052","version":"ver1.0","座標系":"任意座標系","測地系判別":null,"地図名":"厚開Ｂ（３０００）図無Ｈ１３","地図番号":"開B-1","縮尺分母":"3000","市区町村コード":"01581","市区町村名":"勇払郡厚真町","大字コード":"000","丁目コード":"000","小字コード":"0190","予備コード":"00","大字名":null,"丁目名":null,"小字名":"字鯉沼","予備名":null,"地番":"158-52","精度区分":null,"座標値種別":null,"筆界未定構成筆":null,"代表点緯度":1193.5245,"代表点経度":1061.387479882}},{"type":"MultiPolygon","arcs":[[[-85,-37,-29,177,178]]],"properties":{"筆ID":"H000000053","version":"ver1.0","座標系":"任意座標系","測地系判別":null,"地図名":"厚開Ｂ（３０００）図無Ｈ１３","地図番号":"開B-1","縮尺分母":"3000","市区町村コード":"01581","市区町村名":"勇払郡厚真町","大字コード":"000","丁目コード":"000","小字コード":"0190","予備コード":"00","大字名":null,"丁目名":null,"小字名":"字鯉沼","予備名":null,"地番":"158-53","精度区分":null,"座標値種別":null,"筆界未定構成筆":null,"代表点緯度":1165.113,"代表点経度":1077.956985532}},{"type":"MultiPolygon","arcs":[[[-169,-177,179,-178,-28,180,-22,-165,-162,-159,181]]],"properties":{"筆ID":"H000000054","version":"ver1.0","座標系":"任意座標系","測地系判別":null,"地図名":"厚開Ｂ（３０００）図無Ｈ１３","地図番号":"開B-1","縮尺分母":"3000","市区町村コード":"01581","市区町村名":"勇払郡厚真町","大字コード":"000","丁目コード":"000","小字コード":"0190","予備コード":"00","大字名":null,"丁目名":null,"小字名":"字鯉沼","予備名":null,"地番":"158-54","精度区分":null,"座標値種別":null,"筆界未定構成筆":null,"代表点緯度":1174.701,"代表点経度":1025.086664365}},{"type":"MultiPolygon","arcs":[[[-86,-179,-180,-176]]],"properties":{"筆ID":"H000000055","version":"ver1.0","座標系":"任意座標系","測地系判別":null,"地図名":"厚開Ｂ（３０００）図無Ｈ１３","地図番号":"開B-1","縮尺分母":"3000","市区町村コード":"01581","市区町村名":"勇払郡厚真町","大字コード":"000","丁目コード":"000","小字コード":"0190","予備コード":"00","大字名":null,"丁目名":null,"小字名":"字鯉沼","予備名":null,"地番":"158-55","精度区分":null,"座標値種別":null,"筆界未定構成筆":null,"代表点緯度":1176.255,"代表点経度":1071.194786395}},{"type":"MultiPolygon","arcs":[[[-68,182,-133,-131,-129,-57,-77]]],"properties":{"筆ID":"H000000056","version":"ver1.0","座標系":"任意座標系","測地系判別":null,"地図名":"厚開Ｂ（３０００）図無Ｈ１３","地図番号":"開B-1","縮尺分母":"3000","市区町村コード":"01581","市区町村名":"勇払郡厚真町","大字コード":"000","丁目コード":"000","小字コード":"0190","予備コード":"00","大字名":null,"丁目名":null,"小字名":"字鯉沼","予備名":null,"地番":"158-56","精度区分":null,"座標値種別":null,"筆界未定構成筆":null,"代表点緯度":1327.662,"代表点経度":1398.560380695}},{"type":"MultiPolygon","arcs":[[[-67,183,-140,-138,-136,-134,-183]]],"properties":{"筆ID":"H000000057","version":"ver1.0","座標系":"任意座標系","測地系判別":null,"地図名":"厚開Ｂ（３０００）図無Ｈ１３","地図番号":"開B-1","縮尺分母":"3000","市区町村コード":"01581","市区町村名":"勇払郡厚真町","大字コード":"000","丁目コード":"000","小字コード":"0190","予備コード":"00","大字名":null,"丁目名":null,"小字名":"字鯉沼","予備名":null,"地番":"158-57","精度区分":null,"座標値種別":null,"筆界未定構成筆":null,"代表点緯度":1274.8055,"代表点経度":1432.762009491}},{"type":"MultiPolygon","arcs":[[[-66,184,-145,-143,-141,-184]]],"properties":{"筆ID":"H000000058","version":"ver1.0","座標系":"任意座標系","測地系判別":null,"地図名":"厚開Ｂ（３０００）図無Ｈ１３","地図番号":"開B-1","縮尺分母":"3000","市区町村コード":"01581","市区町村名":"勇払郡厚真町","大字コード":"000","丁目コード":"000","小字コード":"0190","予備コード":"00","大字名":null,"丁目名":null,"小字名":"字鯉沼","予備名":null,"地番":"158-58","精度区分":null,"座標値種別":null,"筆界未定構成筆":null,"代表点緯度":1235.0515,"代表点経度":1458.481630349}},{"type":"MultiPolygon","arcs":[[[-65,-11,-148,-146,-185]]],"properties":{"筆ID":"H000000059","version":"ver1.0","座標系":"任意座標系","測地系判別":null,"地図名":"厚開Ｂ（３０００）図無Ｈ１３","地図番号":"開B-1","縮尺分母":"3000","市区町村コード":"01581","市区町村名":"勇払郡厚真町","大字コード":"000","丁目コード":"000","小字コード":"0190","予備コード":"00","大字名":null,"丁目名":null,"小字名":"字鯉沼","予備名":null,"地番":"158-59","精度区分":null,"座標値種別":null,"筆界未定構成筆":null,"代表点緯度":1201.5905,"代表点経度":1480.129523917}},{"type":"MultiPolygon","arcs":[[[-74,185,-61,-76]]],"properties":{"筆ID":"H000000060","version":"ver1.0","座標系":"任意座標系","測地系判別":null,"地図名":"厚開Ｂ（３０００）図無Ｈ１３","地図番号":"開B-1","縮尺分母":"3000","市区町村コード":"01581","市区町村名":"勇払郡厚真町","大字コード":"000","丁目コード":"000","小字コード":"0190","予備コード":"00","大字名":null,"丁目名":null,"小字名":"字鯉沼","予備名":null,"地番":"158-60","精度区分":null,"座標値種別":null,"筆界未定構成筆":null,"代表点緯度":1323.848,"代表点経度":1438.550480168}},{"type":"MultiPolygon","arcs":[[[-73,186,-62,-186]]],"properties":{"筆ID":"H000000061","version":"ver1.0","座標系":"任意座標系","測地系判別":null,"地図名":"厚開Ｂ（３０００）図無Ｈ１３","地図番号":"開B-1","縮尺分母":"3000","市区町村コード":"01581","市区町村名":"勇払郡厚真町","大字コード":"000","丁目コード":"000","小字コード":"0190","予備コード":"00","大字名":null,"丁目名":null,"小字名":"字鯉沼","予備名":null,"地番":"158-61","精度区分":null,"座標値種別":null,"筆界未定構成筆":null,"代表点緯度":1290.464,"代表点経度":1460.033280125}},{"type":"MultiPolygon","arcs":[[[-72,187,-63,-187]]],"properties":{"筆ID":"H000000062","version":"ver1.0","座標系":"任意座標系","測地系判別":null,"地図名":"厚開Ｂ（３０００）図無Ｈ１３","地図番号":"開B-1","縮尺分母":"3000","市区町村コード":"01581","市区町村名":"勇払郡厚真町","大字コード":"000","丁目コード":"000","小字コード":"0190","予備コード":"00","大字名":null,"丁目名":null,"小字名":"字鯉沼","予備名":null,"地番":"158-62","精度区分":null,"座標値種別":null,"筆界未定構成筆":null,"代表点緯度":1253.7715,"代表点経度":1483.645145681}},{"type":"MultiPolygon","arcs":[[[-71,-13,-64,-188]]],"properties":{"筆ID":"H000000063","version":"ver1.0","座標系":"任意座標系","測地系判別":null,"地図名":"厚開Ｂ（３０００）図無Ｈ１３","地図番号":"開B-1","縮尺分母":"3000","市区町村コード":"01581","市区町村名":"勇払郡厚真町","大字コード":"000","丁目コード":"000","小字コード":"0190","予備コード":"00","大字名":null,"丁目名":null,"小字名":"字鯉沼","予備名":null,"地番":"158-63","精度区分":null,"座標値種別":null,"筆界未定構成筆":null,"代表点緯度":1217.131,"代表点経度":1507.223576362}},{"type":"MultiPolygon","arcs":[[[-151,-164,-166,-24,188,-20,189]]],"properties":{"筆ID":"H000000064","version":"ver1.0","座標系":"任意座標系","測地系判別":null,"地図名":"厚開Ｂ（３０００）図無Ｈ１３","地図番号":"開B-1","縮尺分母":"3000","市区町村コード":"01581","市区町村名":"勇払郡厚真町","大字コード":"000","丁目コード":"000","小字コード":"0190","予備コード":"00","大字名":null,"丁目名":null,"小字名":"字鯉沼","予備名":null,"地番":"158-64","精度区分":null,"座標値種別":null,"筆界未定構成筆":null,"代表点緯度":1115.0165,"代表点経度":911.39529771}},{"type":"MultiPolygon","arcs":[[[-101,-95,-2,-91]]],"properties":{"筆ID":"H000000065","version":"ver1.0","座標系":"任意座標系","測地系判別":null,"地図名":"厚開Ｂ（３０００）図無Ｈ１３","地図番号":"開B-1","縮尺分母":"3000","市区町村コード":"01581","市区町村名":"勇払郡厚真町","大字コード":"000","丁目コード":"000","小字コード":"0190","予備コード":"00","大字名":null,"丁目名":null,"小字名":"字鯉沼","予備名":null,"地番":"158-65","精度区分":null,"座標値種別":null,"筆界未定構成筆":null,"代表点緯度":1266.648,"代表点経度":1246.640653321}},{"type":"MultiPolygon","arcs":[[[190,191,192,193,194,195,196]]],"properties":{"筆ID":"H000000066","version":"ver1.0","座標系":"任意座標系","測地系判別":null,"地図名":"厚開Ｂ（３０００）図無Ｈ１３","地図番号":"開B-1","縮尺分母":"3000","市区町村コード":"01581","市区町村名":"勇払郡厚真町","大字コード":"000","丁目コード":"000","小字コード":"0190","予備コード":"00","大字名":null,"丁目名":null,"小字名":"字鯉沼","予備名":null,"地番":"170-4","精度区分":null,"座標値種別":null,"筆界未定構成筆":null,"代表点緯度":418.5165,"代表点経度":984.32158805}},{"type":"MultiPolygon","arcs":[[[-195,197]]],"properties":{"筆ID":"H000000067","version":"ver1.0","座標系":"任意座標系","測地系判別":null,"地図名":"厚開Ｂ（３０００）図無Ｈ１３","地図番号":"開B-1","縮尺分母":"3000","市区町村コード":"01581","市区町村名":"勇払郡厚真町","大字コード":"000","丁目コード":"000","小字コード":"0190","予備コード":"00","大字名":null,"丁目名":null,"小字名":"字鯉沼","予備名":null,"地番":"170-5","精度区分":null,"座標値種別":null,"筆界未定構成筆":null,"代表点緯度":554.2565,"代表点経度":1284.108014681}},{"type":"MultiPolygon","arcs":[[[198,-193,199,200]]],"properties":{"筆ID":"H000000068","version":"ver1.0","座標系":"任意座標系","測地系判別":null,"地図名":"厚開Ｂ（３０００）図無Ｈ１３","地図番号":"開B-1","縮尺分母":"3000","市区町村コード":"01581","市区町村名":"勇払郡厚真町","大字コード":"000","丁目コード":"000","小字コード":"0190","予備コード":"00","大字名":null,"丁目名":null,"小字名":"字鯉沼","予備名":null,"地番":"170-7","精度区分":null,"座標値種別":null,"筆界未定構成筆":null,"代表点緯度":479.018,"代表点経度":956.834027503}},{"type":"MultiPolygon","arcs":[[[201,-201,202,203]]],"properties":{"筆ID":"H000000069","version":"ver1.0","座標系":"任意座標系","測地系判別":null,"地図名":"厚開Ｂ（３０００）図無Ｈ１３","地図番号":"開B-1","縮尺分母":"3000","市区町村コード":"01581","市区町村名":"勇払郡厚真町","大字コード":"000","丁目コード":"000","小字コード":"0190","予備コード":"00","大字名":null,"丁目名":null,"小字名":"字鯉沼","予備名":null,"地番":"170-8","精度区分":null,"座標値種別":null,"筆界未定構成筆":null,"代表点緯度":506.3375,"代表点経度":898.622135743}},{"type":"MultiPolygon","arcs":[[[204,205,206]]],"properties":{"筆ID":"H000000070","version":"ver1.0","座標系":"任意座標系","測地系判別":null,"地図名":"厚開Ｂ（３０００）図無Ｈ１３","地図番号":"開B-1","縮尺分母":"3000","市区町村コード":"01581","市区町村名":"勇払郡厚真町","大字コード":"000","丁目コード":"000","小字コード":"0190","予備コード":"00","大字名":null,"丁目名":null,"小字名":"字鯉沼","予備名":null,"地番":"170-9","精度区分":null,"座標値種別":null,"筆界未定構成筆":null,"代表点緯度":470.2415,"代表点経度":848.830847477}},{"type":"MultiPolygon","arcs":[[[207,208,209,-205]]],"properties":{"筆ID":"H000000071","version":"ver1.0","座標系":"任意座標系","測地系判別":null,"地図名":"厚開Ｂ（３０００）図無Ｈ１３","地図番号":"開B-1","縮尺分母":"3000","市区町村コード":"01581","市区町村名":"勇払郡厚真町","大字コード":"000","丁目コード":"000","小字コード":"0190","予備コード":"00","大字名":null,"丁目名":null,"小字名":"字鯉沼","予備名":null,"地番":"170-10","精度区分":null,"座標値種別":null,"筆界未定構成筆":null,"代表点緯度":461.2945,"代表点経度":866.702304093}},{"type":"MultiPolygon","arcs":[[[210,211,212,-209]]],"properties":{"筆ID":"H000000072","version":"ver1.0","座標系":"任意座標系","測地系判別":null,"地図名":"厚開Ｂ（３０００）図無Ｈ１３","地図番号":"開B-1","縮尺分母":"3000","市区町村コード":"01581","市区町村名":"勇払郡厚真町","大字コード":"000","丁目コード":"000","小字コード":"0190","予備コード":"00","大字名":null,"丁目名":null,"小字名":"字鯉沼","予備名":null,"地番":"170-11","精度区分":null,"座標値種別":null,"筆界未定構成筆":null,"代表点緯度":442.083,"代表点経度":878.451162194}},{"type":"MultiPolygon","arcs":[[[213,-197,214,-212]]],"properties":{"筆ID":"H000000073","version":"ver1.0","座標系":"任意座標系","測地系判別":null,"地図名":"厚開Ｂ（３０００）図無Ｈ１３","地図番号":"開B-1","縮尺分母":"3000","市区町村コード":"01581","市区町村名":"勇払郡厚真町","大字コード":"000","丁目コード":"000","小字コード":"0190","予備コード":"00","大字名":null,"丁目名":null,"小字名":"字鯉沼","予備名":null,"地番":"170-12","精度区分":null,"座標値種別":null,"筆界未定構成筆":null,"代表点緯度":426.0455,"代表点経度":888.433506859}},{"type":"MultiPolygon","arcs":[[[-200,-192,215,-203]]],"properties":{"筆ID":"H000000074","version":"ver1.0","座標系":"任意座標系","測地系判別":null,"地図名":"厚開Ｂ（３０００）図無Ｈ１３","地図番号":"開B-1","縮尺分母":"3000","市区町村コード":"01581","市区町村名":"勇払郡厚真町","大字コード":"000","丁目コード":"000","小字コード":"0190","予備コード":"00","大字名":null,"丁目名":null,"小字名":"字鯉沼","予備名":null,"地番":"170-13","精度区分":null,"座標値種別":null,"筆界未定構成筆":null,"代表点緯度":469.6635,"代表点経度":922.043864324}},{"type":"MultiPolygon","arcs":[[[-204,-216,-191,-214,-211,-208,-207,216]]],"properties":{"筆ID":"H000000075","version":"ver1.0","座標系":"任意座標系","測地系判別":null,"地図名":"厚開Ｂ（３０００）図無Ｈ１３","地図番号":"開B-1","縮尺分母":"3000","市区町村コード":"01581","市区町村名":"勇払郡厚真町","大字コード":"000","丁目コード":"000","小字コード":"0190","予備コード":"00","大字名":null,"丁目名":null,"小字名":"字鯉沼","予備名":null,"地番":"170-14","精度区分":null,"座標値種別":null,"筆界未定構成筆":null,"代表点緯度":485.114,"代表点経度":878.828585199}}]}},"arcs":[[[513773,963076],[37020,-45117]],[[550793,917959],[18304,-22307]],[[569097,895652],[16669,-20315]],[[585766,875337],[18848,-22970]],[[604614,852367],[36824,-44372]],[[641438,807995],[54492,-65660],[37541,19398]],[[733471,761733],[39819,20576]],[[773290,782309],[39304,20309]],[[812594,802618],[4778,2470]],[[817372,805088],[47934,24768]],[[865306,829856],[27942,14438]],[[893248,844294],[3922,2027]],[[897170,846321],[28302,14460]],[[925472,860781],[73251,37425]],[[998723,898206],[1276,-4378],[-307304,-159109]],[[692695,734719],[-46057,55711]],[[646638,790430],[-97627,118087]],[[549011,908517],[-42814,51787]],[[506197,960304],[7576,2772]],[[84942,806176],[73698,-106430]],[[158640,699746],[-83554,-38112],[-75086,113465],[84942,31077]],[[322500,798177],[12536,-17969]],[[335036,780208],[-89560,-40853]],[[245476,739355],[-14094,20569]],[[231382,759924],[91118,38253]],[[417122,829841],[7399,-9266]],[[424521,820575],[-82386,-37164]],[[342135,783411],[-8072,11746]],[[334063,795157],[83059,34684]],[[549011,908517],[-15128,-7641]],[[533883,900876],[-42664,53948]],[[491219,954824],[14978,5480]],[[474346,870802],[29135,14717]],[[503481,885519],[30402,15357]],[[646638,790430],[-141305,-71063]],[[505333,719367],[-80812,101208]],[[417122,829841],[-6859,8591]],[[410263,838432],[64083,32370]],[[692695,734719],[-141232,-73124],[-46130,57772]],[[679337,827301],[2260,-2740]],[[681597,824561],[17085,-20691]],[[698682,803870],[17434,-21117]],[[716116,782753],[17355,-21020]],[[641438,807995],[37899,19306]],[[642723,871647],[21280,-25774]],[[664003,845873],[15334,-18572]],[[604614,852367],[38109,19280]],[[683063,892057],[39705,20088]],[[722768,912145],[20942,-25535]],[[743710,886610],[-79707,-40737]],[[642723,871647],[40340,20410]],[[595087,992827],[5454,-314]],[[600541,992513],[13953,-16986]],[[614494,975527],[-40750,-20334]],[[573744,955193],[-18911,22906]],[[554833,978099],[40254,14728]],[[737161,985621],[1461,-1774]],[[738622,983847],[-48112,-24371]],[[690510,959476],[-24190,29438]],[[666320,988914],[70841,-3293]],[[784052,983440],[30273,-36697]],[[814325,946743],[24406,-29583]],[[838731,917160],[33690,-40839]],[[872421,876321],[24749,-30000]],[[893248,844294],[-24734,30027]],[[868514,874321],[-24752,30046]],[[843762,904367],[-47896,58144]],[[795866,962511],[-17458,21192]],[[778408,983703],[5644,-263]],[[976493,974495],[22230,-76289]],[[925472,860781],[-24293,29894]],[[901179,890675],[-33519,41250]],[[867660,931925],[-24188,29766]],[[843472,961691],[-16034,19733]],[[827438,981424],[149055,-6929]],[[827438,981424],[-43386,2016]],[[778408,983703],[-41247,1918]],[[666320,988914],[-6771,315]],[[659549,989229],[-10170,472],[-48838,2812]],[[595087,992827],[3995,1462],[15606,5710],[82779,-3394],[276527,-13534],[2499,-8576]],[[503481,885519],[-45465,57157]],[[458016,942676],[33203,12148]],[[474346,870802],[-47792,60362]],[[426554,931164],[31462,11512]],[[410263,838432],[-1813,2270]],[[408450,840702],[-8331,10433]],[[400119,851135],[-17590,22029]],[[382529,873164],[-25887,32421]],[[356642,905585],[69912,25579]],[[573744,955193],[15006,-18175]],[[588750,937018],[-37957,-19059]],[[513773,963076],[41060,15023]],[[607149,914733],[16816,-20367]],[[623965,894366],[-38199,-19029]],[[569097,895652],[38052,19081]],[[623965,894366],[18758,-22719]],[[614494,975527],[16575,-20176]],[[631069,955351],[17223,-20967]],[[648292,934384],[17123,-20844]],[[665415,913540],[17648,-21483]],[[607149,914733],[-18399,22285]],[[659549,989229],[11468,-13984]],[[671017,975245],[-39948,-19894]],[[671017,975245],[17424,-21244]],[[688441,954001],[-40149,-19617]],[[688441,954001],[17026,-20761]],[[705467,933240],[-40052,-19700]],[[705467,933240],[17301,-21095]],[[690510,959476],[14084,-17141]],[[704594,942335],[14218,-17304]],[[718812,925031],[8840,-10757]],[[727652,914274],[-4884,-2129]],[[727652,914274],[4878,-5937]],[[732530,908337],[14358,-17472]],[[746888,890865],[14120,-17184]],[[761008,873681],[13746,-16729]],[[774754,856952],[13857,-16864]],[[788611,840088],[14492,-17635]],[[803103,822453],[14269,-17365]],[[812594,802618],[-17281,21071]],[[795313,823689],[-16861,20558]],[[778452,844247],[-17442,21267]],[[761010,865514],[-17300,21096]],[[761010,865514],[-79413,-40953]],[[778452,844247],[-79770,-40377]],[[795313,823689],[-39340,-20335]],[[755973,803354],[-39857,-20601]],[[755973,803354],[17317,-21045]],[[738622,983847],[14047,-17072]],[[752669,966775],[-48075,-24440]],[[752669,966775],[14272,-17344]],[[766941,949431],[-48129,-24400]],[[766941,949431],[837,-1017]],[[767778,948414],[12643,-15364]],[[780421,933050],[-47891,-24713]],[[780421,933050],[14527,-17660]],[[794948,915390],[-48060,-24525]],[[794948,915390],[14211,-17276]],[[809159,898114],[-48151,-24433]],[[809159,898114],[6355,-7726]],[[815514,890388],[7469,-9080]],[[822983,881308],[-48229,-24356]],[[822983,881308],[14070,-17105]],[[837053,864203],[-48442,-24115]],[[837053,864203],[3245,-3945]],[[840298,860258],[11034,-13415]],[[851332,846843],[-48229,-24390]],[[851332,846843],[13974,-16987]],[[198542,847740],[26607,-39647]],[[225149,808093],[-20810,-8699]],[[204339,799394],[-27649,40351]],[[176690,839745],[21852,7995]],[[221637,856190],[26245,-38593]],[[247882,817597],[-22733,-9504]],[[198542,847740],[23095,8450]],[[246631,865336],[25819,-37469]],[[272450,827867],[-24568,-10270]],[[221637,856190],[24994,9146]],[[269742,873791],[25419,-36430]],[[295161,837361],[-22711,-9494]],[[246631,865336],[23111,8455]],[[295161,837361],[13626,-19530]],[[308787,817831],[-91193,-37782]],[[217594,780049],[-13255,19345]],[[308787,817831],[13713,-19654]],[[231382,759924],[-13788,20125]],[[304174,886389],[24474,-35343]],[[328648,851046],[-25736,-10562]],[[302912,840484],[-24955,36313]],[[277957,876797],[26217,9592]],[[331186,896271],[23412,-34572]],[[354598,861699],[-25950,-10653]],[[304174,886389],[27012,9882]],[[382529,873164],[-27931,-11465]],[[331186,896271],[25456,9314]],[[400119,851135],[-81404,-33645]],[[318715,817490],[-15803,22994]],[[334063,795157],[-8031,11685]],[[326032,806842],[82418,33860]],[[318715,817490],[7317,-10648]],[[342135,783411],[-7099,-3203]],[[269742,873791],[8215,3006]],[[795866,962511],[-28088,-14097]],[[843762,904367],[-28248,-13979]],[[868514,874321],[-28216,-14063]],[[843472,961691],[-29147,-14948]],[[867660,931925],[-28929,-14765]],[[901179,890675],[-28758,-14354]],[[245476,739355],[-86836,-39609]],[[84942,806176],[91748,33569]],[[168238,112334],[7673,4611]],[[175911,116945],[42057,25273]],[[217968,142218],[62428,37515]],[[280396,179733],[69181,-24495],[66998,-1482],[51910,-78]],[[468485,153678],[25219,5339]],[[493704,159017],[-320603,-159017],[-54278,83071]],[[118823,83071],[49415,29263]],[[468485,153678],[104764,53359],[86253,43372],[89082,44231],[26105,3745],[-194194,-95873],[-86791,-43495]],[[191973,180526],[12591,-10544],[68984,11155],[6848,-1404]],[[217968,142218],[-32303,34657]],[[185665,176875],[6308,3651]],[[156412,210303],[35561,-29777]],[[185665,176875],[-43090,-24951]],[[142575,151924],[-30963,32489],[44800,25890]],[[124180,159148],[-40012,-23038]],[[84168,136110],[-15350,23493]],[[68818,159603],[35549,20598],[19813,-21053]],[[124180,159148],[16254,-17272]],[[140434,141876],[-43356,-25524]],[[97078,116352],[-12910,19758]],[[140434,141876],[16310,-17329]],[[156744,124547],[-47418,-26942]],[[109326,97605],[-12248,18747]],[[156744,124547],[11494,-12213]],[[118823,83071],[-9497,14534]],[[175911,116945],[-33336,34979]],[[68818,159603],[-3111,4763],[85756,50082],[4949,-4145]]],"bbox":[775.216,317.295,1589.467,1353.314],"transform":{"scale":[0.0008142518142518144,0.001036020036020036],"translate":[775.216,317.295]}}
