{"type":"Topology","objects":{"01370-4402-12.featurecollection":{"type":"GeometryCollection","geometries":[{"type":"Polygon","arcs":[[0,1,2,3,4,5,6]],"properties":{"市区町村名":"瀬棚郡今金町","大字名":null,"丁目名":null,"小字名":"字白石","地番":"252-1","精度区分":null,"座標系":"任意座標系"}},{"type":"Polygon","arcs":[[7,-2,8]],"properties":{"市区町村名":"瀬棚郡今金町","大字名":null,"丁目名":null,"小字名":"字白石","地番":"252-2","精度区分":null,"座標系":"任意座標系"}},{"type":"Polygon","arcs":[[-4,9]],"properties":{"市区町村名":"瀬棚郡今金町","大字名":null,"丁目名":null,"小字名":"字白石","地番":"252-3","精度区分":null,"座標系":"任意座標系"}},{"type":"Polygon","arcs":[[10,11,12,13]],"properties":{"市区町村名":"瀬棚郡今金町","大字名":null,"丁目名":null,"小字名":"字白石","地番":"252-4","精度区分":null,"座標系":"任意座標系"}},{"type":"Polygon","arcs":[[14,15,16,17,18,-11,19]],"properties":{"市区町村名":"瀬棚郡今金町","大字名":null,"丁目名":null,"小字名":"字白石","地番":"252-5","精度区分":null,"座標系":"任意座標系"}},{"type":"Polygon","arcs":[[20,21,22,23,24,25]],"properties":{"市区町村名":"瀬棚郡今金町","大字名":null,"丁目名":null,"小字名":"字白石","地番":"252-6","精度区分":null,"座標系":"任意座標系"}},{"type":"Polygon","arcs":[[26,-9,-1,27]],"properties":{"市区町村名":"瀬棚郡今金町","大字名":null,"丁目名":null,"小字名":"字白石","地番":"252-7","精度区分":null,"座標系":"任意座標系"}},{"type":"Polygon","arcs":[[-12,-19,28,-6,29,30,31]],"properties":{"市区町村名":"瀬棚郡今金町","大字名":null,"丁目名":null,"小字名":"字白石","地番":"252-8","精度区分":null,"座標系":"任意座標系"}},{"type":"Polygon","arcs":[[32,-26,33]],"properties":{"市区町村名":"瀬棚郡今金町","大字名":null,"丁目名":null,"小字名":"字白石","地番":"253","精度区分":null,"座標系":"任意座標系"}},{"type":"Polygon","arcs":[[-24,34,35]],"properties":{"市区町村名":"瀬棚郡今金町","大字名":null,"丁目名":null,"小字名":"字白石","地番":"254-1","精度区分":null,"座標系":"任意座標系"}},{"type":"Polygon","arcs":[[-23,-35]],"properties":{"市区町村名":"瀬棚郡今金町","大字名":null,"丁目名":null,"小字名":"字白石","地番":"254-2","精度区分":null,"座標系":"任意座標系"}},{"type":"Polygon","arcs":[[36,37]],"properties":{"市区町村名":"瀬棚郡今金町","大字名":null,"丁目名":null,"小字名":"字白石","地番":"255","精度区分":null,"座標系":"任意座標系"}},{"type":"Polygon","arcs":[[38,39]],"properties":{"市区町村名":"瀬棚郡今金町","大字名":null,"丁目名":null,"小字名":"字白石","地番":"256","精度区分":null,"座標系":"任意座標系"}},{"type":"Polygon","arcs":[[40,41]],"properties":{"市区町村名":"瀬棚郡今金町","大字名":null,"丁目名":null,"小字名":"字白石","地番":"257","精度区分":null,"座標系":"任意座標系"}},{"type":"Polygon","arcs":[[42,43]],"properties":{"市区町村名":"瀬棚郡今金町","大字名":null,"丁目名":null,"小字名":"字白石","地番":"258","精度区分":null,"座標系":"任意座標系"}},{"type":"Polygon","arcs":[[44,-15,45]],"properties":{"市区町村名":"瀬棚郡今金町","大字名":null,"丁目名":null,"小字名":"字白石","地番":"259","精度区分":null,"座標系":"任意座標系"}},{"type":"Polygon","arcs":[[-16,-45,46]],"properties":{"市区町村名":"瀬棚郡今金町","大字名":null,"丁目名":null,"小字名":"字白石","地番":"260","精度区分":null,"座標系":"任意座標系"}},{"type":"Polygon","arcs":[[-25,-36,-22,47,48,-28,-7,-29,-18,49,-34]],"properties":{"市区町村名":"瀬棚郡今金町","大字名":null,"丁目名":null,"小字名":"字白石","地番":"261","精度区分":null,"座標系":"任意座標系"}},{"type":"Polygon","arcs":[[50,-13,-32,51,-37]],"properties":{"市区町村名":"瀬棚郡今金町","大字名":null,"丁目名":null,"小字名":"字白石","地番":"262","精度区分":null,"座標系":"任意座標系"}},{"type":"Polygon","arcs":[[-3,-8,-27,-49,52,-43,53,-42,54,-40,55,-30,-5,-10]],"properties":{"市区町村名":"瀬棚郡今金町","大字名":null,"丁目名":null,"小字名":"字白石","地番":"263","精度区分":null,"座標系":"任意座標系"}}]}},"arcs":[[[489028,455566],[12506,-34109],[120771,143907]],[[622305,565364],[151706,-469179]],[[774011,96185],[-21238,-8067],[-76191,91632],[-65525,92830],[-21872,18897],[-29079,-4513],[-67157,-40878]],[[492949,246086],[-109837,168650]],[[383112,414736],[-11801,21738],[-17597,1549]],[[353714,438023],[22144,75757]],[[375858,513780],[113170,-58214]],[[990317,421812],[-22634,-182726],[-27465,8054],[-101437,-10500],[-24771,-45876],[-39999,-94579]],[[622305,565364],[126343,-246296],[59647,121745],[50883,25582],[77958,-83745],[15643,65666],[37538,-26504]],[[492949,246086],[-80671,24062],[-29166,144588]],[[8033,758459],[15348,-13598],[55170,25382],[5707,22509]],[[84258,792752],[-3239,-204043]],[[81019,588709],[-31916,38033],[-43031,28835]],[[6072,655577],[1961,102882]],[[8534,784703],[14113,-13671],[52964,24938],[6677,26581],[40337,-35716]],[[122625,786835],[7752,-6863]],[[130377,779972],[28638,-53483]],[[159015,726489],[21146,-58157],[43753,-90459],[48769,-48917],[30513,22115],[7818,-3934]],[[311014,547137],[-5921,-22987],[-32750,-21883],[-50663,51671],[-45809,93344],[-33204,91646],[-58409,53824]],[[8033,758459],[501,26244]],[[385065,732309],[12222,4404],[104084,-281310]],[[501371,455403],[-15484,7966]],[[485887,463369],[-92367,251433],[-33706,-54708]],[[359814,660094],[-33390,-54193],[-14075,-53245]],[[312349,552656],[-9130,4698]],[[303219,557354],[18072,67933],[63774,107022]],[[998407,444697],[-8090,-22885]],[[489028,455566],[13079,-6728],[120386,144446],[126393,-245225],[57081,117916],[53895,25962],[75003,-81092],[15441,67878],[48101,-34026]],[[311014,547137],[64844,-33357]],[[353714,438023],[-20089,-43704],[-76236,-123071]],[[257389,271248],[-101690,31294]],[[155699,302542],[-11270,74407],[-35291,76424],[-28119,135336]],[[165818,713784],[25926,-48420],[66753,22473],[85756,29770],[40812,14702]],[[303219,557354],[-30482,-21094],[-48230,47534],[-43325,88928],[-15364,41062]],[[359814,660094],[126073,-196725]],[[485887,463369],[-173538,89287]],[[5510,626101],[41980,-28575],[29218,-35307],[28201,-130233],[32812,-72341],[8302,-54012]],[[146023,305633],[-146023,46617],[5510,273851]],[[410796,236365],[-29118,-5191],[-110050,35691]],[[271628,266865],[66420,105328],[19172,39897],[19296,-9161],[34280,-166564]],[[502265,220537],[-27708,-78038],[-37435,98556]],[[437122,241055],[65143,-20518]],[[686904,131047],[62003,-73488],[25495,11702]],[[774402,69261],[-34070,-69261],[-53428,131047]],[[12507,993093],[110118,-206258]],[[8534,784703],[3973,208390]],[[12507,993093],[132,6906],[117738,-220027]],[[501371,455403],[121408,144497],[125965,-243994],[56245,115647],[54965,26827],[74286,-80152],[15703,67129],[50056,-35788]],[[999999,449569],[-1592,-4872]],[[159015,726489],[6803,-12705]],[[5510,626101],[562,29476]],[[155699,302542],[-9676,3091]],[[999999,449569],[-28439,-237567],[-34151,-300],[-93633,72],[-69374,-142513]],[[686904,131047],[-92318,131280],[-32811,-1459],[-59510,-40331]],[[437122,241055],[-26326,-4690]],[[271628,266865],[-14239,4383]]],"bbox":[-34159.305,49546.444,-33125.577,49822.733],"transform":{"scale":[0.0010337290337290364,0.00027628927628927334],"translate":[-34159.305,49546.444]}}