{"type":"Topology","objects":{"01231-4309-25.featurecollection":{"type":"GeometryCollection","geometries":[{"type":"Polygon","arcs":[[0]],"properties":{"市区町村名":"恵庭市","大字名":null,"丁目名":null,"小字名":null,"地番":"1543","精度区分":null,"座標系":"任意座標系"}},{"type":"Polygon","arcs":[[1,2]],"properties":{"市区町村名":"恵庭市","大字名":"盤尻","丁目名":null,"小字名":null,"地番":"535","精度区分":null,"座標系":"任意座標系"}},{"type":"Polygon","arcs":[[-3,3]],"properties":{"市区町村名":"恵庭市","大字名":null,"丁目名":null,"小字名":null,"地番":"1544-1","精度区分":null,"座標系":"任意座標系"}}]}},"arcs":[[[0,584164],[157349,58777],[34614,-243821],[-152971,-25351],[-38992,210395]],[[878466,825907],[121533,-785088],[-4727,-873]],[[995272,39946],[-23302,150979],[-28511,184733],[-34694,224791],[-34674,224664],[4375,794]],[[995272,39946],[-216101,-39946],[-22323,151048],[-27352,185207],[-33005,225853],[-32856,224835],[-8920,61047],[9368,1921],[70139,29504],[24435,25299],[40058,79401],[10124,10616],[15223,5268],[28568,-7193],[25836,-166899]]],"bbox":[792.995,287.183,1964.467,1320.538],"transform":{"scale":[0.0011714731714731717,0.0010333560333560335],"translate":[792.995,287.183]}}