{"type":"Topology","objects":{"01231-4309-13.featurecollection":{"type":"GeometryCollection","geometries":[{"type":"Polygon","arcs":[[0,1,2,3]],"properties":{"市区町村名":"恵庭市","大字名":"中央","丁目名":null,"小字名":null,"地番":"長狭物不明-1","精度区分":null,"座標系":"任意座標系"}},{"type":"Polygon","arcs":[[-3,4,5,6]],"properties":{"市区町村名":"恵庭市","大字名":"中央","丁目名":null,"小字名":null,"地番":"長狭物不明-2","精度区分":null,"座標系":"任意座標系"}},{"type":"Polygon","arcs":[[7,8,9,10,11]],"properties":{"市区町村名":"恵庭市","大字名":"中央","丁目名":null,"小字名":null,"地番":"長狭物不明-3","精度区分":null,"座標系":"任意座標系"}},{"type":"Polygon","arcs":[[12,-10,13,14]],"properties":{"市区町村名":"恵庭市","大字名":"中央","丁目名":null,"小字名":null,"地番":"長狭物不明-4","精度区分":null,"座標系":"任意座標系"}},{"type":"Polygon","arcs":[[15,16,17,18]],"properties":{"市区町村名":"恵庭市","大字名":"中央","丁目名":null,"小字名":null,"地番":"145-3","精度区分":null,"座標系":"任意座標系"}},{"type":"Polygon","arcs":[[19,-19,20,21]],"properties":{"市区町村名":"恵庭市","大字名":"中央","丁目名":null,"小字名":null,"地番":"145-1","精度区分":null,"座標系":"任意座標系"}},{"type":"Polygon","arcs":[[22,-22,23]],"properties":{"市区町村名":"恵庭市","大字名":"中央","丁目名":null,"小字名":null,"地番":"145-2","精度区分":null,"座標系":"任意座標系"}},{"type":"Polygon","arcs":[[24,25,26,27,28,29,30,31,32,33,34,35]],"properties":{"市区町村名":"恵庭市","大字名":"中央","丁目名":null,"小字名":null,"地番":"道-1","精度区分":null,"座標系":"任意座標系"}},{"type":"Polygon","arcs":[[-26,36,37,38,39]],"properties":{"市区町村名":"恵庭市","大字名":"中央","丁目名":null,"小字名":null,"地番":"226-2W1","精度区分":null,"座標系":"任意座標系"}},{"type":"Polygon","arcs":[[40,41,42,43,44,45,-34]],"properties":{"市区町村名":"恵庭市","大字名":"中央","丁目名":null,"小字名":null,"地番":"218","精度区分":null,"座標系":"任意座標系"}},{"type":"Polygon","arcs":[[46,-28,47,48,-45,49]],"properties":{"市区町村名":"恵庭市","大字名":"中央","丁目名":null,"小字名":null,"地番":"219W1","精度区分":null,"座標系":"任意座標系"}},{"type":"Polygon","arcs":[[50,-50,-44,51,52,53]],"properties":{"市区町村名":"恵庭市","大字名":"中央","丁目名":null,"小字名":null,"地番":"224-2","精度区分":null,"座標系":"任意座標系"}},{"type":"Polygon","arcs":[[54,-29,-47,-51,55,-31]],"properties":{"市区町村名":"恵庭市","大字名":"中央","丁目名":null,"小字名":null,"地番":"222","精度区分":null,"座標系":"任意座標系"}},{"type":"Polygon","arcs":[[-53,56,57,-41,-33,58]],"properties":{"市区町村名":"恵庭市","大字名":"中央","丁目名":null,"小字名":null,"地番":"216-1","精度区分":null,"座標系":"任意座標系"}},{"type":"Polygon","arcs":[[-58,59,-42]],"properties":{"市区町村名":"恵庭市","大字名":"中央","丁目名":null,"小字名":null,"地番":"217","精度区分":null,"座標系":"任意座標系"}},{"type":"Polygon","arcs":[[-57,-52,-43,-60]],"properties":{"市区町村名":"恵庭市","大字名":"中央","丁目名":null,"小字名":null,"地番":"216-2","精度区分":null,"座標系":"任意座標系"}},{"type":"Polygon","arcs":[[-54,-59,-32,-56]],"properties":{"市区町村名":"恵庭市","大字名":"中央","丁目名":null,"小字名":null,"地番":"224-1","精度区分":null,"座標系":"任意座標系"}},{"type":"Polygon","arcs":[[-30,-55]],"properties":{"市区町村名":"恵庭市","大字名":"中央","丁目名":null,"小字名":null,"地番":"223","精度区分":null,"座標系":"任意座標系"}},{"type":"Polygon","arcs":[[-27,-40,60,61,62,63,64,-48]],"properties":{"市区町村名":"恵庭市","大字名":"中央","丁目名":null,"小字名":null,"地番":"220W1","精度区分":null,"座標系":"任意座標系"}},{"type":"Polygon","arcs":[[65,66,67,-64]],"properties":{"市区町村名":"恵庭市","大字名":"中央","丁目名":null,"小字名":null,"地番":"215","精度区分":null,"座標系":"任意座標系"}},{"type":"Polygon","arcs":[[-38,68,69,70,71,-67,72,73,74]],"properties":{"市区町村名":"恵庭市","大字名":"中央","丁目名":null,"小字名":null,"地番":"226-1W1","精度区分":null,"座標系":"任意座標系"}},{"type":"Polygon","arcs":[[75,-73,-66,-63]],"properties":{"市区町村名":"恵庭市","大字名":"中央","丁目名":null,"小字名":null,"地番":"225-1","精度区分":null,"座標系":"任意座標系"}},{"type":"Polygon","arcs":[[-74,-76,-62,76]],"properties":{"市区町村名":"恵庭市","大字名":"中央","丁目名":null,"小字名":null,"地番":"225-4","精度区分":null,"座標系":"任意座標系"}},{"type":"Polygon","arcs":[[-39,-75,-77,-61]],"properties":{"市区町村名":"恵庭市","大字名":"中央","丁目名":null,"小字名":null,"地番":"225-3","精度区分":null,"座標系":"任意座標系"}},{"type":"Polygon","arcs":[[77,78,79,80,81,82,83,84,85,-35]],"properties":{"市区町村名":"恵庭市","大字名":"中央","丁目名":null,"小字名":null,"地番":"道-2","精度区分":null,"座標系":"任意座標系"}},{"type":"Polygon","arcs":[[86,87,-81]],"properties":{"市区町村名":"恵庭市","大字名":"中央","丁目名":null,"小字名":null,"地番":"212-1","精度区分":null,"座標系":"任意座標系"}},{"type":"Polygon","arcs":[[88,89,90,91,92,93,94,95,96,97,-83]],"properties":{"市区町村名":"恵庭市","大字名":"中央","丁目名":null,"小字名":null,"地番":"212-2","精度区分":null,"座標系":"任意座標系"}},{"type":"Polygon","arcs":[[98,99,-96,100,101,102,103,-72]],"properties":{"市区町村名":"恵庭市","大字名":"中央","丁目名":null,"小字名":null,"地番":"226-1W2","精度区分":null,"座標系":"任意座標系"}},{"type":"Polygon","arcs":[[104,-93,105]],"properties":{"市区町村名":"恵庭市","大字名":"中央","丁目名":null,"小字名":null,"地番":"211-4","精度区分":null,"座標系":"任意座標系"}},{"type":"Polygon","arcs":[[106,107,108,-89,-82,-88]],"properties":{"市区町村名":"恵庭市","大字名":"中央","丁目名":null,"小字名":null,"地番":"211-7","精度区分":null,"座標系":"任意座標系"}},{"type":"Polygon","arcs":[[109,110,-108,111,-79]],"properties":{"市区町村名":"恵庭市","大字名":"中央","丁目名":null,"小字名":null,"地番":"213-1","精度区分":null,"座標系":"任意座標系"}},{"type":"Polygon","arcs":[[112,-110,-78,-46]],"properties":{"市区町村名":"恵庭市","大字名":"中央","丁目名":null,"小字名":null,"地番":"213-2","精度区分":null,"座標系":"任意座標系"}},{"type":"Polygon","arcs":[[-112,-107,-87,-80]],"properties":{"市区町村名":"恵庭市","大字名":"中央","丁目名":null,"小字名":null,"地番":"212-4","精度区分":null,"座標系":"任意座標系"}},{"type":"Polygon","arcs":[[113,-68,-104,114]],"properties":{"市区町村名":"恵庭市","大字名":"中央","丁目名":null,"小字名":null,"地番":"214-2","精度区分":null,"座標系":"任意座標系"}},{"type":"Polygon","arcs":[[-114,115,116,-91,117,-65]],"properties":{"市区町村名":"恵庭市","大字名":"中央","丁目名":null,"小字名":null,"地番":"220W2","精度区分":null,"座標系":"任意座標系"}},{"type":"Polygon","arcs":[[-103,118,-116,-115]],"properties":{"市区町村名":"恵庭市","大字名":"中央","丁目名":null,"小字名":null,"地番":"214-1","精度区分":null,"座標系":"任意座標系"}},{"type":"Polygon","arcs":[[-119,-102,119,120,-106,-92,-117]],"properties":{"市区町村名":"恵庭市","大字名":"中央","丁目名":null,"小字名":null,"地番":"211-6","精度区分":null,"座標系":"任意座標系"}},{"type":"Polygon","arcs":[[121,-94,-105,-121]],"properties":{"市区町村名":"恵庭市","大字名":"中央","丁目名":null,"小字名":null,"地番":"211-1","精度区分":null,"座標系":"任意座標系"}},{"type":"Polygon","arcs":[[-120,-101,-95,-122]],"properties":{"市区町村名":"恵庭市","大字名":"中央","丁目名":null,"小字名":null,"地番":"211-5","精度区分":null,"座標系":"任意座標系"}},{"type":"Polygon","arcs":[[-118,-90,-109,-111,-113,-49]],"properties":{"市区町村名":"恵庭市","大字名":"中央","丁目名":null,"小字名":null,"地番":"219W2","精度区分":null,"座標系":"任意座標系"}},{"type":"Polygon","arcs":[[122,123,124,125,126,127,128,129,130,131,132,133,134,-25]],"properties":{"市区町村名":"恵庭市","大字名":"中央","丁目名":null,"小字名":null,"地番":"道-3","精度区分":null,"座標系":"任意座標系"}},{"type":"Polygon","arcs":[[-134,135,136,137,138,139,140]],"properties":{"市区町村名":"恵庭市","大字名":"中央","丁目名":null,"小字名":null,"地番":"長狭物不明-5","精度区分":null,"座標系":"任意座標系"}},{"type":"Polygon","arcs":[[141,-137,142,143]],"properties":{"市区町村名":"恵庭市","大字名":"中央","丁目名":null,"小字名":null,"地番":"232-1","精度区分":null,"座標系":"任意座標系"}},{"type":"Polygon","arcs":[[-135,-141,144,145,146,147,148,149,150,-37]],"properties":{"市区町村名":"恵庭市","大字名":"中央","丁目名":null,"小字名":null,"地番":"226-2W2","精度区分":null,"座標系":"任意座標系"}},{"type":"Polygon","arcs":[[151,152,153,154,155,156,-147]],"properties":{"市区町村名":"恵庭市","大字名":"中央","丁目名":null,"小字名":null,"地番":"229W1","精度区分":null,"座標系":"任意座標系"}},{"type":"Polygon","arcs":[[157,-156,158,-69,-151]],"properties":{"市区町村名":"恵庭市","大字名":"中央","丁目名":null,"小字名":null,"地番":"228","精度区分":null,"座標系":"任意座標系"}},{"type":"Polygon","arcs":[[-146,159,160,161,-144,162,-152]],"properties":{"市区町村名":"恵庭市","大字名":"中央","丁目名":null,"小字名":null,"地番":"230W1","精度区分":null,"座標系":"任意座標系"}},{"type":"Polygon","arcs":[[163,-138,-142,-162]],"properties":{"市区町村名":"恵庭市","大字名":"中央","丁目名":null,"小字名":null,"地番":"232-3","精度区分":null,"座標系":"任意座標系"}},{"type":"Polygon","arcs":[[164,-139,-164,-161]],"properties":{"市区町村名":"恵庭市","大字名":"中央","丁目名":null,"小字名":null,"地番":"231-1","精度区分":null,"座標系":"任意座標系"}},{"type":"Polygon","arcs":[[-145,-140,-165,-160]],"properties":{"市区町村名":"恵庭市","大字名":"中央","丁目名":null,"小字名":null,"地番":"231-2","精度区分":null,"座標系":"任意座標系"}},{"type":"Polygon","arcs":[[165,-154,166,-99,-71]],"properties":{"市区町村名":"恵庭市","大字名":"中央","丁目名":null,"小字名":null,"地番":"233-1","精度区分":null,"座標系":"任意座標系"}},{"type":"Polygon","arcs":[[-149,167]],"properties":{"市区町村名":"恵庭市","大字名":"中央","丁目名":null,"小字名":null,"地番":"227","精度区分":null,"座標系":"任意座標系"}},{"type":"Polygon","arcs":[[-168,-148,-157,-158,-150]],"properties":{"市区町村名":"恵庭市","大字名":"中央","丁目名":null,"小字名":null,"地番":"226-3","精度区分":null,"座標系":"任意座標系"}},{"type":"Polygon","arcs":[[-159,-155,-166,-70]],"properties":{"市区町村名":"恵庭市","大字名":"中央","丁目名":null,"小字名":null,"地番":"233-3","精度区分":null,"座標系":"任意座標系"}},{"type":"Polygon","arcs":[[168,169,-133,170,171,172,173,174,175,176,177,178,179,180,181,182,183,184,-84]],"properties":{"市区町村名":"恵庭市","大字名":"中央","丁目名":null,"小字名":null,"地番":"道-4","精度区分":null,"座標系":"任意座標系"}},{"type":"Polygon","arcs":[[185,186,187,188,189,190,-169,-98,191]],"properties":{"市区町村名":"恵庭市","大字名":"中央","丁目名":null,"小字名":null,"地番":"長狭物不明-6","精度区分":null,"座標系":"任意座標系"}},{"type":"Polygon","arcs":[[-170,-191,192,193,-136]],"properties":{"市区町村名":"恵庭市","大字名":"中央","丁目名":null,"小字名":null,"地番":"長狭物不明-7","精度区分":null,"座標系":"任意座標系"}},{"type":"Polygon","arcs":[[-167,194,195,196,-192,-97,-100]],"properties":{"市区町村名":"恵庭市","大字名":"中央","丁目名":null,"小字名":null,"地番":"234-1","精度区分":null,"座標系":"任意座標系"}},{"type":"Polygon","arcs":[[-163,197,198,-187,199,-196,200]],"properties":{"市区町村名":"恵庭市","大字名":"中央","丁目名":null,"小字名":null,"地番":"230W2","精度区分":null,"座標系":"任意座標系"}},{"type":"Polygon","arcs":[[201,-188,-199,202]],"properties":{"市区町村名":"恵庭市","大字名":"中央","丁目名":null,"小字名":null,"地番":"237","精度区分":null,"座標系":"任意座標系"}},{"type":"Polygon","arcs":[[-198,-143,-194,203,204,-203]],"properties":{"市区町村名":"恵庭市","大字名":"中央","丁目名":null,"小字名":null,"地番":"236","精度区分":null,"座標系":"任意座標系"}},{"type":"Polygon","arcs":[[-204,-193,-190,205]],"properties":{"市区町村名":"恵庭市","大字名":"中央","丁目名":null,"小字名":null,"地番":"235","精度区分":null,"座標系":"任意座標系"}},{"type":"Polygon","arcs":[[-206,-189,-202,-205]],"properties":{"市区町村名":"恵庭市","大字名":"中央","丁目名":null,"小字名":null,"地番":"238","精度区分":null,"座標系":"任意座標系"}},{"type":"Polygon","arcs":[[-200,-186,-197]],"properties":{"市区町村名":"恵庭市","大字名":"中央","丁目名":null,"小字名":null,"地番":"234-2","精度区分":null,"座標系":"任意座標系"}},{"type":"Polygon","arcs":[[-153,-201,-195]],"properties":{"市区町村名":"恵庭市","大字名":"中央","丁目名":null,"小字名":null,"地番":"229W2","精度区分":null,"座標系":"任意座標系"}},{"type":"Polygon","arcs":[[206,207,208,209,210,211,212]],"properties":{"市区町村名":"恵庭市","大字名":"中央","丁目名":null,"小字名":null,"地番":"248-2","精度区分":null,"座標系":"任意座標系"}},{"type":"Polygon","arcs":[[-125,213,-213,214]],"properties":{"市区町村名":"恵庭市","大字名":"中央","丁目名":null,"小字名":null,"地番":"248-1","精度区分":null,"座標系":"任意座標系"}},{"type":"Polygon","arcs":[[-1,215,-207,-214,-124,216]],"properties":{"市区町村名":"恵庭市","大字名":"中央","丁目名":null,"小字名":null,"地番":"道-5","精度区分":null,"座標系":"任意座標系"}},{"type":"Polygon","arcs":[[-216,-4,217,218,219,220,221,-208]],"properties":{"市区町村名":"恵庭市","大字名":"中央","丁目名":null,"小字名":null,"地番":"無地番-1","精度区分":null,"座標系":"任意座標系"}},{"type":"Polygon","arcs":[[-215,-212,222,-126]],"properties":{"市区町村名":"恵庭市","大字名":"中央","丁目名":null,"小字名":null,"地番":"248-3","精度区分":null,"座標系":"任意座標系"}},{"type":"Polygon","arcs":[[-211,223,224,-127,-223]],"properties":{"市区町村名":"恵庭市","大字名":"中央","丁目名":null,"小字名":null,"地番":"248-4","精度区分":null,"座標系":"任意座標系"}},{"type":"Polygon","arcs":[[-225,225,226,-128]],"properties":{"市区町村名":"恵庭市","大字名":"中央","丁目名":null,"小字名":null,"地番":"247-2","精度区分":null,"座標系":"任意座標系"}},{"type":"Polygon","arcs":[[227,-129,-227]],"properties":{"市区町村名":"恵庭市","大字名":"中央","丁目名":null,"小字名":null,"地番":"247-1","精度区分":null,"座標系":"任意座標系"}},{"type":"Polygon","arcs":[[228,229,230,231,232,233,234,-6,235,236,237,238,239,240,241,242,243,244,245,-177]],"properties":{"市区町村名":"恵庭市","大字名":"中央","丁目名":null,"小字名":null,"地番":"道-6","精度区分":null,"座標系":"任意座標系"}},{"type":"Polygon","arcs":[[-130,-228,-226,-224,-210,246,247]],"properties":{"市区町村名":"恵庭市","大字名":"中央","丁目名":null,"小字名":null,"地番":"244-2","精度区分":null,"座標系":"任意座標系"}},{"type":"Polygon","arcs":[[-221,248,-232,249,250,251,252]],"properties":{"市区町村名":"恵庭市","大字名":"中央","丁目名":null,"小字名":null,"地番":"245-3","精度区分":null,"座標系":"任意座標系"}},{"type":"Polygon","arcs":[[253,-252,254,255]],"properties":{"市区町村名":"恵庭市","大字名":"中央","丁目名":null,"小字名":null,"地番":"245-7","精度区分":null,"座標系":"任意座標系"}},{"type":"Polygon","arcs":[[-247,-209,-222,-253,-254,256]],"properties":{"市区町村名":"恵庭市","大字名":"中央","丁目名":null,"小字名":null,"地番":"245-4","精度区分":null,"座標系":"任意座標系"}},{"type":"Polygon","arcs":[[-218,-7,-235,257]],"properties":{"市区町村名":"恵庭市","大字名":"中央","丁目名":null,"小字名":null,"地番":"256-2","精度区分":null,"座標系":"任意座標系"}},{"type":"Polygon","arcs":[[-219,-258,-234,258]],"properties":{"市区町村名":"恵庭市","大字名":"中央","丁目名":null,"小字名":null,"地番":"256-1","精度区分":null,"座標系":"任意座標系"}},{"type":"Polygon","arcs":[[-220,-259,-233,-249]],"properties":{"市区町村名":"恵庭市","大字名":"中央","丁目名":null,"小字名":null,"地番":"257","精度区分":null,"座標系":"任意座標系"}},{"type":"Polygon","arcs":[[-255,-251,259,260]],"properties":{"市区町村名":"恵庭市","大字名":"中央","丁目名":null,"小字名":null,"地番":"245-1","精度区分":null,"座標系":"任意座標系"}},{"type":"Polygon","arcs":[[-260,-250,-231,261]],"properties":{"市区町村名":"恵庭市","大字名":"中央","丁目名":null,"小字名":null,"地番":"245-5","精度区分":null,"座標系":"任意座標系"}},{"type":"Polygon","arcs":[[-248,262,263,-131]],"properties":{"市区町村名":"恵庭市","大字名":"中央","丁目名":null,"小字名":null,"地番":"244-3","精度区分":null,"座標系":"任意座標系"}},{"type":"Polygon","arcs":[[264,265,-171,-132,-264]],"properties":{"市区町村名":"恵庭市","大字名":"中央","丁目名":null,"小字名":null,"地番":"244-1","精度区分":null,"座標系":"任意座標系"}},{"type":"Polygon","arcs":[[-172,-266,266,267,268,269]],"properties":{"市区町村名":"恵庭市","大字名":"中央","丁目名":null,"小字名":null,"地番":"241-2","精度区分":null,"座標系":"任意座標系"}},{"type":"Polygon","arcs":[[-261,270,-267,-265,271]],"properties":{"市区町村名":"恵庭市","大字名":"中央","丁目名":null,"小字名":null,"地番":"245-2","精度区分":null,"座標系":"任意座標系"}},{"type":"Polygon","arcs":[[-262,-230,272,273,-271]],"properties":{"市区町村名":"恵庭市","大字名":"中央","丁目名":null,"小字名":null,"地番":"245-6","精度区分":null,"座標系":"任意座標系"}},{"type":"Polygon","arcs":[[274,-173,-270]],"properties":{"市区町村名":"恵庭市","大字名":"中央","丁目名":null,"小字名":null,"地番":"241-1","精度区分":null,"座標系":"任意座標系"}},{"type":"Polygon","arcs":[[275,-175,276]],"properties":{"市区町村名":"恵庭市","大字名":"中央","丁目名":null,"小字名":null,"地番":"240","精度区分":null,"座標系":"任意座標系"}},{"type":"Polygon","arcs":[[277,278,-273,-229,-176,-276]],"properties":{"市区町村名":"恵庭市","大字名":"中央","丁目名":null,"小字名":null,"地番":"243","精度区分":null,"座標系":"任意座標系"}},{"type":"Polygon","arcs":[[-174,-275,279,280,-278,-277]],"properties":{"市区町村名":"恵庭市","大字名":"中央","丁目名":null,"小字名":null,"地番":"242-1","精度区分":null,"座標系":"任意座標系"}},{"type":"Polygon","arcs":[[-269,-280]],"properties":{"市区町村名":"恵庭市","大字名":"中央","丁目名":null,"小字名":null,"地番":"242-2","精度区分":null,"座標系":"任意座標系"}},{"type":"Polygon","arcs":[[-268,-274,-279,-281]],"properties":{"市区町村名":"恵庭市","大字名":"中央","丁目名":null,"小字名":null,"地番":"241-3","精度区分":null,"座標系":"任意座標系"}},{"type":"Polygon","arcs":[[-257,-256,-272,-263]],"properties":{"市区町村名":"恵庭市","大字名":"中央","丁目名":null,"小字名":null,"地番":"245-8","精度区分":null,"座標系":"任意座標系"}},{"type":"Polygon","arcs":[[281,282,283,284,285,286,287,288,289,-12,290]],"properties":{"市区町村名":"恵庭市","大字名":"中央","丁目名":null,"小字名":null,"地番":"道-7","精度区分":null,"座標系":"任意座標系"}},{"type":"Polygon","arcs":[[-286,291]],"properties":{"市区町村名":"恵庭市","大字名":"中央","丁目名":null,"小字名":null,"地番":"277","精度区分":null,"座標系":"任意座標系"}},{"type":"Polygon","arcs":[[292,293,294,295]],"properties":{"市区町村名":"恵庭市","大字名":"中央","丁目名":null,"小字名":null,"地番":"271","精度区分":null,"座標系":"任意座標系"}},{"type":"Polygon","arcs":[[-288,296,297,-296,298,299]],"properties":{"市区町村名":"恵庭市","大字名":"中央","丁目名":null,"小字名":null,"地番":"267W1","精度区分":null,"座標系":"任意座標系"}},{"type":"Polygon","arcs":[[300,-289,-300,301,302]],"properties":{"市区町村名":"恵庭市","大字名":"中央","丁目名":null,"小字名":null,"地番":"269W1","精度区分":null,"座標系":"任意座標系"}},{"type":"Polygon","arcs":[[-301,303,-8,-290]],"properties":{"市区町村名":"恵庭市","大字名":"中央","丁目名":null,"小字名":null,"地番":"276","精度区分":null,"座標系":"任意座標系"}},{"type":"Polygon","arcs":[[-304,-303,304,-9]],"properties":{"市区町村名":"恵庭市","大字名":"中央","丁目名":null,"小字名":null,"地番":"270","精度区分":null,"座標系":"任意座標系"}},{"type":"Polygon","arcs":[[305,-293,-298,306]],"properties":{"市区町村名":"恵庭市","大字名":"中央","丁目名":null,"小字名":null,"地番":"275","精度区分":null,"座標系":"任意座標系"}},{"type":"Polygon","arcs":[[307,-284,308,-306]],"properties":{"市区町村名":"恵庭市","大字名":"中央","丁目名":null,"小字名":null,"地番":"266-3","精度区分":null,"座標系":"任意座標系"}},{"type":"Polygon","arcs":[[-287,-292,-285,-308,-307,-297]],"properties":{"市区町村名":"恵庭市","大字名":"中央","丁目名":null,"小字名":null,"地番":"278","精度区分":null,"座標系":"任意座標系"}},{"type":"Polygon","arcs":[[-309,-283,309,-294]],"properties":{"市区町村名":"恵庭市","大字名":"中央","丁目名":null,"小字名":null,"地番":"266-1","精度区分":null,"座標系":"任意座標系"}},{"type":"Polygon","arcs":[[310,311,312,313]],"properties":{"市区町村名":"恵庭市","大字名":"中央","丁目名":null,"小字名":null,"地番":"長狭物不明-8","精度区分":null,"座標系":"任意座標系"}},{"type":"Polygon","arcs":[[-282,314,-311,315,316,317,318,319,320,321,322,323,324,325,-15,326,327,328,329,330,331,332,333,334]],"properties":{"市区町村名":"恵庭市","大字名":"中央","丁目名":null,"小字名":null,"地番":"道-8","精度区分":null,"座標系":"任意座標系"}},{"type":"Polygon","arcs":[[335,-332,336]],"properties":{"市区町村名":"恵庭市","大字名":"中央","丁目名":null,"小字名":null,"地番":"264","精度区分":null,"座標系":"任意座標系"}},{"type":"Polygon","arcs":[[-299,337,-329,338]],"properties":{"市区町村名":"恵庭市","大字名":"中央","丁目名":null,"小字名":null,"地番":"267W2","精度区分":null,"座標系":"任意座標系"}},{"type":"Polygon","arcs":[[-295,339,-330,-338]],"properties":{"市区町村名":"恵庭市","大字名":"中央","丁目名":null,"小字名":null,"地番":"265","精度区分":null,"座標系":"任意座標系"}},{"type":"Polygon","arcs":[[-310,-335,340,341,-337,-331,-340]],"properties":{"市区町村名":"恵庭市","大字名":"中央","丁目名":null,"小字名":null,"地番":"266-2","精度区分":null,"座標系":"任意座標系"}},{"type":"Polygon","arcs":[[-341,-334,342]],"properties":{"市区町村名":"恵庭市","大字名":"中央","丁目名":null,"小字名":null,"地番":"263","精度区分":null,"座標系":"任意座標系"}},{"type":"Polygon","arcs":[[-333,-336,-342,-343]],"properties":{"市区町村名":"恵庭市","大字名":"中央","丁目名":null,"小字名":null,"地番":"262","精度区分":null,"座標系":"任意座標系"}},{"type":"Polygon","arcs":[[-302,-339,-328,343]],"properties":{"市区町村名":"恵庭市","大字名":"中央","丁目名":null,"小字名":null,"地番":"269W2","精度区分":null,"座標系":"任意座標系"}},{"type":"Polygon","arcs":[[-305,-344,-327,-14]],"properties":{"市区町村名":"恵庭市","大字名":"中央","丁目名":null,"小字名":null,"地番":"268","精度区分":null,"座標系":"任意座標系"}},{"type":"Polygon","arcs":[[-178,344,345,346,347,348,349]],"properties":{"市区町村名":"恵庭市","大字名":"中央","丁目名":null,"小字名":null,"地番":"道-9","精度区分":null,"座標系":"任意座標系"}},{"type":"Polygon","arcs":[[-179,-350,350,351]],"properties":{"市区町村名":"恵庭市","大字名":"中央","丁目名":null,"小字名":null,"地番":"183-1","精度区分":null,"座標系":"任意座標系"}},{"type":"Polygon","arcs":[[352,-348,353,354]],"properties":{"市区町村名":"恵庭市","大字名":"中央","丁目名":null,"小字名":null,"地番":"183-3","精度区分":null,"座標系":"任意座標系"}},{"type":"Polygon","arcs":[[-185,355,356,357,358,-85]],"properties":{"市区町村名":"恵庭市","大字名":"中央","丁目名":null,"小字名":null,"地番":"189-2","精度区分":null,"座標系":"任意座標系"}},{"type":"Polygon","arcs":[[359,360,361,362,363,364,365,366]],"properties":{"市区町村名":"恵庭市","大字名":"中央","丁目名":null,"小字名":null,"地番":"186-6","精度区分":null,"座標系":"任意座標系"}},{"type":"Polygon","arcs":[[-367,367,368,369]],"properties":{"市区町村名":"恵庭市","大字名":"中央","丁目名":null,"小字名":null,"地番":"188-5","精度区分":null,"座標系":"任意座標系"}},{"type":"Polygon","arcs":[[370,371,372,-362]],"properties":{"市区町村名":"恵庭市","大字名":"中央","丁目名":null,"小字名":null,"地番":"186-1","精度区分":null,"座標系":"任意座標系"}},{"type":"Polygon","arcs":[[373,374,-371,-361,375,376,-357,377]],"properties":{"市区町村名":"恵庭市","大字名":"中央","丁目名":null,"小字名":null,"地番":"186-2","精度区分":null,"座標系":"任意座標系"}},{"type":"Polygon","arcs":[[378,379,380,381,-372,-375,382,383,-181]],"properties":{"市区町村名":"恵庭市","大字名":"中央","丁目名":null,"小字名":null,"地番":"186-3","精度区分":null,"座標系":"任意座標系"}},{"type":"Polygon","arcs":[[-182,-384,384]],"properties":{"市区町村名":"恵庭市","大字名":"中央","丁目名":null,"小字名":null,"地番":"185","精度区分":null,"座標系":"任意座標系"}},{"type":"Polygon","arcs":[[-376,-360,-370,385]],"properties":{"市区町村名":"恵庭市","大字名":"中央","丁目名":null,"小字名":null,"地番":"188-6","精度区分":null,"座標系":"任意座標系"}},{"type":"Polygon","arcs":[[386,-365,387,388]],"properties":{"市区町村名":"恵庭市","大字名":"中央","丁目名":null,"小字名":null,"地番":"188-1","精度区分":null,"座標系":"任意座標系"}},{"type":"Polygon","arcs":[[-356,-184,389,-378]],"properties":{"市区町村名":"恵庭市","大字名":"中央","丁目名":null,"小字名":null,"地番":"187","精度区分":null,"座標系":"任意座標系"}},{"type":"Polygon","arcs":[[-358,-377,-386,-369,390,-389,391]],"properties":{"市区町村名":"恵庭市","大字名":"中央","丁目名":null,"小字名":null,"地番":"188-2","精度区分":null,"座標系":"任意座標系"}},{"type":"Polygon","arcs":[[-385,-383,-374,-390,-183]],"properties":{"市区町村名":"恵庭市","大字名":"中央","丁目名":null,"小字名":null,"地番":"184","精度区分":null,"座標系":"任意座標系"}},{"type":"Polygon","arcs":[[392,-381,393]],"properties":{"市区町村名":"恵庭市","大字名":"中央","丁目名":null,"小字名":null,"地番":"186-4","精度区分":null,"座標系":"任意座標系"}},{"type":"Polygon","arcs":[[-363,-373,-382,-393,394]],"properties":{"市区町村名":"恵庭市","大字名":"中央","丁目名":null,"小字名":null,"地番":"186-5","精度区分":null,"座標系":"任意座標系"}},{"type":"Polygon","arcs":[[-368,-366,-387,-391]],"properties":{"市区町村名":"恵庭市","大字名":"中央","丁目名":null,"小字名":null,"地番":"188-4","精度区分":null,"座標系":"任意座標系"}},{"type":"Polygon","arcs":[[-352,395,-355,396,-379,-180]],"properties":{"市区町村名":"恵庭市","大字名":"中央","丁目名":null,"小字名":null,"地番":"183-2","精度区分":null,"座標系":"任意座標系"}},{"type":"Polygon","arcs":[[-351,-349,-353,-396]],"properties":{"市区町村名":"恵庭市","大字名":"中央","丁目名":null,"小字名":null,"地番":"183-4","精度区分":null,"座標系":"任意座標系"}},{"type":"Polygon","arcs":[[397,398,399,400,401,402,403,-346]],"properties":{"市区町村名":"恵庭市","大字名":"中央","丁目名":null,"小字名":null,"地番":"160-4","精度区分":null,"座標系":"任意座標系"}},{"type":"Polygon","arcs":[[-240,404,-401,405]],"properties":{"市区町村名":"恵庭市","大字名":"中央","丁目名":null,"小字名":null,"地番":"160-1","精度区分":null,"座標系":"任意座標系"}},{"type":"Polygon","arcs":[[-246,406,407,408,-398,-345]],"properties":{"市区町村名":"恵庭市","大字名":"中央","丁目名":null,"小字名":null,"地番":"165-2","精度区分":null,"座標系":"任意座標系"}},{"type":"Polygon","arcs":[[-406,-400,409,410,-241]],"properties":{"市区町村名":"恵庭市","大字名":"中央","丁目名":null,"小字名":null,"地番":"161","精度区分":null,"座標系":"任意座標系"}},{"type":"Polygon","arcs":[[411,-242,-411]],"properties":{"市区町村名":"恵庭市","大字名":"中央","丁目名":null,"小字名":null,"地番":"162","精度区分":null,"座標系":"任意座標系"}},{"type":"Polygon","arcs":[[-412,-410,-399,-409,412,-243]],"properties":{"市区町村名":"恵庭市","大字名":"中央","丁目名":null,"小字名":null,"地番":"165-1","精度区分":null,"座標系":"任意座標系"}},{"type":"Polygon","arcs":[[-244,-413,-408,413]],"properties":{"市区町村名":"恵庭市","大字名":"中央","丁目名":null,"小字名":null,"地番":"164","精度区分":null,"座標系":"任意座標系"}},{"type":"Polygon","arcs":[[-245,-414,-407]],"properties":{"市区町村名":"恵庭市","大字名":"中央","丁目名":null,"小字名":null,"地番":"163","精度区分":null,"座標系":"任意座標系"}},{"type":"Polygon","arcs":[[414,-319,415,416]],"properties":{"市区町村名":"恵庭市","大字名":"中央","丁目名":null,"小字名":null,"地番":"156","精度区分":null,"座標系":"任意座標系"}},{"type":"Polygon","arcs":[[417,-402,-405,-239]],"properties":{"市区町村名":"恵庭市","大字名":"中央","丁目名":null,"小字名":null,"地番":"160-3","精度区分":null,"座標系":"任意座標系"}},{"type":"Polygon","arcs":[[-238,418,419,-403,-418]],"properties":{"市区町村名":"恵庭市","大字名":"中央","丁目名":null,"小字名":null,"地番":"160-2","精度区分":null,"座標系":"任意座標系"}},{"type":"Polygon","arcs":[[-419,-237,420,-325,421,422]],"properties":{"市区町村名":"恵庭市","大字名":"中央","丁目名":null,"小字名":null,"地番":"長狭物不明-9","精度区分":null,"座標系":"任意座標系"}},{"type":"Polygon","arcs":[[-324,423,424,-422]],"properties":{"市区町村名":"恵庭市","大字名":"中央","丁目名":null,"小字名":null,"地番":"159","精度区分":null,"座標系":"任意座標系"}},{"type":"Polygon","arcs":[[-320,-415,425,426,427,428]],"properties":{"市区町村名":"恵庭市","大字名":"中央","丁目名":null,"小字名":null,"地番":"153","精度区分":null,"座標系":"任意座標系"}},{"type":"Polygon","arcs":[[-323,429,430,-424]],"properties":{"市区町村名":"恵庭市","大字名":"中央","丁目名":null,"小字名":null,"地番":"158","精度区分":null,"座標系":"任意座標系"}},{"type":"Polygon","arcs":[[-322,431,432,-430]],"properties":{"市区町村名":"恵庭市","大字名":"中央","丁目名":null,"小字名":null,"地番":"157","精度区分":null,"座標系":"任意座標系"}},{"type":"Polygon","arcs":[[-429,433,-432,-321]],"properties":{"市区町村名":"恵庭市","大字名":"中央","丁目名":null,"小字名":null,"地番":"154","精度区分":null,"座標系":"任意座標系"}},{"type":"Polygon","arcs":[[-417,434,-426]],"properties":{"市区町村名":"恵庭市","大字名":"中央","丁目名":null,"小字名":null,"地番":"155","精度区分":null,"座標系":"任意座標系"}},{"type":"Polygon","arcs":[[-313,435,436,-317,437]],"properties":{"市区町村名":"恵庭市","大字名":"中央","丁目名":null,"小字名":null,"地番":"729","精度区分":null,"座標系":"任意座標系"}},{"type":"Polygon","arcs":[[-318,438,-24,-21,-18,439,440,-427,-435,-416]],"properties":{"市区町村名":"恵庭市","大字名":"中央","丁目名":null,"小字名":null,"地番":"道-10","精度区分":null,"座標系":"任意座標系"}},{"type":"Polygon","arcs":[[441,442,-440,-17]],"properties":{"市区町村名":"恵庭市","大字名":"中央","丁目名":null,"小字名":null,"地番":"146-1","精度区分":null,"座標系":"任意座標系"}},{"type":"Polygon","arcs":[[443,444,445,446,447,448,449,450,451,-442,-16,-20,-23,-439,-437]],"properties":{"市区町村名":"恵庭市","大字名":"中央","丁目名":null,"小字名":null,"地番":"長狭物不明-10","精度区分":null,"座標系":"任意座標系"}},{"type":"Polygon","arcs":[[452,-450,453,454]],"properties":{"市区町村名":"恵庭市","大字名":"中央","丁目名":null,"小字名":null,"地番":"142","精度区分":null,"座標系":"任意座標系"}},{"type":"Polygon","arcs":[[-453,455,456,-451]],"properties":{"市区町村名":"恵庭市","大字名":"中央","丁目名":null,"小字名":null,"地番":"144-1","精度区分":null,"座標系":"任意座標系"}},{"type":"Polygon","arcs":[[-445,457,458]],"properties":{"市区町村名":"恵庭市","大字名":"中央","丁目名":null,"小字名":null,"地番":"135","精度区分":null,"座標系":"任意座標系"}},{"type":"Polygon","arcs":[[-447,459,460,461]],"properties":{"市区町村名":"恵庭市","大字名":"中央","丁目名":null,"小字名":null,"地番":"143","精度区分":null,"座標系":"任意座標系"}},{"type":"Polygon","arcs":[[-448,-462,462,-456,-455,463]],"properties":{"市区町村名":"恵庭市","大字名":"中央","丁目名":null,"小字名":null,"地番":"140","精度区分":null,"座標系":"任意座標系"}},{"type":"Polygon","arcs":[[-449,-464,-454]],"properties":{"市区町村名":"恵庭市","大字名":"中央","丁目名":null,"小字名":null,"地番":"141","精度区分":null,"座標系":"任意座標系"}},{"type":"Polygon","arcs":[[-446,-459,464,-460]],"properties":{"市区町村名":"恵庭市","大字名":"中央","丁目名":null,"小字名":null,"地番":"139","精度区分":null,"座標系":"任意座標系"}}]}},"arcs":[[[178929,379018],[-17618,11789]],[[161311,390807],[129830,153723],[2858,-1733]],[[293999,542797],[14778,-9932]],[[308777,532865],[-129848,-153847]],[[293999,542797],[131493,155795]],[[425492,698592],[14778,-9932]],[[440270,688660],[-70215,-83313],[-61278,-72482]],[[131852,409655],[65799,77496],[62539,73492]],[[260190,560643],[2262,2965]],[[262452,563608],[20650,-13858]],[[283102,549750],[-130766,-153895]],[[152336,395855],[-20484,13800]],[[421315,700727],[-131703,-155345],[-6510,4368]],[[262452,563608],[131702,155345]],[[394154,718953],[27161,-18226]],[[291449,852015],[7567,10125]],[[299016,862140],[12835,-8638]],[[311851,853502],[-8229,-9673]],[[303622,843829],[-12173,8186]],[[272349,826460],[19100,25555]],[[303622,843829],[-20734,-24375]],[[282888,819454],[-10539,7006]],[[276715,812197],[-9999,6725],[5633,7538]],[[282888,819454],[-6173,-7257]],[[540144,124978],[6829,8325]],[[546973,133303],[83756,-56539]],[[630729,76764],[1637,-1113]],[[632366,75651],[3117,-2117]],[[635483,73534],[43325,-29435]],[[678808,44099],[28560,-19404]],[[707368,24695],[12700,-8629],[43804,51393]],[[763872,67459],[43712,51285]],[[807584,118744],[1847,2168]],[[809431,120912],[41920,49648]],[[851351,170560],[11360,-7876]],[[862711,162684],[-131089,-154501],[-6968,-8183],[-11558,7907],[-172952,117071]],[[546973,133303],[666,808]],[[547639,134111],[3349,-1929]],[[550988,132182],[80442,-54595]],[[631430,77587],[-701,-823]],[[809431,120912],[-11818,8087],[10885,12972]],[[808498,141971],[8718,10390],[-38800,26184],[-8763,-10275]],[[769653,168270],[-12899,-15126]],[[756754,153144],[-33935,22923]],[[722819,176067],[43765,51674]],[[766584,227741],[84767,-57181]],[[679212,124747],[-43729,-51213]],[[632366,75651],[131132,154179]],[[763498,229830],[3086,-2089]],[[722819,176067],[-43607,-51320]],[[749587,77126],[-70375,47621]],[[756754,153144],[12042,-8084]],[[768796,145060],[24443,-16583]],[[793239,128477],[-43652,-51351]],[[707368,24695],[18862,22109],[-28505,19403],[-18917,-22108]],[[749587,77126],[14285,-9667]],[[768796,145060],[12847,15093]],[[781643,160153],[26855,-18182]],[[807584,118744],[-14345,9733]],[[781643,160153],[-11990,8117]],[[631430,77587],[13430,15778]],[[644860,93365],[35135,41274]],[[679995,134639],[38050,44699]],[[718045,179338],[43830,51589]],[[761875,230927],[1623,-1097]],[[718045,179338],[-80604,54503]],[[637441,233841],[43679,51588]],[[681120,285429],[80755,-54502]],[[547639,134111],[86121,101588]],[[633760,235699],[7635,9008]],[[641395,244707],[36311,42975]],[[677706,287682],[3414,-2253]],[[637441,233841],[-38069,-44765]],[[599372,189076],[-35013,-41172]],[[564359,147904],[-13371,-15722]],[[679995,134639],[-80623,54437]],[[644860,93365],[-80501,54539]],[[851351,170560],[43686,51640]],[[895037,222200],[17943,21211]],[[912980,243411],[8759,10353]],[[921739,253764],[16491,19493]],[[938230,273257],[41846,49319]],[[980076,322576],[1516,1787],[-173476,117647]],[[808116,442010],[6787,8289]],[[814903,450299],[1100,-738]],[[816003,449561],[172340,-117014],[11656,-7806],[-6809,-8211],[-130479,-153846]],[[921739,253764],[-11079,7522],[5632,6740],[-5654,3822],[10884,12673]],[[921522,284521],[16708,-11264]],[[980076,322576],[-84991,57322]],[[895085,379898],[-3014,2033]],[[892071,381931],[-1614,1088]],[[890457,383019],[-38827,26187]],[[851630,409206],[-14623,9863]],[[837007,419069],[-2476,1682]],[[834531,420751],[-24986,16973]],[[809545,437724],[-3213,2183]],[[806332,439907],[923,1089]],[[807255,440996],[861,1014]],[[677706,287682],[43022,50919]],[[720728,338601],[41807,49649],[43797,51657]],[[809545,437724],[-14274,-16885]],[[795271,420839],[-27515,-32549]],[[767756,388290],[-43133,-51272]],[[724623,337018],[-43503,-51589]],[[833425,402473],[6177,6852],[-6885,4569],[4290,5175]],[[851630,409206],[-10289,-12204],[-7916,5471]],[[921522,284521],[-9247,6234]],[[912275,290755],[-58925,39725]],[[853350,330480],[41735,49418]],[[895037,222200],[-84827,57197]],[[810210,279397],[43140,51083]],[[912275,290755],[-25410,-29786],[26115,-17558]],[[766584,227741],[43626,51656]],[[805497,282524],[-43622,-51597]],[[724623,337018],[41481,-28041],[39393,-26453]],[[805497,282524],[43206,51107]],[[848703,333631],[41754,49388]],[[892071,381931],[-128573,-152101]],[[767756,388290],[80947,-54659]],[[795271,420839],[15808,-10663]],[[811079,410176],[18214,-12285],[4132,4582]],[[811079,410176],[11565,10332],[7335,-4862],[4552,5105]],[[540144,124978],[-173032,115754],[-9668,6008]],[[357444,246740],[6940,8188]],[[364384,254928],[12328,14567]],[[376712,269495],[10097,11933]],[[386809,281428],[80002,94538]],[[466811,375966],[16256,19210]],[[483067,395176],[10575,12496]],[[493642,407672],[1887,2237]],[[495529,409909],[26304,31188]],[[521833,441097],[16380,19422]],[[538213,460519],[9140,-6241]],[[547353,454278],[-173332,-205376],[1204,-808]],[[375225,248094],[171748,-114791]],[[547353,454278],[1444,-986]],[[548797,453292],[-3654,-4166]],[[545143,449126],[-83280,-98531]],[[461863,350595],[-84531,-100009]],[[377332,250586],[-1471,-1741]],[[375861,248845],[-636,-751]],[[627609,393993],[-82466,55133]],[[548797,453292],[82580,-55137]],[[631377,398155],[-3768,-4162]],[[375861,248845],[82371,-55024]],[[458232,193821],[1578,-1054]],[[459810,192767],[3029,-2023]],[[462839,190744],[16752,-11245]],[[479591,179499],[14910,-10009]],[[494501,169490],[12187,-8181]],[[506688,161309],[40951,-27198]],[[459810,192767],[173048,204408]],[[632858,397175],[3039,-2009]],[[635897,395166],[-79416,-93745]],[[556481,301421],[-7626,-9013]],[[548855,292408],[-65123,-76971]],[[483732,215437],[-20893,-24693]],[[506688,161309],[21040,24622],[-43996,29506]],[[548855,292408],[84905,-56709]],[[458232,193821],[1492,1763]],[[459724,195584],[84544,99917]],[[544268,295501],[83341,98492]],[[631377,398155],[1481,-980]],[[544268,295501],[-82405,55094]],[[459724,195584],[-82392,55002]],[[641395,244707],[-84914,56714]],[[635897,395166],[84831,-56565]],[[479591,179499],[12079,14036],[14859,-9925],[-12028,-14120]],[[808116,442010],[-173042,116210],[-908,-1079]],[[634166,557141],[-86813,-102863]],[[538213,460519],[7059,8369]],[[545272,468888],[15211,18036]],[[560483,486924],[2927,3471]],[[563410,490395],[1902,2255]],[[565312,492650],[13576,16097]],[[578888,508747],[46889,55596]],[[625777,564343],[6891,8241]],[[632668,572584],[9079,-6128]],[[641747,566456],[55908,-37504]],[[697655,528952],[1544,-1037]],[[699199,527915],[3158,-2118]],[[702357,525797],[41658,-27945]],[[744015,497852],[14259,-9565]],[[758274,488287],[54954,-36864]],[[813228,451423],[1675,-1124]],[[723152,497431],[-15975,10719]],[[707177,508150],[-1455,976]],[[705722,509126],[-3189,2141]],[[702533,511267],[-25550,17144]],[[676983,528411],[-41622,27928]],[[635361,556339],[-1195,802]],[[807255,440996],[-84103,56435]],[[635361,556339],[-34113,-40609]],[[601248,515730],[-52451,-62438]],[[635897,395166],[21740,25842],[-3041,2071]],[[654596,423079],[987,1176],[-11998,8213],[49177,58526]],[[692762,490994],[15725,-10648],[14665,17085]],[[631377,398155],[19461,23162]],[[650838,421317],[2303,2742],[-12070,8177],[64651,76890]],[[707177,508150],[-14415,-17156]],[[654596,423079],[-21738,-25904]],[[668651,470771],[33882,40496]],[[650838,421317],[-15016,10219],[32829,39235]],[[601248,515730],[41743,-27843]],[[642991,487887],[25660,-17116]],[[676983,528411],[-33992,-40524]],[[308402,292387],[-641,429]],[[307761,292816],[129672,153903]],[[437433,446719],[899,-601]],[[438332,446118],[-877,-1039]],[[437455,445079],[-106242,-125709]],[[331213,319370],[-10352,-12245]],[[320861,307125],[-12459,-14738]],[[364384,254928],[-55982,37459]],[[320861,307125],[55851,-37630]],[[178929,379018],[128832,-86202]],[[357444,246740],[-203110,135756],[6977,8311]],[[308777,532865],[1670,-1118]],[[310447,531747],[64271,-43035]],[[374718,488712],[3955,-2647]],[[378673,486065],[5658,-3790]],[[384331,482275],[53102,-35556]],[[331213,319370],[55596,-37942]],[[437455,445079],[22171,-14761]],[[459626,430318],[-26911,-31762],[34096,-22590]],[[459626,430318],[14552,-9688]],[[474178,420630],[-10654,-12405],[19543,-13049]],[[474178,420630],[19464,-12958]],[[625777,564343],[-56005,37468]],[[569772,601811],[-3152,2108]],[[566620,603919],[-53129,35543]],[[513491,639462],[-3186,2131]],[[510305,641593],[-1438,967]],[[508867,642560],[-66651,44792]],[[442216,687352],[-1946,1308]],[[425492,698592],[6322,7870]],[[431814,706462],[15271,-10243]],[[447085,696219],[1619,-1086]],[[448704,695133],[1650,-1106]],[[450354,694027],[63925,-42416]],[[514279,651611],[1206,-805]],[[515485,650806],[23248,-15518]],[[538733,635288],[3132,-2091]],[[541865,633197],[33310,-22235]],[[575175,610962],[16854,-11250]],[[592029,599712],[40639,-27128]],[[438332,446118],[1082,1282]],[[439414,447400],[56115,-37491]],[[378673,486065],[131632,155528]],[[513491,639462],[-65217,-77192]],[[448274,562270],[-38776,-45987]],[[409498,516283],[-25429,-30159],[2183,-1539],[-891,-1071]],[[385361,483514],[-1030,-1239]],[[436185,449558],[-50824,33956]],[[409498,516283],[53033,-35495]],[[462531,480788],[-26346,-31230]],[[436185,449558],[3229,-2158]],[[442216,687352],[-131769,-155605]],[[508867,642560],[-129703,-153086],[-2397,1620],[-2049,-2382]],[[448274,562270],[52956,-35611]],[[501230,526659],[-38699,-45871]],[[566620,603919],[-65390,-77260]],[[439414,447400],[26356,31219]],[[465770,478619],[56063,-37522]],[[465770,478619],[23401,27718]],[[489171,506337],[56101,-37449]],[[489171,506337],[15313,18139]],[[504484,524476],[9972,-6687]],[[514456,517789],[-3167,-3746],[30504,-20386],[3136,3696]],[[544929,497353],[15554,-10429]],[[501230,526659],[3254,-2183]],[[465770,478619],[-3239,2169]],[[569772,601811],[-47027,-55704]],[[522745,546107],[-18261,-21631]],[[544929,497353],[2991,3524],[15490,-10482]],[[563422,519038],[15466,-10291]],[[565312,492650],[-15493,10525],[13603,15863]],[[563422,519038],[-30662,20404]],[[532760,539442],[-10015,6665]],[[544929,497353],[-30473,20436]],[[514456,517789],[18304,21653]],[[137376,647407],[9363,-6173]],[[146739,641234],[-2169,-2560]],[[144570,638674],[-99822,-117487]],[[44748,521187],[-13694,-16082]],[[31054,505105],[-14809,-17391],[27982,-18894]],[[44227,468820],[27556,-18606]],[[71783,450214],[1379,-931]],[[73162,449283],[3153,-2129]],[[76315,447154],[55537,-37499]],[[152336,395855],[-7137,-8061],[-135976,91665],[-9223,6214],[7069,8288],[130307,153446]],[[31054,505105],[27982,-18879],[-14809,-17406]],[[200022,601168],[-20990,14264],[-32812,22130]],[[146220,637562],[2157,2571]],[[148377,640133],[53940,-36235]],[[202317,603898],[-2295,-2730]],[[71783,450214],[28470,33514]],[[100253,483728],[99769,117440]],[[202317,603898],[1296,-852]],[[203613,603046],[-93031,-109548],[-34897,-41136],[-2523,-3079]],[[204592,598148],[-128277,-150994]],[[203613,603046],[3202,-2148]],[[206815,600898],[-2223,-2750]],[[204592,598148],[55598,-37505]],[[206815,600898],[55637,-37290]],[[46442,520073],[52509,61886],[47269,55603]],[[100253,483728],[-53811,36345]],[[46442,520073],[-1694,1114]],[[144570,638674],[1650,-1112]],[[146739,641234],[1638,-1101]],[[185971,704788],[-7117,-8425]],[[178854,696363],[5048,29830],[66126,89313]],[[250028,815506],[4624,-3096]],[[254652,812410],[-65473,-87964],[-3208,-19658]],[[137376,647407],[41478,48956]],[[185971,704788],[82852,98132]],[[268823,802920],[6947,8166]],[[275770,811086],[9348,-6226]],[[285118,804860],[14101,-9459]],[[299219,795401],[1712,-1148]],[[300931,794253],[39870,-26743]],[[340801,767510],[1353,-908]],[[342154,766602],[3222,-2160]],[[345376,764442],[55721,-37376]],[[401097,727066],[27002,-18111]],[[428099,708955],[-6784,-8228]],[[394154,718953],[-55574,37294]],[[338580,756247],[-3329,2235]],[[335251,758482],[-1312,876]],[[333939,759358],[-35647,23817]],[[298292,783175],[-1748,1166]],[[296544,784341],[-18282,12216],[-11058,-13060]],[[267204,783497],[-6565,-7752]],[[260639,775745],[-13508,-15952]],[[247131,759793],[-100392,-118559]],[[285522,771332],[-18318,12165]],[[296544,784341],[-11022,-13009]],[[202317,603898],[131622,155460]],[[335251,758482],[-42077,-49595],[-89561,-105841]],[[148377,640133],[99158,117165],[18381,-12131],[32376,38008]],[[247131,759793],[18349,-12116],[13576,16023]],[[279056,763700],[6466,7632]],[[260639,775745],[18417,-12045]],[[338580,756247],[-131765,-155349]],[[632668,572584],[106358,125509],[11609,13744],[11429,13530]],[[762064,725367],[1362,1612]],[[763426,726979],[22012,26058],[9090,-6332]],[[794528,746705],[-20222,-23834]],[[774306,722871],[-1649,-1945]],[[772657,720926],[-7350,-8662],[-75779,-89507],[-36674,-43338],[-11107,-12963]],[[772657,720926],[55828,-37350]],[[828485,683576],[-130830,-154624]],[[830172,685571],[-55866,37300]],[[794528,746705],[53321,-35673]],[[847849,711032],[-1856,-2156],[2504,-1647],[-18325,-21658]],[[813228,451423],[21298,25191]],[[834526,476614],[835,988]],[[835361,477602],[107987,127722]],[[943348,605324],[2907,-1958],[-42871,-50587],[-44803,-52799],[-42578,-50419]],[[790173,523841],[-8577,-10116]],[[781596,513725],[-2670,1791]],[[778926,515516],[57755,68262],[51027,60185]],[[887708,643963],[1414,-966]],[[889122,642997],[1406,-960],[-617,-726]],[[889911,641311],[-28270,-33241]],[[861641,608070],[-17897,-21044]],[[843744,587026],[-53571,-63185]],[[843744,587026],[52565,-35192]],[[896309,551834],[-53528,-63368]],[[842781,488466],[-52608,35375]],[[778926,515516],[-54399,36476]],[[724527,551992],[48179,56665],[52090,61606],[8538,10145]],[[833334,680408],[54374,-36445]],[[779377,513505],[-55820,37340]],[[723557,550845],[970,1147]],[[781596,513725],[52644,-35370]],[[834240,478355],[1121,-753]],[[834526,476614],[-55149,36891]],[[699199,527915],[12998,15180],[46333,54838],[46084,54603],[47154,55874]],[[851768,708410],[5940,-3974]],[[857708,704436],[-1851,-2150],[-2653,1735],[-18212,-21643]],[[834992,682378],[-1658,-1970]],[[723557,550845],[-11405,-13474]],[[712152,537371],[-9795,-11574]],[[712152,537371],[12194,-8085],[6761,7823],[29341,-19647],[-16433,-19610]],[[842781,488466],[-8541,-10111]],[[914157,572962],[-52516,35108]],[[889911,641311],[49878,-33591]],[[939789,607720],[-1816,-2186],[2357,-1587],[-26173,-30985]],[[758274,488287],[21103,25218]],[[896309,551834],[17848,21128]],[[939789,607720],[3559,-2396]],[[890840,645037],[-55848,37341]],[[857708,704436],[27912,-18674],[25373,-16800],[-20153,-23925]],[[890840,645037],[-1718,-2040]],[[828485,683576],[1687,1995]],[[847849,711032],[3919,-2622]],[[762064,725367],[-45217,30349],[-42496,28405]],[[674351,784121],[-5839,3904]],[[668512,788025],[-3963,2648]],[[664549,790673],[-49395,33018],[-34944,23564]],[[580210,847255],[-1593,1059]],[[578617,848314],[1288,1487]],[[579905,849801],[36949,-24858],[64527,-42981],[37800,-25274],[44245,-29709]],[[450354,694027],[138,163],[124704,147147],[5014,5918]],[[664549,790673],[-1766,-2130],[2565,-1748],[-101417,-119265],[-23100,15638],[-26552,-31557]],[[592029,599712],[25757,30590],[-16791,11295]],[[600995,641597],[-33047,22232]],[[567948,663829],[101974,119763],[2513,-1740],[1916,2269]],[[668512,788025],[-42427,-50037],[-61666,-72408]],[[564419,665580],[-23193,15785],[-25741,-30559]],[[564419,665580],[-25686,-30292]],[[567948,663829],[-26083,-30632]],[[600995,641597],[-25820,-30635]],[[317366,816900],[-18147,-21499]],[[285118,804860],[18258,21480]],[[303376,826340],[13990,-9440]],[[448704,695133],[129913,153181]],[[447085,696219],[131211,154640]],[[578296,850859],[1609,-1058]],[[431814,706462],[-3715,2493]],[[401097,727066],[131555,154768]],[[532652,881834],[45644,-30975]],[[345376,764442],[129576,152171],[2326,-1503],[2037,2375]],[[479315,917485],[53337,-35651]],[[317366,816900],[10865,12871],[-13985,9358]],[[314246,839129],[102277,120327]],[[416523,959456],[1805,-1207]],[[418328,958249],[-101033,-118746],[13952,-9470],[-30316,-35780]],[[342154,766602],[131581,154613]],[[473735,921215],[5580,-3730]],[[340801,767510],[129261,152385],[-2455,1642],[1991,2442]],[[469598,923979],[4137,-2764]],[[418328,958249],[51270,-34270]],[[303376,826340],[10870,12789]],[[250028,815506],[-109046,73023],[6811,8152]],[[147793,896681],[127977,-85595]],[[268823,802920],[-14171,9490]],[[275770,811086],[945,1111]],[[311851,853502],[95319,112055]],[[407170,965557],[9353,-6101]],[[299016,862140],[15140,20257],[32307,42996],[35325,57616]],[[381788,983009],[25382,-17452]],[[147793,896681],[908,1083]],[[148701,897764],[39409,-26341]],[[188110,871423],[1409,-941]],[[189519,870482],[3221,-2153]],[[192740,868329],[29051,-19418]],[[221791,848911],[18516,-12376]],[[240307,836535],[17342,-11591]],[[257649,824944],[4466,-3026],[79995,106697],[26776,44159]],[[368886,972774],[8012,13213],[4890,-2978]],[[282529,858142],[-24880,-33198]],[[240307,836535],[21809,25707],[-19651,13271]],[[242465,875513],[4773,6141],[35291,-23512]],[[282529,858142],[55023,73419]],[[337552,931561],[31334,41213]],[[148701,897764],[86557,102235],[36801,-24685]],[[272059,975314],[-2123,-2536],[2356,-1730],[-84182,-99625]],[[189519,870482],[86395,102246]],[[275914,972728],[5695,-3804]],[[281609,968924],[-2087,-2483],[-2316,1472],[-52096,-61513],[-32370,-38071]],[[281609,968924],[55943,-37363]],[[242465,875513],[-20674,-26602]],[[272059,975314],[3855,-2586]]],"bbox":[2421.445,-778.429,3673.054,626.611],"transform":{"scale":[0.0012516102516102515,0.001405041405041405],"translate":[2421.445,-778.429]}}