{"type":"Topology","objects":{"01514-4501-22.featurecollection":{"type":"GeometryCollection","geometries":[{"type":"Polygon","arcs":[[0,1,2,3,4,5,6,7,8,9]],"properties":{"市区町村名":"枝幸郡枝幸町","大字名":"風烈布","丁目名":null,"小字名":null,"地番":"5000-1","精度区分":null,"座標系":"任意座標系"}},{"type":"Polygon","arcs":[[10,11,12,13,14,15,16,17,18]],"properties":{"市区町村名":"枝幸郡枝幸町","大字名":"風烈布","丁目名":null,"小字名":null,"地番":"5000-2","精度区分":null,"座標系":"任意座標系"}},{"type":"Polygon","arcs":[[19,-9,20,-13]],"properties":{"市区町村名":"枝幸郡枝幸町","大字名":"風烈布","丁目名":null,"小字名":null,"地番":"5000-3","精度区分":null,"座標系":"任意座標系"}},{"type":"Polygon","arcs":[[21,-7,22,-15]],"properties":{"市区町村名":"枝幸郡枝幸町","大字名":"風烈布","丁目名":null,"小字名":null,"地番":"5000-4","精度区分":null,"座標系":"任意座標系"}},{"type":"Polygon","arcs":[[23,-5,24,-17]],"properties":{"市区町村名":"枝幸郡枝幸町","大字名":"風烈布","丁目名":null,"小字名":null,"地番":"5000-5","精度区分":null,"座標系":"任意座標系"}},{"type":"Polygon","arcs":[[25,-10,-20,-12]],"properties":{"市区町村名":"枝幸郡枝幸町","大字名":"風烈布","丁目名":null,"小字名":null,"地番":"5000-6","精度区分":null,"座標系":"任意座標系"}},{"type":"Polygon","arcs":[[-21,-8,-22,-14]],"properties":{"市区町村名":"枝幸郡枝幸町","大字名":"風烈布","丁目名":null,"小字名":null,"地番":"5000-7","精度区分":null,"座標系":"任意座標系"}},{"type":"Polygon","arcs":[[-23,-6,-24,-16]],"properties":{"市区町村名":"枝幸郡枝幸町","大字名":"風烈布","丁目名":null,"小字名":null,"地番":"5000-8","精度区分":null,"座標系":"任意座標系"}},{"type":"Polygon","arcs":[[-25,-4,26,-18]],"properties":{"市区町村名":"枝幸郡枝幸町","大字名":"風烈布","丁目名":null,"小字名":null,"地番":"5000-9","精度区分":null,"座標系":"任意座標系"}},{"type":"Polygon","arcs":[[27,28,29,30,31,32,33,34]],"properties":{"市区町村名":"枝幸郡枝幸町","大字名":"風烈布","丁目名":null,"小字名":null,"地番":"5001-1","精度区分":null,"座標系":"任意座標系"}},{"type":"Polygon","arcs":[[35,36,37,38,39,40,41,42,43]],"properties":{"市区町村名":"枝幸郡枝幸町","大字名":"風烈布","丁目名":null,"小字名":null,"地番":"5001-2","精度区分":null,"座標系":"任意座標系"}},{"type":"Polygon","arcs":[[44,-44,45,-28]],"properties":{"市区町村名":"枝幸郡枝幸町","大字名":"風烈布","丁目名":null,"小字名":null,"地番":"5001-3","精度区分":null,"座標系":"任意座標系"}},{"type":"Polygon","arcs":[[46,-42,47,-30]],"properties":{"市区町村名":"枝幸郡枝幸町","大字名":"風烈布","丁目名":null,"小字名":null,"地番":"5001-4","精度区分":null,"座標系":"任意座標系"}},{"type":"Polygon","arcs":[[48,-40,49,-32]],"properties":{"市区町村名":"枝幸郡枝幸町","大字名":"風烈布","丁目名":null,"小字名":null,"地番":"5001-5","精度区分":null,"座標系":"任意座標系"}},{"type":"Polygon","arcs":[[-46,-43,-47,-29]],"properties":{"市区町村名":"枝幸郡枝幸町","大字名":"風烈布","丁目名":null,"小字名":null,"地番":"5001-6","精度区分":null,"座標系":"任意座標系"}},{"type":"Polygon","arcs":[[-48,-41,-49,-31]],"properties":{"市区町村名":"枝幸郡枝幸町","大字名":"風烈布","丁目名":null,"小字名":null,"地番":"5001-7","精度区分":null,"座標系":"任意座標系"}},{"type":"Polygon","arcs":[[50,51,52,53]],"properties":{"市区町村名":"枝幸郡枝幸町","大字名":"風烈布","丁目名":null,"小字名":null,"地番":"5002","精度区分":null,"座標系":"任意座標系"}},{"type":"Polygon","arcs":[[54,55,56,57]],"properties":{"市区町村名":"枝幸郡枝幸町","大字名":"風烈布","丁目名":null,"小字名":null,"地番":"5003","精度区分":null,"座標系":"任意座標系"}},{"type":"Polygon","arcs":[[-37,58,59,60]],"properties":{"市区町村名":"枝幸郡枝幸町","大字名":"風烈布","丁目名":null,"小字名":null,"地番":"5004","精度区分":null,"座標系":"任意座標系"}},{"type":"Polygon","arcs":[[-33,61,62,63,64]],"properties":{"市区町村名":"枝幸郡枝幸町","大字名":"風烈布","丁目名":null,"小字名":null,"地番":"5005-1","精度区分":null,"座標系":"任意座標系"}},{"type":"Polygon","arcs":[[-39,65,66,67,68,69]],"properties":{"市区町村名":"枝幸郡枝幸町","大字名":"風烈布","丁目名":null,"小字名":null,"地番":"5005-2","精度区分":null,"座標系":"任意座標系"}},{"type":"Polygon","arcs":[[-50,-70,70,-62]],"properties":{"市区町村名":"枝幸郡枝幸町","大字名":"風烈布","丁目名":null,"小字名":null,"地番":"5005-3","精度区分":null,"座標系":"任意座標系"}},{"type":"Polygon","arcs":[[71,-68,72,-64]],"properties":{"市区町村名":"枝幸郡枝幸町","大字名":"風烈布","丁目名":null,"小字名":null,"地番":"5005-4","精度区分":null,"座標系":"任意座標系"}},{"type":"Polygon","arcs":[[-71,-69,-72,-63]],"properties":{"市区町村名":"枝幸郡枝幸町","大字名":"風烈布","丁目名":null,"小字名":null,"地番":"5005-5","精度区分":null,"座標系":"任意座標系"}},{"type":"Polygon","arcs":[[73,74,75,76,77,78,79,80,81,82]],"properties":{"市区町村名":"枝幸郡枝幸町","大字名":"風烈布","丁目名":null,"小字名":null,"地番":"5006-1","精度区分":null,"座標系":"任意座標系"}},{"type":"Polygon","arcs":[[83,84,85,86,87,88,89,90,91,92]],"properties":{"市区町村名":"枝幸郡枝幸町","大字名":"風烈布","丁目名":null,"小字名":null,"地番":"5006-2","精度区分":null,"座標系":"任意座標系"}},{"type":"Polygon","arcs":[[-92,93,-75,94]],"properties":{"市区町村名":"枝幸郡枝幸町","大字名":"風烈布","丁目名":null,"小字名":null,"地番":"5006-3","精度区分":null,"座標系":"任意座標系"}},{"type":"Polygon","arcs":[[95,-90,96,-77]],"properties":{"市区町村名":"枝幸郡枝幸町","大字名":"風烈布","丁目名":null,"小字名":null,"地番":"5006-4","精度区分":null,"座標系":"任意座標系"}},{"type":"Polygon","arcs":[[-88,97,-79,98]],"properties":{"市区町村名":"枝幸郡枝幸町","大字名":"風烈布","丁目名":null,"小字名":null,"地番":"5006-5","精度区分":null,"座標系":"任意座標系"}},{"type":"Polygon","arcs":[[99,-86,100,-81]],"properties":{"市区町村名":"枝幸郡枝幸町","大字名":"風烈布","丁目名":null,"小字名":null,"地番":"5006-6","精度区分":null,"座標系":"任意座標系"}},{"type":"Polygon","arcs":[[-94,-91,-96,-76]],"properties":{"市区町村名":"枝幸郡枝幸町","大字名":"風烈布","丁目名":null,"小字名":null,"地番":"5006-7","精度区分":null,"座標系":"任意座標系"}},{"type":"Polygon","arcs":[[-99,-78,-97,-89]],"properties":{"市区町村名":"枝幸郡枝幸町","大字名":"風烈布","丁目名":null,"小字名":null,"地番":"5006-8","精度区分":null,"座標系":"任意座標系"}},{"type":"Polygon","arcs":[[-98,-87,-100,-80]],"properties":{"市区町村名":"枝幸郡枝幸町","大字名":"風烈布","丁目名":null,"小字名":null,"地番":"5006-9","精度区分":null,"座標系":"任意座標系"}},{"type":"Polygon","arcs":[[101,102,-52]],"properties":{"市区町村名":"枝幸郡枝幸町","大字名":"風烈布","丁目名":null,"小字名":null,"地番":"5007","精度区分":null,"座標系":"任意座標系"}},{"type":"Polygon","arcs":[[103,104,105,106,107,108,109]],"properties":{"市区町村名":"枝幸郡枝幸町","大字名":"風烈布","丁目名":null,"小字名":null,"地番":"5008-1","精度区分":null,"座標系":"任意座標系"}},{"type":"Polygon","arcs":[[110,111,112,113,114]],"properties":{"市区町村名":"枝幸郡枝幸町","大字名":"風烈布","丁目名":null,"小字名":null,"地番":"5008-2","精度区分":null,"座標系":"任意座標系"}},{"type":"Polygon","arcs":[[-109,115,-111,116]],"properties":{"市区町村名":"枝幸郡枝幸町","大字名":"風烈布","丁目名":null,"小字名":null,"地番":"5008-3","精度区分":null,"座標系":"任意座標系"}},{"type":"Polygon","arcs":[[117,-107,118,-113]],"properties":{"市区町村名":"枝幸郡枝幸町","大字名":"風烈布","丁目名":null,"小字名":null,"地番":"5008-4","精度区分":null,"座標系":"任意座標系"}},{"type":"Polygon","arcs":[[-116,-108,-118,-112]],"properties":{"市区町村名":"枝幸郡枝幸町","大字名":"風烈布","丁目名":null,"小字名":null,"地番":"5008-5","精度区分":null,"座標系":"任意座標系"}},{"type":"Polygon","arcs":[[-114,-119,-106,119]],"properties":{"市区町村名":"枝幸郡枝幸町","大字名":"風烈布","丁目名":null,"小字名":null,"地番":"5008-6","精度区分":null,"座標系":"任意座標系"}},{"type":"Polygon","arcs":[[120,121,122,123,-57]],"properties":{"市区町村名":"枝幸郡枝幸町","大字名":"風烈布","丁目名":null,"小字名":null,"地番":"5009-1","精度区分":null,"座標系":"任意座標系"}},{"type":"Polygon","arcs":[[124,125]],"properties":{"市区町村名":"枝幸郡枝幸町","大字名":"風烈布","丁目名":null,"小字名":null,"地番":"5009-2","精度区分":null,"座標系":"任意座標系"}},{"type":"Polygon","arcs":[[-123,126,-125,127]],"properties":{"市区町村名":"枝幸郡枝幸町","大字名":"風烈布","丁目名":null,"小字名":null,"地番":"5009-3","精度区分":null,"座標系":"任意座標系"}},{"type":"Polygon","arcs":[[128,129,130,131,132,-82]],"properties":{"市区町村名":"枝幸郡枝幸町","大字名":"風烈布","丁目名":null,"小字名":null,"地番":"5010-1","精度区分":null,"座標系":"任意座標系"}},{"type":"Polygon","arcs":[[133,134,135,136,-85]],"properties":{"市区町村名":"枝幸郡枝幸町","大字名":"風烈布","丁目名":null,"小字名":null,"地番":"5010-2","精度区分":null,"座標系":"任意座標系"}},{"type":"Polygon","arcs":[[-137,137,-129,-101]],"properties":{"市区町村名":"枝幸郡枝幸町","大字名":"風烈布","丁目名":null,"小字名":null,"地番":"5010-3","精度区分":null,"座標系":"任意座標系"}},{"type":"Polygon","arcs":[[-135,138,-131,139]],"properties":{"市区町村名":"枝幸郡枝幸町","大字名":"風烈布","丁目名":null,"小字名":null,"地番":"5010-4","精度区分":null,"座標系":"任意座標系"}},{"type":"Polygon","arcs":[[-140,-130,-138,-136]],"properties":{"市区町村名":"枝幸郡枝幸町","大字名":"風烈布","丁目名":null,"小字名":null,"地番":"5010-5","精度区分":null,"座標系":"任意座標系"}},{"type":"Polygon","arcs":[[140,-58,-124,141,-134,-84]],"properties":{"市区町村名":"枝幸郡枝幸町","大字名":"風烈布","丁目名":null,"小字名":null,"地番":"6505-1","精度区分":null,"座標系":"任意座標系"}},{"type":"Polygon","arcs":[[142,-110,143,-122]],"properties":{"市区町村名":"枝幸郡枝幸町","大字名":"風烈布","丁目名":null,"小字名":null,"地番":"6505-2","精度区分":null,"座標系":"任意座標系"}},{"type":"Polygon","arcs":[[144,-126,145,-115,146,147,148,-105,149,-132]],"properties":{"市区町村名":"枝幸郡枝幸町","大字名":"風烈布","丁目名":null,"小字名":null,"地番":"6505-3","精度区分":null,"座標系":"任意座標系"}},{"type":"Polygon","arcs":[[-142,-128,-145,-139]],"properties":{"市区町村名":"枝幸郡枝幸町","大字名":"風烈布","丁目名":null,"小字名":null,"地番":"6505-4","精度区分":null,"座標系":"任意座標系"}},{"type":"Polygon","arcs":[[-144,-117,-146,-127]],"properties":{"市区町村名":"枝幸郡枝幸町","大字名":"風烈布","丁目名":null,"小字名":null,"地番":"6505-5","精度区分":null,"座標系":"任意座標系"}},{"type":"Polygon","arcs":[[150,-148]],"properties":{"市区町村名":"枝幸郡枝幸町","大字名":"風烈布","丁目名":null,"小字名":null,"地番":"6505-6","精度区分":null,"座標系":"任意座標系"}},{"type":"Polygon","arcs":[[-120,-149,-151,-147]],"properties":{"市区町村名":"枝幸郡枝幸町","大字名":"風烈布","丁目名":null,"小字名":null,"地番":"6505-7","精度区分":null,"座標系":"任意座標系"}},{"type":"Polygon","arcs":[[-38,-61,151,-66]],"properties":{"市区町村名":"枝幸郡枝幸町","大字名":"風烈布","丁目名":null,"小字名":null,"地番":"6506","精度区分":null,"座標系":"任意座標系"}},{"type":"Polygon","arcs":[[-19,152,153,154,155]],"properties":{"市区町村名":"枝幸郡枝幸町","大字名":"風烈布","丁目名":null,"小字名":null,"地番":"6508-1","精度区分":null,"座標系":"任意座標系"}},{"type":"Polygon","arcs":[[-3,156,157,158,159,160]],"properties":{"市区町村名":"枝幸郡枝幸町","大字名":"風烈布","丁目名":null,"小字名":null,"地番":"6508-2","精度区分":null,"座標系":"任意座標系"}},{"type":"Polygon","arcs":[[-27,-161,161,-153]],"properties":{"市区町村名":"枝幸郡枝幸町","大字名":"風烈布","丁目名":null,"小字名":null,"地番":"6508-3","精度区分":null,"座標系":"任意座標系"}},{"type":"Polygon","arcs":[[162,-159,163,-155]],"properties":{"市区町村名":"枝幸郡枝幸町","大字名":"風烈布","丁目名":null,"小字名":null,"地番":"6508-4","精度区分":null,"座標系":"任意座標系"}},{"type":"Polygon","arcs":[[-162,-160,-163,-154]],"properties":{"市区町村名":"枝幸郡枝幸町","大字名":"風烈布","丁目名":null,"小字名":null,"地番":"6508-5","精度区分":null,"座標系":"任意座標系"}},{"type":"Polygon","arcs":[[-34,-65,-73,-67,-152,-60,164,-55,-141,-93,-95,-74,165]],"properties":{"市区町村名":"枝幸郡枝幸町","大字名":"風烈布","丁目名":null,"小字名":null,"地番":"7286","精度区分":null,"座標系":"任意座標系"}},{"type":"Polygon","arcs":[[166,-54,167,168,-157,-2]],"properties":{"市区町村名":"枝幸郡枝幸町","大字名":"風烈布","丁目名":null,"小字名":null,"地番":"7287","精度区分":null,"座標系":"任意座標系"}},{"type":"Polygon","arcs":[[-53,-103,169,-168]],"properties":{"市区町村名":"枝幸郡枝幸町","大字名":"風烈布","丁目名":null,"小字名":null,"地番":"6507","精度区分":null,"座標系":"任意座標系"}}]}},"arcs":[[[9241,932246],[2845,18968],[8008,11908],[6026,36877],[35420,-85644],[80822,-95935],[63846,2723],[72613,-39224],[55478,-113],[45985,-103261]],[[380284,678545],[-19132,-31448],[-21842,-50120],[2850,-60645]],[[342160,536332],[-26953,-13964],[-5977,9042]],[[309230,531410],[-71,17031],[-14809,59791],[-34927,90429],[-27910,26654]],[[231513,725315],[219,1366],[-1961,1918],[-232,-1422]],[[229539,727177],[-73359,67676],[-27845,25762],[-42324,40098]],[[86011,860713],[224,1377],[-1703,1715],[-237,-1490]],[[84295,862315],[-65483,61092]],[[18812,923407],[234,1418],[-1841,1812],[-254,-1502]],[[16951,925135],[-7710,7111]],[[1432,853367],[4965,25502],[-1873,21934],[4523,30152]],[[9047,930955],[7711,-6961]],[[16758,923994],[-230,-1359],[1862,-1796],[236,1438]],[[18626,922277],[65482,-61144]],[[84108,861133],[-216,-1366],[1696,-1664],[232,1432]],[[85820,859535],[42306,-40061],[27865,-25723],[73355,-67765]],[[229346,725986],[-228,-1404],[1967,-1943],[237,1481]],[[231322,724120],[27711,-26472],[34827,-90465],[14763,-59071],[21,-15815]],[[308644,532297],[-52993,80154],[-38000,20068],[-39125,114667],[-48297,34173],[-50542,5689],[-78255,66319]],[[16758,923994],[193,1141]],[[18812,923407],[-186,-1130]],[[84108,861133],[187,1182]],[[86011,860713],[-191,-1178]],[[229346,725986],[193,1191]],[[231513,725315],[-191,-1195]],[[9047,930955],[194,1291]],[[309230,531410],[-586,887]],[[309372,450874],[26,-2991]],[[309398,447883],[-933,-50],[44,-5909],[941,54]],[[309450,441978],[106,-12077]],[[309556,429901],[-595,2],[66,-5363],[576,14]],[[309603,424554],[61,-6973],[14895,-37858],[-4664,-16534],[27932,-52772],[38742,-73589],[26092,-48826],[6387,-4336]],[[419048,183666],[-4372,-104322]],[[414676,79344],[-932,-22256]],[[413744,57088],[-80993,102115],[-77657,111601],[-75876,109410],[3951,140319],[-89722,72697],[-24393,19877],[6510,7481],[11554,39189],[388,50414],[40600,-11525],[33144,-26122],[38209,-111317],[41525,-22912],[58985,-91333],[9403,3892]],[[310080,451167],[28804,11922],[25819,-94767],[33140,17506],[28634,-24922]],[[426477,360906],[-2971,-70888]],[[423506,290018],[-350,-8344]],[[423156,281674],[-4056,-96778]],[[419100,184896],[-6076,3983],[-26096,48880],[-38780,73462],[-27499,52200],[4650,16756],[-14974,37413],[-51,6981]],[[310274,424571],[499,12],[-41,5316],[-497,1]],[[310235,429900],[-89,12116]],[[310146,442016],[616,34],[15,5905],[-674,-36]],[[310103,447919],[-23,3248]],[[309372,450874],[708,293]],[[310103,447919],[-705,-36]],[[309450,441978],[696,38]],[[310235,429900],[-679,1]],[[309603,424554],[671,17]],[[419100,184896],[-52,-1230]],[[382927,672610],[26740,-128242],[58588,-32993],[70576,50789],[58169,-10133],[48216,3367]],[[645216,555398],[52618,-113418]],[[697834,441980],[-15362,1902],[-16809,-54874],[-32179,-57078],[-29324,-6443],[-54615,20702],[-150345,116636],[-23298,-15371],[-21154,95401],[-9424,-4883]],[[345324,537972],[-2423,58686],[22889,50098],[17137,25854]],[[435501,286481],[7081,63087]],[[442582,349568],[102491,-72152],[57831,-20352],[36921,8726],[13953,21491]],[[653778,287281],[18340,-70566]],[[672118,216715],[-236617,69766]],[[426477,360906],[11939,-8405]],[[438416,352501],[-6801,-64874]],[[431615,287627],[-8109,2391]],[[419048,183666],[382,-232]],[[419430,183434],[-253,-2508],[2484,-1458],[239,2458]],[[421900,181926],[4408,-2691]],[[426308,179235],[1425,-13846],[-6957,-14849],[438,-49984],[-6538,-21212]],[[423156,281674],[7598,-2259]],[[430754,279415],[-3477,-33164],[916,-23167],[-3146,-7156],[2482,-23983],[-1676,-8292],[298,-2895]],[[426151,180758],[-4130,2425]],[[422021,183183],[167,1729],[-2466,1416],[-171,-1696]],[[419551,184632],[-451,264]],[[419551,184632],[-121,-1198]],[[421900,181926],[121,1257]],[[426151,180758],[157,-1523]],[[416855,57448],[90,13706],[7438,27216],[45,47902],[6885,16687],[-1164,14653]],[[430149,177612],[30188,-19941]],[[460337,157671],[-163,-1507],[2103,-1399],[131,1539]],[[462408,156304],[16644,-10995],[72127,23863]],[[551179,169172],[59,-1498],[2110,318],[-56,1752]],[[553292,169744],[41438,9617],[60819,-12545]],[[655549,166816],[-106,-2472],[2504,-432],[102,2370]],[[658049,166282],[28838,-6394]],[[686887,159888],[41555,-159888]],[[728442,0],[-82757,13412],[-98678,39193],[-57457,13279],[-72695,-8436]],[[434580,278278],[240081,-71347]],[[674661,206931],[11814,-45456]],[[686475,161475],[-28368,6138]],[[658107,167613],[76,1768],[-2503,476],[-74,-1717]],[[655606,168140],[-60914,12535],[-41441,-9636]],[[553251,171039],[-40,1221],[-2140,-406],[56,-1401]],[[551127,170453],[-71885,-23841],[-16722,11011]],[[462520,157623],[119,1404],[-2021,1236],[-141,-1297]],[[460477,158966],[-30439,20044]],[[430038,179010],[-172,2162],[1309,7485],[-2045,21913],[2797,8054],[-1307,24377],[3960,35277]],[[460477,158966],[-140,-1295]],[[430149,177612],[-111,1398]],[[462408,156304],[112,1319]],[[551127,170453],[52,-1281]],[[655606,168140],[-57,-1324]],[[553292,169744],[-41,1295]],[[658049,166282],[58,1331]],[[686475,161475],[412,-1587]],[[645216,555398],[82424,-51674],[51002,2408],[16353,-37567],[58047,72509],[38842,64050],[66239,44201],[2965,-28376],[38911,-76259],[-25171,-89384],[-34532,-157613],[-26627,-4857],[-38737,30283],[-54073,63820],[-68965,35465],[-15943,-3896],[-13545,12859],[-20372,1557]],[[702034,432924],[-4200,9056]],[[753787,364777],[65529,-37454],[28168,-45750],[24368,-13723],[38640,-39531],[36305,-3575],[-1676,-18615]],[[945121,206129],[-6259,-1838]],[[938862,204291],[124,1602],[-2468,1418],[-143,-1837]],[[936375,205474],[-21422,9560]],[[914953,215034],[88,1360],[-2121,1008],[-109,-1628]],[[912811,215774],[-34109,14700],[-106742,-35713]],[[771960,194761],[-18173,170016]],[[772101,193449],[106596,35749],[34029,-14705]],[[912726,214493],[-98,-1459],[2137,-927],[104,1608]],[[914869,213715],[21408,-9500]],[[936277,204215],[-55,-699]],[[936222,203516],[-869,-256],[-22591,6842],[-35807,17055],[-104259,-39279],[-595,5571]],[[912811,215774],[-85,-1281]],[[772101,193449],[-141,1312]],[[914869,213715],[84,1319]],[[936375,205474],[-98,-1259]],[[938862,204291],[-2640,-775]],[[653778,287281],[33173,51095],[7750,26989]],[[694701,365365],[23571,-1494],[8752,-11924],[24186,3154],[16595,-162186]],[[767805,192915],[-6896,-2379]],[[760909,190536],[-88791,26179]],[[763102,189889],[4831,1778]],[[767933,191667],[338,-3302],[-5169,1524]],[[767805,192915],[128,-1248]],[[763102,189889],[-2193,647]],[[686887,159888],[17624,-3906],[751,16491],[21397,6496]],[[726659,178969],[93,-1467],[2045,622],[-91,1466]],[[728706,179590],[18776,5698]],[[747482,185288],[23868,-7092],[106151,39132],[34499,-16247],[23494,-6931],[8838,3384]],[[944332,197534],[-2977,-20951],[4330,-33828],[-840,-31599],[5059,-24727],[721,-34388],[-10102,8741],[-79002,8837],[-61246,-45313],[-71833,-24306]],[[674661,206931],[70493,-20951]],[[745154,185980],[-16532,-5019]],[[728622,180961],[-88,1431],[-2057,-514],[96,-1538]],[[726573,180340],[-21788,-6614],[-745,-16052],[-17565,3801]],[[726573,180340],[86,-1371]],[[745154,185980],[2328,-692]],[[728706,179590],[-84,1371]],[[434580,278278],[921,8203]],[[760909,190536],[-15755,-4556]],[[694701,365365],[2470,8602],[22296,-2086],[7805,-9842],[26515,2738]],[[771960,194761],[-4155,-1846]],[[747482,185288],[15620,4601]],[[767933,191667],[4168,1782]],[[936222,203516],[-122,-1569],[2467,-1503],[186,2419]],[[938753,202863],[1798,-965],[794,785],[-2497,1420]],[[938848,204103],[14,188]],[[945121,206129],[-789,-8595]],[[938753,202863],[95,1240]],[[431615,287627],[-861,-8212]],[[308644,532297],[6,-4158]],[[308650,528139],[-990,-19],[23,-3682],[971,43]],[[308654,524481],[4,-2350]],[[308658,522131],[-53716,81392],[-39816,21215],[-38614,116153],[-45434,30850],[-52146,7097],[-78932,67178],[1432,7351]],[[342160,536332],[432,-9219]],[[342592,527113],[-28082,-13851],[-5238,7936]],[[309272,521198],[-13,3309]],[[309259,524507],[721,32],[-10,3624],[-726,-13]],[[309244,528150],[-14,3260]],[[309244,528150],[-594,-11]],[[308654,524481],[605,26]],[[309272,521198],[-614,933]],[[438416,352501],[4166,-2933]],[[416855,57448],[-3111,-360]],[[380284,678545],[2643,-5935]],[[345324,537972],[385,-9322]],[[345709,528650],[-3117,-1537]],[[702034,432924],[-18111,1384],[-15851,-52113],[-32343,-58061],[-31726,-7915],[-54701,20854],[-150749,117032],[-24620,-17164],[-20995,95276],[-7229,-3567]]],"bbox":[32867.757,77712.076,34876.709,78537.583],"transform":{"scale":[0.0020089540089540136,0.0008255078255078232],"translate":[32867.757,77712.076]}}