{"type":"Topology","objects":{"01514-4501-24":{"type":"GeometryCollection","geometries":[{"type":"MultiPolygon","arcs":[[[0,1,2]]],"properties":{"筆ID":"H000000001","version":"ver1.0","座標系":"任意座標系","測地系判別":null,"地図名":"H16AN100950","地図番号":"42","縮尺分母":"5000","市区町村コード":"01514","市区町村名":"枝幸郡枝幸町","大字コード":"018","丁目コード":"000","小字コード":"0000","予備コード":"00","大字名":"岡島","丁目名":null,"小字名":null,"予備名":null,"地番":"道-1","精度区分":null,"座標値種別":"図上測量","筆界未定構成筆":null,"代表点緯度":95509.1,"代表点経度":22874.405904469}},{"type":"MultiPolygon","arcs":[[[3,4,5,6,7]]],"properties":{"筆ID":"H000000002","version":"ver1.0","座標系":"任意座標系","測地系判別":null,"地図名":"H16AN100950","地図番号":"42","縮尺分母":"5000","市区町村コード":"01514","市区町村名":"枝幸郡枝幸町","大字コード":"018","丁目コード":"000","小字コード":"0000","予備コード":"00","大字名":"岡島","丁目名":null,"小字名":null,"予備名":null,"地番":"道-2","精度区分":null,"座標値種別":"図上測量","筆界未定構成筆":null,"代表点緯度":95893.1545,"代表点経度":24530.043944954}},{"type":"MultiPolygon","arcs":[[[8,9,-5,10]]],"properties":{"筆ID":"H000000003","version":"ver1.0","座標系":"任意座標系","測地系判別":null,"地図名":"H16AN100950","地図番号":"42","縮尺分母":"5000","市区町村コード":"01514","市区町村名":"枝幸郡枝幸町","大字コード":"018","丁目コード":"000","小字コード":"0000","予備コード":"00","大字名":"岡島","丁目名":null,"小字名":null,"予備名":null,"地番":"5025-1","精度区分":null,"座標値種別":"図上測量","筆界未定構成筆":null,"代表点緯度":96264.518,"代表点経度":25074.535909896}},{"type":"MultiPolygon","arcs":[[[11,-9]]],"properties":{"筆ID":"H000000004","version":"ver1.0","座標系":"任意座標系","測地系判別":null,"地図名":"H16AN100950","地図番号":"42","縮尺分母":"5000","市区町村コード":"01514","市区町村名":"枝幸郡枝幸町","大字コード":"018","丁目コード":"000","小字コード":"0000","予備コード":"00","大字名":"岡島","丁目名":null,"小字名":null,"予備名":null,"地番":"5025-2","精度区分":null,"座標値種別":"図上測量","筆界未定構成筆":null,"代表点緯度":96536.3885,"代表点経度":25103.033109308}},{"type":"MultiPolygon","arcs":[[[-4,12]]],"properties":{"筆ID":"H000000005","version":"ver1.0","座標系":"任意座標系","測地系判別":null,"地図名":"H16AN100950","地図番号":"42","縮尺分母":"5000","市区町村コード":"01514","市区町村名":"枝幸郡枝幸町","大字コード":"018","丁目コード":"000","小字コード":"0000","予備コード":"00","大字名":"岡島","丁目名":null,"小字名":null,"予備名":null,"地番":"5026","精度区分":null,"座標値種別":"図上測量","筆界未定構成筆":null,"代表点緯度":96004.262,"代表点経度":24477.623877787}},{"type":"MultiPolygon","arcs":[[[13,14,-7,15,-2]]],"properties":{"筆ID":"H000000006","version":"ver1.0","座標系":"任意座標系","測地系判別":null,"地図名":"H16AN100950","地図番号":"42","縮尺分母":"5000","市区町村コード":"01514","市区町村名":"枝幸郡枝幸町","大字コード":"018","丁目コード":"000","小字コード":"0000","予備コード":"00","大字名":"岡島","丁目名":null,"小字名":null,"予備名":null,"地番":"5027-1","精度区分":null,"座標値種別":"図上測量","筆界未定構成筆":null,"代表点緯度":95537.7785,"代表点経度":23581.710443714}},{"type":"MultiPolygon","arcs":[[[16,-14,-1]]],"properties":{"筆ID":"H000000007","version":"ver1.0","座標系":"任意座標系","測地系判別":null,"地図名":"H16AN100950","地図番号":"42","縮尺分母":"5000","市区町村コード":"01514","市区町村名":"枝幸郡枝幸町","大字コード":"018","丁目コード":"000","小字コード":"0000","予備コード":"00","大字名":"岡島","丁目名":null,"小字名":null,"予備名":null,"地番":"5027-2","精度区分":null,"座標値種別":"図上測量","筆界未定構成筆":null,"代表点緯度":95878.117,"代表点経度":23219.587337116}}]}},"arcs":[[[3600,346783],[3073,-4973]],[[6673,341810],[117940,-190881],[94138,-149301]],[[218751,1628],[-3125,-1628],[-92932,147293],[-122694,199075],[3600,415]],[[622144,522306],[31588,-66669]],[[653732,455637],[17092,-36074]],[[670824,419563],[-3001,-1561]],[[667823,418002],[-48306,101458]],[[619517,519460],[2627,2846]],[[825735,896579],[15619,-17982],[2380,7800],[-15079,19484]],[[828655,905881],[1440,4584],[56166,89534],[77622,-165232],[36116,-243961],[-329175,-171243]],[[653732,455637],[-25914,198181],[28795,46284],[25701,41312],[102307,24217],[41114,130948]],[[825735,896579],[2920,9302]],[[622144,522306],[-33183,70032],[25932,40817],[38839,-177518]],[[6673,341810],[39772,12335],[36837,17095],[35049,26180],[32255,32999],[29667,31580],[29502,32213],[29042,29029],[52207,44056]],[[291004,567297],[1138,-35352],[83136,37219],[6448,55351],[58860,19263],[11795,-26054],[1487,-3286],[24185,-53421],[87073,72678],[54391,-114235]],[[667823,418002],[-119763,-62302],[26427,-168752],[-355736,-185320]],[[3600,346783],[111499,71705],[174720,185643],[1185,-36834]]],"bbox":[22690.539,95116.781,25579.836,96709.182],"transform":{"scale":[0.0028892998892998878,0.0015924025924025904],"translate":[22690.539,95116.781]}}
