{"type":"Topology","objects":{"01367-4401-3.featurecollection":{"type":"GeometryCollection","geometries":[{"type":"Polygon","arcs":[[0,1,2,3]],"properties":{"市区町村名":"奥尻郡奥尻町","大字名":null,"丁目名":null,"小字名":"字奥尻","地番":"658","精度区分":null,"座標系":"任意座標系"}},{"type":"Polygon","arcs":[[4,5,6,7]],"properties":{"市区町村名":"奥尻郡奥尻町","大字名":null,"丁目名":null,"小字名":"字赤石","地番":"筆界未定地-1","精度区分":null,"座標系":"任意座標系"}},{"type":"Polygon","arcs":[[8,9,10,11,12]],"properties":{"市区町村名":"奥尻郡奥尻町","大字名":null,"丁目名":null,"小字名":"字赤石","地番":"筆界未定地-4","精度区分":null,"座標系":"任意座標系"}},{"type":"Polygon","arcs":[[13,14,15,16]],"properties":{"市区町村名":"奥尻郡奥尻町","大字名":null,"丁目名":null,"小字名":"字赤石","地番":"筆界未定地-5","精度区分":null,"座標系":"任意座標系"}},{"type":"Polygon","arcs":[[17,18,19,20,21]],"properties":{"市区町村名":"奥尻郡奥尻町","大字名":null,"丁目名":null,"小字名":"字赤石","地番":"筆界未定地-6","精度区分":null,"座標系":"任意座標系"}},{"type":"Polygon","arcs":[[22,23,24,25,26,27]],"properties":{"市区町村名":"奥尻郡奥尻町","大字名":null,"丁目名":null,"小字名":"字赤石","地番":"筆界未定地-7","精度区分":null,"座標系":"任意座標系"}},{"type":"Polygon","arcs":[[28,29,30,31,32,33]],"properties":{"市区町村名":"奥尻郡奥尻町","大字名":null,"丁目名":null,"小字名":"字赤石","地番":"筆界未定地-8","精度区分":null,"座標系":"任意座標系"}},{"type":"Polygon","arcs":[[34,35,36]],"properties":{"市区町村名":"奥尻郡奥尻町","大字名":null,"丁目名":null,"小字名":"字奥尻","地番":"653","精度区分":null,"座標系":"任意座標系"}},{"type":"Polygon","arcs":[[37,38,-1,39]],"properties":{"市区町村名":"奥尻郡奥尻町","大字名":null,"丁目名":null,"小字名":"字奥尻","地番":"657","精度区分":null,"座標系":"任意座標系"}},{"type":"Polygon","arcs":[[40,41,-7,42,43,44,45,46,47]],"properties":{"市区町村名":"奥尻郡奥尻町","大字名":null,"丁目名":null,"小字名":"字赤石","地番":"水-1","精度区分":null,"座標系":"任意座標系"}},{"type":"Polygon","arcs":[[48,49,50,51,52]],"properties":{"市区町村名":"奥尻郡奥尻町","大字名":null,"丁目名":null,"小字名":"字赤石","地番":"507","精度区分":null,"座標系":"任意座標系"}},{"type":"Polygon","arcs":[[53,-47,54,55,56]],"properties":{"市区町村名":"奥尻郡奥尻町","大字名":null,"丁目名":null,"小字名":"字赤石","地番":"356-2","精度区分":null,"座標系":"任意座標系"}},{"type":"Polygon","arcs":[[57,58,59,60,61,62,63,64,65,66,67,68,-63,69,70,71,72,73,74,75,76,77,78,79,80,81,82,83,84,85,86,87,88,89,90,91,92,93,94,95,96,97,98,99,100,101,-23,102,103,104,105,106,107,108,109,110,111,112,113]],"properties":{"市区町村名":"奥尻郡奥尻町","大字名":null,"丁目名":null,"小字名":"字赤石","地番":"道-1","精度区分":null,"座標系":"任意座標系"}},{"type":"Polygon","arcs":[[114,115,116,117]],"properties":{"市区町村名":"奥尻郡奥尻町","大字名":null,"丁目名":null,"小字名":"字湯浜","地番":"140","精度区分":null,"座標系":"任意座標系"}},{"type":"Polygon","arcs":[[118,119,120,121,122,123,124,125]],"properties":{"市区町村名":"奥尻郡奥尻町","大字名":null,"丁目名":null,"小字名":"字赤石","地番":"長狭物不明-1","精度区分":null,"座標系":"任意座標系"}},{"type":"Polygon","arcs":[[126,127,128,129,130,131,132,133,134,135,136,137,138,139,140,141,142,143,144,145,146,147,148,149,150,151,152,153,154]],"properties":{"市区町村名":"奥尻郡奥尻町","大字名":null,"丁目名":null,"小字名":"字赤石","地番":"水-2","精度区分":null,"座標系":"任意座標系"}},{"type":"Polygon","arcs":[[155,156,157,158,159,160,161]],"properties":{"市区町村名":"奥尻郡奥尻町","大字名":null,"丁目名":null,"小字名":"字湯浜","地番":"長狭物不明-2","精度区分":null,"座標系":"任意座標系"}},{"type":"Polygon","arcs":[[162,163,164,165,166,167]],"properties":{"市区町村名":"奥尻郡奥尻町","大字名":null,"丁目名":null,"小字名":"字奥尻","地番":"道-3","精度区分":null,"座標系":"任意座標系"}},{"type":"Polygon","arcs":[[-166,168,169,170,171,172,173,174]],"properties":{"市区町村名":"奥尻郡奥尻町","大字名":null,"丁目名":null,"小字名":"字奥尻","地番":"水-3","精度区分":null,"座標系":"任意座標系"}},{"type":"Polygon","arcs":[[175,176,177,178,179]],"properties":{"市区町村名":"奥尻郡奥尻町","大字名":null,"丁目名":null,"小字名":"字赤石","地番":"水-4","精度区分":null,"座標系":"任意座標系"}},{"type":"Polygon","arcs":[[-57,180,181,182,183,184,185,186]],"properties":{"市区町村名":"奥尻郡奥尻町","大字名":null,"丁目名":null,"小字名":"字赤石","地番":"道-4","精度区分":null,"座標系":"任意座標系"}},{"type":"Polygon","arcs":[[187,188,189,190,191,192,193,194,195,196,197,198,199,-41]],"properties":{"市区町村名":"奥尻郡奥尻町","大字名":null,"丁目名":null,"小字名":"字奥尻","地番":"水-5","精度区分":null,"座標系":"任意座標系"}},{"type":"Polygon","arcs":[[200,201,-184,202,203,204,-178,205,206]],"properties":{"市区町村名":"奥尻郡奥尻町","大字名":null,"丁目名":null,"小字名":"字赤石","地番":"353","精度区分":null,"座標系":"任意座標系"}},{"type":"Polygon","arcs":[[207,-206,-177,208]],"properties":{"市区町村名":"奥尻郡奥尻町","大字名":null,"丁目名":null,"小字名":"字赤石","地番":"352","精度区分":null,"座標系":"任意座標系"}},{"type":"Polygon","arcs":[[209,-48,-54,-187,210,211,212,213,214]],"properties":{"市区町村名":"奥尻郡奥尻町","大字名":null,"丁目名":null,"小字名":"字赤石","地番":"水-6","精度区分":null,"座標系":"任意座標系"}},{"type":"Polygon","arcs":[[215,-53,216,217]],"properties":{"市区町村名":"奥尻郡奥尻町","大字名":null,"丁目名":null,"小字名":"字赤石","地番":"長狭物不明-3","精度区分":null,"座標系":"任意座標系"}},{"type":"Polygon","arcs":[[218,-218,219,220]],"properties":{"市区町村名":"奥尻郡奥尻町","大字名":null,"丁目名":null,"小字名":"字赤石","地番":"長狭物不明-4","精度区分":null,"座標系":"任意座標系"}},{"type":"Polygon","arcs":[[221,-221,222,223,224,225]],"properties":{"市区町村名":"奥尻郡奥尻町","大字名":null,"丁目名":null,"小字名":"字赤石","地番":"508","精度区分":null,"座標系":"任意座標系"}},{"type":"Polygon","arcs":[[226,227,228,229,230,231,232]],"properties":{"市区町村名":"奥尻郡奥尻町","大字名":null,"丁目名":null,"小字名":"字赤石","地番":"長狭物不明-6","精度区分":null,"座標系":"任意座標系"}},{"type":"Polygon","arcs":[[233,234]],"properties":{"市区町村名":"奥尻郡奥尻町","大字名":null,"丁目名":null,"小字名":"字赤石","地番":"水-7","精度区分":null,"座標系":"任意座標系"}},{"type":"Polygon","arcs":[[235,-233,236,-234]],"properties":{"市区町村名":"奥尻郡奥尻町","大字名":null,"丁目名":null,"小字名":"字赤石","地番":"527","精度区分":null,"座標系":"任意座標系"}},{"type":"Polygon","arcs":[[237,238,239,240]],"properties":{"市区町村名":"奥尻郡奥尻町","大字名":null,"丁目名":null,"小字名":"字湯浜","地番":"135","精度区分":null,"座標系":"任意座標系"}},{"type":"Polygon","arcs":[[241,242,243]],"properties":{"市区町村名":"奥尻郡奥尻町","大字名":null,"丁目名":null,"小字名":"字湯浜","地番":"136-2","精度区分":null,"座標系":"任意座標系"}},{"type":"Polygon","arcs":[[244,245,246,247,248,249]],"properties":{"市区町村名":"奥尻郡奥尻町","大字名":null,"丁目名":null,"小字名":"字湯浜","地番":"136-1","精度区分":null,"座標系":"任意座標系"}},{"type":"Polygon","arcs":[[250,251,-245,-239]],"properties":{"市区町村名":"奥尻郡奥尻町","大字名":null,"丁目名":null,"小字名":"字湯浜","地番":"137","精度区分":null,"座標系":"任意座標系"}},{"type":"Polygon","arcs":[[-251,-238,252]],"properties":{"市区町村名":"奥尻郡奥尻町","大字名":null,"丁目名":null,"小字名":"字湯浜","地番":"138","精度区分":null,"座標系":"任意座標系"}},{"type":"Polygon","arcs":[[253,254,255,256]],"properties":{"市区町村名":"奥尻郡奥尻町","大字名":null,"丁目名":null,"小字名":"字湯浜","地番":"132","精度区分":null,"座標系":"任意座標系"}},{"type":"Polygon","arcs":[[257,-255,258]],"properties":{"市区町村名":"奥尻郡奥尻町","大字名":null,"丁目名":null,"小字名":"字湯浜","地番":"130","精度区分":null,"座標系":"任意座標系"}},{"type":"Polygon","arcs":[[259,-160]],"properties":{"市区町村名":"奥尻郡奥尻町","大字名":null,"丁目名":null,"小字名":"字湯浜","地番":"152","精度区分":null,"座標系":"任意座標系"}},{"type":"Polygon","arcs":[[-161,260]],"properties":{"市区町村名":"奥尻郡奥尻町","大字名":null,"丁目名":null,"小字名":"字湯浜","地番":"153","精度区分":null,"座標系":"任意座標系"}},{"type":"Polygon","arcs":[[261,262,-157]],"properties":{"市区町村名":"奥尻郡奥尻町","大字名":null,"丁目名":null,"小字名":"字湯浜","地番":"151","精度区分":null,"座標系":"任意座標系"}},{"type":"Polygon","arcs":[[263,-158,-263,264,265]],"properties":{"市区町村名":"奥尻郡奥尻町","大字名":null,"丁目名":null,"小字名":"字湯浜","地番":"150","精度区分":null,"座標系":"任意座標系"}},{"type":"Polygon","arcs":[[-266,266,267]],"properties":{"市区町村名":"奥尻郡奥尻町","大字名":null,"丁目名":null,"小字名":"字湯浜","地番":"149","精度区分":null,"座標系":"任意座標系"}},{"type":"Polygon","arcs":[[268,269,270]],"properties":{"市区町村名":"奥尻郡奥尻町","大字名":null,"丁目名":null,"小字名":"字湯浜","地番":"147","精度区分":null,"座標系":"任意座標系"}},{"type":"Polygon","arcs":[[271,-270,272]],"properties":{"市区町村名":"奥尻郡奥尻町","大字名":null,"丁目名":null,"小字名":"字湯浜","地番":"148","精度区分":null,"座標系":"任意座標系"}},{"type":"Polygon","arcs":[[273,274]],"properties":{"市区町村名":"奥尻郡奥尻町","大字名":null,"丁目名":null,"小字名":"字湯浜","地番":"146","精度区分":null,"座標系":"任意座標系"}},{"type":"Polygon","arcs":[[275,276,277]],"properties":{"市区町村名":"奥尻郡奥尻町","大字名":null,"丁目名":null,"小字名":"字湯浜","地番":"142-3","精度区分":null,"座標系":"任意座標系"}},{"type":"Polygon","arcs":[[278,279,-276,280]],"properties":{"市区町村名":"奥尻郡奥尻町","大字名":null,"丁目名":null,"小字名":"字湯浜","地番":"141-2","精度区分":null,"座標系":"任意座標系"}},{"type":"Polygon","arcs":[[281,-279,282]],"properties":{"市区町村名":"奥尻郡奥尻町","大字名":null,"丁目名":null,"小字名":"字湯浜","地番":"145-2","精度区分":null,"座標系":"任意座標系"}},{"type":"Polygon","arcs":[[283,284,-283,285]],"properties":{"市区町村名":"奥尻郡奥尻町","大字名":null,"丁目名":null,"小字名":"字湯浜","地番":"145-1","精度区分":null,"座標系":"任意座標系"}},{"type":"Polygon","arcs":[[286,-286,-281,287,-116]],"properties":{"市区町村名":"奥尻郡奥尻町","大字名":null,"丁目名":null,"小字名":"字湯浜","地番":"141-1","精度区分":null,"座標系":"任意座標系"}},{"type":"Polygon","arcs":[[-162,-261,-260,-159,-264,-268,288,-271,-272,289,-275,290,-284,-287,-115,291,-259,-254,292]],"properties":{"市区町村名":"奥尻郡奥尻町","大字名":null,"丁目名":null,"小字名":"字湯浜","地番":"道-6","精度区分":null,"座標系":"任意座標系"}},{"type":"Polygon","arcs":[[-117,293,294,295]],"properties":{"市区町村名":"奥尻郡奥尻町","大字名":null,"丁目名":null,"小字名":"字湯浜","地番":"139","精度区分":null,"座標系":"任意座標系"}},{"type":"Polygon","arcs":[[-288,-278,296,-294]],"properties":{"市区町村名":"奥尻郡奥尻町","大字名":null,"丁目名":null,"小字名":"字湯浜","地番":"142-1","精度区分":null,"座標系":"任意座標系"}},{"type":"Polygon","arcs":[[297,-277,-280]],"properties":{"市区町村名":"奥尻郡奥尻町","大字名":null,"丁目名":null,"小字名":"字湯浜","地番":"142-2","精度区分":null,"座標系":"任意座標系"}},{"type":"Polygon","arcs":[[298]],"properties":{"市区町村名":"奥尻郡奥尻町","大字名":null,"丁目名":null,"小字名":"字湯浜","地番":"155","精度区分":null,"座標系":"任意座標系"}},{"type":"Polygon","arcs":[[299,300,301]],"properties":{"市区町村名":"奥尻郡奥尻町","大字名":null,"丁目名":null,"小字名":"字湯浜","地番":"159-3","精度区分":null,"座標系":"任意座標系"}},{"type":"Polygon","arcs":[[-302,302,303,304,305]],"properties":{"市区町村名":"奥尻郡奥尻町","大字名":null,"丁目名":null,"小字名":"字湯浜","地番":"159-2","精度区分":null,"座標系":"任意座標系"}},{"type":"Polygon","arcs":[[306,-303,307]],"properties":{"市区町村名":"奥尻郡奥尻町","大字名":null,"丁目名":null,"小字名":"字湯浜","地番":"158-2","精度区分":null,"座標系":"任意座標系"}},{"type":"Polygon","arcs":[[308,-308,-301,309]],"properties":{"市区町村名":"奥尻郡奥尻町","大字名":null,"丁目名":null,"小字名":"字湯浜","地番":"158-1","精度区分":null,"座標系":"任意座標系"}},{"type":"Polygon","arcs":[[-310,-300,-306,310,311]],"properties":{"市区町村名":"奥尻郡奥尻町","大字名":null,"丁目名":null,"小字名":"字湯浜","地番":"159-1","精度区分":null,"座標系":"任意座標系"}},{"type":"Polygon","arcs":[[312]],"properties":{"市区町村名":"奥尻郡奥尻町","大字名":null,"丁目名":null,"小字名":"字湯浜","地番":"157","精度区分":null,"座標系":"任意座標系"}},{"type":"Polygon","arcs":[[313]],"properties":{"市区町村名":"奥尻郡奥尻町","大字名":null,"丁目名":null,"小字名":"字湯浜","地番":"156","精度区分":null,"座標系":"任意座標系"}},{"type":"Polygon","arcs":[[-207,-208,314]],"properties":{"市区町村名":"奥尻郡奥尻町","大字名":null,"丁目名":null,"小字名":"字赤石","地番":"351","精度区分":null,"座標系":"任意座標系"}},{"type":"Polygon","arcs":[[315,316,317]],"properties":{"市区町村名":"奥尻郡奥尻町","大字名":null,"丁目名":null,"小字名":"字赤石","地番":"505","精度区分":null,"座標系":"任意座標系"}},{"type":"Polygon","arcs":[[318,319]],"properties":{"市区町村名":"奥尻郡奥尻町","大字名":null,"丁目名":null,"小字名":"字赤石","地番":"506","精度区分":null,"座標系":"任意座標系"}},{"type":"Polygon","arcs":[[320,-318,321,322,323,324,325,326,327,328,329,-16,330,331,332,333,334,335,336,337,338,339,340,-223,-220,-217,-52,341,342,343,344,345,346,347,348,349,350,351,352,353,354,355,356,357,358,359,360,361,362,363,364,365,-12,366,367,-9,368,369,370,371,-342,-51,372,-319,373]],"properties":{"市区町村名":"奥尻郡奥尻町","大字名":null,"丁目名":null,"小字名":"字赤石","地番":"道-7","精度区分":null,"座標系":"任意座標系"}},{"type":"Polygon","arcs":[[374,375]],"properties":{"市区町村名":"奥尻郡奥尻町","大字名":null,"丁目名":null,"小字名":"字赤石","地番":"無地番-1","精度区分":null,"座標系":"任意座標系"}},{"type":"Polygon","arcs":[[376,-376,377,-374,-320,-373,-50]],"properties":{"市区町村名":"奥尻郡奥尻町","大字名":null,"丁目名":null,"小字名":"字赤石","地番":"長狭物不明-9","精度区分":null,"座標系":"任意座標系"}},{"type":"Polygon","arcs":[[378,-179,-205,379,-59]],"properties":{"市区町村名":"奥尻郡奥尻町","大字名":null,"丁目名":null,"小字名":"字赤石","地番":"454","精度区分":null,"座標系":"任意座標系"}},{"type":"Polygon","arcs":[[-214,380,381,382,383,384,385,386,-212,387,388,-201,-315,-209,-176,389]],"properties":{"市区町村名":"奥尻郡奥尻町","大字名":null,"丁目名":null,"小字名":"字赤石","地番":"道-8","精度区分":null,"座標系":"任意座標系"}},{"type":"Polygon","arcs":[[-56,390,391,-181]],"properties":{"市区町村名":"奥尻郡奥尻町","大字名":null,"丁目名":null,"小字名":"字赤石","地番":"356-3","精度区分":null,"座標系":"任意座標系"}},{"type":"Polygon","arcs":[[392,-386,393,-382]],"properties":{"市区町村名":"奥尻郡奥尻町","大字名":null,"丁目名":null,"小字名":"字赤石","地番":"349-3","精度区分":null,"座標系":"任意座標系"}},{"type":"Polygon","arcs":[[-385,394,-383,-394]],"properties":{"市区町村名":"奥尻郡奥尻町","大字名":null,"丁目名":null,"小字名":"字赤石","地番":"349-1","精度区分":null,"座標系":"任意座標系"}},{"type":"Polygon","arcs":[[-384,-395]],"properties":{"市区町村名":"奥尻郡奥尻町","大字名":null,"丁目名":null,"小字名":"字赤石","地番":"350","精度区分":null,"座標系":"任意座標系"}},{"type":"Polygon","arcs":[[395,396,397,-183]],"properties":{"市区町村名":"奥尻郡奥尻町","大字名":null,"丁目名":null,"小字名":"字赤石","地番":"357","精度区分":null,"座標系":"任意座標系"}},{"type":"Polygon","arcs":[[-392,398,399,400,-396,-182]],"properties":{"市区町村名":"奥尻郡奥尻町","大字名":null,"丁目名":null,"小字名":"字赤石","地番":"356-1","精度区分":null,"座標系":"任意座標系"}},{"type":"Polygon","arcs":[[-185,-202,-389,401]],"properties":{"市区町村名":"奥尻郡奥尻町","大字名":null,"丁目名":null,"小字名":"字赤石","地番":"354","精度区分":null,"座標系":"任意座標系"}},{"type":"Polygon","arcs":[[-211,-186,-402,-388]],"properties":{"市区町村名":"奥尻郡奥尻町","大字名":null,"丁目名":null,"小字名":"字赤石","地番":"355","精度区分":null,"座標系":"任意座標系"}},{"type":"Polygon","arcs":[[-213,-387,-393,-381]],"properties":{"市区町村名":"奥尻郡奥尻町","大字名":null,"丁目名":null,"小字名":"字赤石","地番":"349-2","精度区分":null,"座標系":"任意座標系"}},{"type":"Polygon","arcs":[[402,403,404,405]],"properties":{"市区町村名":"奥尻郡奥尻町","大字名":null,"丁目名":null,"小字名":"字奥尻","地番":"714","精度区分":null,"座標系":"任意座標系"}},{"type":"Polygon","arcs":[[406,-405,407,-210]],"properties":{"市区町村名":"奥尻郡奥尻町","大字名":null,"丁目名":null,"小字名":"字奥尻","地番":"水-8","精度区分":null,"座標系":"任意座標系"}},{"type":"Polygon","arcs":[[-189,408]],"properties":{"市区町村名":"奥尻郡奥尻町","大字名":null,"丁目名":null,"小字名":"字奥尻","地番":"713","精度区分":null,"座標系":"任意座標系"}},{"type":"Polygon","arcs":[[409,-172,410,411,412,-190,-409,-188,-408,-404,-174]],"properties":{"市区町村名":"奥尻郡奥尻町","大字名":null,"丁目名":null,"小字名":"字奥尻","地番":"長狭物不明-10","精度区分":null,"座標系":"任意座標系"}},{"type":"Polygon","arcs":[[413,414,415]],"properties":{"市区町村名":"奥尻郡奥尻町","大字名":null,"丁目名":null,"小字名":"字奥尻","地番":"706","精度区分":null,"座標系":"任意座標系"}},{"type":"Polygon","arcs":[[-173,-410]],"properties":{"市区町村名":"奥尻郡奥尻町","大字名":null,"丁目名":null,"小字名":"字奥尻","地番":"712","精度区分":null,"座標系":"任意座標系"}},{"type":"Polygon","arcs":[[416,417,-167,-175,-403]],"properties":{"市区町村名":"奥尻郡奥尻町","大字名":null,"丁目名":null,"小字名":"字奥尻","地番":"水-9","精度区分":null,"座標系":"任意座標系"}},{"type":"Polygon","arcs":[[418,419,-169,-165]],"properties":{"市区町村名":"奥尻郡奥尻町","大字名":null,"丁目名":null,"小字名":"字奥尻","地番":"711","精度区分":null,"座標系":"任意座標系"}},{"type":"Polygon","arcs":[[420,421,422]],"properties":{"市区町村名":"奥尻郡奥尻町","大字名":null,"丁目名":null,"小字名":"字奥尻","地番":"704","精度区分":null,"座標系":"任意座標系"}},{"type":"Polygon","arcs":[[423,424,-37,425,-40,-4,426,427,428,429,430,-421,431,432,433,-415]],"properties":{"市区町村名":"奥尻郡奥尻町","大字名":null,"丁目名":null,"小字名":"字奥尻","地番":"道-9","精度区分":null,"座標系":"任意座標系"}},{"type":"Polygon","arcs":[[434,435,-432,-423,436,437,438,-419,-164,439,440,441,442,443]],"properties":{"市区町村名":"奥尻郡奥尻町","大字名":null,"丁目名":null,"小字名":"字奥尻","地番":"道-10","精度区分":null,"座標系":"任意座標系"}},{"type":"Polygon","arcs":[[-433,-436]],"properties":{"市区町村名":"奥尻郡奥尻町","大字名":null,"丁目名":null,"小字名":"字奥尻","地番":"705","精度区分":null,"座標系":"任意座標系"}},{"type":"Polygon","arcs":[[444,-35,-425]],"properties":{"市区町村名":"奥尻郡奥尻町","大字名":null,"丁目名":null,"小字名":"字奥尻","地番":"水-10","精度区分":null,"座標系":"任意座標系"}},{"type":"Polygon","arcs":[[445,-424,-414,446]],"properties":{"市区町村名":"奥尻郡奥尻町","大字名":null,"丁目名":null,"小字名":"字奥尻","地番":"707","精度区分":null,"座標系":"任意座標系"}},{"type":"Polygon","arcs":[[447,-447,-416,-434,-435]],"properties":{"市区町村名":"奥尻郡奥尻町","大字名":null,"丁目名":null,"小字名":"字奥尻","地番":"708","精度区分":null,"座標系":"任意座標系"}},{"type":"Polygon","arcs":[[-163,448,-440]],"properties":{"市区町村名":"奥尻郡奥尻町","大字名":null,"丁目名":null,"小字名":"字奥尻","地番":"709V1","精度区分":null,"座標系":"任意座標系"}},{"type":"Polygon","arcs":[[449,-443,450,-441,-449,-168,-418]],"properties":{"市区町村名":"奥尻郡奥尻町","大字名":null,"丁目名":null,"小字名":"字奥尻","地番":"710","精度区分":null,"座標系":"任意座標系"}},{"type":"Polygon","arcs":[[-451,-442]],"properties":{"市区町村名":"奥尻郡奥尻町","大字名":null,"丁目名":null,"小字名":"字奥尻","地番":"709V2","精度区分":null,"座標系":"任意座標系"}},{"type":"Polygon","arcs":[[451,452]],"properties":{"市区町村名":"奥尻郡奥尻町","大字名":null,"丁目名":null,"小字名":"字赤石","地番":"521-2","精度区分":null,"座標系":"任意座標系"}},{"type":"Polygon","arcs":[[453,-452,454,455]],"properties":{"市区町村名":"奥尻郡奥尻町","大字名":null,"丁目名":null,"小字名":"字赤石","地番":"521-4","精度区分":null,"座標系":"任意座標系"}},{"type":"Polygon","arcs":[[-335,456,457,458]],"properties":{"市区町村名":"奥尻郡奥尻町","大字名":null,"丁目名":null,"小字名":"字赤石","地番":"515-2","精度区分":null,"座標系":"任意座標系"}},{"type":"Polygon","arcs":[[-336,-459,459]],"properties":{"市区町村名":"奥尻郡奥尻町","大字名":null,"丁目名":null,"小字名":"字赤石","地番":"515-1","精度区分":null,"座標系":"任意座標系"}},{"type":"Polygon","arcs":[[-339,460]],"properties":{"市区町村名":"奥尻郡奥尻町","大字名":null,"丁目名":null,"小字名":"字赤石","地番":"525","精度区分":null,"座標系":"任意座標系"}},{"type":"Polygon","arcs":[[461,462]],"properties":{"市区町村名":"奥尻郡奥尻町","大字名":null,"丁目名":null,"小字名":"字赤石","地番":"519-4","精度区分":null,"座標系":"任意座標系"}},{"type":"Polygon","arcs":[[463,464]],"properties":{"市区町村名":"奥尻郡奥尻町","大字名":null,"丁目名":null,"小字名":"字赤石","地番":"524-3","精度区分":null,"座標系":"任意座標系"}},{"type":"Polygon","arcs":[[-464,465,466,467,468,469]],"properties":{"市区町村名":"奥尻郡奥尻町","大字名":null,"丁目名":null,"小字名":"字赤石","地番":"523-2","精度区分":null,"座標系":"任意座標系"}},{"type":"Polygon","arcs":[[-348,470,-470,471]],"properties":{"市区町村名":"奥尻郡奥尻町","大字名":null,"丁目名":null,"小字名":"字赤石","地番":"524-4","精度区分":null,"座標系":"任意座標系"}},{"type":"Polygon","arcs":[[-349,-472,-469,472]],"properties":{"市区町村名":"奥尻郡奥尻町","大字名":null,"丁目名":null,"小字名":"字赤石","地番":"524-6","精度区分":null,"座標系":"任意座標系"}},{"type":"Polygon","arcs":[[-473,-468,473,474,-350]],"properties":{"市区町村名":"奥尻郡奥尻町","大字名":null,"丁目名":null,"小字名":"字赤石","地番":"524-5","精度区分":null,"座標系":"任意座標系"}},{"type":"Polygon","arcs":[[475,-351,-475]],"properties":{"市区町村名":"奥尻郡奥尻町","大字名":null,"丁目名":null,"小字名":"字赤石","地番":"524-2","精度区分":null,"座標系":"任意座標系"}},{"type":"Polygon","arcs":[[-467,476,-352,-476,-474]],"properties":{"市区町村名":"奥尻郡奥尻町","大字名":null,"丁目名":null,"小字名":"字赤石","地番":"523-1","精度区分":null,"座標系":"任意座標系"}},{"type":"Polygon","arcs":[[477,-353,-477,-466,-465,-471,-347]],"properties":{"市区町村名":"奥尻郡奥尻町","大字名":null,"丁目名":null,"小字名":"字赤石","地番":"524-1","精度区分":null,"座標系":"任意座標系"}},{"type":"Polygon","arcs":[[-356,478,479]],"properties":{"市区町村名":"奥尻郡奥尻町","大字名":null,"丁目名":null,"小字名":"字赤石","地番":"518","精度区分":null,"座標系":"任意座標系"}},{"type":"Polygon","arcs":[[-357,-480,480,481]],"properties":{"市区町村名":"奥尻郡奥尻町","大字名":null,"丁目名":null,"小字名":"字赤石","地番":"519-2","精度区分":null,"座標系":"任意座標系"}},{"type":"Polygon","arcs":[[-358,-482,482,-462,483]],"properties":{"市区町村名":"奥尻郡奥尻町","大字名":null,"丁目名":null,"小字名":"字赤石","地番":"519-3","精度区分":null,"座標系":"任意座標系"}},{"type":"Polygon","arcs":[[-463,-483,-481,-479,-355,484,-362,485,-456,486,487,-359,-484]],"properties":{"市区町村名":"奥尻郡奥尻町","大字名":null,"丁目名":null,"小字名":"字赤石","地番":"519-1","精度区分":null,"座標系":"任意座標系"}},{"type":"Polygon","arcs":[[488,-360,-488]],"properties":{"市区町村名":"奥尻郡奥尻町","大字名":null,"丁目名":null,"小字名":"字赤石","地番":"521-1","精度区分":null,"座標系":"任意座標系"}},{"type":"Polygon","arcs":[[-455,-453,-454,-486,-361,-489,-487]],"properties":{"市区町村名":"奥尻郡奥尻町","大字名":null,"丁目名":null,"小字名":"字赤石","地番":"521-5","精度区分":null,"座標系":"任意座標系"}},{"type":"Polygon","arcs":[[-11,489,-367]],"properties":{"市区町村名":"奥尻郡奥尻町","大字名":null,"丁目名":null,"小字名":"字赤石","地番":"512","精度区分":null,"座標系":"任意座標系"}},{"type":"Polygon","arcs":[[-332,490,491]],"properties":{"市区町村名":"奥尻郡奥尻町","大字名":null,"丁目名":null,"小字名":"字赤石","地番":"514","精度区分":null,"座標系":"任意座標系"}},{"type":"Polygon","arcs":[[-333,-492,492,493]],"properties":{"市区町村名":"奥尻郡奥尻町","大字名":null,"丁目名":null,"小字名":"字赤石","地番":"無地番-2","精度区分":null,"座標系":"任意座標系"}},{"type":"Polygon","arcs":[[-334,-494,494,-457]],"properties":{"市区町村名":"奥尻郡奥尻町","大字名":null,"丁目名":null,"小字名":"字赤石","地番":"515-3","精度区分":null,"座標系":"任意座標系"}},{"type":"Polygon","arcs":[[495,-364,496]],"properties":{"市区町村名":"奥尻郡奥尻町","大字名":null,"丁目名":null,"小字名":"字赤石","地番":"516","精度区分":null,"座標系":"任意座標系"}},{"type":"Polygon","arcs":[[-365,-496,497]],"properties":{"市区町村名":"奥尻郡奥尻町","大字名":null,"丁目名":null,"小字名":"字赤石","地番":"517","精度区分":null,"座標系":"任意座標系"}},{"type":"Polygon","arcs":[[-370,498]],"properties":{"市区町村名":"奥尻郡奥尻町","大字名":null,"丁目名":null,"小字名":"字赤石","地番":"510","精度区分":null,"座標系":"任意座標系"}},{"type":"Polygon","arcs":[[-345,499]],"properties":{"市区町村名":"奥尻郡奥尻町","大字名":null,"丁目名":null,"小字名":"字赤石","地番":"522","精度区分":null,"座標系":"任意座標系"}},{"type":"Polygon","arcs":[[-346,-500,-344,500,-371,-499,-369,-13,-366,-498,-497,-363,-485,-354,-478]],"properties":{"市区町村名":"奥尻郡奥尻町","大字名":null,"丁目名":null,"小字名":"字赤石","地番":"水-11","精度区分":null,"座標系":"任意座標系"}},{"type":"Polygon","arcs":[[-372,-501,-343]],"properties":{"市区町村名":"奥尻郡奥尻町","大字名":null,"丁目名":null,"小字名":"字赤石","地番":"509","精度区分":null,"座標系":"任意座標系"}},{"type":"Polygon","arcs":[[501,-340,-461,-338,502]],"properties":{"市区町村名":"奥尻郡奥尻町","大字名":null,"丁目名":null,"小字名":"字赤石","地番":"長狭物不明-11","精度区分":null,"座標系":"任意座標系"}},{"type":"Polygon","arcs":[[-503,-337,503,-231]],"properties":{"市区町村名":"奥尻郡奥尻町","大字名":null,"丁目名":null,"小字名":"字赤石","地番":"526","精度区分":null,"座標系":"任意座標系"}},{"type":"Polygon","arcs":[[504,505,506,-229]],"properties":{"市区町村名":"奥尻郡奥尻町","大字名":null,"丁目名":null,"小字名":"字赤石","地番":"長狭物不明-12","精度区分":null,"座標系":"任意座標系"}},{"type":"Polygon","arcs":[[-225,507]],"properties":{"市区町村名":"奥尻郡奥尻町","大字名":null,"丁目名":null,"小字名":"字赤石","地番":"長狭物不明-13","精度区分":null,"座標系":"任意座標系"}},{"type":"Polygon","arcs":[[508,-30,509,-99]],"properties":{"市区町村名":"奥尻郡奥尻町","大字名":null,"丁目名":null,"小字名":"字赤石","地番":"477","精度区分":null,"座標系":"任意座標系"}},{"type":"Polygon","arcs":[[510,-100,-510,-29]],"properties":{"市区町村名":"奥尻郡奥尻町","大字名":null,"丁目名":null,"小字名":"字赤石","地番":"476","精度区分":null,"座標系":"任意座標系"}},{"type":"Polygon","arcs":[[-101,-511,-34,511]],"properties":{"市区町村名":"奥尻郡奥尻町","大字名":null,"丁目名":null,"小字名":"字赤石","地番":"475","精度区分":null,"座標系":"任意座標系"}},{"type":"Polygon","arcs":[[512,513,514,515,516]],"properties":{"市区町村名":"奥尻郡奥尻町","大字名":null,"丁目名":null,"小字名":"字赤石","地番":"489","精度区分":null,"座標系":"任意座標系"}},{"type":"Polygon","arcs":[[517,518,519]],"properties":{"市区町村名":"奥尻郡奥尻町","大字名":null,"丁目名":null,"小字名":"字赤石","地番":"481","精度区分":null,"座標系":"任意座標系"}},{"type":"Polygon","arcs":[[520,521,-518,522]],"properties":{"市区町村名":"奥尻郡奥尻町","大字名":null,"丁目名":null,"小字名":"字赤石","地番":"483","精度区分":null,"座標系":"任意座標系"}},{"type":"Polygon","arcs":[[523,-521,524,525]],"properties":{"市区町村名":"奥尻郡奥尻町","大字名":null,"丁目名":null,"小字名":"字赤石","地番":"480","精度区分":null,"座標系":"任意座標系"}},{"type":"Polygon","arcs":[[526,-31,-509,-98]],"properties":{"市区町村名":"奥尻郡奥尻町","大字名":null,"丁目名":null,"小字名":"字赤石","地番":"478","精度区分":null,"座標系":"任意座標系"}},{"type":"Polygon","arcs":[[527,528,-514,529]],"properties":{"市区町村名":"奥尻郡奥尻町","大字名":null,"丁目名":null,"小字名":"字赤石","地番":"488","精度区分":null,"座標系":"任意座標系"}},{"type":"Polygon","arcs":[[530,-520,531,532,-528,533]],"properties":{"市区町村名":"奥尻郡奥尻町","大字名":null,"丁目名":null,"小字名":"字赤石","地番":"482","精度区分":null,"座標系":"任意座標系"}},{"type":"Polygon","arcs":[[534,535,-534,-530,-513,536,537,538]],"properties":{"市区町村名":"奥尻郡奥尻町","大字名":null,"丁目名":null,"小字名":"字赤石","地番":"487-1","精度区分":null,"座標系":"任意座標系"}},{"type":"Polygon","arcs":[[539,540,-535]],"properties":{"市区町村名":"奥尻郡奥尻町","大字名":null,"丁目名":null,"小字名":"字赤石","地番":"487-2","精度区分":null,"座標系":"任意座標系"}},{"type":"Polygon","arcs":[[541,-540,542]],"properties":{"市区町村名":"奥尻郡奥尻町","大字名":null,"丁目名":null,"小字名":"字赤石","地番":"486-2","精度区分":null,"座標系":"任意座標系"}},{"type":"Polygon","arcs":[[-525,-523,-531,-536,-541,-542,543,544]],"properties":{"市区町村名":"奥尻郡奥尻町","大字名":null,"丁目名":null,"小字名":"字赤石","地番":"484","精度区分":null,"座標系":"任意座標系"}},{"type":"Polygon","arcs":[[545,-544,-543,-539,546,547,548]],"properties":{"市区町村名":"奥尻郡奥尻町","大字名":null,"丁目名":null,"小字名":"字赤石","地番":"486-1","精度区分":null,"座標系":"任意座標系"}},{"type":"Polygon","arcs":[[-25,549,-526,-545,-546,550]],"properties":{"市区町村名":"奥尻郡奥尻町","大字名":null,"丁目名":null,"小字名":"字赤石","地番":"485","精度区分":null,"座標系":"任意座標系"}},{"type":"Polygon","arcs":[[-26,-551,-549,551]],"properties":{"市区町村名":"奥尻郡奥尻町","大字名":null,"丁目名":null,"小字名":"字赤石","地番":"472","精度区分":null,"座標系":"任意座標系"}},{"type":"Polygon","arcs":[[-102,-512,-33,552,-532,-519,-522,-524,-550,-24]],"properties":{"市区町村名":"奥尻郡奥尻町","大字名":null,"丁目名":null,"小字名":"字赤石","地番":"474","精度区分":null,"座標系":"任意座標系"}},{"type":"Polygon","arcs":[[553,554,555,556,-104,557,558]],"properties":{"市区町村名":"奥尻郡奥尻町","大字名":null,"丁目名":null,"小字名":"字赤石","地番":"469","精度区分":null,"座標系":"任意座標系"}},{"type":"Polygon","arcs":[[559,-555,560,561]],"properties":{"市区町村名":"奥尻郡奥尻町","大字名":null,"丁目名":null,"小字名":"字赤石","地番":"467","精度区分":null,"座標系":"任意座標系"}},{"type":"Polygon","arcs":[[562,563,564,-105,-557,565]],"properties":{"市区町村名":"奥尻郡奥尻町","大字名":null,"丁目名":null,"小字名":"字赤石","地番":"463","精度区分":null,"座標系":"任意座標系"}},{"type":"Polygon","arcs":[[566,567,568,-564]],"properties":{"市区町村名":"奥尻郡奥尻町","大字名":null,"丁目名":null,"小字名":"字赤石","地番":"461","精度区分":null,"座標系":"任意座標系"}},{"type":"Polygon","arcs":[[569,-566,-556,-560,570,-110]],"properties":{"市区町村名":"奥尻郡奥尻町","大字名":null,"丁目名":null,"小字名":"字赤石","地番":"464","精度区分":null,"座標系":"任意座標系"}},{"type":"Polygon","arcs":[[571,-567,-563,-570,-109]],"properties":{"市区町村名":"奥尻郡奥尻町","大字名":null,"丁目名":null,"小字名":"字赤石","地番":"460","精度区分":null,"座標系":"任意座標系"}},{"type":"Polygon","arcs":[[-569,572,-106,-565]],"properties":{"市区町村名":"奥尻郡奥尻町","大字名":null,"丁目名":null,"小字名":"字赤石","地番":"462","精度区分":null,"座標系":"任意座標系"}},{"type":"Polygon","arcs":[[573,-107,-573,-568]],"properties":{"市区町村名":"奥尻郡奥尻町","大字名":null,"丁目名":null,"小字名":"字赤石","地番":"459","精度区分":null,"座標系":"任意座標系"}},{"type":"Polygon","arcs":[[-574,-572,-108]],"properties":{"市区町村名":"奥尻郡奥尻町","大字名":null,"丁目名":null,"小字名":"字赤石","地番":"458","精度区分":null,"座標系":"任意座標系"}},{"type":"Polygon","arcs":[[574,575,576,577,578,-96]],"properties":{"市区町村名":"奥尻郡奥尻町","大字名":null,"丁目名":null,"小字名":"字赤石","地番":"450","精度区分":null,"座標系":"任意座標系"}},{"type":"Polygon","arcs":[[579,-73,580]],"properties":{"市区町村名":"奥尻郡奥尻町","大字名":null,"丁目名":null,"小字名":"字赤石","地番":"446-1","精度区分":null,"座標系":"任意座標系"}},{"type":"Polygon","arcs":[[581,582,583,584,585,586,587,588,-80,589,590,591,592,593,594,-581,-72]],"properties":{"市区町村名":"奥尻郡奥尻町","大字名":null,"丁目名":null,"小字名":"字赤石","地番":"446-21","精度区分":null,"座標系":"任意座標系"}},{"type":"Polygon","arcs":[[595,596,597,598]],"properties":{"市区町村名":"奥尻郡奥尻町","大字名":null,"丁目名":null,"小字名":"字赤石","地番":"495-3","精度区分":null,"座標系":"任意座標系"}},{"type":"Polygon","arcs":[[599,600,-597,601]],"properties":{"市区町村名":"奥尻郡奥尻町","大字名":null,"丁目名":null,"小字名":"字赤石","地番":"495-1","精度区分":null,"座標系":"任意座標系"}},{"type":"Polygon","arcs":[[602,603,604,-600]],"properties":{"市区町村名":"奥尻郡奥尻町","大字名":null,"丁目名":null,"小字名":"字赤石","地番":"494-1","精度区分":null,"座標系":"任意座標系"}},{"type":"Polygon","arcs":[[-516,605,-604,606,607]],"properties":{"市区町村名":"奥尻郡奥尻町","大字名":null,"丁目名":null,"小字名":"字赤石","地番":"490","精度区分":null,"座標系":"任意座標系"}},{"type":"Polygon","arcs":[[-537,-517,-608,608,609]],"properties":{"市区町村名":"奥尻郡奥尻町","大字名":null,"丁目名":null,"小字名":"字赤石","地番":"491","精度区分":null,"座標系":"任意座標系"}},{"type":"Polygon","arcs":[[-20,610,-609,-607,-603,611]],"properties":{"市区町村名":"奥尻郡奥尻町","大字名":null,"丁目名":null,"小字名":"字赤石","地番":"494-2","精度区分":null,"座標系":"任意座標系"}},{"type":"Polygon","arcs":[[-547,-538,-610,-611,-19,612,613]],"properties":{"市区町村名":"奥尻郡奥尻町","大字名":null,"丁目名":null,"小字名":"字赤石","地番":"492","精度区分":null,"座標系":"任意座標系"}},{"type":"Polygon","arcs":[[614,-613,-18,615]],"properties":{"市区町村名":"奥尻郡奥尻町","大字名":null,"丁目名":null,"小字名":"字赤石","地番":"493","精度区分":null,"座標系":"任意座標系"}},{"type":"Polygon","arcs":[[616,-27,-552,-548,-614,-615,617]],"properties":{"市区町村名":"奥尻郡奥尻町","大字名":null,"丁目名":null,"小字名":"字赤石","地番":"471","精度区分":null,"座標系":"任意座標系"}},{"type":"Polygon","arcs":[[618,-558,-103,-28,-617,619]],"properties":{"市区町村名":"奥尻郡奥尻町","大字名":null,"丁目名":null,"小字名":"字赤石","地番":"470","精度区分":null,"座標系":"任意座標系"}},{"type":"Polygon","arcs":[[620,-559,-619,621]],"properties":{"市区町村名":"奥尻郡奥尻町","大字名":null,"丁目名":null,"小字名":"字赤石","地番":"468","精度区分":null,"座標系":"任意座標系"}},{"type":"Polygon","arcs":[[622,-561,-554,-621,623]],"properties":{"市区町村名":"奥尻郡奥尻町","大字名":null,"丁目名":null,"小字名":"字赤石","地番":"466","精度区分":null,"座標系":"任意座標系"}},{"type":"Polygon","arcs":[[-111,-571,-562,-623,624]],"properties":{"市区町村名":"奥尻郡奥尻町","大字名":null,"丁目名":null,"小字名":"字赤石","地番":"465","精度区分":null,"座標系":"任意座標系"}},{"type":"Polygon","arcs":[[625,-599,626,-15]],"properties":{"市区町村名":"奥尻郡奥尻町","大字名":null,"丁目名":null,"小字名":"字赤石","地番":"496-1","精度区分":null,"座標系":"任意座標系"}},{"type":"Polygon","arcs":[[627,-21,-612,-602,-596,-626,-14,628]],"properties":{"市区町村名":"奥尻郡奥尻町","大字名":null,"丁目名":null,"小字名":"字赤石","地番":"495-2","精度区分":null,"座標系":"任意座標系"}},{"type":"Polygon","arcs":[[629,-67]],"properties":{"市区町村名":"奥尻郡奥尻町","大字名":null,"丁目名":null,"小字名":"字赤石","地番":"457","精度区分":null,"座標系":"任意座標系"}},{"type":"Polygon","arcs":[[630,-68,-630,-66]],"properties":{"市区町村名":"奥尻郡奥尻町","大字名":null,"丁目名":null,"小字名":"字赤石","地番":"455","精度区分":null,"座標系":"任意座標系"}},{"type":"Polygon","arcs":[[-368,-490,-10]],"properties":{"市区町村名":"奥尻郡奥尻町","大字名":null,"丁目名":null,"小字名":"字赤石","地番":"513","精度区分":null,"座標系":"任意座標系"}},{"type":"Polygon","arcs":[[631,-325]],"properties":{"市区町村名":"奥尻郡奥尻町","大字名":null,"丁目名":null,"小字名":"字赤石","地番":"503","精度区分":null,"座標系":"任意座標系"}},{"type":"Polygon","arcs":[[632,-629,-17,-330,633]],"properties":{"市区町村名":"奥尻郡奥尻町","大字名":null,"丁目名":null,"小字名":"字赤石","地番":"500","精度区分":null,"座標系":"任意座標系"}},{"type":"Polygon","arcs":[[-112,-625,-624,-622,-620,-618,-616,-22,-628,-633,634]],"properties":{"市区町村名":"奥尻郡奥尻町","大字名":null,"丁目名":null,"小字名":"字赤石","地番":"498","精度区分":null,"座標系":"任意座標系"}},{"type":"Polygon","arcs":[[-113,-635,-634,-329,635,636,-326,637]],"properties":{"市区町村名":"奥尻郡奥尻町","大字名":null,"丁目名":null,"小字名":"字赤石","地番":"水-12","精度区分":null,"座標系":"任意座標系"}},{"type":"Polygon","arcs":[[638,-636,-328]],"properties":{"市区町村名":"奥尻郡奥尻町","大字名":null,"丁目名":null,"小字名":"字赤石","地番":"501","精度区分":null,"座標系":"任意座標系"}},{"type":"Polygon","arcs":[[-637,-639,-327]],"properties":{"市区町村名":"奥尻郡奥尻町","大字名":null,"丁目名":null,"小字名":"字赤石","地番":"502","精度区分":null,"座標系":"任意座標系"}},{"type":"Polygon","arcs":[[639,-323]],"properties":{"市区町村名":"奥尻郡奥尻町","大字名":null,"丁目名":null,"小字名":"字赤石","地番":"504","精度区分":null,"座標系":"任意座標系"}},{"type":"Polygon","arcs":[[640,641]],"properties":{"市区町村名":"奥尻郡奥尻町","大字名":null,"丁目名":null,"小字名":"字赤石","地番":"442-10","精度区分":null,"座標系":"任意座標系"}},{"type":"Polygon","arcs":[[642,643,644]],"properties":{"市区町村名":"奥尻郡奥尻町","大字名":null,"丁目名":null,"小字名":"字赤石","地番":"442-7","精度区分":null,"座標系":"任意座標系"}},{"type":"Polygon","arcs":[[645,646,647,648]],"properties":{"市区町村名":"奥尻郡奥尻町","大字名":null,"丁目名":null,"小字名":"字赤石","地番":"379-5","精度区分":null,"座標系":"任意座標系"}},{"type":"Polygon","arcs":[[649,650,651]],"properties":{"市区町村名":"奥尻郡奥尻町","大字名":null,"丁目名":null,"小字名":"字赤石","地番":"424","精度区分":null,"座標系":"任意座標系"}},{"type":"Polygon","arcs":[[652,653]],"properties":{"市区町村名":"奥尻郡奥尻町","大字名":null,"丁目名":null,"小字名":"字赤石","地番":"378","精度区分":null,"座標系":"任意座標系"}},{"type":"Polygon","arcs":[[654,-121]],"properties":{"市区町村名":"奥尻郡奥尻町","大字名":null,"丁目名":null,"小字名":"字赤石","地番":"375","精度区分":null,"座標系":"任意座標系"}},{"type":"Polygon","arcs":[[655,656,-123,657]],"properties":{"市区町村名":"奥尻郡奥尻町","大字名":null,"丁目名":null,"小字名":"字赤石","地番":"無地番-4","精度区分":null,"座標系":"任意座標系"}},{"type":"Polygon","arcs":[[658,-654,659,-656,660]],"properties":{"市区町村名":"奥尻郡奥尻町","大字名":null,"丁目名":null,"小字名":"字赤石","地番":"377","精度区分":null,"座標系":"任意座標系"}},{"type":"Polygon","arcs":[[661,-661,-658,-122,-655,-120]],"properties":{"市区町村名":"奥尻郡奥尻町","大字名":null,"丁目名":null,"小字名":"字赤石","地番":"374","精度区分":null,"座標系":"任意座標系"}},{"type":"Polygon","arcs":[[662,663]],"properties":{"市区町村名":"奥尻郡奥尻町","大字名":null,"丁目名":null,"小字名":"字赤石","地番":"442-5","精度区分":null,"座標系":"任意座標系"}},{"type":"Polygon","arcs":[[664,665,666]],"properties":{"市区町村名":"奥尻郡奥尻町","大字名":null,"丁目名":null,"小字名":"字赤石","地番":"442-4","精度区分":null,"座標系":"任意座標系"}},{"type":"Polygon","arcs":[[667,668,669]],"properties":{"市区町村名":"奥尻郡奥尻町","大字名":null,"丁目名":null,"小字名":"字赤石","地番":"442-8","精度区分":null,"座標系":"任意座標系"}},{"type":"Polygon","arcs":[[670,-576]],"properties":{"市区町村名":"奥尻郡奥尻町","大字名":null,"丁目名":null,"小字名":"字赤石","地番":"448","精度区分":null,"座標系":"任意座標系"}},{"type":"Polygon","arcs":[[671,-577,-671,-575,-95]],"properties":{"市区町村名":"奥尻郡奥尻町","大字名":null,"丁目名":null,"小字名":"字赤石","地番":"449","精度区分":null,"座標系":"任意座標系"}},{"type":"Polygon","arcs":[[672,673,674,675,-44,676,-5,677,678,679,680,681,682,683,684,685,686,687,688,689,690,691,-650,692,693,694,695,696,697,698,699,-670,700,-667,701,702,703,-93,704,-582,-71,705,706,707,708,709,-144,710,711,-137,712,713,714,715,-124,-657,-660,-653,-659,-662,716,717,718,719,720]],"properties":{"市区町村名":"奥尻郡奥尻町","大字名":null,"丁目名":null,"小字名":"字赤石","地番":"道-11","精度区分":null,"座標系":"任意座標系"}},{"type":"Polygon","arcs":[[-666,-664,721,722,723,-702]],"properties":{"市区町村名":"奥尻郡奥尻町","大字名":null,"丁目名":null,"小字名":"字赤石","地番":"442-1","精度区分":null,"座標系":"任意座標系"}},{"type":"Polygon","arcs":[[724,725,-723]],"properties":{"市区町村名":"奥尻郡奥尻町","大字名":null,"丁目名":null,"小字名":"字赤石","地番":"442-6","精度区分":null,"座標系":"任意座標系"}},{"type":"Polygon","arcs":[[-665,-701,-669,726,-644,-642,727,728,-725,-722,-663]],"properties":{"市区町村名":"奥尻郡奥尻町","大字名":null,"丁目名":null,"小字名":"字赤石","地番":"442-9","精度区分":null,"座標系":"任意座標系"}},{"type":"Polygon","arcs":[[729,730,731,-728]],"properties":{"市区町村名":"奥尻郡奥尻町","大字名":null,"丁目名":null,"小字名":"字赤石","地番":"442-2","精度区分":null,"座標系":"任意座標系"}},{"type":"Polygon","arcs":[[732,-731,733]],"properties":{"市区町村名":"奥尻郡奥尻町","大字名":null,"丁目名":null,"小字名":"字赤石","地番":"442-11","精度区分":null,"座標系":"任意座標系"}},{"type":"Polygon","arcs":[[734,-734,-730,-641,-643,735]],"properties":{"市区町村名":"奥尻郡奥尻町","大字名":null,"丁目名":null,"小字名":"字赤石","地番":"442-3","精度区分":null,"座標系":"任意座標系"}},{"type":"Polygon","arcs":[[-668,-700,736,737,-736,-645,-727]],"properties":{"市区町村名":"奥尻郡奥尻町","大字名":null,"丁目名":null,"小字名":"字赤石","地番":"水-13","精度区分":null,"座標系":"任意座標系"}},{"type":"Polygon","arcs":[[738,-737,-699]],"properties":{"市区町村名":"奥尻郡奥尻町","大字名":null,"丁目名":null,"小字名":"字赤石","地番":"368","精度区分":null,"座標系":"任意座標系"}},{"type":"Polygon","arcs":[[739,-131]],"properties":{"市区町村名":"奥尻郡奥尻町","大字名":null,"丁目名":null,"小字名":"字赤石","地番":"366-2","精度区分":null,"座標系":"任意座標系"}},{"type":"Polygon","arcs":[[740,-129]],"properties":{"市区町村名":"奥尻郡奥尻町","大字名":null,"丁目名":null,"小字名":"字赤石","地番":"366-3","精度区分":null,"座標系":"任意座標系"}},{"type":"Polygon","arcs":[[-696,741,742,743]],"properties":{"市区町村名":"奥尻郡奥尻町","大字名":null,"丁目名":null,"小字名":"字赤石","地番":"長狭物不明-14","精度区分":null,"座標系":"任意座標系"}},{"type":"Polygon","arcs":[[-744,744,-697]],"properties":{"市区町村名":"奥尻郡奥尻町","大字名":null,"丁目名":null,"小字名":"字赤石","地番":"369","精度区分":null,"座標系":"任意座標系"}},{"type":"Polygon","arcs":[[-695,745,-742]],"properties":{"市区町村名":"奥尻郡奥尻町","大字名":null,"丁目名":null,"小字名":"字赤石","地番":"371","精度区分":null,"座標系":"任意座標系"}},{"type":"Polygon","arcs":[[-652,746,-693]],"properties":{"市区町村名":"奥尻郡奥尻町","大字名":null,"丁目名":null,"小字名":"字赤石","地番":"425","精度区分":null,"座標系":"任意座標系"}},{"type":"Polygon","arcs":[[747,748,-691,749]],"properties":{"市区町村名":"奥尻郡奥尻町","大字名":null,"丁目名":null,"小字名":"字赤石","地番":"379-3","精度区分":null,"座標系":"任意座標系"}},{"type":"Polygon","arcs":[[750,-647,751,-750,-690]],"properties":{"市区町村名":"奥尻郡奥尻町","大字名":null,"丁目名":null,"小字名":"字赤石","地番":"379-2","精度区分":null,"座標系":"任意座標系"}},{"type":"Polygon","arcs":[[752,-648,-751,-689]],"properties":{"市区町村名":"奥尻郡奥尻町","大字名":null,"丁目名":null,"小字名":"字赤石","地番":"379-4","精度区分":null,"座標系":"任意座標系"}},{"type":"Polygon","arcs":[[753,-649,-753,-688]],"properties":{"市区町村名":"奥尻郡奥尻町","大字名":null,"丁目名":null,"小字名":"字赤石","地番":"379-1","精度区分":null,"座標系":"任意座標系"}},{"type":"Polygon","arcs":[[754,755,-748,-752,-646,-754,-687]],"properties":{"市区町村名":"奥尻郡奥尻町","大字名":null,"丁目名":null,"小字名":"字赤石","地番":"380","精度区分":null,"座標系":"任意座標系"}},{"type":"Polygon","arcs":[[756,757,-755,-686]],"properties":{"市区町村名":"奥尻郡奥尻町","大字名":null,"丁目名":null,"小字名":"字赤石","地番":"381","精度区分":null,"座標系":"任意座標系"}},{"type":"Polygon","arcs":[[-685,758,759,760,761,762,-757]],"properties":{"市区町村名":"奥尻郡奥尻町","大字名":null,"丁目名":null,"小字名":"字赤石","地番":"382","精度区分":null,"座標系":"任意座標系"}},{"type":"Polygon","arcs":[[-684,763,-682,764,765,-759]],"properties":{"市区町村名":"奥尻郡奥尻町","大字名":null,"丁目名":null,"小字名":"字赤石","地番":"383-1","精度区分":null,"座標系":"任意座標系"}},{"type":"Polygon","arcs":[[766,767,-140]],"properties":{"市区町村名":"奥尻郡奥尻町","大字名":null,"丁目名":null,"小字名":"字赤石","地番":"367-5","精度区分":null,"座標系":"任意座標系"}},{"type":"Polygon","arcs":[[-768,768,-141]],"properties":{"市区町村名":"奥尻郡奥尻町","大字名":null,"丁目名":null,"小字名":"字赤石","地番":"367-4","精度区分":null,"座標系":"任意座標系"}},{"type":"Polygon","arcs":[[769,770,-142,-769,-767,-139]],"properties":{"市区町村名":"奥尻郡奥尻町","大字名":null,"丁目名":null,"小字名":"字赤石","地番":"367-3","精度区分":null,"座標系":"任意座標系"}},{"type":"Polygon","arcs":[[-152,771]],"properties":{"市区町村名":"奥尻郡奥尻町","大字名":null,"丁目名":null,"小字名":"字赤石","地番":"443-4","精度区分":null,"座標系":"任意座標系"}},{"type":"Polygon","arcs":[[-153,-772,-151,772,773]],"properties":{"市区町村名":"奥尻郡奥尻町","大字名":null,"丁目名":null,"小字名":"字赤石","地番":"443-3","精度区分":null,"座標系":"任意座標系"}},{"type":"Polygon","arcs":[[-149,774,775]],"properties":{"市区町村名":"奥尻郡奥尻町","大字名":null,"丁目名":null,"小字名":"字赤石","地番":"443-7","精度区分":null,"座標系":"任意座標系"}},{"type":"Polygon","arcs":[[-773,-150,-776,776,777]],"properties":{"市区町村名":"奥尻郡奥尻町","大字名":null,"丁目名":null,"小字名":"字赤石","地番":"443-9","精度区分":null,"座標系":"任意座標系"}},{"type":"Polygon","arcs":[[-774,-778,778,779,780]],"properties":{"市区町村名":"奥尻郡奥尻町","大字名":null,"丁目名":null,"小字名":"字赤石","地番":"443-2","精度区分":null,"座標系":"任意座標系"}},{"type":"Polygon","arcs":[[-154,-781,781]],"properties":{"市区町村名":"奥尻郡奥尻町","大字名":null,"丁目名":null,"小字名":"字赤石","地番":"444","精度区分":null,"座標系":"任意座標系"}},{"type":"Polygon","arcs":[[-145,-710,782]],"properties":{"市区町村名":"奥尻郡奥尻町","大字名":null,"丁目名":null,"小字名":"字赤石","地番":"443-5","精度区分":null,"座標系":"任意座標系"}},{"type":"Polygon","arcs":[[783,-711,-143,-771]],"properties":{"市区町村名":"奥尻郡奥尻町","大字名":null,"丁目名":null,"小字名":"字赤石","地番":"367-1","精度区分":null,"座標系":"任意座標系"}},{"type":"Polygon","arcs":[[-712,-784,-770,-138]],"properties":{"市区町村名":"奥尻郡奥尻町","大字名":null,"丁目名":null,"小字名":"字赤石","地番":"367-2","精度区分":null,"座標系":"任意座標系"}},{"type":"Polygon","arcs":[[784,785,-714]],"properties":{"市区町村名":"奥尻郡奥尻町","大字名":null,"丁目名":null,"小字名":"字赤石","地番":"372-1","精度区分":null,"座標系":"任意座標系"}},{"type":"Polygon","arcs":[[-785,-713,-136,786]],"properties":{"市区町村名":"奥尻郡奥尻町","大字名":null,"丁目名":null,"小字名":"字赤石","地番":"372-2","精度区分":null,"座標系":"任意座標系"}},{"type":"Polygon","arcs":[[787,-715,-786,-787,-135]],"properties":{"市区町村名":"奥尻郡奥尻町","大字名":null,"丁目名":null,"小字名":"字赤石","地番":"長狭物不明-15","精度区分":null,"座標系":"任意座標系"}},{"type":"Polygon","arcs":[[788,-133,789,790]],"properties":{"市区町村名":"奥尻郡奥尻町","大字名":null,"丁目名":null,"小字名":"字赤石","地番":"366-1","精度区分":null,"座標系":"任意座標系"}},{"type":"Polygon","arcs":[[791,792,793,794,795,796,797,798,-588]],"properties":{"市区町村名":"奥尻郡奥尻町","大字名":null,"丁目名":null,"小字名":"字赤石","地番":"446-20","精度区分":null,"座標系":"任意座標系"}},{"type":"Polygon","arcs":[[799,-78,800,-591]],"properties":{"市区町村名":"奥尻郡奥尻町","大字名":null,"丁目名":null,"小字名":"字赤石","地番":"446-6","精度区分":null,"座標系":"任意座標系"}},{"type":"Polygon","arcs":[[-79,-800,-590]],"properties":{"市区町村名":"奥尻郡奥尻町","大字名":null,"丁目名":null,"小字名":"字赤石","地番":"446-7","精度区分":null,"座標系":"任意座標系"}},{"type":"Polygon","arcs":[[801,-81,-589,-799]],"properties":{"市区町村名":"奥尻郡奥尻町","大字名":null,"丁目名":null,"小字名":"字赤石","地番":"446-8","精度区分":null,"座標系":"任意座標系"}},{"type":"Polygon","arcs":[[802,-82,-802,-798]],"properties":{"市区町村名":"奥尻郡奥尻町","大字名":null,"丁目名":null,"小字名":"字赤石","地番":"446-9","精度区分":null,"座標系":"任意座標系"}},{"type":"Polygon","arcs":[[803,-83,-803,-797]],"properties":{"市区町村名":"奥尻郡奥尻町","大字名":null,"丁目名":null,"小字名":"字赤石","地番":"446-10","精度区分":null,"座標系":"任意座標系"}},{"type":"Polygon","arcs":[[804,-84,-804,-796]],"properties":{"市区町村名":"奥尻郡奥尻町","大字名":null,"丁目名":null,"小字名":"字赤石","地番":"446-11","精度区分":null,"座標系":"任意座標系"}},{"type":"Polygon","arcs":[[805,-85,-805,-795]],"properties":{"市区町村名":"奥尻郡奥尻町","大字名":null,"丁目名":null,"小字名":"字赤石","地番":"446-12","精度区分":null,"座標系":"任意座標系"}},{"type":"Polygon","arcs":[[806,-86,-806,-794]],"properties":{"市区町村名":"奥尻郡奥尻町","大字名":null,"丁目名":null,"小字名":"字赤石","地番":"446-13","精度区分":null,"座標系":"任意座標系"}},{"type":"Polygon","arcs":[[807,-87,-807,-793]],"properties":{"市区町村名":"奥尻郡奥尻町","大字名":null,"丁目名":null,"小字名":"字赤石","地番":"446-14","精度区分":null,"座標系":"任意座標系"}},{"type":"Polygon","arcs":[[808,-88,-808,-792,-587]],"properties":{"市区町村名":"奥尻郡奥尻町","大字名":null,"丁目名":null,"小字名":"字赤石","地番":"446-15","精度区分":null,"座標系":"任意座標系"}},{"type":"Polygon","arcs":[[-586,809,-89,-809]],"properties":{"市区町村名":"奥尻郡奥尻町","大字名":null,"丁目名":null,"小字名":"字赤石","地番":"446-16","精度区分":null,"座標系":"任意座標系"}},{"type":"Polygon","arcs":[[810,-90,-810,-585]],"properties":{"市区町村名":"奥尻郡奥尻町","大字名":null,"丁目名":null,"小字名":"字赤石","地番":"446-17","精度区分":null,"座標系":"任意座標系"}},{"type":"Polygon","arcs":[[-584,811,-91,-811]],"properties":{"市区町村名":"奥尻郡奥尻町","大字名":null,"丁目名":null,"小字名":"字赤石","地番":"446-18","精度区分":null,"座標系":"任意座標系"}},{"type":"Polygon","arcs":[[-583,-705,-92,-812]],"properties":{"市区町村名":"奥尻郡奥尻町","大字名":null,"丁目名":null,"小字名":"字赤石","地番":"446-19","精度区分":null,"座標系":"任意座標系"}},{"type":"Polygon","arcs":[[-790,-132,-740,-130,-741,-128,812]],"properties":{"市区町村名":"奥尻郡奥尻町","大字名":null,"丁目名":null,"小字名":"字赤石","地番":"366-4","精度区分":null,"座標系":"任意座標系"}},{"type":"Polygon","arcs":[[-801,-77,813,-592]],"properties":{"市区町村名":"奥尻郡奥尻町","大字名":null,"丁目名":null,"小字名":"字赤石","地番":"446-5","精度区分":null,"座標系":"任意座標系"}},{"type":"Polygon","arcs":[[-814,-76,814,-593]],"properties":{"市区町村名":"奥尻郡奥尻町","大字名":null,"丁目名":null,"小字名":"字赤石","地番":"446-4","精度区分":null,"座標系":"任意座標系"}},{"type":"Polygon","arcs":[[-815,-75,815,-594]],"properties":{"市区町村名":"奥尻郡奥尻町","大字名":null,"丁目名":null,"小字名":"字赤石","地番":"446-3","精度区分":null,"座標系":"任意座標系"}},{"type":"Polygon","arcs":[[-816,-74,-580,-595]],"properties":{"市区町村名":"奥尻郡奥尻町","大字名":null,"丁目名":null,"小字名":"字赤石","地番":"446-2","精度区分":null,"座標系":"任意座標系"}},{"type":"Polygon","arcs":[[-64,816]],"properties":{"市区町村名":"奥尻郡奥尻町","大字名":null,"丁目名":null,"小字名":"字赤石","地番":"452-2","精度区分":null,"座標系":"任意座標系"}},{"type":"Polygon","arcs":[[-817,-69,-631,-65]],"properties":{"市区町村名":"奥尻郡奥尻町","大字名":null,"丁目名":null,"小字名":"字赤石","地番":"452-1","精度区分":null,"座標系":"任意座標系"}},{"type":"Polygon","arcs":[[817,-813,818]],"properties":{"市区町村名":"奥尻郡奥尻町","大字名":null,"丁目名":null,"小字名":"字赤石","地番":"453-3","精度区分":null,"座標系":"任意座標系"}},{"type":"Polygon","arcs":[[-146,-783,-709,819]],"properties":{"市区町村名":"奥尻郡奥尻町","大字名":null,"丁目名":null,"小字名":"字赤石","地番":"443-6","精度区分":null,"座標系":"任意座標系"}},{"type":"Polygon","arcs":[[-820,-708,820,-147]],"properties":{"市区町村名":"奥尻郡奥尻町","大字名":null,"丁目名":null,"小字名":"字赤石","地番":"443-8","精度区分":null,"座標系":"任意座標系"}},{"type":"Polygon","arcs":[[-779,-777,-775,-148,-821,-707,821,822]],"properties":{"市区町村名":"奥尻郡奥尻町","大字名":null,"丁目名":null,"小字名":"字赤石","地番":"443-1","精度区分":null,"座標系":"任意座標系"}},{"type":"Polygon","arcs":[[-70,823,-822,-706]],"properties":{"市区町村名":"奥尻郡奥尻町","大字名":null,"丁目名":null,"小字名":"字赤石","地番":"445-1","精度区分":null,"座標系":"任意座標系"}},{"type":"Polygon","arcs":[[824,-155,-782,-780,-823,-824,-62]],"properties":{"市区町村名":"奥尻郡奥尻町","大字名":null,"丁目名":null,"小字名":"字赤石","地番":"445-2","精度区分":null,"座標系":"任意座標系"}},{"type":"Polygon","arcs":[[-819,-127,-825,-61,825]],"properties":{"市区町村名":"奥尻郡奥尻町","大字名":null,"丁目名":null,"小字名":"字赤石","地番":"453-2","精度区分":null,"座標系":"任意座標系"}},{"type":"Polygon","arcs":[[826,827,-721]],"properties":{"市区町村名":"奥尻郡奥尻町","大字名":null,"丁目名":null,"小字名":"字赤石","地番":"362","精度区分":null,"座標系":"任意座標系"}},{"type":"Polygon","arcs":[[828,829,830,-673,-828,831]],"properties":{"市区町村名":"奥尻郡奥尻町","大字名":null,"丁目名":null,"小字名":"字赤石","地番":"363-1","精度区分":null,"座標系":"任意座標系"}},{"type":"Polygon","arcs":[[832,-125,-716,-788,-134,-789]],"properties":{"市区町村名":"奥尻郡奥尻町","大字名":null,"丁目名":null,"小字名":"字赤石","地番":"373","精度区分":null,"座標系":"任意座標系"}},{"type":"Polygon","arcs":[[833,-126,-833,-791,-818,-826,-60,-380,-204]],"properties":{"市区町村名":"奥尻郡奥尻町","大字名":null,"丁目名":null,"小字名":"字赤石","地番":"453-1","精度区分":null,"座標系":"任意座標系"}},{"type":"Polygon","arcs":[[-401,834,-397]],"properties":{"市区町村名":"奥尻郡奥尻町","大字名":null,"丁目名":null,"小字名":"字赤石","地番":"358","精度区分":null,"座標系":"任意座標系"}},{"type":"Polygon","arcs":[[-719,835,836]],"properties":{"市区町村名":"奥尻郡奥尻町","大字名":null,"丁目名":null,"小字名":"字赤石","地番":"364","精度区分":null,"座標系":"任意座標系"}},{"type":"Polygon","arcs":[[-836,-718,837,838]],"properties":{"市区町村名":"奥尻郡奥尻町","大字名":null,"丁目名":null,"小字名":"字赤石","地番":"365","精度区分":null,"座標系":"任意座標系"}},{"type":"Polygon","arcs":[[839,840,-832,-827,-720,-837,-839,841,842]],"properties":{"市区町村名":"奥尻郡奥尻町","大字名":null,"丁目名":null,"小字名":"字赤石","地番":"360","精度区分":null,"座標系":"任意座標系"}},{"type":"Polygon","arcs":[[843,-843,844]],"properties":{"市区町村名":"奥尻郡奥尻町","大字名":null,"丁目名":null,"小字名":"字赤石","地番":"359","精度区分":null,"座標系":"任意座標系"}},{"type":"Polygon","arcs":[[-398,-835,-400,-845,-842,-838,-717,-119,-834,-203]],"properties":{"市区町村名":"奥尻郡奥尻町","大字名":null,"丁目名":null,"小字名":"字赤石","地番":"道-12","精度区分":null,"座標系":"任意座標系"}},{"type":"Polygon","arcs":[[-399,845,846,-840,-844]],"properties":{"市区町村名":"奥尻郡奥尻町","大字名":null,"丁目名":null,"小字名":"字赤石","地番":"361-2","精度区分":null,"座標系":"任意座標系"}},{"type":"Polygon","arcs":[[-680,847,848]],"properties":{"市区町村名":"奥尻郡奥尻町","大字名":null,"丁目名":null,"小字名":"字赤石","地番":"383-3","精度区分":null,"座標系":"任意座標系"}},{"type":"Polygon","arcs":[[-681,-849,849,-765]],"properties":{"市区町村名":"奥尻郡奥尻町","大字名":null,"丁目名":null,"小字名":"字赤石","地番":"383-2","精度区分":null,"座標系":"任意座標系"}},{"type":"Polygon","arcs":[[850,-761,851,-850]],"properties":{"市区町村名":"奥尻郡奥尻町","大字名":null,"丁目名":null,"小字名":"字赤石","地番":"385-2","精度区分":null,"座標系":"任意座標系"}},{"type":"Polygon","arcs":[[-852,-760,-766]],"properties":{"市区町村名":"奥尻郡奥尻町","大字名":null,"丁目名":null,"小字名":"字赤石","地番":"385-3","精度区分":null,"座標系":"任意座標系"}},{"type":"Polygon","arcs":[[-764,-683]],"properties":{"市区町村名":"奥尻郡奥尻町","大字名":null,"丁目名":null,"小字名":"字赤石","地番":"384","精度区分":null,"座標系":"任意座標系"}},{"type":"Polygon","arcs":[[852,-762,-851,-848,-679]],"properties":{"市区町村名":"奥尻郡奥尻町","大字名":null,"丁目名":null,"小字名":"字赤石","地番":"385-1","精度区分":null,"座標系":"任意座標系"}},{"type":"Polygon","arcs":[[-43,-6,-677]],"properties":{"市区町村名":"奥尻郡奥尻町","大字名":null,"丁目名":null,"小字名":"字赤石","地番":"386","精度区分":null,"座標系":"任意座標系"}},{"type":"Polygon","arcs":[[853,854,-199]],"properties":{"市区町村名":"奥尻郡奥尻町","大字名":null,"丁目名":null,"小字名":"字奥尻","地番":"679","精度区分":null,"座標系":"任意座標系"}},{"type":"Polygon","arcs":[[855,-197]],"properties":{"市区町村名":"奥尻郡奥尻町","大字名":null,"丁目名":null,"小字名":"字奥尻","地番":"692","精度区分":null,"座標系":"任意座標系"}},{"type":"Polygon","arcs":[[856,857,-846,-391]],"properties":{"市区町村名":"奥尻郡奥尻町","大字名":null,"丁目名":null,"小字名":"字赤石","地番":"361-6","精度区分":null,"座標系":"任意座標系"}},{"type":"Polygon","arcs":[[-829,-841,-847,858]],"properties":{"市区町村名":"奥尻郡奥尻町","大字名":null,"丁目名":null,"小字名":"字赤石","地番":"361-3","精度区分":null,"座標系":"任意座標系"}},{"type":"Polygon","arcs":[[859,860,-859,-858]],"properties":{"市区町村名":"奥尻郡奥尻町","大字名":null,"丁目名":null,"小字名":"字赤石","地番":"361-4","精度区分":null,"座標系":"任意座標系"}},{"type":"Polygon","arcs":[[-861,861,862,-830]],"properties":{"市区町村名":"奥尻郡奥尻町","大字名":null,"丁目名":null,"小字名":"字赤石","地番":"363-2","精度区分":null,"座標系":"任意座標系"}},{"type":"Polygon","arcs":[[-863,863,-674,-831]],"properties":{"市区町村名":"奥尻郡奥尻町","大字名":null,"丁目名":null,"小字名":"字赤石","地番":"363-3","精度区分":null,"座標系":"任意座標系"}},{"type":"Polygon","arcs":[[864,-675,-864,-862]],"properties":{"市区町村名":"奥尻郡奥尻町","大字名":null,"丁目名":null,"小字名":"字赤石","地番":"363-4","精度区分":null,"座標系":"任意座標系"}},{"type":"Polygon","arcs":[[-45,-676,-865,-860,865]],"properties":{"市区町村名":"奥尻郡奥尻町","大字名":null,"丁目名":null,"小字名":"字赤石","地番":"361-1","精度区分":null,"座標系":"任意座標系"}},{"type":"Polygon","arcs":[[-46,-866,-857,-55]],"properties":{"市区町村名":"奥尻郡奥尻町","大字名":null,"丁目名":null,"小字名":"字赤石","地番":"361-5","精度区分":null,"座標系":"任意座標系"}},{"type":"Polygon","arcs":[[-413,866,-191]],"properties":{"市区町村名":"奥尻郡奥尻町","大字名":null,"丁目名":null,"小字名":"字奥尻","地番":"693","精度区分":null,"座標系":"任意座標系"}},{"type":"Polygon","arcs":[[-856,-196,867,868,869,-854,-198]],"properties":{"市区町村名":"奥尻郡奥尻町","大字名":null,"丁目名":null,"小字名":"字奥尻","地番":"長狭物不明-16","精度区分":null,"座標系":"任意座標系"}},{"type":"Polygon","arcs":[[870,871,-868,-195]],"properties":{"市区町村名":"奥尻郡奥尻町","大字名":null,"丁目名":null,"小字名":"字奥尻","地番":"691","精度区分":null,"座標系":"任意座標系"}},{"type":"Polygon","arcs":[[872]],"properties":{"市区町村名":"奥尻郡奥尻町","大字名":null,"丁目名":null,"小字名":"字奥尻","地番":"690","精度区分":null,"座標系":"任意座標系"}},{"type":"Polygon","arcs":[[873,874,875,876]],"properties":{"市区町村名":"奥尻郡奥尻町","大字名":null,"丁目名":null,"小字名":"字奥尻","地番":"682","精度区分":null,"座標系":"任意座標系"}},{"type":"Polygon","arcs":[[-877,877]],"properties":{"市区町村名":"奥尻郡奥尻町","大字名":null,"丁目名":null,"小字名":"字奥尻","地番":"689","精度区分":null,"座標系":"任意座標系"}},{"type":"Polygon","arcs":[[878,-874,879]],"properties":{"市区町村名":"奥尻郡奥尻町","大字名":null,"丁目名":null,"小字名":"字奥尻","地番":"683","精度区分":null,"座標系":"任意座標系"}},{"type":"Polygon","arcs":[[-412,880,-192,-867]],"properties":{"市区町村名":"奥尻郡奥尻町","大字名":null,"丁目名":null,"小字名":"字奥尻","地番":"水-14","精度区分":null,"座標系":"任意座標系"}},{"type":"Polygon","arcs":[[881,882,883]],"properties":{"市区町村名":"奥尻郡奥尻町","大字名":null,"丁目名":null,"小字名":"字奥尻","地番":"681","精度区分":null,"座標系":"任意座標系"}},{"type":"Polygon","arcs":[[-872,884,-883,885,-869]],"properties":{"市区町村名":"奥尻郡奥尻町","大字名":null,"丁目名":null,"小字名":"字奥尻","地番":"680","精度区分":null,"座標系":"任意座標系"}},{"type":"Polygon","arcs":[[-171,886,887,-193,-881,-411]],"properties":{"市区町村名":"奥尻郡奥尻町","大字名":null,"丁目名":null,"小字名":"字奥尻","地番":"694","精度区分":null,"座標系":"任意座標系"}},{"type":"Polygon","arcs":[[-420,-439,-887,-170]],"properties":{"市区町村名":"奥尻郡奥尻町","大字名":null,"丁目名":null,"小字名":"字奥尻","地番":"長狭物不明-17","精度区分":null,"座標系":"任意座標系"}},{"type":"Polygon","arcs":[[888,889,890,891]],"properties":{"市区町村名":"奥尻郡奥尻町","大字名":null,"丁目名":null,"小字名":"字奥尻","地番":"688","精度区分":null,"座標系":"任意座標系"}},{"type":"Polygon","arcs":[[892,893,894]],"properties":{"市区町村名":"奥尻郡奥尻町","大字名":null,"丁目名":null,"小字名":"字奥尻","地番":"684","精度区分":null,"座標系":"任意座標系"}},{"type":"Polygon","arcs":[[895,896,-893,897]],"properties":{"市区町村名":"奥尻郡奥尻町","大字名":null,"丁目名":null,"小字名":"字奥尻","地番":"685","精度区分":null,"座標系":"任意座標系"}},{"type":"Polygon","arcs":[[-891,898,899,-896,900]],"properties":{"市区町村名":"奥尻郡奥尻町","大字名":null,"丁目名":null,"小字名":"字奥尻","地番":"686","精度区分":null,"座標系":"任意座標系"}},{"type":"Polygon","arcs":[[901,-2,-39,902,-899,-890]],"properties":{"市区町村名":"奥尻郡奥尻町","大字名":null,"丁目名":null,"小字名":"字奥尻","地番":"687","精度区分":null,"座標系":"任意座標系"}},{"type":"Polygon","arcs":[[903,904]],"properties":{"市区町村名":"奥尻郡奥尻町","大字名":null,"丁目名":null,"小字名":"字奥尻","地番":"695","精度区分":null,"座標系":"任意座標系"}},{"type":"Polygon","arcs":[[905,-904,906]],"properties":{"市区町村名":"奥尻郡奥尻町","大字名":null,"丁目名":null,"小字名":"字奥尻","地番":"702","精度区分":null,"座標系":"任意座標系"}},{"type":"Polygon","arcs":[[907,908,909,910]],"properties":{"市区町村名":"奥尻郡奥尻町","大字名":null,"丁目名":null,"小字名":"字奥尻","地番":"698","精度区分":null,"座標系":"任意座標系"}},{"type":"Polygon","arcs":[[-911,911,912,913]],"properties":{"市区町村名":"奥尻郡奥尻町","大字名":null,"丁目名":null,"小字名":"字奥尻","地番":"699","精度区分":null,"座標系":"任意座標系"}},{"type":"Polygon","arcs":[[914,915,916]],"properties":{"市区町村名":"奥尻郡奥尻町","大字名":null,"丁目名":null,"小字名":"字奥尻","地番":"696","精度区分":null,"座標系":"任意座標系"}},{"type":"Polygon","arcs":[[917,-917,918,919]],"properties":{"市区町村名":"奥尻郡奥尻町","大字名":null,"丁目名":null,"小字名":"字奥尻","地番":"701","精度区分":null,"座標系":"任意座標系"}},{"type":"Polygon","arcs":[[920,-429,921,-908,-914]],"properties":{"市区町村名":"奥尻郡奥尻町","大字名":null,"丁目名":null,"小字名":"字奥尻","地番":"長狭物不明-18","精度区分":null,"座標系":"任意座標系"}},{"type":"Polygon","arcs":[[-427,-3,-902,-889,922]],"properties":{"市区町村名":"奥尻郡奥尻町","大字名":null,"丁目名":null,"小字名":"字奥尻","地番":"659","精度区分":null,"座標系":"任意座標系"}},{"type":"Polygon","arcs":[[-910,923,-915,-918,924,925,-912]],"properties":{"市区町村名":"奥尻郡奥尻町","大字名":null,"丁目名":null,"小字名":"字奥尻","地番":"697","精度区分":null,"座標系":"任意座標系"}},{"type":"Polygon","arcs":[[-430,-921,-913,-926,926,927]],"properties":{"市区町村名":"奥尻郡奥尻町","大字名":null,"丁目名":null,"小字名":"字奥尻","地番":"700","精度区分":null,"座標系":"任意座標系"}},{"type":"Polygon","arcs":[[-431,-928,928,-437,-422]],"properties":{"市区町村名":"奥尻郡奥尻町","大字名":null,"丁目名":null,"小字名":"字奥尻","地番":"703","精度区分":null,"座標系":"任意座標系"}},{"type":"Polygon","arcs":[[-114,-638,-632,-324,-640,-322,-317]],"properties":{"市区町村名":"奥尻郡奥尻町","大字名":null,"丁目名":null,"小字名":"字赤石","地番":"筆界未定地-2","精度区分":null,"座標系":"任意座標系"}},{"type":"Polygon","arcs":[[-704,929,-578,-672,-94]],"properties":{"市区町村名":"奥尻郡奥尻町","大字名":null,"丁目名":null,"小字名":"字赤石","地番":"筆界未定地-3","精度区分":null,"座標系":"任意座標系"}},{"type":"Polygon","arcs":[[-438,-929,-927,-925,-920,930,-907,-905,-906,-931,-919,-916,-924,-909,-922,-428,-923,-892,-901,-898,-895,931,-880,-878,-876,932,-884,-885,-871,933,-873,-934,-194,-888]],"properties":{"市区町村名":"奥尻郡奥尻町","大字名":null,"丁目名":null,"小字名":"字奥尻","地番":"道-2-2","精度区分":null,"座標系":"任意座標系"}},{"type":"Polygon","arcs":[[934,935]],"properties":{"市区町村名":"奥尻郡奥尻町","大字名":null,"丁目名":null,"小字名":"字湯浜","地番":"314","精度区分":null,"座標系":"任意座標系"}},{"type":"Polygon","arcs":[[936,937,938,939,-304,-307,-309,-312,940]],"properties":{"市区町村名":"奥尻郡奥尻町","大字名":null,"丁目名":null,"小字名":"字湯浜","地番":"長狭物不明-8","精度区分":null,"座標系":"任意座標系"}},{"type":"Polygon","arcs":[[941,-938]],"properties":{"市区町村名":"奥尻郡奥尻町","大字名":null,"丁目名":null,"小字名":"字湯浜","地番":"312","精度区分":null,"座標系":"任意座標系"}},{"type":"Polygon","arcs":[[942,-226,-508,-224,-341,-502,-230,-507,943,-505,-228]],"properties":{"市区町村名":"奥尻郡奥尻町","大字名":null,"丁目名":null,"小字名":"字赤石","地番":"長狭物不明-5-1","精度区分":null,"座標系":"任意座標系"}},{"type":"Polygon","arcs":[[-944,-506]],"properties":{"市区町村名":"奥尻郡奥尻町","大字名":null,"丁目名":null,"小字名":"字赤石","地番":"無地番-3","精度区分":null,"座標系":"任意座標系"}},{"type":"Polygon","arcs":[[-240,-250,944]],"properties":{"市区町村名":"奥尻郡奥尻町","大字名":null,"丁目名":null,"小字名":"字湯浜","地番":"道-5","精度区分":null,"座標系":"任意座標系"}},{"type":"Polygon","arcs":[[945,-244,-247]],"properties":{"市区町村名":"奥尻郡奥尻町","大字名":null,"丁目名":null,"小字名":"字湯浜","地番":"136-4","精度区分":null,"座標系":"任意座標系"}},{"type":"Polygon","arcs":[[-243,946,-248]],"properties":{"市区町村名":"奥尻郡奥尻町","大字名":null,"丁目名":null,"小字名":"字湯浜","地番":"136-3","精度区分":null,"座標系":"任意座標系"}},{"type":"Polygon","arcs":[[947,948,949,950]],"properties":{"市区町村名":"奥尻郡奥尻町","大字名":null,"丁目名":null,"小字名":"字湯浜","地番":"160-1","精度区分":null,"座標系":"任意座標系"}},{"type":"Polygon","arcs":[[951,952,953,-949]],"properties":{"市区町村名":"奥尻郡奥尻町","大字名":null,"丁目名":null,"小字名":"字湯浜","地番":"160-4","精度区分":null,"座標系":"任意座標系"}},{"type":"Polygon","arcs":[[-948,954,955,956]],"properties":{"市区町村名":"奥尻郡奥尻町","大字名":null,"丁目名":null,"小字名":"字湯浜","地番":"長狭物不明-7-1","精度区分":null,"座標系":"任意座標系"}},{"type":"Polygon","arcs":[[957,958,959,960,961,962]],"properties":{"市区町村名":"奥尻郡奥尻町","大字名":null,"丁目名":null,"小字名":"字湯浜","地番":"317-1","精度区分":null,"座標系":"任意座標系"}},{"type":"Polygon","arcs":[[-952,-957,963,-958]],"properties":{"市区町村名":"奥尻郡奥尻町","大字名":null,"丁目名":null,"小字名":"字湯浜","地番":"317-2","精度区分":null,"座標系":"任意座標系"}},{"type":"Polygon","arcs":[[-941,-311,-305,-940,964,-935,965,-959,-964,-956,966]],"properties":{"市区町村名":"奥尻郡奥尻町","大字名":null,"丁目名":null,"小字名":"字湯浜","地番":"311","精度区分":null,"座標系":"任意座標系"}},{"type":"Polygon","arcs":[[-963,967,-961,-953]],"properties":{"市区町村名":"奥尻郡奥尻町","大字名":null,"丁目名":null,"小字名":"字湯浜","地番":"160-3","精度区分":null,"座標系":"任意座標系"}},{"type":"Polygon","arcs":[[-968,-962]],"properties":{"市区町村名":"奥尻郡奥尻町","大字名":null,"丁目名":null,"小字名":"字湯浜","地番":"160-2","精度区分":null,"座標系":"任意座標系"}},{"type":"Polygon","arcs":[[-950,-954,-960,968]],"properties":{"市区町村名":"奥尻郡奥尻町","大字名":null,"丁目名":null,"小字名":"字湯浜","地番":"長狭物不明-7","精度区分":null,"座標系":"任意座標系"}},{"type":"Polygon","arcs":[[-118,-296,969,-256,-258,-292]],"properties":{"市区町村名":"奥尻郡奥尻町","大字名":null,"丁目名":null,"小字名":"字湯浜","地番":"国有地-1","精度区分":null,"座標系":"任意座標系"}}]}},"arcs":[[[954247,386949],[3883,-11876]],[[958130,375073],[-42,-14],[-11388,-3959]],[[946700,371100],[-3741,15129],[-211,664]],[[942748,386893],[11499,56]],[[968296,303888],[-25115,-13544]],[[943181,290344],[826,13981]],[[944007,304325],[731,840],[981,3278],[-1591,4675],[2042,1365],[5813,-825],[4179,807],[1686,-3300],[3720,-411],[5988,2273]],[[967556,313027],[1794,3443],[6645,-2462],[-7699,-10120]],[[919022,62282],[5844,33185],[11922,1467],[59,7]],[[936847,96941],[-625,-2474],[2821,-568],[7077,-837]],[[946120,93062],[-15304,-33090]],[[930816,59972],[-9949,1420]],[[920867,61392],[-1845,890]],[[973995,117862],[10795,2034]],[[984790,119896],[14186,2626]],[[998976,122522],[-6413,-13828]],[[992563,108694],[-8641,4243],[-9927,4925]],[[962961,131102],[11975,1121]],[[974936,132223],[2130,220]],[[977066,132443],[-334,-1304]],[[976732,131139],[-2182,-8533]],[[974550,122606],[-10252,-1539],[-1337,10035]],[[952535,148576],[2564,12156]],[[955099,160732],[9551,314],[7095,279]],[[971745,161325],[-1007,-8505]],[[970738,152820],[-3939,-936],[-942,-153]],[[965857,151731],[-1174,-318],[-7438,-1721]],[[957245,149692],[-4710,-1116]],[[977248,171804],[4399,149]],[[981647,171953],[15362,570]],[[997009,172523],[2796,73]],[[999805,172596],[-28,-3150]],[[999777,169446],[-20685,-927]],[[979092,168519],[-1698,-59],[-146,3344]],[[804375,363132],[8451,-726],[24339,-4074],[41775,2371],[22283,3702],[9474,3668],[10147,7017]],[[920844,375090],[20004,13376],[1352,843],[7738,3443],[7019,1591],[7418,-849],[1140,49],[2461,106],[7111,-1045],[11074,525],[9735,3752],[4103,1573],[-3102,-3903],[-19423,-5826],[-4159,-1255]],[[973315,387470],[-30723,-167],[-15289,-12213],[-10599,-8743],[-16619,-5361],[-12845,-4700],[-41229,-3114],[-29296,3362],[-12479,-2617],[3413,1223],[-3274,7992]],[[972070,387037],[431,-7209]],[[972501,379828],[-11903,-4070],[-2468,-685]],[[954247,386949],[17823,88]],[[816631,270096],[2300,28],[1442,1669],[2459,1041],[4364,200],[2636,2072],[2107,2236],[4246,3044],[534,9112],[8065,-1797],[8319,4653],[12160,-2433],[10304,6582],[9220,-4676],[10600,-2502],[11378,142],[5295,-1861],[6332,4771],[3327,-944],[3776,1326],[5437,5363],[2347,875],[4273,-422],[2777,3217],[3390,3781],[859,2982],[-1750,4799],[3255,2133],[5623,-883],[5124,1025],[1633,-3430],[2966,-428],[2710,1008],[2320,886],[221,308]],[[966680,313973],[876,-946]],[[944007,304325],[-5810,-6680],[-4652,505],[-1781,-701],[-5555,-5489],[-3845,-1384],[-1145,-11285]],[[921219,279291],[-513,-249]],[[920706,279042],[1093,11314],[-3069,876],[-6472,-4758],[-5830,2046],[-11299,-78],[-10839,2581],[-7316,3624]],[[876974,294647],[-1344,665],[-10112,-6412],[-12207,2339],[-1534,-862]],[[851777,290377],[-6717,-3774],[-7157,1639],[-409,-8325],[-3456,-2432],[-4543,-4269],[-2064,-437],[-1192,-252],[-7024,-2595],[-168,-154],[-2322,34]],[[816725,269812],[-94,284]],[[791583,66656],[2119,8481]],[[793702,75137],[973,0],[2304,7251],[7139,1617],[8449,-416],[2161,3299],[9298,-2560],[7760,1182],[6176,4655],[5157,-1321],[6845,4010],[4904,-1095],[6941,1577],[6867,-3227],[2844,-4828],[9494,-408]],[[881014,84873],[-5379,-16265],[-82,-206]],[[875553,68402],[-220,-558],[-1296,-12585]],[[874037,55259],[-3084,479],[-6377,-2374],[-3317,831],[-11792,-568],[-5544,5531],[-11474,2079],[-8001,-2158],[-6544,2253],[-5615,3020],[-2764,1580],[-13565,546],[-4377,178]],[[777083,261111],[5302,3281],[11321,1592],[5660,-1201],[6078,1565],[6515,3252],[4766,212]],[[851777,290377],[-1332,-12069]],[[850445,278308],[-704,-446],[-2343,-1911],[-376,-1289],[-371,-2250],[-4292,-561],[-2922,-848],[-3657,630],[-1758,-997],[-1006,-4012],[-3057,-1026],[-3142,-2736],[-2632,-3289],[-1012,-1740],[-1822,-1124],[-980,583],[-7897,2185],[-3546,-1458],[-1756,-269],[-12839,504],[-7874,-5710]],[[786459,252544],[-9376,8567]],[[813304,129949],[526,916]],[[813830,130865],[32872,13679],[18111,-8419],[-2909,27704],[20205,34386],[-4423,17874]],[[877686,216089],[783,538],[6830,1021],[1043,1346],[1796,153],[865,1045],[4875,2253],[1255,102]],[[895133,222547],[5755,446],[4818,4141],[2870,-1028]],[[908576,226106],[-438,-6727]],[[908138,219379],[-646,-383]],[[907492,218996],[336,6535],[-1942,675],[-4435,-3897],[-6218,-532]],[[895233,221777],[-1295,-97],[-4040,-1932],[-1099,-1298],[-1886,-241],[-1198,-1214],[-6914,-1214],[4439,-17673]],[[883240,198108],[-2435,-4039],[-17977,-30599],[3005,-27668],[9204,37125],[32007,30376],[-14225,-56303]],[[892819,147000],[-7232,-8092],[-286,-8252],[26028,1065],[104,17364]],[[911433,149085],[-142,26036],[523,18478],[-2371,12255]],[[909443,205854],[-2076,10608],[125,2534]],[[908138,219379],[-178,-2684]],[[907960,216695],[-23,-481]],[[907937,216214],[4964,-22743],[-576,-19886],[22192,611]],[[934517,174196],[22837,705],[-166,1797]],[[957188,176698],[-77,1606]],[[957111,178304],[-165,1734]],[[956946,180038],[-125,1695]],[[956821,181733],[-118,1788]],[[956703,183521],[-294,3231]],[[956409,186752],[-115,1697]],[[956294,188449],[-27,176]],[[956267,188625],[-141,1838]],[[956126,190463],[-162,1861]],[[955964,192324],[-80,1790]],[[955884,194114],[74,1717]],[[955958,195831],[34,1807]],[[955992,197638],[60,1604]],[[956052,199242],[14,412]],[[956066,199654],[67,2064]],[[956133,201718],[67,2011]],[[956200,203729],[66,2421]],[[956266,206150],[102,4268]],[[956368,210418],[132,4219]],[[956500,214637],[460,8]],[[956960,214645],[-596,-20301]],[[956364,194344],[331,-4272]],[[956695,190072],[1174,-15160],[6613,224],[35432,1173]],[[999914,176309],[-84,-462]],[[999830,175847],[-2939,-94]],[[996891,175753],[-15335,-494]],[[981556,175259],[-4290,-138],[-112,-12],[-48,-36]],[[977106,175073],[-1271,10]],[[975835,175083],[-11201,-337],[-6622,-203],[-2913,-13811]],[[952535,148576],[-513,-110]],[[952022,148466],[-88,2]],[[951934,148468],[2730,12862]],[[954664,161330],[2812,13182],[-6661,-178],[-2149,-100]],[[948666,174234],[-10232,-310]],[[938434,173924],[-17022,-545],[-9054,-271],[18,-2330]],[[912376,170778],[25,-11639]],[[912401,159139],[-53,-9925]],[[912348,149214],[-25,-18224]],[[912323,130990],[-13451,-512]],[[898872,130478],[-1234,-93]],[[897638,130385],[-13217,-498],[324,9449],[7209,8029],[13407,52654],[-29554,-27579],[-9395,-38240],[-19603,9653],[-32937,-13752],[-568,-152]],[[17440,871922],[590,1647],[5849,-2137],[164,328]],[[24043,871760],[12472,-5840]],[[36515,865920],[-3472,-6128]],[[33043,859792],[-12706,9909],[-2897,2221]],[[919893,244463],[261,-21]],[[920154,244442],[327,-657]],[[920481,243785],[1067,-2151],[1174,-2078],[382,-676],[9824,1004],[1349,102],[1565,119],[14299,1432]],[[950141,241537],[808,81]],[[950949,241618],[2282,223],[5714,558]],[[958945,242399],[15,-208]],[[958960,242191],[-6564,-673],[-12813,-1279],[-714,-71],[-15992,-1560],[-1585,3012]],[[921292,241620],[-1399,2843]],[[908824,229570],[68,957]],[[908892,230527],[1865,-27],[5416,-166],[6896,818],[664,-63]],[[923733,231089],[7112,-1103],[739,361]],[[931584,230347],[125,82]],[[931709,230429],[1620,885]],[[933329,231314],[1898,980]],[[935227,232294],[2207,1214]],[[937434,233508],[3458,1903],[3074,535],[1067,-811],[163,31]],[[945196,235166],[471,-389]],[[945667,234777],[1109,-733]],[[946776,234044],[338,-308]],[[947114,233736],[1052,-1427]],[[948166,232309],[27,-37],[320,-419]],[[948513,231853],[238,-313]],[[948751,231540],[3313,-4349],[2103,1095]],[[954167,228286],[1401,735]],[[955568,229021],[1411,765]],[[956979,229786],[-43,-1586]],[[956936,228200],[-1377,-684]],[[955559,227516],[-2570,-1344]],[[952989,226172],[-1258,-638]],[[951731,225534],[-2534,3272]],[[949197,228806],[-2146,2825]],[[947051,231631],[-975,1257]],[[946076,232888],[-568,805],[-4409,-87],[-1216,11]],[[939883,233617],[-640,6],[-992,-596]],[[938251,233027],[-5699,-3421]],[[932552,229606],[-1279,-729],[-7960,1170],[-4107,-493]],[[919206,229554],[-2766,-330],[-7616,346]],[[12641,905287],[-1964,-16000],[-20,-5]],[[10657,889282],[-3974,-1021],[38,-87]],[[6721,888174],[-2718,-439]],[[4003,887735],[-296,578]],[[3707,888313],[1365,544],[-1608,1917]],[[3464,890774],[1160,394],[-1242,3560],[-2819,-417]],[[563,894311],[-127,150],[5885,11424],[5833,-452],[487,-146]],[[798808,331654],[19959,5546]],[[818767,337200],[378,-165]],[[819145,337035],[-19724,-5548],[1936,-7650]],[[801357,323837],[-588,-86]],[[800769,323751],[-69,283]],[[800700,324034],[-1892,7620]],[[801357,323837],[5250,711],[3349,-491],[7948,1713],[8642,2437],[5939,-620],[3858,195],[1562,-2032],[7004,-2248],[8505,404]],[[853414,323906],[-77,-1392],[482,-9]],[[853819,322505],[-42,-850]],[[853777,321655],[-545,5]],[[853232,321660],[-9200,-279],[-9481,4132],[-2532,-115],[-4694,520],[-9421,-2726],[-8181,-1462],[-3438,426],[-4284,-954]],[[802001,321202],[-584,-132]],[[801417,321070],[-648,2681]],[[820615,145835],[778,614]],[[821393,146449],[8372,6167],[6480,8700]],[[836245,161316],[1962,2412],[-733,8098],[5274,3503],[1181,826],[-4484,7505],[1817,2523]],[[841262,186183],[656,-438],[-1365,-2134],[4476,-7851],[-6487,-4216],[794,-7963],[-4945,-6454],[-3434,-4806],[-5089,-4019]],[[825868,148302],[-1963,-1209],[-2485,-1896],[-805,638]],[[786459,252544],[1424,-1311]],[[787883,251233],[26104,-24042]],[[813987,227191],[3917,-10580],[377,-1206],[324,-12389]],[[818605,203016],[-872,766]],[[817733,203782],[-292,11254],[-4392,11904],[-8518,7753]],[[804531,234693],[-28750,26211]],[[775781,260904],[1302,207]],[[816631,270096],[622,228]],[[817253,270324],[487,432],[561,743],[2562,2292],[6543,992],[6350,5855],[-644,9281],[2676,1674],[8061,-2632],[4614,5332],[3306,135],[786,14326]],[[852555,308754],[617,40]],[[853172,308794],[-740,-14624],[11900,-2781],[10613,6460],[8155,-3951],[7665,4760],[5357,-7331],[9390,232],[6056,-2237],[6877,4556],[3543,-1158],[1690,16120]],[[923678,308840],[219,2085]],[[923897,310925],[2231,19614]],[[926128,330539],[269,14]],[[926397,330553],[-1978,-18873],[3916,1044],[1548,4077],[5288,1394],[2883,-1948],[3756,2318],[2694,-544]],[[944504,318021],[-3175,-2915]],[[941329,315106],[-1984,-1336],[-2492,70],[-2127,1792],[-2456,-698],[-1398,-4356],[-6752,-1561],[-1462,-15243]],[[922658,293774],[-12,-413],[2669,1306],[4792,4900],[2966,975],[2953,-173],[5999,6446],[429,2173],[-1597,4328],[812,1493],[3078,2734],[7345,-800],[3581,800],[3645,-1365]],[[959318,316178],[1037,-2643],[4779,1992]],[[965134,315527],[1546,-1554]],[[783203,204647],[17321,13578]],[[800524,218225],[17209,-14443]],[[818605,203016],[12,-9],[756,-632]],[[819373,202375],[13179,-9785]],[[832552,192590],[8710,-6407]],[[836245,161316],[-38768,31715]],[[797477,193031],[-14274,11616]],[[797465,165916],[12,27115]],[[821393,146449],[-20915,17007],[-3013,2460]],[[732342,248020],[10126,514],[7543,4974],[3527,6964],[6044,-1020],[4020,565],[3178,2158],[5286,1550],[3734,-925],[6460,3351],[7789,622],[3703,322],[3603,-577],[7318,916],[5225,2378],[6733,284]],[[775781,260904],[-2706,1201],[-5134,-1302],[-3362,-2581],[-5089,-1357],[-1251,803],[-1936,896],[-2114,-146]],[[754189,258418],[-347,-882]],[[753842,257536],[-3293,-5750],[-6717,-4991],[-10424,-716]],[[733408,246079],[-410,-137]],[[732998,245942],[-656,2078]],[[791498,66251],[85,405]],[[874037,55259],[-52,-552]],[[873985,54707],[-3050,520],[-6322,-2439],[-3469,865],[-12089,-618],[-5624,5720],[-11021,1926],[-7908,-2084],[-6598,2197],[-8646,4737],[-13365,545],[-4395,175]],[[790425,62775],[1073,3476]],[[873985,54707],[-271,-2685]],[[873714,52022],[-2386,231],[-7055,-2348],[-4053,1160],[-12790,-794],[-5104,5609],[-9926,1964],[-7338,-2314],[-7158,2269],[-7251,3919],[-20228,1057]],[[781631,32740],[3390,11532],[4504,15471],[900,3032]],[[873714,52022],[-1969,-19729]],[[871745,32293],[-613,72]],[[871132,32365],[-2443,284],[-4082,1864],[-9065,832],[-8377,-3167]],[[847165,32178],[-4212,-3449],[-6664,224],[-14420,-6055],[-3914,471],[-263,154],[-10746,5324],[-5879,871],[-10045,1553],[-9391,1469]],[[780279,28221],[1087,3744]],[[781366,31965],[11100,-1721],[10965,-1737],[3911,-608],[10633,-5088],[3822,-437],[14725,6113],[6442,-144]],[[842964,28343],[6119,2561]],[[849083,30904],[7015,2811],[8308,-1049],[4862,-1671]],[[869268,30995],[1591,-1220],[994,-759],[5186,-1680],[5025,-317],[3178,-1644],[4552,-3420],[5867,-450],[1420,-1897],[10706,4450],[3579,-1969],[1392,-9008],[1859,-271],[2791,3400],[6585,1267],[8425,-1215],[3110,2340],[804,127]],[[936332,18729],[1362,-2559]],[[937694,16170],[-796,-92],[-3981,-3019],[-8268,1359],[-5430,-1004],[-2718,-3560],[-6351,213],[-1473,9168],[-897,1523],[-11996,-4727],[-1560,2617],[-5720,356],[-4946,4597],[-2900,1349],[-4058,98],[-6179,2004],[-3607,2776],[-12537,498],[-10185,-5834],[-4580,593],[-9953,-1354],[-7621,-3524],[-1974,270],[-1604,-1890],[-5671,2740],[-6292,2964],[-11033,1672],[-15085,2258]],[[774916,10467],[10761,157],[10017,248],[5175,140],[6614,134],[10893,285],[45361,5851],[34888,-11377],[23190,-701],[22070,-667]],[[943885,4537],[1321,-2475],[-1817,-507],[-1379,-120],[-1544,334],[-1658,660],[-1664,-260],[-1374,-153],[-1639,626],[-1500,74],[-2818,-1160],[-1333,20],[-1916,386],[-3013,-520],[-1904,480],[-1280,-7],[-1575,-467],[-1446,-180],[-2948,207],[-2873,-1048],[-3193,-321],[-3396,1027],[-3224,-1133],[-3095,813],[-1944,7],[-2474,508],[-1566,-114],[-2724,2277],[-2134,554],[-2269,1347],[-1618,102],[-1640,-166],[-2319,1701],[-1659,535],[-2659,-127],[-1773,321],[-4065,1762],[-2645,1096],[-2865,980],[-2565,936],[-2286,41],[-2838,206],[-1726,-252],[-1617,-614],[-3273,-81],[-2889,-487],[-2997,-221],[-1716,-380],[-2974,-37],[-1989,117],[-2572,-394],[-3159,-534],[-2679,-247],[-3118,-314],[-3200,-754],[-3193,53],[-1568,-254],[-2524,-494],[-4546,688],[-1607,-405],[-3398,495],[-1868,-523],[-1735,35],[-1501,418],[-2937,-1255],[-1385,187],[-4644,-893],[-4406,815],[-2136,-285],[-1212,327],[-3399,-431],[-4192,530],[-2328,272],[830,2606]],[[774916,10467],[2945,9758],[2418,7996]],[[937694,16170],[6191,-11633]],[[44812,852681],[2665,1336]],[[47477,854017],[3992,-5320],[3710,-2749]],[[55179,845948],[-3389,843],[-6650,-75]],[[45140,846716],[-1569,5315],[1241,650]],[[65207,845378],[2875,-668],[3927,-926],[-1129,-1208]],[[70880,842576],[-2952,884]],[[67928,843460],[-2721,1918]],[[55179,845948],[1475,1886]],[[56654,847834],[3925,-1398],[4404,-1016]],[[64983,845420],[866,-900],[2079,-1060]],[[67928,843460],[2585,-1247]],[[70513,842213],[-394,-363]],[[70119,841850],[-8094,-527],[-6846,4625]],[[47477,854017],[859,446]],[[48336,854463],[1633,803],[6685,-7432]],[[44812,852681],[-926,3025],[-1505,606],[944,2072],[2900,842],[-37,-3271],[2148,-1492]],[[31449,855372],[-8514,6111]],[[22935,861483],[2977,2802]],[[25912,864285],[3400,-4059],[6586,-3036]],[[35898,857190],[-4449,-1818]],[[17714,870880],[2254,-1788],[5944,-4807]],[[22935,861483],[-12152,9870],[6931,-473]],[[3707,888313],[-965,2211],[722,250]],[[3464,890774],[-2901,3537]],[[10657,889282],[847,-881],[-872,-355]],[[10632,888046],[-3432,-974],[-479,1102]],[[5076,886221],[-1073,1514]],[[10632,888046],[73,-339],[-3275,-879]],[[7430,886828],[-2354,-607]],[[7430,886828],[1705,-12895]],[[9135,873933],[-2449,-328],[-1610,12616]],[[9499,874031],[1442,2908],[3573,1367]],[[14514,878306],[3298,-3699]],[[17812,874607],[-870,-2473],[-4946,-114],[-2497,2011]],[[19249,878015],[-1437,-3408]],[[14514,878306],[-775,889],[1950,2625],[3560,-3805]],[[19796,877826],[5910,-1735]],[[25706,876091],[-2136,-3978],[-5368,1875],[1594,3838]],[[42443,868647],[1398,632],[-477,730]],[[43364,870009],[895,-477],[8122,-1148]],[[52381,868384],[-9938,263]],[[30495,875405],[9092,-857],[435,-83]],[[40022,874465],[3342,-4456]],[[42443,868647],[-2599,58],[-5180,-412],[-5052,1841],[-3063,2362],[3946,2909]],[[34713,878536],[8338,-1322],[-3029,-2749]],[[30495,875405],[4218,3131]],[[26067,875809],[48,160]],[[26115,875969],[1784,3599],[6814,-1032]],[[30495,875405],[-4428,404]],[[24043,871760],[2024,4049]],[[42443,868647],[-4792,-2169],[-1136,-558]],[[9135,873933],[364,98]],[[19249,878015],[547,-189]],[[25706,876091],[409,-122]],[[17440,871922],[-68,-33],[342,-1009]],[[31449,855372],[-340,-389],[-1096,763],[-1757,1297],[-2016,1461],[-1929,1437],[-1993,1472],[-4617,3772],[-7596,6267],[1099,652],[-1767,1387],[-3241,-401],[-913,7317],[-376,2916],[-301,3099],[-919,1221],[-1483,2923],[628,305],[-2832,3611],[2226,4341],[3082,5943],[797,1490],[5846,-387],[718,-191],[-28,-391]],[[36515,865920],[3711,-1164]],[[40226,864756],[190,-6711],[-1690,-1369]],[[38726,856676],[-5647,3034],[-36,82]],[[52381,868384],[-5699,-5296],[-3758,821],[-2698,847]],[[40022,874465],[7579,-1535],[7841,-1631],[-3061,-2915]],[[5081,926940],[3463,-522],[-2530,-8788],[-4293,-356],[3360,9666]],[[34367,957478],[2921,4811]],[[37288,962289],[218,262]],[[37506,962551],[1898,-2591],[-5037,-2482]],[[37506,962551],[2064,2574]],[[39570,965125],[6484,-3321]],[[46054,961804],[-9657,-6697],[-3843,-2636],[-3293,-2311]],[[29261,950160],[1867,3357],[3239,3961]],[[39216,965316],[354,-191]],[[37506,962551],[-1219,1627],[2929,1138]],[[32677,963527],[3021,3601],[3518,-1812]],[[37288,962289],[-678,-815],[-3933,2053]],[[29261,950160],[-1773,-1227]],[[27488,948933],[-4201,2402],[-6037,3505],[4040,182],[4610,2978],[3091,3378],[2775,1015],[911,1134]],[[33644,980614],[-1701,2187],[6867,4651],[1425,-3117],[-6591,-3721]],[[28835,987075],[-563,522],[16699,12402],[556,-462],[-16692,-12462]],[[797465,165916],[-31481,25297],[17219,13434]],[[807060,112477],[6244,17472]],[[813304,129949],[31147,-6856]],[[844451,123093],[-957,-15244],[-36434,4628]],[[807409,111978],[4959,-635],[73637,-9410],[-4230,-14365]],[[881775,87568],[-8016,152],[-2747,4660],[-9790,3541],[-6325,-1511],[-5761,1658],[-6499,-4505],[-6128,1487],[-5990,-5118],[-6302,-1222],[-10348,2763],[-2300,-3200],[-5537,13],[-8319,-2171],[-345,-31],[3322,7655],[2570,8686],[1287,3579],[954,2681],[1908,5293]],[[806912,112063],[148,414]],[[844451,123093],[519,-120]],[[844970,122973],[-900,-15152],[42062,-5467],[2482,11277]],[[888614,113631],[568,-117]],[[889182,113514],[-2569,-11200],[37675,-6285],[-6497,11281]],[[917791,107310],[822,-402]],[[918613,106908],[6393,-10909],[11962,1510]],[[936968,97509],[29780,3742],[23136,1717],[907,1909],[445,913],[108,262]],[[991344,106052],[422,888]],[[991766,106940],[797,1754]],[[998976,122522],[667,11],[-9384,-19918],[-21313,-1720]],[[968946,100895],[-1556,-137],[-15828,-41923]],[[951562,58835],[-830,-2274]],[[950732,56561],[-3017,-6274],[-1777,-3697]],[[945938,46590],[-5483,-11331]],[[940455,35259],[-6155,-12712]],[[934300,22547],[-19,-38],[-11006,1655],[-10999,1734],[-14000,1891]],[[898276,27789],[-2079,264]],[[896197,28053],[-18882,2614]],[[877315,30667],[-5623,826],[19,293]],[[871711,31786],[34,507]],[[875553,68402],[512,-148]],[[876065,68254],[40734,-6189]],[[916799,62065],[818,-485]],[[917617,61580],[-41761,6149],[-411,-4477]],[[875445,63252],[-88,-716]],[[875357,62536],[-3066,-30630],[8477,-1225],[6709,-907]],[[887477,29774],[2800,-354]],[[890277,29420],[11126,-1494]],[[901403,27926],[10648,-1470],[3211,18010]],[[915262,44466],[525,2973]],[[915787,47439],[919,5284]],[[916706,52723],[1388,7910]],[[918094,60633],[693,138]],[[918787,60771],[-1629,-9384]],[[917158,51387],[-986,-5527]],[[916172,45860],[-228,-1351]],[[915944,44509],[-3280,-18137]],[[912664,26372],[21317,-3256],[2296,4761]],[[936277,27877],[3546,7366]],[[939823,35243],[5655,11755]],[[945478,46998],[1091,2263]],[[946569,49261],[227,410],[258,600]],[[947054,50271],[3007,6259],[-19478,2848]],[[930583,59378],[-8360,1258]],[[922223,60636],[-1356,756]],[[930816,59972],[19386,-2868],[3262,8719],[8812,23052]],[[962276,88875],[4398,11826],[-29827,-3760]],[[919022,62282],[-546,70]],[[918476,62352],[5730,33219],[-37631,6295],[-4543,-15564]],[[882032,86302],[-6,-22],[-250,-687]],[[881776,85593],[-5711,-17339]],[[881014,84873],[761,2695]],[[807409,111978],[-497,85]],[[797367,85644],[4203,11655]],[[801570,97299],[-1252,-5371],[-353,-857],[-2233,-4923],[-365,-504]],[[793702,75137],[3665,10507]],[[801570,97299],[5342,14764]],[[813830,130865],[1337,2395],[2737,3861],[3120,4399],[4844,6782]],[[832552,192590],[25662,18888],[19257,4445],[215,166]],[[733408,246079],[1960,-1661]],[[735368,244418],[3533,-2993]],[[738901,241425],[33559,-28008],[6922,-5672]],[[779382,207745],[3055,-2542],[17399,13634],[-7023,5908]],[[792813,224745],[-32401,27263]],[[760412,252008],[-926,779]],[[759486,252787],[-5644,4749]],[[754189,258418],[37856,-31837]],[[792045,226581],[9216,-7750],[-737,-606]],[[820615,145835],[-2711,2210],[-10197,8317],[-17715,14390],[-5380,4369],[-20002,16137],[17398,13597],[-16660,13934],[-20678,17277],[-9265,7797],[-2407,2079]],[[850445,278308],[-169,-1530]],[[850276,276778],[-443,-232],[-1140,-1094],[-301,-1425],[579,-1075],[-743,-1363],[-1516,-574],[-3610,-253],[-3840,-921],[-2815,655],[-1471,-901],[-273,-1370],[-294,-989],[-1340,-3937],[-2225,609],[-2346,-1333],[-702,-2479],[-2338,-1752],[-1288,-2041],[-2615,-1108],[-3812,1730],[-2343,98],[-2902,844],[-3313,-785],[-4003,-634],[-2900,9],[-7308,455],[-2975,-1722],[-2594,-3295],[-1522,-662]],[[735368,244418],[4379,-1842],[5680,215],[3744,627],[5228,562],[2788,4414],[970,3654],[1329,739]],[[760412,252008],[-1216,-1163],[-367,-1913],[-2026,-3715],[-1926,-2355],[-10253,-1452],[-2836,-111],[-2887,126]],[[792813,224745],[-13431,-17000]],[[813987,227191],[11149,2983],[7151,9064]],[[832287,239238],[11538,-3713]],[[843825,235525],[-191,-1306],[-6176,-7910],[-5374,-6735],[-11549,-14239],[-1930,-2319]],[[850276,276778],[-819,-8329],[-808,-6700],[-405,-2831]],[[848244,258918],[-950,-760]],[[847294,258158],[-15007,-18920]],[[792045,226581],[12486,8112]],[[717012,294517],[5635,-70],[2322,1286],[2751,-552],[7305,-928],[4519,900],[10677,4374],[8153,7894],[10598,5343],[9732,508],[5381,5171],[4553,-806],[7465,2020],[5314,1413]],[[801417,321070],[4121,-16666],[10364,-32107]],[[815902,272297],[-4234,-231],[-8280,-3518],[-5974,-889],[-3866,856],[-12111,-615],[-4919,-3179],[-3033,1076],[-6602,-749],[-3963,-3696],[-3115,-536],[-1987,1551],[-5489,-523],[-3357,-7512],[-6977,-4676],[-10379,549]],[[731616,250205],[-2713,8112],[-4463,13801],[-936,2988],[-2709,8162],[-2568,7664],[-1215,3585]],[[732342,248020],[-726,2185]],[[815902,272297],[729,-2201]],[[817253,270324],[-1711,4782],[-9352,29378],[9447,1546],[853,3067],[3712,-242],[2553,220],[2794,149],[10251,-917],[6221,945],[10534,-498]],[[802001,321202],[4002,-16099],[9048,1394],[872,3119],[6311,78],[1846,91],[1458,174],[10185,-892],[6430,911],[10421,-645],[658,12327]],[[853777,321655],[-111,-2280]],[[853666,319375],[-96,-1880]],[[853570,317495],[-398,-8701]],[[729162,343887],[-4397,10400]],[[724765,354287],[294,98],[16491,-169],[27642,4374],[5953,-3428],[4227,647],[4132,3619],[7546,2481],[4243,341],[8014,602]],[[803307,362852],[-12654,-2831],[-9936,-10339],[-10125,3354],[-26963,-10013],[-14467,864]],[[717012,294517],[-991,2972]],[[716021,297489],[8162,456],[10090,-1723],[3175,690],[10073,4481],[7953,7830],[12800,5942],[5031,-215],[2802,714],[4558,4518],[1836,431],[5518,-367],[10537,3953],[2144,-165]],[[819145,337035],[35028,1363]],[[854173,338398],[-759,-14492]],[[816733,355936],[29071,-3366]],[[845804,352570],[8269,-13569]],[[854073,339001],[111,-182],[-34577,-1366],[-1703,11171],[-1171,7312]],[[724765,354287],[-3414,22]],[[721351,354309],[3282,551],[16876,-177],[608,126],[27140,4222],[6008,-3468],[3791,530],[1315,1099],[2651,2377],[7827,2624],[13526,939]],[[973315,387470],[-1245,-433]],[[942748,386893],[-11123,-8902],[-14142,-11511],[-148,-54]],[[917335,366426],[-523,-187],[-21,-7]],[[916791,366232],[-17623,-6122]],[[899168,360110],[-11606,-4177],[-235,-36]],[[887327,355897],[-41523,-3327]],[[816733,355936],[-477,-48]],[[816256,355888],[-17544,-3762]],[[798712,352126],[211,228],[7973,2992],[-3119,7541],[-470,-35]],[[709718,319569],[88994,32557]],[[798712,352126],[19192,-13968],[1206,-724],[-1206,7993],[-1648,10461]],[[854073,339001],[538,-247]],[[854611,338754],[-18,-368]],[[854593,338386],[-123,23],[-297,-11]],[[818767,337200],[-863,410],[-19332,14042],[-14974,-5547],[-29801,-10814],[7629,-14043]],[[761426,321248],[-415,-115]],[[761011,321133],[-5127,9344],[-2493,4668],[-43193,-15846],[2879,-11488]],[[713077,307811],[-457,-127]],[[712620,307684],[-938,3968],[-1289,5234],[-675,2683]],[[721351,354309],[1836,2865],[16096,-650],[30648,7126],[6966,-4618],[7396,5881],[11099,3135],[493,-4519],[616,22],[-65,1040],[11496,-20],[4907,-362],[5065,-790],[5536,-863],[3780,-604],[7504,-1200],[5111,449],[4894,472],[747,56],[13342,109],[12315,1462],[10509,171],[11190,1714],[5414,784],[6312,2201],[3371,1186],[3286,3271],[4207,2463],[5422,0]],[[711433,320470],[3281,7310],[4346,9684],[1109,2434],[589,6660],[593,7751]],[[729162,343887],[891,-13265],[-18620,-10152]],[[709718,319569],[1715,901]],[[798808,331654],[-37382,-10406]],[[716021,297489],[-3401,10195]],[[713077,307811],[47934,13322]],[[934957,38604],[1548,5893]],[[936505,44497],[2266,-341],[-1515,-5824],[-2299,272]],[[934117,44877],[2388,-380]],[[934957,38604],[-2416,276]],[[932541,38880],[1576,5997]],[[945938,46590],[4324,-814]],[[950262,45776],[-4721,-10214]],[[945541,35562],[-5086,-303]],[[945541,35562],[-2450,-5182],[-3647,-8067],[559,-2829],[-5703,3063]],[[896197,28053],[-1613,-1587],[-1080,-1690],[-2089,242],[-5704,2836],[-8396,2813]],[[915469,30577],[6211,9417]],[[921680,39994],[-2996,-9271],[-3215,-146]],[[893983,53556],[-1560,-5663]],[[892423,47893],[-4855,738],[1672,5806],[4743,-881]],[[893983,53556],[15264,-561]],[[909247,52995],[-1884,-7338]],[[907363,45657],[-2859,425]],[[904504,46082],[-11565,1731]],[[892939,47813],[-516,80]],[[887477,29774],[4946,18119]],[[892939,47813],[-2662,-18393]],[[904504,46082],[-3101,-18156]],[[907363,45657],[2759,-400]],[[910122,45257],[5140,-791]],[[910122,45257],[455,2777],[5210,-595]],[[909247,52995],[7459,-272]],[[875357,62536],[8742,-2643],[9412,-1703],[7972,378],[5127,-1209],[7645,2947],[3839,327]],[[917158,51387],[6402,161],[-1061,-6335]],[[922499,45213],[-6327,647]],[[922499,45213],[-241,-1593]],[[922258,43620],[-6314,889]],[[922258,43620],[-578,-3626]],[[915469,30577],[-2805,-4205]],[[918787,60771],[1082,231],[6973,-3380],[5963,-4084],[8350,56],[5414,-4333]],[[945478,46998],[-10302,1936],[-1059,-4057]],[[932541,38880],[-1070,-4116]],[[931471,34764],[-1432,-5374],[6238,-1513]],[[931471,34764],[8352,479]],[[946120,93062],[9173,-1080],[3444,-2834],[3539,-273]],[[968946,100895],[-3479,-14688],[-2740,-11070],[-1326,-5354],[-3931,-8573],[-2305,-4854]],[[955165,56356],[-3603,2479]],[[955165,56356],[-1014,-2228]],[[954151,54128],[-3419,2433]],[[954151,54128],[-3889,-8352]],[[929504,56976],[1079,2402]],[[947054,50271],[-5219,4185],[-8509,-142],[-3822,2662]],[[929504,56976],[-1954,1383],[-1131,535],[-4196,1742]],[[918476,62352],[-10115,3180],[-11869,5190],[-277,361],[-4502,4883],[-1568,7430],[-8113,2906]],[[917617,61580],[-3337,-423],[-7717,-2990],[-5027,1321],[-7881,-436],[-9156,1568],[-9054,2632]],[[916799,62065],[-8987,2813],[-1471,595],[-10616,4640],[-5162,5761],[-1630,7152],[-7157,2567]],[[869268,30995],[2443,791]],[[898276,27789],[-2437,-2535],[-1113,-2239],[-3975,318],[-5364,3103],[-11258,4124],[-4861,435]],[[934300,22547],[2032,-3818]],[[842964,28343],[1188,895]],[[844152,29238],[4560,1809]],[[848712,31047],[371,-143]],[[871132,32365],[-2389,-763],[-4215,1616],[-8537,963],[-6835,-2802],[-1991,799]],[[996891,175753],[118,-3230]],[[981647,171953],[-91,3306]],[[977248,171804],[-142,3269]],[[979092,168519],[85,-1431],[-2942,-177],[-400,8172]],[[981840,144165],[13759,589]],[[995599,144754],[3883,166]],[[999482,144920],[-59,-6203]],[[999423,138717],[-17515,-1289]],[[981908,137428],[-68,6737]],[[993721,158780],[85,3409]],[[993806,162189],[1892,87]],[[995698,162276],[172,-3416],[-2149,-80]],[[981503,161691],[3565,159]],[[985068,161850],[8738,339]],[[993721,158780],[-12043,-507],[-175,3418]],[[976988,161529],[-165,4000],[8029,286],[216,-3965]],[[981503,161691],[-4063,-152]],[[977440,161539],[-452,-10]],[[999830,175847],[-6,-726],[-19,-2525]],[[995394,154587],[4252,-13]],[[999646,154574],[-164,-9654]],[[995599,144754],[-205,9833]],[[993629,154599],[92,4181]],[[995698,162276],[4018,187]],[[999716,162463],[-70,-7889]],[[995394,154587],[-1765,12]],[[981232,149598],[5503,57],[846,4937]],[[987581,154592],[6048,7]],[[981840,144165],[-1269,-40]],[[980571,144125],[-3037,-137]],[[977534,143988],[3698,5610]],[[981232,149598],[3261,4990]],[[984493,154588],[3088,4]],[[982082,154566],[2411,22]],[[981232,149598],[850,4968]],[[982082,154566],[-4296,-5]],[[977786,154561],[-346,6978]],[[974381,153695],[3405,866]],[[977534,143988],[-2889,-115]],[[974645,143873],[-84,3141]],[[974561,147014],[-180,6681]],[[971745,161325],[5243,204]],[[974381,153695],[-3643,-875]],[[974561,147014],[-8799,2297],[95,2420]],[[999777,169446],[-61,-6983]],[[934157,136265],[39,2585]],[[934196,138850],[148,9956]],[[934344,148806],[2308,-39]],[[936652,148767],[15282,-299]],[[952022,148466],[-7476,-12292]],[[944546,136174],[-10389,91]],[[922777,149010],[11567,-204]],[[934196,138850],[-11651,56]],[[922545,138906],[232,10104]],[[937232,160431],[1153,60]],[[938385,160491],[10258,555]],[[948643,161046],[6021,284]],[[936652,148767],[580,11664]],[[938385,160491],[26,11505]],[[938411,171996],[10274,474]],[[948685,172470],[-42,-11424]],[[912401,159139],[24831,1292]],[[922777,149010],[-10429,204]],[[912376,170778],[26035,1218]],[[948685,172470],[-19,1764]],[[938411,171996],[23,1928]],[[956695,190072],[7804,-3905],[18874,-9445],[538,3512]],[[983911,180234],[9077,321],[1037,6989],[-9535,-3385]],[[984490,184159],[1648,10696]],[[986138,194855],[12400,259]],[[998538,195114],[1376,-18805]],[[934445,175739],[22743,959]],[[934517,174196],[-72,1543]],[[907937,216214],[23903,-803]],[[931840,215411],[-174,-5953]],[[931666,209458],[-124,-4253]],[[931542,205205],[-70,-2390],[2492,89]],[[933964,202904],[-52,-2021]],[[933912,200883],[-52,-2037]],[[933860,198846],[-3988,-140],[246,-3867],[577,-7086],[4898,189]],[[935593,187942],[20674,683]],[[956294,188449],[-22784,-818],[138,-1754]],[[933648,185877],[259,-3296]],[[933907,182581],[133,-1688]],[[934040,180893],[133,-1695]],[[934173,179198],[136,-1730]],[[934309,177468],[136,-1729]],[[984965,121086],[685,4648]],[[985650,125734],[13490,1969]],[[999140,127703],[-113,-3887]],[[999027,123816],[-14062,-2730]],[[986582,132087],[12735,1261]],[[999317,133348],[-177,-5645]],[[985650,125734],[932,6353]],[[986582,132087],[172,1310]],[[986754,133397],[12584,1201]],[[999338,134598],[-21,-1250]],[[999423,138717],[-85,-4119]],[[986754,133397],[-4801,-460]],[[981953,132937],[-45,4491]],[[981953,132937],[-1249,-108]],[[980704,132829],[-133,11296]],[[977066,132443],[3638,386]],[[986582,132087],[-9850,-948]],[[974936,132223],[-131,5680]],[[974805,137903],[-160,5970]],[[962097,131016],[2378,8247],[10330,-1360]],[[962961,131102],[-864,-86]],[[953200,130106],[4045,19586]],[[962097,131016],[-8897,-910]],[[940058,128811],[4488,7363]],[[953200,130106],[-13142,-1295]],[[934053,129274],[104,6991]],[[940058,128811],[-6005,463]],[[922347,130159],[198,8747]],[[934053,129274],[-11706,885]],[[922347,130159],[-10024,831]],[[984790,119896],[175,1190]],[[999027,123816],[-51,-1294]],[[973279,117718],[1271,4888]],[[973995,117862],[-716,-144]],[[892819,147000],[18614,2085]],[[883240,198108],[6553,1901],[19650,5845]],[[889182,113514],[28609,-6204]],[[922248,108038],[22953,4326],[28078,5354]],[[991766,106940],[-24,0],[-12016,82],[-2337,-1016],[-6194,1757],[-129,1065],[-6760,3303],[-3130,182],[-3648,-2595],[-1440,155],[-6077,-3352],[-2816,457],[-1818,2303],[-1914,-999],[-3335,845],[-4874,-109],[-1810,789],[-7360,-1404],[-3836,-365]],[[922248,108038],[-3110,-595],[-8331,12475],[-11935,10560]],[[991344,106052],[-2746,9],[-4989,17],[-3704,22],[-2360,-994],[-7520,2153],[-66,941],[-6080,3079],[-2201,146],[-3914,-2663],[-1424,197],[-6151,-3360],[-3658,635],[-1525,1947],[-1494,-883],[-3802,1000],[-198,-5]],[[939512,108293],[-4271,-123],[-1856,802],[-6380,-1195],[-6927,-777],[-11,-1],[-1454,-91]],[[917791,107310],[-7934,12363],[-12219,10712]],[[936968,97509],[1275,5404],[202,858],[1067,4522]],[[844970,122973],[43644,-9342]],[[979613,230705],[790,294],[1169,-257]],[[981572,230742],[-1959,-37]],[[970981,230395],[2325,444],[3276,-191],[3031,57]],[[979613,230705],[-1925,-716],[-5335,-18],[-5373,-1500],[-1849,588]],[[965131,229059],[769,208],[5123,810],[-42,318]],[[933327,259392],[6422,3060]],[[939749,262452],[-68,-4282]],[[939681,258170],[-6380,-2958]],[[933301,255212],[26,4180]],[[963593,272129],[1008,-434],[3880,-1657]],[[968481,270038],[-1987,124],[-4246,-4125]],[[962248,266037],[1345,6092]],[[927343,247722],[25647,12038],[3925,-9499]],[[956915,250261],[-22155,-1957],[-7417,-582]],[[920481,243785],[1085,-1587],[28575,-661]],[[950862,242742],[8650,1370]],[[959512,244112],[-567,-1713]],[[950949,241618],[-87,1124]],[[920392,244422],[6951,3300]],[[956915,250261],[2597,-6149]],[[950862,242742],[-28637,1528],[-1745,93],[-88,59]],[[920154,244442],[127,-83],[111,63]],[[961874,225719],[2688,525],[2341,458],[6696,1352],[3436,-185],[4949,94],[1418,368]],[[983402,228331],[-1388,-1782],[-1322,-419],[-3029,276],[-5177,-221],[-5367,324],[-2568,-1029],[-688,-276],[-1338,-51],[-651,566]],[[957261,224817],[4613,902]],[[961874,225719],[-2731,-1352],[-1889,250]],[[957254,224617],[7,200]],[[957394,228482],[2984,-757]],[[960378,227725],[-3030,-310]],[[957348,227415],[46,1067]],[[983911,180234],[579,3925]],[[956364,194344],[8165,140],[21609,371]],[[914651,258095],[5461,35],[587,17502]],[[920699,275632],[-13,930]],[[920686,276562],[-28,1989]],[[920658,278551],[48,491]],[[921219,279291],[14811,7191],[7151,3862]],[[968296,303888],[299,-405]],[[968595,303483],[-14106,-7539]],[[954489,295944],[-2919,-1565]],[[951570,294379],[-1897,-1018]],[[949673,293361],[-8450,-4532]],[[941223,288829],[-5831,-3090],[-14252,-6884],[2,-2093]],[[921142,276762],[-411,-11046]],[[920731,265716],[-113,-5523]],[[920618,260193],[-69,-2560],[-73,-3511]],[[920476,254122],[-23,-866]],[[920453,253256],[-191,-8391],[13004,6097]],[[933266,250962],[6400,3005]],[[939666,253967],[13273,6246],[10436,12440]],[[963375,272653],[1228,-546],[3908,-1737]],[[968511,270370],[-30,-332]],[[963593,272129],[-111,49],[-4939,-5953]],[[958543,266225],[-4997,-6061],[-205,-73],[134,-262],[6508,-15583]],[[959983,244246],[-1568,-6651]],[[958415,237595],[-173,-636]],[[958242,236959],[-606,-2669],[6946,153],[3670,81]],[[968252,234524],[74,-410]],[[968326,234114],[-3771,-57],[-6969,-118],[-142,-4297]],[[957444,229642],[-50,-1160]],[[957348,227415],[-87,-2598]],[[957254,224617],[-220,-9472],[5084,-160],[2418,-118],[791,-38],[18803,-625],[12982,-389]],[[997112,213815],[57,-501]],[[997169,213314],[-8977,265],[-21973,724],[-1684,114],[-3204,114],[-4371,114]],[[956500,214637],[-24660,774]],[[907960,216695],[9618,-359],[4019,-140],[12139,-351]],[[933736,215845],[22842,-718],[258,9700]],[[956836,224827],[32,343]],[[956868,225170],[52,1970]],[[956920,227140],[16,1060]],[[956979,229786],[138,4130],[-6305,-112]],[[950812,233804],[-3698,-68]],[[946776,234044],[2917,71]],[[949693,234115],[7439,149],[599,2688]],[[957731,236952],[112,546]],[[957843,237498],[868,3470],[249,1223]],[[920154,244442],[-380,302]],[[919774,244744],[342,12902],[-5420,0]],[[914696,257646],[-8040,0],[-9241,-97]],[[897415,257549],[-70,437]],[[897345,257986],[17306,109]],[[983402,228331],[2532,627]],[[985934,228958],[1589,-46],[1165,295],[765,988],[3425,778],[754,170],[152,-189],[1931,429]],[[995715,231383],[1397,-17568]],[[985934,228958],[4100,1883],[1205,595],[2121,386],[1778,378],[527,28]],[[995665,232228],[50,-845]],[[960378,227725],[4192,1177],[561,157]],[[981572,230742],[1028,-226],[2777,607],[1190,1082],[1056,236],[1248,-329],[4294,1046],[6,231],[2336,374]],[[995507,233763],[158,-1535]],[[981572,230742],[3336,899],[1526,749]],[[986434,232390],[3438,1647],[2529,611]],[[992401,234648],[3085,29],[21,-914]],[[985619,234460],[6782,188]],[[986434,232390],[-815,2070]],[[970486,234168],[15133,292]],[[970981,230395],[-495,3773]],[[957444,229642],[2721,-725],[4395,1233],[4894,811],[-428,3164]],[[969026,234125],[1460,43]],[[968326,234114],[700,11]],[[931709,230429],[-8,1285],[1655,-4],[-27,-396]],[[923733,231089],[7851,-742]],[[958415,237595],[6157,3645],[4450,2637]],[[969022,243877],[34,-585]],[[969056,243292],[-4497,-2660],[-6317,-3673]],[[969056,243292],[-480,-4401],[-412,-3453],[88,-914]],[[959983,244246],[9039,-369]],[[962248,266037],[-3705,188]],[[962596,273342],[2017,968],[4273,2152]],[[968886,276462],[-83,-1356],[-292,-4736]],[[963375,272653],[-779,689]],[[939666,253967],[15,4203]],[[939749,262452],[22847,10890]],[[933266,250962],[35,4250]],[[920453,253256],[12874,6136]],[[920476,254122],[10937,5222],[37283,17966]],[[968696,277310],[190,-848]],[[920618,260193],[47123,22172]],[[967741,282365],[955,-5055]],[[920731,265716],[16715,8221],[2301,1145],[21034,10336]],[[960781,285418],[1156,574]],[[961937,285992],[2382,1181]],[[964319,287173],[5570,2810]],[[969889,289983],[-2148,-7618]],[[921142,276762],[19938,9781],[143,2286]],[[949673,293361],[3404,-2039],[1707,-1222],[4824,-2719]],[[959608,287381],[1173,-1963]],[[948513,231853],[3615,-1379]],[[952128,230474],[-3377,1066]],[[952128,230474],[2039,-2188]],[[948166,232309],[1900,-417],[373,960]],[[950439,232852],[5129,-3831]],[[939883,233617],[-1632,-590]],[[946076,232888],[-7708,-2640],[-3542,-512]],[[934826,229736],[-2274,-130]],[[949197,228806],[-3163,-137]],[[946034,228669],[-164,2861],[1181,101]],[[946034,228669],[-2107,-184],[-2687,-1115],[-6044,-1435]],[[935196,225935],[-370,3801]],[[935196,225935],[-2316,-101]],[[932880,225834],[-118,1348]],[[932762,227182],[-210,2424]],[[932762,227182],[-12312,1007],[-1244,1365]],[[956920,227140],[-500,-147],[-861,523]],[[950439,232852],[373,952]],[[949693,234115],[-2663,908]],[[947030,235023],[10701,1929]],[[945667,234777],[1363,246]],[[945196,235166],[12647,2332]],[[909104,233065],[14667,197],[13663,246]],[[935227,232294],[-3538,-540],[-3467,-518],[-4225,998],[-6206,-1084],[-5347,1820],[-3372,-290]],[[909072,232680],[32,385]],[[933860,198846],[944,25]],[[934804,198871],[30,-422]],[[934834,198449],[117,-1611]],[[934951,196838],[123,-1703]],[[935074,195135],[126,-1751]],[[935200,193384],[135,-1868]],[[935335,191516],[134,-1859]],[[935469,189657],[124,-1715]],[[933648,185877],[22761,875]],[[956703,183521],[-22796,-940]],[[935469,189657],[20657,806]],[[935335,191516],[20629,808]],[[935200,193384],[20684,730]],[[935074,195135],[20884,696]],[[934951,196838],[18828,757],[2213,43]],[[934834,198449],[21218,793]],[[934804,198871],[11421,443],[9841,340]],[[933912,200883],[22221,835]],[[933964,202904],[22236,825]],[[931542,205205],[24724,945]],[[931666,209458],[24702,960]],[[908892,230527],[180,2153]],[[956821,181733],[-22781,-840]],[[956946,180038],[-22773,-840]],[[957111,178304],[-22802,-836]],[[907492,218996],[-12141,1914],[-118,867]],[[904293,229064],[3167,3606],[1612,10]],[[908892,230527],[-4599,-1463]],[[956868,225170],[-1465,-332],[-1704,253],[-710,1081]],[[956836,224827],[-3796,-479],[-1309,1186]],[[933736,215845],[-360,4212]],[[933376,220057],[-496,5777]],[[908138,219379],[23498,1345],[3,-720],[1737,53]],[[908576,226106],[248,3464]],[[895133,222547],[-469,3493],[9629,3024]],[[897345,257986],[-1858,15880]],[[895487,273866],[19199,-203],[-35,-15568]],[[894835,278652],[5565,-22]],[[900400,278630],[1259,-950],[3454,-367]],[[905113,277313],[15586,-1681]],[[895487,273866],[-652,4786]],[[909104,233065],[12188,8555]],[[819373,202375],[13585,16706],[4164,5112],[7874,10019],[25719,14216],[27960,-5575],[21218,1610]],[[847294,258158],[-3469,-22633]],[[914696,257646],[4,-9387],[-16062,-921]],[[898638,247338],[-1223,10211]],[[919774,244744],[-20152,-1364],[-585,24]],[[899037,243404],[-399,3934]],[[870457,276655],[2593,2082],[5358,-21]],[[878408,278716],[16427,-64]],[[899037,243404],[-9216,1824]],[[889821,245228],[-3867,13364],[-12785,-2945],[4857,11169],[-7569,9839]],[[848244,258918],[22213,17737]],[[889821,245228],[-19312,3862],[-25374,-13975],[-310,-61],[3419,23864]],[[850276,276778],[2329,1218],[2436,36],[2019,784],[1059,1210],[181,1662],[1447,1275],[1366,88],[2707,-436],[4460,582],[2781,-985],[4162,2141],[1334,1280],[1199,327]],[[877756,285960],[652,-7244]],[[954489,295944],[2902,-4855]],[[957391,291089],[-5821,3290]],[[957391,291089],[2217,-3708]],[[957391,291089],[6928,-3916]],[[961937,285992],[-2329,1389]],[[968595,303483],[1539,-10560],[-245,-2940]],[[959318,316178],[5920,1654]],[[965238,317832],[-104,-2305]],[[941329,315106],[-1049,-1723],[1639,-4478],[-506,-2060],[-5607,-6003],[-2961,147],[-3014,-1052],[-4939,-5029],[-2234,-1134]],[[850445,278308],[1170,740],[4516,601],[1066,2644],[2049,1773],[9084,764],[2818,-644],[2733,810],[2427,1943],[1355,50]],[[877663,286989],[93,-1029]],[[877756,285960],[764,208],[2152,-65],[4389,-625],[1534,-837],[4372,-1665],[5054,-1041],[4379,-3305]],[[877663,286989],[3325,123],[4975,-921],[3795,-1690],[7417,-1859],[5162,-4019]],[[902337,278623],[-1937,7]],[[902337,278623],[2759,-287]],[[905096,278336],[17,-1023]],[[905096,278336],[15590,-1774]],[[902337,278623],[18321,-72]],[[877663,286989],[-689,7658]],[[853570,317495],[4863,-472],[34362,219],[10966,-1479],[13621,-8246],[6296,1323]],[[944504,318021],[592,-119]],[[945096,317902],[6800,-734],[3813,889],[3682,-1435],[5244,1498]],[[964635,318120],[603,-288]],[[926397,330553],[19648,1057]],[[946045,331610],[-949,-13708]],[[926481,330929],[984,4798],[21239,-1918],[809,-1736],[-2719,-114],[-15240,-819],[-5073,-211]],[[942298,341567],[28302,6636]],[[970600,348203],[3548,-7503]],[[974148,340700],[-25622,-6476]],[[948526,334224],[-6228,7343]],[[948526,334224],[-20979,1932],[1287,6310],[13063,-957],[401,58]],[[967658,354424],[2942,-6221]],[[942298,341567],[-182,355],[-2635,4865],[28177,7637]],[[853666,319375],[5672,-635],[33564,251],[11988,-1388],[12794,-8051],[6213,1373]],[[974286,340409],[-9862,-5195]],[[964424,335214],[-14255,-3382]],[[950169,331832],[-978,2114],[25095,6463]],[[946045,331610],[4124,222]],[[964424,335214],[6300,-6698],[-8128,-2126],[1536,-4376],[-630,-647],[1133,-3247]],[[853819,322505],[57,1180],[717,14701]],[[854593,338386],[34158,-6494],[7069,1710],[30308,-3063]],[[920345,362309],[11220,3742]],[[931565,366051],[2129,-5070]],[[933694,360981],[-10167,-3103]],[[923527,357878],[-3182,4431]],[[927321,350864],[46361,13136]],[[973682,364000],[1886,-3398],[-5879,-4477],[-1469,-1116]],[[968220,355009],[-29463,-7980],[2920,-5133],[-12846,991],[-1510,7977]],[[925034,355093],[46208,12800]],[[971242,367893],[1445,-2287],[995,-1606]],[[927321,350864],[-2287,4229]],[[933694,360981],[38231,11671]],[[971925,372652],[-224,-2076],[-459,-2683]],[[925034,355093],[-1507,2785]],[[931565,366051],[15135,5049]],[[972501,379828],[-289,-4738],[-287,-2438]],[[895772,334000],[2505,6512]],[[898277,340512],[6652,-322],[23305,2212],[-2140,-11418],[-30322,3016]],[[888510,342373],[9767,-1861]],[[895772,334000],[-6821,-1653],[-441,10026]],[[908267,362653],[8877,3097]],[[917144,365750],[5920,-8098]],[[923064,357652],[-11676,-1935]],[[911388,355717],[-3121,6936]],[[911388,355717],[-10826,-1771]],[[900562,353946],[-1261,5578]],[[899301,359524],[8966,3129]],[[902418,348260],[24441,2496]],[[926859,350756],[1461,-7915],[-23475,-2260]],[[904845,340581],[-2427,7679]],[[901518,350214],[900,-1954]],[[904845,340581],[-6466,305],[-9881,1863]],[[888498,342749],[-260,6019],[13280,1446]],[[899301,359524],[-133,586]],[[916791,366232],[353,-482]],[[920345,362309],[-3010,4117]],[[923064,357652],[3795,-6896]],[[901518,350214],[-192,351]],[[901326,350565],[-764,3381]],[[901326,350565],[-13683,-1381]],[[887643,349184],[-316,6713]],[[887643,349184],[792,-16813],[-33824,6383]],[[997169,213314],[1369,-18200]],[[888498,342749],[12,-376]],[[968220,355009],[-562,-585]],[[974148,340700],[138,-291]],[[926397,330553],[84,376]],[[42576,929778],[2237,2903],[-351,2321],[-958,3430],[-2968,864]],[[40536,939296],[1897,301],[3544,-857],[-1059,-1859],[529,-890],[201,-989],[283,-1348],[-511,-1342],[-2844,-2534]],[[27269,948787],[-10326,5970],[259,320],[4015,250],[4349,2833],[3190,3418],[2942,1111],[3960,4936],[4096,-2100]],[[39754,965525],[5741,-2957]],[[45495,962568],[529,-278]],[[46024,962290],[387,-210],[-357,-276]],[[27488,948933],[-219,-146]],[[39754,965525],[878,330],[4863,-3287]],[[781366,31965],[265,775]],[[848712,31047],[-1499,611],[-3061,-2420]],[[70119,841850],[787,-344],[-9008,-656],[-5197,3596],[-1861,1231],[-2993,693],[-8093,-76],[-172,416],[1558,6]],[[64983,845420],[224,-42]],[[70880,842576],[-367,-363]],[[49854,913382],[-1772,2006]],[[48082,915388],[448,678],[513,1083],[-434,679],[-889,614],[-1007,3378],[-1051,1046]],[[45662,922866],[361,73]],[[46023,922939],[9095,1557],[6163,-4053],[-5515,-3488],[-5912,-3573]],[[48082,915388],[-656,744]],[[47426,916132],[-6,525],[-596,1828],[-901,3201],[-558,1120]],[[45365,922806],[297,60]],[[49854,913382],[-196,-118],[-1086,1215]],[[48572,914479],[-619,689]],[[47953,915168],[129,220]],[[47426,916132],[23,-403]],[[47449,915729],[-2732,3043],[-1245,4249],[1268,292]],[[44740,923313],[498,-306],[127,-201]],[[45365,922806],[-1117,-248],[497,-1654]],[[44745,920904],[806,-2680],[401,-448]],[[45952,917776],[1474,-1644]],[[47953,915168],[-504,561]],[[46024,962290],[4249,1639],[3247,-238],[5384,-1756],[1531,3782],[11698,-3883],[-3092,-7038],[-7181,1968],[-1995,-3808],[-1896,185],[-796,-945],[-6918,954],[-6185,2934],[-7247,-5342],[-4567,-4626],[247,-3971],[4732,-1343],[1394,-951],[1907,-555]],[[42576,929778],[-166,-3654],[1480,-2168],[850,-643]],[[48572,914479],[-1092,-1942],[-2617,-4599],[-3699,-6154],[-103,-172],[-2675,-4767],[-974,-1673],[-1945,-3476],[-583,2210],[1858,7832],[3613,5243],[-2509,4622],[-296,6552],[-6498,2039],[3128,7088],[-2843,3235],[-343,3134],[-504,1351],[-1538,4129],[-317,2595],[-6048,1039],[413,2239],[4269,3783]],[[45952,917776],[-69,1399],[-892,1486],[-246,243]],[[44740,923313],[1120,232],[163,-606]],[[38726,856676],[-2828,514]]],"bbox":[-87355.209,22407.738,-79918.549,31500.063],"transform":{"scale":[0.007436667436667439,0.00909233409233409],"translate":[-87355.209,22407.738]}}