{"type":"Topology","objects":{"01454-4500-1.featurecollection":{"type":"GeometryCollection","geometries":[{"type":"Polygon","arcs":[[0,1,2,3,4,5]],"properties":{"市区町村名":"上川郡当麻町","大字名":null,"丁目名":null,"小字名":null,"地番":"1572-1","精度区分":null,"座標系":"任意座標系"}},{"type":"Polygon","arcs":[[-5,6,7,8]],"properties":{"市区町村名":"上川郡当麻町","大字名":null,"丁目名":null,"小字名":null,"地番":"1572-4","精度区分":null,"座標系":"任意座標系"}},{"type":"Polygon","arcs":[[9,-3,10]],"properties":{"市区町村名":"上川郡当麻町","大字名":null,"丁目名":null,"小字名":null,"地番":"1572-7","精度区分":null,"座標系":"任意座標系"}},{"type":"Polygon","arcs":[[-8,11,12,13]],"properties":{"市区町村名":"上川郡当麻町","大字名":null,"丁目名":null,"小字名":null,"地番":"1572-3W1","精度区分":null,"座標系":"任意座標系"}},{"type":"Polygon","arcs":[[-6,-9,-14,14,15,16,17]],"properties":{"市区町村名":"上川郡当麻町","大字名":null,"丁目名":null,"小字名":null,"地番":"1572-3W2","精度区分":null,"座標系":"任意座標系"}},{"type":"Polygon","arcs":[[18,19,-2,20]],"properties":{"市区町村名":"上川郡当麻町","大字名":null,"丁目名":null,"小字名":null,"地番":"1573-1","精度区分":null,"座標系":"任意座標系"}},{"type":"Polygon","arcs":[[21,-11,-20]],"properties":{"市区町村名":"上川郡当麻町","大字名":null,"丁目名":null,"小字名":null,"地番":"1573-6","精度区分":null,"座標系":"任意座標系"}},{"type":"Polygon","arcs":[[22,23,24,25,26]],"properties":{"市区町村名":"上川郡当麻町","大字名":null,"丁目名":null,"小字名":null,"地番":"1574-1","精度区分":null,"座標系":"任意座標系"}},{"type":"Polygon","arcs":[[27,-27,28,29,30,31]],"properties":{"市区町村名":"上川郡当麻町","大字名":null,"丁目名":null,"小字名":null,"地番":"1574-4","精度区分":null,"座標系":"任意座標系"}},{"type":"Polygon","arcs":[[32,33,34,35]],"properties":{"市区町村名":"上川郡当麻町","大字名":null,"丁目名":null,"小字名":null,"地番":"1576-1","精度区分":null,"座標系":"任意座標系"}},{"type":"Polygon","arcs":[[36,37,-34,38]],"properties":{"市区町村名":"上川郡当麻町","大字名":null,"丁目名":null,"小字名":null,"地番":"1576-3","精度区分":null,"座標系":"任意座標系"}},{"type":"Polygon","arcs":[[39,40,-37,41]],"properties":{"市区町村名":"上川郡当麻町","大字名":null,"丁目名":null,"小字名":null,"地番":"1576-4","精度区分":null,"座標系":"任意座標系"}},{"type":"Polygon","arcs":[[42,43,-40,44]],"properties":{"市区町村名":"上川郡当麻町","大字名":null,"丁目名":null,"小字名":null,"地番":"1576-5","精度区分":null,"座標系":"任意座標系"}},{"type":"Polygon","arcs":[[45,46,-43,47]],"properties":{"市区町村名":"上川郡当麻町","大字名":null,"丁目名":null,"小字名":null,"地番":"1576-6","精度区分":null,"座標系":"任意座標系"}},{"type":"Polygon","arcs":[[48,49,-46,50]],"properties":{"市区町村名":"上川郡当麻町","大字名":null,"丁目名":null,"小字名":null,"地番":"1576-7","精度区分":null,"座標系":"任意座標系"}},{"type":"Polygon","arcs":[[51,52,-35,-38,-41,-44,-47,-50,53,54,55,56]],"properties":{"市区町村名":"上川郡当麻町","大字名":null,"丁目名":null,"小字名":null,"地番":"1576-10","精度区分":null,"座標系":"任意座標系"}},{"type":"Polygon","arcs":[[57,58,59,-55]],"properties":{"市区町村名":"上川郡当麻町","大字名":null,"丁目名":null,"小字名":null,"地番":"1576-11","精度区分":null,"座標系":"任意座標系"}},{"type":"Polygon","arcs":[[60,61,62,63]],"properties":{"市区町村名":"上川郡当麻町","大字名":null,"丁目名":null,"小字名":null,"地番":"1577-1","精度区分":null,"座標系":"任意座標系"}},{"type":"Polygon","arcs":[[64,65,66]],"properties":{"市区町村名":"上川郡当麻町","大字名":null,"丁目名":null,"小字名":null,"地番":"1577-3","精度区分":null,"座標系":"任意座標系"}},{"type":"Polygon","arcs":[[67,68,69,70,71,72,-61]],"properties":{"市区町村名":"上川郡当麻町","大字名":null,"丁目名":null,"小字名":null,"地番":"1577-4","精度区分":null,"座標系":"任意座標系"}},{"type":"Polygon","arcs":[[-63,73,-51,-48,-45,-42,-39,-33,74,75]],"properties":{"市区町村名":"上川郡当麻町","大字名":null,"丁目名":null,"小字名":null,"地番":"1577-12","精度区分":null,"座標系":"任意座標系"}},{"type":"Polygon","arcs":[[-68,-64,-76,76,77,78,-70,79]],"properties":{"市区町村名":"上川郡当麻町","大字名":null,"丁目名":null,"小字名":null,"地番":"1579-1","精度区分":null,"座標系":"任意座標系"}},{"type":"Polygon","arcs":[[-52,80,-78,81]],"properties":{"市区町村名":"上川郡当麻町","大字名":null,"丁目名":null,"小字名":null,"地番":"1579-3","精度区分":null,"座標系":"任意座標系"}},{"type":"Polygon","arcs":[[-36,-53,-82,-77,-75]],"properties":{"市区町村名":"上川郡当麻町","大字名":null,"丁目名":null,"小字名":null,"地番":"1579-4","精度区分":null,"座標系":"任意座標系"}},{"type":"Polygon","arcs":[[82,-32,83,-59]],"properties":{"市区町村名":"上川郡当麻町","大字名":null,"丁目名":null,"小字名":null,"地番":"1579-5","精度区分":null,"座標系":"任意座標系"}},{"type":"Polygon","arcs":[[84,85,86,-30]],"properties":{"市区町村名":"上川郡当麻町","大字名":null,"丁目名":null,"小字名":null,"地番":"1579-7","精度区分":null,"座標系":"任意座標系"}},{"type":"Polygon","arcs":[[87,88,89,90]],"properties":{"市区町村名":"上川郡当麻町","大字名":null,"丁目名":null,"小字名":null,"地番":"1691-2","精度区分":null,"座標系":"任意座標系"}},{"type":"Polygon","arcs":[[91,92,93,94,95]],"properties":{"市区町村名":"上川郡当麻町","大字名":null,"丁目名":null,"小字名":null,"地番":"1691-5","精度区分":null,"座標系":"任意座標系"}},{"type":"Polygon","arcs":[[96,97,98,99,100]],"properties":{"市区町村名":"上川郡当麻町","大字名":null,"丁目名":null,"小字名":null,"地番":"1691-6","精度区分":null,"座標系":"任意座標系"}},{"type":"Polygon","arcs":[[101,102,103,104,105]],"properties":{"市区町村名":"上川郡当麻町","大字名":null,"丁目名":null,"小字名":null,"地番":"1691-9","精度区分":null,"座標系":"任意座標系"}},{"type":"Polygon","arcs":[[106,107,-99]],"properties":{"市区町村名":"上川郡当麻町","大字名":null,"丁目名":null,"小字名":null,"地番":"1691-10","精度区分":null,"座標系":"任意座標系"}},{"type":"Polygon","arcs":[[108,-91,109,-96,110,-107]],"properties":{"市区町村名":"上川郡当麻町","大字名":null,"丁目名":null,"小字名":null,"地番":"1691-20","精度区分":null,"座標系":"任意座標系"}},{"type":"Polygon","arcs":[[111,112,113,114,115,-67,116]],"properties":{"市区町村名":"上川郡当麻町","大字名":null,"丁目名":null,"小字名":null,"地番":"1844-1","精度区分":null,"座標系":"任意座標系"}},{"type":"Polygon","arcs":[[117,118,119,120]],"properties":{"市区町村名":"上川郡当麻町","大字名":null,"丁目名":null,"小字名":null,"地番":"1844-2","精度区分":null,"座標系":"任意座標系"}},{"type":"Polygon","arcs":[[121,-118,122,123]],"properties":{"市区町村名":"上川郡当麻町","大字名":null,"丁目名":null,"小字名":null,"地番":"1844-4","精度区分":null,"座標系":"任意座標系"}},{"type":"Polygon","arcs":[[124,125,126,-117,-66,127,-72,128,129,-123,-121]],"properties":{"市区町村名":"上川郡当麻町","大字名":null,"丁目名":null,"小字名":null,"地番":"1844-7","精度区分":null,"座標系":"任意座標系"}},{"type":"Polygon","arcs":[[-120,130,131,-125]],"properties":{"市区町村名":"上川郡当麻町","大字名":null,"丁目名":null,"小字名":null,"地番":"1844-13","精度区分":null,"座標系":"任意座標系"}},{"type":"Polygon","arcs":[[-132,132,133,-126]],"properties":{"市区町村名":"上川郡当麻町","大字名":null,"丁目名":null,"小字名":null,"地番":"1844-14","精度区分":null,"座標系":"任意座標系"}},{"type":"Polygon","arcs":[[134,-124,-130,135]],"properties":{"市区町村名":"上川郡当麻町","大字名":null,"丁目名":null,"小字名":null,"地番":"1844-15","精度区分":null,"座標系":"任意座標系"}},{"type":"Polygon","arcs":[[136,137,138,139,140,141]],"properties":{"市区町村名":"上川郡当麻町","大字名":null,"丁目名":null,"小字名":null,"地番":"1846-1","精度区分":null,"座標系":"任意座標系"}},{"type":"Polygon","arcs":[[142,143,144,145]],"properties":{"市区町村名":"上川郡当麻町","大字名":null,"丁目名":null,"小字名":null,"地番":"1846-12","精度区分":null,"座標系":"任意座標系"}},{"type":"Polygon","arcs":[[146,147,148,149,150]],"properties":{"市区町村名":"上川郡当麻町","大字名":null,"丁目名":null,"小字名":null,"地番":"1846-15","精度区分":null,"座標系":"任意座標系"}},{"type":"Polygon","arcs":[[151,152,153,154]],"properties":{"市区町村名":"上川郡当麻町","大字名":null,"丁目名":null,"小字名":null,"地番":"1846-16","精度区分":null,"座標系":"任意座標系"}},{"type":"Polygon","arcs":[[-105,155,156,157]],"properties":{"市区町村名":"上川郡当麻町","大字名":null,"丁目名":null,"小字名":null,"地番":"1846-19","精度区分":null,"座標系":"任意座標系"}},{"type":"Polygon","arcs":[[158,159,160,161,162]],"properties":{"市区町村名":"上川郡当麻町","大字名":null,"丁目名":null,"小字名":null,"地番":"1846-20","精度区分":null,"座標系":"任意座標系"}},{"type":"Polygon","arcs":[[163,164,165,-89]],"properties":{"市区町村名":"上川郡当麻町","大字名":null,"丁目名":null,"小字名":null,"地番":"1846-40","精度区分":null,"座標系":"任意座標系"}},{"type":"Polygon","arcs":[[166,-147,167,168]],"properties":{"市区町村名":"上川郡当麻町","大字名":null,"丁目名":null,"小字名":null,"地番":"1846-42","精度区分":null,"座標系":"任意座標系"}},{"type":"Polygon","arcs":[[-168,-151,169,-155,170,171,-139,172,-144,173]],"properties":{"市区町村名":"上川郡当麻町","大字名":null,"丁目名":null,"小字名":null,"地番":"1846-45","精度区分":null,"座標系":"任意座標系"}},{"type":"Polygon","arcs":[[-160,174,175,176]],"properties":{"市区町村名":"上川郡当麻町","大字名":null,"丁目名":null,"小字名":null,"地番":"1846-49","精度区分":null,"座標系":"任意座標系"}},{"type":"Polygon","arcs":[[177,-106,-158,178,-162,179,180,-153,181,-148,-167,182]],"properties":{"市区町村名":"上川郡当麻町","大字名":null,"丁目名":null,"小字名":null,"地番":"1846-60","精度区分":null,"座標系":"任意座標系"}},{"type":"Polygon","arcs":[[183,-102,-178,184]],"properties":{"市区町村名":"上川郡当麻町","大字名":null,"丁目名":null,"小字名":null,"地番":"1846-63","精度区分":null,"座標系":"任意座標系"}},{"type":"Polygon","arcs":[[185,186,187,188,189,190]],"properties":{"市区町村名":"上川郡当麻町","大字名":null,"丁目名":null,"小字名":null,"地番":"1847-62","精度区分":null,"座標系":"任意座標系"}},{"type":"Polygon","arcs":[[191,192]],"properties":{"市区町村名":"上川郡当麻町","大字名":null,"丁目名":null,"小字名":null,"地番":"1847-71","精度区分":null,"座標系":"任意座標系"}},{"type":"Polygon","arcs":[[193,-186,194]],"properties":{"市区町村名":"上川郡当麻町","大字名":null,"丁目名":null,"小字名":null,"地番":"1847-81","精度区分":null,"座標系":"任意座標系"}},{"type":"Polygon","arcs":[[195,196,197,198]],"properties":{"市区町村名":"上川郡当麻町","大字名":null,"丁目名":null,"小字名":null,"地番":"1851-2","精度区分":null,"座標系":"任意座標系"}},{"type":"Polygon","arcs":[[199,200,201]],"properties":{"市区町村名":"上川郡当麻町","大字名":null,"丁目名":null,"小字名":null,"地番":"1851-3","精度区分":null,"座標系":"任意座標系"}},{"type":"Polygon","arcs":[[202,203,204]],"properties":{"市区町村名":"上川郡当麻町","大字名":null,"丁目名":null,"小字名":null,"地番":"1851-5","精度区分":null,"座標系":"任意座標系"}},{"type":"Polygon","arcs":[[205,206]],"properties":{"市区町村名":"上川郡当麻町","大字名":null,"丁目名":null,"小字名":null,"地番":"1851-7","精度区分":null,"座標系":"任意座標系"}},{"type":"Polygon","arcs":[[207,208,209,210]],"properties":{"市区町村名":"上川郡当麻町","大字名":null,"丁目名":null,"小字名":null,"地番":"1851-19","精度区分":null,"座標系":"任意座標系"}},{"type":"Polygon","arcs":[[211,212,213,214]],"properties":{"市区町村名":"上川郡当麻町","大字名":null,"丁目名":null,"小字名":null,"地番":"1851-21","精度区分":null,"座標系":"任意座標系"}},{"type":"Polygon","arcs":[[215,216,217,218,219,220]],"properties":{"市区町村名":"上川郡当麻町","大字名":null,"丁目名":null,"小字名":null,"地番":"1851-22","精度区分":null,"座標系":"任意座標系"}},{"type":"Polygon","arcs":[[221,222,223,224,225,226]],"properties":{"市区町村名":"上川郡当麻町","大字名":null,"丁目名":null,"小字名":null,"地番":"1851-23","精度区分":null,"座標系":"任意座標系"}},{"type":"Polygon","arcs":[[227,228,229]],"properties":{"市区町村名":"上川郡当麻町","大字名":null,"丁目名":null,"小字名":null,"地番":"1851-25","精度区分":null,"座標系":"任意座標系"}},{"type":"Polygon","arcs":[[230,231]],"properties":{"市区町村名":"上川郡当麻町","大字名":null,"丁目名":null,"小字名":null,"地番":"1851-28","精度区分":null,"座標系":"任意座標系"}},{"type":"Polygon","arcs":[[-215,232,-217,233,-223,234,235]],"properties":{"市区町村名":"上川郡当麻町","大字名":null,"丁目名":null,"小字名":null,"地番":"1851-39","精度区分":null,"座標系":"任意座標系"}},{"type":"Polygon","arcs":[[-199,236,-202,237,238,239,-219,240,-213,241]],"properties":{"市区町村名":"上川郡当麻町","大字名":null,"丁目名":null,"小字名":null,"地番":"1851-41","精度区分":null,"座標系":"任意座標系"}},{"type":"Polygon","arcs":[[242,243,-226,244]],"properties":{"市区町村名":"上川郡当麻町","大字名":null,"丁目名":null,"小字名":null,"地番":"1851-42","精度区分":null,"座標系":"任意座標系"}},{"type":"Polygon","arcs":[[-220,-240,245,246]],"properties":{"市区町村名":"上川郡当麻町","大字名":null,"丁目名":null,"小字名":null,"地番":"1851-43","精度区分":null,"座標系":"任意座標系"}},{"type":"Polygon","arcs":[[247,-231,248,249]],"properties":{"市区町村名":"上川郡当麻町","大字名":null,"丁目名":null,"小字名":null,"地番":"1851-44","精度区分":null,"座標系":"任意座標系"}},{"type":"Polygon","arcs":[[250,251,252,-206]],"properties":{"市区町村名":"上川郡当麻町","大字名":null,"丁目名":null,"小字名":null,"地番":"1851-45","精度区分":null,"座標系":"任意座標系"}},{"type":"Polygon","arcs":[[253,254,255,-210]],"properties":{"市区町村名":"上川郡当麻町","大字名":null,"丁目名":null,"小字名":null,"地番":"1851-46","精度区分":null,"座標系":"任意座標系"}},{"type":"Polygon","arcs":[[256,257,258,259,-229]],"properties":{"市区町村名":"上川郡当麻町","大字名":null,"丁目名":null,"小字名":null,"地番":"1851-47","精度区分":null,"座標系":"任意座標系"}},{"type":"Polygon","arcs":[[260,261,-197,262]],"properties":{"市区町村名":"上川郡当麻町","大字名":null,"丁目名":null,"小字名":null,"地番":"1851-49","精度区分":null,"座標系":"任意座標系"}},{"type":"Polygon","arcs":[[263,264,-238,-201,265]],"properties":{"市区町村名":"上川郡当麻町","大字名":null,"丁目名":null,"小字名":null,"地番":"1851-50","精度区分":null,"座標系":"任意座標系"}},{"type":"Polygon","arcs":[[266,267,-203,268]],"properties":{"市区町村名":"上川郡当麻町","大字名":null,"丁目名":null,"小字名":null,"地番":"1851-51","精度区分":null,"座標系":"任意座標系"}},{"type":"Polygon","arcs":[[-241,-218,-233,-214]],"properties":{"市区町村名":"上川郡当麻町","大字名":null,"丁目名":null,"小字名":null,"地番":"1851-31W1","精度区分":null,"座標系":"任意座標系"}},{"type":"Polygon","arcs":[[-260,269,-254,-209,270,-230]],"properties":{"市区町村名":"上川郡当麻町","大字名":null,"丁目名":null,"小字名":null,"地番":"1851-31W2","精度区分":null,"座標系":"任意座標系"}},{"type":"Polygon","arcs":[[271,272,273,274]],"properties":{"市区町村名":"上川郡当麻町","大字名":null,"丁目名":null,"小字名":null,"地番":"1852-1","精度区分":null,"座標系":"任意座標系"}},{"type":"Polygon","arcs":[[275,276,277,278]],"properties":{"市区町村名":"上川郡当麻町","大字名":null,"丁目名":null,"小字名":null,"地番":"1852-2","精度区分":null,"座標系":"任意座標系"}},{"type":"Polygon","arcs":[[279,-275,280,281]],"properties":{"市区町村名":"上川郡当麻町","大字名":null,"丁目名":null,"小字名":null,"地番":"1852-3","精度区分":null,"座標系":"任意座標系"}},{"type":"Polygon","arcs":[[282,283]],"properties":{"市区町村名":"上川郡当麻町","大字名":null,"丁目名":null,"小字名":null,"地番":"1852-6","精度区分":null,"座標系":"任意座標系"}},{"type":"Polygon","arcs":[[284,285,286]],"properties":{"市区町村名":"上川郡当麻町","大字名":null,"丁目名":null,"小字名":null,"地番":"1852-9","精度区分":null,"座標系":"任意座標系"}},{"type":"Polygon","arcs":[[287,288,289,290]],"properties":{"市区町村名":"上川郡当麻町","大字名":null,"丁目名":null,"小字名":null,"地番":"1852-12","精度区分":null,"座標系":"任意座標系"}},{"type":"Polygon","arcs":[[291,292,293]],"properties":{"市区町村名":"上川郡当麻町","大字名":null,"丁目名":null,"小字名":null,"地番":"1852-17","精度区分":null,"座標系":"任意座標系"}},{"type":"Polygon","arcs":[[-284,294,295,296]],"properties":{"市区町村名":"上川郡当麻町","大字名":null,"丁目名":null,"小字名":null,"地番":"1852-18","精度区分":null,"座標系":"任意座標系"}},{"type":"Polygon","arcs":[[297,298,299]],"properties":{"市区町村名":"上川郡当麻町","大字名":null,"丁目名":null,"小字名":null,"地番":"1852-20","精度区分":null,"座標系":"任意座標系"}},{"type":"Polygon","arcs":[[300,-300,301,302]],"properties":{"市区町村名":"上川郡当麻町","大字名":null,"丁目名":null,"小字名":null,"地番":"1852-21","精度区分":null,"座標系":"任意座標系"}},{"type":"Polygon","arcs":[[303,304,305,-273]],"properties":{"市区町村名":"上川郡当麻町","大字名":null,"丁目名":null,"小字名":null,"地番":"1852-22","精度区分":null,"座標系":"任意座標系"}},{"type":"Polygon","arcs":[[306,307,308,-293]],"properties":{"市区町村名":"上川郡当麻町","大字名":null,"丁目名":null,"小字名":null,"地番":"1852-25","精度区分":null,"座標系":"任意座標系"}},{"type":"Polygon","arcs":[[309,310,-308,311,312]],"properties":{"市区町村名":"上川郡当麻町","大字名":null,"丁目名":null,"小字名":null,"地番":"1852-28","精度区分":null,"座標系":"任意座標系"}},{"type":"Polygon","arcs":[[-277,313,314,315]],"properties":{"市区町村名":"上川郡当麻町","大字名":null,"丁目名":null,"小字名":null,"地番":"1852-32","精度区分":null,"座標系":"任意座標系"}},{"type":"Polygon","arcs":[[316,317,318,-304,-272,-280,319,-288,320,321,-285]],"properties":{"市区町村名":"上川郡当麻町","大字名":null,"丁目名":null,"小字名":null,"地番":"1852-33","精度区分":null,"座標系":"任意座標系"}},{"type":"Polygon","arcs":[[322,323,-279,324]],"properties":{"市区町村名":"上川郡当麻町","大字名":null,"丁目名":null,"小字名":null,"地番":"1852-38","精度区分":null,"座標系":"任意座標系"}},{"type":"Polygon","arcs":[[-303,325,-315,326]],"properties":{"市区町村名":"上川郡当麻町","大字名":null,"丁目名":null,"小字名":null,"地番":"1852-42","精度区分":null,"座標系":"任意座標系"}},{"type":"Polygon","arcs":[[-291,327,328,329,-321]],"properties":{"市区町村名":"上川郡当麻町","大字名":null,"丁目名":null,"小字名":null,"地番":"1852-44","精度区分":null,"座標系":"任意座標系"}},{"type":"Polygon","arcs":[[330,331,-296,332]],"properties":{"市区町村名":"上川郡当麻町","大字名":null,"丁目名":null,"小字名":null,"地番":"1852-45","精度区分":null,"座標系":"任意座標系"}},{"type":"Polygon","arcs":[[333,334,-305,-319,335]],"properties":{"市区町村名":"上川郡当麻町","大字名":null,"丁目名":null,"小字名":null,"地番":"1852-46","精度区分":null,"座標系":"任意座標系"}},{"type":"Polygon","arcs":[[336,337,338,-310]],"properties":{"市区町村名":"上川郡当麻町","大字名":null,"丁目名":null,"小字名":null,"地番":"1852-49","精度区分":null,"座標系":"任意座標系"}},{"type":"Polygon","arcs":[[-307,-292,339,-312]],"properties":{"市区町村名":"上川郡当麻町","大字名":null,"丁目名":null,"小字名":null,"地番":"1852-50","精度区分":null,"座標系":"任意座標系"}},{"type":"Polygon","arcs":[[340,341,-274,342]],"properties":{"市区町村名":"上川郡当麻町","大字名":null,"丁目名":null,"小字名":null,"地番":"1852-51","精度区分":null,"座標系":"任意座標系"}},{"type":"Polygon","arcs":[[-281,-342,343,344]],"properties":{"市区町村名":"上川郡当麻町","大字名":null,"丁目名":null,"小字名":null,"地番":"1852-52","精度区分":null,"座標系":"任意座標系"}},{"type":"Polygon","arcs":[[-290,345,346,-328]],"properties":{"市区町村名":"上川郡当麻町","大字名":null,"丁目名":null,"小字名":null,"地番":"1852-53","精度区分":null,"座標系":"任意座標系"}},{"type":"Polygon","arcs":[[347,-343,-306,-335]],"properties":{"市区町村名":"上川郡当麻町","大字名":null,"丁目名":null,"小字名":null,"地番":"1852-54","精度区分":null,"座標系":"任意座標系"}},{"type":"Polygon","arcs":[[-149,-182,-152,-170]],"properties":{"市区町村名":"上川郡当麻町","大字名":null,"丁目名":null,"小字名":null,"地番":"無地番-5","精度区分":null,"座標系":"任意座標系"}},{"type":"Polygon","arcs":[[-13,348,349,-15]],"properties":{"市区町村名":"上川郡当麻町","大字名":null,"丁目名":null,"小字名":null,"地番":"無地番-10","精度区分":null,"座標系":"任意座標系"}},{"type":"Polygon","arcs":[[350,-136,-129,-71,-79,-81,-57,351]],"properties":{"市区町村名":"上川郡当麻町","大字名":null,"丁目名":null,"小字名":null,"地番":"無地番-11","精度区分":null,"座標系":"任意座標系"}},{"type":"Polygon","arcs":[[-198,-262,352,-266,-200,-237]],"properties":{"市区町村名":"上川郡当麻町","大字名":null,"丁目名":null,"小字名":null,"地番":"無地番-62","精度区分":null,"座標系":"任意座標系"}},{"type":"Polygon","arcs":[[353,-329,-347,354,-344,-341,-348,-334,355,356]],"properties":{"市区町村名":"上川郡当麻町","大字名":null,"丁目名":null,"小字名":null,"地番":"道-8","精度区分":null,"座標系":"任意座標系"}},{"type":"Polygon","arcs":[[357,358,-258,359,-243,360,-246,-239,-265,361]],"properties":{"市区町村名":"上川郡当麻町","大字名":null,"丁目名":null,"小字名":null,"地番":"道-9","精度区分":null,"座標系":"任意座標系"}},{"type":"Polygon","arcs":[[362]],"properties":{"市区町村名":"上川郡当麻町","大字名":null,"丁目名":null,"小字名":null,"地番":"道-91","精度区分":null,"座標系":"任意座標系"}},{"type":"Polygon","arcs":[[363,-221,-247,-361,-245,-225]],"properties":{"市区町村名":"上川郡当麻町","大字名":null,"丁目名":null,"小字名":null,"地番":"道-93","精度区分":null,"座標系":"任意座標系"}},{"type":"Polygon","arcs":[[364,365,-286,-322,-330,-354,366,-362,-264,-353,-261,367,-267,368,369,-331]],"properties":{"市区町村名":"上川郡当麻町","大字名":null,"丁目名":null,"小字名":null,"地番":"道-96","精度区分":null,"座標系":"任意座標系"}},{"type":"Polygon","arcs":[[-108,-111,-95,370,-93,371,-146,372,-137,373,-141,374,375,-100]],"properties":{"市区町村名":"上川郡当麻町","大字名":null,"丁目名":null,"小字名":null,"地番":"道-99","精度区分":null,"座標系":"任意座標系"}},{"type":"Polygon","arcs":[[-115,376,-113,377,-133,-131,-119,-122,-135,-351,378,379]],"properties":{"市区町村名":"上川郡当麻町","大字名":null,"丁目名":null,"小字名":null,"地番":"道-103","精度区分":null,"座標系":"任意座標系"}},{"type":"Polygon","arcs":[[-250,380,-252,381,-255,-270,-259,-359,382]],"properties":{"市区町村名":"上川郡当麻町","大字名":null,"丁目名":null,"小字名":null,"地番":"道-113","精度区分":null,"座標系":"任意座標系"}},{"type":"Polygon","arcs":[[383,384,385,-338,386,-356,-336,-318,387]],"properties":{"市区町村名":"上川郡当麻町","大字名":null,"丁目名":null,"小字名":null,"地番":"道-115","精度区分":null,"座標系":"任意座標系"}},{"type":"Polygon","arcs":[[388,-163,-179,-157]],"properties":{"市区町村名":"上川郡当麻町","大字名":null,"丁目名":null,"小字名":null,"地番":"水-10","精度区分":null,"座標系":"任意座標系"}},{"type":"Polygon","arcs":[[-98,389,390,-164,-88,-109]],"properties":{"市区町村名":"上川郡当麻町","大字名":null,"丁目名":null,"小字名":null,"地番":"水-17","精度区分":null,"座標系":"任意座標系"}},{"type":"Polygon","arcs":[[-101,-376,391,-379,-352,-56,-60,-84,-31,-87,392,-17,393,394]],"properties":{"市区町村名":"上川郡当麻町","大字名":null,"丁目名":null,"小字名":null,"地番":"水-146","精度区分":null,"座標系":"任意座標系"}},{"type":"Polygon","arcs":[[-287,-366,395,396,-388,-317]],"properties":{"市区町村名":"上川郡当麻町","大字名":null,"丁目名":null,"小字名":null,"地番":"水-151","精度区分":null,"座標系":"任意座標系"}},{"type":"Polygon","arcs":[[397,398,-171,-154,-181]],"properties":{"市区町村名":"上川郡当麻町","大字名":null,"丁目名":null,"小字名":null,"地番":"1846-17","精度区分":null,"座標系":"任意座標系"}},{"type":"Polygon","arcs":[[-271,-208,399,400,-227,-244,-360,-257,-228]],"properties":{"市区町村名":"上川郡当麻町","大字名":null,"丁目名":null,"小字名":null,"地番":"1851-35","精度区分":null,"座標系":"任意座標系"}},{"type":"Polygon","arcs":[[-235,-222,-401,401]],"properties":{"市区町村名":"上川郡当麻町","大字名":null,"丁目名":null,"小字名":null,"地番":"無地番-59","精度区分":null,"座標系":"任意座標系"}},{"type":"Polygon","arcs":[[-298,-301,-327,-314,-276,-324,402,403,-384,-397,404]],"properties":{"市区町村名":"上川郡当麻町","大字名":null,"丁目名":null,"小字名":null,"地番":"1852-31","精度区分":null,"座標系":"任意座標系"}},{"type":"Polygon","arcs":[[405,-205,406]],"properties":{"市区町村名":"上川郡当麻町","大字名":null,"丁目名":null,"小字名":null,"地番":"1851-15","精度区分":null,"座標系":"任意座標系"}},{"type":"Polygon","arcs":[[-369,-269,-406,407]],"properties":{"市区町村名":"上川郡当麻町","大字名":null,"丁目名":null,"小字名":null,"地番":"1851-52","精度区分":null,"座標系":"任意座標系"}},{"type":"Polygon","arcs":[[-404,408,409,-385]],"properties":{"市区町村名":"上川郡当麻町","大字名":null,"丁目名":null,"小字名":null,"地番":"1852-47","精度区分":null,"座標系":"任意座標系"}},{"type":"Polygon","arcs":[[410,-25]],"properties":{"市区町村名":"上川郡当麻町","大字名":null,"丁目名":null,"小字名":null,"地番":"1574-3","精度区分":null,"座標系":"任意座標系"}},{"type":"Polygon","arcs":[[411,-411,-24,412,-21,-1,-18,-393,-86]],"properties":{"市区町村名":"上川郡当麻町","大字名":null,"丁目名":null,"小字名":null,"地番":"1572-6","精度区分":null,"座標系":"任意座標系"}},{"type":"Polygon","arcs":[[-26,-412,-85,-29]],"properties":{"市区町村名":"上川郡当麻町","大字名":null,"丁目名":null,"小字名":null,"地番":"1579-21","精度区分":null,"座標系":"任意座標系"}},{"type":"Polygon","arcs":[[-350,413,-394,-16]],"properties":{"市区町村名":"上川郡当麻町","大字名":null,"丁目名":null,"小字名":null,"地番":"1579-66","精度区分":null,"座標系":"任意座標系"}},{"type":"Polygon","arcs":[[-138,-373,-145,-173]],"properties":{"市区町村名":"上川郡当麻町","大字名":null,"丁目名":null,"小字名":null,"地番":"1846-52","精度区分":null,"座標系":"任意座標系"}},{"type":"Polygon","arcs":[[-409,-403,-323,414]],"properties":{"市区町村名":"上川郡当麻町","大字名":null,"丁目名":null,"小字名":null,"地番":"1852-23","精度区分":null,"座標系":"任意座標系"}},{"type":"Polygon","arcs":[[415,416,417]],"properties":{"市区町村名":"上川郡当麻町","大字名":null,"丁目名":null,"小字名":null,"地番":"1847-82","精度区分":null,"座標系":"任意座標系"}},{"type":"Polygon","arcs":[[418,419,420,-417]],"properties":{"市区町村名":"上川郡当麻町","大字名":null,"丁目名":null,"小字名":null,"地番":"1847-13","精度区分":null,"座標系":"任意座標系"}},{"type":"Polygon","arcs":[[421,422,423]],"properties":{"市区町村名":"上川郡当麻町","大字名":null,"丁目名":null,"小字名":null,"地番":"1847-83","精度区分":null,"座標系":"任意座標系"}},{"type":"Polygon","arcs":[[-423,424,425,426],[-193,427]],"properties":{"市区町村名":"上川郡当麻町","大字名":null,"丁目名":null,"小字名":null,"地番":"1847-33","精度区分":null,"座標系":"任意座標系"}},{"type":"Polygon","arcs":[[428,-424,429,-416]],"properties":{"市区町村名":"上川郡当麻町","大字名":null,"丁目名":null,"小字名":null,"地番":"1847-86","精度区分":null,"座標系":"任意座標系"}},{"type":"Polygon","arcs":[[-430,-427,430,-419]],"properties":{"市区町村名":"上川郡当麻町","大字名":null,"丁目名":null,"小字名":null,"地番":"1847-37","精度区分":null,"座標系":"任意座標系"}},{"type":"Polygon","arcs":[[431,432,433,434]],"properties":{"市区町村名":"上川郡当麻町","大字名":null,"丁目名":null,"小字名":null,"地番":"1847-88","精度区分":null,"座標系":"任意座標系"}},{"type":"Polygon","arcs":[[435,-435,436,437]],"properties":{"市区町村名":"上川郡当麻町","大字名":null,"丁目名":null,"小字名":null,"地番":"1847-5","精度区分":null,"座標系":"任意座標系"}},{"type":"Polygon","arcs":[[438,439,440,-433]],"properties":{"市区町村名":"上川郡当麻町","大字名":null,"丁目名":null,"小字名":null,"地番":"1847-87","精度区分":null,"座標系":"任意座標系"}},{"type":"Polygon","arcs":[[-420,-431,-426,441,-437,-434,-441,442,-189,443,-187,-194,444,-176,445,-103,-184,446,-165,-391,447]],"properties":{"市区町村名":"上川郡当麻町","大字名":null,"丁目名":null,"小字名":null,"地番":"道-88","精度区分":null,"座標系":"任意座標系"}},{"type":"Polygon","arcs":[[-440,448,449,-190,-443]],"properties":{"市区町村名":"上川郡当麻町","大字名":null,"丁目名":null,"小字名":null,"地番":"1847-17","精度区分":null,"座標系":"任意座標系"}},{"type":"Polygon","arcs":[[-449,-439,-432,-436,450]],"properties":{"市区町村名":"上川郡当麻町","大字名":null,"丁目名":null,"小字名":null,"地番":"1847-84","精度区分":null,"座標系":"任意座標系"}}]}},"arcs":[[[287402,97956],[11573,-4598]],[[298975,93358],[-14611,-21863],[54634,-22945],[35153,-14470]],[[374151,34080],[-13526,-28468]],[[360625,5612],[-21724,8160],[-90341,34372]],[[248560,48144],[25533,55087]],[[274093,103231],[13309,-5275]],[[248560,48144],[-15624,5928]],[[232936,54072],[21627,57182]],[[254563,111254],[19530,-8023]],[[388375,28264],[-13115,-28264],[-14635,5612]],[[374151,34080],[14224,-5816]],[[232936,54072],[-7787,2953]],[[225149,57025],[1398,40773],[1929,24005]],[[228476,121803],[26087,-10549]],[[228476,121803],[-1832,856]],[[226644,122659],[-41807,16679]],[[184837,139338],[337,767]],[[185174,140105],[69727,-28220],[32838,-13208],[-337,-721]],[[399997,52877],[-8439,-17851]],[[391558,35026],[-14032,6041],[-3375,-6987]],[[298975,93358],[39975,-15958],[61047,-24523]],[[391558,35026],[-3183,-6762]],[[430569,105124],[-24351,-52833],[-5498,2164]],[[400720,54455],[579,1262]],[[401299,55717],[289,812],[-62638,24658],[-50102,20285]],[[288848,101472],[24448,50939]],[[313296,152411],[25702,-10278],[91571,-37009]],[[439538,103005],[-434,-766],[-289,-451],[-8246,3336]],[[313296,152411],[-34237,13749]],[[279059,166160],[-64422,26462]],[[214637,192622],[385,1082]],[[215022,193704],[83471,-34080],[40408,-16139],[100637,-40480]],[[355345,263057],[42458,-17152]],[[397803,245905],[-24255,-51638]],[[373548,194267],[-34574,13681],[-8825,3291]],[[330149,211239],[8801,17761],[16395,34057]],[[416078,238399],[-24134,-51593]],[[391944,186806],[-18396,7461]],[[397803,245905],[18275,-7506]],[[433173,231435],[-23821,-51706]],[[409352,179729],[-17408,7077]],[[416078,238399],[17095,-6964]],[[451231,224087],[-24279,-51368]],[[426952,172719],[-17600,7010]],[[433173,231435],[18058,-7348]],[[468880,216806],[-23941,-51367]],[[444939,165439],[-17987,7280]],[[451231,224087],[17649,-7281]],[[489012,208580],[-23989,-51030]],[[465023,157550],[-20084,7889]],[[468880,216806],[20132,-8226]],[[238819,247933],[16154,-6468]],[[254973,241465],[75176,-30226]],[[465023,157550],[-266,-653]],[[464757,156897],[-91450,36761],[-34333,13547],[-33104,13073],[-69003,27678]],[[236867,247956],[216,721]],[[237083,248677],[1736,-744]],[[464757,156897],[-554,-1240],[-772,-1645]],[[463431,154012],[-124481,49969],[-102903,41248]],[[236047,245229],[820,2727]],[[380058,315348],[88991,-35972],[55863,-22833],[-17889,-37685]],[[507023,218858],[-506,-316],[-2870,-15462],[-8366,3584]],[[495281,206664],[289,585],[-139671,57025]],[[355899,264274],[7137,15147],[17022,35927]],[[546106,249488],[-6028,-12757],[-8366,-6040],[-19047,-9467]],[[512665,221224],[16322,35162]],[[528987,256386],[17119,-6898]],[[380058,315348],[-20157,8250]],[[359901,323598],[-21024,8610],[-7112,2998]],[[331765,335206],[-47208,19316],[-26956,10751]],[[257601,365273],[265,3494]],[[257866,368767],[81084,-32930],[35104,-14358],[102324,-42216],[52465,-21277],[-17312,-37303]],[[511531,220683],[-4508,-1825]],[[495281,206664],[-313,-519],[-5956,2435]],[[355345,263057],[-16468,6604],[-23652,9602],[2387,45]],[[317612,279308],[21193,-8204],[17094,-6830]],[[317612,279308],[-37516,14809]],[[280096,294117],[-29776,11923]],[[250320,306040],[1615,7573],[3906,26935],[1760,24725]],[[331765,335206],[-17288,-36762],[24521,-10097],[3375,-1623],[17528,36874]],[[238819,247933],[3818,11408],[-3914,1321],[5377,18578],[2121,9107],[4099,17693]],[[280096,294117],[-7257,-14854],[-17866,-37798]],[[463431,154012],[-23893,-51007]],[[215022,193704],[6848,14199],[10464,25515],[3713,11811]],[[279059,166160],[-24062,-50984]],[[254997,115176],[-68569,27633]],[[186428,142809],[10705,16860],[4436,8294],[8824,15463],[4244,9196]],[[468419,715691],[14588,30816]],[[483007,746507],[15199,-6439]],[[498206,740068],[-14207,-30863]],[[483999,709205],[-15580,6486]],[[482677,706639],[33294,-14018],[-6125,-12711],[-17613,-36376],[8540,-3896],[-25746,-54694]],[[475027,584944],[-21400,8696]],[[453627,593640],[5795,11998],[-13496,5204],[-5591,-11595]],[[440335,599247],[-21654,8838]],[[418681,608085],[34565,71825],[15605,32431],[13826,-5702]],[[426764,732109],[19290,-7936],[10699,32717]],[[456753,756890],[25238,-10383],[-14334,-30459]],[[467657,716048],[-890,332],[-17460,-36518],[-33269,-69876],[-31591,12854],[-356,-760]],[[384091,622080],[-22416,9171]],[[361675,631251],[31515,48588],[33574,52270]],[[531305,798899],[6650,14135]],[[537955,813034],[687,-286]],[[538642,812748],[-6685,-14469],[36980,-15040],[-18198,-38870]],[[550739,744369],[-25034,-52437]],[[525705,691932],[-6125,3920],[-30829,12593],[42554,90454]],[[467657,716048],[-17486,-36209],[-33828,-70851]],[[416343,608988],[-585,238],[-31667,12854]],[[467657,716048],[762,-357]],[[483999,709205],[-1322,-2566]],[[418681,608085],[-2338,903]],[[398237,312148],[19433,32795]],[[417670,344943],[28595,-11676]],[[446265,333267],[-7306,-16499],[24159,-9917],[2893,6041],[15889,-5680],[4219,9827]],[[486119,317039],[77105,-31262]],[[563224,285777],[-3110,-6424],[-14008,-29865]],[[528987,256386],[893,1735],[-52441,21277],[-79202,32750]],[[260784,368767],[12103,35004]],[[272887,403771],[66087,-26890],[30427,-12352]],[[369401,364529],[-16298,-33831]],[[353103,330698],[-14129,6086],[-78190,31983]],[[261893,408188],[10994,-4417]],[[260784,368767],[-1664,631]],[[259120,369398],[2773,38790]],[[353103,330698],[1928,-721]],[[355031,329977],[19288,-7934]],[[374319,322043],[23918,-9895]],[[512665,221224],[-1134,-541]],[[257866,368767],[73,1082]],[[257939,369849],[1181,-451]],[[369401,364529],[1784,-744]],[[371185,363785],[-16154,-33808]],[[371185,363785],[19288,-7753]],[[390473,356032],[-16154,-33989]],[[260519,408729],[1374,-541]],[[257939,369849],[2580,38880]],[[598698,534526],[-47908,19531]],[[550790,554057],[25847,54456]],[[576637,608513],[79881,-34047],[35124,-14945]],[[691642,559521],[-24983,-52745]],[[666659,506776],[-56473,23046]],[[610186,529822],[7827,16679],[-11385,4633],[-7930,-16608]],[[476577,584350],[26229,55454]],[[502806,639804],[72764,-30816]],[[575570,608988],[-25720,-54551]],[[549850,554437],[-73273,29913]],[[526391,630871],[22950,48706]],[[549341,679577],[50195,-19957]],[[599536,659620],[-23432,-49848]],[[576104,609772],[-3533,13424],[7675,15991],[-15554,6509],[-7370,-15942],[15249,-6558],[3533,-13424]],[[576104,609772],[-49713,21099]],[[576917,609392],[23611,49776]],[[600528,659168],[20510,-8078]],[[621038,651090],[-23407,-50441]],[[597631,600649],[-20714,8743]],[[550739,744369],[75153,-30507]],[[625892,713862],[-16443,-33929],[-8692,-18057]],[[600757,661876],[-45214,18057],[-29838,11999]],[[626858,713482],[32023,-12949],[6541,-2649]],[[665422,697884],[44391,-17974],[19926,-8173]],[[729739,671737],[-2567,-27609],[-559,-1687],[-12708,4990],[-2084,-4039],[-11589,4538],[-9937,-21407]],[[690295,626523],[-88522,34950]],[[601773,661473],[8743,18389],[16342,33620]],[[483007,746507],[280,570],[-25924,10407],[3000,9836],[30447,29106],[8438,1140],[2973,1307],[24755,18603]],[[526976,817476],[6379,-2542]],[[533355,814934],[-35149,-74866]],[[518411,693286],[5896,-3468],[24831,-9885],[203,-356]],[[526391,630871],[-23229,9764]],[[503162,640635],[-8514,3683],[17206,35663],[6557,13305]],[[576104,609772],[813,-380]],[[597631,600649],[59420,-25399]],[[657051,575250],[35048,-14802],[-457,-927]],[[576637,608513],[-1067,475]],[[502806,639804],[356,831]],[[665422,697884],[23876,53138]],[[689298,751022],[25090,-10241]],[[714388,740781],[2186,-3492],[1476,-4292],[-15753,-31243],[26471,-11752],[1072,-10033],[254,-3759],[-355,-4473]],[[528351,800202],[2954,-1303]],[[600757,661876],[1016,-403]],[[690295,626523],[-687,-1545],[-431,-974],[-6939,2756]],[[682238,626760],[-61200,24330]],[[600528,659168],[-992,452]],[[518411,693286],[-33396,13923],[43336,92993]],[[534906,814269],[3049,-1235]],[[528351,800202],[6555,14067]],[[700131,764106],[-5254,-11273]],[[694877,752833],[-20747,8500]],[[674130,761333],[6659,14541],[-13521,5464],[-6785,-14327]],[[660483,767011],[-11463,4752]],[[649020,771763],[13081,29540]],[[662101,801303],[14018,-11920],[22894,-23434],[1118,-1843]],[[542047,836983],[4372,-2757]],[[546419,834226],[-3889,-5250],[-5566,3802],[3508,5155],[1575,-950]],[[710957,746246],[-16080,6587]],[[700131,764106],[10826,-17860]],[[729815,414209],[12505,14684],[11462,21763],[2160,262],[6151,11523]],[[762093,462441],[46993,-18960]],[[809086,443481],[-24348,-51558]],[[784738,391923],[-27855,11048],[-27068,11238]],[[785754,391566],[24272,51606]],[[810026,443172],[58607,-24163],[-24246,-51653]],[[844387,367356],[-58633,24210]],[[695403,489954],[25695,-10501]],[[721098,479453],[-2669,-8696],[-864,261],[-10395,-34665],[-21806,-4491],[-30727,12213],[19798,41911]],[[674435,485986],[15986,-6248],[4982,10216]],[[653252,254560],[-43061,17603]],[[610191,272163],[7811,7303],[15479,14966],[22423,-9084],[5473,-2141],[-916,-3764],[-7209,-24883]],[[679195,305770],[54778,-22495]],[[733973,283275],[-1591,-3877],[-22495,-48054]],[[709887,231344],[-46967,19339]],[[662920,250683],[8463,28783],[7812,26304]],[[697374,364552],[3112,10051],[7904,-1996],[12504,41579],[2059,1686]],[[722953,415872],[61403,-24994]],[[784356,390878],[-24489,-52044]],[[759867,338834],[-62493,25718]],[[805026,320352],[7089,15079],[-16058,6447],[-6968,-15124]],[[789089,326754],[-28064,11652]],[[761025,338406],[24297,52091]],[[785322,390497],[58691,-23984]],[[844013,366513],[-24544,-52224]],[[819469,314289],[-14443,6063]],[[735565,283883],[24086,51661]],[[759651,335544],[28136,-11608]],[[787787,323936],[-3712,-7821],[15647,-6469],[3858,7754]],[[803580,317400],[14490,-5883]],[[818070,311517],[-14900,-32119],[-9041,-19789]],[[794129,259609],[-48510,19925],[-10054,4349]],[[735058,282847],[7957,-3381],[50535,-20736]],[[793550,258730],[-24183,-51954],[-58612,24140]],[[710755,230916],[22712,48460],[1591,3471]],[[591988,279421],[-12225,5071]],[[579763,284492],[24834,52540],[27149,-11135],[-2797,-9241],[-36961,-37235]],[[759867,338834],[1158,-428]],[[789089,326754],[-1302,-2818]],[[759651,335544],[-1037,451]],[[758614,335995],[-62133,25627],[893,2930]],[[784738,391923],[1016,-357]],[[844387,367356],[966,-285]],[[845353,367071],[-424,-896]],[[844929,366175],[-916,338]],[[785322,390497],[-966,381]],[[722953,415872],[941,761],[5921,-2424]],[[819107,311043],[-14780,-31600],[-9234,-20240]],[[795093,259203],[-964,406]],[[818070,311517],[1037,-474]],[[844929,366175],[-24496,-52269]],[[820433,313906],[-964,383]],[[579305,283410],[458,1082]],[[591988,279421],[-1302,-23]],[[590686,279398],[-1399,23],[-9982,3989]],[[653252,254560],[-289,-902]],[[652963,253658],[-43423,17851]],[[609540,271509],[651,654]],[[709887,231344],[-410,-924]],[[709477,230420],[-46894,19361]],[[662583,249781],[337,902]],[[793550,258730],[1061,-383]],[[794611,258347],[-24617,-52720]],[[769994,205627],[-59601,24342]],[[710393,229969],[362,947]],[[762550,463343],[46943,-18983]],[[809493,444360],[-407,-879]],[[762093,462441],[457,902]],[[810407,444004],[59497,-24544]],[[869904,419460],[-24551,-52389]],[[810026,443172],[381,832]],[[695810,490762],[25542,-10454]],[[721352,480308],[-254,-855]],[[695403,489954],[407,808]],[[710393,229969],[-916,451]],[[733973,283275],[1085,-428]],[[870082,550778],[24070,6130],[3043,45818]],[[897195,602726],[13077,-5825],[34201,-14571]],[[944473,582330],[-24856,-52840]],[[919617,529490],[-9379,4467],[-40156,16821]],[[878576,610006],[-2282,-32475],[-9491,-6908],[-7824,-3556],[-15287,-3894]],[[843692,563173],[-77447,31391]],[[766245,594564],[16337,54487]],[[782582,649051],[34486,-13884],[61508,-25161]],[[821565,508748],[33141,38276],[15376,3754]],[[919617,529490],[-9328,-19626],[-14258,-32787]],[[896031,477077],[-74466,31671]],[[706656,554673],[5941,12868],[9491,-3928],[10831,22520],[17750,-7315],[-11230,-37894]],[[739439,540924],[-32783,13749]],[[777215,495395],[-15758,-27632]],[[761457,467763],[-13571,5512]],[[747886,473275],[8742,24971],[20587,-2851]],[[762957,468381],[15021,26396],[28414,-3706],[12021,14113]],[[818413,505184],[47069,-19697],[28719,-12212]],[[894201,473275],[-23026,-49420]],[[871175,423855],[-41783,17274],[-66435,27252]],[[743424,633643],[9273,-3556]],[[752697,630087],[12027,-5011]],[[764724,625076],[-8477,-28040],[-25175,10160],[1195,2540],[11157,23907]],[[739439,540924],[-16689,-56030]],[[722750,484894],[-41021,16750]],[[681729,501644],[24927,53029]],[[801926,514849],[-3840,-4368],[-54698,7991]],[[743388,518472],[5397,18490]],[[748785,536962],[53141,-22113]],[[841193,560396],[-39267,-45547]],[[748785,536962],[16482,54521]],[[765267,591483],[75926,-31087]],[[897195,602726],[2935,40501],[9961,14019],[471,204]],[[910562,657450],[57850,-23942]],[[968412,633508],[-23939,-51178]],[[752697,630087],[12462,26618]],[[765159,656705],[8005,-3251]],[[773164,653454],[-8440,-28378]],[[779503,710751],[10505,-4300]],[[790008,706451],[-8513,-26550],[-8331,-26447]],[[765159,656705],[-9238,3691]],[[755921,660396],[8984,19472],[14598,30883]],[[843692,563173],[-616,-610]],[[843076,562563],[-77012,31324]],[[766064,593887],[181,677]],[[777215,495395],[127,451],[28643,-3873],[48136,55882],[39089,9764],[5832,85642],[11121,15882],[797,1253]],[[910960,660396],[1305,-542]],[[912265,659854],[-1703,-2404]],[[821565,508748],[-3152,-3564]],[[762957,468381],[-483,-1070]],[[762474,467311],[-1017,452]],[[782944,650000],[34667,-14088],[61001,-24856]],[[878612,611056],[-36,-1050]],[[782582,649051],[362,949]],[[765267,591483],[797,2404]],[[843076,562563],[-1883,-2167]],[[871175,423855],[813,-284]],[[871988,423571],[-406,-903]],[[871582,422668],[-61073,25137],[-48035,19506]],[[722420,483848],[-41148,16846]],[[681272,500694],[457,950]],[[722750,484894],[-330,-1046]],[[970622,635777],[-1196,-2710]],[[969426,633067],[-1014,441]],[[912265,659854],[58357,-24077]],[[779503,710751],[1231,2709]],[[780734,713460],[10216,-4097]],[[790950,709363],[-942,-2912]],[[743424,633643],[12497,26753]],[[945540,581974],[-24958,-52865]],[[920582,529109],[-965,381]],[[944473,582330],[1067,-356]],[[920582,529109],[-10140,-22618],[-13546,-29842]],[[896896,476649],[-865,428]],[[894201,473275],[966,-428]],[[895167,472847],[-23179,-49276]],[[969426,633067],[-23886,-51093]],[[225149,57025],[-3737,-9557],[-3810,1352],[3906,9512],[2146,-902],[1012,40796]],[[224666,98226],[1978,24433]],[[258927,409405],[1592,-676]],[[237083,248677],[3140,9696],[-3681,1136],[5628,19754],[2363,9309],[5546,25402],[4243,25920],[4605,69511]],[[809493,444360],[914,-356]],[[875140,421266],[-3558,1402]],[[895167,472847],[1729,3802]],[[970622,635777],[3803,-1490]],[[974425,634287],[-47055,-100373],[-5144,-10870],[-11990,-26041],[-9962,-21978],[-1675,-3603],[-23459,-50156]],[[873513,417940],[-64681,-138588],[-35173,-75213]],[[773659,204139],[-3665,1488]],[[794611,258347],[482,856]],[[819107,311043],[1326,2863]],[[869904,419460],[3609,-1520]],[[766934,719184],[-32059,13037],[-1739,4843],[35391,-14325],[-1593,-3555]],[[803580,317400],[1446,2952]],[[722420,483848],[9454,-3968]],[[731874,479880],[16012,-6605]],[[875140,421266],[14340,-5845],[-1459,-3450],[-14508,5969]],[[762550,463343],[-15859,6558],[-15884,6439],[-9455,3968]],[[695810,490762],[-16088,6605]],[[679722,497367],[1550,3327]],[[440335,599247],[13292,-5607]],[[475027,584944],[1550,-594]],[[549850,554437],[940,-380]],[[598698,534526],[11488,-4704]],[[666659,506776],[-1780,-3802],[-15884,6582],[-39013,15823],[-13572,5584],[-69536,28463],[-940,404],[-51212,20885],[-1601,641],[-34565,14137],[-2745,1164],[-610,309],[-21425,8696],[-35429,14422],[-18883,7745]],[[359464,627829],[2211,3422]],[[486119,317039],[-39854,16228]],[[417670,344943],[-27197,11089]],[[258927,409405],[290,4215]],[[259217,413620],[2073,-856],[61843,-24951],[1977,-812],[2411,-947],[820,-338],[10681,-4417],[11115,-4531],[23049,-9398],[39083,-15891],[23628,-9624],[651,-248],[1784,-744],[126555,-51548],[-1663,-3538]],[[590686,279398],[18854,-7889]],[[652963,253658],[9620,-3877]],[[773659,204139],[26642,-10932],[-1254,-3358],[-147290,59865],[-45617,18595],[-26786,11067],[-1736,676],[1687,3358]],[[894333,667203],[-869,372]],[[893464,667575],[-30537,12394],[-34702,14054]],[[828225,694023],[-27857,11378],[-9418,3962]],[[780734,713460],[1594,3454],[19308,-7890],[71434,-29089],[37347,-15374],[8476,-3590],[81106,-32678],[-1702,-3861],[-23872,9855]],[[910960,660396],[-688,271],[-15939,6536]],[[625892,713862],[966,-380]],[[456753,756890],[-406,119],[3355,10929],[30905,29462],[8209,1021],[2668,1117],[24551,18342]],[[526035,817880],[941,-404]],[[359464,627829],[-10802,-16750],[-9683,-14564],[-45261,-69747],[-6003,-9038],[-10870,-23851],[-4756,-14478],[-5784,-17118],[-4991,-26574],[-2097,-22089]],[[186428,142809],[-1254,-2704]],[[184837,139338],[-9139,-19519]],[[175698,119819],[-175698,16596],[56591,64856],[37924,78054],[4039,9899],[10903,61886],[33805,193762],[26433,68191],[25884,66873],[44041,65772],[5413,8029],[32942,12612],[61062,26251],[17609,7588],[43218,30724],[49336,59613],[54356,109474],[45608,-83518],[-8591,-11404],[-9963,-12972],[-85294,-130867],[-8336,-13115],[-10216,-16014]],[[731874,479880],[11224,37678]],[[743098,517558],[55459,-8094],[45497,52896],[15939,3962],[7825,3590],[9309,6874],[4890,72435],[12316,17982]],[[682238,626760],[-25187,-51510]],[[657051,575250],[-1042,15253],[5566,11690],[-15986,6581],[-5439,-11523],[15859,-6748],[1042,-15253]],[[679195,305770],[337,1217],[54947,-22743]],[[734479,284244],[1086,-361]],[[734479,284244],[24135,51751]],[[878612,611056],[2572,38706],[10576,15342]],[[891760,665104],[1704,2471]],[[743098,517558],[290,914]],[[679341,496548],[16062,-6594]],[[674435,485986],[4906,10562]],[[679341,496548],[381,819]],[[891760,665104],[-64806,26262]],[[826954,691366],[1271,2657]],[[401299,55717],[-62349,24748],[-50391,20286],[289,721]],[[254997,115176],[33851,-13704]],[[400720,54455],[-723,-1578]],[[224666,98226],[-48968,21593]],[[782944,650000],[9382,29800],[1340,2980],[7463,-2845],[17061,-6434],[3297,6434],[5467,11431]],[[558466,889538],[-3375,-7426]],[[555091,882112],[-4836,3821],[-9707,5668],[-1033,780]],[[539515,892381],[5633,8609],[13318,-11452]],[[555091,882112],[-27632,-60810]],[[527459,821302],[-27144,11166]],[[500315,832468],[39200,59913]],[[559380,888778],[42552,-36239],[-2153,-4546]],[[599779,847993],[-43703,33533]],[[556076,881526],[3304,7252]],[[599779,847993],[-22328,-47125]],[[577451,800868],[-49001,20029]],[[528450,820897],[27626,60629]],[[546419,834226],[10318,-7009],[6964,8459],[-15148,9717],[-6506,-8410]],[[558466,889538],[914,-760]],[[556076,881526],[-985,586]],[[528450,820897],[-991,405]],[[658532,803500],[608,-467]],[[659140,803033],[-13849,-29769]],[[645291,773264],[-679,277]],[[644612,773541],[13920,29959]],[[623060,830695],[35472,-27195]],[[644612,773541],[-40958,16660]],[[603654,790201],[19406,40494]],[[659140,803033],[2017,-1546]],[[661157,801487],[-13052,-29367]],[[648105,772120],[-2814,1144]],[[577451,800868],[26203,-10667]],[[648105,772120],[915,-357]],[[660483,767011],[13647,-5678]],[[710957,746246],[3431,-5465]],[[689298,751022],[-5764,2352],[-107964,44239],[-36928,15135]],[[534906,814269],[-1551,665]],[[526035,817880],[-28058,11405],[2338,3183]],[[661157,801487],[220,494]],[[661377,801981],[724,-678]],[[623060,830695],[1332,2779],[36985,-31493]]],"bbox":[406.861,226.961,2157.325,2099.428],"transform":{"scale":[0.0017504657504657502,0.0018724688724688723],"translate":[406.861,226.961]}}