{"type":"Topology","objects":{"01226-4315-11":{"type":"GeometryCollection","geometries":[{"type":"MultiPolygon","arcs":[[[0,1,2,3,4,5,6,7,8,9,10,11,12,13,14,15,16,17,18,19,20]]],"properties":{"筆ID":"H000000001","version":"ver1.0","座標系":"任意座標系","測地系判別":null,"地図名":"H20431501226018","地図番号":"新切-4","縮尺分母":"4800","市区町村コード":"01226","市区町村名":"砂川市","大字コード":"000","丁目コード":"000","小字コード":"0000","予備コード":"00","大字名":null,"丁目名":null,"小字名":null,"予備名":null,"地番":"地区外-386778","精度区分":null,"座標値種別":"図上測量","筆界未定構成筆":null,"代表点緯度":378.512,"代表点経度":10882.76986762}},{"type":"MultiPolygon","arcs":[[[21,-14,22,-12,23,24,25,26,27,28,29,30,31,32,33,34,35,36,37,38,39,40,41,42,43,44]]],"properties":{"筆ID":"H000000002","version":"ver1.0","座標系":"任意座標系","測地系判別":null,"地図名":"H20431501226018","地図番号":"新切-4","縮尺分母":"4800","市区町村コード":"01226","市区町村名":"砂川市","大字コード":"024","丁目コード":"009","小字コード":"0000","予備コード":"00","大字名":"西九条北","丁目名":"９丁目","小字名":null,"予備名":null,"地番":"水-1","精度区分":null,"座標値種別":"図上測量","筆界未定構成筆":null,"代表点緯度":297.579,"代表点経度":11251.067608154}},{"type":"MultiPolygon","arcs":[[[45,-45,46,47,48]]],"properties":{"筆ID":"H000000003","version":"ver1.0","座標系":"任意座標系","測地系判別":null,"地図名":"H20431501226018","地図番号":"新切-4","縮尺分母":"4800","市区町村コード":"01226","市区町村名":"砂川市","大字コード":"000","丁目コード":"000","小字コード":"0000","予備コード":"00","大字名":null,"丁目名":null,"小字名":null,"予備名":null,"地番":"地区外-386780","精度区分":null,"座標値種別":"図上測量","筆界未定構成筆":null,"代表点緯度":273.895,"代表点経度":11949.989341598}},{"type":"MultiPolygon","arcs":[[[-48,49,-2,50]]],"properties":{"筆ID":"H000000004","version":"ver1.0","座標系":"任意座標系","測地系判別":null,"地図名":"H20431501226018","地図番号":"新切-3","縮尺分母":"4800","市区町村コード":"01226","市区町村名":"砂川市","大字コード":"000","丁目コード":"000","小字コード":"0000","予備コード":"00","大字名":null,"丁目名":null,"小字名":null,"予備名":null,"地番":"地区外-386781","精度区分":null,"座標値種別":"図上測量","筆界未定構成筆":null,"代表点緯度":2593.107,"代表点経度":11863.234701851}},{"type":"MultiPolygon","arcs":[[[51,52,53,54]]],"properties":{"筆ID":"H000000005","version":"ver1.0","座標系":"任意座標系","測地系判別":null,"地図名":"H20431501226018","地図番号":"新切-4","縮尺分母":"4800","市区町村コード":"01226","市区町村名":"砂川市","大字コード":"036","丁目コード":"000","小字コード":"0000","予備コード":"00","大字名":"北光","丁目名":null,"小字名":null,"予備名":null,"地番":"603-2","精度区分":null,"座標値種別":"図上測量","筆界未定構成筆":null,"代表点緯度":704.0225,"代表点経度":11203.61609793}},{"type":"MultiPolygon","arcs":[[[-21,55,-17,56,-15,-22,-46,57]]],"properties":{"筆ID":"H000000006","version":"ver1.0","座標系":"任意座標系","測地系判別":null,"地図名":"H20431501226018","地図番号":"新切-4","縮尺分母":"4800","市区町村コード":"01226","市区町村名":"砂川市","大字コード":"070","丁目コード":"000","小字コード":"0000","予備コード":"00","大字名":"オアシス","丁目名":null,"小字名":null,"予備名":null,"地番":"水-2","精度区分":null,"座標値種別":"図上測量","筆界未定構成筆":null,"代表点緯度":-232.263,"代表点経度":10878.343547235}},{"type":"MultiPolygon","arcs":[[[-34,58,59,60,61,62,63,-3,-50,-47,-44,64,65,66,67]]],"properties":{"筆ID":"H000000007","version":"ver1.0","座標系":"任意座標系","測地系判別":null,"地図名":"H20431501226018","地図番号":"新切-4","縮尺分母":"4800","市区町村コード":"01226","市区町村名":"砂川市","大字コード":"036","丁目コード":"000","小字コード":"0000","予備コード":"00","大字名":"北光","丁目名":null,"小字名":null,"予備名":null,"地番":"水-3","精度区分":null,"座標値種別":"図上測量","筆界未定構成筆":null,"代表点緯度":1053.0705,"代表点経度":11432.109182987}},{"type":"MultiPolygon","arcs":[[[-16,-57]]],"properties":{"筆ID":"H000000008","version":"ver1.0","座標系":"任意座標系","測地系判別":null,"地図名":"H20431501226018","地図番号":"新切-4","縮尺分母":"4800","市区町村コード":"01226","市区町村名":"砂川市","大字コード":"070","丁目コード":"000","小字コード":"0000","予備コード":"00","大字名":"オアシス","丁目名":null,"小字名":null,"予備名":null,"地番":"道-1","精度区分":null,"座標値種別":"図上測量","筆界未定構成筆":null,"代表点緯度":264.414,"代表点経度":10926.073254042}},{"type":"MultiPolygon","arcs":[[[-20,68,-18,-56]]],"properties":{"筆ID":"H000000009","version":"ver1.0","座標系":"任意座標系","測地系判別":null,"地図名":"H20431501226018","地図番号":"新切-4","縮尺分母":"4800","市区町村コード":"01226","市区町村名":"砂川市","大字コード":"070","丁目コード":"000","小字コード":"0000","予備コード":"00","大字名":"オアシス","丁目名":null,"小字名":null,"予備名":null,"地番":"道-2","精度区分":null,"座標値種別":"図上測量","筆界未定構成筆":null,"代表点緯度":-356.601,"代表点経度":10815.758377441}},{"type":"MultiPolygon","arcs":[[[-19,-69]]],"properties":{"筆ID":"H000000010","version":"ver1.0","座標系":"任意座標系","測地系判別":null,"地図名":"H20431501226018","地図番号":"新切-4","縮尺分母":"4800","市区町村コード":"01226","市区町村名":"砂川市","大字コード":"070","丁目コード":"000","小字コード":"0000","予備コード":"00","大字名":"オアシス","丁目名":null,"小字名":null,"予備名":null,"地番":"無地番-1","精度区分":null,"座標値種別":"図上測量","筆界未定構成筆":null,"代表点緯度":-356.601,"代表点経度":10789.892706428}},{"type":"MultiPolygon","arcs":[[[69,-63,70]]],"properties":{"筆ID":"H000000011","version":"ver1.0","座標系":"任意座標系","測地系判別":null,"地図名":"H20431501226018","地図番号":"新切-4","縮尺分母":"4800","市区町村コード":"01226","市区町村名":"砂川市","大字コード":"036","丁目コード":"000","小字コード":"0000","予備コード":"00","大字名":"北光","丁目名":null,"小字名":null,"予備名":null,"地番":"593","精度区分":null,"座標値種別":"図上測量","筆界未定構成筆":null,"代表点緯度":700.1785,"代表点経度":11386.261751994}},{"type":"MultiPolygon","arcs":[[[-31,71,72,73]]],"properties":{"筆ID":"H000000012","version":"ver1.0","座標系":"任意座標系","測地系判別":null,"地図名":"H20431501226018","地図番号":"新切-4","縮尺分母":"4800","市区町村コード":"01226","市区町村名":"砂川市","大字コード":"024","丁目コード":"009","小字コード":"0000","予備コード":"00","大字名":"西九条北","丁目名":"９丁目","小字名":null,"予備名":null,"地番":"1","精度区分":null,"座標値種別":"図上測量","筆界未定構成筆":null,"代表点緯度":578.5905,"代表点経度":11335.125590797}},{"type":"MultiPolygon","arcs":[[[-37,74]]],"properties":{"筆ID":"H000000013","version":"ver1.0","座標系":"任意座標系","測地系判別":null,"地図名":"H20431501226018","地図番号":"新切-4","縮尺分母":"4800","市区町村コード":"01226","市区町村名":"砂川市","大字コード":"000","丁目コード":"000","小字コード":"0000","予備コード":"00","大字名":null,"丁目名":null,"小字名":null,"予備名":null,"地番":"地区外-386790","精度区分":null,"座標値種別":"図上測量","筆界未定構成筆":null,"代表点緯度":531.8145,"代表点経度":11420.3507987}},{"type":"MultiPolygon","arcs":[[[-35,75,-39,76]]],"properties":{"筆ID":"H000000014","version":"ver1.0","座標系":"任意座標系","測地系判別":null,"地図名":"H20431501226018","地図番号":"新切-4","縮尺分母":"4800","市区町村コード":"01226","市区町村名":"砂川市","大字コード":"036","丁目コード":"000","小字コード":"0000","予備コード":"00","大字名":"北光","丁目名":null,"小字名":null,"予備名":null,"地番":"557-2","精度区分":null,"座標値種別":"図上測量","筆界未定構成筆":null,"代表点緯度":571.493,"代表点経度":11433.436488595}},{"type":"MultiPolygon","arcs":[[[-68,77,-40,-76]]],"properties":{"筆ID":"H000000015","version":"ver1.0","座標系":"任意座標系","測地系判別":null,"地図名":"H20431501226018","地図番号":"新切-4","縮尺分母":"4800","市区町村コード":"01226","市区町村名":"砂川市","大字コード":"036","丁目コード":"000","小字コード":"0000","予備コード":"00","大字名":"北光","丁目名":null,"小字名":null,"予備名":null,"地番":"560-2","精度区分":null,"座標値種別":"図上測量","筆界未定構成筆":null,"代表点緯度":615.8765,"代表点経度":11448.021096806}},{"type":"MultiPolygon","arcs":[[[-75,-36,-77,-38]]],"properties":{"筆ID":"H000000016","version":"ver1.0","座標系":"任意座標系","測地系判別":null,"地図名":"H20431501226018","地図番号":"新切-4","縮尺分母":"4800","市区町村コード":"01226","市区町村名":"砂川市","大字コード":"036","丁目コード":"000","小字コード":"0000","予備コード":"00","大字名":"北光","丁目名":null,"小字名":null,"予備名":null,"地番":"556-2","精度区分":null,"座標値種別":"図上測量","筆界未定構成筆":null,"代表点緯度":549.867,"代表点経度":11426.304307329}},{"type":"MultiPolygon","arcs":[[[78,-65,-43]]],"properties":{"筆ID":"H000000017","version":"ver1.0","座標系":"任意座標系","測地系判別":null,"地図名":"H20431501226018","地図番号":"新切-4","縮尺分母":"4800","市区町村コード":"01226","市区町村名":"砂川市","大字コード":"036","丁目コード":"000","小字コード":"0000","予備コード":"00","大字名":"北光","丁目名":null,"小字名":null,"予備名":null,"地番":"563-3","精度区分":null,"座標値種別":"図上測量","筆界未定構成筆":null,"代表点緯度":725.159,"代表点経度":11483.855892787}},{"type":"MultiPolygon","arcs":[[[-66,-79,-42,79]]],"properties":{"筆ID":"H000000018","version":"ver1.0","座標系":"任意座標系","測地系判別":null,"地図名":"H20431501226018","地図番号":"新切-4","縮尺分母":"4800","市区町村コード":"01226","市区町村名":"砂川市","大字コード":"036","丁目コード":"000","小字コード":"0000","予備コード":"00","大字名":"北光","丁目名":null,"小字名":null,"予備名":null,"地番":"562-2","精度区分":null,"座標値種別":"図上測量","筆界未定構成筆":null,"代表点緯度":697.216,"代表点経度":11474.69321475}},{"type":"MultiPolygon","arcs":[[[-67,-80,-41,-78]]],"properties":{"筆ID":"H000000019","version":"ver1.0","座標系":"任意座標系","測地系判別":null,"地図名":"H20431501226018","地図番号":"新切-4","縮尺分母":"4800","市区町村コード":"01226","市区町村名":"砂川市","大字コード":"036","丁目コード":"000","小字コード":"0000","予備コード":"00","大字名":"北光","丁目名":null,"小字名":null,"予備名":null,"地番":"561-2","精度区分":null,"座標値種別":"図上測量","筆界未定構成筆":null,"代表点緯度":665.444,"代表点経度":11464.274756057}},{"type":"MultiPolygon","arcs":[[[-13,-23]]],"properties":{"筆ID":"H000000020","version":"ver1.0","座標系":"任意座標系","測地系判別":null,"地図名":"H20431501226018","地図番号":"新切-4","縮尺分母":"4800","市区町村コード":"01226","市区町村名":"砂川市","大字コード":"024","丁目コード":"009","小字コード":"0000","予備コード":"00","大字名":"西九条北","丁目名":"９丁目","小字名":null,"予備名":null,"地番":"16-2","精度区分":null,"座標値種別":"図上測量","筆界未定構成筆":null,"代表点緯度":544.4435,"代表点経度":10990.065882874}},{"type":"MultiPolygon","arcs":[[[80,81,82,83,-5,84,85]]],"properties":{"筆ID":"H000000021","version":"ver1.0","座標系":"任意座標系","測地系判別":null,"地図名":"H20431501226018","地図番号":"新切-4","縮尺分母":"4800","市区町村コード":"01226","市区町村名":"砂川市","大字コード":"036","丁目コード":"000","小字コード":"0000","予備コード":"00","大字名":"北光","丁目名":null,"小字名":null,"予備名":null,"地番":"605","精度区分":null,"座標値種別":"図上測量","筆界未定構成筆":null,"代表点緯度":734.098,"代表点経度":11262.431114764}},{"type":"MultiPolygon","arcs":[[[-70,86,-85,-4,-64]]],"properties":{"筆ID":"H000000022","version":"ver1.0","座標系":"任意座標系","測地系判別":null,"地図名":"H20431501226018","地図番号":"新切-4","縮尺分母":"4800","市区町村コード":"01226","市区町村名":"砂川市","大字コード":"036","丁目コード":"000","小字コード":"0000","予備コード":"00","大字名":"北光","丁目名":null,"小字名":null,"予備名":null,"地番":"594","精度区分":null,"座標値種別":"図上測量","筆界未定構成筆":null,"代表点緯度":722.5795,"代表点経度":11311.840671077}},{"type":"MultiPolygon","arcs":[[[87,-86,88,89]]],"properties":{"筆ID":"H000000023","version":"ver1.0","座標系":"任意座標系","測地系判別":null,"地図名":"H20431501226018","地図番号":"新切-4","縮尺分母":"4800","市区町村コード":"01226","市区町村名":"砂川市","大字コード":"036","丁目コード":"000","小字コード":"0000","予備コード":"00","大字名":"北光","丁目名":null,"小字名":null,"予備名":null,"地番":"599","精度区分":null,"座標値種別":"図上測量","筆界未定構成筆":null,"代表点緯度":713.9915,"代表点経度":11264.219318295}},{"type":"MultiPolygon","arcs":[[[90,91,-7]]],"properties":{"筆ID":"H000000024","version":"ver1.0","座標系":"任意座標系","測地系判別":null,"地図名":"H20431501226018","地図番号":"新切-4","縮尺分母":"4800","市区町村コード":"01226","市区町村名":"砂川市","大字コード":"036","丁目コード":"000","小字コード":"0000","予備コード":"00","大字名":"北光","丁目名":null,"小字名":null,"予備名":null,"地番":"道-3","精度区分":null,"座標値種別":"図上測量","筆界未定構成筆":null,"代表点緯度":790.105,"代表点経度":11141.70461985}},{"type":"MultiPolygon","arcs":[[[-27,92,-25,93,94,95,96,-96,97,98]]],"properties":{"筆ID":"H000000025","version":"ver1.0","座標系":"任意座標系","測地系判別":null,"地図名":"H20431501226018","地図番号":"新切-4","縮尺分母":"4800","市区町村コード":"01226","市区町村名":"砂川市","大字コード":"024","丁目コード":"009","小字コード":"0000","予備コード":"00","大字名":"西九条北","丁目名":"９丁目","小字名":null,"予備名":null,"地番":"18-1","精度区分":null,"座標値種別":"図上測量","筆界未定構成筆":null,"代表点緯度":571.7525,"代表点経度":11084.434865517}},{"type":"MultiPolygon","arcs":[[[-93,-26]]],"properties":{"筆ID":"H000000026","version":"ver1.0","座標系":"任意座標系","測地系判別":null,"地図名":"H20431501226018","地図番号":"新切-4","縮尺分母":"4800","市区町村コード":"01226","市区町村名":"砂川市","大字コード":"000","丁目コード":"000","小字コード":"0000","予備コード":"00","大字名":null,"丁目名":null,"小字名":null,"予備名":null,"地番":"地区外-386803","精度区分":null,"座標値種別":"図上測量","筆界未定構成筆":null,"代表点緯度":463.151,"代表点経度":11058.161191525}},{"type":"MultiPolygon","arcs":[[[-94,-24,-11,99]]],"properties":{"筆ID":"H000000027","version":"ver1.0","座標系":"任意座標系","測地系判別":null,"地図名":"H20431501226018","地図番号":"新切-4","縮尺分母":"4800","市区町村コード":"01226","市区町村名":"砂川市","大字コード":"024","丁目コード":"009","小字コード":"0000","予備コード":"00","大字名":"西九条北","丁目名":"９丁目","小字名":null,"予備名":null,"地番":"18-3","精度区分":null,"座標値種別":"図上測量","筆界未定構成筆":null,"代表点緯度":637.9465,"代表点経度":11024.291010721}},{"type":"MultiPolygon","arcs":[[[100,101,102,-9,103,104,105]]],"properties":{"筆ID":"H000000028","version":"ver1.0","座標系":"任意座標系","測地系判別":null,"地図名":"H20431501226018","地図番号":"新切-4","縮尺分母":"4800","市区町村コード":"01226","市区町村名":"砂川市","大字コード":"024","丁目コード":"009","小字コード":"0000","予備コード":"00","大字名":"西九条北","丁目名":"９丁目","小字名":null,"予備名":null,"地番":"20-1","精度区分":null,"座標値種別":"図上測量","筆界未定構成筆":null,"代表点緯度":717.2405,"代表点経度":11138.403539701}},{"type":"MultiPolygon","arcs":[[[-8,-92,106,-52,-104]]],"properties":{"筆ID":"H000000029","version":"ver1.0","座標系":"任意座標系","測地系判別":null,"地図名":"H20431501226018","地図番号":"新切-4","縮尺分母":"4800","市区町村コード":"01226","市区町村名":"砂川市","大字コード":"036","丁目コード":"000","小字コード":"0000","予備コード":"00","大字名":"北光","丁目名":null,"小字名":null,"予備名":null,"地番":"614-1","精度区分":null,"座標値種別":"図上測量","筆界未定構成筆":null,"代表点緯度":760.577,"代表点経度":11134.591557112}},{"type":"MultiPolygon","arcs":[[[107,108,109,-89,-87,-71,-62,110,111]]],"properties":{"筆ID":"H000000030","version":"ver1.0","座標系":"任意座標系","測地系判別":null,"地図名":"H20431501226018","地図番号":"新切-4","縮尺分母":"4800","市区町村コード":"01226","市区町村名":"砂川市","大字コード":"036","丁目コード":"000","小字コード":"0000","予備コード":"00","大字名":"北光","丁目名":null,"小字名":null,"予備名":null,"地番":"595","精度区分":null,"座標値種別":"図上測量","筆界未定構成筆":null,"代表点緯度":674.1385,"代表点経度":11294.085956934}},{"type":"MultiPolygon","arcs":[[[112,-111,-61]]],"properties":{"筆ID":"H000000031","version":"ver1.0","座標系":"任意座標系","測地系判別":null,"地図名":"H20431501226018","地図番号":"新切-4","縮尺分母":"4800","市区町村コード":"01226","市区町村名":"砂川市","大字コード":"036","丁目コード":"000","小字コード":"0000","予備コード":"00","大字名":"北光","丁目名":null,"小字名":null,"予備名":null,"地番":"596-1","精度区分":null,"座標値種別":"図上測量","筆界未定構成筆":null,"代表点緯度":677.3545,"代表点経度":11376.61299323}},{"type":"MultiPolygon","arcs":[[[-73,113,114,115,116,117]]],"properties":{"筆ID":"H000000032","version":"ver1.0","座標系":"任意座標系","測地系判別":null,"地図名":"H20431501226018","地図番号":"新切-4","縮尺分母":"4800","市区町村コード":"01226","市区町村名":"砂川市","大字コード":"024","丁目コード":"009","小字コード":"0000","予備コード":"00","大字名":"西九条北","丁目名":"９丁目","小字名":null,"予備名":null,"地番":"7-1","精度区分":null,"座標値種別":"図上測量","筆界未定構成筆":null,"代表点緯度":607.731,"代表点経度":11269.998227644}},{"type":"MultiPolygon","arcs":[[[118,-98,119,120,121]]],"properties":{"筆ID":"H000000033","version":"ver1.0","座標系":"任意座標系","測地系判別":null,"地図名":"H20431501226018","地図番号":"新切-4","縮尺分母":"4800","市区町村コード":"01226","市区町村名":"砂川市","大字コード":"024","丁目コード":"009","小字コード":"0000","予備コード":"00","大字名":"西九条北","丁目名":"９丁目","小字名":null,"予備名":null,"地番":"9","精度区分":null,"座標値種別":"図上測量","筆界未定構成筆":null,"代表点緯度":660.6125,"代表点経度":11182.975849025}},{"type":"MultiPolygon","arcs":[[[-28,-99,-119,122,123]]],"properties":{"筆ID":"H000000034","version":"ver1.0","座標系":"任意座標系","測地系判別":null,"地図名":"H20431501226018","地図番号":"新切-4","縮尺分母":"4800","市区町村コード":"01226","市区町村名":"砂川市","大字コード":"024","丁目コード":"009","小字コード":"0000","予備コード":"00","大字名":"西九条北","丁目名":"９丁目","小字名":null,"予備名":null,"地番":"5","精度区分":null,"座標値種別":"図上測量","筆界未定構成筆":null,"代表点緯度":617.3145,"代表点経度":11162.838619424}},{"type":"MultiPolygon","arcs":[[[-72,-30,124,125,-114]]],"properties":{"筆ID":"H000000035","version":"ver1.0","座標系":"任意座標系","測地系判別":null,"地図名":"H20431501226018","地図番号":"新切-4","縮尺分母":"4800","市区町村コード":"01226","市区町村名":"砂川市","大字コード":"024","丁目コード":"009","小字コード":"0000","予備コード":"00","大字名":"西九条北","丁目名":"９丁目","小字名":null,"予備名":null,"地番":"3","精度区分":null,"座標値種別":"図上測量","筆界未定構成筆":null,"代表点緯度":587.451,"代表点経度":11253.214395653}},{"type":"MultiPolygon","arcs":[[[-125,-29,-124,126,127]]],"properties":{"筆ID":"H000000036","version":"ver1.0","座標系":"任意座標系","測地系判別":null,"地図名":"H20431501226018","地図番号":"新切-4","縮尺分母":"4800","市区町村コード":"01226","市区町村名":"砂川市","大字コード":"024","丁目コード":"009","小字コード":"0000","予備コード":"00","大字名":"西九条北","丁目名":"９丁目","小字名":null,"予備名":null,"地番":"4","精度区分":null,"座標値種別":"図上測量","筆界未定構成筆":null,"代表点緯度":605.26,"代表点経度":11199.230677139}},{"type":"MultiPolygon","arcs":[[[128,-127,-123,-122,129,130,131,132]]],"properties":{"筆ID":"H000000037","version":"ver1.0","座標系":"任意座標系","測地系判別":null,"地図名":"H20431501226018","地図番号":"新切-4","縮尺分母":"4800","市区町村コード":"01226","市区町村名":"砂川市","大字コード":"024","丁目コード":"009","小字コード":"0000","予備コード":"00","大字名":"西九条北","丁目名":"９丁目","小字名":null,"予備名":null,"地番":"8-6","精度区分":null,"座標値種別":"図上測量","筆界未定構成筆":null,"代表点緯度":648.9665,"代表点経度":11193.281387661}},{"type":"MultiPolygon","arcs":[[[-115,-126,-128,-129,133,-132,134,135,136,137]]],"properties":{"筆ID":"H000000038","version":"ver1.0","座標系":"任意座標系","測地系判別":null,"地図名":"H20431501226018","地図番号":"新切-4","縮尺分母":"4800","市区町村コード":"01226","市区町村名":"砂川市","大字コード":"024","丁目コード":"009","小字コード":"0000","予備コード":"00","大字名":"西九条北","丁目名":"９丁目","小字名":null,"予備名":null,"地番":"8-1","精度区分":null,"座標値種別":"図上測量","筆界未定構成筆":null,"代表点緯度":626.8265,"代表点経度":11225.014406074}},{"type":"MultiPolygon","arcs":[[[138,-112,-113,-60]]],"properties":{"筆ID":"H000000039","version":"ver1.0","座標系":"任意座標系","測地系判別":null,"地図名":"H20431501226018","地図番号":"新切-4","縮尺分母":"4800","市区町村コード":"01226","市区町村名":"砂川市","大字コード":"036","丁目コード":"000","小字コード":"0000","予備コード":"00","大字名":"北光","丁目名":null,"小字名":null,"予備名":null,"地番":"596-2","精度区分":null,"座標値種別":"図上測量","筆界未定構成筆":null,"代表点緯度":668.1295,"代表点経度":11377.794790792}},{"type":"MultiPolygon","arcs":[[[-108,-139,-59,139]]],"properties":{"筆ID":"H000000040","version":"ver1.0","座標系":"任意座標系","測地系判別":null,"地図名":"H20431501226018","地図番号":"新切-4","縮尺分母":"4800","市区町村コード":"01226","市区町村名":"砂川市","大字コード":"036","丁目コード":"000","小字コード":"0000","予備コード":"00","大字名":"北光","丁目名":null,"小字名":null,"予備名":null,"地番":"597","精度区分":null,"座標値種別":"図上測量","筆界未定構成筆":null,"代表点緯度":618.991,"代表点経度":11388.304490428}},{"type":"MultiPolygon","arcs":[[[-105,-55,140,-121]]],"properties":{"筆ID":"H000000041","version":"ver1.0","座標系":"任意座標系","測地系判別":null,"地図名":"H20431501226018","地図番号":"新切-4","縮尺分母":"4800","市区町村コード":"01226","市区町村名":"砂川市","大字コード":"024","丁目コード":"009","小字コード":"0000","予備コード":"00","大字名":"西九条北","丁目名":"９丁目","小字名":null,"予備名":null,"地番":"14","精度区分":null,"座標値種別":"図上測量","筆界未定構成筆":null,"代表点緯度":689.78,"代表点経度":11196.805783342}},{"type":"MultiPolygon","arcs":[[[141,-53,-107,142]]],"properties":{"筆ID":"H000000042","version":"ver1.0","座標系":"任意座標系","測地系判別":null,"地図名":"H20431501226018","地図番号":"新切-4","縮尺分母":"4800","市区町村コード":"01226","市区町村名":"砂川市","大字コード":"036","丁目コード":"000","小字コード":"0000","予備コード":"00","大字名":"北光","丁目名":null,"小字名":null,"予備名":null,"地番":"603-1","精度区分":null,"座標値種別":"図上測量","筆界未定構成筆":null,"代表点緯度":725.6215,"代表点経度":11213.941416709}},{"type":"MultiPolygon","arcs":[[[143,144,145,146,147,-130,-141,148,149,150,151]]],"properties":{"筆ID":"H000000043","version":"ver1.0","座標系":"任意座標系","測地系判別":null,"地図名":"H20431501226018","地図番号":"新切-4","縮尺分母":"4800","市区町村コード":"01226","市区町村名":"砂川市","大字コード":"024","丁目コード":"009","小字コード":"0000","予備コード":"00","大字名":"西九条北","丁目名":"９丁目","小字名":null,"予備名":null,"地番":"13","精度区分":null,"座標値種別":"図上測量","筆界未定構成筆":null,"代表点緯度":673.227,"代表点経度":11228.844662809}},{"type":"MultiPolygon","arcs":[[[152,-90,-110,-152]]],"properties":{"筆ID":"H000000044","version":"ver1.0","座標系":"任意座標系","測地系判別":null,"地図名":"H20431501226018","地図番号":"新切-4","縮尺分母":"4800","市区町村コード":"01226","市区町村名":"砂川市","大字コード":"036","丁目コード":"000","小字コード":"0000","予備コード":"00","大字名":"北光","丁目名":null,"小字名":null,"予備名":null,"地番":"598","精度区分":null,"座標値種別":"図上測量","筆界未定構成筆":null,"代表点緯度":687.7275,"代表点経度":11261.211489135}},{"type":"MultiPolygon","arcs":[[[153,154,-140,-33]]],"properties":{"筆ID":"H000000045","version":"ver1.0","座標系":"任意座標系","測地系判別":null,"地図名":"H20431501226018","地図番号":"新切-4","縮尺分母":"4800","市区町村コード":"01226","市区町村名":"砂川市","大字コード":"024","丁目コード":"009","小字コード":"0000","予備コード":"00","大字名":"西九条北","丁目名":"９丁目","小字名":null,"予備名":null,"地番":"11","精度区分":null,"座標値種別":"図上測量","筆界未定構成筆":null,"代表点緯度":609.407,"代表点経度":11363.31398454}},{"type":"MultiPolygon","arcs":[[[-10,-103,155,-100]]],"properties":{"筆ID":"H000000046","version":"ver1.0","座標系":"任意座標系","測地系判別":null,"地図名":"H20431501226018","地図番号":"新切-4","縮尺分母":"4800","市区町村コード":"01226","市区町村名":"砂川市","大字コード":"024","丁目コード":"009","小字コード":"0000","予備コード":"00","大字名":"西九条北","丁目名":"９丁目","小字名":null,"予備名":null,"地番":"19-1","精度区分":null,"座標値種別":"図上測量","筆界未定構成筆":null,"代表点緯度":719.8535,"代表点経度":11053.065075686}},{"type":"MultiPolygon","arcs":[[[-120,-95,-156,-102,156,-106]]],"properties":{"筆ID":"H000000047","version":"ver1.0","座標系":"任意座標系","測地系判別":null,"地図名":"H20431501226018","地図番号":"新切-4","縮尺分母":"4800","市区町村コード":"01226","市区町村名":"砂川市","大字コード":"024","丁目コード":"009","小字コード":"0000","予備コード":"00","大字名":"西九条北","丁目名":"９丁目","小字名":null,"予備名":null,"地番":"19-3","精度区分":null,"座標値種別":"図上測量","筆界未定構成筆":null,"代表点緯度":686.7385,"代表点経度":11099.283893986}},{"type":"MultiPolygon","arcs":[[[157,-154,-32,-74]]],"properties":{"筆ID":"H000000048","version":"ver1.0","座標系":"任意座標系","測地系判別":null,"地図名":"H20431501226018","地図番号":"新切-4","縮尺分母":"4800","市区町村コード":"01226","市区町村名":"砂川市","大字コード":"024","丁目コード":"009","小字コード":"0000","予備コード":"00","大字名":"西九条北","丁目名":"９丁目","小字名":null,"予備名":null,"地番":"10","精度区分":null,"座標値種別":"図上測量","筆界未定構成筆":null,"代表点緯度":606.2935,"代表点経度":11347.963942868}},{"type":"MultiPolygon","arcs":[[[158,-149,-54,-142,-83]]],"properties":{"筆ID":"H000000049","version":"ver1.0","座標系":"任意座標系","測地系判別":null,"地図名":"H20431501226018","地図番号":"新切-4","縮尺分母":"4800","市区町村コード":"01226","市区町村名":"砂川市","大字コード":"036","丁目コード":"000","小字コード":"0000","予備コード":"00","大字名":"北光","丁目名":null,"小字名":null,"予備名":null,"地番":"602","精度区分":null,"座標値種別":"図上測量","筆界未定構成筆":null,"代表点緯度":721.716,"代表点経度":11222.286151381}},{"type":"MultiPolygon","arcs":[[[159,-150,-159,-82]]],"properties":{"筆ID":"H000000050","version":"ver1.0","座標系":"任意座標系","測地系判別":null,"地図名":"H20431501226018","地図番号":"新切-4","縮尺分母":"4800","市区町村コード":"01226","市区町村名":"砂川市","大字コード":"036","丁目コード":"000","小字コード":"0000","予備コード":"00","大字名":"北光","丁目名":null,"小字名":null,"予備名":null,"地番":"601","精度区分":null,"座標値種別":"図上測量","筆界未定構成筆":null,"代表点緯度":712.097,"代表点経度":11231.850086467}},{"type":"MultiPolygon","arcs":[[[-153,-151,-160,-81,-88]]],"properties":{"筆ID":"H000000051","version":"ver1.0","座標系":"任意座標系","測地系判別":null,"地図名":"H20431501226018","地図番号":"新切-4","縮尺分母":"4800","市区町村コード":"01226","市区町村名":"砂川市","大字コード":"036","丁目コード":"000","小字コード":"0000","予備コード":"00","大字名":"北光","丁目名":null,"小字名":null,"予備名":null,"地番":"600","精度区分":null,"座標値種別":"図上測量","筆界未定構成筆":null,"代表点緯度":696.1145,"代表点経度":11243.932398918}},{"type":"MultiPolygon","arcs":[[[160,-147,161,-136]]],"properties":{"筆ID":"H000000052","version":"ver1.0","座標系":"任意座標系","測地系判別":null,"地図名":"H20431501226018","地図番号":"新切-4","縮尺分母":"4800","市区町村コード":"01226","市区町村名":"砂川市","大字コード":"024","丁目コード":"009","小字コード":"0000","予備コード":"00","大字名":"西九条北","丁目名":"９丁目","小字名":null,"予備名":null,"地番":"8-3","精度区分":null,"座標値種別":"図上測量","筆界未定構成筆":null,"代表点緯度":644.399,"代表点経度":11221.84522393}},{"type":"MultiPolygon","arcs":[[[162,-137,-162,-146]]],"properties":{"筆ID":"H000000053","version":"ver1.0","座標系":"任意座標系","測地系判別":null,"地図名":"H20431501226018","地図番号":"新切-4","縮尺分母":"4800","市区町村コード":"01226","市区町村名":"砂川市","大字コード":"024","丁目コード":"009","小字コード":"0000","予備コード":"00","大字名":"西九条北","丁目名":"９丁目","小字名":null,"予備名":null,"地番":"8-5","精度区分":null,"座標値種別":"図上測量","筆界未定構成筆":null,"代表点緯度":643.0855,"代表点経度":11237.163245899}},{"type":"MultiPolygon","arcs":[[[-131,-148,-161,-135]]],"properties":{"筆ID":"H000000054","version":"ver1.0","座標系":"任意座標系","測地系判別":null,"地図名":"H20431501226018","地図番号":"新切-4","縮尺分母":"4800","市区町村コード":"01226","市区町村名":"砂川市","大字コード":"024","丁目コード":"009","小字コード":"0000","予備コード":"00","大字名":"西九条北","丁目名":"９丁目","小字名":null,"予備名":null,"地番":"8-4","精度区分":null,"座標値種別":"図上測量","筆界未定構成筆":null,"代表点緯度":659.5195,"代表点経度":11214.956177994}},{"type":"MultiPolygon","arcs":[[[-133,-134]]],"properties":{"筆ID":"H000000055","version":"ver1.0","座標系":"任意座標系","測地系判別":null,"地図名":"H20431501226018","地図番号":"新切-4","縮尺分母":"4800","市区町村コード":"01226","市区町村名":"砂川市","大字コード":"024","丁目コード":"009","小字コード":"0000","予備コード":"00","大字名":"西九条北","丁目名":"９丁目","小字名":null,"予備名":null,"地番":"8-7","精度区分":null,"座標値種別":"図上測量","筆界未定構成筆":null,"代表点緯度":633.6575,"代表点経度":11202.884792123}},{"type":"MultiPolygon","arcs":[[[163,164,-117]]],"properties":{"筆ID":"H000000056","version":"ver1.0","座標系":"任意座標系","測地系判別":null,"地図名":"H20431501226018","地図番号":"新切-4","縮尺分母":"4800","市区町村コード":"01226","市区町村名":"砂川市","大字コード":"024","丁目コード":"009","小字コード":"0000","予備コード":"00","大字名":"西九条北","丁目名":"９丁目","小字名":null,"予備名":null,"地番":"7-3","精度区分":null,"座標値種別":"図上測量","筆界未定構成筆":null,"代表点緯度":629.435,"代表点経度":11265.546843727}},{"type":"MultiPolygon","arcs":[[[-163,-145,165,-138]]],"properties":{"筆ID":"H000000057","version":"ver1.0","座標系":"任意座標系","測地系判別":null,"地図名":"H20431501226018","地図番号":"新切-4","縮尺分母":"4800","市区町村コード":"01226","市区町村名":"砂川市","大字コード":"024","丁目コード":"009","小字コード":"0000","予備コード":"00","大字名":"西九条北","丁目名":"９丁目","小字名":null,"予備名":null,"地番":"8-2","精度区分":null,"座標値種別":"図上測量","筆界未定構成筆":null,"代表点緯度":637.7255,"代表点経度":11248.411345772}},{"type":"MultiPolygon","arcs":[[[-164,-116,-166,166]]],"properties":{"筆ID":"H000000058","version":"ver1.0","座標系":"任意座標系","測地系判別":null,"地図名":"H20431501226018","地図番号":"新切-4","縮尺分母":"4800","市区町村コード":"01226","市区町村名":"砂川市","大字コード":"024","丁目コード":"009","小字コード":"0000","予備コード":"00","大字名":"西九条北","丁目名":"９丁目","小字名":null,"予備名":null,"地番":"7-2","精度区分":null,"座標値種別":"図上測量","筆界未定構成筆":null,"代表点緯度":634.154,"代表点経度":11255.770195405}},{"type":"MultiPolygon","arcs":[[[-97]]],"properties":{"筆ID":"H000000059","version":"ver1.0","座標系":"任意座標系","測地系判別":null,"地図名":"H20431501226018","地図番号":"新切-4","縮尺分母":"4800","市区町村コード":"01226","市区町村名":"砂川市","大字コード":"024","丁目コード":"009","小字コード":"0000","予備コード":"00","大字名":"西九条北","丁目名":"９丁目","小字名":null,"予備名":null,"地番":"18-2","精度区分":null,"座標値種別":"図上測量","筆界未定構成筆":null,"代表点緯度":647.505,"代表点経度":11117.120139757}},{"type":"MultiPolygon","arcs":[[[-101,-157]]],"properties":{"筆ID":"H000000060","version":"ver1.0","座標系":"任意座標系","測地系判別":null,"地図名":"H20431501226018","地図番号":"新切-4","縮尺分母":"4800","市区町村コード":"01226","市区町村名":"砂川市","大字コード":"024","丁目コード":"009","小字コード":"0000","予備コード":"00","大字名":"西九条北","丁目名":"９丁目","小字名":null,"予備名":null,"地番":"19-2","精度区分":null,"座標値種別":"図上測量","筆界未定構成筆":null,"代表点緯度":686.7385,"代表点経度":11144.112408343}},{"type":"MultiPolygon","arcs":[[[-165,-167,-144,-109,-155,-158,-118]]],"properties":{"筆ID":"H000000061","version":"ver1.0","座標系":"任意座標系","測地系判別":null,"地図名":"H20431501226018","地図番号":"新切-4","縮尺分母":"4800","市区町村コード":"01226","市区町村名":"砂川市","大字コード":"024","丁目コード":"009","小字コード":"0000","予備コード":"00","大字名":"西九条北","丁目名":"９丁目","小字名":null,"予備名":null,"地番":"12","精度区分":null,"座標値種別":"図上測量","筆界未定構成筆":null,"代表点緯度":645.3575,"代表点経度":11283.923469457}},{"type":"MultiPolygon","arcs":[[[-84,-143,-91,-6]]],"properties":{"筆ID":"H000000062","version":"ver1.0","座標系":"任意座標系","測地系判別":null,"地図名":"H20431501226018","地図番号":"新切-4","縮尺分母":"4800","市区町村コード":"01226","市区町村名":"砂川市","大字コード":"036","丁目コード":"000","小字コード":"0000","予備コード":"00","大字名":"北光","丁目名":null,"小字名":null,"予備名":null,"地番":"604","精度区分":null,"座標値種別":"図上測量","筆界未定構成筆":null,"代表点緯度":751.0785,"代表点経度":11226.091530865}}]}},"arcs":[[[148802,32747],[-148802,8041],[122626,479605]],[[122626,520393],[155046,-8379]],[[277672,512014],[-34606,-75255],[-17595,-28872],[-2260,-3710],[-11094,-14788],[75880,-16209],[4737,4569],[36538,-201],[-23636,-23928]],[[305636,353620],[-4713,-3452]],[[300923,350168],[-25487,5496]],[[275436,355664],[-4620,977]],[[270816,356641],[-71584,15153],[-3717,-3062]],[[195515,368732],[-7205,-9898]],[[188310,358834],[-2272,-3122]],[[186038,355712],[-6834,-9389]],[[179204,346323],[-19507,-26802]],[[159697,319521],[-2643,-3548]],[[157054,315973],[-2415,-3241],[13556,-2855]],[[168195,309877],[7278,-6146],[-2032,-25414]],[[173441,278317],[-6452,-3437],[-36107,-19235]],[[130882,255645],[-3313,-3195]],[[127569,252450],[-52030,-28985],[-19067,3594],[14945,-9451],[-18184,-73340]],[[53233,144268],[2623,-4637]],[[55856,139631],[14770,-26119]],[[70626,113512],[3471,-4230]],[[74097,109282],[59684,-55527],[5997,-1995],[9024,-19013]],[[171449,169098],[1923,105437],[69,3782]],[[168195,309877],[2619,-551],[-13760,6647]],[[159697,319521],[19678,-10993]],[[179375,308528],[2714,-1516],[6069,-1249]],[[188158,305763],[-1958,-21189],[6453,3449],[20687,12557]],[[213340,300580],[25391,24925]],[[238731,325505],[4898,-732]],[[243629,324773],[27333,-4078]],[[270962,320695],[21398,-3193]],[[292360,317502],[53589,-7996],[5742,8118]],[[351691,317624],[2091,2957]],[[353782,320581],[797,1127]],[[354579,321708],[7998,-1330]],[[362577,320378],[-3259,-4558]],[[359318,315820],[-3271,-4576]],[[356047,311244],[-2627,-3674],[10169,-1489],[2645,3675]],[[366234,309756],[2790,3877]],[[369024,313633],[3218,4471]],[[372242,318104],[10082,14009]],[[382324,332113],[5420,7530]],[[387744,339643],[4079,5668]],[[391823,345311],[4305,5981]],[[396128,351292],[63390,-9618],[19820,-3008]],[[479338,338666],[-10082,-9644],[-10773,-8088],[-5438,-4578],[-2458,-2069],[-9981,-11465],[-12373,-15591],[-7534,-8606],[-14696,-11310],[-5929,-3824],[-2158,-1091],[-10796,-5459],[-10859,-4448],[-14045,-3707],[-25914,-5279],[-28262,-5171],[-28005,-5545],[-31456,-7036],[-24318,-5991],[-9247,-3572],[-10857,-5784],[-6290,-4351],[-7900,-7645],[-10339,-12788],[-3870,-6839],[-4309,-9687]],[[275871,25880],[-1381,6495],[-5781,3894],[-12531,8141],[-14435,9979],[-14250,10211],[-12828,12699],[-10702,12357],[-7449,9646],[-5442,10044],[-9540,17041],[-5760,10897],[-1694,5810],[-3533,10336],[260,4092],[644,11576]],[[479338,338666],[4581,9060],[7578,10431],[6211,11089],[3606,12656],[384,5155],[-639,4320],[-1783,15521],[423,7681],[-1592,6220],[-8945,11552],[-5207,4898],[-8331,7835],[-15589,12563],[-15657,10676],[-16888,10341],[-19996,9883],[-19159,9632],[-5034,1237],[-21509,2381],[-25151,3063],[-25776,5360]],[[310865,510220],[566507,-30615]],[[877372,479605],[-17003,-66501],[-105623,-413104],[-478875,25880]],[[310865,510220],[-12507,2762],[-17635,2839],[-3051,-3807]],[[122626,520393],[122627,479606],[659110,-35620],[95636,-5169],[-122627,-479605]],[[258067,344375],[1688,1621]],[[259755,345996],[4620,-1008]],[[264375,344988],[-1756,-1693]],[[262619,343295],[-4552,1080]],[[74097,109282],[26923,24688],[-47787,10298]],[[127569,252450],[9472,-2094],[5602,2661],[-11761,2628]],[[275871,25880],[-79277,4284],[-47792,2583]],[[354579,321708],[7930,11210]],[[362509,332918],[1067,1509]],[[363576,334427],[1187,1678]],[[364763,336105],[455,644]],[[365218,336749],[5080,7181],[-46986,6978]],[[323312,350908],[-17676,2712]],[[396128,351292],[-10645,1496],[-4151,-5875]],[[381332,346913],[-4034,-5707]],[[377298,341206],[-5388,-7623]],[[371910,333583],[-9333,-13205]],[[70626,113512],[20047,18661],[-34817,7458]],[[318334,343826],[4978,7082]],[[365218,336749],[-46884,7077]],[[292360,317502],[4165,2403]],[[296525,319905],[4127,-636],[6229,8632]],[[306881,327901],[44810,-10277]],[[356047,311244],[10187,-1488]],[[362577,320378],[9665,-2274]],[[369024,313633],[-9706,2187]],[[371910,333583],[10414,-1470]],[[391823,345311],[-10491,1602]],[[387744,339643],[-10446,1563]],[[282954,350079],[-416,89]],[[282538,350168],[-7541,1609]],[[274997,351777],[-2935,626]],[[272062,352403],[3374,3261]],[[300923,350168],[-3342,-3209]],[[297581,346959],[-14627,3120]],[[318334,343826],[-20753,3133]],[[286144,345248],[-6137,1327],[2947,3504]],[[297581,346959],[-3022,-3530]],[[294559,343429],[-8415,1819]],[[270816,356641],[-3353,-3257]],[[267463,353384],[-71948,15348]],[[213340,300580],[-25182,5183]],[[179375,308528],[18019,33674]],[[197394,342202],[48101,-10056]],[[245495,332146],[-18981,1404]],[[226514,333550],[-8309,812],[-968,-2190],[8293,-780],[984,2158]],[[245495,332146],[-3857,-3731]],[[241638,328415],[-2907,-2910]],[[179204,346323],[18190,-4121]],[[244455,341999],[-15686,3230]],[[228769,345229],[-21526,4435]],[[207243,349664],[-8794,1808],[1250,1349],[-13661,2891]],[[188310,358834],[14093,-3045],[1382,1444],[54282,-12858]],[[258067,344375],[-4450,-4264]],[[253617,340111],[-9162,1888]],[[267463,353384],[-7708,-7388]],[[315557,339922],[-5655,-7836]],[[309902,332086],[-20899,4855]],[[289003,336941],[5556,6488]],[[364763,336105],[-46929,6971],[-702,-972]],[[317132,342104],[-1575,-2182]],[[363576,334427],[-46444,7677]],[[296525,319905],[-19530,3012]],[[276995,322917],[4406,5145]],[[281401,328062],[2880,-627]],[[284281,327435],[5828,-1269],[4446,4561]],[[294555,330727],[12326,-2826]],[[246386,327637],[-4748,778]],[[245495,332146],[8122,7965]],[[253617,340111],[4610,-1052]],[[258227,339059],[-11841,-11422]],[[246386,327637],[322,-49]],[[246708,327588],[-3079,-2815]],[[270962,320695],[3699,2582]],[[274661,323277],[2334,-360]],[[246708,327588],[7366,-1136]],[[254074,326452],[20587,-3175]],[[257006,329302],[-2932,-2850]],[[258227,339059],[7132,-1636]],[[265359,337423],[-3084,-2883]],[[262275,334540],[-2708,-2747]],[[259567,331793],[-2561,-2491]],[[257006,329302],[5330,-1124],[2405,2449],[-5174,1166]],[[262275,334540],[5163,-1257]],[[267438,333283],[-2250,-2144],[5288,-1137],[365,359]],[[270841,330361],[6741,-1468]],[[277582,328893],[3819,-831]],[[362509,332918],[-46952,7004]],[[354579,321708],[-44677,10378]],[[262619,343295],[-4392,-4236]],[[272062,352403],[-7687,-7415]],[[267463,353384],[4599,-981]],[[289003,336941],[-3599,-4204]],[[285404,332737],[-3349,775]],[[282055,333512],[-6438,1559]],[[275617,335071],[-5163,1136]],[[270454,336207],[-5095,1216]],[[262619,343295],[2996,-721]],[[265615,342574],[7332,-1766]],[[272947,340808],[7014,-1690]],[[279961,339118],[9042,-2177]],[[279961,339118],[6183,6130]],[[353782,320581],[-46774,7496]],[[307008,328077],[2894,4009]],[[207243,349664],[-9849,-7462]],[[228769,345229],[-4995,-5094],[16110,-3200],[4571,5064]],[[306881,327901],[127,176]],[[274997,351777],[-9382,-9203]],[[282538,350168],[-9591,-9360]],[[267438,333283],[3016,2924]],[[275617,335071],[-4776,-4710]],[[282055,333512],[-4473,-4619]],[[284281,327435],[4401,4639]],[[288682,332074],[5873,-1347]],[[285404,332737],[-4003,-4675]],[[285404,332737],[3278,-663]]],"bbox":[10629.435,-943.916,12827.494,3837.12],"transform":{"scale":[0.0021980611980611992,0.004781040781040781],"translate":[10629.435,-943.916]}}
