{"type":"Topology","objects":{"01226-4315-12":{"type":"GeometryCollection","geometries":[{"type":"MultiPolygon","arcs":[[[0,1,2]]],"properties":{"筆ID":"H000000001","version":"ver1.0","座標系":"任意座標系","測地系判別":null,"地図名":"H20431501226019","地図番号":"準-3","縮尺分母":"2400","市区町村コード":"01226","市区町村名":"砂川市","大字コード":"025","丁目コード":"000","小字コード":"0000","予備コード":"00","大字名":"三砂町","丁目名":null,"小字名":null,"予備名":null,"地番":"25","精度区分":null,"座標値種別":"図上測量","筆界未定構成筆":null,"代表点緯度":1029.9985,"代表点経度":-911.665535671}},{"type":"MultiPolygon","arcs":[[[3,4,5,6]]],"properties":{"筆ID":"H000000002","version":"ver1.0","座標系":"任意座標系","測地系判別":null,"地図名":"H20431501226019","地図番号":"準-3","縮尺分母":"2400","市区町村コード":"01226","市区町村名":"砂川市","大字コード":"025","丁目コード":"000","小字コード":"0000","予備コード":"00","大字名":"三砂町","丁目名":null,"小字名":null,"予備名":null,"地番":"23-1","精度区分":null,"座標値種別":"図上測量","筆界未定構成筆":null,"代表点緯度":1026.35,"代表点経度":-1034.00232264}},{"type":"MultiPolygon","arcs":[[[7,8,9,10]]],"properties":{"筆ID":"H000000003","version":"ver1.0","座標系":"任意座標系","測地系判別":null,"地図名":"H20431501226019","地図番号":"準-3","縮尺分母":"2400","市区町村コード":"01226","市区町村名":"砂川市","大字コード":"025","丁目コード":"000","小字コード":"0000","予備コード":"00","大字名":"三砂町","丁目名":null,"小字名":null,"予備名":null,"地番":"31-1","精度区分":null,"座標値種別":"図上測量","筆界未定構成筆":null,"代表点緯度":950.7255,"代表点経度":-933.759751658}},{"type":"MultiPolygon","arcs":[[[11,12,13,14]]],"properties":{"筆ID":"H000000004","version":"ver1.0","座標系":"任意座標系","測地系判別":null,"地図名":"H20431501226019","地図番号":"準-3","縮尺分母":"2400","市区町村コード":"01226","市区町村名":"砂川市","大字コード":"025","丁目コード":"000","小字コード":"0000","予備コード":"00","大字名":"三砂町","丁目名":null,"小字名":null,"予備名":null,"地番":"52-8","精度区分":null,"座標値種別":"図上測量","筆界未定構成筆":null,"代表点緯度":1397.9325,"代表点経度":-925.205737141}},{"type":"MultiPolygon","arcs":[[[-15,15,16,17]]],"properties":{"筆ID":"H000000005","version":"ver1.0","座標系":"任意座標系","測地系判別":null,"地図名":"H20431501226019","地図番号":"準-3","縮尺分母":"2400","市区町村コード":"01226","市区町村名":"砂川市","大字コード":"025","丁目コード":"000","小字コード":"0000","予備コード":"00","大字名":"三砂町","丁目名":null,"小字名":null,"予備名":null,"地番":"52-5","精度区分":null,"座標値種別":"図上測量","筆界未定構成筆":null,"代表点緯度":1396,"代表点経度":-916.612291421}},{"type":"MultiPolygon","arcs":[[[18,19,20,21,22]]],"properties":{"筆ID":"H000000006","version":"ver1.0","座標系":"任意座標系","測地系判別":null,"地図名":"H20431501226019","地図番号":"準-3","縮尺分母":"2400","市区町村コード":"01226","市区町村名":"砂川市","大字コード":"025","丁目コード":"000","小字コード":"0000","予備コード":"00","大字名":"三砂町","丁目名":null,"小字名":null,"予備名":null,"地番":"56-5","精度区分":null,"座標値種別":"図上測量","筆界未定構成筆":null,"代表点緯度":948.9005,"代表点経度":-1217.257991549}},{"type":"MultiPolygon","arcs":[[[23,24,25,26,-20]]],"properties":{"筆ID":"H000000007","version":"ver1.0","座標系":"任意座標系","測地系判別":null,"地図名":"H20431501226019","地図番号":"準-3","縮尺分母":"2400","市区町村コード":"01226","市区町村名":"砂川市","大字コード":"025","丁目コード":"000","小字コード":"0000","予備コード":"00","大字名":"三砂町","丁目名":null,"小字名":null,"予備名":null,"地番":"56-3","精度区分":null,"座標値種別":"図上測量","筆界未定構成筆":null,"代表点緯度":992.2025,"代表点経度":-1239.269898077}},{"type":"MultiPolygon","arcs":[[[-26,27,28,29]]],"properties":{"筆ID":"H000000008","version":"ver1.0","座標系":"任意座標系","測地系判別":null,"地図名":"H20431501226019","地図番号":"準-3","縮尺分母":"2400","市区町村コード":"01226","市区町村名":"砂川市","大字コード":"025","丁目コード":"000","小字コード":"0000","予備コード":"00","大字名":"三砂町","丁目名":null,"小字名":null,"予備名":null,"地番":"56-4","精度区分":null,"座標値種別":"図上測量","筆界未定構成筆":null,"代表点緯度":1076.049,"代表点経度":-1228.952925836}},{"type":"MultiPolygon","arcs":[[[-29,30,31,32,33,34,35,36,37,38,39,40,41]]],"properties":{"筆ID":"H000000009","version":"ver1.0","座標系":"任意座標系","測地系判別":null,"地図名":"H20431501226019","地図番号":"準-3","縮尺分母":"2400","市区町村コード":"01226","市区町村名":"砂川市","大字コード":"025","丁目コード":"000","小字コード":"0000","予備コード":"00","大字名":"三砂町","丁目名":null,"小字名":null,"予備名":null,"地番":"55-1","精度区分":null,"座標値種別":"図上測量","筆界未定構成筆":null,"代表点緯度":1104.99,"代表点経度":-1201.2427719}},{"type":"MultiPolygon","arcs":[[[42,-21,-27,-30,-42,43]]],"properties":{"筆ID":"H000000010","version":"ver1.0","座標系":"任意座標系","測地系判別":null,"地図名":"H20431501226019","地図番号":"準-3","縮尺分母":"2400","市区町村コード":"01226","市区町村名":"砂川市","大字コード":"025","丁目コード":"000","小字コード":"0000","予備コード":"00","大字名":"三砂町","丁目名":null,"小字名":null,"予備名":null,"地番":"56-2","精度区分":null,"座標値種別":"図上測量","筆界未定構成筆":null,"代表点緯度":992.584,"代表点経度":-1207.681579743}},{"type":"MultiPolygon","arcs":[[[44,45,-44,46]]],"properties":{"筆ID":"H000000011","version":"ver1.0","座標系":"任意座標系","測地系判別":null,"地図名":"H20431501226019","地図番号":"準-3","縮尺分母":"2400","市区町村コード":"01226","市区町村名":"砂川市","大字コード":"025","丁目コード":"000","小字コード":"0000","予備コード":"00","大字名":"三砂町","丁目名":null,"小字名":null,"予備名":null,"地番":"56-7","精度区分":null,"座標値種別":"図上測量","筆界未定構成筆":null,"代表点緯度":981.6485,"代表点経度":-1172.673503404}},{"type":"MultiPolygon","arcs":[[[47,48,49,-47,-41,50,51,52,53,54]]],"properties":{"筆ID":"H000000012","version":"ver1.0","座標系":"任意座標系","測地系判別":null,"地図名":"H20431501226019","地図番号":"準-3","縮尺分母":"2400","市区町村コード":"01226","市区町村名":"砂川市","大字コード":"025","丁目コード":"000","小字コード":"0000","予備コード":"00","大字名":"三砂町","丁目名":null,"小字名":null,"予備名":null,"地番":"55-6","精度区分":null,"座標値種別":"図上測量","筆界未定構成筆":null,"代表点緯度":990.2705,"代表点経度":-1110.317374934}},{"type":"MultiPolygon","arcs":[[[-24,-19,55]]],"properties":{"筆ID":"H000000013","version":"ver1.0","座標系":"任意座標系","測地系判別":null,"地図名":"H20431501226019","地図番号":"準-3","縮尺分母":"2400","市区町村コード":"01226","市区町村名":"砂川市","大字コード":"025","丁目コード":"000","小字コード":"0000","予備コード":"00","大字名":"三砂町","丁目名":null,"小字名":null,"予備名":null,"地番":"56-6","精度区分":null,"座標値種別":"図上測量","筆界未定構成筆":null,"代表点緯度":947.135,"代表点経度":-1249.290466275}},{"type":"MultiPolygon","arcs":[[[-22,-43,-46,56,57]]],"properties":{"筆ID":"H000000014","version":"ver1.0","座標系":"任意座標系","測地系判別":null,"地図名":"H20431501226019","地図番号":"準-3","縮尺分母":"2400","市区町村コード":"01226","市区町村名":"砂川市","大字コード":"025","丁目コード":"000","小字コード":"0000","予備コード":"00","大字名":"三砂町","丁目名":null,"小字名":null,"予備名":null,"地番":"56-1","精度区分":null,"座標値種別":"図上測量","筆界未定構成筆":null,"代表点緯度":960.6255,"代表点経度":-1203.254484156}},{"type":"MultiPolygon","arcs":[[[58,-58,59,60,61]]],"properties":{"筆ID":"H000000015","version":"ver1.0","座標系":"任意座標系","測地系判別":null,"地図名":"H20431501226019","地図番号":"準-3","縮尺分母":"2400","市区町村コード":"01226","市区町村名":"砂川市","大字コード":"025","丁目コード":"000","小字コード":"0000","予備コード":"00","大字名":"三砂町","丁目名":null,"小字名":null,"予備名":null,"地番":"9-1","精度区分":null,"座標値種別":"図上測量","筆界未定構成筆":null,"代表点緯度":916.4215,"代表点経度":-1151.368586419}},{"type":"MultiPolygon","arcs":[[[62,63,64]]],"properties":{"筆ID":"H000000016","version":"ver1.0","座標系":"任意座標系","測地系判別":null,"地図名":"H20431501226019","地図番号":"準-3","縮尺分母":"2400","市区町村コード":"01226","市区町村名":"砂川市","大字コード":"025","丁目コード":"000","小字コード":"0000","予備コード":"00","大字名":"三砂町","丁目名":null,"小字名":null,"予備名":null,"地番":"39-2","精度区分":null,"座標値種別":"図上測量","筆界未定構成筆":null,"代表点緯度":852.4945,"代表点経度":-959.559899654}},{"type":"MultiPolygon","arcs":[[[65,66,67,68]]],"properties":{"筆ID":"H000000017","version":"ver1.0","座標系":"任意座標系","測地系判別":null,"地図名":"H20431501226019","地図番号":"準-3","縮尺分母":"2400","市区町村コード":"01226","市区町村名":"砂川市","大字コード":"025","丁目コード":"000","小字コード":"0000","予備コード":"00","大字名":"三砂町","丁目名":null,"小字名":null,"予備名":null,"地番":"47-4","精度区分":null,"座標値種別":"図上測量","筆界未定構成筆":null,"代表点緯度":1258.292,"代表点経度":-1071.903720432}},{"type":"MultiPolygon","arcs":[[[69,70,71,72,73,74]]],"properties":{"筆ID":"H000000018","version":"ver1.0","座標系":"任意座標系","測地系判別":null,"地図名":"H20431501226019","地図番号":"準-3","縮尺分母":"2400","市区町村コード":"01226","市区町村名":"砂川市","大字コード":"025","丁目コード":"000","小字コード":"0000","予備コード":"00","大字名":"三砂町","丁目名":null,"小字名":null,"予備名":null,"地番":"22-3","精度区分":null,"座標値種別":"図上測量","筆界未定構成筆":null,"代表点緯度":1209.928,"代表点経度":-1003.280338577}},{"type":"MultiPolygon","arcs":[[[-32,75,76]]],"properties":{"筆ID":"H000000019","version":"ver1.0","座標系":"任意座標系","測地系判別":null,"地図名":"H20431501226019","地図番号":"準-3","縮尺分母":"2400","市区町村コード":"01226","市区町村名":"砂川市","大字コード":"025","丁目コード":"000","小字コード":"0000","予備コード":"00","大字名":"三砂町","丁目名":null,"小字名":null,"予備名":null,"地番":"54-6","精度区分":null,"座標値種別":"図上測量","筆界未定構成筆":null,"代表点緯度":1200.7835,"代表点経度":-1193.899189094}},{"type":"MultiPolygon","arcs":[[[77,78,79,80,81,82]]],"properties":{"筆ID":"H000000020","version":"ver1.0","座標系":"任意座標系","測地系判別":null,"地図名":"H20431501226019","地図番号":"準-3","縮尺分母":"2400","市区町村コード":"01226","市区町村名":"砂川市","大字コード":"025","丁目コード":"000","小字コード":"0000","予備コード":"00","大字名":"三砂町","丁目名":null,"小字名":null,"予備名":null,"地番":"1","精度区分":null,"座標値種別":"図上測量","筆界未定構成筆":null,"代表点緯度":765.514,"代表点経度":-1103.337810128}},{"type":"MultiPolygon","arcs":[[[-81,83,84]]],"properties":{"筆ID":"H000000021","version":"ver1.0","座標系":"任意座標系","測地系判別":null,"地図名":"H20431501226019","地図番号":"準-3","縮尺分母":"2400","市区町村コード":"01226","市区町村名":"砂川市","大字コード":"025","丁目コード":"000","小字コード":"0000","予備コード":"00","大字名":"三砂町","丁目名":null,"小字名":null,"予備名":null,"地番":"40-1","精度区分":null,"座標値種別":"図上測量","筆界未定構成筆":null,"代表点緯度":811.8245,"代表点経度":-968.793775215}},{"type":"MultiPolygon","arcs":[[[-80,85,-84]]],"properties":{"筆ID":"H000000022","version":"ver1.0","座標系":"任意座標系","測地系判別":null,"地図名":"H20431501226019","地図番号":"準-3","縮尺分母":"2400","市区町村コード":"01226","市区町村名":"砂川市","大字コード":"025","丁目コード":"000","小字コード":"0000","予備コード":"00","大字名":"三砂町","丁目名":null,"小字名":null,"予備名":null,"地番":"40-2","精度区分":null,"座標値種別":"図上測量","筆界未定構成筆":null,"代表点緯度":813.9265,"代表点経度":-994.339566163}},{"type":"MultiPolygon","arcs":[[[-83,86,87]]],"properties":{"筆ID":"H000000023","version":"ver1.0","座標系":"任意座標系","測地系判別":null,"地図名":"H20431501226019","地図番号":"準-3","縮尺分母":"2400","市区町村コード":"01226","市区町村名":"砂川市","大字コード":"025","丁目コード":"000","小字コード":"0000","予備コード":"00","大字名":"三砂町","丁目名":null,"小字名":null,"予備名":null,"地番":"7","精度区分":null,"座標値種別":"図上測量","筆界未定構成筆":null,"代表点緯度":642.7075,"代表点経度":-1027.590426546}},{"type":"MultiPolygon","arcs":[[[88,89,90]]],"properties":{"筆ID":"H000000024","version":"ver1.0","座標系":"任意座標系","測地系判別":null,"地図名":"H20431501226019","地図番号":"準-3","縮尺分母":"2400","市区町村コード":"01226","市区町村名":"砂川市","大字コード":"025","丁目コード":"000","小字コード":"0000","予備コード":"00","大字名":"三砂町","丁目名":null,"小字名":null,"予備名":null,"地番":"22-4","精度区分":null,"座標値種別":"図上測量","筆界未定構成筆":null,"代表点緯度":1183.6445,"代表点経度":-886.765205307}},{"type":"MultiPolygon","arcs":[[[91,92,93,-93,-67,94,95,96,97,98,99,100]]],"properties":{"筆ID":"H000000025","version":"ver1.0","座標系":"任意座標系","測地系判別":null,"地図名":"H20431501226019","地図番号":"準-3","縮尺分母":"2400","市区町村コード":"01226","市区町村名":"砂川市","大字コード":"025","丁目コード":"000","小字コード":"0000","予備コード":"00","大字名":"三砂町","丁目名":null,"小字名":null,"予備名":null,"地番":"47-1","精度区分":null,"座標値種別":"図上測量","筆界未定構成筆":null,"代表点緯度":1348.494,"代表点経度":-1051.015418332}},{"type":"MultiPolygon","arcs":[[[-101,101,102,103]]],"properties":{"筆ID":"H000000026","version":"ver1.0","座標系":"任意座標系","測地系判別":null,"地図名":"H20431501226019","地図番号":"準-3","縮尺分母":"2400","市区町村コード":"01226","市区町村名":"砂川市","大字コード":"025","丁目コード":"000","小字コード":"0000","予備コード":"00","大字名":"三砂町","丁目名":null,"小字名":null,"予備名":null,"地番":"47-7","精度区分":null,"座標値種別":"図上測量","筆界未定構成筆":null,"代表点緯度":1412.1115,"代表点経度":-982.591719674}},{"type":"MultiPolygon","arcs":[[[104,105,106]]],"properties":{"筆ID":"H000000027","version":"ver1.0","座標系":"任意座標系","測地系判別":null,"地図名":"H20431501226019","地図番号":"準-3","縮尺分母":"2400","市区町村コード":"01226","市区町村名":"砂川市","大字コード":"025","丁目コード":"000","小字コード":"0000","予備コード":"00","大字名":"三砂町","丁目名":null,"小字名":null,"予備名":null,"地番":"52-13","精度区分":null,"座標値種別":"図上測量","筆界未定構成筆":null,"代表点緯度":1332.6745,"代表点経度":-934.136481774}},{"type":"MultiPolygon","arcs":[[[107,108,109,110]]],"properties":{"筆ID":"H000000028","version":"ver1.0","座標系":"任意座標系","測地系判別":null,"地図名":"H20431501226019","地図番号":"準-3","縮尺分母":"2400","市区町村コード":"01226","市区町村名":"砂川市","大字コード":"025","丁目コード":"000","小字コード":"0000","予備コード":"00","大字名":"三砂町","丁目名":null,"小字名":null,"予備名":null,"地番":"52-7","精度区分":null,"座標値種別":"図上測量","筆界未定構成筆":null,"代表点緯度":1316.563,"代表点経度":-859.546120098}},{"type":"MultiPolygon","arcs":[[[111,112,113,114,115,-109]]],"properties":{"筆ID":"H000000029","version":"ver1.0","座標系":"任意座標系","測地系判別":null,"地図名":"H20431501226019","地図番号":"準-3","縮尺分母":"2400","市区町村コード":"01226","市区町村名":"砂川市","大字コード":"025","丁目コード":"000","小字コード":"0000","予備コード":"00","大字名":"三砂町","丁目名":null,"小字名":null,"予備名":null,"地番":"52-30","精度区分":null,"座標値種別":"図上測量","筆界未定構成筆":null,"代表点緯度":1339.6785,"代表点経度":-876.196820804}},{"type":"MultiPolygon","arcs":[[[-114,-107,116,117,-13,118,119]]],"properties":{"筆ID":"H000000030","version":"ver1.0","座標系":"任意座標系","測地系判別":null,"地図名":"H20431501226019","地図番号":"準-3","縮尺分母":"2400","市区町村コード":"01226","市区町村名":"砂川市","大字コード":"025","丁目コード":"000","小字コード":"0000","予備コード":"00","大字名":"三砂町","丁目名":null,"小字名":null,"予備名":null,"地番":"52-1","精度区分":null,"座標値種別":"図上測量","筆界未定構成筆":null,"代表点緯度":1373.3945,"代表点経度":-942.014792383}},{"type":"MultiPolygon","arcs":[[[120,-119,-12,-18,121]]],"properties":{"筆ID":"H000000031","version":"ver1.0","座標系":"任意座標系","測地系判別":null,"地図名":"H20431501226019","地図番号":"準-3","縮尺分母":"2400","市区町村コード":"01226","市区町村名":"砂川市","大字コード":"025","丁目コード":"000","小字コード":"0000","予備コード":"00","大字名":"三砂町","丁目名":null,"小字名":null,"予備名":null,"地番":"52-16","精度区分":null,"座標値種別":"図上測量","筆界未定構成筆":null,"代表点緯度":1376.948,"代表点経度":-926.444631795}},{"type":"MultiPolygon","arcs":[[[122,-115,-120,-121,123,124,125]]],"properties":{"筆ID":"H000000032","version":"ver1.0","座標系":"任意座標系","測地系判別":null,"地図名":"H20431501226019","地図番号":"準-3","縮尺分母":"2400","市区町村コード":"01226","市区町村名":"砂川市","大字コード":"025","丁目コード":"000","小字コード":"0000","予備コード":"00","大字名":"三砂町","丁目名":null,"小字名":null,"予備名":null,"地番":"52-4","精度区分":null,"座標値種別":"図上測量","筆界未定構成筆":null,"代表点緯度":1352.6255,"代表点経度":-895.49881569}},{"type":"MultiPolygon","arcs":[[[126,127,128,-126]]],"properties":{"筆ID":"H000000033","version":"ver1.0","座標系":"任意座標系","測地系判別":null,"地図名":"H20431501226019","地図番号":"準-3","縮尺分母":"2400","市区町村コード":"01226","市区町村名":"砂川市","大字コード":"025","丁目コード":"000","小字コード":"0000","予備コード":"00","大字名":"三砂町","丁目名":null,"小字名":null,"予備名":null,"地番":"52-31","精度区分":null,"座標値種別":"図上測量","筆界未定構成筆":null,"代表点緯度":1351.064,"代表点経度":-860.405957904}},{"type":"MultiPolygon","arcs":[[[129,130,-128]]],"properties":{"筆ID":"H000000034","version":"ver1.0","座標系":"任意座標系","測地系判別":null,"地図名":"H20431501226019","地図番号":"準-3","縮尺分母":"2400","市区町村コード":"01226","市区町村名":"砂川市","大字コード":"025","丁目コード":"000","小字コード":"0000","予備コード":"00","大字名":"三砂町","丁目名":null,"小字名":null,"予備名":null,"地番":"53-1","精度区分":null,"座標値種別":"図上測量","筆界未定構成筆":null,"代表点緯度":1374.001,"代表点経度":-849.707241541}},{"type":"MultiPolygon","arcs":[[[131,132,-105,-113]]],"properties":{"筆ID":"H000000035","version":"ver1.0","座標系":"任意座標系","測地系判別":null,"地図名":"H20431501226019","地図番号":"準-3","縮尺分母":"2400","市区町村コード":"01226","市区町村名":"砂川市","大字コード":"025","丁目コード":"000","小字コード":"0000","予備コード":"00","大字名":"三砂町","丁目名":null,"小字名":null,"予備名":null,"地番":"52-3","精度区分":null,"座標値種別":"図上測量","筆界未定構成筆":null,"代表点緯度":1325.2535,"代表点経度":-899.71809838}},{"type":"MultiPolygon","arcs":[[[-108,133,-132,-112]]],"properties":{"筆ID":"H000000036","version":"ver1.0","座標系":"任意座標系","測地系判別":null,"地図名":"H20431501226019","地図番号":"準-3","縮尺分母":"2400","市区町村コード":"01226","市区町村名":"砂川市","大字コード":"025","丁目コード":"000","小字コード":"0000","予備コード":"00","大字名":"三砂町","丁目名":null,"小字名":null,"予備名":null,"地番":"52-2","精度区分":null,"座標値種別":"図上測量","筆界未定構成筆":null,"代表点緯度":1320.732,"代表点経度":-878.890060156}},{"type":"MultiPolygon","arcs":[[[134,135,136,137]]],"properties":{"筆ID":"H000000037","version":"ver1.0","座標系":"任意座標系","測地系判別":null,"地図名":"H20431501226019","地図番号":"準-3","縮尺分母":"2400","市区町村コード":"01226","市区町村名":"砂川市","大字コード":"025","丁目コード":"000","小字コード":"0000","予備コード":"00","大字名":"三砂町","丁目名":null,"小字名":null,"予備名":null,"地番":"49-2","精度区分":null,"座標値種別":"図上測量","筆界未定構成筆":null,"代表点緯度":1225.353,"代表点経度":-922.314902339}},{"type":"MultiPolygon","arcs":[[[138,139]]],"properties":{"筆ID":"H000000038","version":"ver1.0","座標系":"任意座標系","測地系判別":null,"地図名":"H20431501226019","地図番号":"準-3","縮尺分母":"2400","市区町村コード":"01226","市区町村名":"砂川市","大字コード":"025","丁目コード":"000","小字コード":"0000","予備コード":"00","大字名":"三砂町","丁目名":null,"小字名":null,"予備名":null,"地番":"51","精度区分":null,"座標値種別":"図上測量","筆界未定構成筆":null,"代表点緯度":1228.315,"代表点経度":-871.527493166}},{"type":"MultiPolygon","arcs":[[[-74,140,141,142,-138,143,144]]],"properties":{"筆ID":"H000000039","version":"ver1.0","座標系":"任意座標系","測地系判別":null,"地図名":"H20431501226019","地図番号":"準-3","縮尺分母":"2400","市区町村コード":"01226","市区町村名":"砂川市","大字コード":"025","丁目コード":"000","小字コード":"0000","予備コード":"00","大字名":"三砂町","丁目名":null,"小字名":null,"予備名":null,"地番":"22-1","精度区分":null,"座標値種別":"図上測量","筆界未定構成筆":null,"代表点緯度":1218.9585,"代表点経度":-928.78217159}},{"type":"MultiPolygon","arcs":[[[145,146]]],"properties":{"筆ID":"H000000040","version":"ver1.0","座標系":"任意座標系","測地系判別":null,"地図名":"H20431501226019","地図番号":"準-3","縮尺分母":"2400","市区町村コード":"01226","市区町村名":"砂川市","大字コード":"025","丁目コード":"000","小字コード":"0000","予備コード":"00","大字名":"三砂町","丁目名":null,"小字名":null,"予備名":null,"地番":"50-1","精度区分":null,"座標値種別":"図上測量","筆界未定構成筆":null,"代表点緯度":1246.448,"代表点経度":-972.625518313}},{"type":"MultiPolygon","arcs":[[[147,-142,-68,148]]],"properties":{"筆ID":"H000000041","version":"ver1.0","座標系":"任意座標系","測地系判別":null,"地図名":"H20431501226019","地図番号":"準-3","縮尺分母":"2400","市区町村コード":"01226","市区町村名":"砂川市","大字コード":"025","丁目コード":"000","小字コード":"0000","予備コード":"00","大字名":"三砂町","丁目名":null,"小字名":null,"予備名":null,"地番":"49-3","精度区分":null,"座標値種別":"図上測量","筆界未定構成筆":null,"代表点緯度":1241.3395,"代表点経度":-996.202877426}},{"type":"MultiPolygon","arcs":[[[-143,-148,-146,-135]]],"properties":{"筆ID":"H000000042","version":"ver1.0","座標系":"任意座標系","測地系判別":null,"地図名":"H20431501226019","地図番号":"準-3","縮尺分母":"2400","市区町村コード":"01226","市区町村名":"砂川市","大字コード":"025","丁目コード":"000","小字コード":"0000","予備コード":"00","大字名":"三砂町","丁目名":null,"小字名":null,"予備名":null,"地番":"50-2","精度区分":null,"座標値種別":"図上測量","筆界未定構成筆":null,"代表点緯度":1236.6905,"代表点経度":-974.751662982}},{"type":"MultiPolygon","arcs":[[[149,-75,-145,150,-91]]],"properties":{"筆ID":"H000000043","version":"ver1.0","座標系":"任意座標系","測地系判別":null,"地図名":"H20431501226019","地図番号":"準-3","縮尺分母":"2400","市区町村コード":"01226","市区町村名":"砂川市","大字コード":"025","丁目コード":"000","小字コード":"0000","予備コード":"00","大字名":"三砂町","丁目名":null,"小字名":null,"予備名":null,"地番":"22-2","精度区分":null,"座標値種別":"図上測量","筆界未定構成筆":null,"代表点緯度":1197.5645,"代表点経度":-935.87421873}},{"type":"MultiPolygon","arcs":[[[151,152,153,-90,154,155]]],"properties":{"筆ID":"H000000044","version":"ver1.0","座標系":"任意座標系","測地系判別":null,"地図名":"H20431501226019","地図番号":"準-3","縮尺分母":"2400","市区町村コード":"01226","市区町村名":"砂川市","大字コード":"025","丁目コード":"000","小字コード":"0000","予備コード":"00","大字名":"三砂町","丁目名":null,"小字名":null,"予備名":null,"地番":"21-6","精度区分":null,"座標値種別":"図上測量","筆界未定構成筆":null,"代表点緯度":1136.4245,"代表点経度":-932.124964114}},{"type":"MultiPolygon","arcs":[[[156,157,-38]]],"properties":{"筆ID":"H000000045","version":"ver1.0","座標系":"任意座標系","測地系判別":null,"地図名":"H20431501226019","地図番号":"準-3","縮尺分母":"2400","市区町村コード":"01226","市区町村名":"砂川市","大字コード":"025","丁目コード":"000","小字コード":"0000","予備コード":"00","大字名":"三砂町","丁目名":null,"小字名":null,"予備名":null,"地番":"55-5","精度区分":null,"座標値種別":"図上測量","筆界未定構成筆":null,"代表点緯度":1101.3635,"代表点経度":-1168.035730964}},{"type":"MultiPolygon","arcs":[[[158,159,160,161]]],"properties":{"筆ID":"H000000046","version":"ver1.0","座標系":"任意座標系","測地系判別":null,"地図名":"H20431501226019","地図番号":"準-3","縮尺分母":"2400","市区町村コード":"01226","市区町村名":"砂川市","大字コード":"025","丁目コード":"000","小字コード":"0000","予備コード":"00","大字名":"三砂町","丁目名":null,"小字名":null,"予備名":null,"地番":"54-4","精度区分":null,"座標値種別":"図上測量","筆界未定構成筆":null,"代表点緯度":1139.7925,"代表点経度":-1154.416485457}},{"type":"MultiPolygon","arcs":[[[162,163,-34,164,165,-160]]],"properties":{"筆ID":"H000000047","version":"ver1.0","座標系":"任意座標系","測地系判別":null,"地図名":"H20431501226019","地図番号":"準-3","縮尺分母":"2400","市区町村コード":"01226","市区町村名":"砂川市","大字コード":"025","丁目コード":"000","小字コード":"0000","予備コード":"00","大字名":"三砂町","丁目名":null,"小字名":null,"予備名":null,"地番":"54-10","精度区分":null,"座標値種別":"図上測量","筆界未定構成筆":null,"代表点緯度":1151.632,"代表点経度":-1163.977433529}},{"type":"MultiPolygon","arcs":[[[166,-159,167,168,169,170,-157]]],"properties":{"筆ID":"H000000048","version":"ver1.0","座標系":"任意座標系","測地系判別":null,"地図名":"H20431501226019","地図番号":"準-3","縮尺分母":"2400","市区町村コード":"01226","市区町村名":"砂川市","大字コード":"025","丁目コード":"000","小字コード":"0000","予備コード":"00","大字名":"三砂町","丁目名":null,"小字名":null,"予備名":null,"地番":"54-2","精度区分":null,"座標値種別":"図上測量","筆界未定構成筆":null,"代表点緯度":1100.777,"代表点経度":-1150.699137652}},{"type":"MultiPolygon","arcs":[[[-51,-40,171,172,173,174]]],"properties":{"筆ID":"H000000049","version":"ver1.0","座標系":"任意座標系","測地系判別":null,"地図名":"H20431501226019","地図番号":"準-3","縮尺分母":"2400","市区町村コード":"01226","市区町村名":"砂川市","大字コード":"025","丁目コード":"000","小字コード":"0000","予備コード":"00","大字名":"三砂町","丁目名":null,"小字名":null,"予備名":null,"地番":"55-3","精度区分":null,"座標値種別":"図上測量","筆界未定構成筆":null,"代表点緯度":1056.83,"代表点経度":-1155.664043039}},{"type":"MultiPolygon","arcs":[[[-52,-175,175,176,177,178,179,180,181,182,183,184,185,-185,186,187]]],"properties":{"筆ID":"H000000050","version":"ver1.0","座標系":"任意座標系","測地系判別":null,"地図名":"H20431501226019","地図番号":"準-3","縮尺分母":"2400","市区町村コード":"01226","市区町村名":"砂川市","大字コード":"025","丁目コード":"000","小字コード":"0000","予備コード":"00","大字名":"三砂町","丁目名":null,"小字名":null,"予備名":null,"地番":"12-1","精度区分":null,"座標値種別":"図上測量","筆界未定構成筆":null,"代表点緯度":1054.3545,"代表点経度":-1085.417633408}},{"type":"MultiPolygon","arcs":[[[188,189,190,191,-54]]],"properties":{"筆ID":"H000000051","version":"ver1.0","座標系":"任意座標系","測地系判別":null,"地図名":"H20431501226019","地図番号":"準-3","縮尺分母":"2400","市区町村コード":"01226","市区町村名":"砂川市","大字コード":"025","丁目コード":"000","小字コード":"0000","予備コード":"00","大字名":"三砂町","丁目名":null,"小字名":null,"予備名":null,"地番":"11-2","精度区分":null,"座標値種別":"図上測量","筆界未定構成筆":null,"代表点緯度":1006.807,"代表点経度":-1053.439800464}},{"type":"MultiPolygon","arcs":[[[192,193,194,-61,195,196]]],"properties":{"筆ID":"H000000052","version":"ver1.0","座標系":"任意座標系","測地系判別":null,"地図名":"H20431501226019","地図番号":"準-3","縮尺分母":"2400","市区町村コード":"01226","市区町村名":"砂川市","大字コード":"025","丁目コード":"000","小字コード":"0000","予備コード":"00","大字名":"三砂町","丁目名":null,"小字名":null,"予備名":null,"地番":"38","精度区分":null,"座標値種別":"図上測量","筆界未定構成筆":null,"代表点緯度":910.4625,"代表点経度":-1081.077673937}},{"type":"MultiPolygon","arcs":[[[-193,197,198,-63,199]]],"properties":{"筆ID":"H000000053","version":"ver1.0","座標系":"任意座標系","測地系判別":null,"地図名":"H20431501226019","地図番号":"準-3","縮尺分母":"2400","市区町村コード":"01226","市区町村名":"砂川市","大字コード":"025","丁目コード":"000","小字コード":"0000","予備コード":"00","大字名":"三砂町","丁目名":null,"小字名":null,"予備名":null,"地番":"39-1","精度区分":null,"座標値種別":"図上測量","筆界未定構成筆":null,"代表点緯度":888.6255,"代表点経度":-1050.124305561}},{"type":"MultiPolygon","arcs":[[[200,201,202,203,204,205,-199]]],"properties":{"筆ID":"H000000054","version":"ver1.0","座標系":"任意座標系","測地系判別":null,"地図名":"H20431501226019","地図番号":"準-3","縮尺分母":"2400","市区町村コード":"01226","市区町村名":"砂川市","大字コード":"025","丁目コード":"000","小字コード":"0000","予備コード":"00","大字名":"三砂町","丁目名":null,"小字名":null,"予備名":null,"地番":"828-1","精度区分":null,"座標値種別":"図上測量","筆界未定構成筆":null,"代表点緯度":891.8285,"代表点経度":-1016.471997989}},{"type":"MultiPolygon","arcs":[[[-206,206,207,-64]]],"properties":{"筆ID":"H000000055","version":"ver1.0","座標系":"任意座標系","測地系判別":null,"地図名":"H20431501226019","地図番号":"準-3","縮尺分母":"2400","市区町村コード":"01226","市区町村名":"砂川市","大字コード":"025","丁目コード":"000","小字コード":"0000","予備コード":"00","大字名":"三砂町","丁目名":null,"小字名":null,"予備名":null,"地番":"828-3","精度区分":null,"座標値種別":"図上測量","筆界未定構成筆":null,"代表点緯度":857.552,"代表点経度":-954.051337293}},{"type":"MultiPolygon","arcs":[[[208,-191,209,210,211,212,-71,213,214]]],"properties":{"筆ID":"H000000056","version":"ver1.0","座標系":"任意座標系","測地系判別":null,"地図名":"H20431501226019","地図番号":"準-3","縮尺分母":"2400","市区町村コード":"01226","市区町村名":"砂川市","大字コード":"025","丁目コード":"000","小字コード":"0000","予備コード":"00","大字名":"三砂町","丁目名":null,"小字名":null,"予備名":null,"地番":"20","精度区分":null,"座標値種別":"図上測量","筆界未定構成筆":null,"代表点緯度":1084.372,"代表点経度":-1032.171397328}},{"type":"MultiPolygon","arcs":[[[-55,-192,-209,215,216]]],"properties":{"筆ID":"H000000057","version":"ver1.0","座標系":"任意座標系","測地系判別":null,"地図名":"H20431501226019","地図番号":"準-3","縮尺分母":"2400","市区町村コード":"01226","市区町村名":"砂川市","大字コード":"025","丁目コード":"000","小字コード":"0000","予備コード":"00","大字名":"三砂町","丁目名":null,"小字名":null,"予備名":null,"地番":"35","精度区分":null,"座標値種別":"図上測量","筆界未定構成筆":null,"代表点緯度":962.4395,"代表点経度":-1058.790600641}},{"type":"MultiPolygon","arcs":[[[217,218,219,-48,-217]]],"properties":{"筆ID":"H000000058","version":"ver1.0","座標系":"任意座標系","測地系判別":null,"地図名":"H20431501226019","地図番号":"準-3","縮尺分母":"2400","市区町村コード":"01226","市区町村名":"砂川市","大字コード":"025","丁目コード":"000","小字コード":"0000","予備コード":"00","大字名":"三砂町","丁目名":null,"小字名":null,"予備名":null,"地番":"2026-2","精度区分":null,"座標値種別":"図上測量","筆界未定構成筆":null,"代表点緯度":940.929,"代表点経度":-1063.445055975}},{"type":"MultiPolygon","arcs":[[[220,-218,221,-202]]],"properties":{"筆ID":"H000000059","version":"ver1.0","座標系":"任意座標系","測地系判別":null,"地図名":"H20431501226019","地図番号":"準-3","縮尺分母":"2400","市区町村コード":"01226","市区町村名":"砂川市","大字コード":"025","丁目コード":"000","小字コード":"0000","予備コード":"00","大字名":"三砂町","丁目名":null,"小字名":null,"予備名":null,"地番":"1582-2","精度区分":null,"座標値種別":"図上測量","筆界未定構成筆":null,"代表点緯度":939.8485,"代表点経度":-1059.697927217}},{"type":"MultiPolygon","arcs":[[[-204,222,223,224,225,226,227,228,229]]],"properties":{"筆ID":"H000000060","version":"ver1.0","座標系":"任意座標系","測地系判別":null,"地図名":"H20431501226019","地図番号":"準-3","縮尺分母":"2400","市区町村コード":"01226","市区町村名":"砂川市","大字コード":"025","丁目コード":"000","小字コード":"0000","予備コード":"00","大字名":"三砂町","丁目名":null,"小字名":null,"予備名":null,"地番":"26-1","精度区分":null,"座標値種別":"図上測量","筆界未定構成筆":null,"代表点緯度":962.0915,"代表点経度":-978.467649851}},{"type":"MultiPolygon","arcs":[[[-205,-230,230,231]]],"properties":{"筆ID":"H000000061","version":"ver1.0","座標系":"任意座標系","測地系判別":null,"地図名":"H20431501226019","地図番号":"準-3","縮尺分母":"2400","市区町村コード":"01226","市区町村名":"砂川市","大字コード":"025","丁目コード":"000","小字コード":"0000","予備コード":"00","大字名":"三砂町","丁目名":null,"小字名":null,"予備名":null,"地番":"36-1","精度区分":null,"座標値種別":"図上測量","筆界未定構成筆":null,"代表点緯度":894.8,"代表点経度":-1003.548753532}},{"type":"MultiPolygon","arcs":[[[-232,232,233,-207]]],"properties":{"筆ID":"H000000062","version":"ver1.0","座標系":"任意座標系","測地系判別":null,"地図名":"H20431501226019","地図番号":"準-3","縮尺分母":"2400","市区町村コード":"01226","市区町村名":"砂川市","大字コード":"025","丁目コード":"000","小字コード":"0000","予備コード":"00","大字名":"三砂町","丁目名":null,"小字名":null,"予備名":null,"地番":"36-2","精度区分":null,"座標値種別":"図上測量","筆界未定構成筆":null,"代表点緯度":866.335,"代表点経度":-952.124970729}},{"type":"MultiPolygon","arcs":[[[234,235,236,-3,237]]],"properties":{"筆ID":"H000000063","version":"ver1.0","座標系":"任意座標系","測地系判別":null,"地図名":"H20431501226019","地図番号":"準-3","縮尺分母":"2400","市区町村コード":"01226","市区町村名":"砂川市","大字コード":"025","丁目コード":"000","小字コード":"0000","予備コード":"00","大字名":"三砂町","丁目名":null,"小字名":null,"予備名":null,"地番":"27-3","精度区分":null,"座標値種別":"図上測量","筆界未定構成筆":null,"代表点緯度":1054.733,"代表点経度":-911.109061379}},{"type":"MultiPolygon","arcs":[[[-222,-216,238,-7,239,240,241,-235,-226,242,243,-223,-203]]],"properties":{"筆ID":"H000000064","version":"ver1.0","座標系":"任意座標系","測地系判別":null,"地図名":"H20431501226019","地図番号":"準-3","縮尺分母":"2400","市区町村コード":"01226","市区町村名":"砂川市","大字コード":"025","丁目コード":"000","小字コード":"0000","予備コード":"00","大字名":"三砂町","丁目名":null,"小字名":null,"予備名":null,"地番":"27-2","精度区分":null,"座標値種別":"図上測量","筆界未定構成筆":null,"代表点緯度":1009.285,"代表点経度":-981.756612651}},{"type":"MultiPolygon","arcs":[[[244,-224,-244]]],"properties":{"筆ID":"H000000065","version":"ver1.0","座標系":"任意座標系","測地系判別":null,"地図名":"H20431501226019","地図番号":"準-3","縮尺分母":"2400","市区町村コード":"01226","市区町村名":"砂川市","大字コード":"025","丁目コード":"000","小字コード":"0000","予備コード":"00","大字名":"三砂町","丁目名":null,"小字名":null,"予備名":null,"地番":"27-1","精度区分":null,"座標値種別":"図上測量","筆界未定構成筆":null,"代表点緯度":940.8135,"代表点経度":-1033.612338299}},{"type":"MultiPolygon","arcs":[[[-243,-225,-245]]],"properties":{"筆ID":"H000000066","version":"ver1.0","座標系":"任意座標系","測地系判別":null,"地図名":"H20431501226019","地図番号":"準-3","縮尺分母":"2400","市区町村コード":"01226","市区町村名":"砂川市","大字コード":"025","丁目コード":"000","小字コード":"0000","予備コード":"00","大字名":"三砂町","丁目名":null,"小字名":null,"予備名":null,"地番":"33-2","精度区分":null,"座標値種別":"図上測量","筆界未定構成筆":null,"代表点緯度":962.0915,"代表点経度":-1023.313783376}},{"type":"MultiPolygon","arcs":[[[-201,-198,-197,245,-219,-221]]],"properties":{"筆ID":"H000000067","version":"ver1.0","座標系":"任意座標系","測地系判別":null,"地図名":"H20431501226019","地図番号":"準-3","縮尺分母":"2400","市区町村コード":"01226","市区町村名":"砂川市","大字コード":"025","丁目コード":"000","小字コード":"0000","予備コード":"00","大字名":"三砂町","丁目名":null,"小字名":null,"予備名":null,"地番":"828-2","精度区分":null,"座標値種別":"図上測量","筆界未定構成筆":null,"代表点緯度":921.8725,"代表点経度":-1061.888303295}},{"type":"MultiPolygon","arcs":[[[-229,246,247,248,-231]]],"properties":{"筆ID":"H000000068","version":"ver1.0","座標系":"任意座標系","測地系判別":null,"地図名":"H20431501226019","地図番号":"準-3","縮尺分母":"2400","市区町村コード":"01226","市区町村名":"砂川市","大字コード":"025","丁目コード":"000","小字コード":"0000","予備コード":"00","大字名":"三砂町","丁目名":null,"小字名":null,"予備名":null,"地番":"28-1","精度区分":null,"座標値種別":"図上測量","筆界未定構成筆":null,"代表点緯度":911.567,"代表点経度":-977.151311797}},{"type":"MultiPolygon","arcs":[[[-249,249,250,-233]]],"properties":{"筆ID":"H000000069","version":"ver1.0","座標系":"任意座標系","測地系判別":null,"地図名":"H20431501226019","地図番号":"準-3","縮尺分母":"2400","市区町村コード":"01226","市区町村名":"砂川市","大字コード":"025","丁目コード":"000","小字コード":"0000","予備コード":"00","大字名":"三砂町","丁目名":null,"小字名":null,"予備名":null,"地番":"28-2","精度区分":null,"座標値種別":"図上測量","筆界未定構成筆":null,"代表点緯度":894.951,"代表点経度":-945.906562573}},{"type":"MultiPolygon","arcs":[[[251,-247,-228,252,253]]],"properties":{"筆ID":"H000000070","version":"ver1.0","座標系":"任意座標系","測地系判別":null,"地図名":"H20431501226019","地図番号":"準-3","縮尺分母":"2400","市区町村コード":"01226","市区町村名":"砂川市","大字コード":"025","丁目コード":"000","小字コード":"0000","予備コード":"00","大字名":"三砂町","丁目名":null,"小字名":null,"予備名":null,"地番":"29-1","精度区分":null,"座標値種別":"図上測量","筆界未定構成筆":null,"代表点緯度":942.5,"代表点経度":-979.94445076}},{"type":"MultiPolygon","arcs":[[[-9,-253,254,255]]],"properties":{"筆ID":"H000000071","version":"ver1.0","座標系":"任意座標系","測地系判別":null,"地図名":"H20431501226019","地図番号":"準-3","縮尺分母":"2400","市区町村コード":"01226","市区町村名":"砂川市","大字コード":"025","丁目コード":"000","小字コード":"0000","予備コード":"00","大字名":"三砂町","丁目名":null,"小字名":null,"予備名":null,"地番":"29-2","精度区分":null,"座標値種別":"図上測量","筆界未定構成筆":null,"代表点緯度":955.837,"代表点経度":-932.646738763}},{"type":"MultiPolygon","arcs":[[[-227,-238,-2,256,-255]]],"properties":{"筆ID":"H000000072","version":"ver1.0","座標系":"任意座標系","測地系判別":null,"地図名":"H20431501226019","地図番号":"準-3","縮尺分母":"2400","市区町村コード":"01226","市区町村名":"砂川市","大字コード":"025","丁目コード":"000","小字コード":"0000","予備コード":"00","大字名":"三砂町","丁目名":null,"小字名":null,"予備名":null,"地番":"26-2","精度区分":null,"座標値種別":"図上測量","筆界未定構成筆":null,"代表点緯度":990.326,"代表点経度":-925.135794188}},{"type":"MultiPolygon","arcs":[[[-254,-8,257,258]]],"properties":{"筆ID":"H000000073","version":"ver1.0","座標系":"任意座標系","測地系判別":null,"地図名":"H20431501226019","地図番号":"準-3","縮尺分母":"2400","市区町村コード":"01226","市区町村名":"砂川市","大字コード":"025","丁目コード":"000","小字コード":"0000","予備コード":"00","大字名":"三砂町","丁目名":null,"小字名":null,"予備名":null,"地番":"30-2","精度区分":null,"座標値種別":"図上測量","筆界未定構成筆":null,"代表点緯度":943.9245,"代表点経度":-949.823694603}},{"type":"MultiPolygon","arcs":[[[-252,-259,259,-248]]],"properties":{"筆ID":"H000000074","version":"ver1.0","座標系":"任意座標系","測地系判別":null,"地図名":"H20431501226019","地図番号":"準-3","縮尺分母":"2400","市区町村コード":"01226","市区町村名":"砂川市","大字コード":"025","丁目コード":"000","小字コード":"0000","予備コード":"00","大字名":"三砂町","丁目名":null,"小字名":null,"予備名":null,"地番":"30-1","精度区分":null,"座標値種別":"図上測量","筆界未定構成筆":null,"代表点緯度":930.908,"代表点経度":-952.991310049}},{"type":"MultiPolygon","arcs":[[[-260,260,261,-250]]],"properties":{"筆ID":"H000000075","version":"ver1.0","座標系":"任意座標系","測地系判別":null,"地図名":"H20431501226019","地図番号":"準-3","縮尺分母":"2400","市区町村コード":"01226","市区町村名":"砂川市","大字コード":"025","丁目コード":"000","小字コード":"0000","予備コード":"00","大字名":"三砂町","丁目名":null,"小字名":null,"予備名":null,"地番":"30-3","精度区分":null,"座標値種別":"図上測量","筆界未定構成筆":null,"代表点緯度":927.687,"代表点経度":-938.777432185}},{"type":"MultiPolygon","arcs":[[[-258,-11,262,-261]]],"properties":{"筆ID":"H000000076","version":"ver1.0","座標系":"任意座標系","測地系判別":null,"地図名":"H20431501226019","地図番号":"準-3","縮尺分母":"2400","市区町村コード":"01226","市区町村名":"砂川市","大字コード":"025","丁目コード":"000","小字コード":"0000","予備コード":"00","大字名":"三砂町","丁目名":null,"小字名":null,"予備名":null,"地番":"31-2","精度区分":null,"座標値種別":"図上測量","筆界未定構成筆":null,"代表点緯度":941.024,"代表点経度":-935.872706738}},{"type":"MultiPolygon","arcs":[[[-60,-57,-45,-50,263,264]]],"properties":{"筆ID":"H000000077","version":"ver1.0","座標系":"任意座標系","測地系判別":null,"地図名":"H20431501226019","地図番号":"準-3","縮尺分母":"2400","市区町村コード":"01226","市区町村名":"砂川市","大字コード":"025","丁目コード":"000","小字コード":"0000","予備コード":"00","大字名":"三砂町","丁目名":null,"小字名":null,"予備名":null,"地番":"10","精度区分":null,"座標値種別":"図上測量","筆界未定構成筆":null,"代表点緯度":946.6485,"代表点経度":-1141.442955686}},{"type":"MultiPolygon","arcs":[[[265,-264,-49,-220,-246]]],"properties":{"筆ID":"H000000078","version":"ver1.0","座標系":"任意座標系","測地系判別":null,"地図名":"H20431501226019","地図番号":"準-3","縮尺分母":"2400","市区町村コード":"01226","市区町村名":"砂川市","大字コード":"025","丁目コード":"000","小字コード":"0000","予備コード":"00","大字名":"三砂町","丁目名":null,"小字名":null,"予備名":null,"地番":"55-7","精度区分":null,"座標値種別":"図上測量","筆界未定構成筆":null,"代表点緯度":935.067,"代表点経度":-1073.355099113}},{"type":"MultiPolygon","arcs":[[[-62,-195,266]]],"properties":{"筆ID":"H000000079","version":"ver1.0","座標系":"任意座標系","測地系判別":null,"地図名":"H20431501226019","地図番号":"準-3","縮尺分母":"2400","市区町村コード":"01226","市区町村名":"砂川市","大字コード":"025","丁目コード":"000","小字コード":"0000","予備コード":"00","大字名":"三砂町","丁目名":null,"小字名":null,"予備名":null,"地番":"9-2","精度区分":null,"座標値種別":"図上測量","筆界未定構成筆":null,"代表点緯度":887.8195,"代表点経度":-1117.744725582}},{"type":"MultiPolygon","arcs":[[[-189,-53,-188]]],"properties":{"筆ID":"H000000080","version":"ver1.0","座標系":"任意座標系","測地系判別":null,"地図名":"H20431501226019","地図番号":"準-3","縮尺分母":"2400","市区町村コード":"01226","市区町村名":"砂川市","大字コード":"025","丁目コード":"000","小字コード":"0000","予備コード":"00","大字名":"三砂町","丁目名":null,"小字名":null,"予備名":null,"地番":"11-1","精度区分":null,"座標値種別":"図上測量","筆界未定構成筆":null,"代表点緯度":999.4555,"代表点経度":-1066.512000529}},{"type":"MultiPolygon","arcs":[[[267,268,269,-72,-213]]],"properties":{"筆ID":"H000000081","version":"ver1.0","座標系":"任意座標系","測地系判別":null,"地図名":"H20431501226019","地図番号":"準-3","縮尺分母":"2400","市区町村コード":"01226","市区町村名":"砂川市","大字コード":"025","丁目コード":"000","小字コード":"0000","予備コード":"00","大字名":"三砂町","丁目名":null,"小字名":null,"予備名":null,"地番":"19-2","精度区分":null,"座標値種別":"図上測量","筆界未定構成筆":null,"代表点緯度":1181.5055,"代表点経度":-1015.771669006}},{"type":"MultiPolygon","arcs":[[[-186]]],"properties":{"筆ID":"H000000082","version":"ver1.0","座標系":"任意座標系","測地系判別":null,"地図名":"H20431501226019","地図番号":"準-3","縮尺分母":"2400","市区町村コード":"01226","市区町村名":"砂川市","大字コード":"025","丁目コード":"000","小字コード":"0000","予備コード":"00","大字名":"三砂町","丁目名":null,"小字名":null,"予備名":null,"地番":"13","精度区分":null,"座標値種別":"図上測量","筆界未定構成筆":null,"代表点緯度":1065.8645,"代表点経度":-1064.495588133}},{"type":"MultiPolygon","arcs":[[[270,-161,-166,271,272,273,274,275,276,277,278,279,280]]],"properties":{"筆ID":"H000000083","version":"ver1.0","座標系":"任意座標系","測地系判別":null,"地図名":"H20431501226019","地図番号":"準-3","縮尺分母":"2400","市区町村コード":"01226","市区町村名":"砂川市","大字コード":"025","丁目コード":"000","小字コード":"0000","予備コード":"00","大字名":"三砂町","丁目名":null,"小字名":null,"予備名":null,"地番":"54-3","精度区分":null,"座標値種別":"図上測量","筆界未定構成筆":null,"代表点緯度":1178.49,"代表点経度":-1128.670758219}},{"type":"MultiPolygon","arcs":[[[281,-173,282,-171,283]]],"properties":{"筆ID":"H000000084","version":"ver1.0","座標系":"任意座標系","測地系判別":null,"地図名":"H20431501226019","地図番号":"準-3","縮尺分母":"2400","市区町村コード":"01226","市区町村名":"砂川市","大字コード":"025","丁目コード":"000","小字コード":"0000","予備コード":"00","大字名":"三砂町","丁目名":null,"小字名":null,"予備名":null,"地番":"12-3","精度区分":null,"座標値種別":"図上測量","筆界未定構成筆":null,"代表点緯度":1074.7935,"代表点経度":-1137.463457678}},{"type":"MultiPolygon","arcs":[[[-39,-158,-283,-172]]],"properties":{"筆ID":"H000000085","version":"ver1.0","座標系":"任意座標系","測地系判別":null,"地図名":"H20431501226019","地図番号":"準-3","縮尺分母":"2400","市区町村コード":"01226","市区町村名":"砂川市","大字コード":"025","丁目コード":"000","小字コード":"0000","予備コード":"00","大字名":"三砂町","丁目名":null,"小字名":null,"予備名":null,"地番":"55-4","精度区分":null,"座標値種別":"図上測量","筆界未定構成筆":null,"代表点緯度":1079.0375,"代表点経度":-1162.776151018}},{"type":"MultiPolygon","arcs":[[[284,-240,-6]]],"properties":{"筆ID":"H000000086","version":"ver1.0","座標系":"任意座標系","測地系判別":null,"地図名":"H20431501226019","地図番号":"準-3","縮尺分母":"2400","市区町村コード":"01226","市区町村名":"砂川市","大字コード":"025","丁目コード":"000","小字コード":"0000","予備コード":"00","大字名":"三砂町","丁目名":null,"小字名":null,"予備名":null,"地番":"24","精度区分":null,"座標値種別":"図上測量","筆界未定構成筆":null,"代表点緯度":1019.843,"代表点経度":-1018.043447493}},{"type":"MultiPolygon","arcs":[[[-5,285,286,287,-241,-285]]],"properties":{"筆ID":"H000000087","version":"ver1.0","座標系":"任意座標系","測地系判別":null,"地図名":"H20431501226019","地図番号":"準-3","縮尺分母":"2400","市区町村コード":"01226","市区町村名":"砂川市","大字コード":"025","丁目コード":"000","小字コード":"0000","予備コード":"00","大字名":"三砂町","丁目名":null,"小字名":null,"予備名":null,"地番":"21-3","精度区分":null,"座標値種別":"図上測量","筆界未定構成筆":null,"代表点緯度":1062.8195,"代表点経度":-998.034879952}},{"type":"MultiPolygon","arcs":[[[-288,288,-156,289,-236,-242]]],"properties":{"筆ID":"H000000088","version":"ver1.0","座標系":"任意座標系","測地系判別":null,"地図名":"H20431501226019","地図番号":"準-3","縮尺分母":"2400","市区町村コード":"01226","市区町村名":"砂川市","大字コード":"025","丁目コード":"000","小字コード":"0000","予備コード":"00","大字名":"三砂町","丁目名":null,"小字名":null,"予備名":null,"地番":"21-5","精度区分":null,"座標値種別":"図上測量","筆界未定構成筆":null,"代表点緯度":1099.0595,"代表点経度":-940.156706177}},{"type":"MultiPolygon","arcs":[[[-287,290,-152,-289]]],"properties":{"筆ID":"H000000089","version":"ver1.0","座標系":"任意座標系","測地系判別":null,"地図名":"H20431501226019","地図番号":"準-3","縮尺分母":"2400","市区町村コード":"01226","市区町村名":"砂川市","大字コード":"025","丁目コード":"000","小字コード":"0000","予備コード":"00","大字名":"三砂町","丁目名":null,"小字名":null,"予備名":null,"地番":"21-4","精度区分":null,"座標値種別":"図上測量","筆界未定構成筆":null,"代表点緯度":1100.465,"代表点経度":-1001.931477024}},{"type":"MultiPolygon","arcs":[[[291,-150,-154]]],"properties":{"筆ID":"H000000090","version":"ver1.0","座標系":"任意座標系","測地系判別":null,"地図名":"H20431501226019","地図番号":"準-3","縮尺分母":"2400","市区町村コード":"01226","市区町村名":"砂川市","大字コード":"025","丁目コード":"000","小字コード":"0000","予備コード":"00","大字名":"三砂町","丁目名":null,"小字名":null,"予備名":null,"地番":"21-1","精度区分":null,"座標値種別":"図上測量","筆界未定構成筆":null,"代表点緯度":1183.47,"代表点経度":-979.94799873}},{"type":"MultiPolygon","arcs":[[[292,293,294,295,-268,-212,296]]],"properties":{"筆ID":"H000000091","version":"ver1.0","座標系":"任意座標系","測地系判別":null,"地図名":"H20431501226019","地図番号":"準-3","縮尺分母":"2400","市区町村コード":"01226","市区町村名":"砂川市","大字コード":"025","丁目コード":"000","小字コード":"0000","予備コード":"00","大字名":"三砂町","丁目名":null,"小字名":null,"予備名":null,"地番":"18-3","精度区分":null,"座標値種別":"図上測量","筆界未定構成筆":null,"代表点緯度":1124.2805,"代表点経度":-1028.084983024}},{"type":"MultiPolygon","arcs":[[[297,-278,298,299]]],"properties":{"筆ID":"H000000092","version":"ver1.0","座標系":"任意座標系","測地系判別":null,"地図名":"H20431501226019","地図番号":"準-3","縮尺分母":"2400","市区町村コード":"01226","市区町村名":"砂川市","大字コード":"025","丁目コード":"000","小字コード":"0000","予備コード":"00","大字名":"三砂町","丁目名":null,"小字名":null,"予備名":null,"地番":"18-8","精度区分":null,"座標値種別":"図上測量","筆界未定構成筆":null,"代表点緯度":1176.41,"代表点経度":-1114.873894736}},{"type":"MultiPolygon","arcs":[[[300,301,302,303]]],"properties":{"筆ID":"H000000093","version":"ver1.0","座標系":"任意座標系","測地系判別":null,"地図名":"H20431501226019","地図番号":"準-3","縮尺分母":"2400","市区町村コード":"01226","市区町村名":"砂川市","大字コード":"025","丁目コード":"000","小字コード":"0000","予備コード":"00","大字名":"三砂町","丁目名":null,"小字名":null,"予備名":null,"地番":"18-5","精度区分":null,"座標値種別":"図上測量","筆界未定構成筆":null,"代表点緯度":1151.013,"代表点経度":-1037.226467096}},{"type":"MultiPolygon","arcs":[[[-303,304,-295,305]]],"properties":{"筆ID":"H000000094","version":"ver1.0","座標系":"任意座標系","測地系判別":null,"地図名":"H20431501226019","地図番号":"準-3","縮尺分母":"2400","市区町村コード":"01226","市区町村名":"砂川市","大字コード":"025","丁目コード":"000","小字コード":"0000","予備コード":"00","大字名":"三砂町","丁目名":null,"小字名":null,"予備名":null,"地番":"18-11","精度区分":null,"座標値種別":"図上測量","筆界未定構成筆":null,"代表点緯度":1149.805,"代表点経度":-1027.41761147}},{"type":"MultiPolygon","arcs":[[[306,307,-279,-298]]],"properties":{"筆ID":"H000000095","version":"ver1.0","座標系":"任意座標系","測地系判別":null,"地図名":"H20431501226019","地図番号":"準-3","縮尺分母":"2400","市区町村コード":"01226","市区町村名":"砂川市","大字コード":"025","丁目コード":"000","小字コード":"0000","予備コード":"00","大字名":"三砂町","丁目名":null,"小字名":null,"予備名":null,"地番":"18-13","精度区分":null,"座標値種別":"図上測量","筆界未定構成筆":null,"代表点緯度":1159.6115,"代表点経度":-1118.426900741}},{"type":"MultiPolygon","arcs":[[[308,309,-307,-300,310]]],"properties":{"筆ID":"H000000096","version":"ver1.0","座標系":"任意座標系","測地系判別":null,"地図名":"H20431501226019","地図番号":"準-3","縮尺分母":"2400","市区町村コード":"01226","市区町村名":"砂川市","大字コード":"025","丁目コード":"000","小字コード":"0000","予備コード":"00","大字名":"三砂町","丁目名":null,"小字名":null,"予備名":null,"地番":"18-7","精度区分":null,"座標値種別":"図上測量","筆界未定構成筆":null,"代表点緯度":1157.5195,"代表点経度":-1098.913185619}},{"type":"MultiPolygon","arcs":[[[-301,311,312,313]]],"properties":{"筆ID":"H000000097","version":"ver1.0","座標系":"任意座標系","測地系判別":null,"地図名":"H20431501226019","地図番号":"準-3","縮尺分母":"2400","市区町村コード":"01226","市区町村名":"砂川市","大字コード":"025","丁目コード":"000","小字コード":"0000","予備コード":"00","大字名":"三砂町","丁目名":null,"小字名":null,"予備名":null,"地番":"18-6","精度区分":null,"座標値種別":"図上測量","筆界未定構成筆":null,"代表点緯度":1154.853,"代表点経度":-1054.714547277}},{"type":"MultiPolygon","arcs":[[[314,315,-293,316]]],"properties":{"筆ID":"H000000098","version":"ver1.0","座標系":"任意座標系","測地系判別":null,"地図名":"H20431501226019","地図番号":"準-3","縮尺分母":"2400","市区町村コード":"01226","市区町村名":"砂川市","大字コード":"025","丁目コード":"000","小字コード":"0000","予備コード":"00","大字名":"三砂町","丁目名":null,"小字名":null,"予備名":null,"地番":"18-1","精度区分":null,"座標値種別":"図上測量","筆界未定構成筆":null,"代表点緯度":1107.812,"代表点経度":-1045.167718683}},{"type":"MultiPolygon","arcs":[[[-168,-162,-271,317,318]]],"properties":{"筆ID":"H000000099","version":"ver1.0","座標系":"任意座標系","測地系判別":null,"地図名":"H20431501226019","地図番号":"準-3","縮尺分母":"2400","市区町村コード":"01226","市区町村名":"砂川市","大字コード":"025","丁目コード":"000","小字コード":"0000","予備コード":"00","大字名":"三砂町","丁目名":null,"小字名":null,"予備名":null,"地番":"54-7","精度区分":null,"座標値種別":"図上測量","筆界未定構成筆":null,"代表点緯度":1137.343,"代表点経度":-1137.599155015}},{"type":"MultiPolygon","arcs":[[[319,-273]]],"properties":{"筆ID":"H000000100","version":"ver1.0","座標系":"任意座標系","測地系判別":null,"地図名":"H20431501226019","地図番号":"準-3","縮尺分母":"2400","市区町村コード":"01226","市区町村名":"砂川市","大字コード":"025","丁目コード":"000","小字コード":"0000","予備コード":"00","大字名":"三砂町","丁目名":null,"小字名":null,"予備名":null,"地番":"54-1","精度区分":null,"座標値種別":"図上測量","筆界未定構成筆":null,"代表点緯度":1185.0595,"代表点経度":-1144.766230197}},{"type":"MultiPolygon","arcs":[[[-165,-33,-77,320,-274,-320,-272]]],"properties":{"筆ID":"H000000101","version":"ver1.0","座標系":"任意座標系","測地系判別":null,"地図名":"H20431501226019","地図番号":"準-3","縮尺分母":"2400","市区町村コード":"01226","市区町村名":"砂川市","大字コード":"025","丁目コード":"000","小字コード":"0000","予備コード":"00","大字名":"三砂町","丁目名":null,"小字名":null,"予備名":null,"地番":"54-5","精度区分":null,"座標値種別":"図上測量","筆界未定構成筆":null,"代表点緯度":1192.263,"代表点経度":-1165.279304503}},{"type":"MultiPolygon","arcs":[[[321,-35,-164]]],"properties":{"筆ID":"H000000102","version":"ver1.0","座標系":"任意座標系","測地系判別":null,"地図名":"H20431501226019","地図番号":"準-3","縮尺分母":"2400","市区町村コード":"01226","市区町村名":"砂川市","大字コード":"025","丁目コード":"000","小字コード":"0000","予備コード":"00","大字名":"三砂町","丁目名":null,"小字名":null,"予備名":null,"地番":"54-11","精度区分":null,"座標値種別":"図上測量","筆界未定構成筆":null,"代表点緯度":1148.093,"代表点経度":-1186.96388777}},{"type":"MultiPolygon","arcs":[[[322,-36,-322]]],"properties":{"筆ID":"H000000103","version":"ver1.0","座標系":"任意座標系","測地系判別":null,"地図名":"H20431501226019","地図番号":"準-3","縮尺分母":"2400","市区町村コード":"01226","市区町村名":"砂川市","大字コード":"025","丁目コード":"000","小字コード":"0000","予備コード":"00","大字名":"三砂町","丁目名":null,"小字名":null,"予備名":null,"地番":"54-9","精度区分":null,"座標値種別":"図上測量","筆界未定構成筆":null,"代表点緯度":1141.658,"代表点経度":-1185.698162864}},{"type":"MultiPolygon","arcs":[[[323,324,325,-297,-211]]],"properties":{"筆ID":"H000000104","version":"ver1.0","座標系":"任意座標系","測地系判別":null,"地図名":"H20431501226019","地図番号":"準-3","縮尺分母":"2400","市区町村コード":"01226","市区町村名":"砂川市","大字コード":"025","丁目コード":"000","小字コード":"0000","予備コード":"00","大字名":"三砂町","丁目名":null,"小字名":null,"予備名":null,"地番":"16-3","精度区分":null,"座標値種別":"図上測量","筆界未定構成筆":null,"代表点緯度":1088.102,"代表点経度":-1035.869271982}},{"type":"MultiPolygon","arcs":[[[-180,326,327,328,329]]],"properties":{"筆ID":"H000000105","version":"ver1.0","座標系":"任意座標系","測地系判別":null,"地図名":"H20431501226019","地図番号":"準-3","縮尺分母":"2400","市区町村コード":"01226","市区町村名":"砂川市","大字コード":"025","丁目コード":"000","小字コード":"0000","予備コード":"00","大字名":"三砂町","丁目名":null,"小字名":null,"予備名":null,"地番":"12-8","精度区分":null,"座標値種別":"図上測量","筆界未定構成筆":null,"代表点緯度":1105.7695,"代表点経度":-1121.221503789}},{"type":"MultiPolygon","arcs":[[[-284,-170,330,331,-327,-179,332]]],"properties":{"筆ID":"H000000106","version":"ver1.0","座標系":"任意座標系","測地系判別":null,"地図名":"H20431501226019","地図番号":"準-3","縮尺分母":"2400","市区町村コード":"01226","市区町村名":"砂川市","大字コード":"025","丁目コード":"000","小字コード":"0000","予備コード":"00","大字名":"三砂町","丁目名":null,"小字名":null,"予備名":null,"地番":"12-2","精度区分":null,"座標値種別":"図上測量","筆界未定構成筆":null,"代表点緯度":1104.35,"代表点経度":-1132.859163471}},{"type":"MultiPolygon","arcs":[[[333,-318,334,335]]],"properties":{"筆ID":"H000000107","version":"ver1.0","座標系":"任意座標系","測地系判別":null,"地図名":"H20431501226019","地図番号":"準-3","縮尺分母":"2400","市区町村コード":"01226","市区町村名":"砂川市","大字コード":"025","丁目コード":"000","小字コード":"0000","予備コード":"00","大字名":"三砂町","丁目名":null,"小字名":null,"予備名":null,"地番":"18-9","精度区分":null,"座標値種別":"図上測量","筆界未定構成筆":null,"代表点緯度":1135.6255,"代表点経度":-1127.181550564}},{"type":"MultiPolygon","arcs":[[[-331,-169,-319,-334,336]]],"properties":{"筆ID":"H000000108","version":"ver1.0","座標系":"任意座標系","測地系判別":null,"地図名":"H20431501226019","地図番号":"準-3","縮尺分母":"2400","市区町村コード":"01226","市区町村名":"砂川市","大字コード":"025","丁目コード":"000","小字コード":"0000","予備コード":"00","大字名":"三砂町","丁目名":null,"小字名":null,"予備名":null,"地番":"17","精度区分":null,"座標値種別":"図上測量","筆界未定構成筆":null,"代表点緯度":1125.9735,"代表点経度":-1129.077559368}},{"type":"MultiPolygon","arcs":[[[-174,-282,-333,-178,337,-176]]],"properties":{"筆ID":"H000000109","version":"ver1.0","座標系":"任意座標系","測地系判別":null,"地図名":"H20431501226019","地図番号":"準-3","縮尺分母":"2400","市区町村コード":"01226","市区町村名":"砂川市","大字コード":"025","丁目コード":"000","小字コード":"0000","予備コード":"00","大字名":"三砂町","丁目名":null,"小字名":null,"予備名":null,"地番":"12-4","精度区分":null,"座標値種別":"図上測量","筆界未定構成筆":null,"代表点緯度":1073.5915,"代表点経度":-1127.673818939}},{"type":"MultiPolygon","arcs":[[[338,-177]]],"properties":{"筆ID":"H000000110","version":"ver1.0","座標系":"任意座標系","測地系判別":null,"地図名":"H20431501226019","地図番号":"準-3","縮尺分母":"2400","市区町村コード":"01226","市区町村名":"砂川市","大字コード":"025","丁目コード":"000","小字コード":"0000","予備コード":"00","大字名":"三砂町","丁目名":null,"小字名":null,"予備名":null,"地番":"14-1","精度区分":null,"座標値種別":"図上測量","筆界未定構成筆":null,"代表点緯度":1078.7335,"代表点経度":-1114.902580194}},{"type":"MultiPolygon","arcs":[[[-338,-339]]],"properties":{"筆ID":"H000000111","version":"ver1.0","座標系":"任意座標系","測地系判別":null,"地図名":"H20431501226019","地図番号":"準-3","縮尺分母":"2400","市区町村コード":"01226","市区町村名":"砂川市","大字コード":"025","丁目コード":"000","小字コード":"0000","予備コード":"00","大字名":"三砂町","丁目名":null,"小字名":null,"予備名":null,"地番":"14-2","精度区分":null,"座標値種別":"図上測量","筆界未定構成筆":null,"代表点緯度":1080.288,"代表点経度":-1121.834150828}},{"type":"MultiPolygon","arcs":[[[339,-183,340,341,342,343]]],"properties":{"筆ID":"H000000112","version":"ver1.0","座標系":"任意座標系","測地系判別":null,"地図名":"H20431501226019","地図番号":"準-3","縮尺分母":"2400","市区町村コード":"01226","市区町村名":"砂川市","大字コード":"025","丁目コード":"000","小字コード":"0000","予備コード":"00","大字名":"三砂町","丁目名":null,"小字名":null,"予備名":null,"地番":"16-6","精度区分":null,"座標値種別":"図上測量","筆界未定構成筆":null,"代表点緯度":1093.139,"代表点経度":-1071.420258417}},{"type":"MultiPolygon","arcs":[[[-184,-340,344,-325]]],"properties":{"筆ID":"H000000113","version":"ver1.0","座標系":"任意座標系","測地系判別":null,"地図名":"H20431501226019","地図番号":"準-3","縮尺分母":"2400","市区町村コード":"01226","市区町村名":"砂川市","大字コード":"025","丁目コード":"000","小字コード":"0000","予備コード":"00","大字名":"三砂町","丁目名":null,"小字名":null,"予備名":null,"地番":"16-1","精度区分":null,"座標値種別":"図上測量","筆界未定構成筆":null,"代表点緯度":1079.59,"代表点経度":-1051.233102583}},{"type":"MultiPolygon","arcs":[[[-344,-317,-326,-345]]],"properties":{"筆ID":"H000000114","version":"ver1.0","座標系":"任意座標系","測地系判別":null,"地図名":"H20431501226019","地図番号":"準-3","縮尺分母":"2400","市区町村コード":"01226","市区町村名":"砂川市","大字コード":"025","丁目コード":"000","小字コード":"0000","予備コード":"00","大字名":"三砂町","丁目名":null,"小字名":null,"予備名":null,"地番":"16-4","精度区分":null,"座標値種別":"図上測量","筆界未定構成筆":null,"代表点緯度":1091.047,"代表点経度":-1048.770458481}},{"type":"MultiPolygon","arcs":[[[345,-342,346,347,348]]],"properties":{"筆ID":"H000000115","version":"ver1.0","座標系":"任意座標系","測地系判別":null,"地図名":"H20431501226019","地図番号":"準-3","縮尺分母":"2400","市区町村コード":"01226","市区町村名":"砂川市","大字コード":"025","丁目コード":"000","小字コード":"0000","予備コード":"00","大字名":"三砂町","丁目名":null,"小字名":null,"予備名":null,"地番":"18-18","精度区分":null,"座標値種別":"図上測量","筆界未定構成筆":null,"代表点緯度":1115.9545,"代表点経度":-1078.853680433}},{"type":"MultiPolygon","arcs":[[[-315,-343,-346,349]]],"properties":{"筆ID":"H000000116","version":"ver1.0","座標系":"任意座標系","測地系判別":null,"地図名":"H20431501226019","地図番号":"準-3","縮尺分母":"2400","市区町村コード":"01226","市区町村名":"砂川市","大字コード":"025","丁目コード":"000","小字コード":"0000","予備コード":"00","大字名":"三砂町","丁目名":null,"小字名":null,"予備名":null,"地番":"18-17","精度区分":null,"座標値種別":"図上測量","筆界未定構成筆":null,"代表点緯度":1112.3835,"代表点経度":-1062.10131972}},{"type":"MultiPolygon","arcs":[[[-341,-182,350,351,-347]]],"properties":{"筆ID":"H000000117","version":"ver1.0","座標系":"任意座標系","測地系判別":null,"地図名":"H20431501226019","地図番号":"準-3","縮尺分母":"2400","市区町村コード":"01226","市区町村名":"砂川市","大字コード":"025","丁目コード":"000","小字コード":"0000","予備コード":"00","大字名":"三砂町","丁目名":null,"小字名":null,"予備名":null,"地番":"12-5","精度区分":null,"座標値種別":"図上測量","筆界未定構成筆":null,"代表点緯度":1099.865,"代表点経度":-1087.597365877}},{"type":"MultiPolygon","arcs":[[[-352,352,353]]],"properties":{"筆ID":"H000000118","version":"ver1.0","座標系":"任意座標系","測地系判別":null,"地図名":"H20431501226019","地図番号":"準-3","縮尺分母":"2400","市区町村コード":"01226","市区町村名":"砂川市","大字コード":"025","丁目コード":"000","小字コード":"0000","予備コード":"00","大字名":"三砂町","丁目名":null,"小字名":null,"予備名":null,"地番":"15-2","精度区分":null,"座標値種別":"図上測量","筆界未定構成筆":null,"代表点緯度":1100.8175,"代表点経度":-1094.191093389}},{"type":"MultiPolygon","arcs":[[[-351,-181,-330,354]]],"properties":{"筆ID":"H000000119","version":"ver1.0","座標系":"任意座標系","測地系判別":null,"地図名":"H20431501226019","地図番号":"準-3","縮尺分母":"2400","市区町村コード":"01226","市区町村名":"砂川市","大字コード":"025","丁目コード":"000","小字コード":"0000","予備コード":"00","大字名":"三砂町","丁目名":null,"小字名":null,"予備名":null,"地番":"12-6","精度区分":null,"座標値種別":"図上測量","筆界未定構成筆":null,"代表点緯度":1091.5685,"代表点経度":-1105.623903139}},{"type":"MultiPolygon","arcs":[[[-348,-354,355,356,357]]],"properties":{"筆ID":"H000000120","version":"ver1.0","座標系":"任意座標系","測地系判別":null,"地図名":"H20431501226019","地図番号":"準-3","縮尺分母":"2400","市区町村コード":"01226","市区町村名":"砂川市","大字コード":"025","丁目コード":"000","小字コード":"0000","予備コード":"00","大字名":"三砂町","丁目名":null,"小字名":null,"予備名":null,"地番":"18-15","精度区分":null,"座標値種別":"図上測量","筆界未定構成筆":null,"代表点緯度":1118.6,"代表点経度":-1091.128730494}},{"type":"MultiPolygon","arcs":[[[-323,-163,-167,-37]]],"properties":{"筆ID":"H000000121","version":"ver1.0","座標系":"任意座標系","測地系判別":null,"地図名":"H20431501226019","地図番号":"準-3","縮尺分母":"2400","市区町村コード":"01226","市区町村名":"砂川市","大字コード":"025","丁目コード":"000","小字コード":"0000","予備コード":"00","大字名":"三砂町","丁目名":null,"小字名":null,"予備名":null,"地番":"54-8","精度区分":null,"座標値種別":"図上測量","筆界未定構成筆":null,"代表点緯度":1128.707,"代表点経度":-1173.860566525}},{"type":"MultiPolygon","arcs":[[[-94]]],"properties":{"筆ID":"H000000122","version":"ver1.0","座標系":"任意座標系","測地系判別":null,"地図名":"H20431501226019","地図番号":"準-3","縮尺分母":"2400","市区町村コード":"01226","市区町村名":"砂川市","大字コード":"025","丁目コード":"000","小字コード":"0000","予備コード":"00","大字名":"三砂町","丁目名":null,"小字名":null,"予備名":null,"地番":"48","精度区分":null,"座標値種別":"図上測量","筆界未定構成筆":null,"代表点緯度":1294.4645,"代表点経度":-1040.108347363}},{"type":"MultiPolygon","arcs":[[[-98,358,359]]],"properties":{"筆ID":"H000000123","version":"ver1.0","座標系":"任意座標系","測地系判別":null,"地図名":"H20431501226019","地図番号":"準-3","縮尺分母":"2400","市区町村コード":"01226","市区町村名":"砂川市","大字コード":"025","丁目コード":"000","小字コード":"0000","予備コード":"00","大字名":"三砂町","丁目名":null,"小字名":null,"予備名":null,"地番":"47-5","精度区分":null,"座標値種別":"図上測量","筆界未定構成筆":null,"代表点緯度":1427.555,"代表点経度":-1051.085588371}},{"type":"MultiPolygon","arcs":[[[360,361,-102,-100]]],"properties":{"筆ID":"H000000124","version":"ver1.0","座標系":"任意座標系","測地系判別":null,"地図名":"H20431501226019","地図番号":"準-3","縮尺分母":"2400","市区町村コード":"01226","市区町村名":"砂川市","大字コード":"025","丁目コード":"000","小字コード":"0000","予備コード":"00","大字名":"三砂町","丁目名":null,"小字名":null,"予備名":null,"地番":"47-8","精度区分":null,"座標値種別":"図上測量","筆界未定構成筆":null,"代表点緯度":1417.725,"代表点経度":-1007.523297503}},{"type":"MultiPolygon","arcs":[[[-96,362]]],"properties":{"筆ID":"H000000125","version":"ver1.0","座標系":"任意座標系","測地系判別":null,"地図名":"H20431501226019","地図番号":"準-3","縮尺分母":"2400","市区町村コード":"01226","市区町村名":"砂川市","大字コード":"025","丁目コード":"000","小字コード":"0000","予備コード":"00","大字名":"三砂町","丁目名":null,"小字名":null,"予備名":null,"地番":"47-3","精度区分":null,"座標値種別":"図上測量","筆界未定構成筆":null,"代表点緯度":1434.623,"代表点経度":-1070.795588674}},{"type":"MultiPolygon","arcs":[[[-353,-355,363,364,-356]]],"properties":{"筆ID":"H000000126","version":"ver1.0","座標系":"任意座標系","測地系判別":null,"地図名":"H20431501226019","地図番号":"準-3","縮尺分母":"2400","市区町村コード":"01226","市区町村名":"砂川市","大字コード":"025","丁目コード":"000","小字コード":"0000","予備コード":"00","大字名":"三砂町","丁目名":null,"小字名":null,"予備名":null,"地番":"15-1","精度区分":null,"座標値種別":"図上測量","筆界未定構成筆":null,"代表点緯度":1102.7905,"代表点経度":-1103.256781143}},{"type":"MultiPolygon","arcs":[[[-190,-187,-324,-210]]],"properties":{"筆ID":"H000000127","version":"ver1.0","座標系":"任意座標系","測地系判別":null,"地図名":"H20431501226019","地図番号":"準-3","縮尺分母":"2400","市区町村コード":"01226","市区町村名":"砂川市","大字コード":"025","丁目コード":"000","小字コード":"0000","予備コード":"00","大字名":"三砂町","丁目名":null,"小字名":null,"予備名":null,"地番":"12-7","精度区分":null,"座標値種別":"図上測量","筆界未定構成筆":null,"代表点緯度":1051.096,"代表点経度":-1043.83197969}},{"type":"MultiPolygon","arcs":[[[-276,365,-269,366]]],"properties":{"筆ID":"H000000128","version":"ver1.0","座標系":"任意座標系","測地系判別":null,"地図名":"H20431501226019","地図番号":"準-3","縮尺分母":"2400","市区町村コード":"01226","市区町村名":"砂川市","大字コード":"025","丁目コード":"000","小字コード":"0000","予備コード":"00","大字名":"三砂町","丁目名":null,"小字名":null,"予備名":null,"地番":"19-1","精度区分":null,"座標値種別":"図上測量","筆界未定構成筆":null,"代表点緯度":1193.1725,"代表点経度":-1068.924422891}},{"type":"MultiPolygon","arcs":[[[367,-4,-239,-215]]],"properties":{"筆ID":"H000000129","version":"ver1.0","座標系":"任意座標系","測地系判別":null,"地図名":"H20431501226019","地図番号":"準-3","縮尺分母":"2400","市区町村コード":"01226","市区町村名":"砂川市","大字コード":"025","丁目コード":"000","小字コード":"0000","予備コード":"00","大字名":"三砂町","丁目名":null,"小字名":null,"予備名":null,"地番":"23-2","精度区分":null,"座標値種別":"図上測量","筆界未定構成筆":null,"代表点緯度":1025.6145,"代表点経度":-1039.625005041}},{"type":"MultiPolygon","arcs":[[[-368,-214,-70,-292,-153,-291,-286]]],"properties":{"筆ID":"H000000130","version":"ver1.0","座標系":"任意座標系","測地系判別":null,"地図名":"H20431501226019","地図番号":"準-3","縮尺分母":"2400","市区町村コード":"01226","市区町村名":"砂川市","大字コード":"025","丁目コード":"000","小字コード":"0000","予備コード":"00","大字名":"三砂町","丁目名":null,"小字名":null,"予備名":null,"地番":"21-2","精度区分":null,"座標値種別":"図上測量","筆界未定構成筆":null,"代表点緯度":1110.8445,"代表点経度":-1021.03677933}},{"type":"MultiPolygon","arcs":[[[-196,-265,-266]]],"properties":{"筆ID":"H000000131","version":"ver1.0","座標系":"任意座標系","測地系判別":null,"地図名":"H20431501226019","地図番号":"準-3","縮尺分母":"2400","市区町村コード":"01226","市区町村名":"砂川市","大字コード":"025","丁目コード":"000","小字コード":"0000","予備コード":"00","大字名":"三砂町","丁目名":null,"小字名":null,"予備名":null,"地番":"37","精度区分":null,"座標値種別":"図上測量","筆界未定構成筆":null,"代表点緯度":929.258,"代表点経度":-1077.234040736}},{"type":"MultiPolygon","arcs":[[[368,369,370,371]]],"properties":{"筆ID":"H000000132","version":"ver1.0","座標系":"任意座標系","測地系判別":null,"地図名":"H20431501226019","地図番号":"準-3","縮尺分母":"2400","市区町村コード":"01226","市区町村名":"砂川市","大字コード":"025","丁目コード":"000","小字コード":"0000","予備コード":"00","大字名":"三砂町","丁目名":null,"小字名":null,"予備名":null,"地番":"18-2","精度区分":null,"座標値種別":"図上測量","筆界未定構成筆":null,"代表点緯度":1160.4265,"代表点経度":-1080.208278535}},{"type":"MultiPolygon","arcs":[[[372,-313,373,-370]]],"properties":{"筆ID":"H000000133","version":"ver1.0","座標系":"任意座標系","測地系判別":null,"地図名":"H20431501226019","地図番号":"準-3","縮尺分母":"2400","市区町村コード":"01226","市区町村名":"砂川市","大字コード":"025","丁目コード":"000","小字コード":"0000","予備コード":"00","大字名":"三砂町","丁目名":null,"小字名":null,"予備名":null,"地番":"18-19","精度区分":null,"座標値種別":"図上測量","筆界未定構成筆":null,"代表点緯度":1158.147,"代表点経度":-1069.794326048}},{"type":"MultiPolygon","arcs":[[[-305,-302,-314,-373,-369,374,-311,-299,-277,-367,-296]]],"properties":{"筆ID":"H000000134","version":"ver1.0","座標系":"任意座標系","測地系判別":null,"地図名":"H20431501226019","地図番号":"準-3","縮尺分母":"2400","市区町村コード":"01226","市区町村名":"砂川市","大字コード":"025","丁目コード":"000","小字コード":"0000","予備コード":"00","大字名":"三砂町","丁目名":null,"小字名":null,"予備名":null,"地番":"18-12","精度区分":null,"座標値種別":"図上測量","筆界未定構成筆":null,"代表点緯度":1177.237,"代表点経度":-1068.64446385}},{"type":"MultiPolygon","arcs":[[[375,-280,-308,-310,376,-371,-374,-312,-304]]],"properties":{"筆ID":"H000000135","version":"ver1.0","座標系":"任意座標系","測地系判別":null,"地図名":"H20431501226019","地図番号":"準-3","縮尺分母":"2400","市区町村コード":"01226","市区町村名":"砂川市","大字コード":"025","丁目コード":"000","小字コード":"0000","予備コード":"00","大字名":"三砂町","丁目名":null,"小字名":null,"予備名":null,"地番":"18-4","精度区分":null,"座標値種別":"図上測量","筆界未定構成筆":null,"代表点緯度":1138.042,"代表点経度":-1084.097895404}},{"type":"MultiPolygon","arcs":[[[-377,-309,-375,-372]]],"properties":{"筆ID":"H000000136","version":"ver1.0","座標系":"任意座標系","測地系判別":null,"地図名":"H20431501226019","地図番号":"準-3","縮尺分母":"2400","市区町村コード":"01226","市区町村名":"砂川市","大字コード":"025","丁目コード":"000","小字コード":"0000","予備コード":"00","大字名":"三砂町","丁目名":null,"小字名":null,"予備名":null,"地番":"18-14","精度区分":null,"座標値種別":"図上測量","筆界未定構成筆":null,"代表点緯度":1161.7915,"代表点経度":-1086.386186843}},{"type":"MultiPolygon","arcs":[[[377,378,379,-328,380]]],"properties":{"筆ID":"H000000137","version":"ver1.0","座標系":"任意座標系","測地系判別":null,"地図名":"H20431501226019","地図番号":"準-3","縮尺分母":"2400","市区町村コード":"01226","市区町村名":"砂川市","大字コード":"025","丁目コード":"000","小字コード":"0000","予備コード":"00","大字名":"三砂町","丁目名":null,"小字名":null,"予備名":null,"地番":"18-20","精度区分":null,"座標値種別":"図上測量","筆界未定構成筆":null,"代表点緯度":1123.6035,"代表点経度":-1114.356661798}},{"type":"MultiPolygon","arcs":[[[381,-381,-332,-337,-336]]],"properties":{"筆ID":"H000000138","version":"ver1.0","座標系":"任意座標系","測地系判別":null,"地図名":"H20431501226019","地図番号":"準-3","縮尺分母":"2400","市区町村コード":"01226","市区町村名":"砂川市","大字コード":"025","丁目コード":"000","小字コード":"0000","予備コード":"00","大字名":"三砂町","丁目名":null,"小字名":null,"予備名":null,"地番":"18-21","精度区分":null,"座標値種別":"図上測量","筆界未定構成筆":null,"代表点緯度":1124.644,"代表点経度":-1122.05237565}},{"type":"MultiPolygon","arcs":[[[382,-357,-365,383,-379]]],"properties":{"筆ID":"H000000139","version":"ver1.0","座標系":"任意座標系","測地系判別":null,"地図名":"H20431501226019","地図番号":"準-3","縮尺分母":"2400","市区町村コード":"01226","市区町村名":"砂川市","大字コード":"025","丁目コード":"000","小字コード":"0000","予備コード":"00","大字名":"三砂町","丁目名":null,"小字名":null,"予備名":null,"地番":"18-16","精度区分":null,"座標値種別":"図上測量","筆界未定構成筆":null,"代表点緯度":1120.6755,"代表点経度":-1100.786704745}},{"type":"MultiPolygon","arcs":[[[-294,-316,-350,-349,-358,-383,-378,-382,-335,-281,-376,-306]]],"properties":{"筆ID":"H000000140","version":"ver1.0","座標系":"任意座標系","測地系判別":null,"地図名":"H20431501226019","地図番号":"準-3","縮尺分母":"2400","市区町村コード":"01226","市区町村名":"砂川市","大字コード":"025","丁目コード":"000","小字コード":"0000","予備コード":"00","大字名":"三砂町","丁目名":null,"小字名":null,"予備名":null,"地番":"18-10","精度区分":null,"座標値種別":"図上測量","筆界未定構成筆":null,"代表点緯度":1128.124,"代表点経度":-1077.331033469}},{"type":"MultiPolygon","arcs":[[[-329,-380,-384,-364]]],"properties":{"筆ID":"H000000141","version":"ver1.0","座標系":"任意座標系","測地系判別":null,"地図名":"H20431501226019","地図番号":"準-3","縮尺分母":"2400","市区町村コード":"01226","市区町村名":"砂川市","大字コード":"025","丁目コード":"000","小字コード":"0000","予備コード":"00","大字名":"三砂町","丁目名":null,"小字名":null,"予備名":null,"地番":"15-3","精度区分":null,"座標値種別":"図上測量","筆界未定構成筆":null,"代表点緯度":1105.024,"代表点経度":-1113.70723096}},{"type":"MultiPolygon","arcs":[[[-111,384,385,386,-139,387,-136,-147,-149,-92,-104,388,-117,-106,-133,-134]]],"properties":{"筆ID":"H000000142","version":"ver1.0","座標系":"任意座標系","測地系判別":null,"地図名":"H20431501226019","地図番号":"準-3","縮尺分母":"2400","市区町村コード":"01226","市区町村名":"砂川市","大字コード":"025","丁目コード":"000","小字コード":"0000","予備コード":"00","大字名":"三砂町","丁目名":null,"小字名":null,"予備名":null,"地番":"49-1","精度区分":null,"座標値種別":"図上測量","筆界未定構成筆":null,"代表点緯度":1319.096,"代表点経度":-962.256027572}},{"type":"MultiPolygon","arcs":[[[389,-386]]],"properties":{"筆ID":"H000000143","version":"ver1.0","座標系":"任意座標系","測地系判別":null,"地図名":"H20431501226019","地図番号":"準-3","縮尺分母":"2400","市区町村コード":"01226","市区町村名":"砂川市","大字コード":"025","丁目コード":"000","小字コード":"0000","予備コード":"00","大字名":"三砂町","丁目名":null,"小字名":null,"予備名":null,"地番":"49-4","精度区分":null,"座標値種別":"図上測量","筆界未定構成筆":null,"代表点緯度":1275.4895,"代表点経度":-867.984150432}},{"type":"MultiPolygon","arcs":[[[-99,-360,390,391]]],"properties":{"筆ID":"H000000144","version":"ver1.0","座標系":"任意座標系","測地系判別":null,"地図名":"H20431501226019","地図番号":"準-3","縮尺分母":"2400","市区町村コード":"01226","市区町村名":"砂川市","大字コード":"025","丁目コード":"000","小字コード":"0000","予備コード":"00","大字名":"三砂町","丁目名":null,"小字名":null,"予備名":null,"地番":"47-6","精度区分":null,"座標値種別":"図上測量","筆界未定構成筆":null,"代表点緯度":1413.668,"代表点経度":-1035.229284782}},{"type":"MultiPolygon","arcs":[[[392,-361,-392]]],"properties":{"筆ID":"H000000145","version":"ver1.0","座標系":"任意座標系","測地系判別":null,"地図名":"H20431501226019","地図番号":"準-3","縮尺分母":"2400","市区町村コード":"01226","市区町村名":"砂川市","大字コード":"025","丁目コード":"000","小字コード":"0000","予備コード":"00","大字名":"三砂町","丁目名":null,"小字名":null,"予備名":null,"地番":"47-9","精度区分":null,"座標値種別":"図上測量","筆界未定構成筆":null,"代表点緯度":1420.4745,"代表点経度":-1019.791071106}},{"type":"MultiPolygon","arcs":[[[393,394,-124,-122,-17,395,396]]],"properties":{"筆ID":"H000000146","version":"ver1.0","座標系":"任意座標系","測地系判別":null,"地図名":"H20431501226019","地図番号":"準-3","縮尺分母":"2400","市区町村コード":"01226","市区町村名":"砂川市","大字コード":"025","丁目コード":"000","小字コード":"0000","予備コード":"00","大字名":"三砂町","丁目名":null,"小字名":null,"予備名":null,"地番":"53-4","精度区分":null,"座標値種別":"図上測量","筆界未定構成筆":null,"代表点緯度":1386.605,"代表点経度":-905.91631138}},{"type":"MultiPolygon","arcs":[[[-130,-127,-125,-395,397,398]]],"properties":{"筆ID":"H000000147","version":"ver1.0","座標系":"任意座標系","測地系判別":null,"地図名":"H20431501226019","地図番号":"準-3","縮尺分母":"2400","市区町村コード":"01226","市区町村名":"砂川市","大字コード":"025","丁目コード":"000","小字コード":"0000","予備コード":"00","大字名":"三砂町","丁目名":null,"小字名":null,"予備名":null,"地番":"53-3","精度区分":null,"座標値種別":"図上測量","筆界未定構成筆":null,"代表点緯度":1374.393,"代表点経度":-877.173590461}},{"type":"MultiPolygon","arcs":[[[399,400,-397]]],"properties":{"筆ID":"H000000148","version":"ver1.0","座標系":"任意座標系","測地系判別":null,"地図名":"H20431501226019","地図番号":"準-3","縮尺分母":"2400","市区町村コード":"01226","市区町村名":"砂川市","大字コード":"025","丁目コード":"000","小字コード":"0000","予備コード":"00","大字名":"三砂町","丁目名":null,"小字名":null,"予備名":null,"地番":"53-5","精度区分":null,"座標値種別":"図上測量","筆界未定構成筆":null,"代表点緯度":1398.2185,"代表点経度":-904.225758162}},{"type":"MultiPolygon","arcs":[[[401,-398,-394,-401]]],"properties":{"筆ID":"H000000149","version":"ver1.0","座標系":"任意座標系","測地系判別":null,"地図名":"H20431501226019","地図番号":"準-3","縮尺分母":"2400","市区町村コード":"01226","市区町村名":"砂川市","大字コード":"025","丁目コード":"000","小字コード":"0000","予備コード":"00","大字名":"三砂町","丁目名":null,"小字名":null,"予備名":null,"地番":"53-2","精度区分":null,"座標値種別":"図上測量","筆界未定構成筆":null,"代表点緯度":1396.1285,"代表点経度":-894.539978255}},{"type":"MultiPolygon","arcs":[[[-87,-82,-85,-86,-79,402,-23,-59,-267,-194,-200,-65,-208,-234,-251,-262,-263,-10,-256,-257,-1,-237,-290,-155,-89,-151,-144,-137,-388,-140,-387,-390,-385,-110,-116,-123,-129,-131,-399,-402,-400,-396,-16,-14,-118,-389,-103,-362,-393,-391,-359,-97,-363,-95,-66,403]]],"properties":{"筆ID":"H000000150","version":"ver1.0","座標系":"任意座標系","測地系判別":null,"地図名":"H20431501226019","地図番号":"準-3","縮尺分母":"2400","市区町村コード":"01226","市区町村名":"砂川市","大字コード":"025","丁目コード":"000","小字コード":"0000","予備コード":"00","大字名":"三砂町","丁目名":null,"小字名":null,"予備名":null,"地番":"長狭物不明-1","精度区分":null,"座標値種別":"図上測量","筆界未定構成筆":null,"代表点緯度":1029.3295,"代表点経度":-901.983968106}}]}},"arcs":[[[789396,502733],[-2699,-6394]],[[786697,496339],[-11998,1488]],[[774699,497827],[14697,4906]],[[501938,460158],[29942,70488]],[[531880,530646],[4984,-540]],[[536864,530106],[-28316,-67771]],[[508548,462335],[-6610,-2177]],[[722043,408715],[2864,6713]],[[724907,415428],[28108,1103]],[[753015,416531],[-4460,-10568]],[[748555,405963],[-26512,2752]],[[761422,895738],[-22518,2664]],[[738904,898402],[11154,25172]],[[750058,923574],[22889,-2598]],[[772947,920976],[-11525,-25238]],[[772947,920976],[14422,-1637]],[[787369,919339],[-11213,-25343]],[[776156,893996],[-14734,1742]],[[94194,391164],[12401,27915]],[[106595,419079],[828,1860]],[[107423,420939],[38308,-4182]],[[145731,416757],[-5871,-13432]],[[139860,403325],[-45666,-12161]],[[106595,419079],[-92356,10789]],[[14239,429868],[29264,67386]],[[43503,497254],[92013,-10674]],[[135516,486580],[-28093,-65641]],[[43503,497254],[43871,101030]],[[87374,598284],[23615,-29107],[33220,-35311],[8657,-6745]],[[152866,527121],[-17350,-40541]],[[87374,598284],[26087,61685]],[[113461,659969],[64141,-7227]],[[177602,652742],[1323,-3637]],[[178925,649105],[5251,-14451]],[[184176,634654],[2848,-7842]],[[187024,626812],[4740,-3901]],[[191764,622911],[29931,-24638]],[[221695,598273],[-15493,-37166]],[[206202,561107],[-1979,-4748]],[[204223,556359],[-15763,-37818]],[[188460,518541],[-6029,-14461]],[[182431,504080],[-29565,23041]],[[151598,430717],[-5867,-13960]],[[182431,504080],[-30833,-73363]],[[325129,411657],[-161712,17761]],[[163417,429418],[-11819,1299]],[[182431,504080],[63471,-41836],[84898,-38716],[-5671,-11871]],[[455922,406532],[-3694,-8835]],[[452228,397697],[-52038,5716]],[[400190,403413],[-75061,8244]],[[188460,518541],[127641,-14123],[9682,22006]],[[325783,526424],[77002,-43740]],[[402785,482684],[57710,-32779]],[[460495,449905],[10959,-6225]],[[471454,443680],[-15532,-37148]],[[94194,391164],[-58448,-15566],[-35746,21476],[14239,32794]],[[163417,429418],[-13586,-15050]],[[149831,414368],[-9971,-11043]],[[160365,358775],[-38117,4257],[17612,40293]],[[149831,414368],[266910,-29599]],[[416741,384769],[-33320,-28580]],[[383421,356189],[-30419,-7933],[-17667,484],[-29451,-1025],[-45742,5934],[-47718,4030],[-52059,1096]],[[676165,301168],[1365,3199]],[[677530,304367],[26044,-4981]],[[703574,299386],[-514,-1222],[-26895,3004]],[[293693,766794],[4702,11085]],[[298395,777879],[5791,-4369],[282444,-31688]],[[586630,741822],[-3829,-8894]],[[582801,732928],[-289108,33866]],[[595572,680585],[-17378,1900]],[[578194,682485],[-5457,596]],[[572737,683081],[-10445,1142]],[[562292,684223],[16899,40132]],[[579191,724355],[41031,-4365]],[[620222,719990],[-9283,-3229],[-15367,-36176]],[[113461,659969],[29896,70689],[90157,-9993]],[[233514,720665],[-28981,-66873],[-9641,-2983],[-17290,1933]],[[485708,42418],[-284076,92157],[-130397,54587]],[[71235,189162],[66336,151893],[315102,-35852]],[[452673,305203],[178146,-68171]],[[630819,237032],[37181,-14228]],[[668000,222804],[-54579,-126556]],[[613421,96248],[-182549,20868],[54836,-74698]],[[630819,237032],[19868,45641]],[[650687,282673],[41113,-4678],[-23800,-55191]],[[452673,305203],[198014,-22530]],[[613421,96248],[-36233,-84018]],[[577188,12230],[-91480,30188]],[[864039,679221],[-11438,-26724]],[[852601,652497],[-82542,9021]],[[770059,661518],[5154,1752],[32866,-3653],[5143,1703],[10098,22142],[40719,-4241]],[[656061,903046],[-69431,-161224]],[[586630,741822],[-67782,40961]],[[518848,782783],[8661,19747],[-32630,3779],[-9071,-19723],[33040,-3803]],[[298395,777879],[79689,187914],[49310,-5597]],[[427394,960196],[-6486,-15703],[31921,-3754],[6794,15798]],[[459623,956537],[12336,-1400]],[[471959,955137],[-9431,-21412],[31314,-3817]],[[493842,929908],[-7819,-17836],[57557,-6709],[7735,17833]],[[551315,923196],[42792,-5052]],[[594107,918144],[-3211,-7701],[65165,-7397]],[[594107,918144],[9207,22085]],[[603314,940229],[65555,-7441]],[[668869,932788],[-12808,-29742]],[[790020,847016],[-13166,-30218]],[[776854,816798],[-93895,10335],[13231,30397]],[[696190,857530],[93830,-10514]],[[867035,806873],[13279,30025]],[[880314,836898],[48870,-5476]],[[929184,831422],[-12830,-29978]],[[916354,801444],[-49319,5429]],[[880314,836898],[-35141,3938]],[[845173,840836],[-55153,6180]],[[790020,847016],[4971,11411]],[[794991,858427],[139030,-15707]],[[934021,842720],[-4837,-11298]],[[696190,857530],[29931,68760]],[[726121,926290],[23937,-2716]],[[738904,898402],[-14196,-32034],[55283,-6246]],[[779991,860122],[15000,-1695]],[[787273,876675],[-7282,-16553]],[[776156,893996],[-6775,-15314],[17892,-2007]],[[935469,846106],[-1448,-3386]],[[787273,876675],[39765,-4462]],[[827038,872213],[29903,-3355]],[[856941,868858],[-5405,-13191],[83933,-9561]],[[856941,868858],[23648,-2654]],[[880589,866204],[60576,-6796]],[[941165,859408],[-5696,-13302]],[[880589,866204],[17288,40592]],[[897877,906796],[60625,-6881],[-17337,-40507]],[[845173,840836],[-12680,-30162]],[[832493,810674],[-55639,6124]],[[867035,806873],[-34542,3801]],[[675898,722729],[3672,8666]],[[679570,731395],[190808,-21407],[7941,2595]],[[878319,712583],[-4919,-11492]],[[873400,701091],[-197502,21638]],[[878916,713979],[-18638,1879],[5387,12113],[18417,-1925]],[[884082,726046],[-5166,-12067]],[[579191,724355],[3610,8573]],[[582801,732928],[34497,-3780]],[[617298,729148],[58600,-6419]],[[873400,701091],[-4743,-11083]],[[868657,690008],[-5915,4180],[-242520,25802]],[[679570,731395],[-58526,6566]],[[621044,737961],[5420,12744],[58576,-6408],[-5470,-12902]],[[621044,737961],[-3746,-8813]],[[586630,741822],[34414,-3861]],[[770059,661518],[-174487,19067]],[[868657,690008],[-4618,-10787]],[[635626,600096],[11356,27325],[-65579,7649],[-5930,-1801]],[[575473,633269],[5951,14009]],[[581424,647278],[35574,-4091],[63477,6714],[40569,-5054],[49015,16671]],[[852601,652497],[-20097,-47618]],[[832504,604879],[-48151,5106],[-40960,-5720],[-31916,-13216],[-75851,9047]],[[221695,598273],[55998,-44937]],[[277693,553336],[-71491,7771]],[[285544,619449],[-1529,-3397],[-53236,5906]],[[230779,621958],[1539,4017],[7531,2356],[47212,-5474]],[[287061,622857],[-351,-813]],[[286710,622044],[-1166,-2595]],[[230779,621958],[-37710,4184]],[[193069,626142],[1283,3176],[-5754,4738],[-4422,598]],[[178925,649105],[114068,-12510]],[[292993,636595],[-5932,-13738]],[[221695,598273],[9084,23685]],[[285544,619449],[18512,-2263]],[[304056,617186],[-7605,-18420]],[[296451,598766],[-16087,-38964]],[[280364,559802],[-2671,-6466]],[[204223,556359],[84946,-9445]],[[289169,546914],[14206,-7950]],[[303375,538964],[9143,-5115]],[[312518,533849],[13265,-7425]],[[312518,533849],[16589,-1735],[6506,15619]],[[335613,547733],[11698,-1342],[6307,14894],[-11800,1351]],[[341818,562636],[607,1454],[-27460,3279]],[[314965,567369],[1305,3200]],[[316270,570569],[31666,-3548]],[[347936,567021],[30698,-3441]],[[378634,563580],[28108,-3149]],[[406742,560431],[53365,-5979]],[[460107,554452],[42208,-4731]],[[502315,549721],[-19568,-3521]],[[482747,546200],[-50104,5473],[-7675,-17494],[50033,-5840],[7746,17861]],[[502315,549721],[-21107,-50380]],[[481208,499341],[-67210,7879],[-11213,-24536]],[[460495,449905],[20713,49436]],[[481208,499341],[13777,-1616]],[[494985,497725],[-20184,-46501]],[[474801,451224],[-3347,-7544]],[[444140,378351],[-20481,-48982]],[[423659,329369],[-63268,7066]],[[360391,336435],[23030,19754]],[[416741,384769],[28749,-3188]],[[445490,381581],[-1350,-3230]],[[444140,378351],[24686,-11047]],[[468826,367304],[23980,-10730],[7746,4353],[88766,-39687],[88212,-16873]],[[676165,301168],[-252506,28201]],[[468826,367304],[8620,20179]],[[477446,387483],[3337,7809]],[[480783,395292],[38661,-17477]],[[519444,377815],[5507,-2489],[-8761,-4343],[8821,-3217]],[[525011,367766],[85750,-31269],[72864,-17841]],[[683625,318656],[-6095,-14289]],[[683625,318656],[25452,-6233]],[[709077,312423],[-5503,-13037]],[[480724,453174],[-5923,-1950]],[[494985,497725],[21162,50446]],[[516147,548171],[10579,25224]],[[526726,573395],[33428,79689]],[[560154,653084],[12583,29997]],[[578194,682485],[-63736,-149950]],[[514458,532535],[-33734,-79361]],[[480724,453174],[-20628,-48529]],[[460096,404645],[-4174,1887]],[[460096,404645],[-5951,-14001]],[[454145,390644],[-4605,625]],[[449540,391269],[2688,6428]],[[477446,387483],[-23301,3161]],[[460096,404645],[20687,-9353]],[[519444,377815],[4111,9202]],[[523555,387017],[13432,33574]],[[536987,420591],[29801,8255],[2149,714]],[[568937,429560],[188689,62569]],[[757626,492129],[-31201,-73141]],[[726425,418988],[-46427,-1907],[-93633,-11536]],[[586365,405545],[-6164,-47688]],[[580201,357857],[-40690,18488],[-14500,-8579]],[[580201,357857],[35282,-16030],[70453,-17754]],[[685936,324073],[-2311,-5417]],[[685936,324073],[25361,-6392]],[[711297,317681],[-2220,-5258]],[[757626,492129],[25914,60744]],[[783540,552873],[31375,10330]],[[814915,563203],[-25519,-60470]],[[774699,497827],[-17073,-5698]],[[480724,453174],[21214,6984]],[[508548,462335],[161861,53290]],[[670409,515625],[13354,4398]],[[683763,520023],[99777,32850]],[[568937,429560],[-11369,8814],[-4052,-1342],[-31891,-20562]],[[521625,416470],[-10320,-2771],[2364,-25313],[9886,-1369]],[[521625,416470],[15362,4121]],[[445490,381581],[4050,9688]],[[586365,405545],[30445,-19468],[56916,-2626]],[[673726,383451],[35702,-4310]],[[709428,379141],[-23492,-55068]],[[709428,379141],[26458,-3193]],[[735886,375948],[-24589,-58267]],[[682512,400293],[-8786,-16842]],[[726425,418988],[-1518,-3560]],[[724907,415428],[-35221,-1383],[-7174,-13752]],[[726425,418988],[28114,1155]],[[754539,420143],[-1524,-3612]],[[786697,496339],[-32158,-76196]],[[722043,408715],[-5173,-12125]],[[716870,396590],[-34358,3703]],[[716870,396590],[-7442,-17449]],[[716870,396590],[26521,-2859]],[[743391,393731],[-7505,-17783]],[[748555,405963],[-5164,-12232]],[[400190,403413],[24514,-11814]],[[424704,391599],[-7963,-6830]],[[445490,381581],[-20786,10018]],[[360391,336435],[-200026,22340]],[[560154,653084],[-13875,1566]],[[546279,654650],[12551,29956]],[[558830,684606],[3462,-383]],[[305218,620001],[-18508,2043]],[[292993,636595],[1201,2781]],[[294194,639376],[24552,56863],[-9123,6870],[-43526,4770]],[[266097,707879],[-13817,1515],[3656,8786]],[[255936,718180],[86437,-9582]],[[342373,708598],[-12692,-29508]],[[329681,679090],[-1652,-3837]],[[328029,675253],[-8045,-19486]],[[319984,655767],[-7360,-17831]],[[312624,637936],[-4935,-11952]],[[307689,625984],[-2471,-5983]],[[310480,556376],[-7105,-17412]],[[289169,546914],[-11476,6422]],[[280364,559802],[30116,-3426]],[[536864,530106],[133545,-14481]],[[531880,530646],[7037,16564]],[[538917,547210],[36508,-4254],[42410,14329]],[[617835,557285],[11248,3800],[54680,-41062]],[[617835,557285],[17791,42811]],[[832504,604879],[-17589,-41676]],[[538917,547210],[36556,86059]],[[581424,647278],[14148,33307]],[[512875,574921],[8056,19233]],[[520931,594154],[9249,22073]],[[530180,616227],[14551,34730]],[[544731,650957],[1548,3693]],[[526726,573395],[-13851,1526]],[[361269,651072],[-41285,4695]],[[328029,675253],[41283,-4629]],[[369312,670624],[-8043,-19552]],[[487477,618236],[15412,37412]],[[502889,655648],[35794,-4012]],[[538683,651636],[-15801,-37389]],[[522882,614247],[-35405,3989]],[[538683,651636],[6048,-679]],[[530180,616227],[-7298,-1980]],[[361269,651072],[-7319,-17792]],[[353950,633280],[-41326,4656]],[[410675,665988],[-15337,-37371]],[[395338,628617],[-41388,4663]],[[369312,670624],[41363,-4636]],[[487477,618236],[-40237,4533]],[[447240,622769],[15460,37386]],[[462700,660155],[40189,-4507]],[[470621,579577],[8867,21190]],[[479488,600767],[33543,-3704],[7900,-2909]],[[512875,574921],[-42254,4656]],[[305218,620001],[-592,-1434]],[[304626,618567],[-570,-1381]],[[294194,639376],[-47988,5576],[-5188,4449],[25079,58478]],[[233514,720665],[22422,-2485]],[[193069,626142],[-6045,670]],[[193069,626142],[-1305,-3231]],[[516147,548171],[-13832,1550]],[[502315,549721],[2829,6751]],[[505144,556472],[7731,18449]],[[316270,570569],[10214,24888]],[[326484,595457],[16801,-1852]],[[343285,593605],[-7052,-18025],[14601,-1621]],[[350834,573959],[-2898,-6938]],[[296451,598766],[26854,-2959]],[[323305,595807],[3179,-350]],[[314965,567369],[-4485,-10993]],[[331184,615382],[-26558,3185]],[[305218,620001],[26642,-2940]],[[331860,617061],[-676,-1679]],[[331184,615382],[-7879,-19575]],[[341818,562636],[-18213,2084],[-6370,-14878],[18378,-2109]],[[335613,547733],[6205,14903]],[[463057,561500],[-2950,-7048]],[[406742,560431],[10259,25053]],[[417001,585484],[21298,-2346]],[[438299,583138],[32322,-3561]],[[470621,579577],[-7564,-18077]],[[463057,561500],[42087,-5028]],[[447944,604247],[-9645,-21109]],[[417001,585484],[-19241,2120]],[[397760,587604],[9127,21175]],[[406887,608779],[41057,-4532]],[[447944,604247],[31544,-3480]],[[378634,563580],[2821,6981]],[[381455,570561],[8552,-950],[7753,17993]],[[381455,570561],[7288,18036]],[[388743,588597],[9017,-993]],[[350834,573959],[30621,-3398]],[[388743,588597],[-3286,362]],[[385457,588959],[8967,21196]],[[394424,610155],[12463,-1376]],[[471959,955137],[31386,-3561]],[[503345,951576],[-9503,-21668]],[[551315,923196],[9483,21859]],[[560798,945055],[42516,-4826]],[[427394,960196],[32229,-3659]],[[350834,573959],[7517,17987]],[[358351,591946],[27106,-2987]],[[342373,708598],[216457,-23992]],[[546279,654650],[-216598,24440]],[[514458,532535],[17422,-1889]],[[417322,665242],[20092,-2252]],[[437414,662990],[-15240,-37396]],[[422174,625594],[-19861,2237]],[[402313,627831],[15009,37411]],[[437414,662990],[25286,-2835]],[[447240,622769],[-25066,2825]],[[417322,665242],[-6647,746]],[[522882,614247],[-5354,-12374],[-209839,24111]],[[395338,628617],[6975,-786]],[[335784,616628],[29084,-3211]],[[364868,613417],[-8850,-21214]],[[356018,592203],[-12733,1402]],[[326484,595457],[9300,21171]],[[331860,617061],[3924,-433]],[[364868,613417],[29556,-3262]],[[358351,591946],[-2333,257]],[[916354,801444],[-8765,-20479]],[[907589,780965],[-46817,5106],[-8512,-20149],[46698,-5123]],[[898958,760799],[-14876,-34753]],[[878916,713979],[-597,-1396]],[[668869,932788],[57252,-6498]],[[907589,780965],[-8631,-20166]],[[503345,951576],[46839,-5316]],[[550184,946260],[-9362,-21771],[10493,-1293]],[[550184,946260],[10614,-1205]],[[798646,899390],[38334,-4611]],[[836980,894779],[-9942,-22566]],[[787369,919339],[15808,-1795]],[[803177,917544],[-7082,-14687],[2551,-3467]],[[836980,894779],[7944,18027]],[[844924,912806],[52953,-6010]],[[803177,917544],[3409,-387]],[[806586,917157],[-7070,-14600],[-870,-3167]],[[806586,917157],[38338,-4351]],[[71235,189162],[-55675,23308],[44152,100302],[9470,22095],[25012,56297]],[[293693,766794],[-39381,4613],[47810,112787],[-88221,9971],[9307,21252],[87688,-9966],[25534,60347],[-87651,9592],[10933,24609],[88037,-9918],[37940,-5876],[580769,-63733],[33541,-3864],[-8180,-20657],[-92132,-216415],[-161278,-385286],[-8359,-20825],[-115319,-273425],[-37543,12230]]],"bbox":[-1273.849,580.398,-812.589,1479.094],"transform":{"scale":[0.00046126046126046115,0.0008986968986968986],"translate":[-1273.849,580.398]}}
