{"type":"Topology","objects":{"01212-4502-8.featurecollection":{"type":"GeometryCollection","geometries":[{"type":"Polygon","arcs":[[0,1,2]],"properties":{"市区町村名":"留萌市","大字名":"元町","丁目名":"５丁目","小字名":null,"地番":"50-4","精度区分":null,"座標系":"任意座標系"}},{"type":"Polygon","arcs":[[3,4,5,6,7,8,9,10,11,12,13,14,15,16,17,18,19,20,21,22,23,24,25,26,27,28,29,30,31,-19,32,33,34,35,36,37,38,39,40,41,42,43,44,45,46,47,-15,48,49,50,51,52,53,54,-7,55,56,57,58,59,60,61,62,63,64,65,66,67,68,69,70,71,72,73,74,75,76,77,78,79,80]],"properties":{"市区町村名":"留萌市","大字名":"元町","丁目名":"２丁目","小字名":null,"地番":"80","精度区分":null,"座標系":"任意座標系"}},{"type":"Polygon","arcs":[[81,-60,82,83]],"properties":{"市区町村名":"留萌市","大字名":"元町","丁目名":"２丁目","小字名":null,"地番":"1-1","精度区分":null,"座標系":"任意座標系"}},{"type":"Polygon","arcs":[[84,-56,-6,85]],"properties":{"市区町村名":"留萌市","大字名":"元町","丁目名":"２丁目","小字名":null,"地番":"2-2","精度区分":null,"座標系":"任意座標系"}},{"type":"Polygon","arcs":[[-4,86,87,88,89]],"properties":{"市区町村名":"留萌市","大字名":"元町","丁目名":"２丁目","小字名":null,"地番":"5-1","精度区分":null,"座標系":"任意座標系"}},{"type":"Polygon","arcs":[[-83,-59,90,91]],"properties":{"市区町村名":"留萌市","大字名":"元町","丁目名":"２丁目","小字名":null,"地番":"2-3","精度区分":null,"座標系":"任意座標系"}},{"type":"Polygon","arcs":[[-86,-5,-90,92]],"properties":{"市区町村名":"留萌市","大字名":"元町","丁目名":"２丁目","小字名":null,"地番":"4-1","精度区分":null,"座標系":"任意座標系"}},{"type":"Polygon","arcs":[[-89,93,94,-93]],"properties":{"市区町村名":"留萌市","大字名":"元町","丁目名":"２丁目","小字名":null,"地番":"4-3","精度区分":null,"座標系":"任意座標系"}},{"type":"Polygon","arcs":[[95,96,-84,-92,97]],"properties":{"市区町村名":"留萌市","大字名":"元町","丁目名":"２丁目","小字名":null,"地番":"4-4","精度区分":null,"座標系":"任意座標系"}},{"type":"Polygon","arcs":[[98,99,-96]],"properties":{"市区町村名":"留萌市","大字名":"元町","丁目名":"２丁目","小字名":null,"地番":"5-2","精度区分":null,"座標系":"任意座標系"}},{"type":"Polygon","arcs":[[-58,100,101,-91]],"properties":{"市区町村名":"留萌市","大字名":"元町","丁目名":"２丁目","小字名":null,"地番":"2-4","精度区分":null,"座標系":"任意座標系"}},{"type":"Polygon","arcs":[[-102,-94,102,-98]],"properties":{"市区町村名":"留萌市","大字名":"元町","丁目名":"２丁目","小字名":null,"地番":"4-5","精度区分":null,"座標系":"任意座標系"}},{"type":"Polygon","arcs":[[103,-99,-103,-88]],"properties":{"市区町村名":"留萌市","大字名":"元町","丁目名":"２丁目","小字名":null,"地番":"5-3","精度区分":null,"座標系":"任意座標系"}},{"type":"Polygon","arcs":[[-101,-57,-85,-95]],"properties":{"市区町村名":"留萌市","大字名":"元町","丁目名":"２丁目","小字名":null,"地番":"2-1","精度区分":null,"座標系":"任意座標系"}},{"type":"Polygon","arcs":[[-11,104,105]],"properties":{"市区町村名":"留萌市","大字名":"元町","丁目名":"２丁目","小字名":null,"地番":"11","精度区分":null,"座標系":"任意座標系"}},{"type":"Polygon","arcs":[[-8,-55,106,107]],"properties":{"市区町村名":"留萌市","大字名":"元町","丁目名":"２丁目","小字名":null,"地番":"6","精度区分":null,"座標系":"任意座標系"}},{"type":"Polygon","arcs":[[108,-53,109]],"properties":{"市区町村名":"留萌市","大字名":"元町","丁目名":"２丁目","小字名":null,"地番":"8","精度区分":null,"座標系":"任意座標系"}},{"type":"Polygon","arcs":[[-105,-10,110,-51,111,112,113]],"properties":{"市区町村名":"留萌市","大字名":"元町","丁目名":"２丁目","小字名":null,"地番":"10","精度区分":null,"座標系":"任意座標系"}},{"type":"Polygon","arcs":[[-14,114,115,-49]],"properties":{"市区町村名":"留萌市","大字名":"元町","丁目名":"２丁目","小字名":null,"地番":"15","精度区分":null,"座標系":"任意座標系"}},{"type":"Polygon","arcs":[[-9,-108,116,-110,-52,-111]],"properties":{"市区町村名":"留萌市","大字名":"元町","丁目名":"２丁目","小字名":null,"地番":"9","精度区分":null,"座標系":"任意座標系"}},{"type":"Polygon","arcs":[[-54,-109,-117,-107]],"properties":{"市区町村名":"留萌市","大字名":"元町","丁目名":"２丁目","小字名":null,"地番":"7","精度区分":null,"座標系":"任意座標系"}},{"type":"Polygon","arcs":[[-12,-106,-114,117]],"properties":{"市区町村名":"留萌市","大字名":"元町","丁目名":"２丁目","小字名":null,"地番":"12","精度区分":null,"座標系":"任意座標系"}},{"type":"Polygon","arcs":[[-115,-13,-118,-113,118]],"properties":{"市区町村名":"留萌市","大字名":"元町","丁目名":"２丁目","小字名":null,"地番":"13","精度区分":null,"座標系":"任意座標系"}},{"type":"Polygon","arcs":[[-119,-112,-50,-116]],"properties":{"市区町村名":"留萌市","大字名":"元町","丁目名":"２丁目","小字名":null,"地番":"14","精度区分":null,"座標系":"任意座標系"}},{"type":"Polygon","arcs":[[-16,-48,119,120]],"properties":{"市区町村名":"留萌市","大字名":"元町","丁目名":"２丁目","小字名":null,"地番":"23","精度区分":null,"座標系":"任意座標系"}},{"type":"Polygon","arcs":[[-44,121,122,123,124,125]],"properties":{"市区町村名":"留萌市","大字名":"元町","丁目名":"２丁目","小字名":null,"地番":"19-3","精度区分":null,"座標系":"任意座標系"}},{"type":"Polygon","arcs":[[-41,126,127]],"properties":{"市区町村名":"留萌市","大字名":"元町","丁目名":"２丁目","小字名":null,"地番":"16-1","精度区分":null,"座標系":"任意座標系"}},{"type":"Polygon","arcs":[[128,-39,129]],"properties":{"市区町村名":"留萌市","大字名":"元町","丁目名":"２丁目","小字名":null,"地番":"16-3","精度区分":null,"座標系":"任意座標系"}},{"type":"Polygon","arcs":[[-123,130,131,-36,132]],"properties":{"市区町村名":"留萌市","大字名":"元町","丁目名":"２丁目","小字名":null,"地番":"19-1","精度区分":null,"座標系":"任意座標系"}},{"type":"Polygon","arcs":[[133,134,-34,135]],"properties":{"市区町村名":"留萌市","大字名":"元町","丁目名":"２丁目","小字名":null,"地番":"25","精度区分":null,"座標系":"任意座標系"}},{"type":"Polygon","arcs":[[-18,136,-136,-33]],"properties":{"市区町村名":"留萌市","大字名":"元町","丁目名":"２丁目","小字名":null,"地番":"26","精度区分":null,"座標系":"任意座標系"}},{"type":"Polygon","arcs":[[137,138,-130,-38,139,140]],"properties":{"市区町村名":"留萌市","大字名":"元町","丁目名":"２丁目","小字名":null,"地番":"17-2","精度区分":null,"座標系":"任意座標系"}},{"type":"Polygon","arcs":[[-127,-40,-129,-139,141]],"properties":{"市区町村名":"留萌市","大字名":"元町","丁目名":"２丁目","小字名":null,"地番":"16-2","精度区分":null,"座標系":"任意座標系"}},{"type":"Polygon","arcs":[[142,-140,-37,-132]],"properties":{"市区町村名":"留萌市","大字名":"元町","丁目名":"２丁目","小字名":null,"地番":"18-1","精度区分":null,"座標系":"任意座標系"}},{"type":"Polygon","arcs":[[-42,-128,-142,-138,143]],"properties":{"市区町村名":"留萌市","大字名":"元町","丁目名":"２丁目","小字名":null,"地番":"17-1","精度区分":null,"座標系":"任意座標系"}},{"type":"Polygon","arcs":[[-122,-43,-144,-141,-143,-131]],"properties":{"市区町村名":"留萌市","大字名":"元町","丁目名":"２丁目","小字名":null,"地番":"18-2","精度区分":null,"座標系":"任意座標系"}},{"type":"Polygon","arcs":[[144,-124,-133,-35,-135,145]],"properties":{"市区町村名":"留萌市","大字名":"元町","丁目名":"２丁目","小字名":null,"地番":"22","精度区分":null,"座標系":"任意座標系"}},{"type":"Polygon","arcs":[[-45,-126,146,147]],"properties":{"市区町村名":"留萌市","大字名":"元町","丁目名":"２丁目","小字名":null,"地番":"19-2","精度区分":null,"座標系":"任意座標系"}},{"type":"Polygon","arcs":[[-47,148,-147,-125,-145,149,-120]],"properties":{"市区町村名":"留萌市","大字名":"元町","丁目名":"２丁目","小字名":null,"地番":"21","精度区分":null,"座標系":"任意座標系"}},{"type":"Polygon","arcs":[[-46,-148,-149]],"properties":{"市区町村名":"留萌市","大字名":"元町","丁目名":"２丁目","小字名":null,"地番":"20","精度区分":null,"座標系":"任意座標系"}},{"type":"Polygon","arcs":[[-17,-121,-150,-146,-134,-137]],"properties":{"市区町村名":"留萌市","大字名":"元町","丁目名":"２丁目","小字名":null,"地番":"24","精度区分":null,"座標系":"任意座標系"}},{"type":"Polygon","arcs":[[150,151,-74]],"properties":{"市区町村名":"留萌市","大字名":"元町","丁目名":"２丁目","小字名":null,"地番":"43","精度区分":null,"座標系":"任意座標系"}},{"type":"Polygon","arcs":[[-71,152,153,154,155]],"properties":{"市区町村名":"留萌市","大字名":"元町","丁目名":"２丁目","小字名":null,"地番":"36","精度区分":null,"座標系":"任意座標系"}},{"type":"Polygon","arcs":[[-70,156,157,158,-153]],"properties":{"市区町村名":"留萌市","大字名":"元町","丁目名":"２丁目","小字名":null,"地番":"35","精度区分":null,"座標系":"任意座標系"}},{"type":"Polygon","arcs":[[-69,159,160,161,162,-157]],"properties":{"市区町村名":"留萌市","大字名":"元町","丁目名":"２丁目","小字名":null,"地番":"34","精度区分":null,"座標系":"任意座標系"}},{"type":"Polygon","arcs":[[-68,163,-160]],"properties":{"市区町村名":"留萌市","大字名":"元町","丁目名":"２丁目","小字名":null,"地番":"33-2","精度区分":null,"座標系":"任意座標系"}},{"type":"Polygon","arcs":[[164,-64,-80,165]],"properties":{"市区町村名":"留萌市","大字名":"元町","丁目名":"２丁目","小字名":null,"地番":"37-1","精度区分":null,"座標系":"任意座標系"}},{"type":"Polygon","arcs":[[-158,-163,166,167,-166,-79,168]],"properties":{"市区町村名":"留萌市","大字名":"元町","丁目名":"２丁目","小字名":null,"地番":"38","精度区分":null,"座標系":"任意座標系"}},{"type":"Polygon","arcs":[[-73,169,170,171,172,-151]],"properties":{"市区町村名":"留萌市","大字名":"元町","丁目名":"２丁目","小字名":null,"地番":"42-1","精度区分":null,"座標系":"任意座標系"}},{"type":"Polygon","arcs":[[173,174,-76,175]],"properties":{"市区町村名":"留萌市","大字名":"元町","丁目名":"２丁目","小字名":null,"地番":"41-2","精度区分":null,"座標系":"任意座標系"}},{"type":"Polygon","arcs":[[-155,176,-77,-175,177,178,179,180]],"properties":{"市区町村名":"留萌市","大字名":"元町","丁目名":"２丁目","小字名":null,"地番":"40","精度区分":null,"座標系":"任意座標系"}},{"type":"Polygon","arcs":[[-173,181,182,-176,-75,-152]],"properties":{"市区町村名":"留萌市","大字名":"元町","丁目名":"２丁目","小字名":null,"地番":"42-2","精度区分":null,"座標系":"任意座標系"}},{"type":"Polygon","arcs":[[-178,-174,-183,183]],"properties":{"市区町村名":"留萌市","大字名":"元町","丁目名":"２丁目","小字名":null,"地番":"41-5","精度区分":null,"座標系":"任意座標系"}},{"type":"Polygon","arcs":[[184,-179,-184,-182,-172]],"properties":{"市区町村名":"留萌市","大字名":"元町","丁目名":"２丁目","小字名":null,"地番":"41-4","精度区分":null,"座標系":"任意座標系"}},{"type":"Polygon","arcs":[[-180,-185,-171,185]],"properties":{"市区町村名":"留萌市","大字名":"元町","丁目名":"２丁目","小字名":null,"地番":"41-3","精度区分":null,"座標系":"任意座標系"}},{"type":"Polygon","arcs":[[-72,-156,-181,-186,-170]],"properties":{"市区町村名":"留萌市","大字名":"元町","丁目名":"２丁目","小字名":null,"地番":"41-1","精度区分":null,"座標系":"任意座標系"}},{"type":"Polygon","arcs":[[-162,186,-66,187,-167]],"properties":{"市区町村名":"留萌市","大字名":"元町","丁目名":"２丁目","小字名":null,"地番":"37-3","精度区分":null,"座標系":"任意座標系"}},{"type":"Polygon","arcs":[[-164,-67,-187,-161]],"properties":{"市区町村名":"留萌市","大字名":"元町","丁目名":"２丁目","小字名":null,"地番":"33-1","精度区分":null,"座標系":"任意座標系"}},{"type":"Polygon","arcs":[[-188,-65,-165,-168]],"properties":{"市区町村名":"留萌市","大字名":"元町","丁目名":"２丁目","小字名":null,"地番":"37-2","精度区分":null,"座標系":"任意座標系"}},{"type":"Polygon","arcs":[[-154,-159,-169,-78,-177]],"properties":{"市区町村名":"留萌市","大字名":"元町","丁目名":"２丁目","小字名":null,"地番":"39","精度区分":null,"座標系":"任意座標系"}},{"type":"Polygon","arcs":[[-20,-32,188,189]],"properties":{"市区町村名":"留萌市","大字名":"元町","丁目名":"２丁目","小字名":null,"地番":"29-1","精度区分":null,"座標系":"任意座標系"}},{"type":"Polygon","arcs":[[-29,190]],"properties":{"市区町村名":"留萌市","大字名":"元町","丁目名":"２丁目","小字名":null,"地番":"27","精度区分":null,"座標系":"任意座標系"}},{"type":"Polygon","arcs":[[-30,-191,-28,191,192]],"properties":{"市区町村名":"留萌市","大字名":"元町","丁目名":"２丁目","小字名":null,"地番":"28","精度区分":null,"座標系":"任意座標系"}},{"type":"Polygon","arcs":[[193,-24]],"properties":{"市区町村名":"留萌市","大字名":"元町","丁目名":"２丁目","小字名":null,"地番":"29-5","精度区分":null,"座標系":"任意座標系"}},{"type":"Polygon","arcs":[[-21,-190,194,195,196]],"properties":{"市区町村名":"留萌市","大字名":"元町","丁目名":"２丁目","小字名":null,"地番":"29-9","精度区分":null,"座標系":"任意座標系"}},{"type":"Polygon","arcs":[[197,-192,-27,198,199,200,-196]],"properties":{"市区町村名":"留萌市","大字名":"元町","丁目名":"２丁目","小字名":null,"地番":"29-7","精度区分":null,"座標系":"任意座標系"}},{"type":"Polygon","arcs":[[201,-194,-23,202]],"properties":{"市区町村名":"留萌市","大字名":"元町","丁目名":"２丁目","小字名":null,"地番":"29-4","精度区分":null,"座標系":"任意座標系"}},{"type":"Polygon","arcs":[[-200,203,-25,-202,204]],"properties":{"市区町村名":"留萌市","大字名":"元町","丁目名":"２丁目","小字名":null,"地番":"29-6","精度区分":null,"座標系":"任意座標系"}},{"type":"Polygon","arcs":[[-199,-26,-204]],"properties":{"市区町村名":"留萌市","大字名":"元町","丁目名":"２丁目","小字名":null,"地番":"29-10","精度区分":null,"座標系":"任意座標系"}},{"type":"Polygon","arcs":[[-31,-193,-198,-195,-189]],"properties":{"市区町村名":"留萌市","大字名":"元町","丁目名":"２丁目","小字名":null,"地番":"29-8","精度区分":null,"座標系":"任意座標系"}},{"type":"Polygon","arcs":[[-197,-201,-205,-203,-22]],"properties":{"市区町村名":"留萌市","大字名":"元町","丁目名":"２丁目","小字名":null,"地番":"29-3","精度区分":null,"座標系":"任意座標系"}},{"type":"Polygon","arcs":[[205,206,207,208,209,210,211,212,213,214,215,216,217,218,219,220,221,222,223,224,225,226,227,228,229,230,231,232,-213,233,234,235,236,237,238,239,240,241,242,243,244,245,246,247,248,249,250,251,252]],"properties":{"市区町村名":"留萌市","大字名":"元町","丁目名":"４丁目","小字名":null,"地番":"87-1","精度区分":null,"座標系":"任意座標系"}},{"type":"Polygon","arcs":[[253,-210,254,255]],"properties":{"市区町村名":"留萌市","大字名":"元町","丁目名":"４丁目","小字名":null,"地番":"41-2","精度区分":null,"座標系":"任意座標系"}},{"type":"Polygon","arcs":[[256,257,-256,258,259]],"properties":{"市区町村名":"留萌市","大字名":"元町","丁目名":"４丁目","小字名":null,"地番":"43-3","精度区分":null,"座標系":"任意座標系"}},{"type":"Polygon","arcs":[[260,-260,261,262]],"properties":{"市区町村名":"留萌市","大字名":"元町","丁目名":"４丁目","小字名":null,"地番":"45-4","精度区分":null,"座標系":"任意座標系"}},{"type":"Polygon","arcs":[[263,-263,264,265,266,267,268,-238]],"properties":{"市区町村名":"留萌市","大字名":"元町","丁目名":"４丁目","小字名":null,"地番":"47-1","精度区分":null,"座標系":"任意座標系"}},{"type":"Polygon","arcs":[[269,-267,270,271,272]],"properties":{"市区町村名":"留萌市","大字名":"元町","丁目名":"４丁目","小字名":null,"地番":"49-4","精度区分":null,"座標系":"任意座標系"}},{"type":"Polygon","arcs":[[273,-273,274,275]],"properties":{"市区町村名":"留萌市","大字名":"元町","丁目名":"４丁目","小字名":null,"地番":"51-3","精度区分":null,"座標系":"任意座標系"}},{"type":"Polygon","arcs":[[276,277,-276,278,279]],"properties":{"市区町村名":"留萌市","大字名":"元町","丁目名":"４丁目","小字名":null,"地番":"54-3","精度区分":null,"座標系":"任意座標系"}},{"type":"Polygon","arcs":[[280,-280,281,-243]],"properties":{"市区町村名":"留萌市","大字名":"元町","丁目名":"４丁目","小字名":null,"地番":"59-1","精度区分":null,"座標系":"任意座標系"}},{"type":"Polygon","arcs":[[282,-206,283,284,285,286,287,288,289,290,291,292,-245,293,294,295,296,297,298,299,300,301,302,303,304,305,306,307,308,309,310,311,312,313,314,315,316,317,-298,318,319,320,321,322,323,324,325,326,327,328,329,330,-62]],"properties":{"市区町村名":"留萌市","大字名":"元町","丁目名":"３丁目","小字名":null,"地番":"92-1","精度区分":null,"座標系":"任意座標系"}},{"type":"Polygon","arcs":[[331,-295,332,333,334]],"properties":{"市区町村名":"留萌市","大字名":"元町","丁目名":"３丁目","小字名":null,"地番":"40-1","精度区分":null,"座標系":"任意座標系"}},{"type":"Polygon","arcs":[[335,336,337,338,339,340]],"properties":{"市区町村名":"留萌市","大字名":"元町","丁目名":"３丁目","小字名":null,"地番":"49-3","精度区分":null,"座標系":"任意座標系"}},{"type":"Polygon","arcs":[[341,342,343,-330]],"properties":{"市区町村名":"留萌市","大字名":"元町","丁目名":"３丁目","小字名":null,"地番":"58-1","精度区分":null,"座標系":"任意座標系"}},{"type":"Polygon","arcs":[[344,-249,345]],"properties":{"市区町村名":"留萌市","大字名":"元町","丁目名":"４丁目","小字名":null,"地番":"24-2","精度区分":null,"座標系":"任意座標系"}},{"type":"Polygon","arcs":[[-252,346,-247,347]],"properties":{"市区町村名":"留萌市","大字名":"元町","丁目名":"４丁目","小字名":null,"地番":"28-2","精度区分":null,"座標系":"任意座標系"}},{"type":"Polygon","arcs":[[-253,-348,-246,348]],"properties":{"市区町村名":"留萌市","大字名":"元町","丁目名":"４丁目","小字名":null,"地番":"28-1","精度区分":null,"座標系":"任意座標系"}},{"type":"Polygon","arcs":[[-284,-349,-293,349]],"properties":{"市区町村名":"留萌市","大字名":"元町","丁目名":"３丁目","小字名":null,"地番":"22","精度区分":null,"座標系":"任意座標系"}},{"type":"Polygon","arcs":[[-285,-350,-292,350]],"properties":{"市区町村名":"留萌市","大字名":"元町","丁目名":"３丁目","小字名":null,"地番":"33-2","精度区分":null,"座標系":"任意座標系"}},{"type":"Polygon","arcs":[[-286,-351,-291,351]],"properties":{"市区町村名":"留萌市","大字名":"元町","丁目名":"３丁目","小字名":null,"地番":"33-1","精度区分":null,"座標系":"任意座標系"}},{"type":"Polygon","arcs":[[352,353,-289]],"properties":{"市区町村名":"留萌市","大字名":"元町","丁目名":"３丁目","小字名":null,"地番":"37-2","精度区分":null,"座標系":"任意座標系"}},{"type":"Polygon","arcs":[[-288,354,-353]],"properties":{"市区町村名":"留萌市","大字名":"元町","丁目名":"３丁目","小字名":null,"地番":"37-1","精度区分":null,"座標系":"任意座標系"}},{"type":"Polygon","arcs":[[-287,-352,-290,-354,-355]],"properties":{"市区町村名":"留萌市","大字名":"元町","丁目名":"３丁目","小字名":null,"地番":"35","精度区分":null,"座標系":"任意座標系"}},{"type":"Polygon","arcs":[[-251,355,-346,-248,-347]],"properties":{"市区町村名":"留萌市","大字名":"元町","丁目名":"４丁目","小字名":null,"地番":"26","精度区分":null,"座標系":"任意座標系"}},{"type":"Polygon","arcs":[[-250,-345,-356]],"properties":{"市区町村名":"留萌市","大字名":"元町","丁目名":"４丁目","小字名":null,"地番":"24-1","精度区分":null,"座標系":"任意座標系"}},{"type":"Polygon","arcs":[[-300,356,357,358]],"properties":{"市区町村名":"留萌市","大字名":"元町","丁目名":"３丁目","小字名":null,"地番":"38","精度区分":null,"座標系":"任意座標系"}},{"type":"Polygon","arcs":[[-357,-299,-318,359,360,361,362]],"properties":{"市区町村名":"留萌市","大字名":"元町","丁目名":"３丁目","小字名":null,"地番":"39","精度区分":null,"座標系":"任意座標系"}},{"type":"Polygon","arcs":[[363,-360,-317,364]],"properties":{"市区町村名":"留萌市","大字名":"元町","丁目名":"３丁目","小字名":null,"地番":"41-1","精度区分":null,"座標系":"任意座標系"}},{"type":"Polygon","arcs":[[365,-365,-316,366]],"properties":{"市区町村名":"留萌市","大字名":"元町","丁目名":"３丁目","小字名":null,"地番":"41-6","精度区分":null,"座標系":"任意座標系"}},{"type":"Polygon","arcs":[[367,368,-367,-315,369]],"properties":{"市区町村名":"留萌市","大字名":"元町","丁目名":"３丁目","小字名":null,"地番":"43-1","精度区分":null,"座標系":"任意座標系"}},{"type":"Polygon","arcs":[[370,-370,-314,371,372,373]],"properties":{"市区町村名":"留萌市","大字名":"元町","丁目名":"３丁目","小字名":null,"地番":"46","精度区分":null,"座標系":"任意座標系"}},{"type":"Polygon","arcs":[[-372,-313,374]],"properties":{"市区町村名":"留萌市","大字名":"元町","丁目名":"３丁目","小字名":null,"地番":"48-3","精度区分":null,"座標系":"任意座標系"}},{"type":"Polygon","arcs":[[375,376,-311,377]],"properties":{"市区町村名":"留萌市","大字名":"元町","丁目名":"３丁目","小字名":null,"地番":"50-2","精度区分":null,"座標系":"任意座標系"}},{"type":"Polygon","arcs":[[-306,378,-378,-310,379,380,381]],"properties":{"市区町村名":"留萌市","大字名":"元町","丁目名":"３丁目","小字名":null,"地番":"52","精度区分":null,"座標系":"任意座標系"}},{"type":"Polygon","arcs":[[382,-380,-309]],"properties":{"市区町村名":"留萌市","大字名":"元町","丁目名":"３丁目","小字名":null,"地番":"55","精度区分":null,"座標系":"任意座標系"}},{"type":"Polygon","arcs":[[-307,-382,383]],"properties":{"市区町村名":"留萌市","大字名":"元町","丁目名":"３丁目","小字名":null,"地番":"54-2","精度区分":null,"座標系":"任意座標系"}},{"type":"Polygon","arcs":[[-305,384,-376,-379]],"properties":{"市区町村名":"留萌市","大字名":"元町","丁目名":"３丁目","小字名":null,"地番":"50-1","精度区分":null,"座標系":"任意座標系"}},{"type":"Polygon","arcs":[[-304,385,386,-385]],"properties":{"市区町村名":"留萌市","大字名":"元町","丁目名":"３丁目","小字名":null,"地番":"48-1","精度区分":null,"座標系":"任意座標系"}},{"type":"Polygon","arcs":[[-302,387,388,389]],"properties":{"市区町村名":"留萌市","大字名":"元町","丁目名":"３丁目","小字名":null,"地番":"43-3","精度区分":null,"座標系":"任意座標系"}},{"type":"Polygon","arcs":[[-301,-359,390,-388]],"properties":{"市区町村名":"留萌市","大字名":"元町","丁目名":"３丁目","小字名":null,"地番":"41-3","精度区分":null,"座標系":"任意座標系"}},{"type":"Polygon","arcs":[[391,-361,-364,-366,-369]],"properties":{"市区町村名":"留萌市","大字名":"元町","丁目名":"３丁目","小字名":null,"地番":"41-5","精度区分":null,"座標系":"任意座標系"}},{"type":"Polygon","arcs":[[392,393,-368,-371,394,-389]],"properties":{"市区町村名":"留萌市","大字名":"元町","丁目名":"３丁目","小字名":null,"地番":"43-2","精度区分":null,"座標系":"任意座標系"}},{"type":"Polygon","arcs":[[395,-362,-392,-394]],"properties":{"市区町村名":"留萌市","大字名":"元町","丁目名":"３丁目","小字名":null,"地番":"41-2","精度区分":null,"座標系":"任意座標系"}},{"type":"Polygon","arcs":[[-358,-363,-396,-393,-391]],"properties":{"市区町村名":"留萌市","大字名":"元町","丁目名":"３丁目","小字名":null,"地番":"41-4","精度区分":null,"座標系":"任意座標系"}},{"type":"Polygon","arcs":[[-386,-303,-390,-395,-374]],"properties":{"市区町村名":"留萌市","大字名":"元町","丁目名":"３丁目","小字名":null,"地番":"45","精度区分":null,"座標系":"任意座標系"}},{"type":"Polygon","arcs":[[-373,-375,-312,-377,-387]],"properties":{"市区町村名":"留萌市","大字名":"元町","丁目名":"３丁目","小字名":null,"地番":"48-2","精度区分":null,"座標系":"任意座標系"}},{"type":"Polygon","arcs":[[-381,-383,-308,-384]],"properties":{"市区町村名":"留萌市","大字名":"元町","丁目名":"３丁目","小字名":null,"地番":"54-1","精度区分":null,"座標系":"任意座標系"}},{"type":"Polygon","arcs":[[-297,396,397,-319]],"properties":{"市区町村名":"留萌市","大字名":"元町","丁目名":"３丁目","小字名":null,"地番":"40-5","精度区分":null,"座標系":"任意座標系"}},{"type":"Polygon","arcs":[[-296,-332,398,-397]],"properties":{"市区町村名":"留萌市","大字名":"元町","丁目名":"３丁目","小字名":null,"地番":"40-6","精度区分":null,"座標系":"任意座標系"}},{"type":"Polygon","arcs":[[-398,-399,-335,399,400,-320]],"properties":{"市区町村名":"留萌市","大字名":"元町","丁目名":"３丁目","小字名":null,"地番":"42-1","精度区分":null,"座標系":"任意座標系"}},{"type":"Polygon","arcs":[[-401,401,402,403,-321]],"properties":{"市区町村名":"留萌市","大字名":"元町","丁目名":"３丁目","小字名":null,"地番":"44-1","精度区分":null,"座標系":"任意座標系"}},{"type":"Polygon","arcs":[[-404,404,405,406,-336,407,408,-322]],"properties":{"市区町村名":"留萌市","大字名":"元町","丁目名":"３丁目","小字名":null,"地番":"47-1","精度区分":null,"座標系":"任意座標系"}},{"type":"Polygon","arcs":[[409,-408,-341,410,-324]],"properties":{"市区町村名":"留萌市","大字名":"元町","丁目名":"３丁目","小字名":null,"地番":"49-2","精度区分":null,"座標系":"任意座標系"}},{"type":"Polygon","arcs":[[411,412,413,414,415,-326]],"properties":{"市区町村名":"留萌市","大字名":"元町","丁目名":"３丁目","小字名":null,"地番":"53-1","精度区分":null,"座標系":"任意座標系"}},{"type":"Polygon","arcs":[[-416,416,-327]],"properties":{"市区町村名":"留萌市","大字名":"元町","丁目名":"３丁目","小字名":null,"地番":"56","精度区分":null,"座標系":"任意座標系"}},{"type":"Polygon","arcs":[[-417,-415,417,-328]],"properties":{"市区町村名":"留萌市","大字名":"元町","丁目名":"３丁目","小字名":null,"地番":"57-2","精度区分":null,"座標系":"任意座標系"}},{"type":"Polygon","arcs":[[-418,-414,418,-342,-329]],"properties":{"市区町村名":"留萌市","大字名":"元町","丁目名":"３丁目","小字名":null,"地番":"57-1","精度区分":null,"座標系":"任意座標系"}},{"type":"Polygon","arcs":[[419,420,421,-343,-419,-413]],"properties":{"市区町村名":"留萌市","大字名":"元町","丁目名":"３丁目","小字名":null,"地番":"53-2","精度区分":null,"座標系":"任意座標系"}},{"type":"Polygon","arcs":[[-325,-411,-340,422,-420,-412]],"properties":{"市区町村名":"留萌市","大字名":"元町","丁目名":"３丁目","小字名":null,"地番":"51-1","精度区分":null,"座標系":"任意座標系"}},{"type":"Polygon","arcs":[[-423,-339,423,-421]],"properties":{"市区町村名":"留萌市","大字名":"元町","丁目名":"３丁目","小字名":null,"地番":"51-3","精度区分":null,"座標系":"任意座標系"}},{"type":"Polygon","arcs":[[-337,-407,424]],"properties":{"市区町村名":"留萌市","大字名":"元町","丁目名":"３丁目","小字名":null,"地番":"49-4","精度区分":null,"座標系":"任意座標系"}},{"type":"Polygon","arcs":[[-323,-409,-410]],"properties":{"市区町村名":"留萌市","大字名":"元町","丁目名":"３丁目","小字名":null,"地番":"49-1","精度区分":null,"座標系":"任意座標系"}},{"type":"Polygon","arcs":[[-403,425,426,-405]],"properties":{"市区町村名":"留萌市","大字名":"元町","丁目名":"３丁目","小字名":null,"地番":"44-2","精度区分":null,"座標系":"任意座標系"}},{"type":"Polygon","arcs":[[-400,-334,427,-426,-402]],"properties":{"市区町村名":"留萌市","大字名":"元町","丁目名":"３丁目","小字名":null,"地番":"42-3","精度区分":null,"座標系":"任意座標系"}},{"type":"Polygon","arcs":[[-215,428,429,430]],"properties":{"市区町村名":"留萌市","大字名":"元町","丁目名":"４丁目","小字名":null,"地番":"39","精度区分":null,"座標系":"任意座標系"}},{"type":"Polygon","arcs":[[-429,-214,-233,431]],"properties":{"市区町村名":"留萌市","大字名":"元町","丁目名":"４丁目","小字名":null,"地番":"40","精度区分":null,"座標系":"任意座標系"}},{"type":"Polygon","arcs":[[-430,-432,-232,432,433,434]],"properties":{"市区町村名":"留萌市","大字名":"元町","丁目名":"４丁目","小字名":null,"地番":"42-1","精度区分":null,"座標系":"任意座標系"}},{"type":"Polygon","arcs":[[-433,-231,435,436,437,438]],"properties":{"市区町村名":"留萌市","大字名":"元町","丁目名":"４丁目","小字名":null,"地番":"44-2","精度区分":null,"座標系":"任意座標系"}},{"type":"Polygon","arcs":[[439,-436,-230,440]],"properties":{"市区町村名":"留萌市","大字名":"元町","丁目名":"４丁目","小字名":null,"地番":"46-3","精度区分":null,"座標系":"任意座標系"}},{"type":"Polygon","arcs":[[441,442,443,-441,-229,444,445]],"properties":{"市区町村名":"留萌市","大字名":"元町","丁目名":"４丁目","小字名":null,"地番":"48-2","精度区分":null,"座標系":"任意座標系"}},{"type":"Polygon","arcs":[[446,-445,-228,447,448,449]],"properties":{"市区町村名":"留萌市","大字名":"元町","丁目名":"４丁目","小字名":null,"地番":"50-1","精度区分":null,"座標系":"任意座標系"}},{"type":"Polygon","arcs":[[-448,-227,450]],"properties":{"市区町村名":"留萌市","大字名":"元町","丁目名":"４丁目","小字名":null,"地番":"53-2","精度区分":null,"座標系":"任意座標系"}},{"type":"Polygon","arcs":[[451,452,-449,-451,-226,453,454]],"properties":{"市区町村名":"留萌市","大字名":"元町","丁目名":"４丁目","小字名":null,"地番":"53-1","精度区分":null,"座標系":"任意座標系"}},{"type":"Polygon","arcs":[[455,-454,-225]],"properties":{"市区町村名":"留萌市","大字名":"元町","丁目名":"４丁目","小字名":null,"地番":"57","精度区分":null,"座標系":"任意座標系"}},{"type":"Polygon","arcs":[[-223,456,457]],"properties":{"市区町村名":"留萌市","大字名":"元町","丁目名":"４丁目","小字名":null,"地番":"55","精度区分":null,"座標系":"任意座標系"}},{"type":"Polygon","arcs":[[-222,458,-452,459,-457]],"properties":{"市区町村名":"留萌市","大字名":"元町","丁目名":"４丁目","小字名":null,"地番":"52","精度区分":null,"座標系":"任意座標系"}},{"type":"Polygon","arcs":[[-220,460,-446,-447,461]],"properties":{"市区町村名":"留萌市","大字名":"元町","丁目名":"４丁目","小字名":null,"地番":"48-3","精度区分":null,"座標系":"任意座標系"}},{"type":"Polygon","arcs":[[-218,462,463,464]],"properties":{"市区町村名":"留萌市","大字名":"元町","丁目名":"４丁目","小字名":null,"地番":"46-1","精度区分":null,"座標系":"任意座標系"}},{"type":"Polygon","arcs":[[-216,-431,-435,465]],"properties":{"市区町村名":"留萌市","大字名":"元町","丁目名":"４丁目","小字名":null,"地番":"42-2","精度区分":null,"座標系":"任意座標系"}},{"type":"Polygon","arcs":[[-463,-217,-466,-434,-439,466]],"properties":{"市区町村名":"留萌市","大字名":"元町","丁目名":"４丁目","小字名":null,"地番":"44-1","精度区分":null,"座標系":"任意座標系"}},{"type":"Polygon","arcs":[[-464,-467,-438,467,-443,468]],"properties":{"市区町村名":"留萌市","大字名":"元町","丁目名":"４丁目","小字名":null,"地番":"46-2","精度区分":null,"座標系":"任意座標系"}},{"type":"Polygon","arcs":[[-468,-437,-440,-444]],"properties":{"市区町村名":"留萌市","大字名":"元町","丁目名":"４丁目","小字名":null,"地番":"46-4","精度区分":null,"座標系":"任意座標系"}},{"type":"Polygon","arcs":[[-219,-465,-469,-442,-461]],"properties":{"市区町村名":"留萌市","大字名":"元町","丁目名":"４丁目","小字名":null,"地番":"48-1","精度区分":null,"座標系":"任意座標系"}},{"type":"Polygon","arcs":[[-459,-221,-462,-450,-453]],"properties":{"市区町村名":"留萌市","大字名":"元町","丁目名":"４丁目","小字名":null,"地番":"50-2","精度区分":null,"座標系":"任意座標系"}},{"type":"Polygon","arcs":[[-460,-455,-456,-224,-458]],"properties":{"市区町村名":"留萌市","大字名":"元町","丁目名":"４丁目","小字名":null,"地番":"56","精度区分":null,"座標系":"任意座標系"}},{"type":"Polygon","arcs":[[469,-211,-254,-258,470]],"properties":{"市区町村名":"留萌市","大字名":"元町","丁目名":"４丁目","小字名":null,"地番":"41-4","精度区分":null,"座標系":"任意座標系"}},{"type":"Polygon","arcs":[[471,-234,-212,-470]],"properties":{"市区町村名":"留萌市","大字名":"元町","丁目名":"４丁目","小字名":null,"地番":"41-1","精度区分":null,"座標系":"任意座標系"}},{"type":"Polygon","arcs":[[-472,-471,-257,472,473,-235]],"properties":{"市区町村名":"留萌市","大字名":"元町","丁目名":"４丁目","小字名":null,"地番":"43-1","精度区分":null,"座標系":"任意座標系"}},{"type":"Polygon","arcs":[[474,-473,-261,-264,-237]],"properties":{"市区町村名":"留萌市","大字名":"元町","丁目名":"４丁目","小字名":null,"地番":"45-3","精度区分":null,"座標系":"任意座標系"}},{"type":"Polygon","arcs":[[475,-268,-270,476,-240]],"properties":{"市区町村名":"留萌市","大字名":"元町","丁目名":"４丁目","小字名":null,"地番":"49-3","精度区分":null,"座標系":"任意座標系"}},{"type":"Polygon","arcs":[[-477,-274,-278,477,-241]],"properties":{"市区町村名":"留萌市","大字名":"元町","丁目名":"４丁目","小字名":null,"地番":"51-1","精度区分":null,"座標系":"任意座標系"}},{"type":"Polygon","arcs":[[-478,-277,-281,-242]],"properties":{"市区町村名":"留萌市","大字名":"元町","丁目名":"４丁目","小字名":null,"地番":"54-1","精度区分":null,"座標系":"任意座標系"}},{"type":"Polygon","arcs":[[-239,-269,-476]],"properties":{"市区町村名":"留萌市","大字名":"元町","丁目名":"４丁目","小字名":null,"地番":"49-1","精度区分":null,"座標系":"任意座標系"}},{"type":"Polygon","arcs":[[-266,478,-271]],"properties":{"市区町村名":"留萌市","大字名":"元町","丁目名":"４丁目","小字名":null,"地番":"49-5","精度区分":null,"座標系":"任意座標系"}},{"type":"Polygon","arcs":[[-236,-474,-475]],"properties":{"市区町村名":"留萌市","大字名":"元町","丁目名":"４丁目","小字名":null,"地番":"45-1","精度区分":null,"座標系":"任意座標系"}},{"type":"Polygon","arcs":[[479,480]],"properties":{"市区町村名":"留萌市","大字名":"元町","丁目名":"５丁目","小字名":null,"地番":"12-2","精度区分":null,"座標系":"任意座標系"}},{"type":"Polygon","arcs":[[481,482,483,484]],"properties":{"市区町村名":"留萌市","大字名":"元町","丁目名":"５丁目","小字名":null,"地番":"7-1","精度区分":null,"座標系":"任意座標系"}},{"type":"Polygon","arcs":[[485,486,487,488]],"properties":{"市区町村名":"留萌市","大字名":"元町","丁目名":"５丁目","小字名":null,"地番":"160-1","精度区分":null,"座標系":"任意座標系"}},{"type":"Polygon","arcs":[[489,490,491,492,-1,493]],"properties":{"市区町村名":"留萌市","大字名":"元町","丁目名":"５丁目","小字名":null,"地番":"151-1","精度区分":null,"座標系":"任意座標系"}},{"type":"Polygon","arcs":[[494,495,496,497,498]],"properties":{"市区町村名":"留萌市","大字名":"元町","丁目名":"５丁目","小字名":null,"地番":"139","精度区分":null,"座標系":"任意座標系"}},{"type":"Polygon","arcs":[[499,500,501,502]],"properties":{"市区町村名":"留萌市","大字名":"元町","丁目名":"５丁目","小字名":null,"地番":"161-3","精度区分":null,"座標系":"任意座標系"}},{"type":"Polygon","arcs":[[503,504,505,506,507]],"properties":{"市区町村名":"留萌市","大字名":"元町","丁目名":"５丁目","小字名":null,"地番":"115-5","精度区分":null,"座標系":"任意座標系"}},{"type":"Polygon","arcs":[[-480,508,509,-482]],"properties":{"市区町村名":"留萌市","大字名":"元町","丁目名":"５丁目","小字名":null,"地番":"12-3","精度区分":null,"座標系":"任意座標系"}},{"type":"Polygon","arcs":[[510,511]],"properties":{"市区町村名":"留萌市","大字名":"元町","丁目名":"５丁目","小字名":null,"地番":"25-1","精度区分":null,"座標系":"任意座標系"}},{"type":"Polygon","arcs":[[512,513,514,515]],"properties":{"市区町村名":"留萌市","大字名":"元町","丁目名":"５丁目","小字名":null,"地番":"18","精度区分":null,"座標系":"任意座標系"}},{"type":"Polygon","arcs":[[516,517,-484,518,-514]],"properties":{"市区町村名":"留萌市","大字名":"元町","丁目名":"５丁目","小字名":null,"地番":"161-5","精度区分":null,"座標系":"任意座標系"}},{"type":"Polygon","arcs":[[519,520,-516,521]],"properties":{"市区町村名":"留萌市","大字名":"元町","丁目名":"５丁目","小字名":null,"地番":"19-1","精度区分":null,"座標系":"任意座標系"}},{"type":"Polygon","arcs":[[522,-520,523,524]],"properties":{"市区町村名":"留萌市","大字名":"元町","丁目名":"５丁目","小字名":null,"地番":"20","精度区分":null,"座標系":"任意座標系"}},{"type":"Polygon","arcs":[[525,526,-525,527]],"properties":{"市区町村名":"留萌市","大字名":"元町","丁目名":"５丁目","小字名":null,"地番":"21-1","精度区分":null,"座標系":"任意座標系"}},{"type":"Polygon","arcs":[[528,-526,529,-511]],"properties":{"市区町村名":"留萌市","大字名":"元町","丁目名":"５丁目","小字名":null,"地番":"21-2","精度区分":null,"座標系":"任意座標系"}},{"type":"Polygon","arcs":[[530,531,532]],"properties":{"市区町村名":"留萌市","大字名":"元町","丁目名":"５丁目","小字名":null,"地番":"43","精度区分":null,"座標系":"任意座標系"}},{"type":"Polygon","arcs":[[533,534,535]],"properties":{"市区町村名":"留萌市","大字名":"元町","丁目名":"５丁目","小字名":null,"地番":"48","精度区分":null,"座標系":"任意座標系"}},{"type":"Polygon","arcs":[[536,537,-536,538,539,540,541]],"properties":{"市区町村名":"留萌市","大字名":"元町","丁目名":"５丁目","小字名":null,"地番":"42","精度区分":null,"座標系":"任意座標系"}},{"type":"Polygon","arcs":[[-540,542,543,544]],"properties":{"市区町村名":"留萌市","大字名":"元町","丁目名":"５丁目","小字名":null,"地番":"31","精度区分":null,"座標系":"任意座標系"}},{"type":"Polygon","arcs":[[-532,545,-542,546,547]],"properties":{"市区町村名":"留萌市","大字名":"元町","丁目名":"５丁目","小字名":null,"地番":"35","精度区分":null,"座標系":"任意座標系"}},{"type":"Polygon","arcs":[[-531,548,549,-546]],"properties":{"市区町村名":"留萌市","大字名":"元町","丁目名":"５丁目","小字名":null,"地番":"44","精度区分":null,"座標系":"任意座標系"}},{"type":"Polygon","arcs":[[-550,550,551,-537]],"properties":{"市区町村名":"留萌市","大字名":"元町","丁目名":"５丁目","小字名":null,"地番":"46","精度区分":null,"座標系":"任意座標系"}},{"type":"Polygon","arcs":[[-547,-541,-545,552]],"properties":{"市区町村名":"留萌市","大字名":"元町","丁目名":"５丁目","小字名":null,"地番":"32-1","精度区分":null,"座標系":"任意座標系"}},{"type":"Polygon","arcs":[[-552,553,-534,-538]],"properties":{"市区町村名":"留萌市","大字名":"元町","丁目名":"５丁目","小字名":null,"地番":"47","精度区分":null,"座標系":"任意座標系"}},{"type":"Polygon","arcs":[[554,555,556]],"properties":{"市区町村名":"留萌市","大字名":"元町","丁目名":"５丁目","小字名":null,"地番":"49-1","精度区分":null,"座標系":"任意座標系"}},{"type":"Polygon","arcs":[[557,558,559,560]],"properties":{"市区町村名":"留萌市","大字名":"元町","丁目名":"５丁目","小字名":null,"地番":"51","精度区分":null,"座標系":"任意座標系"}},{"type":"Polygon","arcs":[[561,562,563,564,-501]],"properties":{"市区町村名":"留萌市","大字名":"元町","丁目名":"５丁目","小字名":null,"地番":"116-2","精度区分":null,"座標系":"任意座標系"}},{"type":"Polygon","arcs":[[565,-502,-565,566,567,568]],"properties":{"市区町村名":"留萌市","大字名":"元町","丁目名":"５丁目","小字名":null,"地番":"115-4","精度区分":null,"座標系":"任意座標系"}},{"type":"Polygon","arcs":[[569,570,571,-562,-500,572]],"properties":{"市区町村名":"留萌市","大字名":"元町","丁目名":"５丁目","小字名":null,"地番":"134-2","精度区分":null,"座標系":"任意座標系"}},{"type":"Polygon","arcs":[[573,574,575,576]],"properties":{"市区町村名":"留萌市","大字名":"元町","丁目名":"５丁目","小字名":null,"地番":"118-2","精度区分":null,"座標系":"任意座標系"}},{"type":"Polygon","arcs":[[577,578,579,580,581,582,-577,583,584,585,586]],"properties":{"市区町村名":"留萌市","大字名":"元町","丁目名":"５丁目","小字名":null,"地番":"118-1","精度区分":null,"座標系":"任意座標系"}},{"type":"Polygon","arcs":[[587,588,589,590]],"properties":{"市区町村名":"留萌市","大字名":"元町","丁目名":"５丁目","小字名":null,"地番":"129","精度区分":null,"座標系":"任意座標系"}},{"type":"Polygon","arcs":[[591,592,593]],"properties":{"市区町村名":"留萌市","大字名":"元町","丁目名":"５丁目","小字名":null,"地番":"132","精度区分":null,"座標系":"任意座標系"}},{"type":"Polygon","arcs":[[594,595,596,597]],"properties":{"市区町村名":"留萌市","大字名":"元町","丁目名":"５丁目","小字名":null,"地番":"148","精度区分":null,"座標系":"任意座標系"}},{"type":"Polygon","arcs":[[598,-576,599,-563,-572]],"properties":{"市区町村名":"留萌市","大字名":"元町","丁目名":"５丁目","小字名":null,"地番":"117","精度区分":null,"座標系":"任意座標系"}},{"type":"Polygon","arcs":[[-571,600,-599]],"properties":{"市区町村名":"留萌市","大字名":"元町","丁目名":"５丁目","小字名":null,"地番":"135-2","精度区分":null,"座標系":"任意座標系"}},{"type":"Polygon","arcs":[[-587,601,602,603]],"properties":{"市区町村名":"留萌市","大字名":"元町","丁目名":"５丁目","小字名":null,"地番":"137","精度区分":null,"座標系":"任意座標系"}},{"type":"Polygon","arcs":[[604,-497,605,606,607,-579]],"properties":{"市区町村名":"留萌市","大字名":"元町","丁目名":"５丁目","小字名":null,"地番":"133-13","精度区分":null,"座標系":"任意座標系"}},{"type":"Polygon","arcs":[[-498,-605,-578,-604,608]],"properties":{"市区町村名":"留萌市","大字名":"元町","丁目名":"５丁目","小字名":null,"地番":"138","精度区分":null,"座標系":"任意座標系"}},{"type":"Polygon","arcs":[[609,610,611,612,613,614,615,616]],"properties":{"市区町村名":"留萌市","大字名":"元町","丁目名":"５丁目","小字名":null,"地番":"133-17","精度区分":null,"座標系":"任意座標系"}},{"type":"Polygon","arcs":[[-610,617,618,619]],"properties":{"市区町村名":"留萌市","大字名":"元町","丁目名":"５丁目","小字名":null,"地番":"142-1","精度区分":null,"座標系":"任意座標系"}},{"type":"Polygon","arcs":[[620,621,-611,-620,622,623]],"properties":{"市区町村名":"留萌市","大字名":"元町","丁目名":"５丁目","小字名":null,"地番":"143","精度区分":null,"座標系":"任意座標系"}},{"type":"Polygon","arcs":[[624,625,-612,-622]],"properties":{"市区町村名":"留萌市","大字名":"元町","丁目名":"５丁目","小字名":null,"地番":"133-19","精度区分":null,"座標系":"任意座標系"}},{"type":"Polygon","arcs":[[626,-624,627,628]],"properties":{"市区町村名":"留萌市","大字名":"元町","丁目名":"５丁目","小字名":null,"地番":"144","精度区分":null,"座標系":"任意座標系"}},{"type":"Polygon","arcs":[[629,630,-580,-608]],"properties":{"市区町村名":"留萌市","大字名":"元町","丁目名":"５丁目","小字名":null,"地番":"133-2","精度区分":null,"座標系":"任意座標系"}},{"type":"Polygon","arcs":[[631,632,-581,-631]],"properties":{"市区町村名":"留萌市","大字名":"元町","丁目名":"５丁目","小字名":null,"地番":"120","精度区分":null,"座標系":"任意座標系"}},{"type":"Polygon","arcs":[[-602,633,634,635]],"properties":{"市区町村名":"留萌市","大字名":"元町","丁目名":"５丁目","小字名":null,"地番":"136","精度区分":null,"座標系":"任意座標系"}},{"type":"Polygon","arcs":[[-635,-584,-601,636,637]],"properties":{"市区町村名":"留萌市","大字名":"元町","丁目名":"５丁目","小字名":null,"地番":"135-1","精度区分":null,"座標系":"任意座標系"}},{"type":"Polygon","arcs":[[-637,-570,638]],"properties":{"市区町村名":"留萌市","大字名":"元町","丁目名":"５丁目","小字名":null,"地番":"134-1","精度区分":null,"座標系":"任意座標系"}},{"type":"Polygon","arcs":[[639,640,-588,641,642]],"properties":{"市区町村名":"留萌市","大字名":"元町","丁目名":"５丁目","小字名":null,"地番":"130","精度区分":null,"座標系":"任意座標系"}},{"type":"Polygon","arcs":[[-594,643,-640,644,645]],"properties":{"市区町村名":"留萌市","大字名":"元町","丁目名":"５丁目","小字名":null,"地番":"131","精度区分":null,"座標系":"任意座標系"}},{"type":"Polygon","arcs":[[-592,-646,646,647,648,649,-613,-626,650,651,652,653,654]],"properties":{"市区町村名":"留萌市","大字名":"元町","丁目名":"５丁目","小字名":null,"地番":"133-1","精度区分":null,"座標系":"任意座標系"}},{"type":"Polygon","arcs":[[-642,-591,655,656,-648,657]],"properties":{"市区町村名":"留萌市","大字名":"元町","丁目名":"５丁目","小字名":null,"地番":"133-4","精度区分":null,"座標系":"任意座標系"}},{"type":"Polygon","arcs":[[-657,658,659,660,-649]],"properties":{"市区町村名":"留萌市","大字名":"元町","丁目名":"５丁目","小字名":null,"地番":"133-5","精度区分":null,"座標系":"任意座標系"}},{"type":"Polygon","arcs":[[-656,-590,661,662,-659]],"properties":{"市区町村名":"留萌市","大字名":"元町","丁目名":"５丁目","小字名":null,"地番":"128","精度区分":null,"座標系":"任意座標系"}},{"type":"Polygon","arcs":[[-658,-647,-645,-643]],"properties":{"市区町村名":"留萌市","大字名":"元町","丁目名":"５丁目","小字名":null,"地番":"133-3","精度区分":null,"座標系":"任意座標系"}},{"type":"Polygon","arcs":[[-625,663,-651]],"properties":{"市区町村名":"留萌市","大字名":"元町","丁目名":"５丁目","小字名":null,"地番":"133-18","精度区分":null,"座標系":"任意座標系"}},{"type":"Polygon","arcs":[[-652,-664,-621,-627,664]],"properties":{"市区町村名":"留萌市","大字名":"元町","丁目名":"５丁目","小字名":null,"地番":"145","精度区分":null,"座標系":"任意座標系"}},{"type":"Polygon","arcs":[[665,-629,666,667]],"properties":{"市区町村名":"留萌市","大字名":"元町","丁目名":"５丁目","小字名":null,"地番":"147-1","精度区分":null,"座標系":"任意座標系"}},{"type":"Polygon","arcs":[[668,-654,669,670]],"properties":{"市区町村名":"留萌市","大字名":"元町","丁目名":"５丁目","小字名":null,"地番":"150","精度区分":null,"座標系":"任意座標系"}},{"type":"Polygon","arcs":[[-595,671,-671,672]],"properties":{"市区町村名":"留萌市","大字名":"元町","丁目名":"５丁目","小字名":null,"地番":"149","精度区分":null,"座標系":"任意座標系"}},{"type":"Polygon","arcs":[[-650,-661,673,674,675,-614]],"properties":{"市区町村名":"留萌市","大字名":"元町","丁目名":"５丁目","小字名":null,"地番":"133-7","精度区分":null,"座標系":"任意座標系"}},{"type":"Polygon","arcs":[[676,677,678,-606,-496,679]],"properties":{"市区町村名":"留萌市","大字名":"元町","丁目名":"５丁目","小字名":null,"地番":"133-14","精度区分":null,"座標系":"任意座標系"}},{"type":"Polygon","arcs":[[680,681,-630,-607,-679]],"properties":{"市区町村名":"留萌市","大字名":"元町","丁目名":"５丁目","小字名":null,"地番":"133-12","精度区分":null,"座標系":"任意座標系"}},{"type":"Polygon","arcs":[[682,683,-632,-682]],"properties":{"市区町村名":"留萌市","大字名":"元町","丁目名":"５丁目","小字名":null,"地番":"121","精度区分":null,"座標系":"任意座標系"}},{"type":"Polygon","arcs":[[684,685,686,687]],"properties":{"市区町村名":"留萌市","大字名":"元町","丁目名":"５丁目","小字名":null,"地番":"125","精度区分":null,"座標系":"任意座標系"}},{"type":"Polygon","arcs":[[-676,-685,688,689,-615]],"properties":{"市区町村名":"留萌市","大字名":"元町","丁目名":"５丁目","小字名":null,"地番":"133-8","精度区分":null,"座標系":"任意座標系"}},{"type":"Polygon","arcs":[[-663,690,691,692]],"properties":{"市区町村名":"留萌市","大字名":"元町","丁目名":"５丁目","小字名":null,"地番":"127","精度区分":null,"座標系":"任意座標系"}},{"type":"Polygon","arcs":[[-693,-674,-660]],"properties":{"市区町村名":"留萌市","大字名":"元町","丁目名":"５丁目","小字名":null,"地番":"133-6","精度区分":null,"座標系":"任意座標系"}},{"type":"Polygon","arcs":[[693,-686,-675,-692]],"properties":{"市区町村名":"留萌市","大字名":"元町","丁目名":"５丁目","小字名":null,"地番":"126","精度区分":null,"座標系":"任意座標系"}},{"type":"Polygon","arcs":[[-616,-690,694,695,696,697,698]],"properties":{"市区町村名":"留萌市","大字名":"元町","丁目名":"５丁目","小字名":null,"地番":"133-16","精度区分":null,"座標系":"任意座標系"}},{"type":"Polygon","arcs":[[-688,699,700,701]],"properties":{"市区町村名":"留萌市","大字名":"元町","丁目名":"５丁目","小字名":null,"地番":"124","精度区分":null,"座標系":"任意座標系"}},{"type":"Polygon","arcs":[[-701,702,703,704]],"properties":{"市区町村名":"留萌市","大字名":"元町","丁目名":"５丁目","小字名":null,"地番":"123","精度区分":null,"座標系":"任意座標系"}},{"type":"Polygon","arcs":[[-704,705,706,707]],"properties":{"市区町村名":"留萌市","大字名":"元町","丁目名":"５丁目","小字名":null,"地番":"122-2","精度区分":null,"座標系":"任意座標系"}},{"type":"Polygon","arcs":[[708,-683,709,-707]],"properties":{"市区町村名":"留萌市","大字名":"元町","丁目名":"５丁目","小字名":null,"地番":"122-1","精度区分":null,"座標系":"任意座標系"}},{"type":"Polygon","arcs":[[710,-708,-710,-681,-678]],"properties":{"市区町村名":"留萌市","大字名":"元町","丁目名":"５丁目","小字名":null,"地番":"133-11","精度区分":null,"座標系":"任意座標系"}},{"type":"Polygon","arcs":[[711,-585]],"properties":{"市区町村名":"留萌市","大字名":"元町","丁目名":"５丁目","小字名":null,"地番":"118-3","精度区分":null,"座標系":"任意座標系"}},{"type":"Polygon","arcs":[[-634,-586,-712]],"properties":{"市区町村名":"留萌市","大字名":"元町","丁目名":"５丁目","小字名":null,"地番":"118-4","精度区分":null,"座標系":"任意座標系"}},{"type":"Polygon","arcs":[[712,-698,713,-495,714]],"properties":{"市区町村名":"留萌市","大字名":"元町","丁目名":"５丁目","小字名":null,"地番":"140","精度区分":null,"座標系":"任意座標系"}},{"type":"Polygon","arcs":[[-697,715,-680,-714]],"properties":{"市区町村名":"留萌市","大字名":"元町","丁目名":"５丁目","小字名":null,"地番":"133-15","精度区分":null,"座標系":"任意座標系"}},{"type":"Polygon","arcs":[[-618,-617,-699,-713,716]],"properties":{"市区町村名":"留萌市","大字名":"元町","丁目名":"５丁目","小字名":null,"地番":"141","精度区分":null,"座標系":"任意座標系"}},{"type":"Polygon","arcs":[[-505,717,-569,718,719]],"properties":{"市区町村名":"留萌市","大字名":"元町","丁目名":"５丁目","小字名":null,"地番":"115-1","精度区分":null,"座標系":"任意座標系"}},{"type":"Polygon","arcs":[[720,721,-719,-568]],"properties":{"市区町村名":"留萌市","大字名":"元町","丁目名":"５丁目","小字名":null,"地番":"115-3","精度区分":null,"座標系":"任意座標系"}},{"type":"Polygon","arcs":[[722,723,-506,-720,-722]],"properties":{"市区町村名":"留萌市","大字名":"元町","丁目名":"５丁目","小字名":null,"地番":"114-4","精度区分":null,"座標系":"任意座標系"}},{"type":"Polygon","arcs":[[-557,724,725]],"properties":{"市区町村名":"留萌市","大字名":"元町","丁目名":"５丁目","小字名":null,"地番":"59","精度区分":null,"座標系":"任意座標系"}},{"type":"Polygon","arcs":[[726,727,728,729]],"properties":{"市区町村名":"留萌市","大字名":"元町","丁目名":"５丁目","小字名":null,"地番":"58-1","精度区分":null,"座標系":"任意座標系"}},{"type":"Polygon","arcs":[[730,731,-727,732]],"properties":{"市区町村名":"留萌市","大字名":"元町","丁目名":"５丁目","小字名":null,"地番":"57-1","精度区分":null,"座標系":"任意座標系"}},{"type":"Polygon","arcs":[[-556,733,-558,734]],"properties":{"市区町村名":"留萌市","大字名":"元町","丁目名":"５丁目","小字名":null,"地番":"50-1","精度区分":null,"座標系":"任意座標系"}},{"type":"Polygon","arcs":[[-560,735,736,737]],"properties":{"市区町村名":"留萌市","大字名":"元町","丁目名":"５丁目","小字名":null,"地番":"52","精度区分":null,"座標系":"任意座標系"}},{"type":"Polygon","arcs":[[-737,738,739,740]],"properties":{"市区町村名":"留萌市","大字名":"元町","丁目名":"５丁目","小字名":null,"地番":"53","精度区分":null,"座標系":"任意座標系"}},{"type":"Polygon","arcs":[[-740,741,742,743,744]],"properties":{"市区町村名":"留萌市","大字名":"元町","丁目名":"５丁目","小字名":null,"地番":"54-1","精度区分":null,"座標系":"任意座標系"}},{"type":"Polygon","arcs":[[-744,745,746,747,748]],"properties":{"市区町村名":"留萌市","大字名":"元町","丁目名":"５丁目","小字名":null,"地番":"55","精度区分":null,"座標系":"任意座標系"}},{"type":"Polygon","arcs":[[749,-746,-743]],"properties":{"市区町村名":"留萌市","大字名":"元町","丁目名":"５丁目","小字名":null,"地番":"54-2","精度区分":null,"座標系":"任意座標系"}},{"type":"Polygon","arcs":[[-748,750,-731,751]],"properties":{"市区町村名":"留萌市","大字名":"元町","丁目名":"５丁目","小字名":null,"地番":"56-1","精度区分":null,"座標系":"任意座標系"}},{"type":"Polygon","arcs":[[752,-574,-583]],"properties":{"市区町村名":"留萌市","大字名":"元町","丁目名":"５丁目","小字名":null,"地番":"119-2","精度区分":null,"座標系":"任意座標系"}},{"type":"Polygon","arcs":[[753,754]],"properties":{"市区町村名":"留萌市","大字名":"元町","丁目名":"５丁目","小字名":null,"地番":"30","精度区分":null,"座標系":"任意座標系"}},{"type":"Polygon","arcs":[[755,756,757]],"properties":{"市区町村名":"留萌市","大字名":"元町","丁目名":"５丁目","小字名":null,"地番":"29","精度区分":null,"座標系":"任意座標系"}},{"type":"Polygon","arcs":[[758,759,760]],"properties":{"市区町村名":"留萌市","大字名":"元町","丁目名":"５丁目","小字名":null,"地番":"26","精度区分":null,"座標系":"任意座標系"}},{"type":"Polygon","arcs":[[761,762,763,-759]],"properties":{"市区町村名":"留萌市","大字名":"元町","丁目名":"５丁目","小字名":null,"地番":"27","精度区分":null,"座標系":"任意座標系"}},{"type":"Polygon","arcs":[[-763,764,-758,765]],"properties":{"市区町村名":"留萌市","大字名":"元町","丁目名":"５丁目","小字名":null,"地番":"28","精度区分":null,"座標系":"任意座標系"}},{"type":"Polygon","arcs":[[766,767,768,769]],"properties":{"市区町村名":"留萌市","大字名":"元町","丁目名":"５丁目","小字名":null,"地番":"157-1","精度区分":null,"座標系":"任意座標系"}},{"type":"Polygon","arcs":[[770,771,772,-768]],"properties":{"市区町村名":"留萌市","大字名":"元町","丁目名":"５丁目","小字名":null,"地番":"157-2","精度区分":null,"座標系":"任意座標系"}},{"type":"Polygon","arcs":[[773,774]],"properties":{"市区町村名":"留萌市","大字名":"元町","丁目名":"５丁目","小字名":null,"地番":"152-1","精度区分":null,"座標系":"任意座標系"}},{"type":"Polygon","arcs":[[775,776,777]],"properties":{"市区町村名":"留萌市","大字名":"元町","丁目名":"５丁目","小字名":null,"地番":"151-2","精度区分":null,"座標系":"任意座標系"}},{"type":"Polygon","arcs":[[-775,778,-776,779,780,781,782,783]],"properties":{"市区町村名":"留萌市","大字名":"元町","丁目名":"５丁目","小字名":null,"地番":"152-2","精度区分":null,"座標系":"任意座標系"}},{"type":"Polygon","arcs":[[784,-494,785]],"properties":{"市区町村名":"留萌市","大字名":"元町","丁目名":"５丁目","小字名":null,"地番":"151-6","精度区分":null,"座標系":"任意座標系"}},{"type":"Polygon","arcs":[[786,787,788,-492]],"properties":{"市区町村名":"留萌市","大字名":"元町","丁目名":"５丁目","小字名":null,"地番":"151-4","精度区分":null,"座標系":"任意座標系"}},{"type":"Polygon","arcs":[[-780,-778,789,-788,790]],"properties":{"市区町村名":"留萌市","大字名":"元町","丁目名":"５丁目","小字名":null,"地番":"151-3","精度区分":null,"座標系":"任意座標系"}},{"type":"Polygon","arcs":[[791,-781,-791,-787,-491]],"properties":{"市区町村名":"留萌市","大字名":"元町","丁目名":"５丁目","小字名":null,"地番":"151-5","精度区分":null,"座標系":"任意座標系"}},{"type":"Polygon","arcs":[[-773,792,793,794,795,-769]],"properties":{"市区町村名":"留萌市","大字名":"元町","丁目名":"５丁目","小字名":null,"地番":"158","精度区分":null,"座標系":"任意座標系"}},{"type":"Polygon","arcs":[[796,-486,797,-795]],"properties":{"市区町村名":"留萌市","大字名":"元町","丁目名":"５丁目","小字名":null,"地番":"160-2","精度区分":null,"座標系":"任意座標系"}},{"type":"Polygon","arcs":[[-794,798,799,-487,-797]],"properties":{"市区町村名":"留萌市","大字名":"元町","丁目名":"５丁目","小字名":null,"地番":"159","精度区分":null,"座標系":"任意座標系"}},{"type":"Polygon","arcs":[[800,801,802,-799]],"properties":{"市区町村名":"留萌市","大字名":"元町","丁目名":"５丁目","小字名":null,"地番":"155","精度区分":null,"座標系":"任意座標系"}},{"type":"Polygon","arcs":[[-772,803,804,805,-801,-793]],"properties":{"市区町村名":"留萌市","大字名":"元町","丁目名":"５丁目","小字名":null,"地番":"156","精度区分":null,"座標系":"任意座標系"}},{"type":"Polygon","arcs":[[806,-782,-792,-490,-785,807,-802]],"properties":{"市区町村名":"留萌市","大字名":"元町","丁目名":"５丁目","小字名":null,"地番":"154","精度区分":null,"座標系":"任意座標系"}},{"type":"Polygon","arcs":[[-783,-807,-806,808]],"properties":{"市区町村名":"留萌市","大字名":"元町","丁目名":"５丁目","小字名":null,"地番":"153-2","精度区分":null,"座標系":"任意座標系"}},{"type":"Polygon","arcs":[[809,-784,-809,-805]],"properties":{"市区町村名":"留萌市","大字名":"元町","丁目名":"５丁目","小字名":null,"地番":"153-1","精度区分":null,"座標系":"任意座標系"}},{"type":"Polygon","arcs":[[810,-733,811,812]],"properties":{"市区町村名":"留萌市","大字名":"元町","丁目名":"５丁目","小字名":null,"地番":"77-2","精度区分":null,"座標系":"任意座標系"}},{"type":"Polygon","arcs":[[813,-752,-811,814]],"properties":{"市区町村名":"留萌市","大字名":"元町","丁目名":"５丁目","小字名":null,"地番":"75-2","精度区分":null,"座標系":"任意座標系"}},{"type":"Polygon","arcs":[[815,-749,-814,816]],"properties":{"市区町村名":"留萌市","大字名":"元町","丁目名":"５丁目","小字名":null,"地番":"65","精度区分":null,"座標系":"任意座標系"}},{"type":"Polygon","arcs":[[817,-745,-816,818]],"properties":{"市区町村名":"留萌市","大字名":"元町","丁目名":"５丁目","小字名":null,"地番":"64","精度区分":null,"座標系":"任意座標系"}},{"type":"Polygon","arcs":[[819,-741,-818,820]],"properties":{"市区町村名":"留萌市","大字名":"元町","丁目名":"５丁目","小字名":null,"地番":"63","精度区分":null,"座標系":"任意座標系"}},{"type":"Polygon","arcs":[[821,-738,-820,822]],"properties":{"市区町村名":"留萌市","大字名":"元町","丁目名":"５丁目","小字名":null,"地番":"62","精度区分":null,"座標系":"任意座標系"}},{"type":"Polygon","arcs":[[823,-561,-822,824]],"properties":{"市区町村名":"留萌市","大字名":"元町","丁目名":"５丁目","小字名":null,"地番":"61","精度区分":null,"座標系":"任意座標系"}},{"type":"Polygon","arcs":[[-725,-735,-824,825]],"properties":{"市区町村名":"留萌市","大字名":"元町","丁目名":"５丁目","小字名":null,"地番":"60","精度区分":null,"座標系":"任意座標系"}},{"type":"Polygon","arcs":[[826,-705,-711,-677,-716,-696]],"properties":{"市区町村名":"留萌市","大字名":"元町","丁目名":"５丁目","小字名":null,"地番":"133-10","精度区分":null,"座標系":"任意座標系"}},{"type":"Polygon","arcs":[[-689,-702,-827,-695]],"properties":{"市区町村名":"留萌市","大字名":"元町","丁目名":"５丁目","小字名":null,"地番":"133-9","精度区分":null,"座標系":"任意座標系"}},{"type":"Polygon","arcs":[[-724,827,828,829,-729,830,-507]],"properties":{"市区町村名":"留萌市","大字名":"元町","丁目名":"５丁目","小字名":null,"地番":"113-2","精度区分":null,"座標系":"任意座標系"}},{"type":"Polygon","arcs":[[-829,831,832]],"properties":{"市区町村名":"留萌市","大字名":"元町","丁目名":"５丁目","小字名":null,"地番":"113-1","精度区分":null,"座標系":"任意座標系"}},{"type":"Polygon","arcs":[[833,-517,-513,-521,-523,-527,-529,-512,-530,-528,-524,-522,-515,-519,-483,-510,834,-508,-831,-728,-732,-751,-747,-750,-742,-739,-736,-559,-734,-555,-726,-826,-825,-823,-821,-819,-817,-815,-813,835,-832,-828,-723,-721,-567,-564,-600,-575,-753,-582,-633,-684,-709,-706,-703,-700,-687,-694,-691,-662,-589,-641,-644,-593,-655,-669,-672,-598,836,-2,-493,-789,-790,-777,-779,-774,-810,-804,-771,-767,837,-760,-764,-766,-757,838,-755,839,-543,-539,-535,-554,-551,-549,-533,-548,-553,-544,-840,-754,-839,-756,-765,-762,-761,-838,-770,-796,-798,-489,840,-208]],"properties":{"市区町村名":"留萌市","大字名":"元町","丁目名":"５丁目","小字名":null,"地番":"161-1","精度区分":null,"座標系":"任意座標系"}},{"type":"Polygon","arcs":[[-812,-730,-830,-833,-836]],"properties":{"市区町村名":"留萌市","大字名":"元町","丁目名":"５丁目","小字名":null,"地番":"106","精度区分":null,"座標系":"任意座標系"}},{"type":"Polygon","arcs":[[-668,841,842,843]],"properties":{"市区町村名":"留萌市","大字名":"元町","丁目名":"５丁目","小字名":null,"地番":"147-3","精度区分":null,"座標系":"任意座標系"}},{"type":"Polygon","arcs":[[-843,844,-596,-673,845]],"properties":{"市区町村名":"留萌市","大字名":"元町","丁目名":"５丁目","小字名":null,"地番":"147-2","精度区分":null,"座標系":"任意座標系"}},{"type":"Polygon","arcs":[[-653,-665,-666,-844,-846,-670]],"properties":{"市区町村名":"留萌市","大字名":"元町","丁目名":"５丁目","小字名":null,"地番":"146","精度区分":null,"座標系":"任意座標系"}}]}},"arcs":[[[418400,681848],[-3069,6457],[-937,9722],[-4569,4308]],[[409825,702335],[5450,-728]],[[415275,701607],[945,-133],[-552,-3943],[7362,-14533],[-4630,-1150]],[[456782,40791],[-17323,37113]],[[439459,77904],[-10552,22609]],[[428907,100513],[-9291,19905]],[[419616,120418],[34909,5089]],[[454525,125507],[6867,-14694]],[[461392,110813],[9867,-21114]],[[471259,89699],[9835,-21044]],[[481094,68655],[4666,-9980],[5494,-2926],[23578,-2995]],[[514832,52754],[27367,-3478]],[[542199,49276],[26950,-3426]],[[569149,45850],[14577,-1852]],[[583726,43998],[38859,-4942]],[[622585,39056],[36168,-4654]],[[658753,34402],[36916,-4750]],[[695669,29652],[37628,-4843]],[[733297,24809],[40744,-5196]],[[774041,19613],[22551,-2897]],[[796592,16716],[1749,-225],[20846,5120]],[[819187,21611],[22170,5446]],[[841357,27057],[22280,5470]],[[863637,32527],[32326,7940],[1788,9767],[-52132,21761]],[[845619,71995],[-25189,10515]],[[820430,82510],[-9550,3986]],[[810880,86496],[-5291,2208]],[[805589,88704],[-8670,3510],[-20184,9591],[-4617,2413]],[[772118,104218],[-14840,7759],[-18651,11139],[-3634,2596],[-11131,-5676],[11824,-25144]],[[735686,94892],[9828,-20899]],[[745514,73993],[11236,-23897]],[[756750,50096],[12793,-27205],[4498,-3278]],[[733297,24809],[8237,7575],[-14150,30635]],[[727384,63019],[-7897,16545]],[[719487,79564],[-10102,21167]],[[709385,100731],[-9801,20894]],[[699584,121625],[-10000,21314]],[[689584,142939],[-9894,21090]],[[679690,164029],[-6768,14425],[-12139,4527],[-26805,-6541]],[[633978,176440],[-35749,-8725]],[[598229,167715],[-30395,-7416],[-3169,-4386],[8472,-18100]],[[573137,137813],[9818,-20978]],[[582955,116835],[9915,-21189]],[[592870,95646],[2091,-4482]],[[594961,91164],[7740,-16603]],[[602701,74561],[8486,-18201]],[[611187,56360],[1376,-2949]],[[612563,53411],[5262,-11284],[4760,-3071]],[[583726,43998],[8866,7047],[-8714,18834]],[[583878,69879],[-9791,21168]],[[574087,91047],[-9981,21175]],[[564106,112222],[-9894,20989]],[[554212,133211],[-8582,18209],[-6301,1890],[-23748,-5823]],[[515581,147487],[-37391,-9169]],[[478190,138318],[-17864,-4380],[-5801,-8431]],[[419616,120418],[-11962,4002],[-40019,-9772]],[[367635,114648],[-32820,-8016]],[[334815,106632],[-20870,-5097]],[[313945,101535],[-1616,-394]],[[312329,101141],[-112222,-27406]],[[200107,73735],[-4287,8838],[112502,27532]],[[308322,110105],[340791,83164]],[[649113,193269],[255421,62263],[-8852,-15852]],[[895682,239680],[-22161,-5357]],[[873521,234323],[-25216,-6094]],[[848305,228229],[-52922,-12791]],[[795383,215438],[-36671,-8864]],[[758712,206574],[-30124,-7280],[-4310,-9057],[13579,-12319]],[[737857,177918],[22931,-17905]],[[760788,160013],[26826,-17131]],[[787614,142882],[35899,-17581],[6931,-2961]],[[830444,122340],[38186,-16310]],[[868630,106030],[38457,-16010]],[[907087,90020],[46509,-19703],[7064,-919],[13690,3392],[3449,4288],[-12866,27079]],[[964933,104157],[-10743,22612]],[[954190,126769],[-10931,23004]],[[943259,149773],[-10692,22504]],[[932567,172277],[-10960,23069]],[[921607,195346],[-10644,22472]],[[910963,217818],[-9445,19946],[-5836,1916]],[[895682,239680],[8852,15852],[95465,-201443],[-221944,-54089],[-22907,2909],[-298366,37882]],[[332855,56696],[-132748,17039]],[[312329,101141],[11996,-25978]],[[324325,75163],[8530,-18467]],[[379762,88599],[-12127,26049]],[[428907,100513],[-49145,-11914]],[[456782,40791],[-29525,3789]],[[427257,44580],[-38496,21050]],[[388761,65630],[1524,369]],[[390285,65999],[49174,11905]],[[313945,101535],[23956,-20952],[2369,-1556]],[[340270,79027],[-15945,-3864]],[[390285,65999],[-10523,22600]],[[388761,65630],[-28110,18338]],[[360651,83968],[19111,4631]],[[368386,60564],[-22350,-5559]],[[346036,55005],[-13181,1691]],[[340270,79027],[28116,-18463]],[[368386,60564],[16351,-10526]],[[384737,50038],[-38701,4967]],[[334815,106632],[18946,-18171],[6890,-4493]],[[360651,83968],[-20381,-4941]],[[388761,65630],[-20375,-5066]],[[427257,44580],[-42520,5458]],[[481094,68655],[23765,5722]],[[504859,74377],[9973,-21623]],[[478190,138318],[9993,-21040]],[[488183,117278],[-26791,-6465]],[[525579,126302],[-9998,21185]],[[554212,133211],[-28633,-6909]],[[471259,89699],[92847,22523]],[[574087,91047],[-23596,-5683]],[[550491,85364],[-22766,-5480]],[[527725,79884],[-22866,-5507]],[[569149,45850],[-8650,18322]],[[560499,64172],[23379,5707]],[[488183,117278],[37396,9024]],[[527725,79884],[14474,-30608]],[[550491,85364],[10008,-21192]],[[612563,53411],[33442,8180]],[[646005,61591],[12748,-27189]],[[592870,95646],[58101,14146]],[[650971,109792],[9569,-21043]],[[660540,88749],[-16308,-4000]],[[644232,84749],[-4293,-1053]],[[639939,83696],[-7737,16344],[-37241,-8876]],[[598229,167715],[10533,-21136]],[[608762,146579],[-35625,-8766]],[[644203,155298],[-10225,21142]],[[679690,164029],[-35487,-8731]],[[650971,109792],[15587,3794]],[[666558,113586],[33026,8039]],[[709385,100731],[-48845,-11982]],[[685024,52576],[-7739,16667]],[[677285,69243],[42202,10321]],[[727384,63019],[-42360,-10443]],[[695669,29652],[-10645,22924]],[[645579,132166],[-9700,21085]],[[635879,153251],[8324,2047]],[[689584,142939],[-32973,-8072]],[[656611,134867],[-11032,-2701]],[[635879,153251],[-27117,-6672]],[[666558,113586],[-9947,21281]],[[645579,132166],[-62624,-15331]],[[654111,63574],[-9879,21175]],[[677285,69243],[-23174,-5669]],[[639939,83696],[-16400,-4023]],[[623539,79673],[-20838,-5112]],[[611187,56360],[20669,4990],[-8317,18323]],[[654111,63574],[-8106,-1983]],[[907087,90020],[18103,4424]],[[925190,94444],[39743,9713]],[[787614,142882],[37399,9216]],[[825013,152098],[2437,-5207]],[[827450,146891],[10618,-22697]],[[838068,124194],[-7624,-1854]],[[760788,160013],[54358,13178]],[[815146,173191],[1548,-3306]],[[816694,169885],[8319,-17787]],[[737857,177918],[30666,7521]],[[768523,185439],[36686,8997]],[[805209,194436],[921,-1971]],[[806130,192465],[9016,-19274]],[[758712,206574],[9811,-21135]],[[884500,211419],[-10979,22904]],[[910963,217818],[-26463,-6399]],[[806130,192465],[53115,12847]],[[859245,205312],[25255,6107]],[[921607,195346],[-104913,-25461]],[[868630,106030],[14501,3516]],[[883131,109546],[18815,4560]],[[901946,114106],[12575,3048]],[[914521,117154],[10669,-22710]],[[932683,121555],[-10834,23011]],[[921849,144566],[21410,5207]],[[954190,126769],[-21507,-5214]],[[827450,146891],[105117,25386]],[[921849,144566],[-17454,-4244]],[[904395,140322],[-13166,-3202]],[[891229,137120],[-18878,-4589]],[[872351,132531],[-34283,-8337]],[[914521,117154],[667,162]],[[915188,117316],[17495,4239]],[[915188,117316],[-10793,23006]],[[901946,114106],[-10717,23014]],[[883131,109546],[-10780,22985]],[[805209,194436],[-9826,21002]],[[848305,228229],[10940,-22917]],[[756750,50096],[21901,5397]],[[778651,55493],[17941,-38777]],[[772118,104218],[-36432,-9326]],[[805589,88704],[-34513,-8451]],[[771076,80253],[-25562,-6260]],[[863637,32527],[-18018,39468]],[[778651,55493],[3549,874]],[[782200,56367],[18850,4645]],[[801050,61012],[18137,-39401]],[[782200,56367],[-11124,23886]],[[810880,86496],[-11950,-3229],[2655,-5814]],[[801585,77453],[6693,-14659]],[[808278,62794],[-7228,-1782]],[[823135,66455],[22484,5540]],[[841357,27057],[-18222,39398]],[[801585,77453],[18845,5057]],[[823135,66455],[-14857,-3661]],[[227259,311502],[-11737,-2859]],[[215522,308643],[-92830,197410]],[[122692,506053],[340180,83009]],[[462872,589062],[7207,-15196]],[[470079,573866],[-11967,4319],[-23127,-5641]],[[434985,572544],[-30243,-7509]],[[404742,565035],[-25867,-6420],[-3353,-4321]],[[375522,554294],[-18767,-4662]],[[356755,549632],[-6279,2203],[-40431,-9898]],[[310045,541937],[-36573,-9085],[-6092,-8472],[7161,-15212]],[[274541,509168],[9719,-21008]],[[284260,488160],[10010,-21630]],[[294270,466530],[9903,-21189]],[[304173,445341],[8212,-17572]],[[312385,427769],[1575,-3375]],[[313960,424394],[9927,-21278]],[[323887,403116],[10061,-21359]],[[333948,381757],[7017,-14899],[11657,-4468],[9991,2426]],[[362613,364816],[48161,11685]],[[410774,376501],[20705,5018],[2924,4458],[-8558,18043]],[[425845,404020],[-1684,3065]],[[424161,407085],[-8740,18319]],[[415421,425404],[-9993,21356]],[[405428,446760],[-9785,21079]],[[395643,467839],[-10106,21003]],[[385537,488842],[-10136,21485]],[[375401,510327],[-10007,21118]],[[365394,531445],[-8639,18187]],[[375522,554294],[8668,-18159]],[[384190,536135],[10124,-21211]],[[394314,514924],[8493,-17970]],[[402807,496954],[1705,-3611]],[[404512,493343],[9833,-20984]],[[414345,472359],[8830,-17999]],[[423175,454360],[1381,-2815]],[[424556,451545],[9978,-21508]],[[434534,430037],[9971,-21292]],[[444505,408745],[8498,-17865],[5557,-2622],[75427,18613],[9288,12520]],[[543275,419391],[13103,-27520]],[[556378,391871],[-236651,-57692]],[[319727,334179],[-11741,24258],[-7239,15291],[-10041,21341],[-9954,21145],[-9830,21149],[-9855,21140],[-8888,18685]],[[252179,477188],[-1248,2649]],[[250931,479837],[-9942,21122]],[[240989,500959],[-7088,15060],[-11499,4501],[-32898,-8011]],[[189504,512509],[-47699,-11619],[-1659,-3259],[8975,-19147]],[[149121,478484],[9913,-21116]],[[159034,457368],[1315,-2802]],[[160349,454566],[8760,-18826],[9913,-21074],[9857,-21107],[10012,-21405],[9959,-21111],[8915,-19302],[9494,-20239]],[[445091,551146],[-10106,21398]],[[470079,573866],[7059,-14751]],[[477138,559115],[-32047,-7969]],[[441249,526351],[-9992,21355]],[[431257,547706],[13834,3440]],[[477138,559115],[10078,-21384]],[[487216,537731],[-45967,-11380]],[[451109,504895],[-9860,21456]],[[487216,537731],[10044,-21316]],[[497260,516415],[-46151,-11520]],[[404512,493343],[46597,11552]],[[497260,516415],[9825,-21212]],[[507085,495203],[-24879,-6133]],[[482206,489070],[-21269,-5243]],[[460937,483827],[-21228,-5225]],[[439709,478602],[-25364,-6243]],[[470746,462819],[-9809,21008]],[[482206,489070],[8520,-18139],[25187,6100]],[[515913,477031],[1373,-2832]],[[517286,474199],[-46540,-11380]],[[480765,441459],[-10019,21360]],[[517286,474199],[9981,-21372]],[[527267,452827],[-46502,-11368]],[[469588,414791],[-10049,21224]],[[459539,436015],[21226,5444]],[[527267,452827],[10136,-21358]],[[537403,431469],[-67815,-16678]],[[444505,408745],[25083,6046]],[[537403,431469],[5872,-12078]],[[308322,110105],[-92800,198538]],[[227259,311502],[9711,-20128],[9305,-19587],[10209,-21485],[10118,-21841],[20269,-43123]],[[286871,185338],[1221,-2596]],[[288092,182742],[8820,-18889]],[[296912,163853],[10112,-21770]],[[307024,142083],[8929,-19218],[2498,-218],[35199,8816]],[[353650,131463],[48789,11583],[3893,6026],[-7193,15433]],[[399139,164505],[-10087,21649]],[[389052,186154],[-8912,19147]],[[380140,205301],[-1209,2562]],[[378931,207863],[-10332,21911],[-10041,21694],[-9957,21437],[-10133,21376],[-7316,15507],[-11425,24391]],[[556378,391871],[12769,-27422]],[[569147,364449],[-18624,6472],[-41187,-10045]],[[509336,360876],[-16563,-4178]],[[492773,356698],[-16807,-4169],[-2694,-4724]],[[473272,347805],[-18949,-4550]],[[454323,343255],[-5898,2412],[-46326,-11333]],[[402099,334334],[-31957,-7933],[-5981,-8788],[7083,-14615]],[[371244,302998],[9906,-21027]],[[381150,281971],[10039,-21421]],[[391189,260550],[10145,-21644]],[[401334,238906],[9898,-21077]],[[411232,217829],[9932,-21194]],[[421164,196635],[9988,-21322]],[[431152,175313],[6900,-14648],[11804,-4802],[16514,4035]],[[466370,159898],[44419,10855]],[[510789,170753],[18426,4632],[3059,4078],[-9011,18382]],[[523263,197845],[-10022,21285]],[[513241,219130],[-9971,21243]],[[503270,240373],[-1500,3194]],[[501770,243567],[-8403,18028]],[[493367,261595],[-10487,21717]],[[482880,283312],[-10058,21196]],[[472822,304508],[-1614,3416]],[[471208,307924],[-8314,17513]],[[462894,325437],[-8571,17818]],[[473272,347805],[8479,-17851]],[[481751,329954],[9968,-20862]],[[491719,309092],[10046,-21434]],[[501765,287658],[10173,-21311]],[[511938,266347],[8568,-18110]],[[520506,248237],[1490,-3147]],[[521996,245090],[10232,-21487]],[[532228,223603],[10000,-20996]],[[542228,202607],[8479,-18285],[5984,-2342],[27420,6828]],[[584111,188808],[2524,628]],[[586635,189436],[25487,6302]],[[612122,195738],[23472,5802],[5969,8616]],[[641563,210156],[7550,-16887]],[[519510,339368],[-10174,21508]],[[569147,364449],[5451,-11519]],[[574598,352930],[-46272,-11365]],[[528326,341565],[-8816,-2197]],[[558403,277732],[23188,5740]],[[581591,283472],[7953,-18067],[23312,5810]],[[612856,271215],[1529,-3264]],[[614385,267951],[-35371,-8731]],[[579014,259220],[-10494,-2602]],[[568520,256618],[-10117,21114]],[[612122,195738],[-10102,21555]],[[602020,217293],[32418,8013]],[[634438,225306],[7125,-15150]],[[199696,490856],[-10192,21653]],[[240989,500959],[-41293,-10103]],[[159034,457368],[45337,11009],[46560,11460]],[[252179,477188],[-91830,-22622]],[[319727,334179],[-92468,-22677]],[[378931,207863],[-92060,-22525]],[[380140,205301],[-92048,-22559]],[[389052,186154],[-92140,-22301]],[[353650,131463],[-9274,19728]],[[344376,151191],[54763,13314]],[[307024,142083],[37352,9108]],[[149121,478484],[50575,12372]],[[402099,334334],[10131,-21189]],[[412230,313145],[-11943,-2865]],[[400287,310280],[-29043,-7282]],[[462894,325437],[-24796,-6091]],[[438098,319346],[-8629,-2068]],[[429469,317278],[-14886,-3570]],[[414583,313708],[-2353,-563]],[[446356,301659],[-8258,17687]],[[471208,307924],[-24852,-6265]],[[447882,298385],[-1526,3274]],[[472822,304508],[-24940,-6123]],[[449629,275060],[-10017,21294]],[[439612,296354],[8270,2031]],[[482880,283312],[-33251,-8252]],[[437126,272021],[12503,3039]],[[493367,261595],[-25029,-6056]],[[468338,255539],[-20766,-5026]],[[447572,250513],[-10446,21508]],[[501770,243567],[-24973,-6206],[-8459,18178]],[[467562,208095],[-9963,21185]],[[457599,229280],[45671,11093]],[[513241,219130],[-45679,-11035]],[[421164,196635],[46398,11460]],[[523263,197845],[-22825,-5622]],[[500438,192223],[-44358,-10723]],[[456080,181500],[-24928,-6187]],[[510789,170753],[-10351,21470]],[[456080,181500],[10290,-21602]],[[411232,217829],[46367,11451]],[[401334,238906],[46238,11607]],[[447572,250513],[10027,-21233]],[[381150,281971],[29053,7270]],[[410203,289241],[10269,-21267]],[[420472,267974],[-29283,-7424]],[[400287,310280],[9916,-21039]],[[439612,296354],[-10143,20924]],[[410203,289241],[14341,3468]],[[424544,292709],[15068,3645]],[[437126,272021],[-16654,-4047]],[[424544,292709],[-9961,20999]],[[492773,356698],[10213,-21450]],[[502986,335248],[-21235,-5294]],[[519510,339368],[-16524,-4120]],[[528326,341565],[10109,-20970]],[[538435,320595],[-46716,-11503]],[[538435,320595],[4244,1046]],[[542679,321641],[10153,-21341]],[[552832,300300],[-51067,-12642]],[[552832,300300],[41586,10296]],[[594418,310596],[10078,-21521]],[[604496,289075],[-22905,-5603]],[[558403,277732],[-22677,-5558]],[[535726,272174],[-23788,-5827]],[[520506,248237],[23692,5854],[-8472,18083]],[[568520,256618],[-46524,-11528]],[[532228,223603],[53627,13392]],[[585855,236995],[9920,-21213]],[[595775,215782],[-19426,-4705]],[[576349,211077],[-2258,-560]],[[574091,210517],[-31863,-7910]],[[574091,210517],[10020,-21709]],[[576349,211077],[10286,-21641]],[[595775,215782],[6245,1511]],[[585855,236995],[3154,786]],[[589009,237781],[35487,8669]],[[624496,246450],[9942,-21144]],[[579014,259220],[9995,-21439]],[[614385,267951],[10111,-21501]],[[604496,289075],[8360,-17860]],[[542679,321641],[41805,10177]],[[584484,331818],[9934,-21222]],[[574598,352930],[9886,-21112]],[[310045,541937],[10182,-21543]],[[320227,520394],[-16728,-4110]],[[303499,516284],[-28958,-7116]],[[365394,531445],[-45167,-11051]],[[375401,510327],[-45124,-10881]],[[330277,499446],[-16814,-4053]],[[313463,495393],[-9964,20891]],[[385537,488842],[-29053,-7033]],[[356484,481809],[-14843,-3594]],[[341641,478215],[-1298,-314]],[[340343,477901],[-10066,21545]],[[366404,460622],[-9920,21187]],[[395643,467839],[-29239,-7217]],[[358386,439072],[-8356,17511]],[[350030,456583],[1546,379]],[[351576,456962],[14828,3660]],[[405428,446760],[-45371,-11043]],[[360057,435717],[-1671,3355]],[[359556,435595],[501,122]],[[415421,425404],[-26941,-6544]],[[388480,418860],[-18869,-4585]],[[369611,414275],[-10055,21320]],[[424161,407085],[-27221,-6734],[-8460,18509]],[[371343,390816],[-10220,21387]],[[361123,412203],[8488,2072]],[[425845,404020],[-24983,-6053]],[[400862,397967],[-29519,-7151]],[[410774,376501],[-9912,21466]],[[333948,381757],[18582,4502]],[[352530,386259],[10083,-21443]],[[323887,403116],[37236,9087]],[[371343,390816],[-18813,-4557]],[[312385,427769],[46001,11303]],[[359556,435595],[-45596,-11201]],[[294270,466530],[32977,8138]],[[327247,474668],[10010,-21217]],[[337257,453451],[-33084,-8110]],[[313463,495393],[-29203,-7233]],[[340343,477901],[-13096,-3233]],[[341641,478215],[9935,-21253]],[[350030,456583],[-12773,-3132]],[[414473,543580],[-9731,21455]],[[431257,547706],[-16784,-4126]],[[414473,543580],[-30283,-7445]],[[441249,526351],[-21686,-5291]],[[419563,521060],[-25249,-6136]],[[402807,496954],[25017,6023],[-8261,18083]],[[423175,454360],[25049,6016],[-8515,18226]],[[470746,462819],[-46190,-11274]],[[459539,436015],[-25005,-5978]],[[507085,495203],[8828,-18172]],[[117098,763832],[-69319,-16934]],[[47779,746898],[14716,15632],[-62495,26969],[80509,30812],[10659,-3345],[25930,-53134]],[[47779,746898],[24242,-8802],[66303,-24855],[4923,-3766]],[[143247,709475],[15753,-34280]],[[159000,675195],[-2800,-3596],[-100318,-24716]],[[55882,646883],[-34264,72230],[26161,27785]],[[426911,590791],[-9773,20687]],[[417138,611478],[31001,7797]],[[448139,619275],[6933,-14910]],[[455072,604365],[-5826,-8189],[-22335,-5385]],[[401109,677443],[-38055,4914]],[[363054,682357],[257,1123]],[[363311,683480],[5472,24061]],[[368783,707541],[41042,-5206]],[[418400,681848],[-17291,-4405]],[[452424,852533],[-41170,5029]],[[411254,857562],[4973,20240]],[[416227,877802],[4392,-464]],[[420619,877338],[36793,-4541]],[[457412,872797],[-4988,-20264]],[[475632,951241],[-2573,4772],[-30313,14104]],[[442746,970117],[-17100,7955]],[[425646,978072],[-35223,16662]],[[390423,994734],[21020,5265],[68040,-32168],[-3851,-16590]],[[321530,953265],[-10330,11891],[10284,12315],[28452,7125]],[[349936,984596],[10698,-21960]],[[360634,962636],[-25037,-5946]],[[335597,956690],[-13621,-3235]],[[321976,953455],[-446,-190]],[[117098,763832],[9552,-19574]],[[126650,744258],[16597,-34783]],[[117903,543850],[92025,22326]],[[209928,566176],[9198,-19599],[-5908,-8070],[-80020,-19606],[-4011,858],[-11284,24091]],[[86008,611942],[-11153,23808],[2025,2952]],[[76880,638702],[84441,20706],[6054,-2438]],[[167375,656970],[10504,-22451]],[[177879,634519],[-91871,-22577]],[[76880,638702],[-15279,-3876]],[[61601,634826],[-5719,12057]],[[159000,675195],[8375,-18225]],[[188535,611747],[-91970,-22344]],[[96565,589403],[-10557,22539]],[[177879,634519],[10656,-22772]],[[107321,566441],[-10756,22962]],[[188535,611747],[10657,-22698]],[[199192,589049],[-91871,-22608]],[[204887,576911],[-91900,-22569]],[[112987,554342],[-5666,12099]],[[199192,589049],[5695,-12138]],[[117903,543850],[-4916,10492]],[[204887,576911],[5041,-10735]],[[169499,770767],[30381,-13333]],[[199880,757434],[-11340,-13392]],[[188540,744042],[-18799,-4611],[-4673,951],[-6504,13952],[1117,4780],[9818,11653]],[[225168,788019],[-29811,13443]],[[195357,801462],[8883,10545],[5080,1553],[26979,-11903]],[[236299,801657],[-11131,-13638]],[[208833,768009],[8893,10893]],[[217726,778902],[7442,9117]],[[236299,801657],[16701,-7367],[3275,-2440],[5419,-11631]],[[261694,780219],[-22740,-5573]],[[238954,774646],[-23786,-5493]],[[215168,769153],[-6335,-1144]],[[261694,780219],[6573,-14109],[-1590,-2905]],[[266677,763205],[-20097,-4930]],[[246580,758275],[-7626,16371]],[[199880,757434],[8953,10575]],[[215168,769153],[7539,-16732]],[[222707,752421],[-34167,-8379]],[[169499,770767],[8818,10469]],[[178317,781236],[30516,-13227]],[[178317,781236],[9249,10979]],[[187566,792215],[30160,-13313]],[[246580,758275],[-23873,-5854]],[[187566,792215],[7791,9247]],[[237191,815906],[-18304,7969],[-1655,4844],[4499,5326]],[[221731,834045],[22504,-9769]],[[244235,824276],[-7044,-8370]],[[254563,836545],[-22392,9860]],[[232171,846405],[9998,11833]],[[242169,858238],[22481,-9713]],[[264650,848525],[-10087,-11980]],[[442746,970117],[-2124,-10116]],[[440622,960001],[-45412,5558]],[[395210,965559],[1356,5610]],[[396566,971169],[29080,6903]],[[366186,988664],[24237,6070]],[[396566,971169],[-19011,-4515]],[[377555,966654],[-1277,-303]],[[376278,966351],[-10092,22313]],[[474471,946246],[-9302,5097],[-15732,-3928]],[[449437,947415],[-11523,1564]],[[437914,948979],[2708,11022]],[[475632,951241],[-1161,-4995]],[[389471,932763],[-1960,940]],[[387511,933703],[3971,16427]],[[391482,950130],[45269,-5884]],[[436751,944246],[-47280,-11483]],[[425084,896246],[-281,-1186]],[[424803,895060],[-24530,11058]],[[400273,906118],[-4109,1852]],[[396164,907970],[-22221,9791]],[[373943,917761],[12049,14158]],[[385992,931919],[3479,844]],[[436751,944246],[-2600,-10695]],[[434151,933551],[-1087,129],[-1953,-8978]],[[431111,924702],[-1073,-5009],[-468,-4983]],[[429570,914710],[-4486,-18464]],[[299274,788927],[-20712,-5220]],[[278562,783707],[-5024,10745],[947,4807],[7372,8786]],[[281857,808045],[22459,-10050]],[[304316,797995],[-5042,-9068]],[[332603,755699],[-6444,-26687]],[[326159,729012],[-19520,2506],[-5107,3069],[-5569,11910]],[[295963,746497],[36640,9202]],[[388822,720968],[4583,18629]],[[393405,739597],[30264,-3889]],[[423669,735708],[-3711,-15078]],[[419958,720630],[-5889,-2902],[-25247,3240]],[[437914,948979],[-1163,-4733]],[[391482,950130],[3728,15429]],[[449437,947415],[-12686,-3169]],[[429570,914710],[36505,-4607]],[[466075,910103],[-4346,-18717]],[[461729,891386],[-36645,4860]],[[424803,895060],[-4184,-17722]],[[416227,877802],[-11390,9502]],[[404837,887304],[-15325,6470]],[[389512,893774],[10761,12344]],[[461729,891386],[-4317,-18589]],[[400937,815562],[-4601,-18723]],[[396336,796839],[-10787,1339]],[[385549,798178],[-28770,3763]],[[356779,801941],[248,5938]],[[357027,807879],[8033,13075]],[[365060,820954],[5288,9035]],[[370348,829989],[33096,-4224]],[[403444,825765],[-2507,-10203]],[[400937,815562],[41148,-5034]],[[442085,810528],[-4627,-18797]],[[437458,791731],[-41122,5108]],[[380920,779453],[1191,4822]],[[382111,784275],[3438,13903]],[[437458,791731],[-4615,-18752]],[[432843,772979],[-51923,6474]],[[382111,784275],[-33420,3669]],[[348691,787944],[8088,13997]],[[376368,761041],[4552,18412]],[[432843,772979],[-4549,-18481]],[[428294,754498],[-51926,6543]],[[389512,893774],[-3876,1635]],[[385636,895409],[10528,12561]],[[385636,895409],[-22313,9701]],[[363323,905110],[10620,12651]],[[429570,914710],[4581,18841]],[[434151,933551],[17537,-2404],[18655,-2675]],[[470343,928472],[-4268,-18369]],[[449437,947415],[4860,-660],[19714,-2484]],[[474011,944271],[-3668,-15799]],[[474471,946246],[-460,-1975]],[[309839,766570],[-20870,-5120]],[[288969,761450],[-10407,22257]],[[299274,788927],[7999,-16928]],[[307273,771999],[2566,-5429]],[[295963,746497],[-6994,14953]],[[309839,766570],[27037,6630]],[[336876,773200],[-1414,-6879],[-2859,-10622]],[[336876,773200],[-3386,5078]],[[333490,778278],[-9153,13724]],[[324337,792002],[15420,-6602],[11795,24873]],[[351552,810273],[5475,-2394]],[[348691,787944],[-2183,-3777],[-2163,-9118]],[[344345,775049],[-2069,-9713]],[[342276,765336],[-4988,-18715]],[[337288,746621],[-4678,-18437]],[[332610,728184],[-6451,828]],[[304316,797995],[1613,1946]],[[305929,799941],[18408,-7939]],[[333490,778278],[-26217,-6279]],[[305929,799941],[8464,10212]],[[314393,810153],[2537,-1120],[9811,12094]],[[326741,821127],[24811,-10854]],[[281857,808045],[10089,12020]],[[291946,820065],[22447,-9912]],[[382111,784275],[-37766,-9226]],[[376368,761041],[-34092,4295]],[[372208,744204],[4160,16837]],[[428294,754498],[-4208,-17093]],[[424086,737405],[-51878,6799]],[[367153,723749],[-34543,4435]],[[337288,746621],[34470,-4241]],[[371758,742380],[-4605,-18631]],[[388822,720968],[-21669,2781]],[[371758,742380],[21647,-2783]],[[326741,821127],[-2367,1070]],[[324374,822197],[10206,12313]],[[334580,834510],[30480,-13556]],[[388572,860333],[228,376]],[[388800,860709],[7980,13232]],[[396780,873941],[8057,13363]],[[411254,857562],[-22682,2771]],[[396780,873941],[-21415,9218]],[[375365,883159],[10271,12250]],[[375365,883159],[-22294,9734]],[[353071,892893],[10252,12217]],[[344587,846449],[-10007,-11939]],[[334580,834510],[-22217,9883]],[[312363,844393],[10010,11924]],[[322373,856317],[22214,-9868]],[[344587,846449],[28091,-12479]],[[372678,833970],[-2330,-3981]],[[291946,820065],[10228,12187]],[[302174,832252],[22200,-10055]],[[324374,822197],[-9981,-12044]],[[302174,832252],[10189,12141]],[[372678,833970],[8169,13549]],[[380847,847519],[579,958]],[[381426,848477],[26812,-3192]],[[408238,845285],[-1890,-7693]],[[406348,837592],[-2904,-11827]],[[322373,856317],[10143,12088]],[[332516,868405],[22374,-9670]],[[354890,858735],[-10303,-12286]],[[332516,868405],[10354,12334]],[[342870,880739],[22311,-9729]],[[365181,871010],[-10291,-12275]],[[342870,880739],[285,341]],[[343155,881080],[22227,-9828]],[[365382,871252],[-201,-242]],[[343155,881080],[9916,11813]],[[375365,883159],[-9983,-11907]],[[388800,860709],[-23619,10301]],[[434151,933551],[-3040,-8849]],[[447475,832427],[-41127,5165]],[[408238,845285],[3016,12277]],[[452424,852533],[-4949,-20106]],[[381426,848477],[7146,11856]],[[447475,832427],[-5390,-21899]],[[349936,984596],[16250,4068]],[[376278,966351],[-7892,-1875]],[[368386,964476],[-7752,-1840]],[[377555,966654],[-1202,-5653]],[[376353,961001],[-7967,3475]],[[376353,961001],[-4968,-20120]],[[371385,940881],[-35788,15809]],[[244235,824276],[22692,-9847]],[[266927,814429],[-4334,-5178],[-6681,-1496],[-18721,8151]],[[326016,921430],[-22493,10010]],[[303523,931440],[10361,12363]],[[313884,943803],[22624,-9910]],[[336508,933893],[-10492,-12463]],[[315854,909356],[-22556,9886]],[[293298,919242],[10225,12198]],[[326016,921430],[-10162,-12074]],[[221731,834045],[10440,12360]],[[254563,836545],[-10328,-12269]],[[242169,858238],[10153,12111]],[[252322,870349],[22514,-9722]],[[274836,860627],[-10186,-12102]],[[252322,870349],[10269,12254]],[[262591,882603],[22471,-9827]],[[285062,872776],[-10226,-12149]],[[262591,882603],[8006,9552]],[[270597,892155],[4477,1479]],[[275074,893634],[20123,-8818]],[[295197,884816],[-10135,-12040]],[[275074,893634],[-2369,1038]],[[272705,894672],[10218,12191]],[[282923,906863],[22606,-9773]],[[305529,897090],[-10332,-12274]],[[270597,892155],[2108,2517]],[[282923,906863],[10375,12379]],[[315854,909356],[-10325,-12266]],[[385992,931919],[1519,1784]],[[207963,660510],[-6170,2039],[-30923,66210],[1522,3158],[96672,24129]],[[269064,756046],[4542,-1339],[13696,-28802],[1391,-4573],[-1868,-38818],[-3498,-3566],[-75364,-18438]],[[220468,622923],[-9963,21274],[3047,4665]],[[213552,648862],[72437,17806],[6432,-2194],[10293,-21775]],[[302714,642699],[-82246,-19776]],[[243763,573200],[82302,20104]],[[326065,593304],[10240,-21665]],[[336305,571639],[-2922,-3731],[-69508,-16999],[-11570,4053],[-8542,18238]],[[243763,573200],[-11650,24865]],[[232113,598065],[82287,19914]],[[314400,617979],[11665,-24675]],[[232113,598065],[-11645,24858]],[[302714,642699],[11686,-24720]],[[350716,575272],[-9295,19856]],[[341421,595128],[26715,6749]],[[368136,601877],[10894,-22841]],[[379030,579036],[-22355,-5594],[-5959,1830]],[[341421,595128],[-8166,17442]],[[333255,612570],[26630,6605]],[[359885,619175],[8251,-17298]],[[313097,654967],[-9043,19019],[208,5408]],[[304262,679394],[8835,-24427]],[[318296,688137],[-13627,1760]],[[304669,689897],[853,22064],[4833,2989],[14188,-1799]],[[324543,713151],[-6247,-25014]],[[304262,679394],[407,10503]],[[318296,688137],[12371,-1597]],[[330667,686540],[29693,-3835]],[[360360,682705],[6720,-14267]],[[367080,668438],[-27040,-6747]],[[340040,661691],[-26943,-6724]],[[421760,674776],[-20651,2667]],[[418400,681848],[3360,-7072]],[[363311,683480],[-32535,4077]],[[330776,687557],[2595,24474]],[[333371,712031],[35412,-4490]],[[324543,713151],[8828,-1120]],[[330776,687557],[-109,-1017]],[[363054,682357],[-2694,348]],[[359885,619175],[27214,6749]],[[387099,625924],[9264,-19670]],[[396363,606254],[9654,-20500]],[[406017,585754],[-26987,-6718]],[[396363,606254],[20775,5224]],[[426911,590791],[-20894,-5037]],[[387099,625924],[51786,12820]],[[438885,638744],[9254,-19469]],[[387099,625924],[-9922,21072]],[[377177,646996],[51737,12731]],[[428914,659727],[9971,-20983]],[[333255,612570],[-10054,21145]],[[323201,633715],[26839,6604]],[[350040,640319],[27137,6677]],[[377177,646996],[-10097,21442]],[[421760,674776],[7154,-15049]],[[350040,640319],[-10000,21372]],[[323201,633715],[-10104,21252]],[[338180,899568],[-22326,9788]],[[326016,921430],[22195,-9877]],[[348211,911553],[-10031,-11985]],[[327983,887383],[-22454,9707]],[[338180,899568],[-10197,-12185]],[[317615,874995],[-22418,9821]],[[327983,887383],[-10368,-12388]],[[307535,862948],[-22473,9828]],[[317615,874995],[-10080,-12047]],[[297428,850873],[-22592,9754]],[[307535,862948],[-10107,-12075]],[[287278,838746],[-22628,9779]],[[297428,850873],[-10150,-12127]],[[277121,826611],[-22558,9934]],[[287278,838746],[-10157,-12135]],[[277121,826611],[-10194,-12182]],[[380847,847519],[-25957,11216]],[[371385,940881],[-710,-2487],[-10763,-12862]],[[359912,925532],[-2852,-642]],[[357060,924890],[-20552,9003]],[[313884,943803],[8092,9652]],[[359912,925532],[-1158,-1383]],[[358754,924149],[-1694,741]],[[122692,506053],[-61091,128773]],[[126650,744258],[62665,74462],[22302,27186],[78396,93880],[31517,13479]],[[348211,911553],[10543,12596]],[[419958,720630],[-4683,-19023]],[[350716,575272],[-14411,-3633]],[[213552,648862],[-5589,11648]],[[269064,756046],[-2387,7159]],[[455072,604365],[7800,-15303]],[[424086,737405],[-41,-171]],[[424045,737234],[-51880,6799]],[[372165,744033],[43,171]],[[424045,737234],[-376,-1526]],[[371758,742380],[407,1653]]],"bbox":[1094.777,-254.368,1507.575,319.091],"transform":{"scale":[0.00041279841279841283,0.0005734595734595735],"translate":[1094.777,-254.368]}}