{"type":"Topology","objects":{"01662-4600-12":{"type":"GeometryCollection","geometries":[{"type":"MultiPolygon","arcs":[[[0]]],"properties":{"筆ID":"H000000001","version":"ver1.0","座標系":"任意座標系","測地系判別":null,"地図名":"切図７・ポロモンリ","地図番号":"切103","縮尺分母":"2400","市区町村コード":"01662","市区町村名":"厚岸郡厚岸町","大字コード":"025","丁目コード":"000","小字コード":"0000","予備コード":"00","大字名":"大黒島","丁目名":null,"小字名":null,"予備名":null,"地番":"1","精度区分":null,"座標値種別":"図上測量","筆界未定構成筆":null,"代表点緯度":1356.548,"代表点経度":-3.896372761}},{"type":"MultiPolygon","arcs":[[[1]]],"properties":{"筆ID":"H000000002","version":"ver1.0","座標系":"任意座標系","測地系判別":null,"地図名":"切図７・ポロモンリ","地図番号":"切103","縮尺分母":"2400","市区町村コード":"01662","市区町村名":"厚岸郡厚岸町","大字コード":"025","丁目コード":"000","小字コード":"0000","予備コード":"00","大字名":"大黒島","丁目名":null,"小字名":null,"予備名":null,"地番":"2","精度区分":null,"座標値種別":"図上測量","筆界未定構成筆":null,"代表点緯度":1027.5485,"代表点経度":-100.510308929}},{"type":"MultiPolygon","arcs":[[[2]]],"properties":{"筆ID":"H000000003","version":"ver1.0","座標系":"任意座標系","測地系判別":null,"地図名":"切図７・ポロモンリ","地図番号":"切103","縮尺分母":"2400","市区町村コード":"01662","市区町村名":"厚岸郡厚岸町","大字コード":"025","丁目コード":"000","小字コード":"0000","予備コード":"00","大字名":"大黒島","丁目名":null,"小字名":null,"予備名":null,"地番":"3-1","精度区分":null,"座標値種別":"図上測量","筆界未定構成筆":null,"代表点緯度":708.6885,"代表点経度":-307.085896813}},{"type":"MultiPolygon","arcs":[[[3]]],"properties":{"筆ID":"H000000004","version":"ver1.0","座標系":"任意座標系","測地系判別":null,"地図名":"切図７・ポロモンリ","地図番号":"切103","縮尺分母":"2400","市区町村コード":"01662","市区町村名":"厚岸郡厚岸町","大字コード":"025","丁目コード":"000","小字コード":"0000","予備コード":"00","大字名":"大黒島","丁目名":null,"小字名":null,"予備名":null,"地番":"3-2","精度区分":null,"座標値種別":"図上測量","筆界未定構成筆":null,"代表点緯度":848.84,"代表点経度":-208.647585772}},{"type":"MultiPolygon","arcs":[[[4]]],"properties":{"筆ID":"H000000005","version":"ver1.0","座標系":"任意座標系","測地系判別":null,"地図名":"切図７・ポロモンリ","地図番号":"切103","縮尺分母":"2400","市区町村コード":"01662","市区町村名":"厚岸郡厚岸町","大字コード":"025","丁目コード":"000","小字コード":"0000","予備コード":"00","大字名":"大黒島","丁目名":null,"小字名":null,"予備名":null,"地番":"4","精度区分":null,"座標値種別":"図上測量","筆界未定構成筆":null,"代表点緯度":1159.4865,"代表点経度":-41.453278145}},{"type":"MultiPolygon","arcs":[[[5]]],"properties":{"筆ID":"H000000006","version":"ver1.0","座標系":"任意座標系","測地系判別":null,"地図名":"切図７・ポロモンリ","地図番号":"切103","縮尺分母":"2400","市区町村コード":"01662","市区町村名":"厚岸郡厚岸町","大字コード":"025","丁目コード":"000","小字コード":"0000","予備コード":"00","大字名":"大黒島","丁目名":null,"小字名":null,"予備名":null,"地番":"5","精度区分":null,"座標値種別":"図上測量","筆界未定構成筆":null,"代表点緯度":569.3615,"代表点経度":-405.994781294}},{"type":"MultiPolygon","arcs":[[[6]]],"properties":{"筆ID":"H000000007","version":"ver1.0","座標系":"任意座標系","測地系判別":null,"地図名":"切図７・ポロモンリ","地図番号":"切103","縮尺分母":"2400","市区町村コード":"01662","市区町村名":"厚岸郡厚岸町","大字コード":"025","丁目コード":"000","小字コード":"0000","予備コード":"00","大字名":"大黒島","丁目名":null,"小字名":null,"予備名":null,"地番":"6","精度区分":null,"座標値種別":"図上測量","筆界未定構成筆":null,"代表点緯度":412.3485,"代表点経度":-526.957601751}},{"type":"MultiPolygon","arcs":[[[7]]],"properties":{"筆ID":"H000000008","version":"ver1.0","座標系":"任意座標系","測地系判別":null,"地図名":"切図７・ポロモンリ","地図番号":"切103","縮尺分母":"2400","市区町村コード":"01662","市区町村名":"厚岸郡厚岸町","大字コード":"025","丁目コード":"000","小字コード":"0000","予備コード":"00","大字名":"大黒島","丁目名":null,"小字名":null,"予備名":null,"地番":"7","精度区分":null,"座標値種別":"図上測量","筆界未定構成筆":null,"代表点緯度":1107.0565,"代表点経度":-26.474699579}},{"type":"MultiPolygon","arcs":[[[8]]],"properties":{"筆ID":"H000000009","version":"ver1.0","座標系":"任意座標系","測地系判別":null,"地図名":"切図７・ポロモンリ","地図番号":"切103","縮尺分母":"2400","市区町村コード":"01662","市区町村名":"厚岸郡厚岸町","大字コード":"025","丁目コード":"000","小字コード":"0000","予備コード":"00","大字名":"大黒島","丁目名":null,"小字名":null,"予備名":null,"地番":"9","精度区分":null,"座標値種別":"図上測量","筆界未定構成筆":null,"代表点緯度":778.4105,"代表点経度":-238.929468573}},{"type":"MultiPolygon","arcs":[[[9]]],"properties":{"筆ID":"H000000010","version":"ver1.0","座標系":"任意座標系","測地系判別":null,"地図名":"切図７・ポロモンリ","地図番号":"切103","縮尺分母":"2400","市区町村コード":"01662","市区町村名":"厚岸郡厚岸町","大字コード":"025","丁目コード":"000","小字コード":"0000","予備コード":"00","大字名":"大黒島","丁目名":null,"小字名":null,"予備名":null,"地番":"10","精度区分":null,"座標値種別":"図上測量","筆界未定構成筆":null,"代表点緯度":1209.636,"代表点経度":150.987546395}}]}},"arcs":[[[723613,999999],[22515,-6619],[-52263,-251357],[-18337,417],[48085,257559]],[[633862,649644],[15078,-5504],[-112877,-139682],[-16606,4041],[114405,141145]],[[348308,338650],[15587,-5921],[-77628,-81371],[-16198,3344],[78239,83948]],[[457925,457573],[22004,-6341],[-58985,-66601],[36981,72942]],[[673186,732547],[18846,-4319],[-46148,-74404],[-14060,4459],[41362,74264]],[[183272,174655],[62551,52041],[9881,-5225],[-60920,-55664],[-71211,-50926],[-14058,6897],[73757,52877]],[[56845,75728],[34842,21249],[7640,-7594],[-35351,-31281],[-47778,-58102],[-16198,4041],[56845,71687]],[[687753,668036],[13549,-3902],[-29849,-38038],[-10900,3344],[27200,38596]],[[424918,382053],[11511,-4598],[-51955,-48697],[-11002,4807],[51446,48488]],[[846729,809355],[26283,-24267],[42482,-42926],[84505,-66358],[-12378,-8534],[-22310,18810],[-25062,17835],[-36776,29329],[-30461,32473],[-34128,33188],[7845,10450]]],"bbox":[-551.333,377.291,220.251,1505.583],"transform":{"scale":[0.0007715847715847715,0.0011282931282931286],"translate":[-551.333,377.291]}}
