{"type":"Topology","objects":{"01662-4600-6":{"type":"GeometryCollection","geometries":[{"type":"MultiPolygon","arcs":[[[0,1,2,3,4,5,6]]],"properties":{"筆ID":"H000000001","version":"ver1.0","座標系":"任意座標系","測地系判別":null,"地図名":"切図１・リルラン","地図番号":"切5-4","縮尺分母":"2400","市区町村コード":"01662","市区町村名":"厚岸郡厚岸町","大字コード":"000","丁目コード":"000","小字コード":"0000","予備コード":"00","大字名":null,"丁目名":null,"小字名":null,"予備名":null,"地番":"無地番-2","精度区分":null,"座標値種別":"図上測量","筆界未定構成筆":null,"代表点緯度":134.794,"代表点経度":-468.009729524}},{"type":"MultiPolygon","arcs":[[[7,8]]],"properties":{"筆ID":"H000000002","version":"ver1.0","座標系":"任意座標系","測地系判別":null,"地図名":"切図１・リルラン","地図番号":"切5-4","縮尺分母":"2400","市区町村コード":"01662","市区町村名":"厚岸郡厚岸町","大字コード":"000","丁目コード":"000","小字コード":"0000","予備コード":"00","大字名":null,"丁目名":null,"小字名":null,"予備名":null,"地番":"無地番-5","精度区分":null,"座標値種別":"図上測量","筆界未定構成筆":null,"代表点緯度":79.7655,"代表点経度":1027.700657458}},{"type":"MultiPolygon","arcs":[[[9,10,11,12,-3,13,-9,14,15,16]]],"properties":{"筆ID":"H000000003","version":"ver1.0","座標系":"任意座標系","測地系判別":null,"地図名":"切図１・リルラン","地図番号":"切5-4","縮尺分母":"2400","市区町村コード":"01662","市区町村名":"厚岸郡厚岸町","大字コード":"000","丁目コード":"000","小字コード":"0000","予備コード":"00","大字名":null,"丁目名":null,"小字名":null,"予備名":null,"地番":"無地番-38","精度区分":null,"座標値種別":"図上測量","筆界未定構成筆":null,"代表点緯度":-267.237,"代表点経度":37.461898284}},{"type":"MultiPolygon","arcs":[[[17,-16]]],"properties":{"筆ID":"H000000004","version":"ver1.0","座標系":"任意座標系","測地系判別":null,"地図名":"切図１・リルラン","地図番号":"切5-3","縮尺分母":"2400","市区町村コード":"01662","市区町村名":"厚岸郡厚岸町","大字コード":"000","丁目コード":"000","小字コード":"0000","予備コード":"00","大字名":null,"丁目名":null,"小字名":null,"予備名":null,"地番":"無地番-46","精度区分":null,"座標値種別":"図上測量","筆界未定構成筆":null,"代表点緯度":-618.909,"代表点経度":-385.294445291}},{"type":"MultiPolygon","arcs":[[[-10,18]]],"properties":{"筆ID":"H000000005","version":"ver1.0","座標系":"任意座標系","測地系判別":null,"地図名":"切図１・リルラン","地図番号":"切5-3","縮尺分母":"2400","市区町村コード":"01662","市区町村名":"厚岸郡厚岸町","大字コード":"000","丁目コード":"000","小字コード":"0000","予備コード":"00","大字名":null,"丁目名":null,"小字名":null,"予備名":null,"地番":"無地番-49","精度区分":null,"座標値種別":"図上測量","筆界未定構成筆":null,"代表点緯度":-400.7545,"代表点経度":-324.55775614}},{"type":"MultiPolygon","arcs":[[[19]]],"properties":{"筆ID":"H000000006","version":"ver1.0","座標系":"任意座標系","測地系判別":null,"地図名":"切図１・リルラン","地図番号":"切5-3","縮尺分母":"2400","市区町村コード":"01662","市区町村名":"厚岸郡厚岸町","大字コード":"068","丁目コード":"000","小字コード":"0000","予備コード":"00","大字名":"末広","丁目名":null,"小字名":null,"予備名":null,"地番":"297","精度区分":null,"座標値種別":"図上測量","筆界未定構成筆":null,"代表点緯度":-87.7355,"代表点経度":-317.237763325}},{"type":"MultiPolygon","arcs":[[[20,21]]],"properties":{"筆ID":"H000000007","version":"ver1.0","座標系":"任意座標系","測地系判別":null,"地図名":"切図１・リルラン","地図番号":"切5-3","縮尺分母":"2400","市区町村コード":"01662","市区町村名":"厚岸郡厚岸町","大字コード":"068","丁目コード":"000","小字コード":"0000","予備コード":"00","大字名":"末広","丁目名":null,"小字名":null,"予備名":null,"地番":"300","精度区分":null,"座標値種別":"図上測量","筆界未定構成筆":null,"代表点緯度":-299.149,"代表点経度":-287.326352507}},{"type":"MultiPolygon","arcs":[[[22,23]]],"properties":{"筆ID":"H000000008","version":"ver1.0","座標系":"任意座標系","測地系判別":null,"地図名":"切図１・リルラン","地図番号":"切5-3","縮尺分母":"2400","市区町村コード":"01662","市区町村名":"厚岸郡厚岸町","大字コード":"068","丁目コード":"000","小字コード":"0000","予備コード":"00","大字名":"末広","丁目名":null,"小字名":null,"予備名":null,"地番":"301","精度区分":null,"座標値種別":"図上測量","筆界未定構成筆":null,"代表点緯度":-319.064,"代表点経度":-373.365729951}},{"type":"MultiPolygon","arcs":[[[24,-23]]],"properties":{"筆ID":"H000000009","version":"ver1.0","座標系":"任意座標系","測地系判別":null,"地図名":"切図１・リルラン","地図番号":"切5-3","縮尺分母":"2400","市区町村コード":"01662","市区町村名":"厚岸郡厚岸町","大字コード":"068","丁目コード":"000","小字コード":"0000","予備コード":"00","大字名":"末広","丁目名":null,"小字名":null,"予備名":null,"地番":"302","精度区分":null,"座標値種別":"図上測量","筆界未定構成筆":null,"代表点緯度":-342.124,"代表点経度":-369.515047233}},{"type":"MultiPolygon","arcs":[[[25]]],"properties":{"筆ID":"H000000010","version":"ver1.0","座標系":"任意座標系","測地系判別":null,"地図名":"切図１・リルラン","地図番号":"切5-3","縮尺分母":"2400","市区町村コード":"01662","市区町村名":"厚岸郡厚岸町","大字コード":"068","丁目コード":"000","小字コード":"0000","予備コード":"00","大字名":"末広","丁目名":null,"小字名":null,"予備名":null,"地番":"304","精度区分":null,"座標値種別":"図上測量","筆界未定構成筆":null,"代表点緯度":-649.2735,"代表点経度":-303.420235672}},{"type":"MultiPolygon","arcs":[[[26]]],"properties":{"筆ID":"H000000011","version":"ver1.0","座標系":"任意座標系","測地系判別":null,"地図名":"切図１・リルラン","地図番号":"切5-4","縮尺分母":"2400","市区町村コード":"01662","市区町村名":"厚岸郡厚岸町","大字コード":"068","丁目コード":"000","小字コード":"0000","予備コード":"00","大字名":"末広","丁目名":null,"小字名":null,"予備名":null,"地番":"307","精度区分":null,"座標値種別":"図上測量","筆界未定構成筆":null,"代表点緯度":-62.0615,"代表点経度":530.769983114}},{"type":"MultiPolygon","arcs":[[[27,28]]],"properties":{"筆ID":"H000000012","version":"ver1.0","座標系":"任意座標系","測地系判別":null,"地図名":"切図１・リルラン","地図番号":"切5-4","縮尺分母":"2400","市区町村コード":"01662","市区町村名":"厚岸郡厚岸町","大字コード":"068","丁目コード":"000","小字コード":"0000","予備コード":"00","大字名":"末広","丁目名":null,"小字名":null,"予備名":null,"地番":"309","精度区分":null,"座標値種別":"図上測量","筆界未定構成筆":null,"代表点緯度":-42.0315,"代表点経度":694.62382077}},{"type":"MultiPolygon","arcs":[[[29,-28]]],"properties":{"筆ID":"H000000013","version":"ver1.0","座標系":"任意座標系","測地系判別":null,"地図名":"切図１・リルラン","地図番号":"切5-4","縮尺分母":"2400","市区町村コード":"01662","市区町村名":"厚岸郡厚岸町","大字コード":"068","丁目コード":"000","小字コード":"0000","予備コード":"00","大字名":"末広","丁目名":null,"小字名":null,"予備名":null,"地番":"310","精度区分":null,"座標値種別":"図上測量","筆界未定構成筆":null,"代表点緯度":-101.0055,"代表点経度":754.063543565}},{"type":"MultiPolygon","arcs":[[[-7,30]]],"properties":{"筆ID":"H000000014","version":"ver1.0","座標系":"任意座標系","測地系判別":null,"地図名":"切図１・リルラン","地図番号":"切5-3","縮尺分母":"2400","市区町村コード":"01662","市区町村名":"厚岸郡厚岸町","大字コード":"601","丁目コード":"000","小字コード":"0000","予備コード":"00","大字名":"登喜岱","丁目名":null,"小字名":null,"予備名":null,"地番":"筆界未定地-1","精度区分":null,"座標値種別":"図上測量","筆界未定構成筆":[{"大字コード":"601","丁目コード":"000","小字コード":"0000","予備コード":"00","大字名":"登喜岱","地番":"56"},{"大字コード":"601","丁目コード":"000","小字コード":"0000","予備コード":"00","大字名":"登喜岱","地番":"57"},{"大字コード":"601","丁目コード":"000","小字コード":"0000","予備コード":"00","大字名":"登喜岱","地番":"58"}],"代表点緯度":163.7055,"代表点経度":-538.886791133}},{"type":"MultiPolygon","arcs":[[[31,-5]]],"properties":{"筆ID":"H000000015","version":"ver1.0","座標系":"任意座標系","測地系判別":null,"地図名":"切図１・リルラン","地図番号":"切5-4","縮尺分母":"2400","市区町村コード":"01662","市区町村名":"厚岸郡厚岸町","大字コード":"601","丁目コード":"000","小字コード":"0000","予備コード":"00","大字名":"登喜岱","丁目名":null,"小字名":null,"予備名":null,"地番":"筆界未定地-2","精度区分":null,"座標値種別":"図上測量","筆界未定構成筆":[{"大字コード":"601","丁目コード":"000","小字コード":"0000","予備コード":"00","大字名":"登喜岱","地番":"59"},{"大字コード":"601","丁目コード":"000","小字コード":"0000","予備コード":"00","大字名":"登喜岱","地番":"60"},{"大字コード":"601","丁目コード":"000","小字コード":"0000","予備コード":"00","大字名":"登喜岱","地番":"61"}],"代表点緯度":214.8335,"代表点経度":-67.96163408}},{"type":"MultiPolygon","arcs":[[[-12,32,-21,33]]],"properties":{"筆ID":"H000000016","version":"ver1.0","座標系":"任意座標系","測地系判別":null,"地図名":"切図１・リルラン","地図番号":"切5-4","縮尺分母":"2400","市区町村コード":"01662","市区町村名":"厚岸郡厚岸町","大字コード":"601","丁目コード":"000","小字コード":"0000","予備コード":"00","大字名":"登喜岱","丁目名":null,"小字名":null,"予備名":null,"地番":"筆界未定地-3","精度区分":null,"座標値種別":"図上測量","筆界未定構成筆":[{"大字コード":"601","丁目コード":"000","小字コード":"0000","予備コード":"00","大字名":"登喜岱","地番":"62"},{"大字コード":"601","丁目コード":"000","小字コード":"0000","予備コード":"00","大字名":"登喜岱","地番":"63"},{"大字コード":"601","丁目コード":"000","小字コード":"0000","予備コード":"00","大字名":"登喜岱","地番":"64"},{"大字コード":"601","丁目コード":"000","小字コード":"0000","予備コード":"00","大字名":"登喜岱","地番":"65"},{"大字コード":"601","丁目コード":"000","小字コード":"0000","予備コード":"00","大字名":"登喜岱","地番":"66"},{"大字コード":"601","丁目コード":"000","小字コード":"0000","予備コード":"00","大字名":"登喜岱","地番":"67"},{"大字コード":"601","丁目コード":"000","小字コード":"0000","予備コード":"00","大字名":"登喜岱","地番":"68"}],"代表点緯度":-117.422,"代表点経度":12.870210048}},{"type":"MultiPolygon","arcs":[[[34,-14,-2]]],"properties":{"筆ID":"H000000017","version":"ver1.0","座標系":"任意座標系","測地系判別":null,"地図名":"切図１・リルラン","地図番号":"切5-4","縮尺分母":"2400","市区町村コード":"01662","市区町村名":"厚岸郡厚岸町","大字コード":"601","丁目コード":"000","小字コード":"0000","予備コード":"00","大字名":"登喜岱","丁目名":null,"小字名":null,"予備名":null,"地番":"筆界未定地-4","精度区分":null,"座標値種別":"図上測量","筆界未定構成筆":[{"大字コード":"601","丁目コード":"000","小字コード":"0000","予備コード":"00","大字名":"登喜岱","地番":"70"},{"大字コード":"601","丁目コード":"000","小字コード":"0000","予備コード":"00","大字名":"登喜岱","地番":"71"},{"大字コード":"601","丁目コード":"000","小字コード":"0000","予備コード":"00","大字名":"登喜岱","地番":"72"},{"大字コード":"601","丁目コード":"000","小字コード":"0000","予備コード":"00","大字名":"登喜岱","地番":"69-1"},{"大字コード":"601","丁目コード":"000","小字コード":"0000","予備コード":"00","大字名":"登喜岱","地番":"69-2"}],"代表点緯度":139.6555,"代表点経度":542.904788838}}]}},"arcs":[[[47562,866774],[155258,38915],[143634,94310],[98562,-4987],[82596,-4618],[48311,-2089],[203270,-11838],[-926,-9460]],[[778267,967007],[-115248,8592],[-45856,-169410],[-40247,-263053]],[[576916,543136],[-7072,-6216]],[[569844,536920],[18842,125827],[21787,142741]],[[610473,805488],[46790,171384],[-75966,3900],[-233166,8583],[-143015,-94018],[-153871,-37857],[-764,-57285],[85134,-193161]],[[135615,607034],[-4201,-1802]],[[131414,605232],[-88782,175253],[4930,86289]],[[747535,645703],[189353,6973],[63046,63220],[65,-23363],[-57223,-56915],[-172065,-6850],[-24818,-803]],[[745893,627965],[1642,17738]],[[131547,207585],[73979,20015]],[[205526,227600],[8005,6722]],[[213531,234322],[100960,84769],[106892,90202],[57946,49224],[75137,64794]],[[554466,523311],[15378,13609]],[[576916,543136],[114552,100502],[56067,2065]],[[745893,627965],[-51255,-1660],[-30204,-26401],[-170355,-149076],[-50021,-42827],[-115067,-97621],[-24262,-20249],[-93401,-77961],[-75512,-22014],[-28860,-3546]],[[106956,186610],[-1345,-164],[-1737,-2074]],[[103874,184372],[-44072,-52587],[3214,-58270],[-63016,-26995],[34,18034],[50209,22595],[-1876,54267],[40620,48815],[-25537,21782],[-22474,5125],[-40763,-59532],[43,22311],[37646,54116],[27856,-4602],[30110,-24754],[35679,2908]],[[106956,186610],[30255,-181447],[-2623,-5163],[-15765,95495],[-14949,88877]],[[131547,207585],[-8374,54072],[71441,25321],[10912,-59378]],[[175729,531930],[624,-14917],[-15161,-2197],[-634,15011],[15171,2103]],[[194718,347973],[2910,-17582]],[[197628,330391],[-19936,-8006],[-2803,17472],[19829,8116]],[[141484,312247],[-11358,-2854]],[[130126,309393],[-1450,13133],[11332,2829],[1476,-13108]],[[141484,312247],[3147,-27944],[-11330,-3677],[-3175,28767]],[[149088,45136],[40783,-12674],[-5599,-16940],[-35521,15525],[337,14089]],[[640541,516564],[12180,-763],[16767,32903],[6225,5986],[21087,23824],[17518,5705],[15346,-16713],[10972,1601],[-794,-8345],[-12602,-1941],[-13338,15637],[-15753,-5174],[-22968,-25415],[-18597,-37858],[-25477,545],[9434,10008]],[[783674,556342],[-21962,-820]],[[761712,555522],[-8437,16388],[29489,941],[910,-16509]],[[783674,556342],[23,-409],[19930,-21203],[15411,-44236],[-3701,-3217],[-29494,45431],[-24131,22814]],[[131414,605232],[15843,-31275],[-28261,-48942],[-98305,198977],[-13681,46748],[5073,35406],[-3082,164583],[41030,-62705],[-2469,-41250]],[[610473,805488],[-48550,-19876],[-170781,-71778],[-90261,-36966],[-125712,-52860],[-39554,-16974]],[[213531,234322],[-15903,96069]],[[194718,347973],[-20307,122675],[94932,80023],[111152,94928],[129409,108976],[44562,-231264]],[[778267,967007],[-5530,-56460],[-25202,-264844]]],"bbox":[-600.476,-675.417,1080.894,447.355],"transform":{"scale":[0.0016813716813716814,0.0011227731227731227],"translate":[-600.476,-675.417]}}
