{"type":"Topology","objects":{"01662-4600-13":{"type":"GeometryCollection","geometries":[{"type":"MultiPolygon","arcs":[[[0]]],"properties":{"筆ID":"H000000001","version":"ver1.0","座標系":"任意座標系","測地系判別":null,"地図名":"切図８・アイカップ・筑紫恋ほか","地図番号":"切119-2","縮尺分母":"2400","市区町村コード":"01662","市区町村名":"厚岸郡厚岸町","大字コード":"066","丁目コード":"000","小字コード":"0000","予備コード":"00","大字名":"愛冠","丁目名":null,"小字名":null,"予備名":null,"地番":"2","精度区分":null,"座標値種別":"図上測量","筆界未定構成筆":null,"代表点緯度":-1993.714,"代表点経度":200.289531064}},{"type":"MultiPolygon","arcs":[[[1,2]]],"properties":{"筆ID":"H000000002","version":"ver1.0","座標系":"任意座標系","測地系判別":null,"地図名":"切図８・アイカップ・筑紫恋ほか","地図番号":"切119-1","縮尺分母":"2400","市区町村コード":"01662","市区町村名":"厚岸郡厚岸町","大字コード":"066","丁目コード":"000","小字コード":"0000","予備コード":"00","大字名":"愛冠","丁目名":null,"小字名":null,"予備名":null,"地番":"3","精度区分":null,"座標値種別":"図上測量","筆界未定構成筆":null,"代表点緯度":-940.148,"代表点経度":-16.427653436}},{"type":"MultiPolygon","arcs":[[[-3,3]]],"properties":{"筆ID":"H000000003","version":"ver1.0","座標系":"任意座標系","測地系判別":null,"地図名":"切図８・アイカップ・筑紫恋ほか","地図番号":"切119-1","縮尺分母":"2400","市区町村コード":"01662","市区町村名":"厚岸郡厚岸町","大字コード":"066","丁目コード":"000","小字コード":"0000","予備コード":"00","大字名":"愛冠","丁目名":null,"小字名":null,"予備名":null,"地番":"4","精度区分":null,"座標値種別":"図上測量","筆界未定構成筆":null,"代表点緯度":-1000.4945,"代表点経度":-50.943566962}},{"type":"MultiPolygon","arcs":[[[4]]],"properties":{"筆ID":"H000000004","version":"ver1.0","座標系":"任意座標系","測地系判別":null,"地図名":"切図８・アイカップ・筑紫恋ほか","地図番号":"切118-2","縮尺分母":"2400","市区町村コード":"01662","市区町村名":"厚岸郡厚岸町","大字コード":"066","丁目コード":"000","小字コード":"0000","予備コード":"00","大字名":"愛冠","丁目名":null,"小字名":null,"予備名":null,"地番":"7","精度区分":null,"座標値種別":"図上測量","筆界未定構成筆":null,"代表点緯度":-700.026,"代表点経度":41.268812173}}]}},"arcs":[[[853635,101842],[37992,62953],[40820,64009],[67552,-2576],[-31958,-96086],[-18107,-44493],[-719,-43118],[-134994,-42531],[-46824,3216],[86238,98626]],[[237632,876462],[227430,-97664],[131668,-55483]],[[596730,723315],[-105349,-9927],[-216454,87775],[-37295,75299]],[[596730,723315],[-10284,-3456],[-193073,-64904],[-57518,24978],[-229124,99503],[-106731,47836],[237632,49190]],[[507444,973635],[109913,26364],[61064,-26241],[-256703,-74495],[-18439,14285],[104165,60087]]],"bbox":[-164.822,-2175.03,235.419,-611.851],"transform":{"scale":[0.0004002414002414002,0.0015631805631805633],"translate":[-164.822,-2175.03]}}
