{"type":"Topology","objects":{"01401-4334-5.featurecollection":{"type":"GeometryCollection","geometries":[{"type":"Polygon","arcs":[[0,1,2,3]],"properties":{"市区町村名":"岩内郡共和町","大字名":"前田","丁目名":null,"小字名":null,"地番":"880-2","精度区分":null,"座標系":"任意座標系"}},{"type":"Polygon","arcs":[[4,5,6]],"properties":{"市区町村名":"岩内郡共和町","大字名":"前田","丁目名":null,"小字名":null,"地番":"885-2","精度区分":null,"座標系":"任意座標系"}},{"type":"Polygon","arcs":[[7,8,9,10]],"properties":{"市区町村名":"岩内郡共和町","大字名":"前田","丁目名":null,"小字名":null,"地番":"895","精度区分":null,"座標系":"任意座標系"}},{"type":"Polygon","arcs":[[11,12,13,14]],"properties":{"市区町村名":"岩内郡共和町","大字名":"前田","丁目名":null,"小字名":null,"地番":"筆界未定地-1","精度区分":null,"座標系":"任意座標系"}},{"type":"Polygon","arcs":[[15,16,17]],"properties":{"市区町村名":"岩内郡共和町","大字名":"前田","丁目名":null,"小字名":null,"地番":"896-3","精度区分":null,"座標系":"任意座標系"}},{"type":"Polygon","arcs":[[18,19,20,21,22,23]],"properties":{"市区町村名":"岩内郡共和町","大字名":"前田","丁目名":null,"小字名":null,"地番":"911","精度区分":null,"座標系":"任意座標系"}},{"type":"Polygon","arcs":[[24,25,26,27,28,29]],"properties":{"市区町村名":"岩内郡共和町","大字名":"前田","丁目名":null,"小字名":null,"地番":"909","精度区分":null,"座標系":"任意座標系"}},{"type":"Polygon","arcs":[[-20,30,-30,31]],"properties":{"市区町村名":"岩内郡共和町","大字名":"前田","丁目名":null,"小字名":null,"地番":"910","精度区分":null,"座標系":"任意座標系"}},{"type":"Polygon","arcs":[[32,33]],"properties":{"市区町村名":"岩内郡共和町","大字名":"前田","丁目名":null,"小字名":null,"地番":"908-2","精度区分":null,"座標系":"任意座標系"}},{"type":"Polygon","arcs":[[34,-34,35,36,37,38,39,40,41,42,43,44,-26]],"properties":{"市区町村名":"岩内郡共和町","大字名":"前田","丁目名":null,"小字名":null,"地番":"816","精度区分":null,"座標系":"任意座標系"}},{"type":"Polygon","arcs":[[45,46,47,-23]],"properties":{"市区町村名":"岩内郡共和町","大字名":"前田","丁目名":null,"小字名":null,"地番":"821","精度区分":null,"座標系":"任意座標系"}},{"type":"Polygon","arcs":[[48,-24,-48,49,50,51,52,-6,53,54,55]],"properties":{"市区町村名":"岩内郡共和町","大字名":"前田","丁目名":null,"小字名":null,"地番":"801","精度区分":null,"座標系":"任意座標系"}},{"type":"Polygon","arcs":[[-47,56,57,-50]],"properties":{"市区町村名":"岩内郡共和町","大字名":"前田","丁目名":null,"小字名":null,"地番":"822","精度区分":null,"座標系":"任意座標系"}},{"type":"Polygon","arcs":[[58,59,-54,-5,60,61,62,63,-9,64,65,66,67,68,69,70,71,72,73,74]],"properties":{"市区町村名":"岩内郡共和町","大字名":"前田","丁目名":null,"小字名":null,"地番":"885-1","精度区分":null,"座標系":"任意座標系"}},{"type":"Polygon","arcs":[[75,-74,76]],"properties":{"市区町村名":"岩内郡共和町","大字名":"前田","丁目名":null,"小字名":null,"地番":"901-1","精度区分":null,"座標系":"任意座標系"}},{"type":"Polygon","arcs":[[77,78,-55,-60]],"properties":{"市区町村名":"岩内郡共和町","大字名":"前田","丁目名":null,"小字名":null,"地番":"928-1","精度区分":null,"座標系":"任意座標系"}},{"type":"Polygon","arcs":[[79,-56,-79,80,81]],"properties":{"市区町村名":"岩内郡共和町","大字名":"前田","丁目名":null,"小字名":null,"地番":"928-2","精度区分":null,"座標系":"任意座標系"}},{"type":"Polygon","arcs":[[-58,82,-51]],"properties":{"市区町村名":"岩内郡共和町","大字名":"前田","丁目名":null,"小字名":null,"地番":"814","精度区分":null,"座標系":"任意座標系"}},{"type":"Polygon","arcs":[[83,84,85,86,87,88,89,90,-52,-83,-57,-46,-22]],"properties":{"市区町村名":"岩内郡共和町","大字名":"前田","丁目名":null,"小字名":null,"地番":"803-1","精度区分":null,"座標系":"任意座標系"}},{"type":"Polygon","arcs":[[91,92,93,94,-85]],"properties":{"市区町村名":"岩内郡共和町","大字名":"前田","丁目名":null,"小字名":null,"地番":"820","精度区分":null,"座標系":"任意座標系"}},{"type":"Polygon","arcs":[[-21,-32,-29,95,96,97,98,-92,-84]],"properties":{"市区町村名":"岩内郡共和町","大字名":"前田","丁目名":null,"小字名":null,"地番":"811","精度区分":null,"座標系":"任意座標系"}},{"type":"Polygon","arcs":[[-99,99,100,-93]],"properties":{"市区町村名":"岩内郡共和町","大字名":"前田","丁目名":null,"小字名":null,"地番":"819","精度区分":null,"座標系":"任意座標系"}},{"type":"Polygon","arcs":[[-98,101,102,103,-100]],"properties":{"市区町村名":"岩内郡共和町","大字名":"前田","丁目名":null,"小字名":null,"地番":"818-2","精度区分":null,"座標系":"任意座標系"}},{"type":"Polygon","arcs":[[104,105,106,107,108,109,110,-103]],"properties":{"市区町村名":"岩内郡共和町","大字名":"前田","丁目名":null,"小字名":null,"地番":"826","精度区分":null,"座標系":"任意座標系"}},{"type":"Polygon","arcs":[[111,112,113,-106,114,-96,-28]],"properties":{"市区町村名":"岩内郡共和町","大字名":"前田","丁目名":null,"小字名":null,"地番":"813","精度区分":null,"座標系":"任意座標系"}},{"type":"Polygon","arcs":[[-97,-115,-105,-102]],"properties":{"市区町村名":"岩内郡共和町","大字名":"前田","丁目名":null,"小字名":null,"地番":"818-1","精度区分":null,"座標系":"任意座標系"}},{"type":"Polygon","arcs":[[115,-110,116,117,118]],"properties":{"市区町村名":"岩内郡共和町","大字名":"前田","丁目名":null,"小字名":null,"地番":"825","精度区分":null,"座標系":"任意座標系"}},{"type":"Polygon","arcs":[[119,120,-117,-109,121]],"properties":{"市区町村名":"岩内郡共和町","大字名":"前田","丁目名":null,"小字名":null,"地番":"827","精度区分":null,"座標系":"任意座標系"}},{"type":"Polygon","arcs":[[-86,-95,122,123]],"properties":{"市区町村名":"岩内郡共和町","大字名":"前田","丁目名":null,"小字名":null,"地番":"823","精度区分":null,"座標系":"任意座標系"}},{"type":"Polygon","arcs":[[124,-119,125,-87,-124]],"properties":{"市区町村名":"岩内郡共和町","大字名":"前田","丁目名":null,"小字名":null,"地番":"824","精度区分":null,"座標系":"任意座標系"}},{"type":"Polygon","arcs":[[-101,-104,-111,-116,-125,-123,-94]],"properties":{"市区町村名":"岩内郡共和町","大字名":"前田","丁目名":null,"小字名":null,"地番":"809","精度区分":null,"座標系":"任意座標系"}},{"type":"Polygon","arcs":[[126,127,-89,128]],"properties":{"市区町村名":"岩内郡共和町","大字名":"前田","丁目名":null,"小字名":null,"地番":"835","精度区分":null,"座標系":"任意座標系"}},{"type":"Polygon","arcs":[[129,130,131,-127]],"properties":{"市区町村名":"岩内郡共和町","大字名":"前田","丁目名":null,"小字名":null,"地番":"834","精度区分":null,"座標系":"任意座標系"}},{"type":"Polygon","arcs":[[132,133,-107,-114]],"properties":{"市区町村名":"岩内郡共和町","大字名":"前田","丁目名":null,"小字名":null,"地番":"828","精度区分":null,"座標系":"任意座標系"}},{"type":"Polygon","arcs":[[134,135,-120,136]],"properties":{"市区町村名":"岩内郡共和町","大字名":"前田","丁目名":null,"小字名":null,"地番":"829","精度区分":null,"座標系":"任意座標系"}},{"type":"Polygon","arcs":[[-37,137,138,139,140,141,142,143]],"properties":{"市区町村名":"岩内郡共和町","大字名":"前田","丁目名":null,"小字名":null,"地番":"802","精度区分":null,"座標系":"任意座標系"}},{"type":"Polygon","arcs":[[144,-143,145,146]],"properties":{"市区町村名":"岩内郡共和町","大字名":"前田","丁目名":null,"小字名":null,"地番":"858","精度区分":null,"座標系":"任意座標系"}},{"type":"Polygon","arcs":[[147,148,149,150]],"properties":{"市区町村名":"岩内郡共和町","大字名":"前田","丁目名":null,"小字名":null,"地番":"874-3","精度区分":null,"座標系":"任意座標系"}},{"type":"Polygon","arcs":[[151,-147,152,-148,153]],"properties":{"市区町村名":"岩内郡共和町","大字名":"前田","丁目名":null,"小字名":null,"地番":"874-2","精度区分":null,"座標系":"任意座標系"}},{"type":"Polygon","arcs":[[-154,-151,154,155,156]],"properties":{"市区町村名":"岩内郡共和町","大字名":"前田","丁目名":null,"小字名":null,"地番":"874-1","精度区分":null,"座標系":"任意座標系"}},{"type":"Polygon","arcs":[[157,158,159,-131]],"properties":{"市区町村名":"岩内郡共和町","大字名":"前田","丁目名":null,"小字名":null,"地番":"833","精度区分":null,"座標系":"任意座標系"}},{"type":"Polygon","arcs":[[-159,160,161,162]],"properties":{"市区町村名":"岩内郡共和町","大字名":"前田","丁目名":null,"小字名":null,"地番":"832","精度区分":null,"座標系":"任意座標系"}},{"type":"Polygon","arcs":[[163,164,165,166]],"properties":{"市区町村名":"岩内郡共和町","大字名":"前田","丁目名":null,"小字名":null,"地番":"930","精度区分":null,"座標系":"任意座標系"}},{"type":"Polygon","arcs":[[-164,167,-82,168]],"properties":{"市区町村名":"岩内郡共和町","大字名":"前田","丁目名":null,"小字名":null,"地番":"929","精度区分":null,"座標系":"任意座標系"}},{"type":"Polygon","arcs":[[169,170,171,172]],"properties":{"市区町村名":"岩内郡共和町","大字名":"前田","丁目名":null,"小字名":null,"地番":"888","精度区分":null,"座標系":"任意座標系"}},{"type":"Polygon","arcs":[[173,174,175,176,177,178,179,-170,180,-166]],"properties":{"市区町村名":"岩内郡共和町","大字名":"前田","丁目名":null,"小字名":null,"地番":"887","精度区分":null,"座標系":"任意座標系"}},{"type":"Polygon","arcs":[[-180,181,182,183,184,185,186,-171]],"properties":{"市区町村名":"岩内郡共和町","大字名":"前田","丁目名":null,"小字名":null,"地番":"907-1","精度区分":null,"座標系":"任意座標系"}},{"type":"Polygon","arcs":[[187,188,-11,189,190,191,-16]],"properties":{"市区町村名":"岩内郡共和町","大字名":"前田","丁目名":null,"小字名":null,"地番":"896-1","精度区分":null,"座標系":"任意座標系"}},{"type":"Polygon","arcs":[[192,193,-184]],"properties":{"市区町村名":"岩内郡共和町","大字名":"前田","丁目名":null,"小字名":null,"地番":"931-1","精度区分":null,"座標系":"任意座標系"}},{"type":"Polygon","arcs":[[-194,194,195,196]],"properties":{"市区町村名":"岩内郡共和町","大字名":"前田","丁目名":null,"小字名":null,"地番":"931-2","精度区分":null,"座標系":"任意座標系"}},{"type":"Polygon","arcs":[[197,198]],"properties":{"市区町村名":"岩内郡共和町","大字名":"前田","丁目名":null,"小字名":null,"地番":"933","精度区分":null,"座標系":"任意座標系"}},{"type":"Polygon","arcs":[[-196,199,-198,200,201]],"properties":{"市区町村名":"岩内郡共和町","大字名":"前田","丁目名":null,"小字名":null,"地番":"932","精度区分":null,"座標系":"任意座標系"}},{"type":"Polygon","arcs":[[202,-172,-187]],"properties":{"市区町村名":"岩内郡共和町","大字名":"前田","丁目名":null,"小字名":null,"地番":"907-3","精度区分":null,"座標系":"任意座標系"}},{"type":"Polygon","arcs":[[203,-185,-197,-202]],"properties":{"市区町村名":"岩内郡共和町","大字名":"前田","丁目名":null,"小字名":null,"地番":"907-2","精度区分":null,"座標系":"任意座標系"}},{"type":"Polygon","arcs":[[204,-68,205,-15,206,-188,207,-182,-179]],"properties":{"市区町村名":"岩内郡共和町","大字名":"前田","丁目名":null,"小字名":null,"地番":"883","精度区分":null,"座標系":"任意座標系"}},{"type":"Polygon","arcs":[[-206,-67,208,-12]],"properties":{"市区町村名":"岩内郡共和町","大字名":"前田","丁目名":null,"小字名":null,"地番":"891","精度区分":null,"座標系":"任意座標系"}},{"type":"Polygon","arcs":[[-209,-66,209,-13]],"properties":{"市区町村名":"岩内郡共和町","大字名":"前田","丁目名":null,"小字名":null,"地番":"898","精度区分":null,"座標系":"任意座標系"}},{"type":"Polygon","arcs":[[-207,-14,-210,-65,-8,-189]],"properties":{"市区町村名":"岩内郡共和町","大字名":"前田","丁目名":null,"小字名":null,"地番":"892","精度区分":null,"座標系":"任意座標系"}},{"type":"Polygon","arcs":[[210,211,212,213,-71,214,215,216,-176]],"properties":{"市区町村名":"岩内郡共和町","大字名":"前田","丁目名":null,"小字名":null,"地番":"889","精度区分":null,"座標系":"任意座標系"}},{"type":"Polygon","arcs":[[-215,-70,217,218]],"properties":{"市区町村名":"岩内郡共和町","大字名":"前田","丁目名":null,"小字名":null,"地番":"899","精度区分":null,"座標系":"任意座標系"}},{"type":"Polygon","arcs":[[219,220,-177,-217]],"properties":{"市区町村名":"岩内郡共和町","大字名":"前田","丁目名":null,"小字名":null,"地番":"905","精度区分":null,"座標系":"任意座標系"}},{"type":"Polygon","arcs":[[-221,221,-218,-69,-205,-178]],"properties":{"市区町村名":"岩内郡共和町","大字名":"前田","丁目名":null,"小字名":null,"地番":"890","精度区分":null,"座標系":"任意座標系"}},{"type":"Polygon","arcs":[[-220,-216,-219,-222]],"properties":{"市区町村名":"岩内郡共和町","大字名":"前田","丁目名":null,"小字名":null,"地番":"903","精度区分":null,"座標系":"任意座標系"}},{"type":"Polygon","arcs":[[-72,-214,222,223]],"properties":{"市区町村名":"岩内郡共和町","大字名":"前田","丁目名":null,"小字名":null,"地番":"900","精度区分":null,"座標系":"任意座標系"}},{"type":"Polygon","arcs":[[224,-75,-76,225,-223,-213,226]],"properties":{"市区町村名":"岩内郡共和町","大字名":"前田","丁目名":null,"小字名":null,"地番":"902","精度区分":null,"座標系":"任意座標系"}},{"type":"Polygon","arcs":[[-165,-169,-81,-78,-59,-225,227,228,-174]],"properties":{"市区町村名":"岩内郡共和町","大字名":"前田","丁目名":null,"小字名":null,"地番":"886","精度区分":null,"座標系":"任意座標系"}},{"type":"Polygon","arcs":[[-226,-77,-73,-224]],"properties":{"市区町村名":"岩内郡共和町","大字名":"前田","丁目名":null,"小字名":null,"地番":"901-2","精度区分":null,"座標系":"任意座標系"}},{"type":"Polygon","arcs":[[229,-228,-227,-212]],"properties":{"市区町村名":"岩内郡共和町","大字名":"前田","丁目名":null,"小字名":null,"地番":"904","精度区分":null,"座標系":"任意座標系"}},{"type":"Polygon","arcs":[[-229,-230,-211,-175]],"properties":{"市区町村名":"岩内郡共和町","大字名":"前田","丁目名":null,"小字名":null,"地番":"906","精度区分":null,"座標系":"任意座標系"}},{"type":"Polygon","arcs":[[230,231,232,-192]],"properties":{"市区町村名":"岩内郡共和町","大字名":"前田","丁目名":null,"小字名":null,"地番":"893-3","精度区分":null,"座標系":"任意座標系"}},{"type":"Polygon","arcs":[[233,234,235,236,-232]],"properties":{"市区町村名":"岩内郡共和町","大字名":"前田","丁目名":null,"小字名":null,"地番":"927-1","精度区分":null,"座標系":"任意座標系"}},{"type":"Polygon","arcs":[[237,238,239]],"properties":{"市区町村名":"岩内郡共和町","大字名":"前田","丁目名":null,"小字名":null,"地番":"919-2","精度区分":null,"座標系":"任意座標系"}},{"type":"Polygon","arcs":[[-190,-10,-64,240,241,242,243,244,245]],"properties":{"市区町村名":"岩内郡共和町","大字名":"前田","丁目名":null,"小字名":null,"地番":"893-1","精度区分":null,"座標系":"任意座標系"}},{"type":"Polygon","arcs":[[246,247,248,249]],"properties":{"市区町村名":"岩内郡共和町","大字名":"前田","丁目名":null,"小字名":null,"地番":"921-2","精度区分":null,"座標系":"任意座標系"}},{"type":"Polygon","arcs":[[-237,250,251,252]],"properties":{"市区町村名":"岩内郡共和町","大字名":"前田","丁目名":null,"小字名":null,"地番":"927-3","精度区分":null,"座標系":"任意座標系"}},{"type":"Polygon","arcs":[[253,-251,254,255,256,257,258,259]],"properties":{"市区町村名":"岩内郡共和町","大字名":"前田","丁目名":null,"小字名":null,"地番":"925-2","精度区分":null,"座標系":"任意座標系"}},{"type":"Polygon","arcs":[[-236,260,-255]],"properties":{"市区町村名":"岩内郡共和町","大字名":"前田","丁目名":null,"小字名":null,"地番":"925-1","精度区分":null,"座標系":"任意座標系"}},{"type":"Polygon","arcs":[[-233,-253,261,-17]],"properties":{"市区町村名":"岩内郡共和町","大字名":"前田","丁目名":null,"小字名":null,"地番":"893-4","精度区分":null,"座標系":"任意座標系"}},{"type":"Polygon","arcs":[[262,-234,263,-257]],"properties":{"市区町村名":"岩内郡共和町","大字名":"前田","丁目名":null,"小字名":null,"地番":"927-2","精度区分":null,"座標系":"任意座標系"}},{"type":"Polygon","arcs":[[-264,-231,264,-246,265,-258]],"properties":{"市区町村名":"岩内郡共和町","大字名":"前田","丁目名":null,"小字名":null,"地番":"893-2","精度区分":null,"座標系":"任意座標系"}},{"type":"Polygon","arcs":[[266,-244,267,268,269]],"properties":{"市区町村名":"岩内郡共和町","大字名":"前田","丁目名":null,"小字名":null,"地番":"922-1","精度区分":null,"座標系":"任意座標系"}},{"type":"Polygon","arcs":[[-245,-267,270]],"properties":{"市区町村名":"岩内郡共和町","大字名":"前田","丁目名":null,"小字名":null,"地番":"923-1","精度区分":null,"座標系":"任意座標系"}},{"type":"Polygon","arcs":[[-271,271,-266]],"properties":{"市区町村名":"岩内郡共和町","大字名":"前田","丁目名":null,"小字名":null,"地番":"923-2","精度区分":null,"座標系":"任意座標系"}},{"type":"Polygon","arcs":[[-250,272,-260]],"properties":{"市区町村名":"岩内郡共和町","大字名":"前田","丁目名":null,"小字名":null,"地番":"924","精度区分":null,"座標系":"任意座標系"}},{"type":"Polygon","arcs":[[-242,273,274,275,276,277,278]],"properties":{"市区町村名":"岩内郡共和町","大字名":"前田","丁目名":null,"小字名":null,"地番":"920-1","精度区分":null,"座標系":"任意座標系"}},{"type":"Polygon","arcs":[[-241,-63,279,-274]],"properties":{"市区町村名":"岩内郡共和町","大字名":"前田","丁目名":null,"小字名":null,"地番":"884","精度区分":null,"座標系":"任意座標系"}},{"type":"Polygon","arcs":[[-280,-62,-275]],"properties":{"市区町村名":"岩内郡共和町","大字名":"前田","丁目名":null,"小字名":null,"地番":"894","精度区分":null,"座標系":"任意座標系"}},{"type":"Polygon","arcs":[[-265,-191]],"properties":{"市区町村名":"岩内郡共和町","大字名":"前田","丁目名":null,"小字名":null,"地番":"896-2","精度区分":null,"座標系":"任意座標系"}},{"type":"Polygon","arcs":[[280,-261,-235]],"properties":{"市区町村名":"岩内郡共和町","大字名":"前田","丁目名":null,"小字名":null,"地番":"926-1","精度区分":null,"座標系":"任意座標系"}},{"type":"Polygon","arcs":[[-263,-256,-281]],"properties":{"市区町村名":"岩内郡共和町","大字名":"前田","丁目名":null,"小字名":null,"地番":"926-2","精度区分":null,"座標系":"任意座標系"}},{"type":"Polygon","arcs":[[-272,-270,-247,-259]],"properties":{"市区町村名":"岩内郡共和町","大字名":"前田","丁目名":null,"小字名":null,"地番":"922-2","精度区分":null,"座標系":"任意座標系"}},{"type":"Polygon","arcs":[[-269,281,-248]],"properties":{"市区町村名":"岩内郡共和町","大字名":"前田","丁目名":null,"小字名":null,"地番":"921-1","精度区分":null,"座標系":"任意座標系"}},{"type":"Polygon","arcs":[[-277,282,-239]],"properties":{"市区町村名":"岩内郡共和町","大字名":"前田","丁目名":null,"小字名":null,"地番":"920-2","精度区分":null,"座標系":"任意座標系"}},{"type":"Polygon","arcs":[[-278,-238,283]],"properties":{"市区町村名":"岩内郡共和町","大字名":"前田","丁目名":null,"小字名":null,"地番":"919-1","精度区分":null,"座標系":"任意座標系"}},{"type":"Polygon","arcs":[[284,285,286,287,288,289,290,291,-139]],"properties":{"市区町村名":"岩内郡共和町","大字名":"前田","丁目名":null,"小字名":null,"地番":"856","精度区分":null,"座標系":"任意座標系"}},{"type":"Polygon","arcs":[[292,293,294]],"properties":{"市区町村名":"岩内郡共和町","大字名":"前田","丁目名":null,"小字名":null,"地番":"857-2","精度区分":null,"座標系":"任意座標系"}},{"type":"Polygon","arcs":[[295,296,297]],"properties":{"市区町村名":"岩内郡共和町","大字名":"前田","丁目名":null,"小字名":null,"地番":"934","精度区分":null,"座標系":"任意座標系"}},{"type":"Polygon","arcs":[[298,299,300]],"properties":{"市区町村名":"岩内郡共和町","大字名":"前田","丁目名":null,"小字名":null,"地番":"917-2","精度区分":null,"座標系":"任意座標系"}},{"type":"Polygon","arcs":[[301,-301,302,303]],"properties":{"市区町村名":"岩内郡共和町","大字名":"前田","丁目名":null,"小字名":null,"地番":"916-2","精度区分":null,"座標系":"任意座標系"}},{"type":"Polygon","arcs":[[304,305,306,307,308]],"properties":{"市区町村名":"岩内郡共和町","大字名":"前田","丁目名":null,"小字名":null,"地番":"878-2","精度区分":null,"座標系":"任意座標系"}},{"type":"Polygon","arcs":[[309,310,311,-305]],"properties":{"市区町村名":"岩内郡共和町","大字名":"前田","丁目名":null,"小字名":null,"地番":"862-2","精度区分":null,"座標系":"任意座標系"}},{"type":"Polygon","arcs":[[312,313,-311]],"properties":{"市区町村名":"岩内郡共和町","大字名":"前田","丁目名":null,"小字名":null,"地番":"877-2","精度区分":null,"座標系":"任意座標系"}},{"type":"Polygon","arcs":[[314,315,-314,316,317,318]],"properties":{"市区町村名":"岩内郡共和町","大字名":"前田","丁目名":null,"小字名":null,"地番":"877-3","精度区分":null,"座標系":"任意座標系"}},{"type":"Polygon","arcs":[[319,320,321,322,-318,323]],"properties":{"市区町村名":"岩内郡共和町","大字名":"前田","丁目名":null,"小字名":null,"地番":"914","精度区分":null,"座標系":"任意座標系"}},{"type":"Polygon","arcs":[[324,325,-320]],"properties":{"市区町村名":"岩内郡共和町","大字名":"前田","丁目名":null,"小字名":null,"地番":"876","精度区分":null,"座標系":"任意座標系"}},{"type":"Polygon","arcs":[[-322,326,327,328,329]],"properties":{"市区町村名":"岩内郡共和町","大字名":"前田","丁目名":null,"小字名":null,"地番":"855-2","精度区分":null,"座標系":"任意座標系"}},{"type":"Polygon","arcs":[[330,331,-155,-150,332,333]],"properties":{"市区町村名":"岩内郡共和町","大字名":"前田","丁目名":null,"小字名":null,"地番":"859","精度区分":null,"座標系":"任意座標系"}},{"type":"Polygon","arcs":[[-332,334,-156]],"properties":{"市区町村名":"岩内郡共和町","大字名":"前田","丁目名":null,"小字名":null,"地番":"875","精度区分":null,"座標系":"任意座標系"}},{"type":"Polygon","arcs":[[-329,-334,335,-4,336,337,338]],"properties":{"市区町村名":"岩内郡共和町","大字名":"前田","丁目名":null,"小字名":null,"地番":"855-1","精度区分":null,"座標系":"任意座標系"}},{"type":"Polygon","arcs":[[339,-319,-323,-330]],"properties":{"市区町村名":"岩内郡共和町","大字名":"前田","丁目名":null,"小字名":null,"地番":"861-2","精度区分":null,"座標系":"任意座標系"}},{"type":"Polygon","arcs":[[340,-327,-321,-326]],"properties":{"市区町村名":"岩内郡共和町","大字名":"前田","丁目名":null,"小字名":null,"地番":"860","精度区分":null,"座標系":"任意座標系"}},{"type":"Polygon","arcs":[[-337,-3,341,342]],"properties":{"市区町村名":"岩内郡共和町","大字名":"前田","丁目名":null,"小字名":null,"地番":"880-1","精度区分":null,"座標系":"任意座標系"}},{"type":"Polygon","arcs":[[343,-338,-343,344,345]],"properties":{"市区町村名":"岩内郡共和町","大字名":"前田","丁目名":null,"小字名":null,"地番":"879","精度区分":null,"座標系":"任意座標系"}},{"type":"Polygon","arcs":[[-342,-2,346,347,348,349,350,351,352,-345]],"properties":{"市区町村名":"岩内郡共和町","大字名":"前田","丁目名":null,"小字名":null,"地番":"862-1","精度区分":null,"座標系":"任意座標系"}},{"type":"Polygon","arcs":[[-340,-339,-344,353]],"properties":{"市区町村名":"岩内郡共和町","大字名":"前田","丁目名":null,"小字名":null,"地番":"861-1","精度区分":null,"座標系":"任意座標系"}},{"type":"Polygon","arcs":[[-354,-346,-353,-315]],"properties":{"市区町村名":"岩内郡共和町","大字名":"前田","丁目名":null,"小字名":null,"地番":"877-1","精度区分":null,"座標系":"任意座標系"}},{"type":"Polygon","arcs":[[354,355,356,357,358]],"properties":{"市区町村名":"岩内郡共和町","大字名":"前田","丁目名":null,"小字名":null,"地番":"915-1","精度区分":null,"座標系":"任意座標系"}},{"type":"Polygon","arcs":[[359,360,-302,361,-358]],"properties":{"市区町村名":"岩内郡共和町","大字名":"前田","丁目名":null,"小字名":null,"地番":"916-1","精度区分":null,"座標系":"任意座標系"}},{"type":"Polygon","arcs":[[362,-304,363,-308]],"properties":{"市区町村名":"岩内郡共和町","大字名":"前田","丁目名":null,"小字名":null,"地番":"863-2","精度区分":null,"座標系":"任意座標系"}},{"type":"Polygon","arcs":[[364,-359,-362,-363,365]],"properties":{"市区町村名":"岩内郡共和町","大字名":"前田","丁目名":null,"小字名":null,"地番":"863-1","精度区分":null,"座標系":"任意座標系"}},{"type":"Polygon","arcs":[[366,-366,-307,367,-351]],"properties":{"市区町村名":"岩内郡共和町","大字名":"前田","丁目名":null,"小字名":null,"地番":"878-1","精度区分":null,"座標系":"任意座標系"}},{"type":"Polygon","arcs":[[368,369,-356]],"properties":{"市区町村名":"岩内郡共和町","大字名":"前田","丁目名":null,"小字名":null,"地番":"915-2","精度区分":null,"座標系":"任意座標系"}},{"type":"Polygon","arcs":[[-348,370,-369,371]],"properties":{"市区町村名":"岩内郡共和町","大字名":"前田","丁目名":null,"小字名":null,"地番":"882-2","精度区分":null,"座標系":"任意座標系"}},{"type":"Polygon","arcs":[[-349,-372,-355,372]],"properties":{"市区町村名":"岩内郡共和町","大字名":"前田","丁目名":null,"小字名":null,"地番":"882-1","精度区分":null,"座標系":"任意座標系"}},{"type":"Polygon","arcs":[[-367,-350,-373,-365]],"properties":{"市区町村名":"岩内郡共和町","大字名":"前田","丁目名":null,"小字名":null,"地番":"881","精度区分":null,"座標系":"任意座標系"}},{"type":"Polygon","arcs":[[373,-368,-306]],"properties":{"市区町村名":"岩内郡共和町","大字名":"前田","丁目名":null,"小字名":null,"地番":"878-3","精度区分":null,"座標系":"任意座標系"}},{"type":"Polygon","arcs":[[374,375,-298,376,-299,-361]],"properties":{"市区町村名":"岩内郡共和町","大字名":"前田","丁目名":null,"小字名":null,"地番":"917-1","精度区分":null,"座標系":"任意座標系"}},{"type":"Polygon","arcs":[[377,-286,378,-293,379]],"properties":{"市区町村名":"岩内郡共和町","大字名":"前田","丁目名":null,"小字名":null,"地番":"918-2","精度区分":null,"座標系":"任意座標系"}},{"type":"Polygon","arcs":[[-316,-352,-374,-312]],"properties":{"市区町村名":"岩内郡共和町","大字名":"前田","丁目名":null,"小字名":null,"地番":"862-3","精度区分":null,"座標系":"任意座標系"}},{"type":"Polygon","arcs":[[380,381,382,383]],"properties":{"市区町村名":"岩内郡共和町","大字名":"前田","丁目名":null,"小字名":null,"地番":"872-1","精度区分":null,"座標系":"任意座標系"}},{"type":"Polygon","arcs":[[384,-384,385,-289]],"properties":{"市区町村名":"岩内郡共和町","大字名":"前田","丁目名":null,"小字名":null,"地番":"872-2","精度区分":null,"座標系":"任意座標系"}},{"type":"Polygon","arcs":[[386,387,388,389,390]],"properties":{"市区町村名":"岩内郡共和町","大字名":"前田","丁目名":null,"小字名":null,"地番":"873-1","精度区分":null,"座標系":"任意座標系"}},{"type":"Polygon","arcs":[[-390,391,392]],"properties":{"市区町村名":"岩内郡共和町","大字名":"前田","丁目名":null,"小字名":null,"地番":"873-3","精度区分":null,"座標系":"任意座標系"}},{"type":"Polygon","arcs":[[393,-391,-393,394,-291]],"properties":{"市区町村名":"岩内郡共和町","大字名":"前田","丁目名":null,"小字名":null,"地番":"873-2","精度区分":null,"座標系":"任意座標系"}},{"type":"Polygon","arcs":[[-376,395,396,397]],"properties":{"市区町村名":"岩内郡共和町","大字名":"前田","丁目名":null,"小字名":null,"地番":"918-1","精度区分":null,"座標系":"任意座標系"}},{"type":"Polygon","arcs":[[-397,398,-380,399]],"properties":{"市区町村名":"岩内郡共和町","大字名":"前田","丁目名":null,"小字名":null,"地番":"918-3","精度区分":null,"座標系":"任意座標系"}},{"type":"Polygon","arcs":[[-140,-292,-395,-392,-389,400]],"properties":{"市区町村名":"岩内郡共和町","大字名":"前田","丁目名":null,"小字名":null,"地番":"868","精度区分":null,"座標系":"任意座標系"}},{"type":"Polygon","arcs":[[-142,401,402,-287,-378,-399,-396,-375,-360,-357,-370,-371,-347,-1,-336,-333,-149,-153,-146]],"properties":{"市区町村名":"岩内郡共和町","大字名":"前田","丁目名":null,"小字名":null,"地番":"854","精度区分":null,"座標系":"任意座標系"}},{"type":"Polygon","arcs":[[-290,-386,-383,403,-387,-394]],"properties":{"市区町村名":"岩内郡共和町","大字名":"前田","丁目名":null,"小字名":null,"地番":"866","精度区分":null,"座標系":"任意座標系"}},{"type":"Polygon","arcs":[[-288,-403,404,-381,-385]],"properties":{"市区町村名":"岩内郡共和町","大字名":"前田","丁目名":null,"小字名":null,"地番":"864","精度区分":null,"座標系":"任意座標系"}},{"type":"Polygon","arcs":[[-141,-401,-388,-404,-382,-405,-402]],"properties":{"市区町村名":"岩内郡共和町","大字名":"前田","丁目名":null,"小字名":null,"地番":"865","精度区分":null,"座標系":"任意座標系"}},{"type":"Polygon","arcs":[[-296,-398,-400,-295,405]],"properties":{"市区町村名":"岩内郡共和町","大字名":"前田","丁目名":null,"小字名":null,"地番":"857-1","精度区分":null,"座標系":"任意座標系"}},{"type":"Polygon","arcs":[[-113,406,407,408,-133]],"properties":{"市区町村名":"岩内郡共和町","大字名":"前田","丁目名":null,"小字名":null,"地番":"817-1","精度区分":null,"座標系":"任意座標系"}},{"type":"Polygon","arcs":[[409,-408,410,-44]],"properties":{"市区町村名":"岩内郡共和町","大字名":"前田","丁目名":null,"小字名":null,"地番":"817-2","精度区分":null,"座標系":"任意座標系"}},{"type":"Polygon","arcs":[[-45,-411,-407,-112,-27]],"properties":{"市区町村名":"岩内郡共和町","大字名":"前田","丁目名":null,"小字名":null,"地番":"812","精度区分":null,"座標系":"任意座標系"}},{"type":"Polygon","arcs":[[411,412,413,-42]],"properties":{"市区町村名":"岩内郡共和町","大字名":"前田","丁目名":null,"小字名":null,"地番":"830-2","精度区分":null,"座標系":"任意座標系"}},{"type":"Polygon","arcs":[[414,-135,415,-413]],"properties":{"市区町村名":"岩内郡共和町","大字名":"前田","丁目名":null,"小字名":null,"地番":"830-1","精度区分":null,"座標系":"任意座標系"}},{"type":"Polygon","arcs":[[-108,-134,-409,-410,-43,-414,-416,-137,-122]],"properties":{"市区町村名":"岩内郡共和町","大字名":"前田","丁目名":null,"小字名":null,"地番":"810","精度区分":null,"座標系":"任意座標系"}},{"type":"Polygon","arcs":[[416,417,418]],"properties":{"市区町村名":"岩内郡共和町","大字名":"前田","丁目名":null,"小字名":null,"地番":"831-3","精度区分":null,"座標系":"任意座標系"}},{"type":"Polygon","arcs":[[419,-419,420,421,-40]],"properties":{"市区町村名":"岩内郡共和町","大字名":"前田","丁目名":null,"小字名":null,"地番":"831-2","精度区分":null,"座標系":"任意座標系"}},{"type":"Polygon","arcs":[[422,-162,423,-421,-418]],"properties":{"市区町村名":"岩内郡共和町","大字名":"前田","丁目名":null,"小字名":null,"地番":"831-1","精度区分":null,"座標系":"任意座標系"}},{"type":"Polygon","arcs":[[-88,-126,-118,-121,-136,-415,-412,-41,-422,-424,-161,-158,-130,-129]],"properties":{"市区町村名":"岩内郡共和町","大字名":"前田","丁目名":null,"小字名":null,"地番":"808","精度区分":null,"座標系":"任意座標系"}},{"type":"Polygon","arcs":[[-132,-160,-163,-423,-417,-420,-39,424,-90,-128]],"properties":{"市区町村名":"岩内郡共和町","大字名":"前田","丁目名":null,"小字名":null,"地番":"807","精度区分":null,"座標系":"任意座標系"}}]}},"arcs":[[[376028,745302],[11905,40603]],[[387933,785905],[620,-134]],[[388553,785771],[-11936,-40618]],[[376617,745153],[-589,149]],[[582880,560791],[-996,1181]],[[581884,561972],[1193,4085]],[[583077,566057],[1024,-264],[-1221,-5002]],[[606772,299950],[-91273,23464]],[[515499,323414],[52133,178488]],[[567632,501902],[53017,-13250],[4582,-13302],[2762,-13761],[15526,-31050],[-11213,-39082],[558,-135]],[[632864,391322],[-26092,-91372]],[[772776,131608],[-139029,34473]],[[633747,166081],[16779,57246]],[[650526,223327],[139066,-34293]],[[789592,189034],[-16816,-57426]],[[820533,294689],[-24975,18047]],[[795558,312736],[542,1997]],[[796100,314733],[13615,-11169],[10818,-8875]],[[435483,81271],[-161105,42132]],[[274378,123403],[718,2228]],[[275096,125631],[131064,-34092]],[[406160,91539],[2095,-545]],[[408255,90994],[27976,-7278]],[[436231,83716],[-748,-2445]],[[239896,132351],[-214702,55715]],[[25194,188066],[666,2274]],[[25860,190340],[103827,-26883]],[[129687,163457],[5686,-1480]],[[135373,161977],[105255,-27379]],[[240628,134598],[-732,-2247]],[[274378,123403],[-34482,8948]],[[240628,134598],[34468,-8967]],[[20142,189383],[-11668,3044],[-8474,4069],[570,1296],[5905,-2278],[14380,-3771]],[[20855,191743],[-713,-2360]],[[25194,188066],[-5052,1317]],[[20855,191743],[25415,87003],[7202,24818],[38715,133399],[67167,229685],[693,2370],[417,1424]],[[160464,670442],[5098,-1245]],[[165562,669197],[-742,-2549],[-23212,-79753],[-45667,-156166]],[[95941,430729],[-509,-1761]],[[95432,428968],[-22948,-79215]],[[72484,349753],[-518,-1784]],[[71966,347969],[-22956,-78618]],[[49010,269351],[-767,-2613]],[[48243,266738],[-21808,-74434]],[[26435,192304],[-575,-1964]],[[408255,90994],[9534,32483]],[[417789,123477],[28019,-7003]],[[445808,116474],[-9577,-32758]],[[441185,79779],[-5702,1492]],[[445808,116474],[895,4067],[8321,28785]],[[455024,149326],[1547,5296]],[[456571,154622],[51421,175430]],[[507992,330052],[69233,237511],[5852,-1506]],[[581884,561972],[-104471,-357822],[-30710,-104541],[-4336,-15772]],[[442367,83837],[-474,-1627]],[[441893,82210],[-708,-2431]],[[417789,123477],[9703,33053]],[[427492,156530],[27532,-7204]],[[509335,66108],[-375,-1159]],[[508960,64949],[-66593,18888]],[[582880,560791],[-1078,-4415],[1457,-392]],[[583259,555984],[-13548,-46963]],[[569711,509021],[-1574,-5389]],[[568137,503632],[-505,-1730]],[[515499,323414],[-547,-1887]],[[514952,321527],[-34376,-117787]],[[480576,203740],[-478,-1631]],[[480098,202109],[-1326,-4512]],[[478772,197597],[-550,-1873]],[[478222,195724],[-11156,-37982]],[[467066,157742],[-537,-1829]],[[466529,155913],[-11884,-40462]],[[454645,115451],[-1116,-3796]],[[453529,111655],[-6826,-23991],[-340,-1640],[31022,-9196]],[[477385,76828],[32417,-9275],[-467,-1445]],[[486110,102617],[-8725,-25789]],[[453529,111655],[32581,-9038]],[[508960,64949],[-237,-734]],[[508723,64215],[-66830,17995]],[[620951,31861],[-174248,46447],[-5518,1471]],[[508723,64215],[113016,-30139]],[[621739,34076],[-788,-2215]],[[427492,156530],[-2034,495],[1457,5328],[29656,-7731]],[[406160,91539],[571,1773],[-2720,712]],[[404011,94024],[20738,71099],[683,-168]],[[425432,164955],[29458,-7758],[9112,30514]],[[464002,187711],[37,127],[17293,59179]],[[481332,247017],[499,1707]],[[481831,248724],[23560,79980]],[[505391,328704],[542,1845]],[[505933,330549],[2059,-497]],[[404011,94024],[-141973,37149]],[[262038,131173],[22382,76960]],[[284420,208133],[143427,-34830]],[[427847,173303],[-2415,-8348]],[[135373,161977],[570,1917]],[[135943,163894],[25585,-6692]],[[161528,157202],[28933,-7560]],[[190461,149642],[71577,-18469]],[[190461,149642],[22001,76017]],[[212462,225659],[71958,-17526]],[[161528,157202],[14921,51006]],[[176449,208208],[7092,24495]],[[183541,232703],[28921,-7044]],[[176449,208208],[-25375,6531]],[[151074,214739],[849,2853],[-4572,5646]],[[147351,223238],[6624,17935]],[[153975,241173],[1452,-386],[5514,19636]],[[160941,260423],[2371,8448],[28695,-6930]],[[192007,261941],[-7776,-26855]],[[184231,235086],[-690,-2383]],[[129687,163457],[565,1910]],[[130252,165367],[15836,53599]],[[146088,218966],[1263,4272]],[[151074,214739],[-15131,-50845]],[[285083,210648],[-100852,24438]],[[192007,261941],[15227,52814]],[[207234,314755],[29934,-7349],[70965,-17314]],[[308133,290092],[-23050,-79444]],[[102309,256131],[23247,78680]],[[125556,334811],[81678,-20056]],[[160941,260423],[-28362,7112],[-5075,-17653],[-25195,6249]],[[427847,173303],[642,2221]],[[428489,175524],[5768,19939],[29745,-7752]],[[428489,175524],[-143406,35124]],[[308133,290092],[173199,-43075]],[[285367,297378],[22928,79394]],[[308295,376772],[197096,-48068]],[[481831,248724],[-196464,48654]],[[285367,297378],[-47616,11799],[-20337,4993]],[[217414,314170],[23080,79274]],[[240494,393444],[67801,-16672]],[[146088,218966],[-24596,7478],[5998,20529]],[[127490,246973],[1221,-305],[5410,18468],[24481,-5962],[-5184,-17853],[557,-148]],[[73778,263207],[23012,78667]],[[96790,341874],[28766,-7063]],[[102309,256131],[-28531,7076]],[[160464,670442],[2060,7070]],[[162524,677512],[5122,-1263]],[[167646,676249],[167578,-41200]],[[335224,635049],[1932,-476]],[[337156,634573],[5681,-1402]],[[342837,633171],[124053,-30209]],[[466890,602962],[-2061,-5144],[66224,-17792],[-84350,20576],[-270746,66046],[-10395,2549]],[[467632,604814],[-742,-1852]],[[342837,633171],[563,1899]],[[343400,635070],[124232,-30256]],[[345480,635999],[-1682,414]],[[343798,636413],[30032,101686]],[[373830,738099],[1594,-404]],[[375424,737695],[-29944,-101696]],[[468155,606118],[-523,-1304]],[[343400,635070],[398,1343]],[[345480,635999],[122675,-29881]],[[375424,737695],[158738,-40269]],[[534162,697426],[-2529,-8991]],[[531633,688435],[-33259,-7544],[-5757,-14243],[-24462,-60530]],[[217414,314170],[-91413,22444]],[[126001,336614],[23027,79229]],[[149028,415843],[91466,-22399]],[[126001,336614],[-28722,7051]],[[97279,343665],[22992,79220]],[[120271,422885],[28757,-7042]],[[679975,16299],[714,2058]],[[680689,18357],[59920,-15980]],[[740609,2377],[1746,-465]],[[742355,1912],[-562,-1912],[-61818,16299]],[[679975,16299],[-59024,15562]],[[621739,34076],[58950,-15719]],[[782740,139384],[575,1955]],[[783315,141339],[162814,-36398],[-2307,3965],[-5139,34788],[28832,-6151]],[[967515,137543],[-466,-1783]],[[967049,135760],[-25421,5499],[-317,69],[317,-2090],[4598,-30204],[3095,-5427],[-2227,-1147],[-5466,1228],[-158888,35696]],[[740609,2377],[500,1701]],[[741109,4078],[17405,59121]],[[758514,63199],[552,1876]],[[759066,65075],[16632,56956]],[[775698,122031],[540,1828]],[[776238,123859],[19360,65501]],[[795598,189360],[1554,-397],[-13837,-47624]],[[782740,139384],[-40385,-137472]],[[795598,189360],[29959,101363]],[[825557,290723],[11369,-8975]],[[836926,281748],[47684,-37424],[10271,4805]],[[894881,249129],[12595,-7061],[36304,-26029],[29152,-31479],[23016,-37425]],[[995948,147135],[1356,-6190]],[[997304,140945],[-27344,5951],[-2445,-9353]],[[820533,294689],[-30422,-103884]],[[790111,190805],[-200360,49367],[17445,59667],[-424,111]],[[632864,391322],[70898,-17048]],[[703762,374274],[16141,-13108],[23423,-14718]],[[743326,346448],[-12072,-41665],[58052,-15693],[6252,23646]],[[836926,281748],[13140,-5845]],[[850066,275903],[17384,-11397],[27431,-15377]],[[850066,275903],[45188,-20636],[30555,8795]],[[925809,264062],[10051,-6612]],[[935860,257450],[-10717,5835],[-30262,-14156]],[[964998,245104],[-32140,20988]],[[932858,266092],[5362,1543],[3408,-2866],[23370,-19665]],[[925809,264062],[7049,2030]],[[964998,245104],[11682,-9968],[1757,-8024]],[[978437,227112],[-3325,1683],[-12544,11084],[-26708,17571]],[[997304,140945],[2695,-12314],[-32950,7129]],[[978437,227112],[17511,-79977]],[[776238,123859],[-297466,73738]],[[480098,202109],[292181,-72198],[497,1697]],[[789592,189034],[519,1771]],[[820533,294689],[5024,-3966]],[[480576,203740],[153171,-37659]],[[514952,321527],[71613,-17963],[17979,-4914],[-17417,-59680],[63399,-15643]],[[758514,63199],[-61345,15318]],[[697169,78517],[-60307,15057]],[[636862,93574],[-142193,35505]],[[494669,129079],[5610,19031],[-33750,7803]],[[467066,157742],[35659,-8290],[-5351,-18942],[139998,-35005]],[[637372,95505],[60374,-15097]],[[697746,80408],[61320,-15333]],[[478222,195724],[176084,-43621]],[[654306,152103],[-16934,-56598]],[[697746,80408],[16715,56793]],[[714461,137201],[61237,-15170]],[[714461,137201],[-60155,14902]],[[494669,129079],[-7373,-22798]],[[487296,106281],[-32651,9170]],[[619797,36544],[-110462,29564]],[[486110,102617],[1186,3664]],[[636862,93574],[-17065,-57030]],[[619797,36544],[60199,-16111]],[[679996,20433],[61113,-16355]],[[697169,78517],[-17173,-58084]],[[743326,346448],[1887,-1224]],[[745213,345224],[-11107,-39052],[53647,-14701],[6045,22412]],[[793798,313883],[1760,-1147]],[[745213,345224],[4731,-3066]],[[749944,342158],[-7157,-25033],[19761,-4892],[5088,17657]],[[767636,329890],[8671,-6734],[6693,-2239]],[[783000,320917],[10798,-7034]],[[640998,463470],[-7863,13160]],[[633135,476630],[-4836,15481],[-4632,9115],[-14486,23932],[-17236,28490]],[[591945,553648],[17018,-4578],[7033,-16257],[18149,-20677],[9195,-23781],[-2923,-17278],[581,-7607]],[[568137,503632],[54275,-13452]],[[622412,490180],[4845,-14348],[2674,-13423],[13140,-26077]],[[643071,436332],[94,-1240],[443,-110]],[[643608,434982],[2385,-4301]],[[645993,430681],[-10945,-37758],[66334,-16150]],[[701382,376773],[2380,-2499]],[[708681,379952],[-41570,38976]],[[667111,418928],[-6975,11953]],[[660136,430881],[13433,-3333],[37332,-45285]],[[710901,382263],[-2220,-2311]],[[783000,320917],[9299,-3171]],[[792299,317746],[2124,-1684]],[[794423,316062],[-625,-2179]],[[754011,348094],[38288,-30348]],[[783000,320917],[-21589,13808]],[[761411,334725],[-11103,8708]],[[750308,343433],[-4582,3594]],[[745726,347027],[-40904,28908]],[[704822,375935],[3859,4017]],[[708681,379952],[45330,-31858]],[[767636,329890],[-6225,4835]],[[794423,316062],[1677,-1329]],[[750308,343433],[-364,-1275]],[[745213,345224],[513,1803]],[[743326,346448],[-39564,27826]],[[701382,376773],[3440,-838]],[[681540,397601],[-35547,33080]],[[643608,434982],[8877,-2203]],[[652485,432779],[14626,-13851]],[[667111,418928],[14429,-21327]],[[681540,397601],[19842,-20828]],[[681540,397601],[23282,-21666]],[[710901,382263],[43110,-34169]],[[622412,490180],[-2820,6387]],[[619592,496567],[-36333,59417]],[[583259,555984],[3671,-986]],[[586930,554998],[10215,-15433],[20451,-36923],[15539,-26012]],[[633135,476630],[2748,-13576],[6022,-11461]],[[641905,451593],[1166,-15261]],[[569711,509021],[49881,-12454]],[[749944,342158],[11467,-7433]],[[652485,432779],[7651,-1898]],[[586930,554998],[5015,-1350]],[[640998,463470],[907,-11877]],[[162524,677512],[269,922],[329,1128],[37857,129733],[555,1883],[40373,137161],[-5826,1559],[17124,18459]],[[253205,968357],[-4574,-15970]],[[248631,952387],[-5193,-17548]],[[243438,934839],[-455,-1539]],[[242983,933300],[-36235,-123443]],[[206748,809857],[-545,-1865]],[[206203,807992],[-38003,-129847]],[[168200,678145],[-554,-1896]],[[255663,967362],[-1831,1671]],[[253832,969033],[480,517],[1378,-702]],[[255690,968848],[-27,-1486]],[[312792,938779],[-6255,10395]],[[306537,949174],[24185,3276],[21083,19807],[3079,12027],[27422,-17721]],[[382306,966563],[-28706,-37055],[-40808,9271]],[[411180,950403],[-25124,21079]],[[386056,971482],[14460,18970],[14820,-7302],[34675,16849],[-1590,-21150]],[[448421,978849],[-37241,-28446]],[[494391,880590],[-83211,69813]],[[448421,978849],[-2070,-27547],[67217,-43338],[-13522,-7572],[17111,-11195]],[[517157,889197],[-22766,-8607]],[[593896,784991],[-2530,648]],[[591366,785639],[-4525,5474],[-21009,23421],[-4671,4808],[-4809,5396],[-28976,27666],[-9519,8385],[-20403,17458]],[[497454,878247],[-1204,784]],[[496250,879031],[23080,8744]],[[519330,887775],[11265,-7369],[15093,-14329],[6722,-6383],[24286,-32291],[17200,-42412]],[[593896,784991],[831,-2051]],[[594727,782940],[-1427,360]],[[593300,783300],[-1934,2339]],[[594727,782940],[585,-1978]],[[595312,780962],[-2012,2338]],[[556210,701367],[-913,38266],[-337,39684],[-4708,14829]],[[550252,794146],[43048,-10846]],[[595312,780962],[-21138,-27752],[6498,-21872]],[[580672,731338],[-5970,-34687]],[[574702,696651],[-18492,4716]],[[575323,670332],[-1539,16999]],[[573784,687331],[-204,2251]],[[573580,689582],[804,5225]],[[574384,694807],[318,1844]],[[580672,731338],[16760,-46660],[-20892,-15584],[-1217,1238]],[[575323,670332],[-15550,15828],[2688,3979]],[[562461,690139],[11323,-2808]],[[573580,689582],[-9850,2434]],[[563730,692016],[2864,4240],[-10119,-2222]],[[556475,694034],[-195,5382]],[[556280,699416],[18104,-4609]],[[556475,694034],[-4991,-1096]],[[551484,692938],[-17322,4488]],[[373830,738099],[622,2037]],[[374452,740136],[182023,-46102]],[[551484,692938],[-5796,-1315],[-14055,-3188]],[[374452,740136],[1576,5166]],[[376617,745153],[32195,-8196]],[[408812,736957],[42027,-10699]],[[450839,726258],[105441,-26842]],[[556280,699416],[-70,1951]],[[562461,690139],[1269,1877]],[[388553,785771],[32371,-6999]],[[420924,778772],[-12112,-41815]],[[451328,728120],[-489,-1862]],[[420924,778772],[41351,-8939]],[[462275,769833],[-10947,-41713]],[[387933,785905],[523,1776]],[[388456,787681],[774,-167]],[[389230,787514],[23009,-4968]],[[412239,782546],[10022,-2160]],[[422261,780386],[38561,-8267],[11297,44097],[77442,-19858]],[[549561,796358],[691,-2212]],[[550252,794146],[-76747,19804],[-11230,-44117]],[[451328,728120],[104882,-26753]],[[442057,852458],[-30755,10775]],[[411302,863233],[3219,10580],[-609,152]],[[413912,873965],[6669,22605]],[[420581,896570],[24657,8769],[35754,-29814]],[[480992,875525],[-22873,-8639],[-16062,-14428]],[[420581,896570],[-60485,15002]],[[360096,911572],[51084,38831]],[[494391,880590],[-13399,-5065]],[[496250,879031],[-1859,1559]],[[517157,889197],[2173,-1422]],[[440990,848574],[1067,3884]],[[496250,879031],[-36418,-13797],[-18842,-16660]],[[422261,780386],[18729,68188]],[[497454,878247],[28574,-29736],[15139,-25261],[8394,-26892]],[[411302,863233],[-504,177]],[[410798,863410],[3114,10555]],[[388456,787681],[22342,75729]],[[411302,863233],[-22072,-75719]],[[442057,852458],[-12555,-9031],[-17263,-60881]],[[591366,785639],[-41805,10719]],[[360096,911572],[-36358,9017]],[[323738,920589],[-10946,18190]],[[382306,966563],[3750,4919]],[[253275,951212],[-4644,1175]],[[253205,968357],[627,676]],[[255663,967362],[-107,-5746],[-2281,-10404]],[[243572,933154],[167476,-41429]],[[411048,891725],[-36315,-123396]],[[374733,768329],[-167286,41355]],[[207447,809684],[36125,123470]],[[242983,933300],[589,-146]],[[207447,809684],[-699,173]],[[206903,807819],[167280,-41351]],[[374183,766468],[-38392,-129526]],[[335791,636942],[-121394,29706],[-8997,2239]],[[205400,668887],[-36041,10234]],[[169359,679121],[37544,128698]],[[205400,668887],[-36386,9055]],[[169014,677942],[345,1179]],[[206203,807992],[700,-173]],[[169014,677942],[-814,203]],[[323738,920589],[-67403,16717]],[[256335,937306],[3573,13610],[-2429,14786]],[[257479,965702],[20918,-19109],[34395,-7814]],[[256335,937306],[-5683,1410],[3458,12285],[-835,211]],[[255663,967362],[1816,-1660]],[[335791,636942],[-567,-1893]],[[337156,634573],[76108,258076],[-1813,450]],[[411451,893099],[-168013,41740]],[[374733,768329],[-550,-1861]],[[411451,893099],[-403,-1374]],[[255690,968848],[24739,-12585],[24893,-7254],[1215,165]],[[130252,165367],[-103290,26799]],[[26962,192166],[21744,74457]],[[48706,266623],[78784,-19650]],[[48243,266738],[463,-115]],[[26962,192166],[-527,138]],[[71966,347969],[390,-96]],[[72356,347873],[-22887,-78637]],[[49469,269236],[-459,115]],[[72356,347873],[24434,-5999]],[[73778,263207],[-24309,6029]],[[95750,428890],[15959,-3908]],[[111709,424982],[-2347,-447],[-14370,1730]],[[94992,426265],[758,2625]],[[95432,428968],[318,-78]],[[94992,426265],[-22119,-76607]],[[72873,349658],[-389,95]],[[111709,424982],[8562,-2097]],[[97279,343665],[-24406,5993]],[[95941,430729],[350762,-85707],[59230,-14473]]],"bbox":[208748.717,230865.571,209758.969,231967.245],"transform":{"scale":[0.0010102530102530179,0.0011016751016751007],"translate":[208748.717,230865.571]}}