{"type":"Topology","objects":{"01401-4334-7.featurecollection":{"type":"GeometryCollection","geometries":[{"type":"Polygon","arcs":[[0,1,2,3]],"properties":{"市区町村名":"岩内郡共和町","大字名":"幌似","丁目名":null,"小字名":null,"地番":"1927-3","精度区分":null,"座標系":"任意座標系"}},{"type":"Polygon","arcs":[[4,5,6,7]],"properties":{"市区町村名":"岩内郡共和町","大字名":"幌似","丁目名":null,"小字名":null,"地番":"1967-2","精度区分":null,"座標系":"任意座標系"}},{"type":"Polygon","arcs":[[8,-5,9]],"properties":{"市区町村名":"岩内郡共和町","大字名":"幌似","丁目名":null,"小字名":null,"地番":"1967-3","精度区分":null,"座標系":"任意座標系"}},{"type":"Polygon","arcs":[[10,11,12,13]],"properties":{"市区町村名":"岩内郡共和町","大字名":"幌似","丁目名":null,"小字名":null,"地番":"1988-3","精度区分":null,"座標系":"任意座標系"}},{"type":"Polygon","arcs":[[-12,14,15]],"properties":{"市区町村名":"岩内郡共和町","大字名":"幌似","丁目名":null,"小字名":null,"地番":"1990-3","精度区分":null,"座標系":"任意座標系"}},{"type":"Polygon","arcs":[[16,17,18,19]],"properties":{"市区町村名":"岩内郡共和町","大字名":"幌似","丁目名":null,"小字名":null,"地番":"1926-2","精度区分":null,"座標系":"任意座標系"}},{"type":"Polygon","arcs":[[20,21,22,23,24]],"properties":{"市区町村名":"岩内郡共和町","大字名":"幌似","丁目名":null,"小字名":null,"地番":"1925-2","精度区分":null,"座標系":"任意座標系"}},{"type":"Polygon","arcs":[[25,26,27,28,29]],"properties":{"市区町村名":"岩内郡共和町","大字名":"幌似","丁目名":null,"小字名":null,"地番":"1971-4","精度区分":null,"座標系":"任意座標系"}},{"type":"Polygon","arcs":[[30,-30,31]],"properties":{"市区町村名":"岩内郡共和町","大字名":"幌似","丁目名":null,"小字名":null,"地番":"1971-6","精度区分":null,"座標系":"任意座標系"}},{"type":"Polygon","arcs":[[32,33,34,35]],"properties":{"市区町村名":"岩内郡共和町","大字名":"幌似","丁目名":null,"小字名":null,"地番":"1956-1","精度区分":null,"座標系":"任意座標系"}},{"type":"Polygon","arcs":[[36,37,38,39]],"properties":{"市区町村名":"岩内郡共和町","大字名":"幌似","丁目名":null,"小字名":null,"地番":"1949-6","精度区分":null,"座標系":"任意座標系"}},{"type":"Polygon","arcs":[[40,41,42]],"properties":{"市区町村名":"岩内郡共和町","大字名":"幌似","丁目名":null,"小字名":null,"地番":"1946-4","精度区分":null,"座標系":"任意座標系"}},{"type":"Polygon","arcs":[[43,44,45,46,47]],"properties":{"市区町村名":"岩内郡共和町","大字名":"幌似","丁目名":null,"小字名":null,"地番":"1995-5","精度区分":null,"座標系":"任意座標系"}},{"type":"Polygon","arcs":[[48,49,-35]],"properties":{"市区町村名":"岩内郡共和町","大字名":"幌似","丁目名":null,"小字名":null,"地番":"1956-2","精度区分":null,"座標系":"任意座標系"}},{"type":"Polygon","arcs":[[50,51,52,53]],"properties":{"市区町村名":"岩内郡共和町","大字名":"幌似","丁目名":null,"小字名":null,"地番":"2006-2","精度区分":null,"座標系":"任意座標系"}},{"type":"Polygon","arcs":[[54,55,56,57,58]],"properties":{"市区町村名":"岩内郡共和町","大字名":"幌似","丁目名":null,"小字名":null,"地番":"1952-1","精度区分":null,"座標系":"任意座標系"}},{"type":"Polygon","arcs":[[59,60,61,62,63,64,65]],"properties":{"市区町村名":"岩内郡共和町","大字名":"幌似","丁目名":null,"小字名":null,"地番":"2004-1","精度区分":null,"座標系":"任意座標系"}},{"type":"Polygon","arcs":[[-60,66]],"properties":{"市区町村名":"岩内郡共和町","大字名":"幌似","丁目名":null,"小字名":null,"地番":"2004-5","精度区分":null,"座標系":"任意座標系"}},{"type":"Polygon","arcs":[[67,68,69,70]],"properties":{"市区町村名":"岩内郡共和町","大字名":"幌似","丁目名":null,"小字名":null,"地番":"1932-2","精度区分":null,"座標系":"任意座標系"}},{"type":"Polygon","arcs":[[71,72]],"properties":{"市区町村名":"岩内郡共和町","大字名":"幌似","丁目名":null,"小字名":null,"地番":"1930-2","精度区分":null,"座標系":"任意座標系"}},{"type":"Polygon","arcs":[[73,-73,74,75]],"properties":{"市区町村名":"岩内郡共和町","大字名":"幌似","丁目名":null,"小字名":null,"地番":"1930-1","精度区分":null,"座標系":"任意座標系"}},{"type":"Polygon","arcs":[[76,77,78,-76,79,80,81]],"properties":{"市区町村名":"岩内郡共和町","大字名":"幌似","丁目名":null,"小字名":null,"地番":"1931-1","精度区分":null,"座標系":"任意座標系"}},{"type":"Polygon","arcs":[[82,-81,83]],"properties":{"市区町村名":"岩内郡共和町","大字名":"幌似","丁目名":null,"小字名":null,"地番":"1931-4","精度区分":null,"座標系":"任意座標系"}},{"type":"Polygon","arcs":[[84,85,86,87,-82,-83,88,89,90,91,92,93,94]],"properties":{"市区町村名":"岩内郡共和町","大字名":"幌似","丁目名":null,"小字名":null,"地番":"道-1","精度区分":null,"座標系":"任意座標系"}},{"type":"Polygon","arcs":[[95,-19,96]],"properties":{"市区町村名":"岩内郡共和町","大字名":"幌似","丁目名":null,"小字名":null,"地番":"1935-4","精度区分":null,"座標系":"任意座標系"}},{"type":"Polygon","arcs":[[97,98,99,100,101]],"properties":{"市区町村名":"岩内郡共和町","大字名":"幌似","丁目名":null,"小字名":null,"地番":"1936-1","精度区分":null,"座標系":"任意座標系"}},{"type":"Polygon","arcs":[[-100,102]],"properties":{"市区町村名":"岩内郡共和町","大字名":"幌似","丁目名":null,"小字名":null,"地番":"1936-3","精度区分":null,"座標系":"任意座標系"}},{"type":"Polygon","arcs":[[-96,103,-98,104,105]],"properties":{"市区町村名":"岩内郡共和町","大字名":"幌似","丁目名":null,"小字名":null,"地番":"1935-1","精度区分":null,"座標系":"任意座標系"}},{"type":"Polygon","arcs":[[-20,-106,106,107,108,109,110,111,112,113,114,115]],"properties":{"市区町村名":"岩内郡共和町","大字名":"幌似","丁目名":null,"小字名":null,"地番":"1926-1","精度区分":null,"座標系":"任意座標系"}},{"type":"Polygon","arcs":[[116,-116,117,118]],"properties":{"市区町村名":"岩内郡共和町","大字名":"幌似","丁目名":null,"小字名":null,"地番":"1937-1","精度区分":null,"座標系":"任意座標系"}},{"type":"Polygon","arcs":[[119,-17,-117,-22]],"properties":{"市区町村名":"岩内郡共和町","大字名":"幌似","丁目名":null,"小字名":null,"地番":"1937-4","精度区分":null,"座標系":"任意座標系"}},{"type":"Polygon","arcs":[[-90,120,121,122]],"properties":{"市区町村名":"岩内郡共和町","大字名":"幌似","丁目名":null,"小字名":null,"地番":"1933-9","精度区分":null,"座標系":"任意座標系"}},{"type":"Polygon","arcs":[[123,-122,124,-2]],"properties":{"市区町村名":"岩内郡共和町","大字名":"幌似","丁目名":null,"小字名":null,"地番":"1933-8","精度区分":null,"座標系":"任意座標系"}},{"type":"Polygon","arcs":[[125,126,-4]],"properties":{"市区町村名":"岩内郡共和町","大字名":"幌似","丁目名":null,"小字名":null,"地番":"1934-3","精度区分":null,"座標系":"任意座標系"}},{"type":"Polygon","arcs":[[127,128,129,-127]],"properties":{"市区町村名":"岩内郡共和町","大字名":"幌似","丁目名":null,"小字名":null,"地番":"1934-1","精度区分":null,"座標系":"任意座標系"}},{"type":"Polygon","arcs":[[130,131,132,-1,-130]],"properties":{"市区町村名":"岩内郡共和町","大字名":"幌似","丁目名":null,"小字名":null,"地番":"1927-1","精度区分":null,"座標系":"任意座標系"}},{"type":"Polygon","arcs":[[133,-95,134,-131]],"properties":{"市区町村名":"岩内郡共和町","大字名":"幌似","丁目名":null,"小字名":null,"地番":"1927-2","精度区分":null,"座標系":"任意座標系"}},{"type":"Polygon","arcs":[[135,-134,-129]],"properties":{"市区町村名":"岩内郡共和町","大字名":"幌似","丁目名":null,"小字名":null,"地番":"1934-2","精度区分":null,"座標系":"任意座標系"}},{"type":"Polygon","arcs":[[-135,-94,136,137,138]],"properties":{"市区町村名":"岩内郡共和町","大字名":"幌似","丁目名":null,"小字名":null,"地番":"1933-2","精度区分":null,"座標系":"任意座標系"}},{"type":"Polygon","arcs":[[-137,-93,139,140]],"properties":{"市区町村名":"岩内郡共和町","大字名":"幌似","丁目名":null,"小字名":null,"地番":"1933-6","精度区分":null,"座標系":"任意座標系"}},{"type":"Polygon","arcs":[[141,-91,-123,142,143]],"properties":{"市区町村名":"岩内郡共和町","大字名":"幌似","丁目名":null,"小字名":null,"地番":"1933-5","精度区分":null,"座標系":"任意座標系"}},{"type":"Polygon","arcs":[[144,-143,-124,-133]],"properties":{"市区町村名":"岩内郡共和町","大字名":"幌似","丁目名":null,"小字名":null,"地番":"1933-1","精度区分":null,"座標系":"任意座標系"}},{"type":"Polygon","arcs":[[145,-138,-141,-144]],"properties":{"市区町村名":"岩内郡共和町","大字名":"幌似","丁目名":null,"小字名":null,"地番":"1933-7","精度区分":null,"座標系":"任意座標系"}},{"type":"Polygon","arcs":[[-139,-146,-145,-132]],"properties":{"市区町村名":"岩内郡共和町","大字名":"幌似","丁目名":null,"小字名":null,"地番":"1933-3","精度区分":null,"座標系":"任意座標系"}},{"type":"Polygon","arcs":[[-140,-92,-142]],"properties":{"市区町村名":"岩内郡共和町","大字名":"幌似","丁目名":null,"小字名":null,"地番":"1933-4","精度区分":null,"座標系":"任意座標系"}},{"type":"Polygon","arcs":[[146,147,-77,-88]],"properties":{"市区町村名":"岩内郡共和町","大字名":"幌似","丁目名":null,"小字名":null,"地番":"1931-3","精度区分":null,"座標系":"任意座標系"}},{"type":"Polygon","arcs":[[148,149,-86,150]],"properties":{"市区町村名":"岩内郡共和町","大字名":"幌似","丁目名":null,"小字名":null,"地番":"1928-2","精度区分":null,"座標系":"任意座標系"}},{"type":"Polygon","arcs":[[-147,-87,-150]],"properties":{"市区町村名":"岩内郡共和町","大字名":"幌似","丁目名":null,"小字名":null,"地番":"1931-2","精度区分":null,"座標系":"任意座標系"}},{"type":"Polygon","arcs":[[-149,151,-70,152,-78,-148]],"properties":{"市区町村名":"岩内郡共和町","大字名":"幌似","丁目名":null,"小字名":null,"地番":"1928-1","精度区分":null,"座標系":"任意座標系"}},{"type":"Polygon","arcs":[[153,-71,-152]],"properties":{"市区町村名":"岩内郡共和町","大字名":"幌似","丁目名":null,"小字名":null,"地番":"1932-1","精度区分":null,"座標系":"任意座標系"}},{"type":"Polygon","arcs":[[154,155,-68]],"properties":{"市区町村名":"岩内郡共和町","大字名":"幌似","丁目名":null,"小字名":null,"地番":"1932-4","精度区分":null,"座標系":"任意座標系"}},{"type":"Polygon","arcs":[[156,-155,-154,-151]],"properties":{"市区町村名":"岩内郡共和町","大字名":"幌似","丁目名":null,"小字名":null,"地番":"1932-3","精度区分":null,"座標系":"任意座標系"}},{"type":"Polygon","arcs":[[157,158,159]],"properties":{"市区町村名":"岩内郡共和町","大字名":"幌似","丁目名":null,"小字名":null,"地番":"1982-6","精度区分":null,"座標系":"任意座標系"}},{"type":"Polygon","arcs":[[160,161,162,163,164]],"properties":{"市区町村名":"岩内郡共和町","大字名":"幌似","丁目名":null,"小字名":null,"地番":"1982-2","精度区分":null,"座標系":"任意座標系"}},{"type":"Polygon","arcs":[[165,166,167,-158,168,-161]],"properties":{"市区町村名":"岩内郡共和町","大字名":"幌似","丁目名":null,"小字名":null,"地番":"1982-4","精度区分":null,"座標系":"任意座標系"}},{"type":"Polygon","arcs":[[169,170,171,172,173,174,175,-167]],"properties":{"市区町村名":"岩内郡共和町","大字名":"幌似","丁目名":null,"小字名":null,"地番":"1982-1","精度区分":null,"座標系":"任意座標系"}},{"type":"Polygon","arcs":[[176,-159,-168,-176]],"properties":{"市区町村名":"岩内郡共和町","大字名":"幌似","丁目名":null,"小字名":null,"地番":"1982-7","精度区分":null,"座標系":"任意座標系"}},{"type":"Polygon","arcs":[[-160,-177,177,-162,-169]],"properties":{"市区町村名":"岩内郡共和町","大字名":"幌似","丁目名":null,"小字名":null,"地番":"1982-5","精度区分":null,"座標系":"任意座標系"}},{"type":"Polygon","arcs":[[178,179,180,181]],"properties":{"市区町村名":"岩内郡共和町","大字名":"幌似","丁目名":null,"小字名":null,"地番":"1981-3","精度区分":null,"座標系":"任意座標系"}},{"type":"Polygon","arcs":[[182,-182,183]],"properties":{"市区町村名":"岩内郡共和町","大字名":"幌似","丁目名":null,"小字名":null,"地番":"1982-8","精度区分":null,"座標系":"任意座標系"}},{"type":"Polygon","arcs":[[184,-179,185,186]],"properties":{"市区町村名":"岩内郡共和町","大字名":"幌似","丁目名":null,"小字名":null,"地番":"1981-4","精度区分":null,"座標系":"任意座標系"}},{"type":"Polygon","arcs":[[187,188,189]],"properties":{"市区町村名":"岩内郡共和町","大字名":"幌似","丁目名":null,"小字名":null,"地番":"1981-2","精度区分":null,"座標系":"任意座標系"}},{"type":"Polygon","arcs":[[-188,-171,190]],"properties":{"市区町村名":"岩内郡共和町","大字名":"幌似","丁目名":null,"小字名":null,"地番":"1982-3","精度区分":null,"座標系":"任意座標系"}},{"type":"Polygon","arcs":[[-172,-190,191,-187]],"properties":{"市区町村名":"岩内郡共和町","大字名":"幌似","丁目名":null,"小字名":null,"地番":"1981-1","精度区分":null,"座標系":"任意座標系"}},{"type":"Polygon","arcs":[[192,193,194,195]],"properties":{"市区町村名":"岩内郡共和町","大字名":"幌似","丁目名":null,"小字名":null,"地番":"1957-1","精度区分":null,"座標系":"任意座標系"}},{"type":"Polygon","arcs":[[196,197,198,-193]],"properties":{"市区町村名":"岩内郡共和町","大字名":"幌似","丁目名":null,"小字名":null,"地番":"1957-2","精度区分":null,"座標系":"任意座標系"}},{"type":"Polygon","arcs":[[-198,199,200,201,202]],"properties":{"市区町村名":"岩内郡共和町","大字名":"幌似","丁目名":null,"小字名":null,"地番":"1955-2","精度区分":null,"座標系":"任意座標系"}},{"type":"Polygon","arcs":[[203,204,-202]],"properties":{"市区町村名":"岩内郡共和町","大字名":"幌似","丁目名":null,"小字名":null,"地番":"1955-1","精度区分":null,"座標系":"任意座標系"}},{"type":"Polygon","arcs":[[205,-199,-203]],"properties":{"市区町村名":"岩内郡共和町","大字名":"幌似","丁目名":null,"小字名":null,"地番":"1954-2","精度区分":null,"座標系":"任意座標系"}},{"type":"Polygon","arcs":[[-194,-206,-205,206,207]],"properties":{"市区町村名":"岩内郡共和町","大字名":"幌似","丁目名":null,"小字名":null,"地番":"1954-1","精度区分":null,"座標系":"任意座標系"}},{"type":"Polygon","arcs":[[-204,208,-55,209,210]],"properties":{"市区町村名":"岩内郡共和町","大字名":"幌似","丁目名":null,"小字名":null,"地番":"1953-1","精度区分":null,"座標系":"任意座標系"}},{"type":"Polygon","arcs":[[-59,211,212,-210]],"properties":{"市区町村名":"岩内郡共和町","大字名":"幌似","丁目名":null,"小字名":null,"地番":"1952-3","精度区分":null,"座標系":"任意座標系"}},{"type":"Polygon","arcs":[[-211,-213,213,-34,214,-207]],"properties":{"市区町村名":"岩内郡共和町","大字名":"幌似","丁目名":null,"小字名":null,"地番":"2008-1","精度区分":null,"座標系":"任意座標系"}},{"type":"Polygon","arcs":[[-208,-215,-33,215,-195]],"properties":{"市区町村名":"岩内郡共和町","大字名":"幌似","丁目名":null,"小字名":null,"地番":"1958","精度区分":null,"座標系":"任意座標系"}},{"type":"Polygon","arcs":[[216,217,218,219]],"properties":{"市区町村名":"岩内郡共和町","大字名":"幌似","丁目名":null,"小字名":null,"地番":"1986-3","精度区分":null,"座標系":"任意座標系"}},{"type":"Polygon","arcs":[[-219,220,221,222,223,224,-47,225,226,227]],"properties":{"市区町村名":"岩内郡共和町","大字名":"幌似","丁目名":null,"小字名":null,"地番":"1986-1","精度区分":null,"座標系":"任意座標系"}},{"type":"Polygon","arcs":[[228,229,230,231,-221,-218]],"properties":{"市区町村名":"岩内郡共和町","大字名":"幌似","丁目名":null,"小字名":null,"地番":"1986-2","精度区分":null,"座標系":"任意座標系"}},{"type":"Polygon","arcs":[[-222,-232,232,233]],"properties":{"市区町村名":"岩内郡共和町","大字名":"幌似","丁目名":null,"小字名":null,"地番":"1983-1","精度区分":null,"座標系":"任意座標系"}},{"type":"Polygon","arcs":[[234,235,236]],"properties":{"市区町村名":"岩内郡共和町","大字名":"幌似","丁目名":null,"小字名":null,"地番":"1980-3","精度区分":null,"座標系":"任意座標系"}},{"type":"Polygon","arcs":[[-236,237,238,239,240]],"properties":{"市区町村名":"岩内郡共和町","大字名":"幌似","丁目名":null,"小字名":null,"地番":"1980-1","精度区分":null,"座標系":"任意座標系"}},{"type":"Polygon","arcs":[[241,242,243,244,245,-238]],"properties":{"市区町村名":"岩内郡共和町","大字名":"幌似","丁目名":null,"小字名":null,"地番":"1978-1","精度区分":null,"座標系":"任意座標系"}},{"type":"Polygon","arcs":[[-246,246,-239]],"properties":{"市区町村名":"岩内郡共和町","大字名":"幌似","丁目名":null,"小字名":null,"地番":"1979","精度区分":null,"座標系":"任意座標系"}},{"type":"Polygon","arcs":[[-247,-245,247,248,249,250,251,252,253,254,255,-240]],"properties":{"市区町村名":"岩内郡共和町","大字名":"幌似","丁目名":null,"小字名":null,"地番":"1913-1","精度区分":null,"座標系":"任意座標系"}},{"type":"Polygon","arcs":[[-256,256,257,258]],"properties":{"市区町村名":"岩内郡共和町","大字名":"幌似","丁目名":null,"小字名":null,"地番":"1913-2","精度区分":null,"座標系":"任意座標系"}},{"type":"Polygon","arcs":[[259,260,261,262]],"properties":{"市区町村名":"岩内郡共和町","大字名":"幌似","丁目名":null,"小字名":null,"地番":"1906-2","精度区分":null,"座標系":"任意座標系"}},{"type":"Polygon","arcs":[[263,-257,264,265,266,267,268,-262]],"properties":{"市区町村名":"岩内郡共和町","大字名":"幌似","丁目名":null,"小字名":null,"地番":"1909-2","精度区分":null,"座標系":"任意座標系"}},{"type":"Polygon","arcs":[[-268,269,270,271]],"properties":{"市区町村名":"岩内郡共和町","大字名":"幌似","丁目名":null,"小字名":null,"地番":"1905-2","精度区分":null,"座標系":"任意座標系"}},{"type":"Polygon","arcs":[[272,-224,273,-263,274]],"properties":{"市区町村名":"岩内郡共和町","大字名":"幌似","丁目名":null,"小字名":null,"地番":"1906-1","精度区分":null,"座標系":"任意座標系"}},{"type":"Polygon","arcs":[[-269,275,276,277,278,279,-275]],"properties":{"市区町村名":"岩内郡共和町","大字名":"幌似","丁目名":null,"小字名":null,"地番":"1909-3","精度区分":null,"座標系":"任意座標系"}},{"type":"Polygon","arcs":[[280,281,-260,282]],"properties":{"市区町村名":"岩内郡共和町","大字名":"幌似","丁目名":null,"小字名":null,"地番":"1987-2","精度区分":null,"座標系":"任意座標系"}},{"type":"Polygon","arcs":[[283,284,-258,-264,-261,-282,285,-230]],"properties":{"市区町村名":"岩内郡共和町","大字名":"幌似","丁目名":null,"小字名":null,"地番":"1907","精度区分":null,"座標系":"任意座標系"}},{"type":"Polygon","arcs":[[-231,-286,-281,-233]],"properties":{"市区町村名":"岩内郡共和町","大字名":"幌似","丁目名":null,"小字名":null,"地番":"1983-2","精度区分":null,"座標系":"任意座標系"}},{"type":"Polygon","arcs":[[-223,-234,-283,-274]],"properties":{"市区町村名":"岩内郡共和町","大字名":"幌似","丁目名":null,"小字名":null,"地番":"1987-1","精度区分":null,"座標系":"任意座標系"}},{"type":"Polygon","arcs":[[286,-276,-272,-14,287]],"properties":{"市区町村名":"岩内郡共和町","大字名":"幌似","丁目名":null,"小字名":null,"地番":"1905-1","精度区分":null,"座標系":"任意座標系"}},{"type":"Polygon","arcs":[[-266,288,289,290]],"properties":{"市区町村名":"岩内郡共和町","大字名":"幌似","丁目名":null,"小字名":null,"地番":"1912-2","精度区分":null,"座標系":"任意座標系"}},{"type":"Polygon","arcs":[[-265,-255,291,292,293,294]],"properties":{"市区町村名":"岩内郡共和町","大字名":"幌似","丁目名":null,"小字名":null,"地番":"1909-1","精度区分":null,"座標系":"任意座標系"}},{"type":"Polygon","arcs":[[295,296,297,-292,-254]],"properties":{"市区町村名":"岩内郡共和町","大字名":"幌似","丁目名":null,"小字名":null,"地番":"1973","精度区分":null,"座標系":"任意座標系"}},{"type":"Polygon","arcs":[[298,299,-296,-253,300,301]],"properties":{"市区町村名":"岩内郡共和町","大字名":"幌似","丁目名":null,"小字名":null,"地番":"1975-1","精度区分":null,"座標系":"任意座標系"}},{"type":"Polygon","arcs":[[302,303,-293,-298]],"properties":{"市区町村名":"岩内郡共和町","大字名":"幌似","丁目名":null,"小字名":null,"地番":"1972","精度区分":null,"座標系":"任意座標系"}},{"type":"Polygon","arcs":[[304,305,-303,-297,-300]],"properties":{"市区町村名":"岩内郡共和町","大字名":"幌似","丁目名":null,"小字名":null,"地番":"1974-1","精度区分":null,"座標系":"任意座標系"}},{"type":"Polygon","arcs":[[306,307,308,309,310,311,312,313,314,315,316,317,318,-294,-304,-306]],"properties":{"市区町村名":"岩内郡共和町","大字名":"幌似","丁目名":null,"小字名":null,"地番":"1910-1","精度区分":null,"座標系":"任意座標系"}},{"type":"Polygon","arcs":[[319,-318,320]],"properties":{"市区町村名":"岩内郡共和町","大字名":"幌似","丁目名":null,"小字名":null,"地番":"1968","精度区分":null,"座標系":"任意座標系"}},{"type":"Polygon","arcs":[[-295,-319,-320,321,-6,-9,322,323,-289]],"properties":{"市区町村名":"岩内郡共和町","大字名":"幌似","丁目名":null,"小字名":null,"地番":"1912-1","精度区分":null,"座標系":"任意座標系"}},{"type":"Polygon","arcs":[[-290,324,-32,325,326,327]],"properties":{"市区町村名":"岩内郡共和町","大字名":"幌似","丁目名":null,"小字名":null,"地番":"1971-7","精度区分":null,"座標系":"任意座標系"}},{"type":"Polygon","arcs":[[-324,328,329,-31,-325]],"properties":{"市区町村名":"岩内郡共和町","大字名":"幌似","丁目名":null,"小字名":null,"地番":"1971-1","精度区分":null,"座標系":"任意座標系"}},{"type":"Polygon","arcs":[[-323,-10,-8,330,331,332,333,-329]],"properties":{"市区町村名":"岩内郡共和町","大字名":"幌似","丁目名":null,"小字名":null,"地番":"1969-1","精度区分":null,"座標系":"任意座標系"}},{"type":"Polygon","arcs":[[-334,334,-26,-330]],"properties":{"市区町村名":"岩内郡共和町","大字名":"幌似","丁目名":null,"小字名":null,"地番":"1971-2","精度区分":null,"座標系":"任意座標系"}},{"type":"Polygon","arcs":[[-333,335,-335]],"properties":{"市区町村名":"岩内郡共和町","大字名":"幌似","丁目名":null,"小字名":null,"地番":"1971-3","精度区分":null,"座標系":"任意座標系"}},{"type":"Polygon","arcs":[[-29,336,337,-326]],"properties":{"市区町村名":"岩内郡共和町","大字名":"幌似","丁目名":null,"小字名":null,"地番":"1971-5","精度区分":null,"座標系":"任意座標系"}},{"type":"Polygon","arcs":[[338,339,340,341,-337,-28]],"properties":{"市区町村名":"岩内郡共和町","大字名":"幌似","丁目名":null,"小字名":null,"地番":"1971-9","精度区分":null,"座標系":"任意座標系"}},{"type":"Polygon","arcs":[[-327,-338,-342,342,343,344,345,346,-314,347,348,349,-51,350,351,352]],"properties":{"市区町村名":"岩内郡共和町","大字名":"幌似","丁目名":null,"小字名":null,"地番":"1911-1","精度区分":null,"座標系":"任意座標系"}},{"type":"Polygon","arcs":[[-336,353,-339,-27]],"properties":{"市区町村名":"岩内郡共和町","大字名":"幌似","丁目名":null,"小字名":null,"地番":"1971-8","精度区分":null,"座標系":"任意座標系"}},{"type":"Polygon","arcs":[[-322,-321,-317,354,-331,-7]],"properties":{"市区町村名":"岩内郡共和町","大字名":"幌似","丁目名":null,"小字名":null,"地番":"1967-1","精度区分":null,"座標系":"任意座標系"}},{"type":"Polygon","arcs":[[355,356,357,-301,-252,358,359,360,361]],"properties":{"市区町村名":"岩内郡共和町","大字名":"幌似","丁目名":null,"小字名":null,"地番":"1914-1","精度区分":null,"座標系":"任意座標系"}},{"type":"Polygon","arcs":[[362,-302,-358,363]],"properties":{"市区町村名":"岩内郡共和町","大字名":"幌似","丁目名":null,"小字名":null,"地番":"1975-3","精度区分":null,"座標系":"任意座標系"}},{"type":"Polygon","arcs":[[364,365,366,-299]],"properties":{"市区町村名":"岩内郡共和町","大字名":"幌似","丁目名":null,"小字名":null,"地番":"1975-5","精度区分":null,"座標系":"任意座標系"}},{"type":"Polygon","arcs":[[367,-307,-305,-367]],"properties":{"市区町村名":"岩内郡共和町","大字名":"幌似","丁目名":null,"小字名":null,"地番":"1974-3","精度区分":null,"座標系":"任意座標系"}},{"type":"Polygon","arcs":[[368,369,370,-308]],"properties":{"市区町村名":"岩内郡共和町","大字名":"幌似","丁目名":null,"小字名":null,"地番":"1910-2","精度区分":null,"座標系":"任意座標系"}},{"type":"Polygon","arcs":[[371,-369,-368,372]],"properties":{"市区町村名":"岩内郡共和町","大字名":"幌似","丁目名":null,"小字名":null,"地番":"1974-2","精度区分":null,"座標系":"任意座標系"}},{"type":"Polygon","arcs":[[-373,-366,373,374,375,376]],"properties":{"市区町村名":"岩内郡共和町","大字名":"幌似","丁目名":null,"小字名":null,"地番":"1975-2","精度区分":null,"座標系":"任意座標系"}},{"type":"Polygon","arcs":[[-376,377,378,379]],"properties":{"市区町村名":"岩内郡共和町","大字名":"幌似","丁目名":null,"小字名":null,"地番":"1914-2","精度区分":null,"座標系":"任意座標系"}},{"type":"Polygon","arcs":[[-379,380,381,382]],"properties":{"市区町村名":"岩内郡共和町","大字名":"幌似","丁目名":null,"小字名":null,"地番":"1976-2","精度区分":null,"座標系":"任意座標系"}},{"type":"Polygon","arcs":[[-382,383,384,385]],"properties":{"市区町村名":"岩内郡共和町","大字名":"幌似","丁目名":null,"小字名":null,"地番":"1977-2","精度区分":null,"座標系":"任意座標系"}},{"type":"Polygon","arcs":[[386,387,-243,388]],"properties":{"市区町村名":"岩内郡共和町","大字名":"幌似","丁目名":null,"小字名":null,"地番":"1978-3","精度区分":null,"座標系":"任意座標系"}},{"type":"Polygon","arcs":[[389,-237,-241,-259,-285]],"properties":{"市区町村名":"岩内郡共和町","大字名":"幌似","丁目名":null,"小字名":null,"地番":"1980-2","精度区分":null,"座標系":"任意座標系"}},{"type":"Polygon","arcs":[[390,391,-248,-244]],"properties":{"市区町村名":"岩内郡共和町","大字名":"幌似","丁目名":null,"小字名":null,"地番":"1977-1","精度区分":null,"座標系":"任意座標系"}},{"type":"Polygon","arcs":[[-384,392,-391,-388]],"properties":{"市区町村名":"岩内郡共和町","大字名":"幌似","丁目名":null,"小字名":null,"地番":"1977-3","精度区分":null,"座標系":"任意座標系"}},{"type":"Polygon","arcs":[[393,-361,394,-249,-392]],"properties":{"市区町村名":"岩内郡共和町","大字名":"幌似","丁目名":null,"小字名":null,"地番":"1976-1","精度区分":null,"座標系":"任意座標系"}},{"type":"Polygon","arcs":[[395,-385,-387]],"properties":{"市区町村名":"岩内郡共和町","大字名":"幌似","丁目名":null,"小字名":null,"地番":"1978-2","精度区分":null,"座標系":"任意座標系"}},{"type":"Polygon","arcs":[[-381,396,-394,-393]],"properties":{"市区町村名":"岩内郡共和町","大字名":"幌似","丁目名":null,"小字名":null,"地番":"1976-5","精度区分":null,"座標系":"任意座標系"}},{"type":"Polygon","arcs":[[-378,397,-362,-397]],"properties":{"市区町村名":"岩内郡共和町","大字名":"幌似","丁目名":null,"小字名":null,"地番":"1914-3","精度区分":null,"座標系":"任意座標系"}},{"type":"Polygon","arcs":[[398,399,-356,-398,-375]],"properties":{"市区町村名":"岩内郡共和町","大字名":"幌似","丁目名":null,"小字名":null,"地番":"1975-7","精度区分":null,"座標系":"任意座標系"}},{"type":"Polygon","arcs":[[-364,-357,-400]],"properties":{"市区町村名":"岩内郡共和町","大字名":"幌似","丁目名":null,"小字名":null,"地番":"1975-4","精度区分":null,"座標系":"任意座標系"}},{"type":"Polygon","arcs":[[-365,-363,-399,-374]],"properties":{"市区町村名":"岩内郡共和町","大字名":"幌似","丁目名":null,"小字名":null,"地番":"1975-6","精度区分":null,"座標系":"任意座標系"}},{"type":"Polygon","arcs":[[-360,400,-250,-395]],"properties":{"市区町村名":"岩内郡共和町","大字名":"幌似","丁目名":null,"小字名":null,"地番":"1976-3","精度区分":null,"座標系":"任意座標系"}},{"type":"Polygon","arcs":[[-359,-251,-401]],"properties":{"市区町村名":"岩内郡共和町","大字名":"幌似","丁目名":null,"小字名":null,"地番":"1976-4","精度区分":null,"座標系":"任意座標系"}},{"type":"Polygon","arcs":[[-228,401,402]],"properties":{"市区町村名":"岩内郡共和町","大字名":"幌似","丁目名":null,"小字名":null,"地番":"1984-1","精度区分":null,"座標系":"任意座標系"}},{"type":"Polygon","arcs":[[403,-220,-403]],"properties":{"市区町村名":"岩内郡共和町","大字名":"幌似","丁目名":null,"小字名":null,"地番":"1984-2","精度区分":null,"座標系":"任意座標系"}},{"type":"Polygon","arcs":[[404,405,406,407]],"properties":{"市区町村名":"岩内郡共和町","大字名":"幌似","丁目名":null,"小字名":null,"地番":"1959-2","精度区分":null,"座標系":"任意座標系"}},{"type":"Polygon","arcs":[[408,409,410,-406]],"properties":{"市区町村名":"岩内郡共和町","大字名":"幌似","丁目名":null,"小字名":null,"地番":"1919-2","精度区分":null,"座標系":"任意座標系"}},{"type":"Polygon","arcs":[[411,-43,412,-410]],"properties":{"市区町村名":"岩内郡共和町","大字名":"幌似","丁目名":null,"小字名":null,"地番":"1951-2","精度区分":null,"座標系":"任意座標系"}},{"type":"Polygon","arcs":[[413,414,415,416]],"properties":{"市区町村名":"岩内郡共和町","大字名":"幌似","丁目名":null,"小字名":null,"地番":"1919-1","精度区分":null,"座標系":"任意座標系"}},{"type":"Polygon","arcs":[[417,418,419,-415]],"properties":{"市区町村名":"岩内郡共和町","大字名":"幌似","丁目名":null,"小字名":null,"地番":"1951-1","精度区分":null,"座標系":"任意座標系"}},{"type":"Polygon","arcs":[[420,-417,421,422,423,424]],"properties":{"市区町村名":"岩内郡共和町","大字名":"幌似","丁目名":null,"小字名":null,"地番":"1959-1","精度区分":null,"座標系":"任意座標系"}},{"type":"Polygon","arcs":[[425,-414,426,-411]],"properties":{"市区町村名":"岩内郡共和町","大字名":"幌似","丁目名":null,"小字名":null,"地番":"1919-3","精度区分":null,"座標系":"任意座標系"}},{"type":"Polygon","arcs":[[-413,427,-418,-426]],"properties":{"市区町村名":"岩内郡共和町","大字名":"幌似","丁目名":null,"小字名":null,"地番":"1951-3","精度区分":null,"座標系":"任意座標系"}},{"type":"Polygon","arcs":[[428,-407,-427,-421]],"properties":{"市区町村名":"岩内郡共和町","大字名":"幌似","丁目名":null,"小字名":null,"地番":"1959-3","精度区分":null,"座標系":"任意座標系"}},{"type":"Polygon","arcs":[[429,-408,430,-371]],"properties":{"市区町村名":"岩内郡共和町","大字名":"幌似","丁目名":null,"小字名":null,"地番":"1916-2","精度区分":null,"座標系":"任意座標系"}},{"type":"Polygon","arcs":[[-431,-429,431,-309]],"properties":{"市区町村名":"岩内郡共和町","大字名":"幌似","丁目名":null,"小字名":null,"地番":"1916-4","精度区分":null,"座標系":"任意座標系"}},{"type":"Polygon","arcs":[[-432,-425,432,433,434,435,436,-310]],"properties":{"市区町村名":"岩内郡共和町","大字名":"幌似","丁目名":null,"小字名":null,"地番":"1916-1","精度区分":null,"座標系":"任意座標系"}},{"type":"Polygon","arcs":[[-424,437,438,-433]],"properties":{"市区町村名":"岩内郡共和町","大字名":"幌似","丁目名":null,"小字名":null,"地番":"1960","精度区分":null,"座標系":"任意座標系"}},{"type":"Polygon","arcs":[[-423,439,-438]],"properties":{"市区町村名":"岩内郡共和町","大字名":"幌似","丁目名":null,"小字名":null,"地番":"1961","精度区分":null,"座標系":"任意座標系"}},{"type":"Polygon","arcs":[[-439,-440,-422,-416,-420,440,441,442,443,444,445,-434]],"properties":{"市区町村名":"岩内郡共和町","大字名":"幌似","丁目名":null,"小字名":null,"地番":"1920","精度区分":null,"座標系":"任意座標系"}},{"type":"Polygon","arcs":[[-347,446,-315]],"properties":{"市区町村名":"岩内郡共和町","大字名":"幌似","丁目名":null,"小字名":null,"地番":"1967-6","精度区分":null,"座標系":"任意座標系"}},{"type":"Polygon","arcs":[[-355,-316,-447,-346,447,448,449]],"properties":{"市区町村名":"岩内郡共和町","大字名":"幌似","丁目名":null,"小字名":null,"地番":"1967-4","精度区分":null,"座標系":"任意座標系"}},{"type":"Polygon","arcs":[[450,451,-101,452,-110]],"properties":{"市区町村名":"岩内郡共和町","大字名":"幌似","丁目名":null,"小字名":null,"地番":"1936-2","精度区分":null,"座標系":"任意座標系"}},{"type":"Polygon","arcs":[[-107,-105,453,454]],"properties":{"市区町村名":"岩内郡共和町","大字名":"幌似","丁目名":null,"小字名":null,"地番":"1935-2","精度区分":null,"座標系":"任意座標系"}},{"type":"Polygon","arcs":[[-114,455,456,457,458]],"properties":{"市区町村名":"岩内郡共和町","大字名":"幌似","丁目名":null,"小字名":null,"地番":"1937-3","精度区分":null,"座標系":"任意座標系"}},{"type":"Polygon","arcs":[[-112,459,460,461]],"properties":{"市区町村名":"岩内郡共和町","大字名":"幌似","丁目名":null,"小字名":null,"地番":"1942-2","精度区分":null,"座標系":"任意座標系"}},{"type":"Polygon","arcs":[[462,-454,-102,-452]],"properties":{"市区町村名":"岩内郡共和町","大字名":"幌似","丁目名":null,"小字名":null,"地番":"1936-4","精度区分":null,"座標系":"任意座標系"}},{"type":"Polygon","arcs":[[463,-463,-451,-109]],"properties":{"市区町村名":"岩内郡共和町","大字名":"幌似","丁目名":null,"小字名":null,"地番":"1936-5","精度区分":null,"座標系":"任意座標系"}},{"type":"Polygon","arcs":[[-464,-108,-455]],"properties":{"市区町村名":"岩内郡共和町","大字名":"幌似","丁目名":null,"小字名":null,"地番":"1935-3","精度区分":null,"座標系":"任意座標系"}},{"type":"Polygon","arcs":[[464,465,466,-456,-113,-462,467]],"properties":{"市区町村名":"岩内郡共和町","大字名":"幌似","丁目名":null,"小字名":null,"地番":"1942-1","精度区分":null,"座標系":"任意座標系"}},{"type":"Polygon","arcs":[[468,469,470,-468,-461,471,472,473,474,475,476,477]],"properties":{"市区町村名":"岩内郡共和町","大字名":"幌似","丁目名":null,"小字名":null,"地番":"1924-1","精度区分":null,"座標系":"任意座標系"}},{"type":"Polygon","arcs":[[478,-473,479]],"properties":{"市区町村名":"岩内郡共和町","大字名":"幌似","丁目名":null,"小字名":null,"地番":"1944-3","精度区分":null,"座標系":"任意座標系"}},{"type":"Polygon","arcs":[[480,481,-474,-479,482,483]],"properties":{"市区町村名":"岩内郡共和町","大字名":"幌似","丁目名":null,"小字名":null,"地番":"1944-1","精度区分":null,"座標系":"任意座標系"}},{"type":"Polygon","arcs":[[484,-484,485]],"properties":{"市区町村名":"岩内郡共和町","大字名":"幌似","丁目名":null,"小字名":null,"地番":"1944-2","精度区分":null,"座標系":"任意座標系"}},{"type":"Polygon","arcs":[[486,487,488,-481,-485,489,490,491,492,493]],"properties":{"市区町村名":"岩内郡共和町","大字名":"幌似","丁目名":null,"小字名":null,"地番":"1922-3","精度区分":null,"座標系":"任意座標系"}},{"type":"Polygon","arcs":[[494,-475,-482,-489]],"properties":{"市区町村名":"岩内郡共和町","大字名":"幌似","丁目名":null,"小字名":null,"地番":"1923","精度区分":null,"座標系":"任意座標系"}},{"type":"Polygon","arcs":[[495,-476,-495,-488]],"properties":{"市区町村名":"岩内郡共和町","大字名":"幌似","丁目名":null,"小字名":null,"地番":"1945-4","精度区分":null,"座標系":"任意座標系"}},{"type":"Polygon","arcs":[[496,-477,-496,497]],"properties":{"市区町村名":"岩内郡共和町","大字名":"幌似","丁目名":null,"小字名":null,"地番":"1945-3","精度区分":null,"座標系":"任意座標系"}},{"type":"Polygon","arcs":[[498,499,-478,-497,500]],"properties":{"市区町村名":"岩内郡共和町","大字名":"幌似","丁目名":null,"小字名":null,"地番":"1945-1","精度区分":null,"座標系":"任意座標系"}},{"type":"Polygon","arcs":[[501,-501,-498,-487,502,503,504,-442,505]],"properties":{"市区町村名":"岩内郡共和町","大字名":"幌似","丁目名":null,"小字名":null,"地番":"1922-1","精度区分":null,"座標系":"任意座標系"}},{"type":"Polygon","arcs":[[506,507,508,509,510]],"properties":{"市区町村名":"岩内郡共和町","大字名":"幌似","丁目名":null,"小字名":null,"地番":"1945-2","精度区分":null,"座標系":"任意座標系"}},{"type":"Polygon","arcs":[[511,-507,512,513]],"properties":{"市区町村名":"岩内郡共和町","大字名":"幌似","丁目名":null,"小字名":null,"地番":"1922-2","精度区分":null,"座標系":"任意座標系"}},{"type":"Polygon","arcs":[[514,515,516,-509]],"properties":{"市区町村名":"岩内郡共和町","大字名":"幌似","丁目名":null,"小字名":null,"地番":"1924-2","精度区分":null,"座標系":"任意座標系"}},{"type":"Polygon","arcs":[[517,-25,518,-516]],"properties":{"市区町村名":"岩内郡共和町","大字名":"幌似","丁目名":null,"小字名":null,"地番":"1938-2","精度区分":null,"座標系":"任意座標系"}},{"type":"Polygon","arcs":[[-23,-119,519,-458,520,521]],"properties":{"市区町村名":"岩内郡共和町","大字名":"幌似","丁目名":null,"小字名":null,"地番":"1925-1","精度区分":null,"座標系":"任意座標系"}},{"type":"Polygon","arcs":[[-118,-115,-459,-520]],"properties":{"市区町村名":"岩内郡共和町","大字名":"幌似","丁目名":null,"小字名":null,"地番":"1937-2","精度区分":null,"座標系":"任意座標系"}},{"type":"Polygon","arcs":[[-457,-467,522,523,-521]],"properties":{"市区町村名":"岩内郡共和町","大字名":"幌似","丁目名":null,"小字名":null,"地番":"1941","精度区分":null,"座標系":"任意座標系"}},{"type":"Polygon","arcs":[[524,-522,-524,525,526,527,-470]],"properties":{"市区町村名":"岩内郡共和町","大字名":"幌似","丁目名":null,"小字名":null,"地番":"1938-1","精度区分":null,"座標系":"任意座標系"}},{"type":"Polygon","arcs":[[528,-56,529]],"properties":{"市区町村名":"岩内郡共和町","大字名":"幌似","丁目名":null,"小字名":null,"地番":"1952-2","精度区分":null,"座標系":"任意座標系"}},{"type":"Polygon","arcs":[[-209,-201,530,-530]],"properties":{"市区町村名":"岩内郡共和町","大字名":"幌似","丁目名":null,"小字名":null,"地番":"1953-2","精度区分":null,"座標系":"任意座標系"}},{"type":"Polygon","arcs":[[531,-212,532,533]],"properties":{"市区町村名":"岩内郡共和町","大字名":"幌似","丁目名":null,"小字名":null,"地番":"1952-5","精度区分":null,"座標系":"任意座標系"}},{"type":"Polygon","arcs":[[534,-533,-58]],"properties":{"市区町村名":"岩内郡共和町","大字名":"幌似","丁目名":null,"小字名":null,"地番":"1952-4","精度区分":null,"座標系":"任意座標系"}},{"type":"Polygon","arcs":[[-532,535,-49,-214]],"properties":{"市区町村名":"岩内郡共和町","大字名":"幌似","丁目名":null,"小字名":null,"地番":"2008-2","精度区分":null,"座標系":"任意座標系"}},{"type":"Polygon","arcs":[[536,537,-41]],"properties":{"市区町村名":"岩内郡共和町","大字名":"幌似","丁目名":null,"小字名":null,"地番":"1946-3","精度区分":null,"座標系":"任意座標系"}},{"type":"Polygon","arcs":[[538,539,540,541]],"properties":{"市区町村名":"岩内郡共和町","大字名":"幌似","丁目名":null,"小字名":null,"地番":"2007-2","精度区分":null,"座標系":"任意座標系"}},{"type":"Polygon","arcs":[[-538,542,-542,543]],"properties":{"市区町村名":"岩内郡共和町","大字名":"幌似","丁目名":null,"小字名":null,"地番":"1948-2","精度区分":null,"座標系":"任意座標系"}},{"type":"Polygon","arcs":[[-42,544,545,-428]],"properties":{"市区町村名":"岩内郡共和町","大字名":"幌似","丁目名":null,"小字名":null,"地番":"1946-6","精度区分":null,"座標系":"任意座標系"}},{"type":"Polygon","arcs":[[-546,546,547,548,549,-506,-441,-419]],"properties":{"市区町村名":"岩内郡共和町","大字名":"幌似","丁目名":null,"小字名":null,"地番":"1946-1","精度区分":null,"座標系":"任意座標系"}},{"type":"Polygon","arcs":[[-446,550,551,-435]],"properties":{"市区町村名":"岩内郡共和町","大字名":"幌似","丁目名":null,"小字名":null,"地番":"1965-1","精度区分":null,"座標系":"任意座標系"}},{"type":"Polygon","arcs":[[552,553,554,555,-551,-445]],"properties":{"市区町村名":"岩内郡共和町","大字名":"幌似","丁目名":null,"小字名":null,"地番":"1962-1","精度区分":null,"座標系":"任意座標系"}},{"type":"Polygon","arcs":[[556,557,-436,-552]],"properties":{"市区町村名":"岩内郡共和町","大字名":"幌似","丁目名":null,"小字名":null,"地番":"1965-2","精度区分":null,"座標系":"任意座標系"}},{"type":"Polygon","arcs":[[-556,558,559,-557]],"properties":{"市区町村名":"岩内郡共和町","大字名":"幌似","丁目名":null,"小字名":null,"地番":"1962-2","精度区分":null,"座標系":"任意座標系"}},{"type":"Polygon","arcs":[[560,561,562,563,564,565,566]],"properties":{"市区町村名":"岩内郡共和町","大字名":"幌似","丁目名":null,"小字名":null,"地番":"1918-3","精度区分":null,"座標系":"任意座標系"}},{"type":"Polygon","arcs":[[-559,-555,567,568,569,-563]],"properties":{"市区町村名":"岩内郡共和町","大字名":"幌似","丁目名":null,"小字名":null,"地番":"1918-4","精度区分":null,"座標系":"任意座標系"}},{"type":"Polygon","arcs":[[-570,570,571,572,573,-564]],"properties":{"市区町村名":"岩内郡共和町","大字名":"幌似","丁目名":null,"小字名":null,"地番":"1963-1","精度区分":null,"座標系":"任意座標系"}},{"type":"Polygon","arcs":[[574,-560,-562]],"properties":{"市区町村名":"岩内郡共和町","大字名":"幌似","丁目名":null,"小字名":null,"地番":"1962-3","精度区分":null,"座標系":"任意座標系"}},{"type":"Polygon","arcs":[[-554,575,576,-568]],"properties":{"市区町村名":"岩内郡共和町","大字名":"幌似","丁目名":null,"小字名":null,"地番":"1962-4","精度区分":null,"座標系":"任意座標系"}},{"type":"Polygon","arcs":[[577,578,579,-571,-569]],"properties":{"市区町村名":"岩内郡共和町","大字名":"幌似","丁目名":null,"小字名":null,"地番":"1918-2","精度区分":null,"座標系":"任意座標系"}},{"type":"Polygon","arcs":[[-39,580,581,-492,582,583,584,585,-572,-580]],"properties":{"市区町村名":"岩内郡共和町","大字名":"幌似","丁目名":null,"小字名":null,"地番":"1949-1","精度区分":null,"座標系":"任意座標系"}},{"type":"Polygon","arcs":[[586,587,-573]],"properties":{"市区町村名":"岩内郡共和町","大字名":"幌似","丁目名":null,"小字名":null,"地番":"1963-2","精度区分":null,"座標系":"任意座標系"}},{"type":"Polygon","arcs":[[588,-587,-586]],"properties":{"市区町村名":"岩内郡共和町","大字名":"幌似","丁目名":null,"小字名":null,"地番":"1949-2","精度区分":null,"座標系":"任意座標系"}},{"type":"Polygon","arcs":[[-584,589,590,591]],"properties":{"市区町村名":"岩内郡共和町","大字名":"幌似","丁目名":null,"小字名":null,"地番":"1949-3","精度区分":null,"座標系":"任意座標系"}},{"type":"Polygon","arcs":[[-591,592,593]],"properties":{"市区町村名":"岩内郡共和町","大字名":"幌似","丁目名":null,"小字名":null,"地番":"1949-4","精度区分":null,"座標系":"任意座標系"}},{"type":"Polygon","arcs":[[-491,594,-593,-590,-583]],"properties":{"市区町村名":"岩内郡共和町","大字名":"幌似","丁目名":null,"小字名":null,"地番":"1949-5","精度区分":null,"座標系":"任意座標系"}},{"type":"Polygon","arcs":[[595,-493,-582]],"properties":{"市区町村名":"岩内郡共和町","大字名":"幌似","丁目名":null,"小字名":null,"地番":"1921","精度区分":null,"座標系":"任意座標系"}},{"type":"Polygon","arcs":[[-503,-494,-596,-581,596]],"properties":{"市区町村名":"岩内郡共和町","大字名":"幌似","丁目名":null,"小字名":null,"地番":"1950-3","精度区分":null,"座標系":"任意座標系"}},{"type":"Polygon","arcs":[[-38,597,-504,-597]],"properties":{"市区町村名":"岩内郡共和町","大字名":"幌似","丁目名":null,"小字名":null,"地番":"1950-2","精度区分":null,"座標系":"任意座標系"}},{"type":"Polygon","arcs":[[-444,598,599,-40,-579,-576,-553]],"properties":{"市区町村名":"岩内郡共和町","大字名":"幌似","丁目名":null,"小字名":null,"地番":"1918-1","精度区分":null,"座標系":"任意座標系"}},{"type":"Polygon","arcs":[[-443,-505,-598,600,-599]],"properties":{"市区町村名":"岩内郡共和町","大字名":"幌似","丁目名":null,"小字名":null,"地番":"1950-1","精度区分":null,"座標系":"任意座標系"}},{"type":"Polygon","arcs":[[-37,-600,-601]],"properties":{"市区町村名":"岩内郡共和町","大字名":"幌似","丁目名":null,"小字名":null,"地番":"1949-7","精度区分":null,"座標系":"任意座標系"}},{"type":"Polygon","arcs":[[-577,-578]],"properties":{"市区町村名":"岩内郡共和町","大字名":"幌似","丁目名":null,"小字名":null,"地番":"1962-5","精度区分":null,"座標系":"任意座標系"}},{"type":"Polygon","arcs":[[601,602,-548]],"properties":{"市区町村名":"岩内郡共和町","大字名":"幌似","丁目名":null,"小字名":null,"地番":"1947","精度区分":null,"座標系":"任意座標系"}},{"type":"Polygon","arcs":[[603,-549,-603,604]],"properties":{"市区町村名":"岩内郡共和町","大字名":"幌似","丁目名":null,"小字名":null,"地番":"2007-1","精度区分":null,"座標系":"任意座標系"}},{"type":"Polygon","arcs":[[-605,-602,-547,605]],"properties":{"市区町村名":"岩内郡共和町","大字名":"幌似","丁目名":null,"小字名":null,"地番":"1948-1","精度区分":null,"座標系":"任意座標系"}},{"type":"Polygon","arcs":[[-541,606,-604,607]],"properties":{"市区町村名":"岩内郡共和町","大字名":"幌似","丁目名":null,"小字名":null,"地番":"2007-3","精度区分":null,"座標系":"任意座標系"}},{"type":"Polygon","arcs":[[-540,608,-514,609]],"properties":{"市区町村名":"岩内郡共和町","大字名":"幌似","丁目名":null,"小字名":null,"地番":"1946-2","精度区分":null,"座標系":"任意座標系"}},{"type":"Polygon","arcs":[[-610,610,-550,-607]],"properties":{"市区町村名":"岩内郡共和町","大字名":"幌似","丁目名":null,"小字名":null,"地番":"1946-5","精度区分":null,"座標系":"任意座標系"}},{"type":"Polygon","arcs":[[-513,611,-502,-611]],"properties":{"市区町村名":"岩内郡共和町","大字名":"幌似","丁目名":null,"小字名":null,"地番":"1922-4","精度区分":null,"座標系":"任意座標系"}},{"type":"Polygon","arcs":[[-511,612,-499,-612]],"properties":{"市区町村名":"岩内郡共和町","大字名":"幌似","丁目名":null,"小字名":null,"地番":"1945-5","精度区分":null,"座標系":"任意座標系"}},{"type":"Polygon","arcs":[[-613,-510,613,-500]],"properties":{"市区町村名":"岩内郡共和町","大字名":"幌似","丁目名":null,"小字名":null,"地番":"1945-6","精度区分":null,"座標系":"任意座標系"}},{"type":"Polygon","arcs":[[614,-469,-614,-517]],"properties":{"市区町村名":"岩内郡共和町","大字名":"幌似","丁目名":null,"小字名":null,"地番":"1924-3","精度区分":null,"座標系":"任意座標系"}},{"type":"Polygon","arcs":[[-519,-24,-525,-615]],"properties":{"市区町村名":"岩内郡共和町","大字名":"幌似","丁目名":null,"小字名":null,"地番":"1938-3","精度区分":null,"座標系":"任意座標系"}},{"type":"Polygon","arcs":[[-527,615,616]],"properties":{"市区町村名":"岩内郡共和町","大字名":"幌似","丁目名":null,"小字名":null,"地番":"1939","精度区分":null,"座標系":"任意座標系"}},{"type":"Polygon","arcs":[[-526,-523,-466,617,-616]],"properties":{"市区町村名":"岩内郡共和町","大字名":"幌似","丁目名":null,"小字名":null,"地番":"1940","精度区分":null,"座標系":"任意座標系"}},{"type":"Polygon","arcs":[[-528,-617,-618,-465,-471]],"properties":{"市区町村名":"岩内郡共和町","大字名":"幌似","丁目名":null,"小字名":null,"地番":"1943","精度区分":null,"座標系":"任意座標系"}},{"type":"Polygon","arcs":[[-544,-608,-606,-545]],"properties":{"市区町村名":"岩内郡共和町","大字名":"幌似","丁目名":null,"小字名":null,"地番":"1948-3","精度区分":null,"座標系":"任意座標系"}},{"type":"Polygon","arcs":[[-437,618,619,620,621,-311]],"properties":{"市区町村名":"岩内郡共和町","大字名":"幌似","丁目名":null,"小字名":null,"地番":"1916-3","精度区分":null,"座標系":"任意座標系"}},{"type":"Polygon","arcs":[[622,-566,623,-621]],"properties":{"市区町村名":"岩内郡共和町","大字名":"幌似","丁目名":null,"小字名":null,"地番":"1964","精度区分":null,"座標系":"任意座標系"}},{"type":"Polygon","arcs":[[624,-348,-313,625]],"properties":{"市区町村名":"岩内郡共和町","大字名":"幌似","丁目名":null,"小字名":null,"地番":"1966","精度区分":null,"座標系":"任意座標系"}},{"type":"Polygon","arcs":[[626,-349,-625,627]],"properties":{"市区町村名":"岩内郡共和町","大字名":"幌似","丁目名":null,"小字名":null,"地番":"1970","精度区分":null,"座標系":"任意座標系"}},{"type":"Polygon","arcs":[[-627,628,-52,-350]],"properties":{"市区町村名":"岩内郡共和町","大字名":"幌似","丁目名":null,"小字名":null,"地番":"2006-3","精度区分":null,"座標系":"任意座標系"}},{"type":"Polygon","arcs":[[-332,-450,629,-340,-354]],"properties":{"市区町村名":"岩内郡共和町","大字名":"幌似","丁目名":null,"小字名":null,"地番":"1969-2","精度区分":null,"座標系":"任意座標系"}},{"type":"Polygon","arcs":[[-343,-341,-630]],"properties":{"市区町村名":"岩内郡共和町","大字名":"幌似","丁目名":null,"小字名":null,"地番":"1969-3","精度区分":null,"座標系":"任意座標系"}},{"type":"Polygon","arcs":[[-344,-449]],"properties":{"市区町村名":"岩内郡共和町","大字名":"幌似","丁目名":null,"小字名":null,"地番":"1967-5","精度区分":null,"座標系":"任意座標系"}},{"type":"Polygon","arcs":[[-558,-575,-561,630,-619]],"properties":{"市区町村名":"岩内郡共和町","大字名":"幌似","丁目名":null,"小字名":null,"地番":"1965-3","精度区分":null,"座標系":"任意座標系"}},{"type":"Polygon","arcs":[[-567,-623,-620,-631]],"properties":{"市区町村名":"岩内郡共和町","大字名":"幌似","丁目名":null,"小字名":null,"地番":"1917","精度区分":null,"座標系":"任意座標系"}},{"type":"Polygon","arcs":[[-448,-345]],"properties":{"市区町村名":"岩内郡共和町","大字名":"幌似","丁目名":null,"小字名":null,"地番":"1911-2","精度区分":null,"座標系":"任意座標系"}},{"type":"Polygon","arcs":[[631,632,633,634,-63]],"properties":{"市区町村名":"岩内郡共和町","大字名":"幌似","丁目名":null,"小字名":null,"地番":"2004-3","精度区分":null,"座標系":"任意座標系"}},{"type":"Polygon","arcs":[[-65,635,636]],"properties":{"市区町村名":"岩内郡共和町","大字名":"幌似","丁目名":null,"小字名":null,"地番":"2004-4","精度区分":null,"座標系":"任意座標系"}},{"type":"Polygon","arcs":[[-351,-54,637]],"properties":{"市区町村名":"岩内郡共和町","大字名":"幌似","丁目名":null,"小字名":null,"地番":"2006-1","精度区分":null,"座標系":"任意座標系"}},{"type":"Polygon","arcs":[[638,639,640,641]],"properties":{"市区町村名":"岩内郡共和町","大字名":"幌似","丁目名":null,"小字名":null,"地番":"1991-3","精度区分":null,"座標系":"任意座標系"}},{"type":"Polygon","arcs":[[-278,642,643,644,645,646,647,648,649]],"properties":{"市区町村名":"岩内郡共和町","大字名":"幌似","丁目名":null,"小字名":null,"地番":"1903","精度区分":null,"座標系":"任意座標系"}},{"type":"Polygon","arcs":[[650,-648,651,652]],"properties":{"市区町村名":"岩内郡共和町","大字名":"幌似","丁目名":null,"小字名":null,"地番":"1992","精度区分":null,"座標系":"任意座標系"}},{"type":"Polygon","arcs":[[653,654,-653,655,656]],"properties":{"市区町村名":"岩内郡共和町","大字名":"幌似","丁目名":null,"小字名":null,"地番":"1993","精度区分":null,"座標系":"任意座標系"}},{"type":"Polygon","arcs":[[657,658,659,660,661,-657,662,663,664,665,666]],"properties":{"市区町村名":"岩内郡共和町","大字名":"幌似","丁目名":null,"小字名":null,"地番":"1902-1","精度区分":null,"座標系":"任意座標系"}},{"type":"Polygon","arcs":[[667,668,-664,669]],"properties":{"市区町村名":"岩内郡共和町","大字名":"幌似","丁目名":null,"小字名":null,"地番":"1997","精度区分":null,"座標系":"任意座標系"}},{"type":"Polygon","arcs":[[670,671,672,673,-668,674,675,676]],"properties":{"市区町村名":"岩内郡共和町","大字名":"幌似","丁目名":null,"小字名":null,"地番":"1901-1","精度区分":null,"座標系":"任意座標系"}},{"type":"Polygon","arcs":[[-676,677,678,679,680]],"properties":{"市区町村名":"岩内郡共和町","大字名":"幌似","丁目名":null,"小字名":null,"地番":"2009-1","精度区分":null,"座標系":"任意座標系"}},{"type":"Polygon","arcs":[[-679,681,682]],"properties":{"市区町村名":"岩内郡共和町","大字名":"幌似","丁目名":null,"小字名":null,"地番":"2001","精度区分":null,"座標系":"任意座標系"}},{"type":"Polygon","arcs":[[683,-680,-683,684]],"properties":{"市区町村名":"岩内郡共和町","大字名":"幌似","丁目名":null,"小字名":null,"地番":"2002-1","精度区分":null,"座標系":"任意座標系"}},{"type":"Polygon","arcs":[[685,686,-684]],"properties":{"市区町村名":"岩内郡共和町","大字名":"幌似","丁目名":null,"小字名":null,"地番":"2002-2","精度区分":null,"座標系":"任意座標系"}},{"type":"Polygon","arcs":[[687,688,-677,-681,-687]],"properties":{"市区町村名":"岩内郡共和町","大字名":"幌似","丁目名":null,"小字名":null,"地番":"2009-2","精度区分":null,"座標系":"任意座標系"}},{"type":"Polygon","arcs":[[689,-665,-669,-674,690,691]],"properties":{"市区町村名":"岩内郡共和町","大字名":"幌似","丁目名":null,"小字名":null,"地番":"1998-1","精度区分":null,"座標系":"任意座標系"}},{"type":"Polygon","arcs":[[692,693,-667]],"properties":{"市区町村名":"岩内郡共和町","大字名":"幌似","丁目名":null,"小字名":null,"地番":"1902-2","精度区分":null,"座標系":"任意座標系"}},{"type":"Polygon","arcs":[[694,695,-693,696]],"properties":{"市区町村名":"岩内郡共和町","大字名":"幌似","丁目名":null,"小字名":null,"地番":"1998-2","精度区分":null,"座標系":"任意座標系"}},{"type":"Polygon","arcs":[[697,698,-695,699,700]],"properties":{"市区町村名":"岩内郡共和町","大字名":"幌似","丁目名":null,"小字名":null,"地番":"2000-2","精度区分":null,"座標系":"任意座標系"}},{"type":"Polygon","arcs":[[-698,-671,-689,701]],"properties":{"市区町村名":"岩内郡共和町","大字名":"幌似","丁目名":null,"小字名":null,"地番":"1901-2","精度区分":null,"座標系":"任意座標系"}},{"type":"Polygon","arcs":[[-700,702,703,704]],"properties":{"市区町村名":"岩内郡共和町","大字名":"幌似","丁目名":null,"小字名":null,"地番":"2000-3","精度区分":null,"座標系":"任意座標系"}},{"type":"Polygon","arcs":[[705,-649,-651,-655,706]],"properties":{"市区町村名":"岩内郡共和町","大字名":"幌似","丁目名":null,"小字名":null,"地番":"1994-2","精度区分":null,"座標系":"任意座標系"}},{"type":"Polygon","arcs":[[-662,707,-707,-654]],"properties":{"市区町村名":"岩内郡共和町","大字名":"幌似","丁目名":null,"小字名":null,"地番":"1994-1","精度区分":null,"座標系":"任意座標系"}},{"type":"Polygon","arcs":[[-661,708,709,-279,-650,-706,-708]],"properties":{"市区町村名":"岩内郡共和町","大字名":"幌似","丁目名":null,"小字名":null,"地番":"1904","精度区分":null,"座標系":"任意座標系"}},{"type":"Polygon","arcs":[[-660,710,711,-709]],"properties":{"市区町村名":"岩内郡共和町","大字名":"幌似","丁目名":null,"小字名":null,"地番":"1995-1","精度区分":null,"座標系":"任意座標系"}},{"type":"Polygon","arcs":[[-666,-690,-703,-697]],"properties":{"市区町村名":"岩内郡共和町","大字名":"幌似","丁目名":null,"小字名":null,"地番":"1998-3","精度区分":null,"座標系":"任意座標系"}},{"type":"Polygon","arcs":[[712,713,-48,-225,-273,-280,-710,-712,714]],"properties":{"市区町村名":"岩内郡共和町","大字名":"幌似","丁目名":null,"小字名":null,"地番":"1995-2","精度区分":null,"座標系":"任意座標系"}},{"type":"Polygon","arcs":[[-645,715,716,717]],"properties":{"市区町村名":"岩内郡共和町","大字名":"幌似","丁目名":null,"小字名":null,"地番":"1989","精度区分":null,"座標系":"任意座標系"}},{"type":"Polygon","arcs":[[-288,-13,718,719,-716,-644,720]],"properties":{"市区町村名":"岩内郡共和町","大字名":"幌似","丁目名":null,"小字名":null,"地番":"1988-1","精度区分":null,"座標系":"任意座標系"}},{"type":"Polygon","arcs":[[-720,721,722,-717]],"properties":{"市区町村名":"岩内郡共和町","大字名":"幌似","丁目名":null,"小字名":null,"地番":"1990-4","精度区分":null,"座標系":"任意座標系"}},{"type":"Polygon","arcs":[[-723,-639,723,-646,-718]],"properties":{"市区町村名":"岩内郡共和町","大字名":"幌似","丁目名":null,"小字名":null,"地番":"1991-1","精度区分":null,"座標系":"任意座標系"}},{"type":"Polygon","arcs":[[-287,-721,-643,-277]],"properties":{"市区町村名":"岩内郡共和町","大字名":"幌似","丁目名":null,"小字名":null,"地番":"2005","精度区分":null,"座標系":"任意座標系"}},{"type":"Polygon","arcs":[[-46,724,-226]],"properties":{"市区町村名":"岩内郡共和町","大字名":"幌似","丁目名":null,"小字名":null,"地番":"1985","精度区分":null,"座標系":"任意座標系"}},{"type":"Polygon","arcs":[[-271,725,726,-11]],"properties":{"市区町村名":"岩内郡共和町","大字名":"幌似","丁目名":null,"小字名":null,"地番":"1988-2","精度区分":null,"座標系":"任意座標系"}},{"type":"Polygon","arcs":[[-722,-719,-16,727,-640]],"properties":{"市区町村名":"岩内郡共和町","大字名":"幌似","丁目名":null,"小字名":null,"地番":"1990-1","精度区分":null,"座標系":"任意座標系"}},{"type":"Polygon","arcs":[[-727,728,729,-728,-15]],"properties":{"市区町村名":"岩内郡共和町","大字名":"幌似","丁目名":null,"小字名":null,"地番":"1990-2","精度区分":null,"座標系":"任意座標系"}},{"type":"Polygon","arcs":[[-730,730,731,-641]],"properties":{"市区町村名":"岩内郡共和町","大字名":"幌似","丁目名":null,"小字名":null,"地番":"1991-2","精度区分":null,"座標系":"任意座標系"}},{"type":"Polygon","arcs":[[-267,-291,-328,-353,732,-731,-729,-726,-270]],"properties":{"市区町村名":"岩内郡共和町","大字名":"幌似","丁目名":null,"小字名":null,"地番":"1908","精度区分":null,"座標系":"任意座標系"}},{"type":"Polygon","arcs":[[733,734,-713,735]],"properties":{"市区町村名":"岩内郡共和町","大字名":"幌似","丁目名":null,"小字名":null,"地番":"1995-3","精度区分":null,"座標系":"任意座標系"}},{"type":"Polygon","arcs":[[736,-44,-714,-735]],"properties":{"市区町村名":"岩内郡共和町","大字名":"幌似","丁目名":null,"小字名":null,"地番":"1995-4","精度区分":null,"座標系":"任意座標系"}},{"type":"Polygon","arcs":[[737,-632,-62,738]],"properties":{"市区町村名":"岩内郡共和町","大字名":"幌似","丁目名":null,"小字名":null,"地番":"2003-1","精度区分":null,"座標系":"任意座標系"}},{"type":"Polygon","arcs":[[-636,-64,-635,739]],"properties":{"市区町村名":"岩内郡共和町","大字名":"幌似","丁目名":null,"小字名":null,"地番":"2004-2","精度区分":null,"座標系":"任意座標系"}},{"type":"Polygon","arcs":[[-738,740,-633]],"properties":{"市区町村名":"岩内郡共和町","大字名":"幌似","丁目名":null,"小字名":null,"地番":"2003-2","精度区分":null,"座標系":"任意座標系"}},{"type":"Polygon","arcs":[[-164,741,742,743]],"properties":{"市区町村名":"岩内郡共和町","大字名":"幌似","丁目名":null,"小字名":null,"地番":"1915-7","精度区分":null,"座標系":"任意座標系"}},{"type":"Polygon","arcs":[[-743,-174,744,745,746]],"properties":{"市区町村名":"岩内郡共和町","大字名":"幌似","丁目名":null,"小字名":null,"地番":"1915-5","精度区分":null,"座標系":"任意座標系"}},{"type":"Polygon","arcs":[[-746,747,-184,-181,748]],"properties":{"市区町村名":"岩内郡共和町","大字名":"幌似","丁目名":null,"小字名":null,"地番":"1915-6","精度区分":null,"座標系":"任意座標系"}},{"type":"Polygon","arcs":[[-748,-745,-173,-186,-183]],"properties":{"市区町村名":"岩内郡共和町","大字名":"幌似","丁目名":null,"小字名":null,"地番":"1982-10","精度区分":null,"座標系":"任意座標系"}},{"type":"Polygon","arcs":[[-178,-175,-742,-163]],"properties":{"市区町村名":"岩内郡共和町","大字名":"幌似","丁目名":null,"小字名":null,"地番":"1982-9","精度区分":null,"座標系":"任意座標系"}},{"type":"Polygon","arcs":[[749,-715]],"properties":{"市区町村名":"岩内郡共和町","大字名":"幌似","丁目名":null,"小字名":null,"地番":"1996-2","精度区分":null,"座標系":"任意座標系"}},{"type":"Polygon","arcs":[[-659,750,-736,-750,-711]],"properties":{"市区町村名":"岩内郡共和町","大字名":"幌似","丁目名":null,"小字名":null,"地番":"1996-1","精度区分":null,"座標系":"任意座標系"}},{"type":"Polygon","arcs":[[751,752,-704,-692]],"properties":{"市区町村名":"岩内郡共和町","大字名":"幌似","丁目名":null,"小字名":null,"地番":"2000-4","精度区分":null,"座標系":"任意座標系"}},{"type":"Polygon","arcs":[[753,-672,-701,-705,-753]],"properties":{"市区町村名":"岩内郡共和町","大字名":"幌似","丁目名":null,"小字名":null,"地番":"2000-1","精度区分":null,"座標系":"任意座標系"}},{"type":"Polygon","arcs":[[-691,-673,-754,-752]],"properties":{"市区町村名":"岩内郡共和町","大字名":"幌似","丁目名":null,"小字名":null,"地番":"1999","精度区分":null,"座標系":"任意座標系"}}]}},"arcs":[[[265007,654338],[-1267,1953]],[[263740,656291],[1068,1320]],[[264808,657611],[1182,-2030]],[[265990,655581],[-983,-1243]],[[683584,349430],[-3312,-1758]],[[680272,347672],[-7442,5431]],[[672830,353103],[17077,10071]],[[689907,363174],[-6323,-13744]],[[682146,346304],[-1874,1368]],[[683584,349430],[-1438,-3126]],[[764585,285926],[10037,19772],[6997,13990],[9791,20160],[8690,18242]],[[800100,358090],[141,-111]],[[800241,357979],[-34850,-72648]],[[765391,285331],[-806,595]],[[800100,358090],[1133,2349]],[[801233,360439],[172,-137],[-1164,-2323]],[[277028,665863],[-1836,-1712]],[[275192,664151],[-1217,2152]],[[273975,666303],[1704,1488]],[[275679,667791],[1349,-1928]],[[306771,610279],[-1454,1850]],[[305317,612129],[2377,2357]],[[307694,614486],[1239,-1982]],[[308933,612504],[-2025,-2084]],[[306908,610420],[-137,-141]],[[766545,399381],[-7310,5558]],[[759235,404939],[813,493]],[[760048,405432],[243,155]],[[760291,405587],[7030,-5736]],[[767321,399851],[-776,-470]],[[796413,376056],[-29868,23325]],[[767321,399851],[10942,-8576],[13460,-10327],[5052,-4054],[-362,-838]],[[518571,313162],[-12822,-15400],[-18031,22884],[-21556,27485],[-19545,24743],[-15490,19559]],[[431127,392433],[12190,15348]],[[443317,407781],[16710,-20622],[34724,-44295],[16675,-20417]],[[511426,322447],[7145,-9285]],[[612558,565459],[-11546,1275],[-19731,5423]],[[581281,572157],[-8325,3382]],[[572956,575539],[28303,-7697],[12324,-1151]],[[613583,566691],[-1025,-1232]],[[446423,427591],[-18542,25040]],[[427881,452631],[19002,-24530]],[[446883,428101],[-460,-510]],[[815604,188096],[-5980,-13237]],[[809624,174859],[-18216,13540]],[[791408,188399],[3775,8151]],[[795183,196550],[2319,5005]],[[797502,201555],[18102,-13459]],[[443317,407781],[949,1211]],[[444266,408992],[1251,-1585],[15886,-20136],[10514,-13484],[15953,-20599],[23556,-30741]],[[770909,401979],[-6638,5428]],[[764271,407407],[1747,1307]],[[766018,408714],[1520,-1307],[5036,-4330]],[[772574,403077],[-1665,-1098]],[[413190,405650],[-18654,23209]],[[394536,428859],[-2977,7867],[-14605,28899]],[[376954,465625],[-17587,51974]],[[359367,517599],[70082,-91575]],[[429449,426024],[-16259,-20374]],[[936175,3971],[-28896,21517]],[[907279,25488],[-12298,29175]],[[894981,54663],[3360,5240]],[[898341,59903],[403,-420]],[[898744,59483],[15370,-16033]],[[914114,43450],[20730,-22687],[6124,-6463]],[[940968,14300],[-3103,-6686],[-1690,-3643]],[[936175,3971],[-1844,-3971],[-10206,7614],[-13533,10095],[-3313,7779]],[[45646,835149],[-8257,3714]],[[37389,838863],[-11102,8506],[16670,48444]],[[42957,895813],[18665,-15047]],[[61622,880766],[-15976,-45617]],[[5797,959700],[-5797,9343],[2371,4711],[12107,26245],[13170,-11567]],[[27648,988432],[-21851,-28732]],[[20486,936025],[-14689,23675]],[[27648,988432],[13893,-12321]],[[41541,976111],[-21055,-40086]],[[181852,742139],[-17590,16340],[-15497,12386]],[[148765,770865],[-6697,11655],[-14903,25675],[-24109,41831],[-39846,32525],[-19421,15681]],[[43789,898232],[-23303,37793]],[[41541,976111],[25170,-22125]],[[66711,953986],[-452,-985],[16849,-14915],[9774,-8674],[22717,-22523],[5121,-7134],[5437,-7679],[8610,-13882],[39069,-66651],[8305,-13998],[18778,-32324],[2017,-3722]],[[202936,761499],[-21084,-19360]],[[203826,762396],[-890,-897]],[[66711,953986],[21636,-19053],[31565,-28292],[29957,-51297],[13997,-24362],[18087,-30703],[14493,-24968],[7380,-12915]],[[174826,724593],[-3660,3266],[-1662,2941]],[[169504,730800],[1636,1502]],[[171140,732302],[8620,7915]],[[179760,740217],[2092,1922]],[[203826,762396],[4332,-7373]],[[208158,755023],[-827,-756]],[[207331,754267],[-1213,-1107]],[[206118,753160],[-18478,-16869]],[[187640,736291],[-2010,-1834]],[[185630,734457],[-9163,-8467]],[[176467,725990],[-1641,-1397]],[[258918,696308],[16761,-28517]],[[273975,666303],[-15675,27042],[618,2963]],[[327148,753872],[-4364,1995],[-9391,5037],[-36516,20625]],[[276877,781529],[706,3348],[5693,-2976]],[[283276,781901],[283,-1243],[24409,-12444],[12146,-5909]],[[320114,762305],[8302,-4190],[-121,-406]],[[328295,757709],[-1147,-3837]],[[283276,781901],[13218,-7090],[9064,-4862],[14556,-7644]],[[258918,696308],[17959,85221]],[[327148,753872],[-1359,-4547],[17085,-8751],[3261,-5733]],[[346135,734841],[-42919,-40486],[-27537,-26564]],[[346135,734841],[1943,1769]],[[348078,736610],[5276,5079]],[[353354,741689],[4166,3933]],[[357520,745622],[1456,1374]],[[358976,746996],[2257,-889]],[[361233,746107],[-1360,-1305]],[[359873,744802],[-4389,-4206]],[[355484,740596],[-5597,-5338]],[[349887,735258],[-1889,-1800]],[[347998,733458],[-35728,-33727],[-35242,-33868]],[[307694,614486],[-20433,33143],[-10233,18234]],[[347998,733458],[5781,-10561],[8137,-14113],[14838,-24700]],[[376754,684084],[-23649,-23883],[-40856,-41188],[-4555,-4527]],[[305317,612129],[-8823,15236],[-21302,36786]],[[208158,755023],[7073,-12119]],[[215231,742904],[-683,-1117]],[[214548,741787],[-7217,12480]],[[263740,656291],[-9335,16283],[-7548,12943],[-7211,12747],[-6125,10718],[-9063,15813],[-9910,16992]],[[215231,742904],[34011,-58546],[15566,-26747]],[[265990,655581],[22520,-38693],[-5605,5199]],[[282905,622087],[-3378,6736],[-3709,7127],[-4526,7630],[-6285,10758]],[[282905,622087],[-6045,5784]],[[276860,627871],[-15472,22001]],[[261388,649872],[3619,4466]],[[261388,649872],[-1329,1872]],[[260059,651744],[1716,2119]],[[261775,653863],[1965,2428]],[[261388,649872],[-2291,-2827],[-10713,9780],[-13539,12496],[-17140,15929],[-18584,17067],[-24295,22276]],[[176467,725990],[9996,-9057],[12834,-11787],[11755,-10982],[20136,-18612],[16400,-15122],[11183,-10266],[1288,1580]],[[276860,627871],[-17933,16919],[-14748,13908],[-20381,19358],[-5300,5152],[-12954,12203],[-30718,29182]],[[185630,734457],[5290,-5210]],[[190920,729247],[9632,-9615]],[[200552,719632],[35061,-34859],[10206,-13824],[14240,-19205]],[[187640,736291],[1399,-1545],[3495,-3417]],[[192534,731329],[-1614,-2082]],[[192534,731329],[13153,19538],[431,2293]],[[214548,741787],[-1603,-2304],[-11003,-17515]],[[201942,721968],[-9408,9361]],[[261775,653863],[-25224,33963],[-34609,34142]],[[201942,721968],[-1390,-2336]],[[179760,740217],[-15067,13842],[-12022,10074]],[[152671,764133],[-3906,6732]],[[148315,767287],[4356,-3154]],[[152671,764133],[18469,-31831]],[[169504,730800],[-5987,10225],[-15202,26262]],[[148315,767287],[-4774,8252],[-14316,24792],[-17576,30402],[-9889,17339],[-26203,21305],[-13935,11389]],[[42957,895813],[832,2419]],[[148315,767287],[-19852,16266],[-2899,2670],[-38729,26305],[-41189,22621]],[[45646,835149],[-741,-2117]],[[44905,833032],[-7516,5831]],[[169504,730800],[-7684,11528],[-52752,24876],[-13258,19358],[-10773,15600],[-17090,13114],[-23042,17756]],[[722425,88964],[-6903,4199]],[[715522,93163],[6926,-1538]],[[722448,91625],[-23,-2661]],[[726984,82609],[454,3325]],[[727438,85934],[1319,10750],[-163,4652],[-344,3358],[-251,1371],[-1308,3404],[-1046,2040],[-3035,5115]],[[722610,116624],[-1982,3245]],[[720628,119869],[10670,-7913]],[[731298,111956],[-3438,-29957],[-876,610]],[[726984,82609],[-6831,4763],[-7538,5020],[-18814,7969],[-20045,6557],[-18741,5683],[-25656,6035],[7814,20611]],[[637173,139247],[36351,-20955],[29403,-17467]],[[702927,100825],[12595,-7662]],[[722425,88964],[5013,-3030]],[[637173,139247],[3008,8269],[-53320,22133]],[[586861,169649],[-13254,8197]],[[573607,177846],[13521,28682]],[[587128,206528],[9676,-5434],[14363,-8472],[24983,-15961],[13448,-8951],[17170,-10537],[30385,-19766]],[[697153,137407],[15073,-11414]],[[712226,125993],[10413,-11826]],[[722639,114167],[-11333,8395],[-8379,-21737]],[[722639,114167],[-191,-22542]],[[722639,114167],[-29,2457]],[[587908,208280],[-15618,7980],[-10556,4875],[-10174,4580],[-11414,4838],[-10776,3976]],[[529370,234529],[16858,15746]],[[546228,250275],[21305,-15796],[24106,-18152]],[[591639,216327],[-1956,-4391],[-1775,-3656]],[[676461,152865],[-8694,6039],[-11852,7249],[-19234,12376],[-23950,15323],[-24823,14428]],[[591639,216327],[47014,-34990],[37808,-28472]],[[527623,232897],[1747,1632]],[[587908,208280],[-780,-1752]],[[587128,206528],[-14816,7435],[-18383,8540],[-13823,5805],[-12483,4589]],[[573607,177846],[-1056,-2241]],[[572551,175605],[-53377,22197],[-12695,-12812],[-4202,16417],[-1509,6347],[11945,11217]],[[512713,218971],[23419,-18369],[37475,-22756]],[[586861,169649],[-14310,5956]],[[512713,218971],[14910,13926]],[[449716,310595],[-6298,8957],[-8782,15761],[-1926,3644]],[[432710,338957],[20093,23373]],[[452803,362330],[53121,-67427],[13887,16643]],[[519811,311546],[23309,-30345],[-19460,3631],[-55929,20531],[-18015,5232]],[[449716,310595],[-33178,9580]],[[416538,320175],[15871,18433]],[[432409,338608],[301,349]],[[416538,320175],[-2185,604],[-14925,36450],[-444,41557],[-2761,8621],[-8257,25780]],[[387966,433187],[9096,-11086]],[[397062,422101],[11123,-31231],[14418,-32693]],[[422603,358177],[-2890,-3658],[12696,-15911]],[[397062,422101],[16869,-21206],[8929,-10633]],[[422860,390262],[-6202,-7667],[12480,-16199],[-6535,-8219]],[[422603,358177],[2760,-6447],[7347,-12773]],[[422860,390262],[3280,-4009]],[[426140,386253],[1115,-1363],[3914,4698],[21634,-27258]],[[397062,422101],[-2526,6758]],[[413190,405650],[10978,-13658]],[[424168,391992],[-1308,-1730]],[[429449,426024],[10729,-14113]],[[440178,411911],[-16010,-19919]],[[440178,411911],[3139,-4130]],[[431127,392433],[-4987,-6180]],[[518571,313162],[1240,-1616]],[[759127,190405],[-28515,21151]],[[730612,211556],[420,875]],[[731032,212431],[28688,-20850]],[[759720,191581],[-593,-1176]],[[731032,212431],[17655,36766]],[[748687,249197],[10712,-8170],[-4377,-10477],[13475,-10465],[14158,30526]],[[782655,250611],[3917,8955]],[[786572,259566],[28241,-20639]],[[814813,238927],[-17311,-37372]],[[795183,196550],[-7856,5623],[-3530,-8068]],[[783797,194105],[-12107,8925]],[[771690,203030],[-4729,3313],[-7241,-14762]],[[730612,211556],[-1096,808]],[[729516,212364],[17717,37944]],[[747233,250308],[289,-221]],[[747522,250087],[1165,-890]],[[747522,250087],[9249,19824]],[[756771,269911],[25884,-19300]],[[724739,215883],[-14615,10765]],[[710124,226648],[15898,-8219]],[[726022,218429],[-1283,-2546]],[[710124,226648],[18914,41035]],[[729038,267683],[11154,24840]],[[740192,292523],[14355,-10432]],[[754547,282091],[-1298,-2174],[-3760,-8903],[-10829,-25368],[-12638,-27217]],[[710124,226648],[-12989,9693],[-8706,1496]],[[688429,237837],[-13950,6526]],[[674479,244363],[33240,71229]],[[707719,315592],[20537,-15267]],[[728256,300325],[-10652,-22973],[11434,-9669]],[[728256,300325],[322,694],[11614,-8496]],[[707719,315592],[-29652,22128]],[[678067,337720],[-5620,4234]],[[672447,341954],[-7343,5532]],[[665104,347486],[-18179,13490]],[[646925,360976],[-1795,1405]],[[645130,362381],[-14791,10890]],[[630339,373271],[778,957]],[[631117,374228],[42493,-30805],[38448,-28001],[25548,-18397],[17809,-13194]],[[755415,283831],[-868,-1740]],[[755415,283831],[949,-691]],[[756364,283140],[-849,-1773]],[[755515,281367],[-968,724]],[[760912,278618],[-342,245]],[[760570,278863],[395,935]],[[760965,279798],[388,-282]],[[761353,279516],[-441,-898]],[[760965,279798],[-4601,3342]],[[755415,283831],[2837,4948]],[[758252,288779],[1243,-912]],[[759495,287867],[4036,-2964]],[[763531,284903],[351,-378]],[[763882,284525],[-994,-1721],[-1535,-3288]],[[763531,284903],[624,1349]],[[764155,286252],[430,-326]],[[764585,285926],[-703,-1401]],[[815265,239916],[-452,-989]],[[786572,259566],[-25660,19052]],[[761353,279516],[53912,-39600]],[[763882,284525],[23454,-17256]],[[787336,267269],[22065,-16122]],[[809401,251147],[1680,-1230]],[[811081,249917],[6558,-4803],[-286,-627]],[[817353,244487],[-2088,-4571]],[[756771,269911],[-281,214]],[[756490,270125],[4080,8738]],[[760912,278618],[-4141,-8707]],[[729516,212364],[-3656,2693]],[[725860,215057],[29655,66310]],[[756490,270125],[-9257,-19817]],[[787965,268663],[-629,-1394]],[[765391,285331],[22574,-16668]],[[758252,288779],[860,1517]],[[759112,290296],[1178,-664]],[[760290,289632],[-40,-91],[-755,-1674]],[[631117,374228],[-20594,14930]],[[610523,389158],[-12965,9415]],[[597558,398573],[3511,4331]],[[601069,402904],[79574,-57621],[77609,-56504]],[[630339,373271],[-14793,-18213]],[[615546,355058],[-16432,20060]],[[599114,375118],[11409,14040]],[[573187,292920],[-5438,3245]],[[567749,296165],[47797,58893]],[[645130,362381],[-16400,-36292]],[[628730,326089],[-55543,-33169]],[[599114,375118],[-10338,12620]],[[588776,387738],[8782,10835]],[[567749,296165],[-6523,4010],[-11730,8875],[-10363,8512],[-4240,3602]],[[534893,321164],[53883,66574]],[[534893,321164],[-1518,-1925]],[[533375,319239],[-3618,4038]],[[529757,323277],[1423,1714]],[[531180,324991],[35360,43838],[65908,81409],[25371,31520],[23013,28709]],[[680832,510467],[5809,7246]],[[686641,517713],[1908,-3700],[2963,-5744]],[[691512,508269],[-4128,-4800]],[[687384,503469],[-1472,-1699]],[[685912,501770],[-652,-752]],[[685260,501018],[-694,-800]],[[684566,500218],[-31798,-36693]],[[652768,463525],[-50607,-59297]],[[602161,404228],[-1092,-1324]],[[649407,370197],[-47246,34031]],[[652768,463525],[29291,-22725],[-32652,-70603]],[[649407,370197],[23423,-17094]],[[682146,346304],[29809,-21705]],[[711955,324599],[21719,-15549],[15893,-11811],[9545,-6943]],[[759112,290296],[3663,6454],[4186,10523],[29452,68783]],[[767321,399851],[1433,880]],[[768754,400731],[30414,-22727]],[[799168,378004],[-3677,-8530],[-28530,-64306],[-6671,-15536]],[[711955,324599],[27519,58420]],[[739474,383019],[27071,16362]],[[689907,363174],[32867,71447]],[[722774,434621],[7896,-7185],[21668,-16556]],[[752338,410880],[-6380,-14069]],[[745958,396811],[-6484,-13792]],[[745958,396811],[13277,8128]],[[752338,410880],[599,-767],[6298,-5174]],[[760291,405587],[1161,743]],[[761452,406330],[7302,-5599]],[[760048,405432],[-7417,6088]],[[752631,411520],[103,225]],[[752734,411745],[483,1049]],[[753217,412794],[8235,-6464]],[[753217,412794],[-15814,12171],[-14004,10498],[-227,185]],[[723172,435648],[-142,626],[-8449,12616],[-14418,21698]],[[700163,470588],[-2099,4553],[-5547,10850]],[[692517,485991],[-1320,3100]],[[691197,489091],[-5285,12679]],[[687384,503469],[11350,-26922],[6956,-10610],[12632,-18768],[6088,-9309]],[[724410,437860],[459,-761],[29403,-22212]],[[754272,414887],[9999,-7480]],[[770909,401979],[1819,-1487],[25633,-19226],[395,588]],[[798756,381854],[1535,-1244]],[[800291,380610],[-1123,-2606]],[[752338,410880],[293,640]],[[684566,500218],[7259,-14719],[4964,-10232],[8086,-16222],[6087,-10848],[8924,-11097],[2888,-2479]],[[606045,276323],[129,281]],[[606174,276604],[16441,35980]],[[622615,312584],[6115,13505]],[[646925,360976],[-14881,-32855]],[[632044,328121],[-6049,-13531]],[[625995,314590],[-3381,-7411],[-14622,-31813]],[[607992,275366],[-1947,957]],[[582096,288233],[-8909,4687]],[[622615,312584],[-40519,-24351]],[[573187,292920],[-4580,-2713]],[[568607,290207],[-3570,2538]],[[565037,292745],[2712,3420]],[[565037,292745],[-15289,11451],[-13641,11968],[-2732,3075]],[[533375,319239],[-1761,-2235]],[[531614,317004],[-3400,4414]],[[528214,321418],[1543,1859]],[[564008,291449],[-19429,14391],[-10088,7535],[-2877,3629]],[[565037,292745],[-1029,-1296]],[[568607,290207],[7658,-5596]],[[576265,284611],[5286,-3888],[19852,-14494]],[[601403,266229],[-780,-1744]],[[600623,264485],[-9810,7097],[-26805,19867]],[[601403,266229],[1923,-1230]],[[603326,264999],[-801,-1779]],[[602525,263220],[-1902,1265]],[[603326,264999],[21119,-10773],[13631,-3467]],[[638076,250759],[-1496,-3326]],[[636580,247433],[-2587,420],[-16105,6061],[-15363,9306]],[[638076,250759],[32371,-8933],[2855,44]],[[673302,241870],[-482,-1023]],[[672820,240847],[-36240,6586]],[[683164,238852],[-8908,3033],[-954,-15]],[[673302,241870],[1177,2493]],[[688429,237837],[-5265,1015]],[[725860,215057],[-1121,826]],[[674479,244363],[-32332,15208]],[[642147,259571],[13731,29591],[22189,48558]],[[638076,250759],[4071,8812]],[[642147,259571],[-34155,15795]],[[625995,314590],[22472,13234],[23980,14130]],[[683164,238852],[-10344,1995]],[[603326,264999],[4666,10367]],[[601403,266229],[4642,10094]],[[576265,284611],[5831,3622]],[[582096,288233],[21595,-10657],[2483,-972]],[[632044,328121],[33060,19365]],[[771690,203030],[-4729,-4303],[-5001,-4550],[-1634,-3086]],[[760326,191091],[-606,490]],[[760326,191091],[-626,-1109],[-573,423]],[[526860,323174],[-8419,10928],[-17926,23235],[-12185,15792],[-10342,13428],[-3663,4707]],[[474325,391264],[450,550]],[[474775,391814],[3402,-4063],[22227,-28733],[15237,-19299],[3631,-4722],[9007,-10071]],[[528279,324926],[-1419,-1752]],[[474325,391264],[-1328,1707]],[[472997,392971],[377,464]],[[473374,393435],[1401,-1621]],[[472997,392971],[-11145,14436],[-10494,13593],[-4935,6591]],[[446883,428101],[5013,-6858],[21478,-27808]],[[475869,393154],[-1344,1700]],[[474525,394854],[65808,81374]],[[540333,476228],[1321,-1786]],[[541654,474442],[-65785,-81288]],[[474525,394854],[-26733,34257]],[[447792,429111],[30392,38360],[35121,44430]],[[513305,511901],[27028,-35673]],[[529704,326638],[-5470,5853],[-22075,25792],[-19108,25094],[-7182,9777]],[[541654,474442],[27004,-35449]],[[568658,438993],[-12123,-15249],[-4876,-6378],[12527,-15941]],[[564186,401425],[12889,-16440]],[[577075,384985],[-22465,-27598],[-24906,-30749]],[[473374,393435],[1151,1419]],[[475869,393154],[-1094,-1340]],[[446883,428101],[909,1010]],[[529704,326638],[-1425,-1712]],[[528214,321418],[-1354,1756]],[[528279,324926],[1478,-1649]],[[529704,326638],[1476,-1647]],[[577075,384985],[16701,20610]],[[593776,405595],[1514,1859]],[[595290,407454],[1654,2032],[33947,42129],[48310,60088]],[[679201,511703],[632,786]],[[679833,512489],[999,-2022]],[[564186,401425],[17264,20853]],[[581450,422278],[12326,-16683]],[[568658,438993],[12792,-16715]],[[513305,511901],[-48757,64169]],[[464548,576070],[1247,1594]],[[465795,577664],[22015,-28977],[42118,-55221],[11757,-15574]],[[541685,477892],[1353,-1744]],[[543038,476148],[22715,-29793]],[[565753,446355],[27002,-35351],[2535,-3550]],[[691197,489091],[-5937,11927]],[[692517,485991],[4869,-11331],[2777,-4072]],[[700163,470588],[3464,-7071],[3064,-5970],[4980,-8726],[4966,-5936],[4094,-5236],[2441,-2001]],[[723172,435648],[-398,-1027]],[[357520,745622],[-15330,6431],[-10899,4268]],[[331291,756321],[-2996,1388]],[[320114,762305],[38862,-15309]],[[327148,753872],[3049,-1379]],[[330197,752493],[-257,-1020],[21313,-10765],[-3498,-3600],[323,-498]],[[355484,740596],[34942,-13912]],[[390426,726684],[-9944,-38854]],[[380482,687830],[-1211,-1170]],[[379271,686660],[-15845,26567],[-13539,22031]],[[361233,746107],[56175,-22419],[22639,-26606]],[[440047,697082],[-438,-888]],[[439609,696194],[-13824,15343],[-9494,8489],[-9764,5449],[-46654,19327]],[[331291,756321],[-1094,-3828]],[[353354,741689],[-23157,10804]],[[437737,692858],[-1416,1469]],[[436321,694327],[-7926,8225]],[[428395,702552],[-13705,14393],[-24264,9739]],[[439609,696194],[-1872,-3336]],[[359878,543825],[-3202,4389]],[[356676,548214],[53697,95892]],[[410373,644106],[27364,48752]],[[440047,697082],[3466,-4114]],[[443513,692968],[-476,-938]],[[443037,692030],[-1314,-2244]],[[441723,689786],[-1069,-1825]],[[440654,687961],[-711,-1269]],[[439943,686692],[-545,-970]],[[439398,685722],[-39933,-71621],[-39587,-70276]],[[471631,660126],[-28594,31904]],[[443513,692968],[18581,-21559],[9537,-11283]],[[501697,627175],[-1130,-1419]],[[500567,625756],[-14757,16121],[-21187,23039],[-22900,24870]],[[471631,660126],[1730,-2033]],[[473361,658093],[28336,-30918]],[[503735,629978],[-2038,-2803]],[[473361,658093],[4960,-4409],[25414,-23706]],[[499105,619976],[-1587,1923]],[[497518,621899],[1855,2347]],[[499373,624246],[1194,1510]],[[503735,629978],[1764,-1626]],[[505499,628352],[-2229,-3002]],[[503270,625350],[-1148,-1547]],[[502122,623803],[-1415,-1906]],[[500707,621897],[-1602,-1921]],[[499373,624246],[-19107,20832],[-16783,18172],[-13166,14240],[-9663,10471]],[[497518,621899],[-10386,13076],[-12794,13945],[-34395,37772]],[[496878,621148],[-10829,13689],[-15558,16995],[-31093,33890]],[[497518,621899],[-640,-751]],[[397735,495348],[-30752,40237]],[[366983,535585],[-7105,8240]],[[496878,621148],[-49293,-62535],[-49850,-63265]],[[399260,493347],[-1525,2001]],[[499105,619976],[-147,-177]],[[498958,619799],[-653,-782]],[[498305,619017],[-32510,-41353]],[[464548,576070],[-45071,-56974],[-20217,-25749]],[[396852,494246],[-609,-760]],[[396243,493486],[-15421,20335],[-12096,15746],[-7026,9180],[-2670,3416]],[[359030,542163],[298,633]],[[359328,542796],[2889,-3737]],[[362217,539059],[23129,-30062],[11506,-14751]],[[397719,491545],[-1476,1941]],[[396852,494246],[1461,-2006]],[[398313,492240],[-594,-695]],[[359030,542163],[-3369,4311]],[[355661,546474],[378,605]],[[356039,547079],[3289,-4283]],[[355661,546474],[-4821,6539],[-15225,19767],[-12932,16799],[-15912,20700]],[[306908,610420],[2711,-2820],[1035,-1609],[11145,-14327],[17590,-22873],[16650,-21712]],[[376754,684084],[2517,2576]],[[380482,687830],[408,-533],[22435,9399],[2898,-70],[16,-1888]],[[406239,694738],[-2845,75],[-21865,-9216],[-72596,-73093]],[[428395,702552],[-8449,-7553]],[[419946,694999],[-6651,-4641],[-7056,4380]],[[356676,548214],[-9332,12877],[-3342,4310],[-13094,16957],[-4844,6302],[-10282,13924],[-6849,9920]],[[419946,694999],[4759,-9203],[-6079,-3152],[-4576,646]],[[414050,683290],[-23978,-9392],[19240,-28233]],[[409312,645665],[1061,-1559]],[[385775,439685],[-8821,25940]],[[394536,428859],[-8761,10826]],[[387966,433187],[-2191,6498]],[[441078,413079],[-900,-1168]],[[429449,426024],[969,1215]],[[430418,427239],[10660,-14160]],[[359367,517599],[-1908,5642],[4744,-6363],[33730,-44118],[34485,-45521]],[[441078,413079],[3188,-4087]],[[446423,427591],[-18806,24692]],[[427617,452283],[264,348]],[[426197,454147],[-3374,4389]],[[422823,458536],[307,367]],[[423130,458903],[3349,-4385]],[[426479,454518],[-282,-371]],[[427617,452283],[-1420,1864]],[[426479,454518],[1402,-1887]],[[427881,452631],[1009,1385]],[[428890,454016],[18902,-24905]],[[428890,454016],[13039,16566],[9730,12339]],[[451659,482921],[10957,-8104],[14722,19613],[-4023,5637],[-14684,19010],[-3845,4813],[-14738,-23903],[7580,-10227]],[[447628,489760],[-23403,-29551]],[[424225,460209],[-20305,26687],[-3008,4009],[-1652,2442]],[[565753,446355],[41700,51447],[47288,58380]],[[654741,556182],[7705,-9388],[5896,-12649],[6979,-14744],[3880,-7698]],[[543038,476148],[35618,44085],[35933,44298]],[[614589,564531],[17611,-1428]],[[632200,563103],[21062,-5056]],[[653262,558047],[1479,-1865]],[[654741,556182],[674,831]],[[655415,557013],[3757,-4900],[3965,-4773],[5995,-12598],[6060,-12980],[4641,-9273]],[[653262,558047],[1653,-343]],[[654915,557704],[500,-691]],[[656579,558459],[-759,-943]],[[655820,557516],[-905,188]],[[654915,557704],[-862,1191],[-11087,4247]],[[642966,563142],[12207,-2951],[1460,1724]],[[656633,561915],[1864,-1076]],[[658497,560839],[-510,-631]],[[657987,560208],[-1408,-1749]],[[632200,563103],[-6786,1630]],[[625414,564733],[16072,-1293]],[[641486,563440],[1480,-298]],[[641486,563440],[-25552,6217]],[[615934,569657],[6998,8667]],[[622932,578324],[6819,-620]],[[629751,577704],[26882,-15789]],[[655820,557516],[-405,-503]],[[614589,564531],[805,1131]],[[615394,565662],[10020,-929]],[[625414,564733],[-9133,2155],[-887,-1226]],[[615394,565662],[-1222,573],[-589,456]],[[613583,566691],[2351,2966]],[[572956,575539],[-7073,2811]],[[565883,578350],[642,2207],[-26930,12886],[-10909,5321],[-8796,8237],[-17768,16802]],[[503270,625350],[10289,-11078]],[[513559,614272],[8875,-8290],[10216,-5937],[10605,-4099],[6815,-1673]],[[550070,594273],[5112,-3492],[16438,-2250]],[[571620,588531],[26116,-6586],[5168,-1000],[20028,-2621]],[[622932,578324],[1964,2452]],[[624896,580776],[4855,-3072]],[[571620,588531],[52302,-7138],[974,-617]],[[513559,614272],[2404,3907]],[[515963,618179],[9315,-8572],[8278,-4942],[1661,-293]],[[535217,604372],[14853,-10099]],[[515963,618179],[209,340]],[[516172,618519],[5289,-4850],[13756,-9297]],[[505499,628352],[10673,-9833]],[[565883,578350],[-27023,13018],[-10794,5152],[-10137,9263],[-17222,16114]],[[572956,575539],[-4724,1273],[-28169,9317],[-2294,1090],[-14226,6361],[-12825,11477],[-11760,14742]],[[581281,572157],[-9268,2390],[-32511,10477],[-16437,7655],[-13168,11816],[-11592,14522]],[[541685,477892],[67260,83154]],[[608945,561046],[3613,4413]],[[581281,572157],[6095,-2374],[14417,-5848],[7152,-2889]],[[451659,482921],[-1656,1218]],[[450003,484139],[-2375,5621]],[[427499,455889],[-3274,4320]],[[450003,484139],[-22504,-28250]],[[428890,454016],[-1391,1873]],[[423130,458903],[1095,1306]],[[427499,455889],[-1020,-1371]],[[422823,458536],[-25104,33009]],[[398313,492240],[12480,-16924],[12337,-16413]],[[398313,492240],[947,1107]],[[396852,494246],[883,1102]],[[362217,539059],[4766,-3474]],[[359328,542796],[550,1029]],[[356039,547079],[637,1135]],[[414050,683290],[7436,-15647]],[[421486,667643],[-12174,-21978]],[[436321,694327],[-14835,-26684]],[[679833,512489],[1395,1736]],[[681228,514225],[1559,1938]],[[682787,516163],[2809,3493]],[[685596,519656],[1045,-1943]],[[682787,516163],[-9598,21447],[-4209,9392],[-10993,13206]],[[658497,560839],[7926,-4559],[1589,-2927],[2208,-4487],[2957,-5670],[5697,-10901],[6722,-12639]],[[726012,441399],[-1602,-3539]],[[691512,508269],[2250,-9167],[14227,-25735],[17367,-31364],[656,-604]],[[755314,417432],[-1042,-2545]],[[726012,441399],[23986,-19621],[5316,-4346]],[[755314,417432],[10704,-8718]],[[723172,435648],[7446,-7100],[22116,-16803]],[[656579,558459],[10450,-12542],[4360,-9579],[9839,-22113]],[[898341,59903],[1243,1940]],[[899584,61843],[835,1301]],[[900419,63144],[323,-346]],[[900742,62798],[-1998,-3315]],[[914114,43450],[27219,-28325]],[[941333,15125],[-365,-825]],[[772574,403077],[6990,-5666],[19192,-15557]],[[821362,363533],[-1358,-2722]],[[820004,360811],[-14671,11997]],[[805333,372808],[1350,2622]],[[806683,375430],[14679,-11897]],[[809401,251147],[11074,23747]],[[820475,274894],[23192,50030]],[[843667,324924],[5526,12081]],[[849193,337005],[1303,2846]],[[850496,339851],[1720,-1399]],[[852216,338452],[-10527,-22855]],[[841689,315597],[-29966,-64302]],[[811723,251295],[-642,-1378]],[[866378,296678],[-24689,18919]],[[852216,338452],[9756,-7911],[11520,-18352]],[[873492,312189],[-7114,-15511]],[[893987,275654],[-23451,17858]],[[870536,293512],[-4158,3166]],[[873492,312189],[9399,-14850],[11559,-19273]],[[894450,278066],[-463,-2412]],[[861740,116048],[18654,22137],[-1120,717]],[[879274,138902],[-314,9277]],[[878960,148179],[-1658,52809]],[[877302,200988],[611,2412]],[[877913,203400],[16074,72254]],[[894450,278066],[3277,-5317]],[[897727,272749],[-1898,-8087]],[[895829,264662],[-14026,-63197],[2004,-63492],[-11179,-13341]],[[872628,124632],[-8670,-10345]],[[863958,114287],[-2218,1761]],[[942447,205362],[-3043,-7452]],[[939404,197910],[-6438,7323],[-17500,28070],[-19637,31359]],[[897727,272749],[25405,-42009],[7124,-9502],[12191,-15876]],[[896468,87644],[-1599,1679],[-2059,1733]],[[892810,91056],[9998,21830]],[[902808,112886],[11803,25954]],[[914611,138840],[9679,24405],[15114,34665]],[[942447,205362],[4712,-6160]],[[947159,199202],[-27999,-61708],[-22587,-49637]],[[896573,87857],[-105,-213]],[[947159,199202],[854,-1032]],[[948013,198170],[-1001,-2392]],[[947012,195778],[-16223,-37872],[-31209,-66449],[-2050,-4571]],[[897530,86886],[-957,971]],[[948013,198170],[8889,-11450],[28880,-32264],[14217,-11469],[-1086,-2387]],[[998913,140600],[-24151,18750],[-27750,36428]],[[949668,33417],[-19200,19647],[-19971,20958],[-12967,12864]],[[998913,140600],[-22609,-49675],[-26636,-57508]],[[949668,33417],[-1248,-2694],[-51457,54901]],[[896963,85624],[567,1262]],[[896963,85624],[-977,1032]],[[895986,86656],[482,988]],[[881546,117367],[-8918,7265]],[[914611,138840],[-16016,11991],[-12771,-25177]],[[885824,125654],[-4278,-8287]],[[863958,114287],[-960,-1147]],[[862998,113140],[-2288,1687],[1030,1221]],[[875401,105204],[-519,-898]],[[874882,104306],[-11884,8834]],[[863958,114287],[11443,-9083]],[[892810,91056],[-324,-629]],[[892486,90427],[-2370,2554],[-15234,11325]],[[875401,105204],[5530,-4435]],[[880931,100769],[11879,-9713]],[[895986,86656],[-3500,3771]],[[875401,105204],[6145,12163]],[[881546,117367],[5490,-4482]],[[887036,112885],[-6105,-12116]],[[841322,229705],[-29599,21590]],[[870536,293512],[-29214,-63807]],[[877913,203400],[-36591,26305]],[[877302,200988],[-9117,6552]],[[868185,207540],[-50832,36947]],[[878960,148179],[-28084,17015]],[[850876,165194],[17309,42346]],[[848829,163457],[-16590,12271]],[[832239,175728],[-16635,12368]],[[850876,165194],[-979,593],[-1068,-2330]],[[843667,324924],[-22539,16603]],[[821128,341527],[5997,13462]],[[827125,354989],[22068,-17984]],[[800241,357979],[13191,-10339]],[[813432,347640],[7696,-6113]],[[820475,274894],[-22323,16369],[-10187,-22600]],[[813432,347640],[6572,13171]],[[820004,360811],[7121,-5822]],[[821362,363533],[29134,-23682]],[[791408,188399],[-7611,5706]],[[764155,286252],[29751,63978],[4284,9438]],[[798190,359668],[1910,-1578]],[[801233,360439],[-2013,1562],[2054,3467],[4059,7340]],[[798190,359668],[-659,544],[2608,5214],[3924,8420]],[[804063,373846],[1270,-1038]],[[804063,373846],[1180,2751]],[[805243,376597],[1440,-1167]],[[800291,380610],[4952,-4013]],[[847341,160211],[-4453,-9980],[-16543,12293]],[[826345,162524],[5894,13204]],[[848829,163457],[-1488,-3246]],[[826345,162524],[-16721,12335]],[[886609,75608],[12975,-13765]],[[894981,54663],[-8697,20252],[325,693]],[[900742,62798],[13894,-14826],[27903,-30119],[-1206,-2728]],[[886609,75608],[718,1531],[13092,-13995]],[[720628,119869],[-8402,6124]],[[712226,125993],[-2444,3665]],[[709782,129658],[3559,-2670],[18154,-13313],[-197,-1719]],[[697153,137407],[-20357,15207]],[[676796,152614],[22840,-15343]],[[699636,137271],[10146,-7613]],[[676796,152614],[-335,251]],[[546228,250275],[9107,-5780],[11344,-7475],[69239,-51954],[28322,-21270],[24311,-18208],[11085,-8317]],[[850876,165194],[-954,-2449],[-1093,712]],[[879274,138902],[-31933,21309]],[[885824,125654],[5452,-4099]],[[891276,121555],[-4240,-8670]],[[891276,121555],[11532,-8669]]],"bbox":[210421.872,230292.382,211697.201,231292.899],"transform":{"scale":[0.0012753302753302732,0.0010005180005179931],"translate":[210421.872,230292.382]}}