{"type":"Topology","objects":{"01457-4500-13.featurecollection":{"type":"GeometryCollection","geometries":[{"type":"Polygon","arcs":[[0,1]],"properties":{"市区町村名":"上川郡上川町","大字名":"字中越","丁目名":null,"小字名":null,"地番":"235","精度区分":null,"座標系":"任意座標系"}},{"type":"Polygon","arcs":[[2,3]],"properties":{"市区町村名":"上川郡上川町","大字名":"字中越","丁目名":null,"小字名":null,"地番":"236","精度区分":null,"座標系":"任意座標系"}},{"type":"Polygon","arcs":[[4,5]],"properties":{"市区町村名":"上川郡上川町","大字名":"字中越","丁目名":null,"小字名":null,"地番":"237","精度区分":null,"座標系":"任意座標系"}},{"type":"Polygon","arcs":[[6,7,8]],"properties":{"市区町村名":"上川郡上川町","大字名":"字中越","丁目名":null,"小字名":null,"地番":"238","精度区分":null,"座標系":"任意座標系"}},{"type":"Polygon","arcs":[[9,10]],"properties":{"市区町村名":"上川郡上川町","大字名":"字中越","丁目名":null,"小字名":null,"地番":"239","精度区分":null,"座標系":"任意座標系"}},{"type":"Polygon","arcs":[[11,12,-8]],"properties":{"市区町村名":"上川郡上川町","大字名":"字中越","丁目名":null,"小字名":null,"地番":"240","精度区分":null,"座標系":"任意座標系"}},{"type":"Polygon","arcs":[[13,14,-10]],"properties":{"市区町村名":"上川郡上川町","大字名":"字中越","丁目名":null,"小字名":null,"地番":"241","精度区分":null,"座標系":"任意座標系"}},{"type":"Polygon","arcs":[[15,16,17]],"properties":{"市区町村名":"上川郡上川町","大字名":"字中越","丁目名":null,"小字名":null,"地番":"242","精度区分":null,"座標系":"任意座標系"}},{"type":"Polygon","arcs":[[18,19]],"properties":{"市区町村名":"上川郡上川町","大字名":"字中越","丁目名":null,"小字名":null,"地番":"243","精度区分":null,"座標系":"任意座標系"}},{"type":"Polygon","arcs":[[20,21,22,23]],"properties":{"市区町村名":"上川郡上川町","大字名":"字中越","丁目名":null,"小字名":null,"地番":"244-1","精度区分":null,"座標系":"任意座標系"}},{"type":"Polygon","arcs":[[24,-21,25]],"properties":{"市区町村名":"上川郡上川町","大字名":"字中越","丁目名":null,"小字名":null,"地番":"244-2","精度区分":null,"座標系":"任意座標系"}},{"type":"Polygon","arcs":[[26,27,28]],"properties":{"市区町村名":"上川郡上川町","大字名":"字中越","丁目名":null,"小字名":null,"地番":"245","精度区分":null,"座標系":"任意座標系"}},{"type":"Polygon","arcs":[[29,30,31,32]],"properties":{"市区町村名":"上川郡上川町","大字名":"字中越","丁目名":null,"小字名":null,"地番":"246","精度区分":null,"座標系":"任意座標系"}},{"type":"Polygon","arcs":[[33,34]],"properties":{"市区町村名":"上川郡上川町","大字名":"字中越","丁目名":null,"小字名":null,"地番":"247","精度区分":null,"座標系":"任意座標系"}},{"type":"Polygon","arcs":[[35,36,37]],"properties":{"市区町村名":"上川郡上川町","大字名":"字中越","丁目名":null,"小字名":null,"地番":"248-1","精度区分":null,"座標系":"任意座標系"}},{"type":"Polygon","arcs":[[-36,38,39]],"properties":{"市区町村名":"上川郡上川町","大字名":"字中越","丁目名":null,"小字名":null,"地番":"248-2","精度区分":null,"座標系":"任意座標系"}},{"type":"Polygon","arcs":[[40,41,42]],"properties":{"市区町村名":"上川郡上川町","大字名":"字中越","丁目名":null,"小字名":null,"地番":"249","精度区分":null,"座標系":"任意座標系"}},{"type":"Polygon","arcs":[[43,-41]],"properties":{"市区町村名":"上川郡上川町","大字名":"字中越","丁目名":null,"小字名":null,"地番":"250","精度区分":null,"座標系":"任意座標系"}},{"type":"Polygon","arcs":[[44,45,46]],"properties":{"市区町村名":"上川郡上川町","大字名":"字中越","丁目名":null,"小字名":null,"地番":"251-1","精度区分":null,"座標系":"任意座標系"}},{"type":"Polygon","arcs":[[-46,47]],"properties":{"市区町村名":"上川郡上川町","大字名":"字中越","丁目名":null,"小字名":null,"地番":"251-2","精度区分":null,"座標系":"任意座標系"}},{"type":"Polygon","arcs":[[48,49]],"properties":{"市区町村名":"上川郡上川町","大字名":"字中越","丁目名":null,"小字名":null,"地番":"252","精度区分":null,"座標系":"任意座標系"}},{"type":"Polygon","arcs":[[50,51,52,53,54]],"properties":{"市区町村名":"上川郡上川町","大字名":"字中越","丁目名":null,"小字名":null,"地番":"254-1","精度区分":null,"座標系":"任意座標系"}},{"type":"Polygon","arcs":[[55,56,-51]],"properties":{"市区町村名":"上川郡上川町","大字名":"字中越","丁目名":null,"小字名":null,"地番":"254-2","精度区分":null,"座標系":"任意座標系"}},{"type":"Polygon","arcs":[[57,58]],"properties":{"市区町村名":"上川郡上川町","大字名":"字中越","丁目名":null,"小字名":null,"地番":"255","精度区分":null,"座標系":"任意座標系"}},{"type":"Polygon","arcs":[[59,60]],"properties":{"市区町村名":"上川郡上川町","大字名":"字中越","丁目名":null,"小字名":null,"地番":"256","精度区分":null,"座標系":"任意座標系"}},{"type":"Polygon","arcs":[[61,62,63]],"properties":{"市区町村名":"上川郡上川町","大字名":"字中越","丁目名":null,"小字名":null,"地番":"257-1","精度区分":null,"座標系":"任意座標系"}},{"type":"Polygon","arcs":[[64,65,-53,66]],"properties":{"市区町村名":"上川郡上川町","大字名":"字中越","丁目名":null,"小字名":null,"地番":"257-2","精度区分":null,"座標系":"任意座標系"}},{"type":"Polygon","arcs":[[-63,67,-65,68]],"properties":{"市区町村名":"上川郡上川町","大字名":"字中越","丁目名":null,"小字名":null,"地番":"257-3","精度区分":null,"座標系":"任意座標系"}},{"type":"Polygon","arcs":[[69,70]],"properties":{"市区町村名":"上川郡上川町","大字名":"字中越","丁目名":null,"小字名":null,"地番":"258","精度区分":null,"座標系":"任意座標系"}},{"type":"Polygon","arcs":[[71,72,-60]],"properties":{"市区町村名":"上川郡上川町","大字名":"字中越","丁目名":null,"小字名":null,"地番":"259","精度区分":null,"座標系":"任意座標系"}},{"type":"Polygon","arcs":[[73,74]],"properties":{"市区町村名":"上川郡上川町","大字名":"字中越","丁目名":null,"小字名":null,"地番":"261","精度区分":null,"座標系":"任意座標系"}},{"type":"Polygon","arcs":[[75,-32,76,77,78,-28]],"properties":{"市区町村名":"上川郡上川町","大字名":"字中越","丁目名":null,"小字名":null,"地番":"337","精度区分":null,"座標系":"任意座標系"}},{"type":"Polygon","arcs":[[79,-33,-76,-27]],"properties":{"市区町村名":"上川郡上川町","大字名":"字中越","丁目名":null,"小字名":null,"地番":"無地番-10","精度区分":null,"座標系":"任意座標系"}},{"type":"Polygon","arcs":[[-37,-40,80,-59,81,-61,-73,82,-75,83,-71,84,-64,-69,-67,-52,85,-47,-48,-45,-86,-57,86,-49,87,-42,-44,-43,88,-35,89,-22,-25,90]],"properties":{"市区町村名":"上川郡上川町","大字名":"字中越","丁目名":null,"小字名":null,"地番":"無地番-11","精度区分":null,"座標系":"任意座標系"}},{"type":"Polygon","arcs":[[91,92]],"properties":{"市区町村名":"上川郡上川町","大字名":"字中越","丁目名":null,"小字名":null,"地番":"無地番-15","精度区分":null,"座標系":"任意座標系"}},{"type":"Polygon","arcs":[[-2,93,-9,-13,94,-18,95,-14,-11,-15,-96,-17,96,-20,97,98,99,-6,100,-4,101]],"properties":{"市区町村名":"上川郡上川町","大字名":"字中越","丁目名":null,"小字名":null,"地番":"無地番-16","精度区分":null,"座標系":"任意座標系"}},{"type":"Polygon","arcs":[[102]],"properties":{"市区町村名":"上川郡上川町","大字名":"字中越","丁目名":null,"小字名":null,"地番":"無地番-18","精度区分":null,"座標系":"任意座標系"}},{"type":"Polygon","arcs":[[-23,-90,-34,-89,-88,-50,-87,-56,-55,103,-93,104,105,106,107,108,-30,-80,-29,-79,109]],"properties":{"市区町村名":"上川郡上川町","大字名":"字中越","丁目名":null,"小字名":null,"地番":"水-3","精度区分":null,"座標系":"任意座標系"}},{"type":"Polygon","arcs":[[110,-99]],"properties":{"市区町村名":"上川郡上川町","大字名":"字中越","丁目名":null,"小字名":null,"地番":"水-4","精度区分":null,"座標系":"任意座標系"}},{"type":"Polygon","arcs":[[-108,111,112,-77,113]],"properties":{"市区町村名":"上川郡上川町","大字名":"字中越","丁目名":null,"小字名":null,"地番":"77-1","精度区分":null,"座標系":"任意座標系"}},{"type":"Polygon","arcs":[[-31,-109,-114]],"properties":{"市区町村名":"上川郡上川町","大字名":"字中越","丁目名":null,"小字名":null,"地番":"253","精度区分":null,"座標系":"任意座標系"}},{"type":"Polygon","arcs":[[114,-112,-107,115,-105]],"properties":{"市区町村名":"上川郡上川町","大字名":"字中越","丁目名":null,"小字名":null,"地番":"338","精度区分":null,"座標系":"任意座標系"}},{"type":"Polygon","arcs":[[-116,-106]],"properties":{"市区町村名":"上川郡上川町","大字名":"字中越","丁目名":null,"小字名":null,"地番":"無地番-13","精度区分":null,"座標系":"任意座標系"}}]}},"arcs":[[[387152,996757],[45366,-20637],[16923,-4742]],[[449441,971378],[-15236,-38311],[-33876,4068],[-31452,8135],[-31441,17793],[49716,33694]],[[415539,886302],[-97127,38442],[-14865,15285]],[[303547,940029],[17386,11750],[17776,-4362],[14462,-7267],[9494,-4967],[15315,-5220],[50603,-9279],[-13044,-34382]],[[672654,862224],[-98856,-8567],[-71381,23392],[-51137,-11057],[-29391,18320]],[[421889,884312],[15470,38173],[98072,-24897],[137223,-35364]],[[456229,969901],[101351,-26109],[5717,-1254],[8173,-1408]],[[571470,941130],[-9321,-24974]],[[562149,916156],[-120875,15577],[14955,38168]],[[559375,909791],[-4269,-11379]],[[555106,898412],[-100551,25612],[104820,-14233]],[[571470,941130],[32309,-5258],[25398,-9640],[39805,-3479],[4863,-379],[95061,-31528]],[[768906,890846],[-4158,-11651],[-21847,12084],[-180752,24877]],[[559375,909791],[92,-13],[157382,-21798],[-1669,-1945],[47418,-11953]],[[762598,874082],[-4857,-13382],[-56389,14838],[-14640,-11006],[-131606,33880]],[[775807,888946],[5404,14143],[53251,-13973],[105647,-24650],[22823,-6652],[-51785,-32795],[-12755,-2289],[-190,-32]],[[898202,822698],[-17270,7676],[-1140,-1156],[-108572,47780]],[[771220,876998],[4587,11948]],[[882848,820074],[-17573,-3003]],[[865275,817071],[-106330,27907],[10171,26963],[107377,-47283],[-1062,-1338],[7417,-3246]],[[54919,903590],[25397,-15841],[6141,649]],[[86457,888398],[53861,-52099],[-26786,-17841]],[[113532,818458],[-13645,29222],[-55072,36354]],[[44815,884034],[10104,19556]],[[60194,913801],[26263,-25403]],[[54919,903590],[5275,10211]],[[90453,802589],[-43629,-29534]],[[46824,773055],[-8321,13974],[-9477,35540],[-8053,48137]],[[20973,870706],[57106,-36991],[12374,-31126]],[[95802,799251],[102266,-52072],[22187,-37824],[-166,-576]],[[220089,708779],[-88042,-59886]],[[132047,648893],[-2385,2081],[-13952,11843],[-3859,4758],[-20292,30872],[-2501,4567],[-17662,31104],[-21385,34358]],[[50011,768476],[45791,30775]],[[179555,798412],[-63379,14737]],[[116176,813149],[28591,18952],[34788,-33689]],[[276007,747158],[-3828,5579],[-15181,19764],[-15177,17376],[-12553,14677],[-17100,19488],[-9268,24134],[-8450,17986]],[[194450,866162],[14241,9839]],[[208691,876001],[87004,-115529],[-19688,-13314]],[[276007,747158],[-10076,-6814]],[[265931,740344],[-11838,19510],[-73457,96764],[13814,9544]],[[261659,737249],[-5176,-3774]],[[256483,733475],[-3002,3260],[-5510,5085],[-12374,29716]],[[235597,771536],[-60080,40415],[-24742,24463],[24661,16754],[79528,-103817],[6695,-12102]],[[261659,737249],[9404,-16998],[-13480,12030],[-1100,1194]],[[362394,630500],[-18455,18531]],[[343939,649031],[-5121,7845]],[[338818,656876],[8554,-2886],[10570,-8380],[9841,-11071],[-5389,-4039]],[[343939,649031],[-9175,9213],[4054,-1368]],[[251463,728743],[105071,-101799],[-69114,-46796]],[[287420,580148],[2189,30748],[-43370,43134],[5224,74713]],[[345843,548511],[-13032,9953],[28159,64399]],[[360970,622863],[105553,-102671]],[[466523,520192],[-55885,-38253]],[[410638,481939],[-3129,14019],[-52630,52978]],[[354879,548936],[-9036,-425]],[[345843,548511],[-66020,-3107],[3966,25279]],[[283789,570683],[77181,52180]],[[659487,468287],[20128,-19586],[24889,17566],[17411,-19540],[22949,-32242],[1955,-4429],[25282,-39962],[-58085,-41040]],[[714016,329054],[-4459,3803],[-49133,9706],[-76335,73605],[75398,52119]],[[708481,325229],[-17629,-12182]],[[690852,313047],[-23230,22478],[37456,-6892],[3403,-3404]],[[507632,372035],[-32742,69239],[-40758,1760]],[[434132,443034],[55599,40533],[9425,4884]],[[499156,488451],[74502,-72468],[-66026,-43948]],[[492176,495240],[-7000,-7663],[-45186,-33822],[-20815,-10075]],[[419175,443680],[-8537,38259]],[[466523,520192],[25653,-24952]],[[434132,443034],[-14957,646]],[[492176,495240],[6980,-6789]],[[768485,191730],[-94235,74074],[894,19230],[-16433,5643],[-6212,34480],[-103358,30197],[-24148,21009]],[[524993,376363],[449,427],[52625,35285],[93854,-90874],[58764,-56698],[33198,-34026],[25259,-24437],[-20657,-14310]],[[708481,325229],[36892,-36891],[17646,-19027],[48797,-47657]],[[811816,221654],[-16728,-11706],[-44463,44024],[-3900,4509],[-55873,54566]],[[993656,8704],[-13714,-8704],[-81577,30847],[-25611,41938],[-65157,26671],[-26274,44803],[-9338,43307]],[[771985,187566],[21207,14826],[200464,-193688]],[[46824,773055],[3187,-4579]],[[132047,648893],[1777,-1549],[16346,-13013],[4076,-3184]],[[154246,631147],[-15315,11217],[-14396,8351],[-20609,7960],[953,13475],[-13611,20244],[-19185,24742],[-8898,15832],[-19392,26413],[-18523,42062],[-6670,23245],[-13612,10011],[-4988,17149],[18866,27157]],[[18866,879005],[2107,-8299]],[[90453,802589],[5349,-3338]],[[265931,740344],[4676,-7163],[8443,-14776],[47402,-52085],[23274,-7893],[11916,-7796],[11332,-12527],[40879,27359],[5796,-2052],[700,-743],[-53159,-35398],[105583,-102427],[107454,-104242],[99236,68237],[4528,-3613],[-24504,-16938]],[[714016,329054],[-5535,-3825]],[[811816,221654],[56021,39200],[4709,-3858],[141,-116],[-73569,-50554],[39639,-38207],[161242,-155414],[-5977,-3546],[-366,-455]],[[771985,187566],[-3500,4164]],[[524993,376363],[-1367,-1304],[-8334,-5755],[-7660,2731]],[[360970,622863],[1424,7637]],[[283789,570683],[-13100,-8857],[2465,8940],[14266,9382]],[[251463,728743],[-13115,12707],[-2751,30086]],[[235597,771536],[-46452,17705],[-9590,9171]],[[116176,813149],[-2644,5309]],[[60194,913801],[8818,83],[76094,-73919],[85258,57926],[49639,33588],[-97556,61958],[2737,2917],[98308,-62311],[7294,4768],[2731,-5410],[-6189,-4422],[-78637,-52978]],[[322535,520927],[-46877,-41548],[-7997,30822]],[[267661,510201],[54874,10726]],[[449441,971378],[6788,-1477]],[[768906,890846],[6901,-1900]],[[771220,876998],[-8622,-2916]],[[898202,822698],[-15354,-2624]],[[865275,817071],[4620,-289],[10264,-2609],[-9597,-3065],[-109465,28060]],[[761097,839168],[-9776,7216],[3396,9476],[-51079,13534],[-8724,-7417],[7740,-2246],[-14009,-1871]],[[688645,857860],[-15991,4364]],[[421889,884312],[-6350,1990]],[[303547,940029],[-6886,3193],[7940,5396],[18233,12367],[8887,6029],[48629,32985],[6802,-3242]],[[899540,809232],[24186,-6223],[-1819,-5078],[-31441,8372],[9074,2929]],[[354879,548936],[-32344,-28009]],[[267661,510201],[-2771,10681],[-16702,25090],[-112,154]],[[248076,546126],[9517,6646],[6579,11754],[-19506,-13715]],[[244666,550811],[-1334,1834],[-1716,1480]],[[241616,554125],[14738,24346],[-56174,61483]],[[200180,639954],[19909,68825]],[[18866,879005],[-3655,14400],[29604,-9371]],[[761097,839168],[-72452,18692]],[[241616,554125],[-2056,1774],[-14686,16048],[-2862,3184],[-21725,20491],[-3513,2799],[-11803,9083]],[[184971,607504],[-30725,23643]],[[132047,648893],[68133,-8939]],[[267661,510201],[-3879,6114],[-12067,13033],[-9348,17840],[-17160,20475],[-34482,18397],[-3228,8126],[-2526,13318]],[[244666,550811],[3410,-4685]]],"bbox":[438.109,-2432.523,2070.973,-380.874],"transform":{"scale":[0.001632865632865633,0.002051651051651052],"translate":[438.109,-2432.523]}}