{"type":"Topology","objects":{"01457-4500-2.featurecollection":{"type":"GeometryCollection","geometries":[{"type":"Polygon","arcs":[[0,1,2,3]],"properties":{"市区町村名":"上川郡上川町","大字名":"字菊水","丁目名":null,"小字名":null,"地番":"750","精度区分":null,"座標系":"任意座標系"}},{"type":"Polygon","arcs":[[4,5,6,7]],"properties":{"市区町村名":"上川郡上川町","大字名":"字菊水","丁目名":null,"小字名":null,"地番":"764-1","精度区分":null,"座標系":"任意座標系"}},{"type":"Polygon","arcs":[[8,9,-7]],"properties":{"市区町村名":"上川郡上川町","大字名":"字菊水","丁目名":null,"小字名":null,"地番":"764-2","精度区分":null,"座標系":"任意座標系"}},{"type":"Polygon","arcs":[[10,11,12,13]],"properties":{"市区町村名":"上川郡上川町","大字名":"字菊水","丁目名":null,"小字名":null,"地番":"969-1","精度区分":null,"座標系":"任意座標系"}},{"type":"Polygon","arcs":[[-13,14,15,16,17]],"properties":{"市区町村名":"上川郡上川町","大字名":"字菊水","丁目名":null,"小字名":null,"地番":"969-3","精度区分":null,"座標系":"任意座標系"}},{"type":"Polygon","arcs":[[18,-3,19,20,21]],"properties":{"市区町村名":"上川郡上川町","大字名":"字菊水","丁目名":null,"小字名":null,"地番":"970-1","精度区分":null,"座標系":"任意座標系"}},{"type":"Polygon","arcs":[[22,-21,23]],"properties":{"市区町村名":"上川郡上川町","大字名":"字菊水","丁目名":null,"小字名":null,"地番":"970-2","精度区分":null,"座標系":"任意座標系"}},{"type":"Polygon","arcs":[[-22,-23,24]],"properties":{"市区町村名":"上川郡上川町","大字名":"字菊水","丁目名":null,"小字名":null,"地番":"970-3","精度区分":null,"座標系":"任意座標系"}},{"type":"Polygon","arcs":[[25,26,-12,27,28]],"properties":{"市区町村名":"上川郡上川町","大字名":"字菊水","丁目名":null,"小字名":null,"地番":"971-1","精度区分":null,"座標系":"任意座標系"}},{"type":"Polygon","arcs":[[29,-26,30]],"properties":{"市区町村名":"上川郡上川町","大字名":"字菊水","丁目名":null,"小字名":null,"地番":"971-3","精度区分":null,"座標系":"任意座標系"}},{"type":"Polygon","arcs":[[-29,31]],"properties":{"市区町村名":"上川郡上川町","大字名":"字菊水","丁目名":null,"小字名":null,"地番":"971-4","精度区分":null,"座標系":"任意座標系"}},{"type":"Polygon","arcs":[[32,33,34]],"properties":{"市区町村名":"上川郡上川町","大字名":"字菊水","丁目名":null,"小字名":null,"地番":"972","精度区分":null,"座標系":"任意座標系"}},{"type":"Polygon","arcs":[[35,36,37,-33,38]],"properties":{"市区町村名":"上川郡上川町","大字名":"字菊水","丁目名":null,"小字名":null,"地番":"973-1","精度区分":null,"座標系":"任意座標系"}},{"type":"Polygon","arcs":[[39,-36]],"properties":{"市区町村名":"上川郡上川町","大字名":"字菊水","丁目名":null,"小字名":null,"地番":"973-2","精度区分":null,"座標系":"任意座標系"}},{"type":"Polygon","arcs":[[40,41,42]],"properties":{"市区町村名":"上川郡上川町","大字名":"字菊水","丁目名":null,"小字名":null,"地番":"974","精度区分":null,"座標系":"任意座標系"}},{"type":"Polygon","arcs":[[43,44,45,46,47,-41]],"properties":{"市区町村名":"上川郡上川町","大字名":"字菊水","丁目名":null,"小字名":null,"地番":"975","精度区分":null,"座標系":"任意座標系"}},{"type":"Polygon","arcs":[[48,49,50]],"properties":{"市区町村名":"上川郡上川町","大字名":"字菊水","丁目名":null,"小字名":null,"地番":"976","精度区分":null,"座標系":"任意座標系"}},{"type":"Polygon","arcs":[[51,52]],"properties":{"市区町村名":"上川郡上川町","大字名":"字菊水","丁目名":null,"小字名":null,"地番":"977","精度区分":null,"座標系":"任意座標系"}},{"type":"Polygon","arcs":[[-42,53,-5,54]],"properties":{"市区町村名":"上川郡上川町","大字名":"字菊水","丁目名":null,"小字名":null,"地番":"978","精度区分":null,"座標系":"任意座標系"}},{"type":"Polygon","arcs":[[55,56,57,58,59,60,61,62]],"properties":{"市区町村名":"上川郡上川町","大字名":"字菊水","丁目名":null,"小字名":null,"地番":"979-1","精度区分":null,"座標系":"任意座標系"}},{"type":"Polygon","arcs":[[63,64,-60,65]],"properties":{"市区町村名":"上川郡上川町","大字名":"字菊水","丁目名":null,"小字名":null,"地番":"979-3","精度区分":null,"座標系":"任意座標系"}},{"type":"Polygon","arcs":[[66,67,-62]],"properties":{"市区町村名":"上川郡上川町","大字名":"字菊水","丁目名":null,"小字名":null,"地番":"979-5","精度区分":null,"座標系":"任意座標系"}},{"type":"Polygon","arcs":[[68,-56]],"properties":{"市区町村名":"上川郡上川町","大字名":"字菊水","丁目名":null,"小字名":null,"地番":"979-6","精度区分":null,"座標系":"任意座標系"}},{"type":"Polygon","arcs":[[69,70,-59,71,72,73]],"properties":{"市区町村名":"上川郡上川町","大字名":"字菊水","丁目名":null,"小字名":null,"地番":"981-1","精度区分":null,"座標系":"任意座標系"}},{"type":"Polygon","arcs":[[74,75,76,-74]],"properties":{"市区町村名":"上川郡上川町","大字名":"字菊水","丁目名":null,"小字名":null,"地番":"981-4","精度区分":null,"座標系":"任意座標系"}},{"type":"Polygon","arcs":[[77,78,79,-54,-48]],"properties":{"市区町村名":"上川郡上川町","大字名":"字菊水","丁目名":null,"小字名":null,"地番":"983-1","精度区分":null,"座標系":"任意座標系"}},{"type":"Polygon","arcs":[[-78,-47,80,81]],"properties":{"市区町村名":"上川郡上川町","大字名":"字菊水","丁目名":null,"小字名":null,"地番":"983-2","精度区分":null,"座標系":"任意座標系"}},{"type":"Polygon","arcs":[[-81,-46,82,83]],"properties":{"市区町村名":"上川郡上川町","大字名":"字菊水","丁目名":null,"小字名":null,"地番":"983-3","精度区分":null,"座標系":"任意座標系"}},{"type":"Polygon","arcs":[[84,-79,-82,-84,85]],"properties":{"市区町村名":"上川郡上川町","大字名":"字菊水","丁目名":null,"小字名":null,"地番":"983-4","精度区分":null,"座標系":"任意座標系"}},{"type":"Polygon","arcs":[[86,87,88,-6,-80,-85,89]],"properties":{"市区町村名":"上川郡上川町","大字名":"字菊水","丁目名":null,"小字名":null,"地番":"984-1","精度区分":null,"座標系":"任意座標系"}},{"type":"Polygon","arcs":[[-89,90,-9]],"properties":{"市区町村名":"上川郡上川町","大字名":"字菊水","丁目名":null,"小字名":null,"地番":"984-2","精度区分":null,"座標系":"任意座標系"}},{"type":"Polygon","arcs":[[-88,91,92]],"properties":{"市区町村名":"上川郡上川町","大字名":"字菊水","丁目名":null,"小字名":null,"地番":"984-3","精度区分":null,"座標系":"任意座標系"}},{"type":"Polygon","arcs":[[-92,-87,93]],"properties":{"市区町村名":"上川郡上川町","大字名":"字菊水","丁目名":null,"小字名":null,"地番":"984-4","精度区分":null,"座標系":"任意座標系"}},{"type":"Polygon","arcs":[[-50,94,95,96,97]],"properties":{"市区町村名":"上川郡上川町","大字名":"字菊水","丁目名":null,"小字名":null,"地番":"985-1","精度区分":null,"座標系":"任意座標系"}},{"type":"Polygon","arcs":[[-97,98]],"properties":{"市区町村名":"上川郡上川町","大字名":"字菊水","丁目名":null,"小字名":null,"地番":"985-2","精度区分":null,"座標系":"任意座標系"}},{"type":"Polygon","arcs":[[99,100,101,102,103,104,105]],"properties":{"市区町村名":"上川郡上川町","大字名":"字菊水","丁目名":null,"小字名":null,"地番":"987-1","精度区分":null,"座標系":"任意座標系"}},{"type":"Polygon","arcs":[[106,-104]],"properties":{"市区町村名":"上川郡上川町","大字名":"字菊水","丁目名":null,"小字名":null,"地番":"987-2","精度区分":null,"座標系":"任意座標系"}},{"type":"Polygon","arcs":[[107,108,-106]],"properties":{"市区町村名":"上川郡上川町","大字名":"字菊水","丁目名":null,"小字名":null,"地番":"987-3","精度区分":null,"座標系":"任意座標系"}},{"type":"Polygon","arcs":[[109,110,-100,-109,111]],"properties":{"市区町村名":"上川郡上川町","大字名":"字菊水","丁目名":null,"小字名":null,"地番":"987-4","精度区分":null,"座標系":"任意座標系"}},{"type":"Polygon","arcs":[[112,113,114,115,116]],"properties":{"市区町村名":"上川郡上川町","大字名":"字菊水","丁目名":null,"小字名":null,"地番":"988-1","精度区分":null,"座標系":"任意座標系"}},{"type":"Polygon","arcs":[[-102,117,118,119]],"properties":{"市区町村名":"上川郡上川町","大字名":"字菊水","丁目名":null,"小字名":null,"地番":"989","精度区分":null,"座標系":"任意座標系"}},{"type":"Polygon","arcs":[[-119,120,121]],"properties":{"市区町村名":"上川郡上川町","大字名":"字菊水","丁目名":null,"小字名":null,"地番":"990","精度区分":null,"座標系":"任意座標系"}},{"type":"Polygon","arcs":[[122,123,-95]],"properties":{"市区町村名":"上川郡上川町","大字名":"字菊水","丁目名":null,"小字名":null,"地番":"991","精度区分":null,"座標系":"任意座標系"}},{"type":"Polygon","arcs":[[124,125,126,127,128]],"properties":{"市区町村名":"上川郡上川町","大字名":"字菊水","丁目名":null,"小字名":null,"地番":"992","精度区分":null,"座標系":"任意座標系"}},{"type":"Polygon","arcs":[[129,130]],"properties":{"市区町村名":"上川郡上川町","大字名":"字菊水","丁目名":null,"小字名":null,"地番":"993","精度区分":null,"座標系":"任意座標系"}},{"type":"Polygon","arcs":[[131,-125,132]],"properties":{"市区町村名":"上川郡上川町","大字名":"字菊水","丁目名":null,"小字名":null,"地番":"994","精度区分":null,"座標系":"任意座標系"}},{"type":"Polygon","arcs":[[133,134,135,-117]],"properties":{"市区町村名":"上川郡上川町","大字名":"字菊水","丁目名":null,"小字名":null,"地番":"995","精度区分":null,"座標系":"任意座標系"}},{"type":"Polygon","arcs":[[136,137,-111,138,139]],"properties":{"市区町村名":"上川郡上川町","大字名":"字菊水","丁目名":null,"小字名":null,"地番":"996-2","精度区分":null,"座標系":"任意座標系"}},{"type":"Polygon","arcs":[[-138,140,-101]],"properties":{"市区町村名":"上川郡上川町","大字名":"字菊水","丁目名":null,"小字名":null,"地番":"996-3","精度区分":null,"座標系":"任意座標系"}},{"type":"Polygon","arcs":[[141,-118,-141,142,143,144]],"properties":{"市区町村名":"上川郡上川町","大字名":"字菊水","丁目名":null,"小字名":null,"地番":"998-1","精度区分":null,"座標系":"任意座標系"}},{"type":"Polygon","arcs":[[-137,145,-143]],"properties":{"市区町村名":"上川郡上川町","大字名":"字菊水","丁目名":null,"小字名":null,"地番":"998-2","精度区分":null,"座標系":"任意座標系"}},{"type":"Polygon","arcs":[[146,-145,147]],"properties":{"市区町村名":"上川郡上川町","大字名":"字菊水","丁目名":null,"小字名":null,"地番":"998-3","精度区分":null,"座標系":"任意座標系"}},{"type":"Polygon","arcs":[[-135,148]],"properties":{"市区町村名":"上川郡上川町","大字名":"字菊水","丁目名":null,"小字名":null,"地番":"999","精度区分":null,"座標系":"任意座標系"}},{"type":"Polygon","arcs":[[149,150]],"properties":{"市区町村名":"上川郡上川町","大字名":"字菊水","丁目名":null,"小字名":null,"地番":"1000-1","精度区分":null,"座標系":"任意座標系"}},{"type":"Polygon","arcs":[[151,-150,152,153]],"properties":{"市区町村名":"上川郡上川町","大字名":"字菊水","丁目名":null,"小字名":null,"地番":"1000-2","精度区分":null,"座標系":"任意座標系"}},{"type":"Polygon","arcs":[[154,155,-121,-142]],"properties":{"市区町村名":"上川郡上川町","大字名":"字菊水","丁目名":null,"小字名":null,"地番":"1001-1","精度区分":null,"座標系":"任意座標系"}},{"type":"Polygon","arcs":[[-147,156,-155]],"properties":{"市区町村名":"上川郡上川町","大字名":"字菊水","丁目名":null,"小字名":null,"地番":"1001-2","精度区分":null,"座標系":"任意座標系"}},{"type":"Polygon","arcs":[[-128,157,158,159,160]],"properties":{"市区町村名":"上川郡上川町","大字名":"字菊水","丁目名":null,"小字名":null,"地番":"1002-1","精度区分":null,"座標系":"任意座標系"}},{"type":"Polygon","arcs":[[-160,161]],"properties":{"市区町村名":"上川郡上川町","大字名":"字菊水","丁目名":null,"小字名":null,"地番":"1002-2","精度区分":null,"座標系":"任意座標系"}},{"type":"Polygon","arcs":[[162,163]],"properties":{"市区町村名":"上川郡上川町","大字名":"字菊水","丁目名":null,"小字名":null,"地番":"1004-2","精度区分":null,"座標系":"任意座標系"}},{"type":"Polygon","arcs":[[-127,164,165,-158]],"properties":{"市区町村名":"上川郡上川町","大字名":"字菊水","丁目名":null,"小字名":null,"地番":"1006","精度区分":null,"座標系":"任意座標系"}},{"type":"Polygon","arcs":[[166,167,168]],"properties":{"市区町村名":"上川郡上川町","大字名":"字菊水","丁目名":null,"小字名":null,"地番":"1007","精度区分":null,"座標系":"任意座標系"}},{"type":"Polygon","arcs":[[169,170,171,172,173]],"properties":{"市区町村名":"上川郡上川町","大字名":"字菊水","丁目名":null,"小字名":null,"地番":"1008","精度区分":null,"座標系":"任意座標系"}},{"type":"Polygon","arcs":[[174,175,176,177,178,179,180,181]],"properties":{"市区町村名":"上川郡上川町","大字名":"字菊水","丁目名":null,"小字名":null,"地番":"1009-1","精度区分":null,"座標系":"任意座標系"}},{"type":"Polygon","arcs":[[182,183]],"properties":{"市区町村名":"上川郡上川町","大字名":"字菊水","丁目名":null,"小字名":null,"地番":"1009-2","精度区分":null,"座標系":"任意座標系"}},{"type":"Polygon","arcs":[[-175,184]],"properties":{"市区町村名":"上川郡上川町","大字名":"字菊水","丁目名":null,"小字名":null,"地番":"1009-3","精度区分":null,"座標系":"任意座標系"}},{"type":"Polygon","arcs":[[185,186,-181,187]],"properties":{"市区町村名":"上川郡上川町","大字名":"字菊水","丁目名":null,"小字名":null,"地番":"1009-4","精度区分":null,"座標系":"任意座標系"}},{"type":"Polygon","arcs":[[-179,188]],"properties":{"市区町村名":"上川郡上川町","大字名":"字菊水","丁目名":null,"小字名":null,"地番":"1009-5","精度区分":null,"座標系":"任意座標系"}},{"type":"Polygon","arcs":[[189,-184,190,-186,191]],"properties":{"市区町村名":"上川郡上川町","大字名":"字菊水","丁目名":null,"小字名":null,"地番":"1009-6","精度区分":null,"座標系":"任意座標系"}},{"type":"Polygon","arcs":[[192,193,194,195,196,197,198]],"properties":{"市区町村名":"上川郡上川町","大字名":"字菊水","丁目名":null,"小字名":null,"地番":"1010-1","精度区分":null,"座標系":"任意座標系"}},{"type":"Polygon","arcs":[[-198,199]],"properties":{"市区町村名":"上川郡上川町","大字名":"字菊水","丁目名":null,"小字名":null,"地番":"1010-2","精度区分":null,"座標系":"任意座標系"}},{"type":"Polygon","arcs":[[-196,200]],"properties":{"市区町村名":"上川郡上川町","大字名":"字菊水","丁目名":null,"小字名":null,"地番":"1010-3","精度区分":null,"座標系":"任意座標系"}},{"type":"Polygon","arcs":[[201,202,203,204]],"properties":{"市区町村名":"上川郡上川町","大字名":"字菊水","丁目名":null,"小字名":null,"地番":"1012","精度区分":null,"座標系":"任意座標系"}},{"type":"Polygon","arcs":[[205,206,207,208,209,210,211]],"properties":{"市区町村名":"上川郡上川町","大字名":"字菊水","丁目名":null,"小字名":null,"地番":"1013","精度区分":null,"座標系":"任意座標系"}},{"type":"Polygon","arcs":[[212,213,214,215]],"properties":{"市区町村名":"上川郡上川町","大字名":"字菊水","丁目名":null,"小字名":null,"地番":"1014","精度区分":null,"座標系":"任意座標系"}},{"type":"Polygon","arcs":[[216,217]],"properties":{"市区町村名":"上川郡上川町","大字名":"字菊水","丁目名":null,"小字名":null,"地番":"1015","精度区分":null,"座標系":"任意座標系"}},{"type":"Polygon","arcs":[[-168,218,-170,219]],"properties":{"市区町村名":"上川郡上川町","大字名":"字菊水","丁目名":null,"小字名":null,"地番":"2108","精度区分":null,"座標系":"任意座標系"}},{"type":"Polygon","arcs":[[220,-172,221,-192,222]],"properties":{"市区町村名":"上川郡上川町","大字名":"字菊水","丁目名":null,"小字名":null,"地番":"2109-1","精度区分":null,"座標系":"任意座標系"}},{"type":"Polygon","arcs":[[-188,223,-189,224,225,-223]],"properties":{"市区町村名":"上川郡上川町","大字名":"字菊水","丁目名":null,"小字名":null,"地番":"2109-2","精度区分":null,"座標系":"任意座標系"}},{"type":"Polygon","arcs":[[-180,-224]],"properties":{"市区町村名":"上川郡上川町","大字名":"字菊水","丁目名":null,"小字名":null,"地番":"2109-3","精度区分":null,"座標系":"任意座標系"}},{"type":"Polygon","arcs":[[-225,-178,226]],"properties":{"市区町村名":"上川郡上川町","大字名":"字菊水","丁目名":null,"小字名":null,"地番":"2109-4","精度区分":null,"座標系":"任意座標系"}},{"type":"Polygon","arcs":[[227,-205,228,-193]],"properties":{"市区町村名":"上川郡上川町","大字名":"字菊水","丁目名":null,"小字名":null,"地番":"2110","精度区分":null,"座標系":"任意座標系"}},{"type":"Polygon","arcs":[[229,-209]],"properties":{"市区町村名":"上川郡上川町","大字名":"字菊水","丁目名":null,"小字名":null,"地番":"2112","精度区分":null,"座標系":"任意座標系"}},{"type":"Polygon","arcs":[[-211,230,231,232]],"properties":{"市区町村名":"上川郡上川町","大字名":"字菊水","丁目名":null,"小字名":null,"地番":"2113","精度区分":null,"座標系":"任意座標系"}},{"type":"Polygon","arcs":[[233,234,-44,235]],"properties":{"市区町村名":"上川郡上川町","大字名":"字菊水","丁目名":null,"小字名":null,"地番":"無地番-6","精度区分":null,"座標系":"任意座標系"}},{"type":"Polygon","arcs":[[236,-169,-220,-174,237,238]],"properties":{"市区町村名":"上川郡上川町","大字名":"字菊水","丁目名":null,"小字名":null,"地番":"2283","精度区分":null,"座標系":"任意座標系"}},{"type":"Polygon","arcs":[[-221,239,240,241,-238,-173]],"properties":{"市区町村名":"上川郡上川町","大字名":"字菊水","丁目名":null,"小字名":null,"地番":"2284","精度区分":null,"座標系":"任意座標系"}},{"type":"Polygon","arcs":[[242,243,-241,244]],"properties":{"市区町村名":"上川郡上川町","大字名":"字菊水","丁目名":null,"小字名":null,"地番":"2111-2","精度区分":null,"座標系":"任意座標系"}},{"type":"Polygon","arcs":[[245,-139,246]],"properties":{"市区町村名":"上川郡上川町","大字名":"字菊水","丁目名":null,"小字名":null,"地番":"996-1","精度区分":null,"座標系":"任意座標系"}},{"type":"Polygon","arcs":[[-247,-110,247]],"properties":{"市区町村名":"上川郡上川町","大字名":"字菊水","丁目名":null,"小字名":null,"地番":"987-5","精度区分":null,"座標系":"任意座標系"}},{"type":"Polygon","arcs":[[-204,248,-213,249,-194,-229]],"properties":{"市区町村名":"上川郡上川町","大字名":"字菊水","丁目名":null,"小字名":null,"地番":"2288","精度区分":null,"座標系":"任意座標系"}},{"type":"Polygon","arcs":[[250,251,-215]],"properties":{"市区町村名":"上川郡上川町","大字名":"字菊水","丁目名":null,"小字名":null,"地番":"2290","精度区分":null,"座標系":"任意座標系"}},{"type":"Polygon","arcs":[[-232,252,253]],"properties":{"市区町村名":"上川郡上川町","大字名":"字菊水","丁目名":null,"小字名":null,"地番":"2289","精度区分":null,"座標系":"任意座標系"}},{"type":"Polygon","arcs":[[254,-195,-250,-216,-252,255,-253,-231,-210,-230,-208,256,-176]],"properties":{"市区町村名":"上川郡上川町","大字名":"字菊水","丁目名":null,"小字名":null,"地番":"2286","精度区分":null,"座標系":"任意座標系"}},{"type":"Polygon","arcs":[[257,-182]],"properties":{"市区町村名":"上川郡上川町","大字名":"字菊水","丁目名":null,"小字名":null,"地番":"2291","精度区分":null,"座標系":"任意座標系"}},{"type":"Polygon","arcs":[[258,-202,-228,-199,-200,-197,-201,-255,-185,-258,-187,-191,-183,-190,-222,-171,-219,-167,-237,259,-57,-69,-63,-68,260,261,262,-70,263,264,-75,-73,265,-37,-40,-39,-35,266,-218,267,-4,-19,-25,-24,-20,-2,268,269,-16,270,-31,-32,-28,-11,271,-53,272,-236,-43,-55,-8,-10,-91,-93,-94,-90,-86,-83,-45,-235,273,-51,-98,-99,-96,-124,274,-133,-129,-161,-162,-159,-166],[275],[-134,-116,276,277,-113,-136,-149],[278,279,280],[-152,281,-153,-151],[-148,-144,-146,-140,-246,-248,-112,-108,-105,-107,-103,-120,-122,-156,-157],[282],[-131,283,284,285],[-164,286],[287],[288,289,290],[291,292]],"properties":{"市区町村名":"上川郡上川町","大字名":"字菊水","丁目名":null,"小字名":null,"地番":"無地番-4","精度区分":null,"座標系":"任意座標系"}},{"type":"Polygon","arcs":[[-177,-257,-207,293,294,-227]],"properties":{"市区町村名":"上川郡上川町","大字名":"字菊水","丁目名":null,"小字名":null,"地番":"2287","精度区分":null,"座標系":"任意座標系"}},{"type":"Polygon","arcs":[[-226,-295,295,-245,-240]],"properties":{"市区町村名":"上川郡上川町","大字名":"字菊水","丁目名":null,"小字名":null,"地番":"無地番-4-1","精度区分":null,"座標系":"任意座標系"}},{"type":"Polygon","arcs":[[-15,-27,-30,-271]],"properties":{"市区町村名":"上川郡上川町","大字名":"字菊水","丁目名":null,"小字名":null,"地番":"971-2","精度区分":null,"座標系":"任意座標系"}},{"type":"Polygon","arcs":[[-17,-270,296]],"properties":{"市区町村名":"上川郡上川町","大字名":"字菊水","丁目名":null,"小字名":null,"地番":"969-2","精度区分":null,"座標系":"任意座標系"}},{"type":"Polygon","arcs":[[-296,-294,-206,297,-243]],"properties":{"市区町村名":"上川郡上川町","大字名":"字菊水","丁目名":null,"小字名":null,"地番":"2111-1","精度区分":null,"座標系":"任意座標系"}},{"type":"Polygon","arcs":[[-76,-265]],"properties":{"市区町村名":"上川郡上川町","大字名":"字菊水","丁目名":null,"小字名":null,"地番":"981-2","精度区分":null,"座標系":"任意座標系"}},{"type":"Polygon","arcs":[[-77,-264]],"properties":{"市区町村名":"上川郡上川町","大字名":"字菊水","丁目名":null,"小字名":null,"地番":"981-3","精度区分":null,"座標系":"任意座標系"}},{"type":"Polygon","arcs":[[-71,-263,298,-66]],"properties":{"市区町村名":"上川郡上川町","大字名":"字菊水","丁目名":null,"小字名":null,"地番":"981-5","精度区分":null,"座標系":"任意座標系"}},{"type":"Polygon","arcs":[[-292,299]],"properties":{"市区町村名":"上川郡上川町","大字名":"字菊水","丁目名":null,"小字名":null,"地番":"982-2","精度区分":null,"座標系":"任意座標系"}},{"type":"Polygon","arcs":[[-300,-293]],"properties":{"市区町村名":"上川郡上川町","大字名":"字菊水","丁目名":null,"小字名":null,"地番":"982-1","精度区分":null,"座標系":"任意座標系"}},{"type":"Polygon","arcs":[[-65,-261,-67,-61]],"properties":{"市区町村名":"上川郡上川町","大字名":"字菊水","丁目名":null,"小字名":null,"地番":"979-4","精度区分":null,"座標系":"任意座標系"}},{"type":"Polygon","arcs":[[-262,-64,-299]],"properties":{"市区町村名":"上川郡上川町","大字名":"字菊水","丁目名":null,"小字名":null,"地番":"979-2","精度区分":null,"座標系":"任意座標系"}},{"type":"Polygon","arcs":[[300,-289,301]],"properties":{"市区町村名":"上川郡上川町","大字名":"字菊水","丁目名":null,"小字名":null,"地番":"980-3","精度区分":null,"座標系":"任意座標系"}},{"type":"Polygon","arcs":[[-290,-301,302]],"properties":{"市区町村名":"上川郡上川町","大字名":"字菊水","丁目名":null,"小字名":null,"地番":"980-2","精度区分":null,"座標系":"任意座標系"}},{"type":"Polygon","arcs":[[-303,-302,-291]],"properties":{"市区町村名":"上川郡上川町","大字名":"字菊水","丁目名":null,"小字名":null,"地番":"980-1","精度区分":null,"座標系":"任意座標系"}},{"type":"Polygon","arcs":[[-288]],"properties":{"市区町村名":"上川郡上川町","大字名":"字菊水","丁目名":null,"小字名":null,"地番":"1011","精度区分":null,"座標系":"任意座標系"}},{"type":"Polygon","arcs":[[303,-277,-115]],"properties":{"市区町村名":"上川郡上川町","大字名":"字菊水","丁目名":null,"小字名":null,"地番":"988-3","精度区分":null,"座標系":"任意座標系"}},{"type":"Polygon","arcs":[[-114,-278,-304]],"properties":{"市区町村名":"上川郡上川町","大字名":"字菊水","丁目名":null,"小字名":null,"地番":"988-2","精度区分":null,"座標系":"任意座標系"}},{"type":"Polygon","arcs":[[304,305,-280]],"properties":{"市区町村名":"上川郡上川町","大字名":"字菊水","丁目名":null,"小字名":null,"地番":"986-1","精度区分":null,"座標系":"任意座標系"}},{"type":"Polygon","arcs":[[-306,306,-281]],"properties":{"市区町村名":"上川郡上川町","大字名":"字菊水","丁目名":null,"小字名":null,"地番":"986-2","精度区分":null,"座標系":"任意座標系"}},{"type":"Polygon","arcs":[[-307,-305,-279]],"properties":{"市区町村名":"上川郡上川町","大字名":"字菊水","丁目名":null,"小字名":null,"地番":"986-3","精度区分":null,"座標系":"任意座標系"}},{"type":"Polygon","arcs":[[-163,-287]],"properties":{"市区町村名":"上川郡上川町","大字名":"字菊水","丁目名":null,"小字名":null,"地番":"1004-1","精度区分":null,"座標系":"任意座標系"}},{"type":"Polygon","arcs":[[307,-285]],"properties":{"市区町村名":"上川郡上川町","大字名":"字菊水","丁目名":null,"小字名":null,"地番":"1003-2","精度区分":null,"座標系":"任意座標系"}},{"type":"Polygon","arcs":[[-130,-286,-308,-284]],"properties":{"市区町村名":"上川郡上川町","大字名":"字菊水","丁目名":null,"小字名":null,"地番":"1003-1","精度区分":null,"座標系":"任意座標系"}},{"type":"Polygon","arcs":[[-283]],"properties":{"市区町村名":"上川郡上川町","大字名":"字菊水","丁目名":null,"小字名":null,"地番":"1005","精度区分":null,"座標系":"任意座標系"}},{"type":"Polygon","arcs":[[-154,-282]],"properties":{"市区町村名":"上川郡上川町","大字名":"字菊水","丁目名":null,"小字名":null,"地番":"1000-3","精度区分":null,"座標系":"任意座標系"}},{"type":"Polygon","arcs":[[-276]],"properties":{"市区町村名":"上川郡上川町","大字名":"字菊水","丁目名":null,"小字名":null,"地番":"997","精度区分":null,"座標系":"任意座標系"}}]}},"arcs":[[[164357,906615],[101710,-25252]],[[266067,881363],[26475,-11356]],[[292542,870007],[-42544,-57483]],[[249998,812524],[-121586,47639],[35945,46452]],[[416442,820124],[120678,-46717]],[[537120,773407],[-44130,-56969]],[[492990,716438],[-11356,4746],[-15904,9223],[-9113,3145],[-19916,4296]],[[436701,737848],[-64766,25496],[44507,56780]],[[492990,716438],[-444,-574]],[[492546,715864],[-55845,21984]],[[455481,880302],[-44473,-58261]],[[411008,822041],[-96467,38645]],[[314541,860686],[-12845,22886]],[[301696,883572],[33976,43762],[119809,-47032]],[[314541,860686],[-1446,579]],[[313095,861265],[-4798,6514],[-9243,4185]],[[299054,871964],[-2799,4600]],[[296255,876564],[5441,7008]],[[336170,777334],[-86172,35190]],[[292542,870007],[10511,-4761]],[[303053,865246],[3385,-5182]],[[306438,860064],[1352,-2071],[8672,-13177],[6425,-12449],[3901,-12756],[4973,-31541],[4409,-10736]],[[310331,856875],[-3893,3189]],[[303053,865246],[1558,-706],[5720,-7665]],[[310331,856875],[14745,-19759],[12414,-60322],[-1320,540]],[[329902,838452],[-6013,9435]],[[323889,847887],[-9348,12799]],[[411008,822041],[-44752,-56415],[-6719,2702]],[[359537,768328],[-11742,9445],[-6253,11401],[-6620,30968],[-2128,14460],[-2892,3850]],[[320328,851448],[3561,-3561]],[[329902,838452],[-9574,12996]],[[359537,768328],[-16470,6623],[-13165,63501]],[[247147,809230],[-44685,-57505]],[[202462,751725],[-99051,75332]],[[103411,827057],[22450,29613],[121286,-47440]],[[337879,772682],[15521,-8453],[9060,-3905]],[[362460,760324],[-43776,-56022]],[[318684,704302],[-116222,47423]],[[247147,809230],[90732,-36548]],[[337879,772682],[26040,-10490],[-1459,-1868]],[[626240,887925],[-44764,-57678]],[[581476,830247],[-120491,47880]],[[460985,878127],[44610,56420],[120645,-46622]],[[626240,887925],[84595,-93499]],[[710835,794426],[-9067,-11394]],[[701768,783032],[-36346,14266]],[[665422,797298],[-36345,14265]],[[629077,811563],[-47601,18684]],[[688139,756618],[94510,-81062]],[[782649,675556],[-120035,48059]],[[662614,723615],[25525,33003]],[[553605,996366],[60192,-24473],[14778,-80400]],[[628575,891493],[-120323,46760],[45353,58113]],[[581476,830247],[-44356,-56840]],[[416442,820124],[44543,58003]],[[556925,682833],[41524,-18856],[8901,-2195]],[[607350,661782],[-42237,-53789]],[[565113,607993],[-120007,47480]],[[445106,655473],[42978,54391]],[[488084,709864],[7086,-2741]],[[495170,707123],[5863,-2268]],[[501033,704855],[21744,-8412]],[[522777,696443],[16093,-16747],[18055,3137]],[[488646,710576],[4409,-102],[647,437]],[[493702,710911],[2049,-1435],[-581,-2353]],[[488084,709864],[562,712]],[[501033,704855],[2035,1483],[2130,-22]],[[505198,706316],[13139,-5253],[4440,-4620]],[[556925,682833],[5478,951],[47329,-18969],[-2382,-3033]],[[441929,728018],[1858,-4533],[6764,-7579],[9904,-3422],[20552,-81]],[[481007,712403],[7077,-2539]],[[445106,655473],[-120585,46595]],[[324521,702068],[43516,56110]],[[368037,758178],[20281,-8762],[44109,-17339],[9502,-4059]],[[368037,758178],[1058,1364]],[[369095,759542],[3123,-722],[16159,-7544],[3248,-562],[16910,-6089]],[[408535,744625],[26971,-11834],[6423,-4773]],[[629077,811563],[-43048,-55259]],[[586029,756304],[-1344,-1725]],[[584685,754579],[-47565,18828]],[[665422,797298],[-43120,-55353]],[[622302,741945],[-36273,14359]],[[701768,783032],[-43192,-55445]],[[658576,727587],[-36274,14358]],[[657232,725861],[-72547,28718]],[[658576,727587],[-1344,-1726]],[[613059,669008],[-27927,11812],[-6191,2713]],[[578941,683533],[-26559,9772],[-16646,8133],[-10269,1451]],[[525467,702889],[-32477,13549]],[[657232,725861],[-44173,-56853]],[[525467,702889],[-32921,12975]],[[578941,683533],[-3968,-155]],[[574973,683378],[-49506,19511]],[[613059,669008],[-381,-491],[-37705,14861]],[[782649,675556],[-43899,-57047]],[[738750,618509],[-53675,21360],[-2693,9227],[-49760,12366]],[[632622,661462],[-14035,5439]],[[618587,666901],[44027,56714]],[[632622,661462],[-4817,1197],[-9601,3748],[383,494]],[[694621,600860],[7762,-20430],[2662,-4701]],[[705045,575729],[-14056,-17685]],[[690989,558044],[-120455,47923]],[[570534,605967],[42937,54479]],[[613471,660446],[5157,-1317],[37709,-17079],[14127,-8579],[10462,-10584],[6266,-9299]],[[687192,613588],[1685,-5670],[2052,-806]],[[690929,607112],[3692,-6252]],[[613471,660446],[1876,2381],[64927,-25956],[6918,-23283]],[[690929,607112],[11730,-4607]],[[702659,602505],[-8038,-1645]],[[708265,600303],[4128,-15330]],[[712393,584973],[-7348,-9244]],[[702659,602505],[5606,-2202]],[[723307,599075],[-21007,8108]],[[702300,607183],[-1883,5920],[-4649,11351],[-4581,6139]],[[691187,630593],[-2399,3154]],[[688788,633747],[47098,-19158]],[[735886,614589],[-12579,-15514]],[[690989,558044],[-45364,-56542]],[[645625,501502],[-119495,47720]],[[526130,549222],[44404,56745]],[[645625,501502],[-45330,-57118]],[[600295,444384],[-118991,47845],[44826,56993]],[[782649,675556],[85103,-92704]],[[867752,582852],[-10096,-12806],[-118906,48463]],[[814833,508177],[94243,-37916]],[[909076,470261],[2363,-39561]],[[911439,430700],[-21922,-26803]],[[889517,403897],[-101400,39632]],[[788117,443529],[2800,15112],[-3967,14015],[27883,35521]],[[784476,445010],[-8907,3549]],[[775569,448559],[651,10362],[8196,10542],[2968,-11007],[-2908,-13446]],[[894236,550821],[14840,-80560]],[[814833,508177],[44251,56240],[35152,-13596]],[[735886,614589],[118807,-48339],[-44687,-56213]],[[810006,510037],[-62365,25764]],[[747641,535801],[-15865,25646],[5828,24446],[-2311,8339],[-11986,4843]],[[731244,542256],[-20687,8114]],[[710557,550370],[-2582,9119],[-1801,14373],[-1129,1867]],[[712393,584973],[595,-2482],[4627,-6489],[3006,-6816],[1723,-7037],[3549,-5716]],[[725893,556433],[-941,-4001],[6292,-10176]],[[710557,550370],[-19568,7674]],[[760405,454693],[-114780,46809]],[[710557,550370],[6632,-18757],[3360,-12591],[10329,-13976],[-375,-4335]],[[730503,500711],[-10559,-9749],[-775,-4831],[5819,-4488],[11416,-1010],[5532,3614]],[[741936,484247],[557,-1174],[7204,-5326],[7239,-11956],[3436,-9640],[33,-1458]],[[731244,542256],[4748,-1714],[5598,-29593],[-11087,-10238]],[[764877,452869],[-4472,1824]],[[741936,484247],[3886,2539],[3836,-756],[22391,-23801],[-7172,-9360]],[[810006,510037],[-25456,-32349],[-24336,23603],[-13458,10306],[-5115,26634],[6000,-2430]],[[761916,477335],[-8142,12992],[2237,5203],[-6208,5816],[-4725,8357]],[[745078,509703],[13366,-10293],[23775,-24479],[-8171,-10329],[-12132,12733]],[[729770,495423],[15308,14280]],[[761916,477335],[-10423,10940],[-6589,1282],[-4927,-3182]],[[739977,486375],[-4213,1301],[-6104,7133],[110,614]],[[760405,454693],[270,-7294]],[[760675,447399],[-39078,-50878],[-121302,47863]],[[764877,452869],[-4202,-5470]],[[889517,403897],[-45901,-57687]],[[843616,346210],[-93749,39151],[3381,4834],[-5478,12964]],[[747770,403159],[22556,26575]],[[770326,429734],[16495,7649],[1296,6146]],[[747770,403159],[-4770,11289],[2936,3977],[24390,11309]],[[744091,398519],[-5302,-8624]],[[738789,389895],[-11461,4618],[11920,15051],[4843,-11045]],[[911439,430700],[17677,-118819]],[[929116,311881],[-85500,34329]],[[478515,488286],[75871,-30443]],[[554386,457843],[-55540,-23282],[-37271,32831]],[[461575,467392],[16940,20894]],[[374135,357137],[49464,-19178],[132533,88930],[14029,24549]],[[570161,451438],[76173,-29624]],[[646334,421814],[-135410,-103846],[-72171,-39507]],[[438753,278461],[-96738,38100]],[[342015,316561],[32120,40576]],[[659107,342110],[4469,2216],[26262,11510]],[[689838,355836],[-105646,-135041]],[[584192,220795],[-54458,21592]],[[529734,242387],[3560,1330],[-50589,21262],[-1998,840]],[[480707,265819],[4379,2861],[3284,2886]],[[488370,271566],[128248,56077]],[[616618,327643],[4578,1076],[22954,6080],[11763,6634]],[[655913,341433],[-465,-13452],[-1968,-3475],[-8066,-5766],[2732,-1858],[7231,5580],[3138,5043],[592,14605]],[[702311,372043],[-5334,-6769],[-15519,-3660]],[[681458,361614],[2789,1086],[15962,8056],[2102,1287]],[[659107,342110],[234,5759],[1795,3502],[15762,6223],[17787,4438],[-4847,-6196]],[[632742,342787],[14755,6645],[10015,2625]],[[657512,352057],[-1319,-2557],[-280,-8067]],[[616618,327643],[9510,4159],[6614,10985]],[[480707,265819],[-776,326],[-1975,867],[10414,4554]],[[655221,418776],[63919,-25380],[-16829,-21353]],[[681458,361614],[-5361,-1264],[-17887,-6942],[-698,-1351]],[[632742,342787],[166,276],[18467,30673],[-13943,15269],[17789,29771]],[[764124,374282],[-27593,-36457],[18419,-76361],[-92970,-40039],[9246,-22789],[-22883,-2887]],[[648343,195749],[-58919,22957]],[[589424,218706],[109703,139935]],[[699127,358641],[9708,3510],[6006,3722]],[[714841,365873],[4597,1264],[3944,5541]],[[723382,372678],[5221,3342],[7880,9877]],[[736483,385897],[2394,-453],[8650,-3824],[16597,-7338]],[[723382,372678],[2715,3813],[-1322,9332],[1873,1933],[9835,-1859]],[[699127,358641],[2912,3714],[12802,3518]],[[887858,324271],[98041,-39333]],[[985899,284938],[-63895,-49133],[-167861,-32941],[-31841,-36609]],[[722302,166255],[-29452,11813]],[[692850,178068],[83252,73409],[56577,7903],[-34853,20524],[25123,17838],[16520,-7101],[48389,33630]],[[386021,169263],[55951,23535],[23459,-8793],[5151,30523],[54097,25199]],[[524679,239727],[56635,-22555]],[[581314,217172],[-51858,-65555]],[[529456,151617],[-9794,18999],[-26455,-6433],[14456,-41126]],[[507663,123057],[-31689,-39658]],[[475974,83399],[-18139,15393],[-46560,-4471],[-38510,57927]],[[372765,152248],[13256,17015]],[[586613,215108],[133118,-52589]],[[719731,162519],[-21431,-27782],[-11530,-50731],[-84504,-28044],[-55380,-50904]],[[546886,5058],[-95845,37941]],[[451041,42999],[135572,172109]],[[99482,829830],[-99482,76513]],[[0,906343],[121363,-47868],[-21881,-28645]],[[554386,457843],[15775,-6405]],[[374135,357137],[87440,110255]],[[468189,266790],[-29436,11671]],[[646334,421814],[8887,-3038]],[[632742,342787],[-15806,-6235],[-21360,-7035],[-28348,-8294],[-27609,-6615],[-12871,-4513],[-11402,-6044],[-11907,-8032],[-23694,-21136],[-9767,-7058],[-1789,-1035]],[[616618,327643],[-17953,-4065],[-35379,-10657],[-12533,-1724],[-19723,-6331],[-10443,-5393],[-8577,-6789],[-23640,-21118]],[[480707,265819],[-3890,-2450]],[[476817,263369],[-8628,3421]],[[529734,242387],[-52917,20982]],[[764124,374282],[123734,-50011]],[[692850,178068],[-44507,17681]],[[529456,151617],[-21793,-28560]],[[475974,83399],[-30381,-38211]],[[445593,45188],[-119315,47360]],[[326278,92548],[46487,59700]],[[683586,864943],[49620,-42409]],[[733206,822534],[-22371,-28108]],[[626240,887925],[57346,-22982]],[[472392,490757],[6123,-2471]],[[342015,316561],[-2476,-3058]],[[339539,313503],[-5579,2221],[138432,175033]],[[468189,266790],[-4763,-2613]],[[463426,264177],[-2599,1037]],[[460827,265214],[-121288,48289]],[[468518,262145],[-8349,-3690],[-6575,-2519]],[[453594,255936],[7233,9278]],[[463426,264177],[5092,-2032]],[[720697,595420],[10029,-3891],[1812,-6846],[-6645,-28250]],[[712393,584973],[8304,10447]],[[708265,600303],[12432,-4883]],[[722302,166255],[-2571,-3736]],[[586613,215108],[2811,3598]],[[546886,5058],[3098,-5058],[-101191,39991]],[[448793,39991],[2248,3008]],[[445593,45188],[-2394,-2986]],[[443199,42202],[-120826,47751],[3905,2595]],[[689838,355836],[9289,2805]],[[448793,39991],[-5594,2211]],[[581314,217172],[2878,3623]],[[655913,341433],[3194,677]],[[929116,311881],[70883,-27618],[-14100,675]],[[472392,490757],[92721,117236]],[[505198,706316],[-11496,4595]],[[493702,710911],[-3641,1456]],[[490061,712367],[-9054,36]],[[441929,728018],[-1612,3935],[-31782,12672]],[[408535,744625],[-38961,15535],[-479,-618]],[[324521,702068],[-5837,2234]],[[103411,827057],[-3929,2773]],[[0,906343],[4304,2750],[119429,-47021],[36401,46675],[4223,-2132]],[[266067,881363],[3013,3792],[25261,-11057]],[[294341,874098],[4713,-2134]],[[313095,861265],[7233,-9817]],[[455481,880302],[44294,56775],[-63669,25276],[2919,3648],[63406,-25468],[45742,59466],[5432,-3633]],[[628575,891493],[57358,-22447],[-2347,-4103]],[[733206,822534],[6318,-878],[-51385,-65038]],[[867752,582852],[36771,46644],[2828,-3278],[-45039,-57726],[96572,-38267],[2118,-5616],[-66766,26212]],[[737509,539899],[2843,-1205],[-9314,14759],[-1293,-1411],[7764,-12143]],[[688788,633747],[-2105,856],[7046,-24112],[3126,-1206]],[[696855,609285],[5445,-2102]],[[660982,649687],[17515,-7142],[-163,497]],[[678334,643042],[-877,2688],[-15382,4356]],[[662075,650086],[-6775,1918],[5682,-2317]],[[729770,495423],[-6007,-5604],[-561,-2911],[3829,-2739],[8086,-934],[4860,3140]],[[769542,438973],[455,11971],[-11927,-16961],[11472,4990]],[[775569,448559],[-751,-11972],[-3846,-1535]],[[770972,435052],[-17625,-7034],[-3146,-4479],[21381,10051]],[[771582,433590],[11605,5455],[1289,5965]],[[738789,389895],[6490,-2615],[2332,3210],[-3520,8029]],[[715507,370066],[5115,7152],[-1301,7746],[-13860,-17750],[10046,2852]],[[549197,685616],[5694,1007],[-6193,2488]],[[548698,689111],[-18951,7615],[4707,-5001]],[[534454,691725],[7030,-7472],[7713,1363]],[[469213,716741],[9705,-134],[-31841,12878],[2738,-5061],[769,-848]],[[450584,723576],[3954,-4363],[6560,-2360],[8115,-112]],[[524679,239727],[-53349,21295]],[[471330,261022],[4424,2015],[1063,332]],[[471330,261022],[-2812,1123]],[[294341,874098],[1914,2466]],[[386021,169263],[67573,86673]],[[490061,712367],[-1415,-1791]],[[469213,716741],[-9724,3435],[-8905,3400]],[[541438,688831],[7260,280]],[[549197,685616],[-7759,3215]],[[541438,688831],[-6984,2894]],[[691187,630593],[5668,-21308]],[[678334,643042],[-818,743],[-11633,4702]],[[665883,648487],[-3808,1599]],[[665883,648487],[-4901,1200]],[[770972,435052],[610,-1462]]],"bbox":[180.267,26.301,2152.87,2789.535],"transform":{"scale":[0.0019726049726049725,0.002763236763236763],"translate":[180.267,26.301]}}