{"type":"Topology","objects":{"01220-4501-72":{"type":"GeometryCollection","geometries":[{"type":"MultiPolygon","arcs":[[[0,1,2,3,4,5,6,7,8,9,10,11,12,13,14,15,16,17,18,19]]],"properties":{"筆ID":"H000000001","version":"ver1.0","座標系":"任意座標系","測地系判別":null,"地図名":"H16AN040730","地図番号":"B2","縮尺分母":"3000","市区町村コード":"01220","市区町村名":"士別市","大字コード":"059","丁目コード":"000","小字コード":"0000","予備コード":"00","大字名":"朝日町茂志利","丁目名":null,"小字名":null,"予備名":null,"地番":"道-1","精度区分":null,"座標値種別":"図上測量","筆界未定構成筆":null,"代表点緯度":-39919.4755,"代表点経度":13991.082773814}},{"type":"MultiPolygon","arcs":[[[20,21,22,23,24,25,26,27,28,29]]],"properties":{"筆ID":"H000000002","version":"ver1.0","座標系":"任意座標系","測地系判別":null,"地図名":"H16AN040730","地図番号":"B2","縮尺分母":"3000","市区町村コード":"01220","市区町村名":"士別市","大字コード":"059","丁目コード":"000","小字コード":"0000","予備コード":"00","大字名":"朝日町茂志利","丁目名":null,"小字名":null,"予備名":null,"地番":"道-2","精度区分":null,"座標値種別":"図上測量","筆界未定構成筆":null,"代表点緯度":-40007.5255,"代表点経度":12940.909850449}},{"type":"MultiPolygon","arcs":[[[30,31,-2,32]]],"properties":{"筆ID":"H000000003","version":"ver1.0","座標系":"任意座標系","測地系判別":null,"地図名":"H16AN040730","地図番号":"B2","縮尺分母":"3000","市区町村コード":"01220","市区町村名":"士別市","大字コード":"059","丁目コード":"000","小字コード":"0000","予備コード":"00","大字名":"朝日町茂志利","丁目名":null,"小字名":null,"予備名":null,"地番":"無地番-2","精度区分":null,"座標値種別":"図上測量","筆界未定構成筆":null,"代表点緯度":-39700.893,"代表点経度":13202.992179173}},{"type":"MultiPolygon","arcs":[[[33,34,35]]],"properties":{"筆ID":"H000000004","version":"ver1.0","座標系":"任意座標系","測地系判別":null,"地図名":"H16AN040730","地図番号":"B4","縮尺分母":"3000","市区町村コード":"01220","市区町村名":"士別市","大字コード":"059","丁目コード":"000","小字コード":"0000","予備コード":"00","大字名":"朝日町茂志利","丁目名":null,"小字名":null,"予備名":null,"地番":"7181","精度区分":null,"座標値種別":"図上測量","筆界未定構成筆":null,"代表点緯度":-41581.448,"代表点経度":11712.010299516}},{"type":"MultiPolygon","arcs":[[[36,37,38,39]]],"properties":{"筆ID":"H000000005","version":"ver1.0","座標系":"任意座標系","測地系判別":null,"地図名":"H16AN040730","地図番号":"B4","縮尺分母":"3000","市区町村コード":"01220","市区町村名":"士別市","大字コード":"059","丁目コード":"000","小字コード":"0000","予備コード":"00","大字名":"朝日町茂志利","丁目名":null,"小字名":null,"予備名":null,"地番":"7182","精度区分":null,"座標値種別":"図上測量","筆界未定構成筆":null,"代表点緯度":-41193.809,"代表点経度":12031.111550152}},{"type":"MultiPolygon","arcs":[[[40,41,42,43]]],"properties":{"筆ID":"H000000006","version":"ver1.0","座標系":"任意座標系","測地系判別":null,"地図名":"H16AN040730","地図番号":"B4","縮尺分母":"3000","市区町村コード":"01220","市区町村名":"士別市","大字コード":"059","丁目コード":"000","小字コード":"0000","予備コード":"00","大字名":"朝日町茂志利","丁目名":null,"小字名":null,"予備名":null,"地番":"7183-1","精度区分":null,"座標値種別":"図上測量","筆界未定構成筆":null,"代表点緯度":-40871.8215,"代表点経度":12227.194253835}},{"type":"MultiPolygon","arcs":[[[44,-43]]],"properties":{"筆ID":"H000000007","version":"ver1.0","座標系":"任意座標系","測地系判別":null,"地図名":"H16AN040730","地図番号":"B3","縮尺分母":"3000","市区町村コード":"01220","市区町村名":"士別市","大字コード":"059","丁目コード":"000","小字コード":"0000","予備コード":"00","大字名":"朝日町茂志利","丁目名":null,"小字名":null,"予備名":null,"地番":"7183-2","精度区分":null,"座標値種別":"図上測量","筆界未定構成筆":null,"代表点緯度":-40872.036,"代表点経度":12290.338826832}},{"type":"MultiPolygon","arcs":[[[45,46,47,48,49]]],"properties":{"筆ID":"H000000008","version":"ver1.0","座標系":"任意座標系","測地系判別":null,"地図名":"H16AN040730","地図番号":"B4","縮尺分母":"3000","市区町村コード":"01220","市区町村名":"士別市","大字コード":"059","丁目コード":"000","小字コード":"0000","予備コード":"00","大字名":"朝日町茂志利","丁目名":null,"小字名":null,"予備名":null,"地番":"7184-1","精度区分":null,"座標値種別":"図上測量","筆界未定構成筆":null,"代表点緯度":-41070.8885,"代表点経度":12392.009984517}},{"type":"MultiPolygon","arcs":[[[50,-46,51]]],"properties":{"筆ID":"H000000009","version":"ver1.0","座標系":"任意座標系","測地系判別":null,"地図名":"H16AN040730","地図番号":"B4","縮尺分母":"3000","市区町村コード":"01220","市区町村名":"士別市","大字コード":"059","丁目コード":"000","小字コード":"0000","予備コード":"00","大字名":"朝日町茂志利","丁目名":null,"小字名":null,"予備名":null,"地番":"7184-2","精度区分":null,"座標値種別":"図上測量","筆界未定構成筆":null,"代表点緯度":-40986.036,"代表点経度":12019.135812625}},{"type":"MultiPolygon","arcs":[[[52,53,-47]]],"properties":{"筆ID":"H000000010","version":"ver1.0","座標系":"任意座標系","測地系判別":null,"地図名":"H16AN040730","地図番号":"B4","縮尺分母":"3000","市区町村コード":"01220","市区町村名":"士別市","大字コード":"059","丁目コード":"000","小字コード":"0000","予備コード":"00","大字名":"朝日町茂志利","丁目名":null,"小字名":null,"予備名":null,"地番":"7184-3","精度区分":null,"座標値種別":"図上測量","筆界未定構成筆":null,"代表点緯度":-40914.512,"代表点経度":12224.26655292}},{"type":"MultiPolygon","arcs":[[[-30,54,55,56]]],"properties":{"筆ID":"H000000011","version":"ver1.0","座標系":"任意座標系","測地系判別":null,"地図名":"H16AN040730","地図番号":"B2","縮尺分母":"3000","市区町村コード":"01220","市区町村名":"士別市","大字コード":"059","丁目コード":"000","小字コード":"0000","予備コード":"00","大字名":"朝日町茂志利","丁目名":null,"小字名":null,"予備名":null,"地番":"7190","精度区分":null,"座標値種別":"図上測量","筆界未定構成筆":null,"代表点緯度":-39791.7265,"代表点経度":12917.416166143}},{"type":"MultiPolygon","arcs":[[[57,-26]]],"properties":{"筆ID":"H000000012","version":"ver1.0","座標系":"任意座標系","測地系判別":null,"地図名":"H16AN040730","地図番号":"B2","縮尺分母":"3000","市区町村コード":"01220","市区町村名":"士別市","大字コード":"059","丁目コード":"000","小字コード":"0000","予備コード":"00","大字名":"朝日町茂志利","丁目名":null,"小字名":null,"予備名":null,"地番":"7191","精度区分":null,"座標値種別":"図上測量","筆界未定構成筆":null,"代表点緯度":-40116.572,"代表点経度":13094.213104598}},{"type":"MultiPolygon","arcs":[[[-28,58,59]]],"properties":{"筆ID":"H000000013","version":"ver1.0","座標系":"任意座標系","測地系判別":null,"地図名":"H16AN040730","地図番号":"B2","縮尺分母":"3000","市区町村コード":"01220","市区町村名":"士別市","大字コード":"059","丁目コード":"000","小字コード":"0000","予備コード":"00","大字名":"朝日町茂志利","丁目名":null,"小字名":null,"予備名":null,"地番":"7192","精度区分":null,"座標値種別":"図上測量","筆界未定構成筆":null,"代表点緯度":-40129.507,"代表点経度":12919.119396076}},{"type":"MultiPolygon","arcs":[[[60,61,-16,62,63,64,-24]]],"properties":{"筆ID":"H000000014","version":"ver1.0","座標系":"任意座標系","測地系判別":null,"地図名":"H16AN040730","地図番号":"B2","縮尺分母":"3000","市区町村コード":"01220","市区町村名":"士別市","大字コード":"059","丁目コード":"000","小字コード":"0000","予備コード":"00","大字名":"朝日町茂志利","丁目名":null,"小字名":null,"予備名":null,"地番":"7193","精度区分":null,"座標値種別":"図上測量","筆界未定構成筆":null,"代表点緯度":-40058.3235,"代表点経度":13400.895578071}},{"type":"MultiPolygon","arcs":[[[-14,65,66,67,68,69]]],"properties":{"筆ID":"H000000015","version":"ver1.0","座標系":"任意座標系","測地系判別":null,"地図名":"H16AN040730","地図番号":"B2","縮尺分母":"3000","市区町村コード":"01220","市区町村名":"士別市","大字コード":"059","丁目コード":"000","小字コード":"0000","予備コード":"00","大字名":"朝日町茂志利","丁目名":null,"小字名":null,"予備名":null,"地番":"7194","精度区分":null,"座標値種別":"図上測量","筆界未定構成筆":null,"代表点緯度":-40050.687,"代表点経度":13641.03091971}},{"type":"MultiPolygon","arcs":[[[-64,70,71,72,73]]],"properties":{"筆ID":"H000000016","version":"ver1.0","座標系":"任意座標系","測地系判別":null,"地図名":"H16AN040730","地図番号":"B2","縮尺分母":"3000","市区町村コード":"01220","市区町村名":"士別市","大字コード":"059","丁目コード":"000","小字コード":"0000","予備コード":"00","大字名":"朝日町茂志利","丁目名":null,"小字名":null,"予備名":null,"地番":"7195","精度区分":null,"座標値種別":"図上測量","筆界未定構成筆":null,"代表点緯度":-40342.14,"代表点経度":13677.329827871}},{"type":"MultiPolygon","arcs":[[[74,75,76,-68]]],"properties":{"筆ID":"H000000017","version":"ver1.0","座標系":"任意座標系","測地系判別":null,"地図名":"H16AN040730","地図番号":"B1","縮尺分母":"3000","市区町村コード":"01220","市区町村名":"士別市","大字コード":"059","丁目コード":"000","小字コード":"0000","予備コード":"00","大字名":"朝日町茂志利","丁目名":null,"小字名":null,"予備名":null,"地番":"7196","精度区分":null,"座標値種別":"図上測量","筆界未定構成筆":null,"代表点緯度":-40186.5225,"代表点経度":13834.48818626}},{"type":"MultiPolygon","arcs":[[[-73,77,78,79]]],"properties":{"筆ID":"H000000018","version":"ver1.0","座標系":"任意座標系","測地系判別":null,"地図名":"H16AN040730","地図番号":"B2","縮尺分母":"3000","市区町村コード":"01220","市区町村名":"士別市","大字コード":"059","丁目コード":"000","小字コード":"0000","予備コード":"00","大字名":"朝日町茂志利","丁目名":null,"小字名":null,"予備名":null,"地番":"7197","精度区分":null,"座標値種別":"図上測量","筆界未定構成筆":null,"代表点緯度":-40331.134,"代表点経度":13806.934830976}},{"type":"MultiPolygon","arcs":[[[80,-76,81,82,-79]]],"properties":{"筆ID":"H000000019","version":"ver1.0","座標系":"任意座標系","測地系判別":null,"地図名":"H16AN040730","地図番号":"B1","縮尺分母":"3000","市区町村コード":"01220","市区町村名":"士別市","大字コード":"059","丁目コード":"000","小字コード":"0000","予備コード":"00","大字名":"朝日町茂志利","丁目名":null,"小字名":null,"予備名":null,"地番":"7198","精度区分":null,"座標値種別":"図上測量","筆界未定構成筆":null,"代表点緯度":-40376.981,"代表点経度":13988.340477377}},{"type":"MultiPolygon","arcs":[[[83,84,85,-6]]],"properties":{"筆ID":"H000000020","version":"ver1.0","座標系":"任意座標系","測地系判別":null,"地図名":"H16AN040730","地図番号":"B1","縮尺分母":"3000","市区町村コード":"01220","市区町村名":"士別市","大字コード":"059","丁目コード":"000","小字コード":"0000","予備コード":"00","大字名":"朝日町茂志利","丁目名":null,"小字名":null,"予備名":null,"地番":"7199","精度区分":null,"座標値種別":"図上測量","筆界未定構成筆":null,"代表点緯度":-39937.817,"代表点経度":14094.606468765}},{"type":"MultiPolygon","arcs":[[[-66,-13,86,87]]],"properties":{"筆ID":"H000000021","version":"ver1.0","座標系":"任意座標系","測地系判別":null,"地図名":"H16AN040730","地図番号":"B1","縮尺分母":"3000","市区町村コード":"01220","市区町村名":"士別市","大字コード":"059","丁目コード":"000","小字コード":"0000","予備コード":"00","大字名":"朝日町茂志利","丁目名":null,"小字名":null,"予備名":null,"地番":"7200","精度区分":null,"座標値種別":"図上測量","筆界未定構成筆":null,"代表点緯度":-40148.101,"代表点経度":14113.055505129}},{"type":"MultiPolygon","arcs":[[[-4,88]]],"properties":{"筆ID":"H000000022","version":"ver1.0","座標系":"任意座標系","測地系判別":null,"地図名":"H16AN040730","地図番号":"B2","縮尺分母":"3000","市区町村コード":"01220","市区町村名":"士別市","大字コード":"059","丁目コード":"000","小字コード":"0000","予備コード":"00","大字名":"朝日町茂志利","丁目名":null,"小字名":null,"予備名":null,"地番":"7201","精度区分":null,"座標値種別":"図上測量","筆界未定構成筆":null,"代表点緯度":-39803.439,"代表点経度":13406.371798492}},{"type":"MultiPolygon","arcs":[[[89,-7,-86]]],"properties":{"筆ID":"H000000023","version":"ver1.0","座標系":"任意座標系","測地系判別":null,"地図名":"H16AN040730","地図番号":"B1","縮尺分母":"3000","市区町村コード":"01220","市区町村名":"士別市","大字コード":"059","丁目コード":"000","小字コード":"0000","予備コード":"00","大字名":"朝日町茂志利","丁目名":null,"小字名":null,"予備名":null,"地番":"7202","精度区分":null,"座標値種別":"図上測量","筆界未定構成筆":null,"代表点緯度":-40007.144,"代表点経度":14172.415575016}},{"type":"MultiPolygon","arcs":[[[90,-9]]],"properties":{"筆ID":"H000000024","version":"ver1.0","座標系":"任意座標系","測地系判別":null,"地図名":"H16AN040730","地図番号":"B1","縮尺分母":"3000","市区町村コード":"01220","市区町村名":"士別市","大字コード":"059","丁目コード":"000","小字コード":"0000","予備コード":"00","大字名":"朝日町茂志利","丁目名":null,"小字名":null,"予備名":null,"地番":"7203","精度区分":null,"座標値種別":"図上測量","筆界未定構成筆":null,"代表点緯度":-40124.234,"代表点経度":14277.575672392}},{"type":"MultiPolygon","arcs":[[[-11,91,92]]],"properties":{"筆ID":"H000000025","version":"ver1.0","座標系":"任意座標系","測地系判別":null,"地図名":"H16AN040730","地図番号":"B1","縮尺分母":"3000","市区町村コード":"01220","市区町村名":"士別市","大字コード":"059","丁目コード":"000","小字コード":"0000","予備コード":"00","大字名":"朝日町茂志利","丁目名":null,"小字名":null,"予備名":null,"地番":"7204","精度区分":null,"座標値種別":"図上測量","筆界未定構成筆":null,"代表点緯度":-40359.708,"代表点経度":14287.20270092}},{"type":"MultiPolygon","arcs":[[[-39,93,-34,94,95]]],"properties":{"筆ID":"H000000026","version":"ver1.0","座標系":"任意座標系","測地系判別":null,"地図名":"H16AN040730","地図番号":"B4","縮尺分母":"3000","市区町村コード":"01220","市区町村名":"士別市","大字コード":"059","丁目コード":"000","小字コード":"0000","予備コード":"00","大字名":"朝日町茂志利","丁目名":null,"小字名":null,"予備名":null,"地番":"7207","精度区分":null,"座標値種別":"図上測量","筆界未定構成筆":null,"代表点緯度":-41372.229,"代表点経度":11914.722547774}},{"type":"MultiPolygon","arcs":[[[96,-49,97,-37,98]]],"properties":{"筆ID":"H000000027","version":"ver1.0","座標系":"任意座標系","測地系判別":null,"地図名":"H16AN040730","地図番号":"B4","縮尺分母":"3000","市区町村コード":"01220","市区町村名":"士別市","大字コード":"059","丁目コード":"000","小字コード":"0000","予備コード":"00","大字名":"朝日町茂志利","丁目名":null,"小字名":null,"予備名":null,"地番":"7208","精度区分":null,"座標値種別":"図上測量","筆界未定構成筆":null,"代表点緯度":-41189.4145,"代表点経度":12227.90173049}},{"type":"MultiPolygon","arcs":[[[-55,-29,-60,99]]],"properties":{"筆ID":"H000000028","version":"ver1.0","座標系":"任意座標系","測地系判別":null,"地図名":"H16AN040730","地図番号":"B2","縮尺分母":"3000","市区町村コード":"01220","市区町村名":"士別市","大字コード":"059","丁目コード":"000","小字コード":"0000","予備コード":"00","大字名":"朝日町茂志利","丁目名":null,"小字名":null,"予備名":null,"地番":"7212","精度区分":null,"座標値種別":"図上測量","筆界未定構成筆":null,"代表点緯度":-40129.507,"代表点経度":12898.992245358}},{"type":"MultiPolygon","arcs":[[[-88,100,101,-82,-75,-67]]],"properties":{"筆ID":"H000000029","version":"ver1.0","座標系":"任意座標系","測地系判別":null,"地図名":"H16AN040730","地図番号":"B2","縮尺分母":"3000","市区町村コード":"01220","市区町村名":"士別市","大字コード":"059","丁目コード":"000","小字コード":"0000","予備コード":"00","大字名":"朝日町茂志利","丁目名":null,"小字名":null,"予備名":null,"地番":"7213","精度区分":null,"座標値種別":"図上測量","筆界未定構成筆":null,"代表点緯度":-40293.5325,"代表点経度":14114.762047472}},{"type":"MultiPolygon","arcs":[[[102,-44,-45,-42,103,-53,-51,104]]],"properties":{"筆ID":"H000000030","version":"ver1.0","座標系":"任意座標系","測地系判別":null,"地図名":"H16AN040730","地図番号":"B4","縮尺分母":"3000","市区町村コード":"01220","市区町村名":"士別市","大字コード":"059","丁目コード":"000","小字コード":"0000","予備コード":"00","大字名":"朝日町茂志利","丁目名":null,"小字名":null,"予備名":null,"地番":"7214","精度区分":null,"座標値種別":"図上測量","筆界未定構成筆":null,"代表点緯度":-40659.775,"代表点経度":12440.66959576}},{"type":"MultiPolygon","arcs":[[[-15,-70,105,-71,-63]]],"properties":{"筆ID":"H000000031","version":"ver1.0","座標系":"任意座標系","測地系判別":null,"地図名":"H16AN040730","地図番号":"B2","縮尺分母":"3000","市区町村コード":"01220","市区町村名":"士別市","大字コード":"059","丁目コード":"000","小字コード":"0000","予備コード":"00","大字名":"朝日町茂志利","丁目名":null,"小字名":null,"予備名":null,"地番":"7215","精度区分":null,"座標値種別":"図上測量","筆界未定構成筆":null,"代表点緯度":-40062.73,"代表点経度":13554.754149409}},{"type":"MultiPolygon","arcs":[[[-95,-36,106]]],"properties":{"筆ID":"H000000032","version":"ver1.0","座標系":"任意座標系","測地系判別":null,"地図名":"H16AN040730","地図番号":"B4","縮尺分母":"3000","市区町村コード":"01220","市区町村名":"士別市","大字コード":"059","丁目コード":"000","小字コード":"0000","予備コード":"00","大字名":"朝日町茂志利","丁目名":null,"小字名":null,"予備名":null,"地番":"7217","精度区分":null,"座標値種別":"図上測量","筆界未定構成筆":null,"代表点緯度":-41464.782,"代表点経度":11614.523218605}},{"type":"MultiPolygon","arcs":[[[107,-105,-52,-50,-97]]],"properties":{"筆ID":"H000000033","version":"ver1.0","座標系":"任意座標系","測地系判別":null,"地図名":"H16AN040730","地図番号":"B4","縮尺分母":"3000","市区町村コード":"01220","市区町村名":"士別市","大字コード":"059","丁目コード":"000","小字コード":"0000","予備コード":"00","大字名":"朝日町茂志利","丁目名":null,"小字名":null,"予備名":null,"地番":"7218","精度区分":null,"座標値種別":"図上測量","筆界未定構成筆":null,"代表点緯度":-40990.116,"代表点経度":11963.324832111}},{"type":"MultiPolygon","arcs":[[[-77,-81,-78,-72,-106,-69]]],"properties":{"筆ID":"H000000034","version":"ver1.0","座標系":"任意座標系","測地系判別":null,"地図名":"H16AN040730","地図番号":"B1","縮尺分母":"3000","市区町村コード":"01220","市区町村名":"士別市","大字コード":"059","丁目コード":"000","小字コード":"0000","予備コード":"00","大字名":"朝日町茂志利","丁目名":null,"小字名":null,"予備名":null,"地番":"7219","精度区分":null,"座標値種別":"図上測量","筆界未定構成筆":null,"代表点緯度":-40251.571,"代表点経度":13822.549370312}},{"type":"MultiPolygon","arcs":[[[-32,108,109,-84,-5,-89,-3]]],"properties":{"筆ID":"H000000035","version":"ver1.0","座標系":"任意座標系","測地系判別":null,"地図名":"H16AN040730","地図番号":"B2","縮尺分母":"3000","市区町村コード":"01220","市区町村名":"士別市","大字コード":"059","丁目コード":"000","小字コード":"0000","予備コード":"00","大字名":"朝日町茂志利","丁目名":null,"小字名":null,"予備名":null,"地番":"7343","精度区分":null,"座標値種別":"図上測量","筆界未定構成筆":null,"代表点緯度":-39779.5385,"代表点経度":13337.968603458}},{"type":"MultiPolygon","arcs":[[[110,-91,-8,-90,-85,-110]]],"properties":{"筆ID":"H000000036","version":"ver1.0","座標系":"任意座標系","測地系判別":null,"地図名":"H16AN040730","地図番号":"B1","縮尺分母":"3000","市区町村コード":"01220","市区町村名":"士別市","大字コード":"059","丁目コード":"000","小字コード":"0000","予備コード":"00","大字名":"朝日町茂志利","丁目名":null,"小字名":null,"予備名":null,"地番":"7344","精度区分":null,"座標値種別":"図上測量","筆界未定構成筆":null,"代表点緯度":-39986.1785,"代表点経度":14240.725107418}},{"type":"MultiPolygon","arcs":[[[-87,-12,-93,111,-101]]],"properties":{"筆ID":"H000000037","version":"ver1.0","座標系":"任意座標系","測地系判別":null,"地図名":"H16AN040730","地図番号":"B1","縮尺分母":"3000","市区町村コード":"01220","市区町村名":"士別市","大字コード":"059","丁目コード":"000","小字コード":"0000","予備コード":"00","大字名":"朝日町茂志利","丁目名":null,"小字名":null,"予備名":null,"地番":"7345","精度区分":null,"座標値種別":"図上測量","筆界未定構成筆":null,"代表点緯度":-40332.156,"代表点経度":14189.89779516}},{"type":"MultiPolygon","arcs":[[[-19,112,-22]]],"properties":{"筆ID":"H000000038","version":"ver1.0","座標系":"任意座標系","測地系判別":null,"地図名":"H16AN040730","地図番号":"B2","縮尺分母":"3000","市区町村コード":"01220","市区町村名":"士別市","大字コード":"059","丁目コード":"000","小字コード":"0000","予備コード":"00","大字名":"朝日町茂志利","丁目名":null,"小字名":null,"予備名":null,"地番":"7348-1","精度区分":null,"座標値種別":"図上測量","筆界未定構成筆":null,"代表点緯度":-39827.6555,"代表点経度":13059.962447818}},{"type":"MultiPolygon","arcs":[[[-113,-18,113,-61,-23]]],"properties":{"筆ID":"H000000039","version":"ver1.0","座標系":"任意座標系","測地系判別":null,"地図名":"H16AN040730","地図番号":"B2","縮尺分母":"3000","市区町村コード":"01220","市区町村名":"士別市","大字コード":"059","丁目コード":"000","小字コード":"0000","予備コード":"00","大字名":"朝日町茂志利","丁目名":null,"小字名":null,"予備名":null,"地番":"7348-2","精度区分":null,"座標値種別":"図上測量","筆界未定構成筆":null,"代表点緯度":-39866.6815,"代表点経度":13217.142064639}},{"type":"MultiPolygon","arcs":[[[-114,-17,-62]]],"properties":{"筆ID":"H000000040","version":"ver1.0","座標系":"任意座標系","測地系判別":null,"地図名":"H16AN040730","地図番号":"B2","縮尺分母":"3000","市区町村コード":"01220","市区町村名":"士別市","大字コード":"059","丁目コード":"000","小字コード":"0000","予備コード":"00","大字名":"朝日町茂志利","丁目名":null,"小字名":null,"予備名":null,"地番":"7348-3","精度区分":null,"座標値種別":"図上測量","筆界未定構成筆":null,"代表点緯度":-39903.0865,"代表点経度":13346.687172995}},{"type":"MultiPolygon","arcs":[[[-33,-1,114,115]]],"properties":{"筆ID":"H000000041","version":"ver1.0","座標系":"任意座標系","測地系判別":null,"地図名":"H16AN040730","地図番号":"B2","縮尺分母":"3000","市区町村コード":"01220","市区町村名":"士別市","大字コード":"059","丁目コード":"000","小字コード":"0000","予備コード":"00","大字名":"朝日町茂志利","丁目名":null,"小字名":null,"予備名":null,"地番":"国有地-1","精度区分":null,"座標値種別":"図上測量","筆界未定構成筆":null,"代表点緯度":-39656.238,"代表点経度":12953.021895713}},{"type":"MultiPolygon","arcs":[[[-115,116,117]]],"properties":{"筆ID":"H000000042","version":"ver1.0","座標系":"任意座標系","測地系判別":null,"地図名":"H16AN040730","地図番号":"B2","縮尺分母":"3000","市区町村コード":"01220","市区町村名":"士別市","大字コード":"059","丁目コード":"000","小字コード":"0000","予備コード":"00","大字名":"朝日町茂志利","丁目名":null,"小字名":null,"予備名":null,"地番":"国有地-2","精度区分":null,"座標値種別":"図上測量","筆界未定構成筆":null,"代表点緯度":-39847.3585,"代表点経度":12828.251434563}},{"type":"MultiPolygon","arcs":[[[-57,118,119]]],"properties":{"筆ID":"H000000043","version":"ver1.0","座標系":"任意座標系","測地系判別":null,"地図名":"H16AN040730","地図番号":"B2","縮尺分母":"3000","市区町村コード":"01220","市区町村名":"士別市","大字コード":"059","丁目コード":"000","小字コード":"0000","予備コード":"00","大字名":"朝日町茂志利","丁目名":null,"小字名":null,"予備名":null,"地番":"道-3","精度区分":null,"座標値種別":"図上測量","筆界未定構成筆":null,"代表点緯度":-39986.7175,"代表点経度":12781.00210278}},{"type":"MultiPolygon","arcs":[[[-21,-120,120,-117,-20]]],"properties":{"筆ID":"H000000044","version":"ver1.0","座標系":"任意座標系","測地系判別":null,"地図名":"H16AN040730","地図番号":"B2","縮尺分母":"3000","市区町村コード":"01220","市区町村名":"士別市","大字コード":"059","丁目コード":"000","小字コード":"0000","予備コード":"00","大字名":"朝日町茂志利","丁目名":null,"小字名":null,"予備名":null,"地番":"7366","精度区分":null,"座標値種別":"図上測量","筆界未定構成筆":null,"代表点緯度":-39975.788,"代表点経度":12780.651910347}}]}},"arcs":[[[502226,929198],[5698,-530]],[[507924,928668],[44602,7419],[9332,-987],[8265,-8819],[13012,-25120],[17844,-12365],[20270,-242]],[[621249,888554],[23364,-7899]],[[644613,880655],[38024,-12857],[27868,2040]],[[710505,869838],[6058,443],[16917,-6973],[23038,-4399],[27518,1443]],[[784036,860352],[24913,-8228],[19472,-4005],[8950,-4805],[15778,-426],[21689,-16309],[16612,-22846],[13638,-12483]],[[905088,791250],[16574,-15334],[8378,-9173]],[[930040,766743],[13781,-15090]],[[943821,751653],[11894,-13023],[25422,-5761]],[[981137,732869],[270,-3049]],[[981407,729820],[-26474,6214],[-4999,5728]],[[949934,741762],[-20541,22400]],[[929393,764162],[-8716,9504],[-30611,28114],[-16685,22296],[-20728,16007],[-15318,214],[-9317,4728],[-9500,1950]],[[818518,846975],[-10726,2201],[-24412,8386],[-26729,-1313]],[[756651,856249],[-4311,602]],[[752340,856851],[-19689,4016],[-16162,6522],[-33895,-2219],[-7811,2599]],[[674783,867769],[-40333,13418]],[[634450,881187],[-13170,4381],[-20921,590],[-14122,9853]],[[586237,896011],[-4945,3450],[-12918,25163],[-7905,8156],[-7925,851],[-50599,-8821]],[[501945,924810],[281,4388]],[[499738,915871],[2207,8939]],[[501945,924810],[4820,-3775],[14970,-71290],[33495,-14402],[13705,-4391]],[[568935,830952],[41355,-13247],[102,-3219]],[[610392,814486],[7397,-95020]],[[617789,719466],[-3769,1421]],[[614020,720887],[-7082,93932],[-52221,16726],[-33233,12990],[-16070,-68539],[7671,-75745]],[[513085,700251],[-3605,1470]],[[509480,701721],[-7518,74609]],[[501962,776330],[16191,69470]],[[518153,845800],[-13700,66766],[-4715,3305]],[[518768,961732],[42467,6903],[18182,-16899],[33201,-19704],[12425,-1631]],[[625043,930401],[-3794,-41847]],[[507924,928668],[16874,8377],[-6030,24687]],[[127162,233182],[67471,-79247]],[[194633,153935],[-6819,-25281],[-9074,-14819],[1532,-24085],[1785,-13583],[3218,-22901],[-4508,-2710],[-21741,-13948],[-17982,-8106],[-7259,-5323],[-8107,-6127],[-8339,-6199],[-7974,-5922],[-24823,-4931],[-83569,121203]],[[973,121203],[17330,12505],[57909,46383],[41464,31674],[9486,21417]],[[173069,359979],[61792,-30791],[40068,-100913]],[[274929,228275],[-3233,-2859],[-6210,-5150],[-4984,-4765],[-12190,-15821],[-14419,-11571],[-12541,1787],[-14093,2221],[-14169,-10039]],[[193090,182078],[-58084,73190]],[[135006,255268],[2697,6127],[20394,46161],[14972,52423]],[[178569,382644],[170,7226],[11476,3132],[22852,10207],[52304,31563],[20278,32436],[38659,-24742]],[[324308,442466],[-1293,-638],[105,-834],[-18557,-9989],[-251,634],[-9827,-5239]],[[294485,426400],[-6620,-838],[-1479,-4814]],[[286386,420748],[-12662,-6662],[-429,1302],[-15856,-4604],[-4290,-1469],[91,-663],[-11152,-6549],[305,-652],[-6435,-4938],[-10645,-12972],[338,-505],[-5995,-6950],[-6270,-273],[-34817,6831]],[[294485,426400],[-2699,-1440],[-278,693],[-2863,-1726],[497,-1728],[-2756,-1451]],[[179633,376776],[34216,-7172],[7854,1634]],[[221703,371238],[7539,5045],[8662,13033],[9867,7904],[26683,9206],[25532,12424],[13302,8653],[21346,8444]],[[334634,435947],[84522,-59599],[-11536,-12617],[-10781,-9527],[-4206,-4951],[-7750,-14372],[-5591,-24302],[-9519,-13228],[-12913,-14128],[-9992,-12894],[-9801,-10646],[-11362,-5269],[-8729,-3035],[-15569,-7831]],[[301407,243548],[-44002,96405],[-761,786],[-80130,26466]],[[176514,367205],[3119,9571]],[[180107,378229],[5587,-1105],[-3,-435],[27874,-5559],[2,-646],[8136,754]],[[179633,376776],[474,1453]],[[221703,371238],[6581,6276],[7129,8908],[-548,821],[4548,5638],[5456,3999],[4307,2808],[6045,3424],[19694,5104],[12733,6967],[269,-791],[5281,2906],[-202,593],[3107,1710],[201,-593],[10251,5642],[-201,593],[7145,3933],[-269,790],[5281,2907],[470,-1383],[12009,7027]],[[330990,438517],[3644,-2570]],[[518153,845800],[-18394,2297]],[[499759,848097],[-18181,4516]],[[481578,852613],[2335,14514],[14271,42452],[1554,6292]],[[614020,720887],[-24950,-21429],[-8451,-7176],[-6925,-6286],[-8096,-6547],[-29202,11706],[-10159,3844],[-13152,5252]],[[509480,701721],[-18863,7690]],[[490617,709411],[11345,66919]],[[610392,814486],[5858,-1475]],[[616250,813011],[41190,-10368],[17343,65126]],[[752340,856851],[-3656,-46197],[-2473,-9955],[-4825,-5048],[-435,805],[-9362,-6261],[-14641,-13228],[-5564,-6876],[-2317,-9261],[178,-5404],[4441,-17168],[14358,-21821],[5311,-16471],[3196,-5635],[3403,-3064]],[[739954,691267],[-1100,-5416]],[[738854,685851],[-12591,488],[-16270,2415],[-16303,2612],[-11326,3473],[-11585,3116],[-9545,4524],[-13978,5670],[-10977,4081],[-6498,2512],[-11992,4724]],[[818518,846975],[-13199,-67593]],[[805319,779382],[-41564,11808],[1352,-16935],[24971,-18118]],[[790078,756137],[-8303,-59780]],[[781775,696357],[-11258,2038]],[[770517,698395],[-249,1570],[-3525,-568],[-3142,-3128],[-6687,-1635],[-90,428],[-6738,-1738],[-4615,-263],[-5682,4800],[-2985,4179],[-1465,9326],[-3660,7553],[-13430,21795],[-2901,7561],[-1979,6370],[-539,5659],[2311,6936],[5571,5932],[13504,10514],[9391,6283],[-430,1025],[6529,7218],[3266,11382],[-464,377],[2980,39343],[563,65],[600,6870]],[[739954,691267],[3873,-3487],[8802,715],[4768,1291],[26,1232],[6256,1534],[3872,-429],[3768,1205],[-337,2129]],[[770982,695457],[10375,-1892]],[[781357,693565],[-9384,-65915],[-29342,-13076]],[[742631,614574],[-1934,15609],[-519,15881],[-1293,10451],[1631,10460],[1903,9618],[-3565,9258]],[[790078,756137],[49819,-15866]],[[839897,740271],[-8411,-53241]],[[831486,687030],[-49711,9327]],[[781357,693565],[49715,-9155]],[[831072,684410],[-17494,-110726]],[[813578,573684],[-6535,-45],[-8619,2451],[-11578,7145],[-10102,2392],[-17142,-7501],[-4095,9142],[-4233,9009],[-8643,18297]],[[831072,684410],[414,2620]],[[839897,740271],[30035,-11639],[30359,-26024],[3370,-136362]],[[903661,566246],[-25616,7392],[-10656,6365],[-15107,8154],[-10253,-5387],[-10229,-2171],[-10679,-6914],[-7543,-1]],[[784036,860352],[15773,1439]],[[799809,861791],[880,80],[33374,-3727],[21897,-10712],[19887,-1945],[31123,1504],[1105,-8577],[7602,-9691],[8069,-4439]],[[923746,824284],[-18658,-33034]],[[929393,764162],[-4054,-14636],[1942,-29328],[-9080,-12811],[433,-9598],[7353,-22250],[-827,-11652],[-6298,-20736],[-6357,-1310]],[[912505,641841],[-5920,69946],[-38044,38043],[-63222,29552]],[[644613,880655],[2374,9787],[9711,287],[17250,7348],[12730,-12115],[-981,-5405],[24808,-10719]],[[923746,824284],[13095,-7358],[7496,-17032],[-14297,-33151]],[[943821,751653],[8207,17979],[29109,-36763]],[[981407,729820],[477,-3347],[2903,-10085],[6807,-13723],[1239,-8607],[-1086,-14089],[-7289,-22701],[6023,-17114],[6362,-17318],[3156,-19083],[-6602,-5511],[-5501,-4526],[-5128,-4639],[-4027,-9109],[-127,-13405],[19,-26113],[-8537,1955]],[[970096,542405],[-26152,51501],[-3095,11943],[-5936,10226],[3669,17854],[-141,13363],[3112,34161],[-4436,12717],[-171,13747],[6734,24643],[6254,9202]],[[193090,182078],[1543,-28143]],[[127162,233182],[-1257,1476]],[[125905,234658],[4996,11290],[4105,9320]],[[175208,367636],[1306,-431]],[[301407,243548],[-26478,-15273]],[[173069,359979],[2139,7657]],[[490617,709411],[5246,-41568],[-11127,-16125],[15023,196379]],[[912505,641841],[7244,-83327]],[[919749,558514],[-10103,4481],[-5985,3251]],[[178281,378634],[288,4010]],[[324308,442466],[5128,2529],[2284,4737],[2220,-23],[5547,4118],[-705,8478],[-10164,22550],[-1729,9374],[1766,5742],[1722,3843],[12326,21340],[-1262,1363],[3123,5791],[1371,-957],[7681,14280],[-576,717],[2359,4183],[523,-507],[42892,80369],[5343,8044],[8477,2482],[3091,-606],[3868,2876],[-1501,14045],[-1280,8115],[-3153,3817],[-937,5324],[6588,2124],[1114,-4889],[198,-5071],[2216,-10326],[1667,-6328],[785,61],[-1134,-12177],[-8361,-4116],[-3406,371],[-5831,-1036],[-5183,-5051],[-8491,-15730],[256,-458],[-22976,-42741],[490,-569],[-2471,-4506],[-1452,-4078],[-4025,-7416],[-5080,-7300],[-8678,-16357],[288,-311],[-15249,-26798],[-2716,-7994],[1092,-8202],[4482,-8957],[790,338],[5382,-11317],[1100,-13513],[-4470,-6674],[-2669,-3994],[-5988,-2958]],[[180107,378229],[-1826,405]],[[770517,698395],[465,-2938]],[[973,121203],[-973,1411],[19499,14160],[22923,18670],[32958,26597],[40997,31212],[9528,21405]],[[175208,367636],[3073,10998]],[[625043,930401],[21627,-18699],[8989,-4272],[22009,14476],[3847,-10293],[7257,-15138],[12652,-11041],[13775,-7014],[22536,-3164],[17998,-4470],[9584,-2787],[8392,-2957],[11446,3936],[21049,14120]],[[806204,883098],[-6395,-21307]],[[806204,883098],[31234,-12973],[13423,-3533],[9067,-11538],[20782,5255],[19197,1749],[20158,-13703],[2604,-16885],[18782,-10741],[11969,-12128],[1114,-7997],[3843,-3921],[1052,-7265],[10256,-18629],[4487,-12230],[5602,-16406],[1363,-9284]],[[970096,542405],[-4457,1022],[-13398,4644],[-32492,10443]],[[586237,896011],[-17302,-65059]],[[634450,881187],[-18200,-68176]],[[502226,929198],[614,9604],[-1410,15811]],[[501430,954613],[17338,7119]],[[502226,929198],[-4702,-4],[-2748,-3873],[-18842,-50759],[-3042,-17620],[-3827,-12996],[-31795,-68628],[-11384,-16745],[-14789,-16178]],[[411097,742395],[-281,545],[1337,2690],[8201,16503],[5626,11198],[21298,41401],[10780,28371],[10633,28739],[4023,19363],[3581,12946],[-4152,14072],[-6445,5626],[-7103,6002],[4701,25384],[1401,22897],[1400,11395],[2745,10472],[3302,-4780],[2201,-16502],[6823,-10415],[11361,-17344],[8901,3655]],[[481578,852613],[-8212,-9033],[-35676,-77676],[-6255,-10342],[-7657,-8815],[-7805,-6449],[-2810,-1911],[-947,1836]],[[412216,740223],[20638,21724],[37977,80889],[4024,13496],[3140,18120],[17230,44582],[4513,-3163]],[[412216,740223],[-1119,2172]]],"bbox":[11439.438,-41854.304,14394.002,-39532.506],"transform":{"scale":[0.0029545669545669546,0.002321800321800317],"translate":[11439.438,-41854.304]}}
