{"type":"Topology","objects":{"01203-4304-11.featurecollection":{"type":"GeometryCollection","geometries":[{"type":"Polygon","arcs":[[0,1,2]],"properties":{"市区町村名":"小樽市","大字名":"新光","丁目名":"２丁目","小字名":null,"地番":"4-1","精度区分":null,"座標系":"任意座標系"}},{"type":"Polygon","arcs":[[3,-2,4,5]],"properties":{"市区町村名":"小樽市","大字名":"新光","丁目名":"２丁目","小字名":null,"地番":"4-2","精度区分":null,"座標系":"任意座標系"}},{"type":"Polygon","arcs":[[6,7,-6,8]],"properties":{"市区町村名":"小樽市","大字名":"新光","丁目名":"２丁目","小字名":null,"地番":"4-3","精度区分":null,"座標系":"任意座標系"}},{"type":"Polygon","arcs":[[9,-7,10,11]],"properties":{"市区町村名":"小樽市","大字名":"新光","丁目名":"２丁目","小字名":null,"地番":"4-4","精度区分":null,"座標系":"任意座標系"}},{"type":"Polygon","arcs":[[12,13,-12,14]],"properties":{"市区町村名":"小樽市","大字名":"新光","丁目名":"２丁目","小字名":null,"地番":"4-5","精度区分":null,"座標系":"任意座標系"}},{"type":"Polygon","arcs":[[15,-3,16,17]],"properties":{"市区町村名":"小樽市","大字名":"新光","丁目名":"２丁目","小字名":null,"地番":"4-6","精度区分":null,"座標系":"任意座標系"}},{"type":"Polygon","arcs":[[-17,-4,-8,-10,-14,18]],"properties":{"市区町村名":"小樽市","大字名":"新光","丁目名":"２丁目","小字名":null,"地番":"4-7","精度区分":null,"座標系":"任意座標系"}},{"type":"Polygon","arcs":[[19,20,21,22,23]],"properties":{"市区町村名":"小樽市","大字名":"新光","丁目名":"２丁目","小字名":null,"地番":"3-1","精度区分":null,"座標系":"任意座標系"}},{"type":"Polygon","arcs":[[24,25,-22,26]],"properties":{"市区町村名":"小樽市","大字名":"新光","丁目名":"２丁目","小字名":null,"地番":"3-4","精度区分":null,"座標系":"任意座標系"}},{"type":"Polygon","arcs":[[27,-23,-26]],"properties":{"市区町村名":"小樽市","大字名":"新光","丁目名":"２丁目","小字名":null,"地番":"3-5","精度区分":null,"座標系":"任意座標系"}},{"type":"Polygon","arcs":[[28,29,30,31]],"properties":{"市区町村名":"小樽市","大字名":"新光","丁目名":"２丁目","小字名":null,"地番":"3-7","精度区分":null,"座標系":"任意座標系"}},{"type":"Polygon","arcs":[[32,33,-29,34]],"properties":{"市区町村名":"小樽市","大字名":"新光","丁目名":"２丁目","小字名":null,"地番":"3-8","精度区分":null,"座標系":"任意座標系"}},{"type":"Polygon","arcs":[[35,36,37,38,-30,-34]],"properties":{"市区町村名":"小樽市","大字名":"新光","丁目名":"２丁目","小字名":null,"地番":"3-9","精度区分":null,"座標系":"任意座標系"}},{"type":"Polygon","arcs":[[-38,39,40,-20,41]],"properties":{"市区町村名":"小樽市","大字名":"新光","丁目名":"２丁目","小字名":null,"地番":"3-10","精度区分":null,"座標系":"任意座標系"}},{"type":"Polygon","arcs":[[-31,-39,-42,-24,42,43]],"properties":{"市区町村名":"小樽市","大字名":"新光","丁目名":"２丁目","小字名":null,"地番":"3-11","精度区分":null,"座標系":"任意座標系"}},{"type":"Polygon","arcs":[[-25,44,45]],"properties":{"市区町村名":"小樽市","大字名":"新光","丁目名":"２丁目","小字名":null,"地番":"3-12","精度区分":null,"座標系":"任意座標系"}},{"type":"Polygon","arcs":[[-28,-46,46,-43]],"properties":{"市区町村名":"小樽市","大字名":"新光","丁目名":"２丁目","小字名":null,"地番":"3-13","精度区分":null,"座標系":"任意座標系"}},{"type":"Polygon","arcs":[[47,48]],"properties":{"市区町村名":"小樽市","大字名":"新光","丁目名":"２丁目","小字名":null,"地番":"長狭物不明-1","精度区分":null,"座標系":"任意座標系"}},{"type":"Polygon","arcs":[[49,50,51,52]],"properties":{"市区町村名":"小樽市","大字名":"新光","丁目名":"２丁目","小字名":null,"地番":"2-1","精度区分":null,"座標系":"任意座標系"}},{"type":"Polygon","arcs":[[53,54,-52,55,56,57,58]],"properties":{"市区町村名":"小樽市","大字名":"新光","丁目名":"２丁目","小字名":null,"地番":"2-2","精度区分":null,"座標系":"任意座標系"}},{"type":"Polygon","arcs":[[-57,59,60,61]],"properties":{"市区町村名":"小樽市","大字名":"新光","丁目名":"２丁目","小字名":null,"地番":"2-3","精度区分":null,"座標系":"任意座標系"}},{"type":"Polygon","arcs":[[62,63,64,-61]],"properties":{"市区町村名":"小樽市","大字名":"新光","丁目名":"２丁目","小字名":null,"地番":"2-4","精度区分":null,"座標系":"任意座標系"}},{"type":"Polygon","arcs":[[65,66,67,68,-64]],"properties":{"市区町村名":"小樽市","大字名":"新光","丁目名":"２丁目","小字名":null,"地番":"2-5","精度区分":null,"座標系":"任意座標系"}},{"type":"Polygon","arcs":[[-69,69,70]],"properties":{"市区町村名":"小樽市","大字名":"新光","丁目名":"２丁目","小字名":null,"地番":"2-6","精度区分":null,"座標系":"任意座標系"}},{"type":"Polygon","arcs":[[71,-58,-62,-65,-71,72]],"properties":{"市区町村名":"小樽市","大字名":"新光","丁目名":"２丁目","小字名":null,"地番":"2-7","精度区分":null,"座標系":"任意座標系"}},{"type":"Polygon","arcs":[[73,-59,-72,74]],"properties":{"市区町村名":"小樽市","大字名":"新光","丁目名":"２丁目","小字名":null,"地番":"2-8","精度区分":null,"座標系":"任意座標系"}},{"type":"Polygon","arcs":[[75,-54,-74,76]],"properties":{"市区町村名":"小樽市","大字名":"新光","丁目名":"２丁目","小字名":null,"地番":"2-9","精度区分":null,"座標系":"任意座標系"}},{"type":"Polygon","arcs":[[-53,-55,-76,77]],"properties":{"市区町村名":"小樽市","大字名":"新光","丁目名":"２丁目","小字名":null,"地番":"2-10","精度区分":null,"座標系":"任意座標系"}},{"type":"Polygon","arcs":[[78,79,80,81,82,83,84]],"properties":{"市区町村名":"小樽市","大字名":"新光","丁目名":"２丁目","小字名":null,"地番":"5-1","精度区分":null,"座標系":"任意座標系"}},{"type":"Polygon","arcs":[[-82,85,86,87,88]],"properties":{"市区町村名":"小樽市","大字名":"新光","丁目名":"２丁目","小字名":null,"地番":"5-2","精度区分":null,"座標系":"任意座標系"}},{"type":"Polygon","arcs":[[89,90,91,92,93,94,95,96,97,98]],"properties":{"市区町村名":"小樽市","大字名":"新光","丁目名":"２丁目","小字名":null,"地番":"5-4","精度区分":null,"座標系":"任意座標系"}},{"type":"Polygon","arcs":[[99,100,101,102]],"properties":{"市区町村名":"小樽市","大字名":"新光","丁目名":"２丁目","小字名":null,"地番":"5-5","精度区分":null,"座標系":"任意座標系"}},{"type":"Polygon","arcs":[[103,104,105,-103,106,107]],"properties":{"市区町村名":"小樽市","大字名":"新光","丁目名":"２丁目","小字名":null,"地番":"5-6","精度区分":null,"座標系":"任意座標系"}},{"type":"Polygon","arcs":[[-88,108,109,110]],"properties":{"市区町村名":"小樽市","大字名":"新光","丁目名":"２丁目","小字名":null,"地番":"5-8","精度区分":null,"座標系":"任意座標系"}},{"type":"Polygon","arcs":[[111,112,113]],"properties":{"市区町村名":"小樽市","大字名":"新光","丁目名":"２丁目","小字名":null,"地番":"5-9","精度区分":null,"座標系":"任意座標系"}},{"type":"Polygon","arcs":[[114,115,-83]],"properties":{"市区町村名":"小樽市","大字名":"新光","丁目名":"２丁目","小字名":null,"地番":"5-10","精度区分":null,"座標系":"任意座標系"}},{"type":"Polygon","arcs":[[-89,-111,116,-115]],"properties":{"市区町村名":"小樽市","大字名":"新光","丁目名":"２丁目","小字名":null,"地番":"5-11","精度区分":null,"座標系":"任意座標系"}},{"type":"Polygon","arcs":[[117,-107,-102,118,-114,119,-80]],"properties":{"市区町村名":"小樽市","大字名":"新光","丁目名":"２丁目","小字名":null,"地番":"5-12","精度区分":null,"座標系":"任意座標系"}},{"type":"Polygon","arcs":[[120,121,-85,122,123]],"properties":{"市区町村名":"小樽市","大字名":"新光","丁目名":"２丁目","小字名":null,"地番":"5-13","精度区分":null,"座標系":"任意座標系"}},{"type":"Polygon","arcs":[[-95,124,125,126,-121]],"properties":{"市区町村名":"小樽市","大字名":"新光","丁目名":"２丁目","小字名":null,"地番":"5-14","精度区分":null,"座標系":"任意座標系"}},{"type":"Polygon","arcs":[[127,128,129]],"properties":{"市区町村名":"小樽市","大字名":"新光","丁目名":"２丁目","小字名":null,"地番":"5-15","精度区分":null,"座標系":"任意座標系"}},{"type":"Polygon","arcs":[[130,131,132,133,-128]],"properties":{"市区町村名":"小樽市","大字名":"新光","丁目名":"２丁目","小字名":null,"地番":"5-16","精度区分":null,"座標系":"任意座標系"}},{"type":"Polygon","arcs":[[134,135,136,137,-132]],"properties":{"市区町村名":"小樽市","大字名":"新光","丁目名":"２丁目","小字名":null,"地番":"5-17","精度区分":null,"座標系":"任意座標系"}},{"type":"Polygon","arcs":[[-136,138,139,140,141]],"properties":{"市区町村名":"小樽市","大字名":"新光","丁目名":"２丁目","小字名":null,"地番":"5-18","精度区分":null,"座標系":"任意座標系"}},{"type":"Polygon","arcs":[[-140,142,-105,143]],"properties":{"市区町村名":"小樽市","大字名":"新光","丁目名":"２丁目","小字名":null,"地番":"5-19","精度区分":null,"座標系":"任意座標系"}},{"type":"Polygon","arcs":[[144,-108,-118,-79,-122,-127]],"properties":{"市区町村名":"小樽市","大字名":"新光","丁目名":"２丁目","小字名":null,"地番":"5-20","精度区分":null,"座標系":"任意座標系"}},{"type":"Polygon","arcs":[[145,-98,146,147,148]],"properties":{"市区町村名":"小樽市","大字名":"新光","丁目名":"２丁目","小字名":null,"地番":"5-21","精度区分":null,"座標系":"任意座標系"}},{"type":"Polygon","arcs":[[-147,-97,149,150]],"properties":{"市区町村名":"小樽市","大字名":"新光","丁目名":"２丁目","小字名":null,"地番":"5-22","精度区分":null,"座標系":"任意座標系"}},{"type":"Polygon","arcs":[[-148,151,152]],"properties":{"市区町村名":"小樽市","大字名":"新光","丁目名":"２丁目","小字名":null,"地番":"5-23","精度区分":null,"座標系":"任意座標系"}},{"type":"Polygon","arcs":[[-152,-151,153,154]],"properties":{"市区町村名":"小樽市","大字名":"新光","丁目名":"２丁目","小字名":null,"地番":"5-24","精度区分":null,"座標系":"任意座標系"}},{"type":"Polygon","arcs":[[-120,155,-81]],"properties":{"市区町村名":"小樽市","大字名":"新光","丁目名":"２丁目","小字名":null,"地番":"5-26","精度区分":null,"座標系":"任意座標系"}},{"type":"Polygon","arcs":[[-113,156,-86,-156]],"properties":{"市区町村名":"小樽市","大字名":"新光","丁目名":"２丁目","小字名":null,"地番":"5-27","精度区分":null,"座標系":"任意座標系"}},{"type":"Polygon","arcs":[[-129,-134,157,-92,158,159]],"properties":{"市区町村名":"小樽市","大字名":"新光","丁目名":"２丁目","小字名":null,"地番":"5-28","精度区分":null,"座標系":"任意座標系"}},{"type":"Polygon","arcs":[[-158,-133,-138,160,-93]],"properties":{"市区町村名":"小樽市","大字名":"新光","丁目名":"２丁目","小字名":null,"地番":"5-29","精度区分":null,"座標系":"任意座標系"}},{"type":"Polygon","arcs":[[-137,-142,161,-125,-94,-161]],"properties":{"市区町村名":"小樽市","大字名":"新光","丁目名":"２丁目","小字名":null,"地番":"5-30","精度区分":null,"座標系":"任意座標系"}},{"type":"Polygon","arcs":[[-162,-141,-144,-104,-145,-126]],"properties":{"市区町村名":"小樽市","大字名":"新光","丁目名":"２丁目","小字名":null,"地番":"5-31","精度区分":null,"座標系":"任意座標系"}},{"type":"Polygon","arcs":[[-159,-91,162]],"properties":{"市区町村名":"小樽市","大字名":"新光","丁目名":"２丁目","小字名":null,"地番":"5-7","精度区分":null,"座標系":"任意座標系"}},{"type":"Polygon","arcs":[[-99,-146,163]],"properties":{"市区町村名":"小樽市","大字名":"新光","丁目名":"２丁目","小字名":null,"地番":"5-25","精度区分":null,"座標系":"任意座標系"}},{"type":"Polygon","arcs":[[-150,-96,-124,164,-154]],"properties":{"市区町村名":"小樽市","大字名":"新光","丁目名":"２丁目","小字名":null,"地番":"5-3","精度区分":null,"座標系":"任意座標系"}},{"type":"Polygon","arcs":[[165,166,167,168,169]],"properties":{"市区町村名":"小樽市","大字名":"新光","丁目名":"２丁目","小字名":null,"地番":"8-2","精度区分":null,"座標系":"任意座標系"}},{"type":"Polygon","arcs":[[170,171,172,173,174,-168]],"properties":{"市区町村名":"小樽市","大字名":"新光","丁目名":"２丁目","小字名":null,"地番":"8-3","精度区分":null,"座標系":"任意座標系"}},{"type":"Polygon","arcs":[[-172,175,176,177,178]],"properties":{"市区町村名":"小樽市","大字名":"新光","丁目名":"２丁目","小字名":null,"地番":"8-4","精度区分":null,"座標系":"任意座標系"}},{"type":"Polygon","arcs":[[179,180,181,182,183,184,-177]],"properties":{"市区町村名":"小樽市","大字名":"新光","丁目名":"２丁目","小字名":null,"地番":"8-5","精度区分":null,"座標系":"任意座標系"}},{"type":"Polygon","arcs":[[185,186,187,-181]],"properties":{"市区町村名":"小樽市","大字名":"新光","丁目名":"２丁目","小字名":null,"地番":"8-6","精度区分":null,"座標系":"任意座標系"}},{"type":"Polygon","arcs":[[-182,-188,188,189,190]],"properties":{"市区町村名":"小樽市","大字名":"新光","丁目名":"２丁目","小字名":null,"地番":"8-7","精度区分":null,"座標系":"任意座標系"}},{"type":"Polygon","arcs":[[191,-190,192]],"properties":{"市区町村名":"小樽市","大字名":"新光","丁目名":"２丁目","小字名":null,"地番":"8-8","精度区分":null,"座標系":"任意座標系"}},{"type":"Polygon","arcs":[[193,-192,194,195]],"properties":{"市区町村名":"小樽市","大字名":"新光","丁目名":"２丁目","小字名":null,"地番":"8-9","精度区分":null,"座標系":"任意座標系"}},{"type":"Polygon","arcs":[[196,-183,-191,-194]],"properties":{"市区町村名":"小樽市","大字名":"新光","丁目名":"２丁目","小字名":null,"地番":"8-10","精度区分":null,"座標系":"任意座標系"}},{"type":"Polygon","arcs":[[197,-184,-197,-196,198]],"properties":{"市区町村名":"小樽市","大字名":"新光","丁目名":"２丁目","小字名":null,"地番":"8-11","精度区分":null,"座標系":"任意座標系"}},{"type":"Polygon","arcs":[[199,-178,-185,-198,200]],"properties":{"市区町村名":"小樽市","大字名":"新光","丁目名":"２丁目","小字名":null,"地番":"8-12","精度区分":null,"座標系":"任意座標系"}},{"type":"Polygon","arcs":[[-173,-179,-200,201,202]],"properties":{"市区町村名":"小樽市","大字名":"新光","丁目名":"２丁目","小字名":null,"地番":"8-13","精度区分":null,"座標系":"任意座標系"}},{"type":"Polygon","arcs":[[-174,-203,203,204]],"properties":{"市区町村名":"小樽市","大字名":"新光","丁目名":"２丁目","小字名":null,"地番":"8-14","精度区分":null,"座標系":"任意座標系"}},{"type":"Polygon","arcs":[[-169,-175,-205,205,206]],"properties":{"市区町村名":"小樽市","大字名":"新光","丁目名":"２丁目","小字名":null,"地番":"8-16","精度区分":null,"座標系":"任意座標系"}},{"type":"Polygon","arcs":[[207,208,209,210]],"properties":{"市区町村名":"小樽市","大字名":"新光","丁目名":"２丁目","小字名":null,"地番":"9-1","精度区分":null,"座標系":"任意座標系"}},{"type":"Polygon","arcs":[[211,212,213,214,215,216,217]],"properties":{"市区町村名":"小樽市","大字名":"新光","丁目名":"２丁目","小字名":null,"地番":"9-6","精度区分":null,"座標系":"任意座標系"}},{"type":"Polygon","arcs":[[218,-217,219,220]],"properties":{"市区町村名":"小樽市","大字名":"新光","丁目名":"２丁目","小字名":null,"地番":"9-7","精度区分":null,"座標系":"任意座標系"}},{"type":"Polygon","arcs":[[221,-218,-219,222]],"properties":{"市区町村名":"小樽市","大字名":"新光","丁目名":"２丁目","小字名":null,"地番":"9-8","精度区分":null,"座標系":"任意座標系"}},{"type":"Polygon","arcs":[[223,224,-212,-222]],"properties":{"市区町村名":"小樽市","大字名":"新光","丁目名":"２丁目","小字名":null,"地番":"9-9","精度区分":null,"座標系":"任意座標系"}},{"type":"Polygon","arcs":[[225,226,227]],"properties":{"市区町村名":"小樽市","大字名":"新光","丁目名":"２丁目","小字名":null,"地番":"9-10","精度区分":null,"座標系":"任意座標系"}},{"type":"Polygon","arcs":[[228,229,230,231]],"properties":{"市区町村名":"小樽市","大字名":"新光","丁目名":"２丁目","小字名":null,"地番":"9-12","精度区分":null,"座標系":"任意座標系"}},{"type":"Polygon","arcs":[[-209,232,233,-229,234]],"properties":{"市区町村名":"小樽市","大字名":"新光","丁目名":"２丁目","小字名":null,"地番":"9-13","精度区分":null,"座標系":"任意座標系"}},{"type":"Polygon","arcs":[[235,236,237,238]],"properties":{"市区町村名":"小樽市","大字名":"新光","丁目名":"２丁目","小字名":null,"地番":"9-14","精度区分":null,"座標系":"任意座標系"}},{"type":"Polygon","arcs":[[239,-210,-235,-232,240,-237]],"properties":{"市区町村名":"小樽市","大字名":"新光","丁目名":"２丁目","小字名":null,"地番":"9-15","精度区分":null,"座標系":"任意座標系"}},{"type":"Polygon","arcs":[[241,-228,242,243,244,-213,-225]],"properties":{"市区町村名":"小樽市","大字名":"新光","丁目名":"２丁目","小字名":null,"地番":"9-16","精度区分":null,"座標系":"任意座標系"}},{"type":"Polygon","arcs":[[245,246,247,248,249]],"properties":{"市区町村名":"小樽市","大字名":"新光","丁目名":"２丁目","小字名":null,"地番":"107","精度区分":null,"座標系":"任意座標系"}},{"type":"Polygon","arcs":[[250,251,-248]],"properties":{"市区町村名":"小樽市","大字名":"新光","丁目名":"２丁目","小字名":null,"地番":"108","精度区分":null,"座標系":"任意座標系"}},{"type":"Polygon","arcs":[[252,253]],"properties":{"市区町村名":"小樽市","大字名":"新光","丁目名":"２丁目","小字名":null,"地番":"7-1","精度区分":null,"座標系":"任意座標系"}},{"type":"Polygon","arcs":[[254,-49,255,256,257]],"properties":{"市区町村名":"小樽市","大字名":"新光","丁目名":"２丁目","小字名":null,"地番":"102","精度区分":null,"座標系":"任意座標系"}},{"type":"Polygon","arcs":[[258,-255]],"properties":{"市区町村名":"小樽市","大字名":"新光","丁目名":"２丁目","小字名":null,"地番":"101","精度区分":null,"座標系":"任意座標系"}},{"type":"Polygon","arcs":[[-257,259,-251,-247,260,-40,-37,261,-66,-63,-60,-56,-51,262,263,264,265,266,267,268,269,270,271,272,273,274]],"properties":{"市区町村名":"小樽市","大字名":"新光","丁目名":"２丁目","小字名":null,"地番":"103","精度区分":null,"座標系":"任意座標系"}},{"type":"Polygon","arcs":[[-274,275,276,277]],"properties":{"市区町村名":"小樽市","大字名":"新光","丁目名":"２丁目","小字名":null,"地番":"1-1","精度区分":null,"座標系":"任意座標系"}},{"type":"Polygon","arcs":[[278,-277,279,280,281]],"properties":{"市区町村名":"小樽市","大字名":"新光","丁目名":"２丁目","小字名":null,"地番":"1-2","精度区分":null,"座標系":"任意座標系"}},{"type":"Polygon","arcs":[[282,-280,-276,-273,283,284,285,286]],"properties":{"市区町村名":"小樽市","大字名":"新光","丁目名":"２丁目","小字名":null,"地番":"1-3","精度区分":null,"座標系":"任意座標系"}},{"type":"Polygon","arcs":[[287,-284,-272,288,289]],"properties":{"市区町村名":"小樽市","大字名":"新光","丁目名":"２丁目","小字名":null,"地番":"1-4","精度区分":null,"座標系":"任意座標系"}},{"type":"Polygon","arcs":[[-289,-271,290,291]],"properties":{"市区町村名":"小樽市","大字名":"新光","丁目名":"２丁目","小字名":null,"地番":"1-5","精度区分":null,"座標系":"任意座標系"}},{"type":"Polygon","arcs":[[292,-291,-270,293,294,295,296]],"properties":{"市区町村名":"小樽市","大字名":"新光","丁目名":"２丁目","小字名":null,"地番":"1-6","精度区分":null,"座標系":"任意座標系"}},{"type":"Polygon","arcs":[[-269,297,298,-294]],"properties":{"市区町村名":"小樽市","大字名":"新光","丁目名":"２丁目","小字名":null,"地番":"1-7","精度区分":null,"座標系":"任意座標系"}},{"type":"Polygon","arcs":[[-268,299,-298]],"properties":{"市区町村名":"小樽市","大字名":"新光","丁目名":"２丁目","小字名":null,"地番":"1-8","精度区分":null,"座標系":"任意座標系"}},{"type":"Polygon","arcs":[[-300,-267,300,301,302,303]],"properties":{"市区町村名":"小樽市","大字名":"新光","丁目名":"２丁目","小字名":null,"地番":"1-9","精度区分":null,"座標系":"任意座標系"}},{"type":"Polygon","arcs":[[-266,304,305,306,-301]],"properties":{"市区町村名":"小樽市","大字名":"新光","丁目名":"２丁目","小字名":null,"地番":"1-10","精度区分":null,"座標系":"任意座標系"}},{"type":"Polygon","arcs":[[-299,-304,307,308]],"properties":{"市区町村名":"小樽市","大字名":"新光","丁目名":"２丁目","小字名":null,"地番":"1-11","精度区分":null,"座標系":"任意座標系"}},{"type":"Polygon","arcs":[[-264,309,310]],"properties":{"市区町村名":"小樽市","大字名":"新光","丁目名":"２丁目","小字名":null,"地番":"1-12","精度区分":null,"座標系":"任意座標系"}},{"type":"Polygon","arcs":[[311,312,-295,-309,313,314,315,316,317]],"properties":{"市区町村名":"小樽市","大字名":"新光","丁目名":"２丁目","小字名":null,"地番":"1-13","精度区分":null,"座標系":"任意座標系"}},{"type":"Polygon","arcs":[[318,-318,319,320]],"properties":{"市区町村名":"小樽市","大字名":"新光","丁目名":"２丁目","小字名":null,"地番":"1-14","精度区分":null,"座標系":"任意座標系"}},{"type":"Polygon","arcs":[[321,322,323,324,-321,325,326,327]],"properties":{"市区町村名":"小樽市","大字名":"新光","丁目名":"２丁目","小字名":null,"地番":"1-15","精度区分":null,"座標系":"任意座標系"}},{"type":"Polygon","arcs":[[328,329,330]],"properties":{"市区町村名":"小樽市","大字名":"新光","丁目名":"２丁目","小字名":null,"地番":"1-16","精度区分":null,"座標系":"任意座標系"}},{"type":"Polygon","arcs":[[331,-331,332,333]],"properties":{"市区町村名":"小樽市","大字名":"新光","丁目名":"２丁目","小字名":null,"地番":"1-17","精度区分":null,"座標系":"任意座標系"}},{"type":"Polygon","arcs":[[334,-334,335,336]],"properties":{"市区町村名":"小樽市","大字名":"新光","丁目名":"２丁目","小字名":null,"地番":"1-18","精度区分":null,"座標系":"任意座標系"}},{"type":"Polygon","arcs":[[337,338,339,340,341,342,-329,-332,-335,343]],"properties":{"市区町村名":"小樽市","大字名":"新光","丁目名":"２丁目","小字名":null,"地番":"1-19","精度区分":null,"座標系":"任意座標系"}},{"type":"Polygon","arcs":[[344,345,-338]],"properties":{"市区町村名":"小樽市","大字名":"新光","丁目名":"２丁目","小字名":null,"地番":"1-20","精度区分":null,"座標系":"任意座標系"}},{"type":"Polygon","arcs":[[346,347,-339,-346,348]],"properties":{"市区町村名":"小樽市","大字名":"新光","丁目名":"２丁目","小字名":null,"地番":"1-21","精度区分":null,"座標系":"任意座標系"}},{"type":"Polygon","arcs":[[349,350,351,-347]],"properties":{"市区町村名":"小樽市","大字名":"新光","丁目名":"２丁目","小字名":null,"地番":"1-22","精度区分":null,"座標系":"任意座標系"}},{"type":"Polygon","arcs":[[352,353,-351,354]],"properties":{"市区町村名":"小樽市","大字名":"新光","丁目名":"２丁目","小字名":null,"地番":"1-23","精度区分":null,"座標系":"任意座標系"}},{"type":"Polygon","arcs":[[355,356,357,-353]],"properties":{"市区町村名":"小樽市","大字名":"新光","丁目名":"２丁目","小字名":null,"地番":"1-24","精度区分":null,"座標系":"任意座標系"}},{"type":"Polygon","arcs":[[358,359,360,-357]],"properties":{"市区町村名":"小樽市","大字名":"新光","丁目名":"２丁目","小字名":null,"地番":"1-25","精度区分":null,"座標系":"任意座標系"}},{"type":"Polygon","arcs":[[361,362,363,-360,364]],"properties":{"市区町村名":"小樽市","大字名":"新光","丁目名":"２丁目","小字名":null,"地番":"1-26","精度区分":null,"座標系":"任意座標系"}},{"type":"Polygon","arcs":[[365,366,367,368,369,-362]],"properties":{"市区町村名":"小樽市","大字名":"新光","丁目名":"２丁目","小字名":null,"地番":"1-27","精度区分":null,"座標系":"任意座標系"}},{"type":"Polygon","arcs":[[370,371,-369,372,-290,-292,-293,373,374,375]],"properties":{"市区町村名":"小樽市","大字名":"新光","丁目名":"２丁目","小字名":null,"地番":"1-28","精度区分":null,"座標系":"任意座標系"}},{"type":"Polygon","arcs":[[376,-305,-265,-311,377,378,379,380,381,382]],"properties":{"市区町村名":"小樽市","大字名":"新光","丁目名":"２丁目","小字名":null,"地番":"1-29","精度区分":null,"座標系":"任意座標系"}},{"type":"Polygon","arcs":[[-306,-377,383]],"properties":{"市区町村名":"小樽市","大字名":"新光","丁目名":"２丁目","小字名":null,"地番":"1-30","精度区分":null,"座標系":"任意座標系"}},{"type":"Polygon","arcs":[[-307,-384,-383,384,-302]],"properties":{"市区町村名":"小樽市","大字名":"新光","丁目名":"２丁目","小字名":null,"地番":"1-31","精度区分":null,"座標系":"任意座標系"}},{"type":"Polygon","arcs":[[-379,385,386,387]],"properties":{"市区町村名":"小樽市","大字名":"新光","丁目名":"２丁目","小字名":null,"地番":"1-32","精度区分":null,"座標系":"任意座標系"}},{"type":"Polygon","arcs":[[388,-387,389,-316]],"properties":{"市区町村名":"小樽市","大字名":"新光","丁目名":"２丁目","小字名":null,"地番":"1-33","精度区分":null,"座標系":"任意座標系"}},{"type":"Polygon","arcs":[[390,-380,-388,391]],"properties":{"市区町村名":"小樽市","大字名":"新光","丁目名":"２丁目","小字名":null,"地番":"1-34","精度区分":null,"座標系":"任意座標系"}},{"type":"Polygon","arcs":[[392,-392,-389,-315]],"properties":{"市区町村名":"小樽市","大字名":"新光","丁目名":"２丁目","小字名":null,"地番":"1-35","精度区分":null,"座標系":"任意座標系"}},{"type":"Polygon","arcs":[[-381,-391,393]],"properties":{"市区町村名":"小樽市","大字名":"新光","丁目名":"２丁目","小字名":null,"地番":"1-36","精度区分":null,"座標系":"任意座標系"}},{"type":"Polygon","arcs":[[-308,-303,-385,-382,-394,-393,-314]],"properties":{"市区町村名":"小樽市","大字名":"新光","丁目名":"２丁目","小字名":null,"地番":"1-37","精度区分":null,"座標系":"任意座標系"}},{"type":"Polygon","arcs":[[394,395,-286,396,-367]],"properties":{"市区町村名":"小樽市","大字名":"新光","丁目名":"２丁目","小字名":null,"地番":"1-38","精度区分":null,"座標系":"任意座標系"}},{"type":"Polygon","arcs":[[-370,-372,397,-363]],"properties":{"市区町村名":"小樽市","大字名":"新光","丁目名":"２丁目","小字名":null,"地番":"1-39","精度区分":null,"座標系":"任意座標系"}},{"type":"Polygon","arcs":[[-352,-354,-358,-361,-364,-398,-371,398,-340,-348]],"properties":{"市区町村名":"小樽市","大字名":"新光","丁目名":"２丁目","小字名":null,"地番":"1-40","精度区分":null,"座標系":"任意座標系"}},{"type":"Polygon","arcs":[[-342,399,-328,400]],"properties":{"市区町村名":"小樽市","大字名":"新光","丁目名":"２丁目","小字名":null,"地番":"1-41","精度区分":null,"座標系":"任意座標系"}},{"type":"Polygon","arcs":[[-341,-399,-376,401,-322,-400]],"properties":{"市区町村名":"小樽市","大字名":"新光","丁目名":"２丁目","小字名":null,"地番":"1-42","精度区分":null,"座標系":"任意座標系"}},{"type":"Polygon","arcs":[[-375,402,-323,-402]],"properties":{"市区町村名":"小樽市","大字名":"新光","丁目名":"２丁目","小字名":null,"地番":"1-43","精度区分":null,"座標系":"任意座標系"}},{"type":"Polygon","arcs":[[-403,403,404,405,-324]],"properties":{"市区町村名":"小樽市","大字名":"新光","丁目名":"２丁目","小字名":null,"地番":"1-44","精度区分":null,"座標系":"任意座標系"}},{"type":"Polygon","arcs":[[406,-282,407,408]],"properties":{"市区町村名":"小樽市","大字名":"新光","丁目名":"２丁目","小字名":null,"地番":"1-45","精度区分":null,"座標系":"任意座標系"}},{"type":"Polygon","arcs":[[-281,-283,409,-408]],"properties":{"市区町村名":"小樽市","大字名":"新光","丁目名":"２丁目","小字名":null,"地番":"1-46","精度区分":null,"座標系":"任意座標系"}},{"type":"Polygon","arcs":[[-374,-297,410,-404]],"properties":{"市区町村名":"小樽市","大字名":"新光","丁目名":"２丁目","小字名":null,"地番":"1-48","精度区分":null,"座標系":"任意座標系"}},{"type":"Polygon","arcs":[[-406,411,-312,-319,-325]],"properties":{"市区町村名":"小樽市","大字名":"新光","丁目名":"２丁目","小字名":null,"地番":"1-49","精度区分":null,"座標系":"任意座標系"}},{"type":"Polygon","arcs":[[-411,-296,-313,-412,-405]],"properties":{"市区町村名":"小樽市","大字名":"新光","丁目名":"２丁目","小字名":null,"地番":"1-50","精度区分":null,"座標系":"任意座標系"}},{"type":"Polygon","arcs":[[-285,-288,-373,-368,-397]],"properties":{"市区町村名":"小樽市","大字名":"新光","丁目名":"２丁目","小字名":null,"地番":"1-51","精度区分":null,"座標系":"任意座標系"}},{"type":"Polygon","arcs":[[412,-409,-410,-287,-396]],"properties":{"市区町村名":"小樽市","大字名":"新光","丁目名":"２丁目","小字名":null,"地番":"1-47","精度区分":null,"座標系":"任意座標系"}},{"type":"Polygon","arcs":[[-239,413,414,415]],"properties":{"市区町村名":"小樽市","大字名":"新光","丁目名":"２丁目","小字名":null,"地番":"9-11","精度区分":null,"座標系":"任意座標系"}},{"type":"Polygon","arcs":[[-415,416,-243,-227,417]],"properties":{"市区町村名":"小樽市","大字名":"新光","丁目名":"２丁目","小字名":null,"地番":"9-17","精度区分":null,"座標系":"任意座標系"}},{"type":"Polygon","arcs":[[418,419,420,421,422,-206,-204,-202,-201,-199,-195,-193,-189,-187,423,-253,424,-109,-87,-157,-112,-119,-101,425,-67,-262,-36,-33,426,-18,-19,-13,427,-211,-240,-236,-416,-418,-226,-242,-224,-223,-221,428,-250,429]],"properties":{"市区町村名":"小樽市","大字名":"新光","丁目名":"２丁目","小字名":null,"地番":"105","精度区分":null,"座標系":"任意座標系"}},{"type":"Polygon","arcs":[[430,431,-419,432]],"properties":{"市区町村名":"小樽市","大字名":"新光","丁目名":"２丁目","小字名":null,"地番":"6-3","精度区分":null,"座標系":"任意座標系"}},{"type":"Polygon","arcs":[[-432,433,434,-336,-333,-330,-343,-401,-327,435,-420]],"properties":{"市区町村名":"小樽市","大字名":"新光","丁目名":"２丁目","小字名":null,"地番":"6-2","精度区分":null,"座標系":"任意座標系"}},{"type":"Polygon","arcs":[[-431,436,-434]],"properties":{"市区町村名":"小樽市","大字名":"新光","丁目名":"２丁目","小字名":null,"地番":"6-4","精度区分":null,"座標系":"任意座標系"}},{"type":"Polygon","arcs":[[437,438,439]],"properties":{"市区町村名":"小樽市","大字名":"新光","丁目名":"２丁目","小字名":null,"地番":"9-18","精度区分":null,"座標系":"任意座標系"}},{"type":"Polygon","arcs":[[-439,440,-215,441]],"properties":{"市区町村名":"小樽市","大字名":"新光","丁目名":"２丁目","小字名":null,"地番":"9-5","精度区分":null,"座標系":"任意座標系"}},{"type":"Polygon","arcs":[[-245,442,443,-440,-442,-214]],"properties":{"市区町村名":"小樽市","大字名":"新光","丁目名":"２丁目","小字名":null,"地番":"9-4","精度区分":null,"座標系":"任意座標系"}},{"type":"Polygon","arcs":[[444,445,446,447,-443,-244,-417,-414,-238,-241,-231]],"properties":{"市区町村名":"小樽市","大字名":"新光","丁目名":"２丁目","小字名":null,"地番":"9-2","精度区分":null,"座標系":"任意座標系"}},{"type":"Polygon","arcs":[[448,449,-447]],"properties":{"市区町村名":"小樽市","大字名":"新光","丁目名":"２丁目","小字名":null,"地番":"9-20","精度区分":null,"座標系":"任意座標系"}},{"type":"Polygon","arcs":[[450,451,-449,-446]],"properties":{"市区町村名":"小樽市","大字名":"新光","丁目名":"２丁目","小字名":null,"地番":"9-19","精度区分":null,"座標系":"任意座標系"}},{"type":"Polygon","arcs":[[-216,-441,-438,-444,-448,-450,-452,452,-233,-208,-428,-15,-11,-9,-5,-1,-16,-427,-35,-32,-44,-47,-45,-27,-21,-41,-261,-246,-429,-220]],"properties":{"市区町村名":"小樽市","大字名":"新光","丁目名":"２丁目","小字名":null,"地番":"106","精度区分":null,"座標系":"任意座標系"}},{"type":"Polygon","arcs":[[-234,-453,-451,-445,-230]],"properties":{"市区町村名":"小樽市","大字名":"新光","丁目名":"２丁目","小字名":null,"地番":"9-3","精度区分":null,"座標系":"任意座標系"}},{"type":"Polygon","arcs":[[453,454,455,456,457]],"properties":{"市区町村名":"小樽市","大字名":"新光","丁目名":"２丁目","小字名":null,"地番":"8-19","精度区分":null,"座標系":"任意座標系"}},{"type":"Polygon","arcs":[[-458,458,459]],"properties":{"市区町村名":"小樽市","大字名":"新光","丁目名":"２丁目","小字名":null,"地番":"8-20","精度区分":null,"座標系":"任意座標系"}},{"type":"Polygon","arcs":[[460,-166,461,-455]],"properties":{"市区町村名":"小樽市","大字名":"新光","丁目名":"２丁目","小字名":null,"地番":"8-1","精度区分":null,"座標系":"任意座標系"}},{"type":"Polygon","arcs":[[-436,-326,-320,-317,-390,-386,-378,-310,-263,-50,-78,-77,-75,-73,-70,-68,-426,-100,-106,-143,-139,-135,-131,-130,-160,-163,-90,-164,-149,-153,-155,-165,-123,-84,-116,-117,-110,-425,-254,-424,-186,-180,-176,-171,-167,-461,-454,-460,462,-421]],"properties":{"市区町村名":"小樽市","大字名":"新光","丁目名":"２丁目","小字名":null,"地番":"104","精度区分":null,"座標系":"任意座標系"}},{"type":"Polygon","arcs":[[-459,-457,463,-422,-463]],"properties":{"市区町村名":"小樽市","大字名":"新光","丁目名":"２丁目","小字名":null,"地番":"8-17","精度区分":null,"座標系":"任意座標系"}},{"type":"Polygon","arcs":[[-456,-462,-170,-207,-423,-464]],"properties":{"市区町村名":"小樽市","大字名":"新光","丁目名":"２丁目","小字名":null,"地番":"8-18","精度区分":null,"座標系":"任意座標系"}}]}},"arcs":[[[712266,353970],[24715,-22052]],[[736981,331918],[-23593,-41233],[-1839,1643]],[[711549,292328],[369,668],[-12578,38602],[12926,22372]],[[671368,219421],[40181,72907]],[[736981,331918],[61336,-55041],[-547,-7294],[-107598,-66192]],[[690172,203391],[-18804,16030]],[[617962,208809],[20724,38476]],[[638686,247285],[32682,-27864]],[[690172,203391],[-35269,-21696],[-6103,807],[-30838,26307]],[[563051,311765],[75635,-64480]],[[617962,208809],[-75657,64549]],[[542305,273358],[20746,38407]],[[529031,291967],[22021,30029]],[[551052,321996],[11999,-10231]],[[542305,273358],[-12498,10666],[-776,7943]],[[627031,424188],[6112,381],[79123,-70599]],[[711549,292328],[-109771,98021]],[[601778,390349],[25253,33839]],[[551052,321996],[50726,68353]],[[848174,373009],[51188,-40992]],[[899362,332017],[-10934,-6713]],[[888428,325304],[-41130,36486]],[[847298,361790],[-3513,3115]],[[843785,364905],[4389,8104]],[[803657,290840],[18107,33424]],[[821764,324264],[2464,-2181],[23070,39707]],[[888428,325304],[-69684,-42768],[-6248,388],[-8839,7916]],[[821764,324264],[22021,40641]],[[714860,370363],[44708,77797]],[[759568,448160],[47971,-42777]],[[807539,405383],[-42464,-79990]],[[765075,325393],[-50215,44970]],[[641226,443379],[51593,69810]],[[692819,513189],[72908,-54313],[-6159,-10716]],[[714860,370363],[-73380,65649],[-254,7367]],[[692819,513189],[43093,58169]],[[735912,571358],[121605,-90745]],[[857517,480613],[-39851,-83171]],[[817666,397442],[-10127,7941]],[[857517,480613],[83280,-62228]],[[940797,418385],[-41435,-86368]],[[848174,373009],[-30508,24433]],[[843785,364905],[-29621,26325],[-42065,-72125]],[[772099,319105],[-7024,6288]],[[803657,290840],[-24603,22034]],[[779054,312874],[18844,32520],[23866,-21130]],[[779054,312874],[-6955,6231]],[[954008,482314],[3886,4240],[42105,-30181],[-2984,-6253]],[[997015,450120],[-43007,32194]],[[509320,683215],[23088,40966]],[[532408,724181],[28153,-21166]],[[560561,703015],[-23675,-43726]],[[536886,659289],[-27566,23926]],[[502178,595189],[16709,30862]],[[518887,626051],[17999,33238]],[[560561,703015],[4354,-3273]],[[564915,699742],[-61664,-114248]],[[503251,585494],[-4529,3313]],[[498722,588807],[3456,6382]],[[564915,699742],[19267,-14486]],[[584182,685256],[-61356,-114076]],[[522826,571180],[-19575,14314]],[[584182,685256],[23795,-17891]],[[607977,667365],[-61195,-113703]],[[546782,553662],[-23956,17518]],[[607977,667365],[109977,-82684]],[[717954,584681],[-84669,-113868],[-9928,-13745]],[[623357,457068],[-6044,-700],[-43083,35891]],[[574230,492259],[13987,26947],[-41435,34456]],[[574230,492259],[-41649,34698]],[[532581,526957],[14201,26705]],[[486221,565544],[12501,23263]],[[532581,526957],[-46360,38587]],[[473652,619922],[28526,-24733]],[[486221,565544],[-25943,21580],[-1369,6641],[14743,26157]],[[490797,650347],[28090,-24296]],[[473652,619922],[17145,30425]],[[490797,650347],[18523,32868]],[[486494,423942],[40165,-34068]],[[526659,389874],[21927,-18599]],[[548586,371275],[672,-6736]],[[549258,364539],[-37943,32609],[-17180,-31418]],[[494135,365730],[-15280,12869],[-21691,-33421]],[[457164,345178],[-10095,8617]],[[447069,353795],[39425,70147]],[[549258,364539],[633,-6355]],[[549891,358184],[-16998,-22892]],[[532893,335292],[-30473,31433],[-3423,-5090]],[[498997,361635],[-4862,4095]],[[400563,490355],[12339,21841]],[[412902,512196],[1002,-8132],[2244,-1907]],[[416148,502157],[15305,-13008]],[[431453,489149],[20377,-17320]],[[451830,471829],[8041,-6832]],[[459871,464997],[-7051,-12471]],[[452820,452526],[-7492,6363]],[[445328,458889],[-21052,17873]],[[424276,476762],[-15288,12978]],[[408988,489740],[-2261,1920],[-6164,-1305]],[[575501,472634],[32894,-27465],[859,-7401]],[[609254,437768],[-42930,-57453]],[[566324,380315],[-5500,-1025],[-25769,21864]],[[535055,401154],[40446,71480]],[[492099,437606],[20011,35343]],[[512110,472949],[20147,35794]],[[532257,508743],[43244,-36109]],[[535055,401154],[-1407,1193]],[[533648,402347],[-41549,35259]],[[532893,335292],[-21795,-29770]],[[511098,305522],[-6287,-1008],[-27813,23735]],[[476998,328249],[21999,33386]],[[552525,361731],[-656,-883]],[[551869,360848],[-82,1518]],[[551787,362366],[738,-635]],[[494135,365730],[-19424,-35528]],[[474711,330202],[-17547,14976]],[[476998,328249],[-2287,1953]],[[526659,389874],[6989,12473]],[[566324,380315],[-13799,-18584]],[[551787,362366],[-352,6492],[-2849,2417]],[[452820,452526],[31923,-27099]],[[484743,425427],[1751,-1485]],[[447069,353795],[-33772,28820]],[[413297,382615],[39523,69911]],[[459871,464997],[12123,-10302]],[[471994,454695],[19875,-16894]],[[491869,437801],[-7126,-12374]],[[466516,563635],[-19976,-35394]],[[446540,528241],[-16645,14040]],[[429895,542281],[17282,30592],[6419,1549],[12920,-10787]],[[466516,563635],[16300,-13611]],[[482816,550024],[-19982,-35523]],[[462834,514501],[-11950,10077]],[[450884,524578],[-4344,3663]],[[482816,550024],[16429,-13717]],[[499245,536307],[-19948,-35688]],[[479297,500619],[-7883,6649]],[[471414,507268],[-8580,7233]],[[499245,536307],[16343,-13646]],[[515588,522661],[-19978,-35797]],[[495610,486864],[-3896,3285]],[[491714,490149],[-12417,10470]],[[515588,522661],[16669,-13918]],[[512110,472949],[-16500,13915]],[[491869,437801],[230,-195]],[[398871,487359],[10117,2381]],[[424276,476762],[-19703,-35147]],[[404573,441615],[-21355,18030]],[[383218,459645],[15653,27714]],[[445328,458889],[-19714,-35041]],[[425614,423848],[-21041,17767]],[[404573,441615],[-19547,-34871]],[[385026,406744],[-17245,14718],[-1295,8566],[16732,29617]],[[425614,423848],[-19667,-34959]],[[405947,388889],[-20921,17855]],[[551787,362366],[-2529,2173]],[[551869,360848],[-1978,-2664]],[[450884,524578],[-19431,-35429]],[[416148,502157],[-1665,12837]],[[414483,514994],[15412,27287]],[[471414,507268],[-19584,-35439]],[[491714,490149],[-19720,-35454]],[[412902,512196],[1581,2798]],[[398871,487359],[1692,2996]],[[413297,382615],[-7350,6274]],[[293608,211784],[20850,36262]],[[314458,248046],[13124,-11790]],[[327582,236256],[-20783,-36226]],[[306799,200030],[-11075,9868]],[[295724,209898],[-2116,1886]],[[327582,236256],[22687,-20384]],[[350269,215872],[-20771,-36069]],[[329498,179803],[-20039,17856]],[[309459,197659],[-1813,1617]],[[307646,199276],[-847,754]],[[350269,215872],[10496,-9432]],[[360765,206440],[-20642,-36107]],[[340123,170333],[-8236,7340]],[[331887,177673],[-2389,2130]],[[360765,206440],[19168,-17220]],[[379933,189220],[-20803,-35826]],[[359130,153394],[-1096,978]],[[358034,154372],[-1279,1140]],[[356755,155512],[-4083,3638]],[[352672,159150],[-12549,11183]],[[379933,189220],[23288,-20925],[830,-7520]],[[404051,160775],[-21153,-28562]],[[382898,132213],[-23768,21181]],[[382898,132213],[-5004,-6756]],[[377894,125457],[-16270,13344],[-7893,-10221],[-6572,5390]],[[347159,133970],[10875,20402]],[[339153,118956],[8006,15014]],[[377894,125457],[-15068,-20345],[-5967,-887],[-17706,14731]],[[345086,135671],[2073,-1701]],[[339153,118956],[-2619,2180]],[[336534,121136],[8552,14535]],[[345086,135671],[11669,19841]],[[333586,123589],[19086,35561]],[[336534,121136],[-2948,2453]],[[312257,141338],[19630,36335]],[[333586,123589],[-21329,17749]],[[312257,141338],[-22699,18886]],[[289558,160224],[19901,37435]],[[289558,160224],[-2196,1825]],[[287362,162049],[20284,37227]],[[287362,162049],[-11907,9909]],[[275455,171958],[20269,37940]],[[514796,272332],[6083,678],[27277,-23293]],[[548156,249717],[-19671,-26457]],[[528485,223260],[-26937,31283]],[[501548,254543],[13248,17789]],[[422590,84923],[20828,27470]],[[443418,112393],[1482,-1706]],[[444900,110687],[15398,-17716]],[[460298,92971],[17124,-19701]],[[477422,73270],[-23545,-14423]],[[453877,58847],[-21668,18061]],[[432209,76908],[-9619,8015]],[[419332,52596],[12877,24312]],[[453877,58847],[-10785,-19607],[-5918,-1397]],[[437174,37843],[-17842,14753]],[[393368,109280],[29222,-24357]],[[419332,52596],[-37959,31383],[-1151,7651],[13146,17650]],[[393368,109280],[24342,32687]],[[417710,141967],[25708,-29574]],[[420653,145918],[18052,24240]],[[438705,170158],[13993,-16385]],[[452698,153773],[-18001,-24167],[-14044,16312]],[[523561,216636],[27165,-23159]],[[550726,193477],[-6747,-12232]],[[543979,181245],[-28540,24195]],[[515439,205440],[8122,11196]],[[548156,249717],[22787,-19458]],[[570943,230259],[-20217,-36782]],[[523561,216636],[4924,6624]],[[463626,203622],[20310,27275]],[[483936,230897],[27025,-31456]],[[510961,199441],[-20139,-26975]],[[490822,172466],[-27196,31156]],[[483936,230897],[17612,23646]],[[515439,205440],[-4478,-5999]],[[417710,141967],[2943,3951]],[[452698,153773],[13009,-14951]],[[465707,138822],[-2189,-2960]],[[463518,135862],[-18618,-25175]],[[450924,26241],[11374,20415],[188402,115497],[257337,158297],[43399,89986]],[[951436,410436],[12286,-9181]],[[963722,401255],[-45388,-94253],[-254214,-156309],[-192250,-117831],[-14370,-25682]],[[457500,7180],[-5048,5854],[-6081,5032]],[[446371,18066],[4553,8175]],[[963722,401255],[7356,-5496]],[[971078,395759],[-41710,-85977],[-14618,-16675],[-86174,-52781],[-156804,-96165],[-193666,-118296],[-7440,-13257],[-6977,-12608],[-6189,7180]],[[497349,286308],[-79307,-106241]],[[418042,180067],[-6189,-782],[-120171,108273],[-1071,7674],[64136,113200],[6332,1211],[135470,-115911],[800,-7424]],[[258987,983753],[298250,-215514],[211174,-153013],[156733,-112591],[28864,-20321]],[[997015,450120],[-14695,-30801]],[[982320,419319],[-57037,41248],[-177186,127237],[-208089,149866],[-146121,105538],[-149345,107302]],[[244542,950510],[14445,33243]],[[258987,983753],[7059,16246],[253766,-190723],[42299,-32387],[78090,-59070],[131246,-98496],[154188,-115586],[28373,-21423]],[[982320,419319],[-11242,-23560]],[[951436,410436],[-10639,7949]],[[735912,571358],[-17834,13232],[-124,91]],[[532408,724181],[-10594,7964]],[[521814,732145],[-12437,9399]],[[509377,741544],[-36171,27310]],[[473206,768854],[-19111,14430]],[[454095,783284],[-18612,14053]],[[435483,797337],[-25481,19239]],[[410002,816576],[-12101,9137]],[[397901,825713],[-28697,21668]],[[369204,847381],[-22249,16797]],[[346955,864178],[-31421,23725]],[[315534,887903],[-52380,39550]],[[263154,927453],[-14176,10703],[-11529,-3968]],[[237449,934188],[7093,16322]],[[263154,927453],[-14093,-31893]],[[249061,895560],[-21746,15327]],[[227315,910887],[10134,23301]],[[214603,881658],[12712,29229]],[[249061,895560],[-12848,-29077]],[[236213,866483],[-1147,808]],[[235066,867291],[-20463,14367]],[[229110,829742],[14088,31836],[-6985,4905]],[[315534,887903],[-45040,-92433]],[[270494,795470],[-28377,19504]],[[242117,814974],[-14985,10299]],[[227132,825273],[1978,4469]],[[261515,777044],[8979,18426]],[[346955,864178],[-54065,-111040]],[[292890,753138],[-31375,23906]],[[369204,847381],[-54165,-111118]],[[315039,736263],[-22149,16875]],[[310837,710316],[10267,21329],[-6065,4618]],[[397901,825713],[-49618,-102972],[37053,-28480]],[[385336,694261],[-40346,-82927]],[[344990,611334],[-36674,28257]],[[308316,639591],[25679,53401],[-23158,17324]],[[410002,816576],[-31676,-65433],[25400,-19082]],[[403726,732061],[-18390,-37800]],[[435483,797337],[-31757,-65276]],[[454095,783284],[-12985,-26992]],[[441110,756292],[-18630,-38321]],[[422480,717971],[-17917,13461]],[[404563,731432],[-837,629]],[[473206,768854],[-12973,-26780]],[[460233,742074],[-17512,13019]],[[442721,755093],[-1611,1199]],[[404563,731432],[-18337,-37846]],[[386226,693586],[-890,675]],[[521814,732145],[-17690,-31402]],[[504124,700743],[-10791,7890],[16044,32911]],[[336129,593123],[684,1406]],[[336813,594529],[8177,16805]],[[386226,693586],[31034,-23581]],[[417260,670005],[15733,-11952]],[[432993,658053],[32969,-25051]],[[465962,633002],[-54420,-96599]],[[411542,536403],[-75413,56720]],[[320497,560989],[15632,32134]],[[411542,536403],[-17598,-31234]],[[393944,505169],[-73447,55820]],[[231967,628273],[6256,-4756]],[[238223,623517],[22532,-17124]],[[260755,606393],[23139,-17586]],[[283894,588807],[36603,-27818]],[[393944,505169],[-25277,-44643]],[[368667,460526],[-159572,121182]],[[209095,581708],[22872,46565]],[[150457,613791],[23634,-15903]],[[174091,597888],[-17083,-35023],[-22412,14944]],[[134596,577809],[15861,35982]],[[131896,626282],[18561,-12491]],[[134596,577809],[-18510,12341]],[[116086,590150],[15810,36132]],[[109956,641045],[21940,-14763]],[[116086,590150],[-21911,14608]],[[94175,604758],[15781,36287]],[[124695,674931],[30222,-21062],[19294,44566]],[[174211,698435],[2018,4661]],[[176229,703096],[37148,-24814]],[[213377,678282],[-11553,-23677]],[[201824,654605],[-23974,-49007]],[[177850,605598],[-3759,-7710]],[[109956,641045],[14739,33886]],[[124695,674931],[19255,44274]],[[143950,719205],[30261,-20770]],[[146382,724795],[30222,-20831]],[[176604,703964],[-375,-868]],[[143950,719205],[2432,5590]],[[146382,724795],[7156,16457]],[[153538,741252],[30226,-20750]],[[183764,720502],[-7160,-16538]],[[155430,745601],[30230,-20722]],[[185660,724879],[-1896,-4377]],[[153538,741252],[1892,4349]],[[155430,745601],[1171,2691]],[[156601,748292],[30208,-20760]],[[186809,727532],[-1149,-2653]],[[156601,748292],[10370,23842]],[[166971,772134],[30120,-20849],[-9162,-21163]],[[187929,730122],[-1120,-2590]],[[170409,780042],[33959,-23458]],[[204368,756584],[-12973,-28785]],[[191395,727799],[-3466,2323]],[[166971,772134],[3438,7908]],[[170409,780042],[12628,29034]],[[183037,809076],[43040,-29742]],[[226077,779334],[27345,-18896]],[[253422,760438],[-13759,-28237]],[[239663,732201],[-35295,24383]],[[224452,700986],[1709,3506]],[[226161,704492],[13502,27709]],[[253422,760438],[8093,16606]],[[310837,710316],[-26236,-54444]],[[284601,655872],[-22693,17020]],[[261908,672892],[-37456,28094]],[[436312,742019],[17478,-13250],[6443,13305]],[[504124,700743],[-16685,-29615]],[[487439,671128],[-35615,27056]],[[451824,698184],[-15799,12000]],[[436025,710184],[-7580,5758]],[[428445,715942],[-3578,2720]],[[424867,718662],[11445,23357]],[[436312,742019],[6409,13074]],[[424867,718662],[-890,-1816],[-1497,1125]],[[487439,671128],[-4692,-8330]],[[482747,662798],[-35061,26566]],[[447686,689364],[4138,8820]],[[432993,658053],[14693,31311]],[[482747,662798],[-16785,-29796]],[[431891,701332],[4134,8852]],[[447686,689364],[-15795,11968]],[[417260,670005],[14631,31327]],[[431891,701332],[-7721,5849],[4275,8761]],[[183037,809076],[15571,35802]],[[198608,844878],[28524,-19605]],[[242117,814974],[-16040,-35640]],[[226161,704492],[-34766,23307]],[[224452,700986],[-11075,-22704]],[[201824,654605],[31456,-23662],[-1313,-2670]],[[209095,581708],[-31245,23890]],[[261908,672892],[-23685,-49375]],[[284601,655872],[-23846,-49479]],[[284601,655872],[23182,-17391]],[[307783,638481],[-7696,-16002]],[[300087,622479],[-16193,-33672]],[[200596,849448],[14007,32210]],[[235066,867291],[-14117,-31908]],[[220949,835383],[-20353,14065]],[[229110,829742],[-8161,5641]],[[308316,639591],[-533,-1110]],[[300087,622479],[36726,-27950]],[[198608,844878],[1988,4570]],[[490822,172466],[-12557,-16822]],[[478265,155644],[-27098,31247]],[[451167,186891],[12459,16731]],[[478265,155644],[-12558,-16822]],[[438705,170158],[12462,16733]],[[3861,396505],[51280,-42418]],[[55141,354087],[169582,-140272]],[[224723,213815],[17669,-14346]],[[242392,199469],[21304,-17726]],[[263696,181743],[11759,-9785]],[[404051,160775],[13991,19292]],[[497349,286308],[13749,19214]],[[609254,437768],[14103,19300]],[[641226,443379],[-14195,-19191]],[[529031,291967],[-14235,-19635]],[[437174,37843],[13750,-11602]],[[446371,18066],[-208195,172481],[-238176,197065],[3861,8893]],[[58349,522019],[59277,-39979]],[[117626,482040],[-62485,-127953]],[[3861,396505],[54488,125514]],[[117626,482040],[5279,10810],[28704,58779],[-62150,42057]],[[89459,593686],[4716,11072]],[[368667,460526],[-138079,-245037],[-5865,-1674]],[[58349,522019],[4834,11137],[26276,60530]],[[498182,85987],[-10498,-6431]],[[487684,79556],[-19871,23296]],[[467813,102852],[7401,9731],[22968,-26596]],[[487684,79556],[-10262,-6286]],[[460298,92971],[7515,9881]],[[463518,135862],[40468,-46321]],[[503986,89541],[-5804,-3554]],[[543979,181245],[6544,-5580]],[[550523,175665],[-13944,-25718]],[[536579,149947],[-7124,6014],[-9716,-17693],[27201,-22415]],[[546940,115853],[-42954,-26312]],[[536579,149947],[27751,-23441]],[[564330,126506],[-17390,-10653]],[[550523,175665],[39323,-33528]],[[589846,142137],[-25516,-15631]],[[589846,142137],[44431,27219],[0,6819],[-63334,54084]],[[296633,264063],[15367,-13808]],[[312000,250255],[-20744,-36374]],[[291256,213881],[-7148,6370]],[[284108,220251],[-8252,7335]],[[275856,227586],[20777,36477]],[[275856,227586],[-15435,13715]],[[260421,241301],[17926,31869],[6339,1628],[11947,-10735]],[[312000,250255],[2458,-2209]],[[293608,211784],[-2352,2097]],[[260421,241301],[-19229,-34191],[1200,-7641]],[[284108,220251],[-20412,-38508]]],"bbox":[4218.415,1033.613,4709.446,1427.499],"transform":{"scale":[0.000491031491031491,0.00039388639388639385],"translate":[4218.415,1033.613]}}