{"type":"Topology","objects":{"01229-4500-10.featurecollection":{"type":"GeometryCollection","geometries":[{"type":"Polygon","arcs":[[0,1]],"properties":{"市区町村名":"富良野市","大字名":null,"丁目名":null,"小字名":null,"地番":"2282-17","精度区分":null,"座標系":"任意座標系"}},{"type":"Polygon","arcs":[[2,3]],"properties":{"市区町村名":"富良野市","大字名":null,"丁目名":null,"小字名":null,"地番":"2282-36","精度区分":null,"座標系":"任意座標系"}},{"type":"Polygon","arcs":[[4,5,6]],"properties":{"市区町村名":"富良野市","大字名":null,"丁目名":null,"小字名":null,"地番":"2282-37","精度区分":null,"座標系":"任意座標系"}},{"type":"Polygon","arcs":[[7,8,9]],"properties":{"市区町村名":"富良野市","大字名":null,"丁目名":null,"小字名":null,"地番":"2282-26","精度区分":null,"座標系":"任意座標系"}},{"type":"Polygon","arcs":[[10,11,12]],"properties":{"市区町村名":"富良野市","大字名":null,"丁目名":null,"小字名":null,"地番":"2282-32","精度区分":null,"座標系":"任意座標系"}},{"type":"Polygon","arcs":[[13,14,-8,15,16,-12]],"properties":{"市区町村名":"富良野市","大字名":null,"丁目名":null,"小字名":null,"地番":"2282-16","精度区分":null,"座標系":"任意座標系"}},{"type":"Polygon","arcs":[[17,18,-15,19]],"properties":{"市区町村名":"富良野市","大字名":null,"丁目名":null,"小字名":null,"地番":"2282-34","精度区分":null,"座標系":"任意座標系"}},{"type":"Polygon","arcs":[[-10,20,21]],"properties":{"市区町村名":"富良野市","大字名":null,"丁目名":null,"小字名":null,"地番":"2282-24","精度区分":null,"座標系":"任意座標系"}},{"type":"Polygon","arcs":[[22,23,-18,24]],"properties":{"市区町村名":"富良野市","大字名":null,"丁目名":null,"小字名":null,"地番":"2282-33","精度区分":null,"座標系":"任意座標系"}},{"type":"Polygon","arcs":[[25,-25,26]],"properties":{"市区町村名":"富良野市","大字名":null,"丁目名":null,"小字名":null,"地番":"2282-31","精度区分":null,"座標系":"任意座標系"}},{"type":"Polygon","arcs":[[-27,-20,-14,-11,27,28,29]],"properties":{"市区町村名":"富良野市","大字名":null,"丁目名":null,"小字名":null,"地番":"2282-30","精度区分":null,"座標系":"任意座標系"}},{"type":"Polygon","arcs":[[30,31,32,33]],"properties":{"市区町村名":"富良野市","大字名":null,"丁目名":null,"小字名":null,"地番":"長狭物不明-1","精度区分":null,"座標系":"任意座標系"}},{"type":"Polygon","arcs":[[34,-16]],"properties":{"市区町村名":"富良野市","大字名":null,"丁目名":null,"小字名":null,"地番":"2282-7","精度区分":null,"座標系":"任意座標系"}},{"type":"Polygon","arcs":[[35,-34,36]],"properties":{"市区町村名":"富良野市","大字名":null,"丁目名":null,"小字名":null,"地番":"2282-18","精度区分":null,"座標系":"任意座標系"}},{"type":"Polygon","arcs":[[37,-28,-13,38]],"properties":{"市区町村名":"富良野市","大字名":null,"丁目名":null,"小字名":null,"地番":"2282-29","精度区分":null,"座標系":"任意座標系"}},{"type":"Polygon","arcs":[[39,40,41]],"properties":{"市区町村名":"富良野市","大字名":null,"丁目名":null,"小字名":null,"地番":"2282-40","精度区分":null,"座標系":"任意座標系"}},{"type":"Polygon","arcs":[[-42,42,43,44,45]],"properties":{"市区町村名":"富良野市","大字名":null,"丁目名":null,"小字名":null,"地番":"2282-41","精度区分":null,"座標系":"任意座標系"}},{"type":"Polygon","arcs":[[46,47,48,-44]],"properties":{"市区町村名":"富良野市","大字名":null,"丁目名":null,"小字名":null,"地番":"2282-42","精度区分":null,"座標系":"任意座標系"}},{"type":"Polygon","arcs":[[-32,49,50,-47,-43,-41,51]],"properties":{"市区町村名":"富良野市","大字名":null,"丁目名":null,"小字名":null,"地番":"2282-38","精度区分":null,"座標系":"任意座標系"}},{"type":"Polygon","arcs":[[-19,52,53,-9]],"properties":{"市区町村名":"富良野市","大字名":null,"丁目名":null,"小字名":null,"地番":"2282-27","精度区分":null,"座標系":"任意座標系"}},{"type":"Polygon","arcs":[[54,55,56]],"properties":{"市区町村名":"富良野市","大字名":null,"丁目名":null,"小字名":null,"地番":"2282-43","精度区分":null,"座標系":"任意座標系"}},{"type":"Polygon","arcs":[[-45,-49,-55,57,58]],"properties":{"市区町村名":"富良野市","大字名":null,"丁目名":null,"小字名":null,"地番":"2282-44","精度区分":null,"座標系":"任意座標系"}},{"type":"Polygon","arcs":[[59,-59,60,61,62]],"properties":{"市区町村名":"富良野市","大字名":null,"丁目名":null,"小字名":null,"地番":"2282-13","精度区分":null,"座標系":"任意座標系"}},{"type":"Polygon","arcs":[[-62,63,64,65,-7]],"properties":{"市区町村名":"富良野市","大字名":null,"丁目名":null,"小字名":null,"地番":"2282-35","精度区分":null,"座標系":"任意座標系"}},{"type":"Polygon","arcs":[[-64,-61,66]],"properties":{"市区町村名":"富良野市","大字名":null,"丁目名":null,"小字名":null,"地番":"2282-45","精度区分":null,"座標系":"任意座標系"}},{"type":"Polygon","arcs":[[-54,-63,-6,-21]],"properties":{"市区町村名":"富良野市","大字名":null,"丁目名":null,"小字名":null,"地番":"2282-25","精度区分":null,"座標系":"任意座標系"}},{"type":"Polygon","arcs":[[67,-46,-60,-53,-24]],"properties":{"市区町村名":"富良野市","大字名":null,"丁目名":null,"小字名":null,"地番":"2282-15","精度区分":null,"座標系":"任意座標系"}},{"type":"Polygon","arcs":[[-37,-33,-52,-40,-68,-23,-26,-30,68]],"properties":{"市区町村名":"富良野市","大字名":null,"丁目名":null,"小字名":null,"地番":"2282-4","精度区分":null,"座標系":"任意座標系"}},{"type":"Polygon","arcs":[[-51,69,-56,-48]],"properties":{"市区町村名":"富良野市","大字名":null,"丁目名":null,"小字名":null,"地番":"2282-39","精度区分":null,"座標系":"任意座標系"}},{"type":"Polygon","arcs":[[-35,-22,-5,-66,70,-3,71,-2,72,-39,-17]],"properties":{"市区町村名":"富良野市","大字名":null,"丁目名":null,"小字名":null,"地番":"2282-1","精度区分":null,"座標系":"任意座標系"}}]}},"arcs":[[[364520,963991],[4158,6542],[33595,-2781],[34924,-21838],[18146,-10882],[35187,-42892],[39736,-47826],[28477,16185],[74042,44926],[41094,28326],[118142,66248],[53591,-47583]],[[845612,952416],[-35615,23941],[-229075,-116645],[-26480,-22955],[-19133,-9477],[-67175,76806],[-33179,36049],[-70435,23856]],[[28033,457917],[284106,72327],[-890,-410807]],[[311249,119437],[-55363,44697],[-39813,47276],[-71582,82833],[-59340,76316],[-57118,87358]],[[757849,354794],[32442,-15286],[-2823,-76769],[55495,-19950]],[[842963,242789],[-236,-11170]],[[842727,231619],[-124590,43783],[13641,47913],[15466,-5656],[10605,37135]],[[848498,498962],[40565,-121506]],[[889063,377456],[-13361,-23837],[-7593,-26992]],[[868109,326627],[-19611,172335]],[[931329,943898],[16868,-61669],[-13790,-167546]],[[934407,714683],[1243,71851],[-320,82020],[-7616,34853]],[[927714,903407],[3615,40491]],[[934407,714683],[-28,-339]],[[934379,714344],[-12022,-122825],[-24763,-198843],[-8531,-15220]],[[848498,498962],[35059,284046]],[[883557,783008],[12400,45908],[13913,19923],[17844,54568]],[[936201,686292],[-9538,-98103],[-25659,-205175],[-8803,-15373]],[[892201,367641],[-3138,9815]],[[934379,714344],[-651,-17515],[2473,-10537]],[[868109,326627],[-22913,-81442],[-2233,-2396]],[[842963,242789],[5535,256173]],[[953484,656245],[-13927,-149023],[-13369,-10767],[-8773,-15955],[-3900,-30551],[-418,-47064],[-9942,-68072]],[[903155,334813],[-10954,32828]],[[936201,686292],[1128,-8908],[4039,-9174],[12116,-11965]],[[941731,743169],[22197,-18323],[-10444,-68601]],[[936201,686292],[5530,56877]],[[931329,943898],[1319,28779]],[[932648,972677],[3953,-1980]],[[936601,970697],[291,-23202],[18303,-65843],[-13464,-138483]],[[995808,941022],[4191,-2101],[-38411,-282549],[-3327,-40711],[-13912,-182177],[-18752,-239068],[-24801,-61501],[7259,-110006],[-4594,4396]],[[903461,27305],[-7202,110495],[25104,62367],[21043,265008]],[[942406,465175],[15250,192062],[36296,269981]],[[993952,927218],[1856,13804]],[[848498,498962],[-1680,41211],[3195,10066],[2473,113864],[1681,77397],[10782,9882],[13183,12083],[5425,19543]],[[990813,943525],[4995,-2503]],[[993952,927218],[233,9908],[-3372,6399]],[[927412,975303],[5236,-2626]],[[927714,903407],[-302,71896]],[[905615,250137],[1157,3621]],[[906772,253758],[-780,-16612]],[[905992,237146],[-377,12991]],[[905992,237146],[-8397,-28314]],[[897595,208832],[-8372,-28222],[-1534,-26845],[-3408,-31236],[-3068,-10249]],[[881213,112280],[101,55968]],[[881314,168248],[2926,11237],[21375,70652]],[[897595,208832],[-7349,-56980],[56,-23748]],[[890302,128104],[-9269,-33588]],[[881033,94516],[180,17764]],[[903461,27305],[-14814,14178]],[[888647,41483],[1769,38625],[-114,47996]],[[906772,253758],[2117,45062],[6817,52221],[-2215,11714],[4771,24404],[3068,-4392],[2386,14153],[4430,-976],[682,33188],[682,11226],[2045,30261],[10851,-5444]],[[892201,367641],[-13269,-23169],[-9393,-32519]],[[869539,311953],[-1430,14674]],[[868272,51858],[12761,42658]],[[881033,94516],[-461,-45302]],[[880572,49214],[-8697,8323],[-3603,-5679]],[[868272,51858],[-30372,-47865]],[[837900,3993],[19397,79226],[24017,85029]],[[869539,311953],[11845,-104989],[-70,-38716]],[[837900,3993],[115,5440]],[[838015,9433],[4712,222186]],[[842727,231619],[3546,-207],[23266,80541]],[[838015,9433],[-1115,-4232]],[[836900,5201],[-87609,105956],[-96939,38522],[-2549,-3867]],[[649803,145812],[-2180,260915],[110226,-51933]],[[837900,3993],[-1000,1208]],[[903155,334813],[2460,-84676]],[[936601,970697],[54212,-27172]],[[888647,41483],[-8075,7731]],[[649803,145812],[-96077,-145812],[-101740,5145],[-140737,114292]],[[28033,457917],[-28033,82096],[20890,59681],[31232,59058],[47544,59075],[65980,81984],[19634,903],[41507,13441],[57512,56321],[26523,68906],[46488,13262],[7210,11347]],[[845612,952416],[47180,-15394],[11756,12999],[15141,16741],[7723,8541]]],"bbox":[347.697,1751.687,1726.659,2233.499],"transform":{"scale":[0.0013789633789633789,0.00048181248181248165],"translate":[347.697,1751.687]}}