{"type":"Topology","objects":{"01229-4500-2":{"type":"GeometryCollection","geometries":[{"type":"MultiPolygon","arcs":[[[0,1,2,3,4,5,6]]],"properties":{"筆ID":"H000000001","version":"ver1.0","座標系":"任意座標系","測地系判別":null,"地図名":"富良野市開拓図Ｃ２５００図無Ｈ１９","地図番号":"C1-1","縮尺分母":"2500","市区町村コード":"01229","市区町村名":"富良野市","大字コード":"000","丁目コード":"000","小字コード":"0016","予備コード":"00","大字名":null,"丁目名":null,"小字名":"字鳥沼","予備名":null,"地番":"道-1","精度区分":null,"座標値種別":"図上測量","筆界未定構成筆":null,"代表点緯度":713.2505,"代表点経度":6801.437291569}},{"type":"MultiPolygon","arcs":[[[7,8,9,10]]],"properties":{"筆ID":"H000000002","version":"ver1.0","座標系":"任意座標系","測地系判別":null,"地図名":"富良野市開拓図Ｃ２５００図無Ｈ１９","地図番号":"C1-2","縮尺分母":"2500","市区町村コード":"01229","市区町村名":"富良野市","大字コード":"000","丁目コード":"000","小字コード":"0016","予備コード":"00","大字名":null,"丁目名":null,"小字名":"字鳥沼","予備名":null,"地番":"道-2","精度区分":null,"座標値種別":"図上測量","筆界未定構成筆":null,"代表点緯度":987.8875,"代表点経度":7669.468163059}},{"type":"MultiPolygon","arcs":[[[11,12,13,14,15,16,17,18,19,20,21,22,23,24,25,26,27,28,29,30,31,-9]]],"properties":{"筆ID":"H000000003","version":"ver1.0","座標系":"任意座標系","測地系判別":null,"地図名":"富良野市開拓図Ｃ２５００図無Ｈ１９","地図番号":"C1-2","縮尺分母":"2500","市区町村コード":"01229","市区町村名":"富良野市","大字コード":"000","丁目コード":"000","小字コード":"0016","予備コード":"00","大字名":null,"丁目名":null,"小字名":"字鳥沼","予備名":null,"地番":"道-3","精度区分":null,"座標値種別":"図上測量","筆界未定構成筆":null,"代表点緯度":1022.779,"代表点経度":8380.452613045}},{"type":"MultiPolygon","arcs":[[[32,33,34,35,36,37,-13,38]]],"properties":{"筆ID":"H000000004","version":"ver1.0","座標系":"任意座標系","測地系判別":null,"地図名":"富良野市開拓図Ｃ２５００図無Ｈ１９","地図番号":"C1-3","縮尺分母":"2500","市区町村コード":"01229","市区町村名":"富良野市","大字コード":"000","丁目コード":"000","小字コード":"0016","予備コード":"00","大字名":null,"丁目名":null,"小字名":"字鳥沼","予備名":null,"地番":"道-4","精度区分":null,"座標値種別":"図上測量","筆界未定構成筆":null,"代表点緯度":1029.042,"代表点経度":9192.809090199}},{"type":"MultiPolygon","arcs":[[[39,40,41]]],"properties":{"筆ID":"H000000005","version":"ver1.0","座標系":"任意座標系","測地系判別":null,"地図名":"富良野市開拓図Ｃ２５００図無Ｈ１９","地図番号":"C1-1","縮尺分母":"2500","市区町村コード":"01229","市区町村名":"富良野市","大字コード":"000","丁目コード":"000","小字コード":"0016","予備コード":"00","大字名":null,"丁目名":null,"小字名":"字鳥沼","予備名":null,"地番":"長狭物不明-1","精度区分":null,"座標値種別":"図上測量","筆界未定構成筆":null,"代表点緯度":1032.579,"代表点経度":7049.828559828}},{"type":"MultiPolygon","arcs":[[[42,43,44,45,-1,46]]],"properties":{"筆ID":"H000000006","version":"ver1.0","座標系":"任意座標系","測地系判別":null,"地図名":"富良野市開拓図Ｃ２５００図無Ｈ１９","地図番号":"C1-1","縮尺分母":"2500","市区町村コード":"01229","市区町村名":"富良野市","大字コード":"000","丁目コード":"000","小字コード":"0016","予備コード":"00","大字名":null,"丁目名":null,"小字名":"字鳥沼","予備名":null,"地番":"長狭物不明-2","精度区分":null,"座標値種別":"図上測量","筆界未定構成筆":null,"代表点緯度":931.611,"代表点経度":6689.337711542}},{"type":"MultiPolygon","arcs":[[[47,48,49,-4]]],"properties":{"筆ID":"H000000007","version":"ver1.0","座標系":"任意座標系","測地系判別":null,"地図名":"富良野市開拓図Ｃ２５００図無Ｈ１９","地図番号":"C1-1","縮尺分母":"2500","市区町村コード":"01229","市区町村名":"富良野市","大字コード":"000","丁目コード":"000","小字コード":"0000","予備コード":"00","大字名":null,"丁目名":null,"小字名":null,"予備名":null,"地番":"地区外-2000001","精度区分":null,"座標値種別":"図上測量","筆界未定構成筆":null,"代表点緯度":645.522,"代表点経度":6938.784570341}},{"type":"MultiPolygon","arcs":[[[50,51,52]]],"properties":{"筆ID":"H000000008","version":"ver1.0","座標系":"任意座標系","測地系判別":null,"地図名":"富良野市開拓図Ｃ２５００図無Ｈ１９","地図番号":"C1-1","縮尺分母":"2500","市区町村コード":"01229","市区町村名":"富良野市","大字コード":"000","丁目コード":"000","小字コード":"0000","予備コード":"00","大字名":null,"丁目名":null,"小字名":null,"予備名":null,"地番":"10802","精度区分":null,"座標値種別":"図上測量","筆界未定構成筆":null,"代表点緯度":961.4025,"代表点経度":6995.65022537}},{"type":"MultiPolygon","arcs":[[[53,54,55,56,57]]],"properties":{"筆ID":"H000000009","version":"ver1.0","座標系":"任意座標系","測地系判別":null,"地図名":"富良野市開拓図Ｃ２５００図無Ｈ１９","地図番号":"C1-1","縮尺分母":"2500","市区町村コード":"01229","市区町村名":"富良野市","大字コード":"000","丁目コード":"000","小字コード":"0000","予備コード":"00","大字名":null,"丁目名":null,"小字名":null,"予備名":null,"地番":"10803","精度区分":null,"座標値種別":"図上測量","筆界未定構成筆":null,"代表点緯度":881.7925,"代表点経度":6904.169888726}},{"type":"MultiPolygon","arcs":[[[58,59,60]]],"properties":{"筆ID":"H000000010","version":"ver1.0","座標系":"任意座標系","測地系判別":null,"地図名":"富良野市開拓図Ｃ２５００図無Ｈ１９","地図番号":"C1-1","縮尺分母":"2500","市区町村コード":"01229","市区町村名":"富良野市","大字コード":"000","丁目コード":"000","小字コード":"0000","予備コード":"00","大字名":null,"丁目名":null,"小字名":null,"予備名":null,"地番":"10806","精度区分":null,"座標値種別":"図上測量","筆界未定構成筆":null,"代表点緯度":718.496,"代表点経度":6908.047122865}},{"type":"MultiPolygon","arcs":[[[61,62,63,-60,64]]],"properties":{"筆ID":"H000000011","version":"ver1.0","座標系":"任意座標系","測地系判別":null,"地図名":"富良野市開拓図Ｃ２５００図無Ｈ１９","地図番号":"C1-1","縮尺分母":"2500","市区町村コード":"01229","市区町村名":"富良野市","大字コード":"000","丁目コード":"000","小字コード":"0000","予備コード":"00","大字名":null,"丁目名":null,"小字名":null,"予備名":null,"地番":"10807","精度区分":null,"座標値種別":"図上測量","筆界未定構成筆":null,"代表点緯度":740.903,"代表点経度":6923.233229416}},{"type":"MultiPolygon","arcs":[[[65,66,67,-62,68]]],"properties":{"筆ID":"H000000012","version":"ver1.0","座標系":"任意座標系","測地系判別":null,"地図名":"富良野市開拓図Ｃ２５００図無Ｈ１９","地図番号":"C1-1","縮尺分母":"2500","市区町村コード":"01229","市区町村名":"富良野市","大字コード":"000","丁目コード":"000","小字コード":"0000","予備コード":"00","大字名":null,"丁目名":null,"小字名":null,"予備名":null,"地番":"10808","精度区分":null,"座標値種別":"図上測量","筆界未定構成筆":null,"代表点緯度":800.5275,"代表点経度":6974.956327132}},{"type":"MultiPolygon","arcs":[[[69,-66,70]]],"properties":{"筆ID":"H000000013","version":"ver1.0","座標系":"任意座標系","測地系判別":null,"地図名":"富良野市開拓図Ｃ２５００図無Ｈ１９","地図番号":"C1-1","縮尺分母":"2500","市区町村コード":"01229","市区町村名":"富良野市","大字コード":"000","丁目コード":"000","小字コード":"0000","予備コード":"00","大字名":null,"丁目名":null,"小字名":null,"予備名":null,"地番":"10809","精度区分":null,"座標値種別":"図上測量","筆界未定構成筆":null,"代表点緯度":886.0555,"代表点経度":6975.973973642}},{"type":"MultiPolygon","arcs":[[[71,72,73,74,-67,-70]]],"properties":{"筆ID":"H000000014","version":"ver1.0","座標系":"任意座標系","測地系判別":null,"地図名":"富良野市開拓図Ｃ２５００図無Ｈ１９","地図番号":"C1-1","縮尺分母":"2500","市区町村コード":"01229","市区町村名":"富良野市","大字コード":"000","丁目コード":"000","小字コード":"0000","予備コード":"00","大字名":null,"丁目名":null,"小字名":null,"予備名":null,"地番":"10810","精度区分":null,"座標値種別":"図上測量","筆界未定構成筆":null,"代表点緯度":885.8075,"代表点経度":7031.543126528}},{"type":"MultiPolygon","arcs":[[[-40,75,76,77,-73,78]]],"properties":{"筆ID":"H000000015","version":"ver1.0","座標系":"任意座標系","測地系判別":null,"地図名":"富良野市開拓図Ｃ２５００図無Ｈ１９","地図番号":"C1-1","縮尺分母":"2500","市区町村コード":"01229","市区町村名":"富良野市","大字コード":"000","丁目コード":"000","小字コード":"0000","予備コード":"00","大字名":null,"丁目名":null,"小字名":null,"予備名":null,"地番":"10811","精度区分":null,"座標値種別":"図上測量","筆界未定構成筆":null,"代表点緯度":948.7535,"代表点経度":7054.264628342}},{"type":"MultiPolygon","arcs":[[[79,80]]],"properties":{"筆ID":"H000000016","version":"ver1.0","座標系":"任意座標系","測地系判別":null,"地図名":"富良野市開拓図Ｃ２５００図無Ｈ１９","地図番号":"C1-1","縮尺分母":"2500","市区町村コード":"01229","市区町村名":"富良野市","大字コード":"000","丁目コード":"000","小字コード":"0000","予備コード":"00","大字名":null,"丁目名":null,"小字名":null,"予備名":null,"地番":"10812","精度区分":null,"座標値種別":"図上測量","筆界未定構成筆":null,"代表点緯度":926.556,"代表点経度":7207.960577629}},{"type":"MultiPolygon","arcs":[[[-77,81,-80,82,83,84,85,86]]],"properties":{"筆ID":"H000000017","version":"ver1.0","座標系":"任意座標系","測地系判別":null,"地図名":"富良野市開拓図Ｃ２５００図無Ｈ１９","地図番号":"C1-1","縮尺分母":"2500","市区町村コード":"01229","市区町村名":"富良野市","大字コード":"000","丁目コード":"000","小字コード":"0000","予備コード":"00","大字名":null,"丁目名":null,"小字名":null,"予備名":null,"地番":"10813","精度区分":null,"座標値種別":"図上測量","筆界未定構成筆":null,"代表点緯度":864.362,"代表点経度":7192.600219924}},{"type":"MultiPolygon","arcs":[[[87,-74,-78,-87,88,89]]],"properties":{"筆ID":"H000000018","version":"ver1.0","座標系":"任意座標系","測地系判別":null,"地図名":"富良野市開拓図Ｃ２５００図無Ｈ１９","地図番号":"C1-1","縮尺分母":"2500","市区町村コード":"01229","市区町村名":"富良野市","大字コード":"000","丁目コード":"000","小字コード":"0000","予備コード":"00","大字名":null,"丁目名":null,"小字名":null,"予備名":null,"地番":"10814","精度区分":null,"座標値種別":"図上測量","筆界未定構成筆":null,"代表点緯度":847.22,"代表点経度":7117.096456005}},{"type":"MultiPolygon","arcs":[[[-75,-88,90,-63,-68]]],"properties":{"筆ID":"H000000019","version":"ver1.0","座標系":"任意座標系","測地系判別":null,"地図名":"富良野市開拓図Ｃ２５００図無Ｈ１９","地図番号":"C1-1","縮尺分母":"2500","市区町村コード":"01229","市区町村名":"富良野市","大字コード":"000","丁目コード":"000","小字コード":"0000","予備コード":"00","大字名":null,"丁目名":null,"小字名":null,"予備名":null,"地番":"10815","精度区分":null,"座標値種別":"図上測量","筆界未定構成筆":null,"代表点緯度":804.0905,"代表点経度":7063.725863827}},{"type":"MultiPolygon","arcs":[[[91,92,93,94]]],"properties":{"筆ID":"H000000020","version":"ver1.0","座標系":"任意座標系","測地系判別":null,"地図名":"富良野市開拓図Ｃ２５００図無Ｈ１９","地図番号":"C1-1","縮尺分母":"2500","市区町村コード":"01229","市区町村名":"富良野市","大字コード":"000","丁目コード":"000","小字コード":"0000","予備コード":"00","大字名":null,"丁目名":null,"小字名":null,"予備名":null,"地番":"10816","精度区分":null,"座標値種別":"図上測量","筆界未定構成筆":null,"代表点緯度":735.356,"代表点経度":7086.143872933}},{"type":"MultiPolygon","arcs":[[[-94,95,96,97,98,-49,99]]],"properties":{"筆ID":"H000000021","version":"ver1.0","座標系":"任意座標系","測地系判別":null,"地図名":"富良野市開拓図Ｃ２５００図無Ｈ１９","地図番号":"C1-1","縮尺分母":"2500","市区町村コード":"01229","市区町村名":"富良野市","大字コード":"000","丁目コード":"000","小字コード":"0000","予備コード":"00","大字名":null,"丁目名":null,"小字名":null,"予備名":null,"地番":"10817","精度区分":null,"座標値種別":"図上測量","筆界未定構成筆":null,"代表点緯度":643.1065,"代表点経度":7001.253892653}},{"type":"MultiPolygon","arcs":[[[100,-5,-50,-99]]],"properties":{"筆ID":"H000000022","version":"ver1.0","座標系":"任意座標系","測地系判別":null,"地図名":"富良野市開拓図Ｃ２５００図無Ｈ１９","地図番号":"C1-1","縮尺分母":"2500","市区町村コード":"01229","市区町村名":"富良野市","大字コード":"000","丁目コード":"000","小字コード":"0000","予備コード":"00","大字名":null,"丁目名":null,"小字名":null,"予備名":null,"地番":"10818","精度区分":null,"座標値種別":"図上測量","筆界未定構成筆":null,"代表点緯度":645.522,"代表点経度":6970.534269079}},{"type":"MultiPolygon","arcs":[[[101,102,-97,103]]],"properties":{"筆ID":"H000000023","version":"ver1.0","座標系":"任意座標系","測地系判別":null,"地図名":"富良野市開拓図Ｃ２５００図無Ｈ１９","地図番号":"C1-1","縮尺分母":"2500","市区町村コード":"01229","市区町村名":"富良野市","大字コード":"000","丁目コード":"000","小字コード":"0000","予備コード":"00","大字名":null,"丁目名":null,"小字名":null,"予備名":null,"地番":"10819","精度区分":null,"座標値種別":"図上測量","筆界未定構成筆":null,"代表点緯度":651.5265,"代表点経度":7032.49742872}},{"type":"MultiPolygon","arcs":[[[-96,-93,104,105,-104]]],"properties":{"筆ID":"H000000024","version":"ver1.0","座標系":"任意座標系","測地系判別":null,"地図名":"富良野市開拓図Ｃ２５００図無Ｈ１９","地図番号":"C1-1","縮尺分母":"2500","市区町村コード":"01229","市区町村名":"富良野市","大字コード":"000","丁目コード":"000","小字コード":"0000","予備コード":"00","大字名":null,"丁目名":null,"小字名":null,"予備名":null,"地番":"10820","精度区分":null,"座標値種別":"図上測量","筆界未定構成筆":null,"代表点緯度":702.365,"代表点経度":7091.1114754}},{"type":"MultiPolygon","arcs":[[[-106,106,107,108,-102]]],"properties":{"筆ID":"H000000025","version":"ver1.0","座標系":"任意座標系","測地系判別":null,"地図名":"富良野市開拓図Ｃ２５００図無Ｈ１９","地図番号":"C1-1","縮尺分母":"2500","市区町村コード":"01229","市区町村名":"富良野市","大字コード":"000","丁目コード":"000","小字コード":"0000","予備コード":"00","大字名":null,"丁目名":null,"小字名":null,"予備名":null,"地番":"10821","精度区分":null,"座標値種別":"図上測量","筆界未定構成筆":null,"代表点緯度":651.5265,"代表点経度":7120.020051797}},{"type":"MultiPolygon","arcs":[[[-92,109,110,111,112,-107,-105]]],"properties":{"筆ID":"H000000026","version":"ver1.0","座標系":"任意座標系","測地系判別":null,"地図名":"富良野市開拓図Ｃ２５００図無Ｈ１９","地図番号":"C1-1","縮尺分母":"2500","市区町村コード":"01229","市区町村名":"富良野市","大字コード":"000","丁目コード":"000","小字コード":"0000","予備コード":"00","大字名":null,"丁目名":null,"小字名":null,"予備名":null,"地番":"10822","精度区分":null,"座標値種別":"図上測量","筆界未定構成筆":null,"代表点緯度":690.097,"代表点経度":7227.117315799}},{"type":"MultiPolygon","arcs":[[[-89,-86,113,114]]],"properties":{"筆ID":"H000000027","version":"ver1.0","座標系":"任意座標系","測地系判別":null,"地図名":"富良野市開拓図Ｃ２５００図無Ｈ１９","地図番号":"C1-1","縮尺分母":"2500","市区町村コード":"01229","市区町村名":"富良野市","大字コード":"000","丁目コード":"000","小字コード":"0000","予備コード":"00","大字名":null,"丁目名":null,"小字名":null,"予備名":null,"地番":"10823","精度区分":null,"座標値種別":"図上測量","筆界未定構成筆":null,"代表点緯度":771.946,"代表点経度":7197.955973178}},{"type":"MultiPolygon","arcs":[[[115,-114,-85]]],"properties":{"筆ID":"H000000028","version":"ver1.0","座標系":"任意座標系","測地系判別":null,"地図名":"富良野市開拓図Ｃ２５００図無Ｈ１９","地図番号":"C1-1","縮尺分母":"2500","市区町村コード":"01229","市区町村名":"富良野市","大字コード":"000","丁目コード":"000","小字コード":"0000","予備コード":"00","大字名":null,"丁目名":null,"小字名":null,"予備名":null,"地番":"10824","精度区分":null,"座標値種別":"図上測量","筆界未定構成筆":null,"代表点緯度":753.0145,"代表点経度":7263.001523481}},{"type":"MultiPolygon","arcs":[[[116,-111,117,-84,118]]],"properties":{"筆ID":"H000000029","version":"ver1.0","座標系":"任意座標系","測地系判別":null,"地図名":"富良野市開拓図Ｃ２５００図無Ｈ１９","地図番号":"C1-1","縮尺分母":"2500","市区町村コード":"01229","市区町村名":"富良野市","大字コード":"000","丁目コード":"000","小字コード":"0000","予備コード":"00","大字名":null,"丁目名":null,"小字名":null,"予備名":null,"地番":"10825","精度区分":null,"座標値種別":"図上測量","筆界未定構成筆":null,"代表点緯度":717.502,"代表点経度":7341.322162082}},{"type":"MultiPolygon","arcs":[[[119,120,-112,-117]]],"properties":{"筆ID":"H000000030","version":"ver1.0","座標系":"任意座標系","測地系判別":null,"地図名":"富良野市開拓図Ｃ２５００図無Ｈ１９","地図番号":"C1-1","縮尺分母":"2500","市区町村コード":"01229","市区町村名":"富良野市","大字コード":"000","丁目コード":"000","小字コード":"0000","予備コード":"00","大字名":null,"丁目名":null,"小字名":null,"予備名":null,"地番":"10826","精度区分":null,"座標値種別":"図上測量","筆界未定構成筆":null,"代表点緯度":670.527,"代表点経度":7391.025642437}},{"type":"MultiPolygon","arcs":[[[121,122,123,124,125,-120,-119]]],"properties":{"筆ID":"H000000031","version":"ver1.0","座標系":"任意座標系","測地系判別":null,"地図名":"富良野市開拓図Ｃ２５００図無Ｈ１９","地図番号":"C1-1","縮尺分母":"2500","市区町村コード":"01229","市区町村名":"富良野市","大字コード":"000","丁目コード":"000","小字コード":"0000","予備コード":"00","大字名":null,"丁目名":null,"小字名":null,"予備名":null,"地番":"10827","精度区分":null,"座標値種別":"図上測量","筆界未定構成筆":null,"代表点緯度":730.125,"代表点経度":7400.076107965}},{"type":"MultiPolygon","arcs":[[[126,127,128,-122,-83,129]]],"properties":{"筆ID":"H000000032","version":"ver1.0","座標系":"任意座標系","測地系判別":null,"地図名":"富良野市開拓図Ｃ２５００図無Ｈ１９","地図番号":"C1-1","縮尺分母":"2500","市区町村コード":"01229","市区町村名":"富良野市","大字コード":"000","丁目コード":"000","小字コード":"0000","予備コード":"00","大字名":null,"丁目名":null,"小字名":null,"予備名":null,"地番":"10828","精度区分":null,"座標値種別":"図上測量","筆界未定構成筆":null,"代表点緯度":824.7985,"代表点経度":7343.847481578}},{"type":"MultiPolygon","arcs":[[[130,-127,131]]],"properties":{"筆ID":"H000000033","version":"ver1.0","座標系":"任意座標系","測地系判別":null,"地図名":"富良野市開拓図Ｃ２５００図無Ｈ１９","地図番号":"C1-1","縮尺分母":"2500","市区町村コード":"01229","市区町村名":"富良野市","大字コード":"000","丁目コード":"000","小字コード":"0000","予備コード":"00","大字名":null,"丁目名":null,"小字名":null,"予備名":null,"地番":"10829","精度区分":null,"座標値種別":"図上測量","筆界未定構成筆":null,"代表点緯度":897.8655,"代表点経度":7342.133663817}},{"type":"MultiPolygon","arcs":[[[-131,132,133,134,135,-128]]],"properties":{"筆ID":"H000000034","version":"ver1.0","座標系":"任意座標系","測地系判別":null,"地図名":"富良野市開拓図Ｃ２５００図無Ｈ１９","地図番号":"C1-1","縮尺分母":"2500","市区町村コード":"01229","市区町村名":"富良野市","大字コード":"000","丁目コード":"000","小字コード":"0000","予備コード":"00","大字名":null,"丁目名":null,"小字名":null,"予備名":null,"地番":"10830","精度区分":null,"座標値種別":"図上測量","筆界未定構成筆":null,"代表点緯度":846.76,"代表点経度":7412.962807694}},{"type":"MultiPolygon","arcs":[[[136,137,138,-135]]],"properties":{"筆ID":"H000000035","version":"ver1.0","座標系":"任意座標系","測地系判別":null,"地図名":"富良野市開拓図Ｃ２５００図無Ｈ１９","地図番号":"C1-1","縮尺分母":"2500","市区町村コード":"01229","市区町村名":"富良野市","大字コード":"000","丁目コード":"000","小字コード":"0000","予備コード":"00","大字名":null,"丁目名":null,"小字名":null,"予備名":null,"地番":"10831","精度区分":null,"座標値種別":"図上測量","筆界未定構成筆":null,"代表点緯度":853.3705,"代表点経度":7459.030418328}},{"type":"MultiPolygon","arcs":[[[-136,-139,139,-123,-129]]],"properties":{"筆ID":"H000000036","version":"ver1.0","座標系":"任意座標系","測地系判別":null,"地図名":"富良野市開拓図Ｃ２５００図無Ｈ１９","地図番号":"C1-1","縮尺分母":"2500","市区町村コード":"01229","市区町村名":"富良野市","大字コード":"000","丁目コード":"000","小字コード":"0000","予備コード":"00","大字名":null,"丁目名":null,"小字名":null,"予備名":null,"地番":"10832","精度区分":null,"座標値種別":"図上測量","筆界未定構成筆":null,"代表点緯度":766.7775,"代表点経度":7432.644197816}},{"type":"MultiPolygon","arcs":[[[140,141,142,-125,143]]],"properties":{"筆ID":"H000000037","version":"ver1.0","座標系":"任意座標系","測地系判別":null,"地図名":"富良野市開拓図Ｃ２５００図無Ｈ１９","地図番号":"C1-1","縮尺分母":"2500","市区町村コード":"01229","市区町村名":"富良野市","大字コード":"000","丁目コード":"000","小字コード":"0000","予備コード":"00","大字名":null,"丁目名":null,"小字名":null,"予備名":null,"地番":"10833-1","精度区分":null,"座標値種別":"図上測量","筆界未定構成筆":null,"代表点緯度":770.433,"代表点経度":7470.847685783}},{"type":"MultiPolygon","arcs":[[[144,145,-143]]],"properties":{"筆ID":"H000000038","version":"ver1.0","座標系":"任意座標系","測地系判別":null,"地図名":"富良野市開拓図Ｃ２５００図無Ｈ１９","地図番号":"C1-1","縮尺分母":"2500","市区町村コード":"01229","市区町村名":"富良野市","大字コード":"000","丁目コード":"000","小字コード":"0000","予備コード":"00","大字名":null,"丁目名":null,"小字名":null,"予備名":null,"地番":"10833-2","精度区分":null,"座標値種別":"図上測量","筆界未定構成筆":null,"代表点緯度":704.8555,"代表点経度":7584.05195499}},{"type":"MultiPolygon","arcs":[[[146,147,-141,148]]],"properties":{"筆ID":"H000000039","version":"ver1.0","座標系":"任意座標系","測地系判別":null,"地図名":"富良野市開拓図Ｃ２５００図無Ｈ１９","地図番号":"C1-1","縮尺分母":"2500","市区町村コード":"01229","市区町村名":"富良野市","大字コード":"000","丁目コード":"000","小字コード":"0000","予備コード":"00","大字名":null,"丁目名":null,"小字名":null,"予備名":null,"地番":"10834","精度区分":null,"座標値種別":"図上測量","筆界未定構成筆":null,"代表点緯度":770.433,"代表点経度":7560.865145665}},{"type":"MultiPolygon","arcs":[[[149,150,151,152,153,-147,154]]],"properties":{"筆ID":"H000000040","version":"ver1.0","座標系":"任意座標系","測地系判別":null,"地図名":"富良野市開拓図Ｃ２５００図無Ｈ１９","地図番号":"C1-1","縮尺分母":"2500","市区町村コード":"01229","市区町村名":"富良野市","大字コード":"000","丁目コード":"000","小字コード":"0000","予備コード":"00","大字名":null,"丁目名":null,"小字名":null,"予備名":null,"地番":"10835","精度区分":null,"座標値種別":"図上測量","筆界未定構成筆":null,"代表点緯度":863.858,"代表点経度":7556.288253813}},{"type":"MultiPolygon","arcs":[[[155,156,-151,157,158]]],"properties":{"筆ID":"H000000041","version":"ver1.0","座標系":"任意座標系","測地系判別":null,"地図名":"富良野市開拓図Ｃ２５００図無Ｈ１９","地図番号":"C1-1","縮尺分母":"2500","市区町村コード":"01229","市区町村名":"富良野市","大字コード":"000","丁目コード":"000","小字コード":"0000","予備コード":"00","大字名":null,"丁目名":null,"小字名":null,"予備名":null,"地番":"10836","精度区分":null,"座標値種別":"図上測量","筆界未定構成筆":null,"代表点緯度":930.0935,"代表点経度":7533.433604317}},{"type":"MultiPolygon","arcs":[[[159,160,161,-156]]],"properties":{"筆ID":"H000000042","version":"ver1.0","座標系":"任意座標系","測地系判別":null,"地図名":"富良野市開拓図Ｃ２５００図無Ｈ１９","地図番号":"C1-1","縮尺分母":"2500","市区町村コード":"01229","市区町村名":"富良野市","大字コード":"000","丁目コード":"000","小字コード":"0000","予備コード":"00","大字名":null,"丁目名":null,"小字名":null,"予備名":null,"地番":"10837","精度区分":null,"座標値種別":"図上測量","筆界未定構成筆":null,"代表点緯度":941.353,"代表点経度":7575.523495768}},{"type":"MultiPolygon","arcs":[[[-157,-162,162,163,164,165,-152]]],"properties":{"筆ID":"H000000043","version":"ver1.0","座標系":"任意座標系","測地系判別":null,"地図名":"富良野市開拓図Ｃ２５００図無Ｈ１９","地図番号":"C1-1","縮尺分母":"2500","市区町村コード":"01229","市区町村名":"富良野市","大字コード":"000","丁目コード":"000","小字コード":"0000","予備コード":"00","大字名":null,"丁目名":null,"小字名":null,"予備名":null,"地番":"10838","精度区分":null,"座標値種別":"図上測量","筆界未定構成筆":null,"代表点緯度":907.524,"代表点経度":7622.937670602}},{"type":"MultiPolygon","arcs":[[[-166,166,167,-153]]],"properties":{"筆ID":"H000000044","version":"ver1.0","座標系":"任意座標系","測地系判別":null,"地図名":"富良野市開拓図Ｃ２５００図無Ｈ１９","地図番号":"C1-1","縮尺分母":"2500","市区町村コード":"01229","市区町村名":"富良野市","大字コード":"000","丁目コード":"000","小字コード":"0000","予備コード":"00","大字名":null,"丁目名":null,"小字名":null,"予備名":null,"地番":"10839","精度区分":null,"座標値種別":"図上測量","筆界未定構成筆":null,"代表点緯度":848.6625,"代表点経度":7615.820700826}},{"type":"MultiPolygon","arcs":[[[168,-158,-150,169,-137,-134]]],"properties":{"筆ID":"H000000045","version":"ver1.0","座標系":"任意座標系","測地系判別":null,"地図名":"富良野市開拓図Ｃ２５００図無Ｈ１９","地図番号":"C1-1","縮尺分母":"2500","市区町村コード":"01229","市区町村名":"富良野市","大字コード":"000","丁目コード":"000","小字コード":"0016","予備コード":"00","大字名":null,"丁目名":null,"小字名":"字鳥沼","予備名":null,"地番":"無地番-1","精度区分":null,"座標値種別":"図上測量","筆界未定構成筆":null,"代表点緯度":876.905,"代表点経度":7500.145101915}},{"type":"MultiPolygon","arcs":[[[-154,-168,170,-145,-142,-148]]],"properties":{"筆ID":"H000000046","version":"ver1.0","座標系":"任意座標系","測地系判別":null,"地図名":"富良野市開拓図Ｃ２５００図無Ｈ１９","地図番号":"C1-1","縮尺分母":"2500","市区町村コード":"01229","市区町村名":"富良野市","大字コード":"000","丁目コード":"000","小字コード":"0000","予備コード":"00","大字名":null,"丁目名":null,"小字名":null,"予備名":null,"地番":"10840","精度区分":null,"座標値種別":"図上測量","筆界未定構成筆":null,"代表点緯度":776.0875,"代表点経度":7641.624783093}},{"type":"MultiPolygon","arcs":[[[-171,-167,-165,171,172,173,174]]],"properties":{"筆ID":"H000000047","version":"ver1.0","座標系":"任意座標系","測地系判別":null,"地図名":"富良野市開拓図Ｃ２５００図無Ｈ１９","地図番号":"C1-2","縮尺分母":"2500","市区町村コード":"01229","市区町村名":"富良野市","大字コード":"000","丁目コード":"000","小字コード":"0000","予備コード":"00","大字名":null,"丁目名":null,"小字名":null,"予備名":null,"地番":"筆界未定地-60","精度区分":null,"座標値種別":"図上測量","筆界未定構成筆":[{"大字コード":"000","丁目コード":"000","小字コード":"0000","予備コード":"00","地番":"10841-1"},{"大字コード":"000","丁目コード":"000","小字コード":"0000","予備コード":"00","地番":"10841-2"},{"大字コード":"000","丁目コード":"000","小字コード":"0000","予備コード":"00","地番":"10841-3"}],"代表点緯度":789.7125,"代表点経度":7807.940565091}},{"type":"MultiPolygon","arcs":[[[-10,-32,175,-172,-164]]],"properties":{"筆ID":"H000000048","version":"ver1.0","座標系":"任意座標系","測地系判別":null,"地図名":"富良野市開拓図Ｃ２５００図無Ｈ１９","地図番号":"C1-2","縮尺分母":"2500","市区町村コード":"01229","市区町村名":"富良野市","大字コード":"000","丁目コード":"000","小字コード":"0000","予備コード":"00","大字名":null,"丁目名":null,"小字名":null,"予備名":null,"地番":"10842","精度区分":null,"座標値種別":"図上測量","筆界未定構成筆":null,"代表点緯度":909.62,"代表点経度":7813.367520306}},{"type":"MultiPolygon","arcs":[[[-31,176,177,178,-176]]],"properties":{"筆ID":"H000000049","version":"ver1.0","座標系":"任意座標系","測地系判別":null,"地図名":"富良野市開拓図Ｃ２５００図無Ｈ１９","地図番号":"C1-2","縮尺分母":"2500","市区町村コード":"01229","市区町村名":"富良野市","大字コード":"000","丁目コード":"000","小字コード":"0000","予備コード":"00","大字名":null,"丁目名":null,"小字名":null,"予備名":null,"地番":"10843","精度区分":null,"座標値種別":"図上測量","筆界未定構成筆":null,"代表点緯度":971.585,"代表点経度":8022.914324368}},{"type":"MultiPolygon","arcs":[[[-177,-30,179]]],"properties":{"筆ID":"H000000050","version":"ver1.0","座標系":"任意座標系","測地系判別":null,"地図名":"富良野市開拓図Ｃ２５００図無Ｈ１９","地図番号":"C1-2","縮尺分母":"2500","市区町村コード":"01229","市区町村名":"富良野市","大字コード":"000","丁目コード":"000","小字コード":"0000","予備コード":"00","大字名":null,"丁目名":null,"小字名":null,"予備名":null,"地番":"10844-1","精度区分":null,"座標値種別":"図上測量","筆界未定構成筆":null,"代表点緯度":1000.287,"代表点経度":8172.939632694}},{"type":"MultiPolygon","arcs":[[[-178,-180,180]]],"properties":{"筆ID":"H000000051","version":"ver1.0","座標系":"任意座標系","測地系判別":null,"地図名":"富良野市開拓図Ｃ２５００図無Ｈ１９","地図番号":"C1-2","縮尺分母":"2500","市区町村コード":"01229","市区町村名":"富良野市","大字コード":"000","丁目コード":"000","小字コード":"0000","予備コード":"00","大字名":null,"丁目名":null,"小字名":null,"予備名":null,"地番":"10844-2","精度区分":null,"座標値種別":"図上測量","筆界未定構成筆":null,"代表点緯度":985.2585,"代表点経度":8140.60840118}},{"type":"MultiPolygon","arcs":[[[-179,-181,-29,181,182,183,184,185,-173]]],"properties":{"筆ID":"H000000052","version":"ver1.0","座標系":"任意座標系","測地系判別":null,"地図名":"富良野市開拓図Ｃ２５００図無Ｈ１９","地図番号":"C1-2","縮尺分母":"2500","市区町村コード":"01229","市区町村名":"富良野市","大字コード":"000","丁目コード":"000","小字コード":"0000","予備コード":"00","大字名":null,"丁目名":null,"小字名":null,"予備名":null,"地番":"10845-1","精度区分":null,"座標値種別":"図上測量","筆界未定構成筆":null,"代表点緯度":881.7415,"代表点経度":8360.372351907}},{"type":"MultiPolygon","arcs":[[[186,187,-174,-186]]],"properties":{"筆ID":"H000000053","version":"ver1.0","座標系":"任意座標系","測地系判別":null,"地図名":"富良野市開拓図Ｃ２５００図無Ｈ１９","地図番号":"C1-2","縮尺分母":"2500","市区町村コード":"01229","市区町村名":"富良野市","大字コード":"000","丁目コード":"000","小字コード":"0000","予備コード":"00","大字名":null,"丁目名":null,"小字名":null,"予備名":null,"地番":"筆界未定地-70","精度区分":null,"座標値種別":"図上測量","筆界未定構成筆":[{"大字コード":"000","丁目コード":"000","小字コード":"0000","予備コード":"00","地番":"10845-2"},{"大字コード":"000","丁目コード":"000","小字コード":"0000","予備コード":"00","地番":"10845-3"},{"大字コード":"000","丁目コード":"000","小字コード":"0000","予備コード":"00","地番":"10845-4"},{"大字コード":"000","丁目コード":"000","小字コード":"0000","予備コード":"00","地番":"10845-5"},{"大字コード":"000","丁目コード":"000","小字コード":"0000","予備コード":"00","地番":"10845-6"}],"代表点緯度":810.421,"代表点経度":8170.700972763}},{"type":"MultiPolygon","arcs":[[[-28,188,-26,189,190,191,-182]]],"properties":{"筆ID":"H000000054","version":"ver1.0","座標系":"任意座標系","測地系判別":null,"地図名":"富良野市開拓図Ｃ２５００図無Ｈ１９","地図番号":"C1-2","縮尺分母":"2500","市区町村コード":"01229","市区町村名":"富良野市","大字コード":"000","丁目コード":"000","小字コード":"0000","予備コード":"00","大字名":null,"丁目名":null,"小字名":null,"予備名":null,"地番":"10846","精度区分":null,"座標値種別":"図上測量","筆界未定構成筆":null,"代表点緯度":989.111,"代表点経度":8373.968418773}},{"type":"MultiPolygon","arcs":[[[-25,192,-190]]],"properties":{"筆ID":"H000000055","version":"ver1.0","座標系":"任意座標系","測地系判別":null,"地図名":"富良野市開拓図Ｃ２５００図無Ｈ１９","地図番号":"C1-2","縮尺分母":"2500","市区町村コード":"01229","市区町村名":"富良野市","大字コード":"000","丁目コード":"000","小字コード":"0000","予備コード":"00","大字名":null,"丁目名":null,"小字名":null,"予備名":null,"地番":"10847","精度区分":null,"座標値種別":"図上測量","筆界未定構成筆":null,"代表点緯度":1002.0575,"代表点経度":8405.06589095}},{"type":"MultiPolygon","arcs":[[[193,194,-183,-192]]],"properties":{"筆ID":"H000000056","version":"ver1.0","座標系":"任意座標系","測地系判別":null,"地図名":"富良野市開拓図Ｃ２５００図無Ｈ１９","地図番号":"C1-2","縮尺分母":"2500","市区町村コード":"01229","市区町村名":"富良野市","大字コード":"000","丁目コード":"000","小字コード":"0000","予備コード":"00","大字名":null,"丁目名":null,"小字名":null,"予備名":null,"地番":"10848","精度区分":null,"座標値種別":"図上測量","筆界未定構成筆":null,"代表点緯度":957.7235,"代表点経度":8395.488735216}},{"type":"MultiPolygon","arcs":[[[-24,195,196,-191,-193]]],"properties":{"筆ID":"H000000057","version":"ver1.0","座標系":"任意座標系","測地系判別":null,"地図名":"富良野市開拓図Ｃ２５００図無Ｈ１９","地図番号":"C1-2","縮尺分母":"2500","市区町村コード":"01229","市区町村名":"富良野市","大字コード":"000","丁目コード":"000","小字コード":"0000","予備コード":"00","大字名":null,"丁目名":null,"小字名":null,"予備名":null,"地番":"10849","精度区分":null,"座標値種別":"図上測量","筆界未定構成筆":null,"代表点緯度":990.054,"代表点経度":8445.286276344}},{"type":"MultiPolygon","arcs":[[[-195,197,198,199,-184]]],"properties":{"筆ID":"H000000058","version":"ver1.0","座標系":"任意座標系","測地系判別":null,"地図名":"富良野市開拓図Ｃ２５００図無Ｈ１９","地図番号":"C1-2","縮尺分母":"2500","市区町村コード":"01229","市区町村名":"富良野市","大字コード":"000","丁目コード":"000","小字コード":"0000","予備コード":"00","大字名":null,"丁目名":null,"小字名":null,"予備名":null,"地番":"10850","精度区分":null,"座標値種別":"図上測量","筆界未定構成筆":null,"代表点緯度":902.8935,"代表点経度":8455.971103905}},{"type":"MultiPolygon","arcs":[[[-200,200,201,-185]]],"properties":{"筆ID":"H000000059","version":"ver1.0","座標系":"任意座標系","測地系判別":null,"地図名":"富良野市開拓図Ｃ２５００図無Ｈ１９","地図番号":"C1-2","縮尺分母":"2500","市区町村コード":"01229","市区町村名":"富良野市","大字コード":"000","丁目コード":"000","小字コード":"0000","予備コード":"00","大字名":null,"丁目名":null,"小字名":null,"予備名":null,"地番":"10851-1","精度区分":null,"座標値種別":"図上測量","筆界未定構成筆":null,"代表点緯度":863.322,"代表点経度":8430.341114177}},{"type":"MultiPolygon","arcs":[[[-202,202,203,-187]]],"properties":{"筆ID":"H000000060","version":"ver1.0","座標系":"任意座標系","測地系判別":null,"地図名":"富良野市開拓図Ｃ２５００図無Ｈ１９","地図番号":"C1-2","縮尺分母":"2500","市区町村コード":"01229","市区町村名":"富良野市","大字コード":"000","丁目コード":"000","小字コード":"0000","予備コード":"00","大字名":null,"丁目名":null,"小字名":null,"予備名":null,"地番":"10851-2","精度区分":null,"座標値種別":"図上測量","筆界未定構成筆":null,"代表点緯度":850.992,"代表点経度":8401.52601676}},{"type":"MultiPolygon","arcs":[[[204,205,206,207]]],"properties":{"筆ID":"H000000061","version":"ver1.0","座標系":"任意座標系","測地系判別":null,"地図名":"富良野市開拓図Ｃ２５００図無Ｈ１９","地図番号":"C1-2","縮尺分母":"2500","市区町村コード":"01229","市区町村名":"富良野市","大字コード":"000","丁目コード":"000","小字コード":"0000","予備コード":"00","大字名":null,"丁目名":null,"小字名":null,"予備名":null,"地番":"10852-1","精度区分":null,"座標値種別":"図上測量","筆界未定構成筆":null,"代表点緯度":899.515,"代表点経度":8506.858760019}},{"type":"MultiPolygon","arcs":[[[-207,208,209,210]]],"properties":{"筆ID":"H000000062","version":"ver1.0","座標系":"任意座標系","測地系判別":null,"地図名":"富良野市開拓図Ｃ２５００図無Ｈ１９","地図番号":"C1-2","縮尺分母":"2500","市区町村コード":"01229","市区町村名":"富良野市","大字コード":"000","丁目コード":"000","小字コード":"0000","予備コード":"00","大字名":null,"丁目名":null,"小字名":null,"予備名":null,"地番":"10852-2","精度区分":null,"座標値種別":"図上測量","筆界未定構成筆":null,"代表点緯度":872.2065,"代表点経度":8506.506431621}},{"type":"MultiPolygon","arcs":[[[211,212,-205,213]]],"properties":{"筆ID":"H000000063","version":"ver1.0","座標系":"任意座標系","測地系判別":null,"地図名":"富良野市開拓図Ｃ２５００図無Ｈ１９","地図番号":"C1-2","縮尺分母":"2500","市区町村コード":"01229","市区町村名":"富良野市","大字コード":"000","丁目コード":"000","小字コード":"0000","予備コード":"00","大字名":null,"丁目名":null,"小字名":null,"予備名":null,"地番":"10853","精度区分":null,"座標値種別":"図上測量","筆界未定構成筆":null,"代表点緯度":935.0425,"代表点経度":8506.716022654}},{"type":"MultiPolygon","arcs":[[[214,215,-206,-213,216]]],"properties":{"筆ID":"H000000064","version":"ver1.0","座標系":"任意座標系","測地系判別":null,"地図名":"富良野市開拓図Ｃ２５００図無Ｈ１９","地図番号":"C1-2","縮尺分母":"2500","市区町村コード":"01229","市区町村名":"富良野市","大字コード":"000","丁目コード":"000","小字コード":"0000","予備コード":"00","大字名":null,"丁目名":null,"小字名":null,"予備名":null,"地番":"10854-1","精度区分":null,"座標値種別":"図上測量","筆界未定構成筆":null,"代表点緯度":906.3975,"代表点経度":8539.190580845}},{"type":"MultiPolygon","arcs":[[[217,218,-209,-216]]],"properties":{"筆ID":"H000000065","version":"ver1.0","座標系":"任意座標系","測地系判別":null,"地図名":"富良野市開拓図Ｃ２５００図無Ｈ１９","地図番号":"C1-2","縮尺分母":"2500","市区町村コード":"01229","市区町村名":"富良野市","大字コード":"000","丁目コード":"000","小字コード":"0000","予備コード":"00","大字名":null,"丁目名":null,"小字名":null,"予備名":null,"地番":"10854-2","精度区分":null,"座標値種別":"図上測量","筆界未定構成筆":null,"代表点緯度":886.038,"代表点経度":8581.254831216}},{"type":"MultiPolygon","arcs":[[[219,220,-217,-212,221,-22]]],"properties":{"筆ID":"H000000066","version":"ver1.0","座標系":"任意座標系","測地系判別":null,"地図名":"富良野市開拓図Ｃ２５００図無Ｈ１９","地図番号":"C1-2","縮尺分母":"2500","市区町村コード":"01229","市区町村名":"富良野市","大字コード":"000","丁目コード":"000","小字コード":"0000","予備コード":"00","大字名":null,"丁目名":null,"小字名":null,"予備名":null,"地番":"10855","精度区分":null,"座標値種別":"図上測量","筆界未定構成筆":null,"代表点緯度":964.1405,"代表点経度":8533.734567}},{"type":"MultiPolygon","arcs":[[[222,223,-20]]],"properties":{"筆ID":"H000000067","version":"ver1.0","座標系":"任意座標系","測地系判別":null,"地図名":"富良野市開拓図Ｃ２５００図無Ｈ１９","地図番号":"C1-2","縮尺分母":"2500","市区町村コード":"01229","市区町村名":"富良野市","大字コード":"000","丁目コード":"000","小字コード":"0000","予備コード":"00","大字名":null,"丁目名":null,"小字名":null,"予備名":null,"地番":"10856","精度区分":null,"座標値種別":"図上測量","筆界未定構成筆":null,"代表点緯度":1005.552,"代表点経度":8506.396892287}},{"type":"MultiPolygon","arcs":[[[-19,224,225,-223]]],"properties":{"筆ID":"H000000068","version":"ver1.0","座標系":"任意座標系","測地系判別":null,"地図名":"富良野市開拓図Ｃ２５００図無Ｈ１９","地図番号":"C1-2","縮尺分母":"2500","市区町村コード":"01229","市区町村名":"富良野市","大字コード":"000","丁目コード":"000","小字コード":"0000","予備コード":"00","大字名":null,"丁目名":null,"小字名":null,"予備名":null,"地番":"10857","精度区分":null,"座標値種別":"図上測量","筆界未定構成筆":null,"代表点緯度":1001.306,"代表点経度":8608.289888959}},{"type":"MultiPolygon","arcs":[[[226,227,228,-221]]],"properties":{"筆ID":"H000000069","version":"ver1.0","座標系":"任意座標系","測地系判別":null,"地図名":"富良野市開拓図Ｃ２５００図無Ｈ１９","地図番号":"C1-2","縮尺分母":"2500","市区町村コード":"01229","市区町村名":"富良野市","大字コード":"000","丁目コード":"000","小字コード":"0000","予備コード":"00","大字名":null,"丁目名":null,"小字名":null,"予備名":null,"地番":"10858","精度区分":null,"座標値種別":"図上測量","筆界未定構成筆":null,"代表点緯度":956.2165,"代表点経度":8628.572863273}},{"type":"MultiPolygon","arcs":[[[229,230,231,-215,-229]]],"properties":{"筆ID":"H000000070","version":"ver1.0","座標系":"任意座標系","測地系判別":null,"地図名":"富良野市開拓図Ｃ２５００図無Ｈ１９","地図番号":"C1-2","縮尺分母":"2500","市区町村コード":"01229","市区町村名":"富良野市","大字コード":"000","丁目コード":"000","小字コード":"0000","予備コード":"00","大字名":null,"丁目名":null,"小字名":null,"予備名":null,"地番":"10859-1","精度区分":null,"座標値種別":"図上測量","筆界未定構成筆":null,"代表点緯度":907.3395,"代表点経度":8648.563706908}},{"type":"MultiPolygon","arcs":[[[232,233,234,-231]]],"properties":{"筆ID":"H000000071","version":"ver1.0","座標系":"任意座標系","測地系判別":null,"地図名":"富良野市開拓図Ｃ２５００図無Ｈ１９","地図番号":"C1-2","縮尺分母":"2500","市区町村コード":"01229","市区町村名":"富良野市","大字コード":"000","丁目コード":"000","小字コード":"0000","予備コード":"00","大字名":null,"丁目名":null,"小字名":null,"予備名":null,"地番":"10859-2","精度区分":null,"座標値種別":"図上測量","筆界未定構成筆":null,"代表点緯度":905.834,"代表点経度":8689.632875334}},{"type":"MultiPolygon","arcs":[[[-235,235,-218,-232]]],"properties":{"筆ID":"H000000072","version":"ver1.0","座標系":"任意座標系","測地系判別":null,"地図名":"富良野市開拓図Ｃ２５００図無Ｈ１９","地図番号":"C1-2","縮尺分母":"2500","市区町村コード":"01229","市区町村名":"富良野市","大字コード":"000","丁目コード":"000","小字コード":"0000","予備コード":"00","大字名":null,"丁目名":null,"小字名":null,"予備名":null,"地番":"10859-3","精度区分":null,"座標値種別":"図上測量","筆界未定構成筆":null,"代表点緯度":895.664,"代表点経度":8633.579604387}},{"type":"MultiPolygon","arcs":[[[236,-225,-18]]],"properties":{"筆ID":"H000000073","version":"ver1.0","座標系":"任意座標系","測地系判別":null,"地図名":"富良野市開拓図Ｃ２５００図無Ｈ１９","地図番号":"C1-2","縮尺分母":"2500","市区町村コード":"01229","市区町村名":"富良野市","大字コード":"000","丁目コード":"000","小字コード":"0000","予備コード":"00","大字名":null,"丁目名":null,"小字名":null,"予備名":null,"地番":"10861","精度区分":null,"座標値種別":"図上測量","筆界未定構成筆":null,"代表点緯度":1002.527,"代表点経度":8648.64021172}},{"type":"MultiPolygon","arcs":[[[237,238,-16]]],"properties":{"筆ID":"H000000074","version":"ver1.0","座標系":"任意座標系","測地系判別":null,"地図名":"富良野市開拓図Ｃ２５００図無Ｈ１９","地図番号":"C1-2","縮尺分母":"2500","市区町村コード":"01229","市区町村名":"富良野市","大字コード":"000","丁目コード":"000","小字コード":"0000","予備コード":"00","大字名":null,"丁目名":null,"小字名":null,"予備名":null,"地番":"10862","精度区分":null,"座標値種別":"図上測量","筆界未定構成筆":null,"代表点緯度":997.266,"代表点経度":8695.564666543}},{"type":"MultiPolygon","arcs":[[[239,-238,-15]]],"properties":{"筆ID":"H000000075","version":"ver1.0","座標系":"任意座標系","測地系判別":null,"地図名":"富良野市開拓図Ｃ２５００図無Ｈ１９","地図番号":"C1-2","縮尺分母":"2500","市区町村コード":"01229","市区町村名":"富良野市","大字コード":"000","丁目コード":"000","小字コード":"0000","予備コード":"00","大字名":null,"丁目名":null,"小字名":null,"予備名":null,"地番":"10863","精度区分":null,"座標値種別":"図上測量","筆界未定構成筆":null,"代表点緯度":996.7705,"代表点経度":8715.822158899}},{"type":"MultiPolygon","arcs":[[[240,-38,241,242]]],"properties":{"筆ID":"H000000076","version":"ver1.0","座標系":"任意座標系","測地系判別":null,"地図名":"富良野市開拓図Ｃ２５００図無Ｈ１９","地図番号":"C1-2","縮尺分母":"2500","市区町村コード":"01229","市区町村名":"富良野市","大字コード":"000","丁目コード":"000","小字コード":"0000","予備コード":"00","大字名":null,"丁目名":null,"小字名":null,"予備名":null,"地番":"10864","精度区分":null,"座標値種別":"図上測量","筆界未定構成筆":null,"代表点緯度":968.892,"代表点経度":8743.159666365}},{"type":"MultiPolygon","arcs":[[[-37,243,244,245,246,247,-242]]],"properties":{"筆ID":"H000000077","version":"ver1.0","座標系":"任意座標系","測地系判別":null,"地図名":"富良野市開拓図Ｃ２５００図無Ｈ１９","地図番号":"C1-3","縮尺分母":"2500","市区町村コード":"01229","市区町村名":"富良野市","大字コード":"000","丁目コード":"000","小字コード":"0000","予備コード":"00","大字名":null,"丁目名":null,"小字名":null,"予備名":null,"地番":"10865-1","精度区分":null,"座標値種別":"図上測量","筆界未定構成筆":null,"代表点緯度":959.812,"代表点経度":8870.17589063}},{"type":"MultiPolygon","arcs":[[[248,249,250,-245]]],"properties":{"筆ID":"H000000078","version":"ver1.0","座標系":"任意座標系","測地系判別":null,"地図名":"富良野市開拓図Ｃ２５００図無Ｈ１９","地図番号":"C1-3","縮尺分母":"2500","市区町村コード":"01229","市区町村名":"富良野市","大字コード":"000","丁目コード":"000","小字コード":"0000","予備コード":"00","大字名":null,"丁目名":null,"小字名":null,"予備名":null,"地番":"10865-2","精度区分":null,"座標値種別":"図上測量","筆界未定構成筆":null,"代表点緯度":947.4385,"代表点経度":8912.976263062}},{"type":"MultiPolygon","arcs":[[[-251,251,252,-246]]],"properties":{"筆ID":"H000000079","version":"ver1.0","座標系":"任意座標系","測地系判別":null,"地図名":"富良野市開拓図Ｃ２５００図無Ｈ１９","地図番号":"C1-3","縮尺分母":"2500","市区町村コード":"01229","市区町村名":"富良野市","大字コード":"000","丁目コード":"000","小字コード":"0000","予備コード":"00","大字名":null,"丁目名":null,"小字名":null,"予備名":null,"地番":"10865-3","精度区分":null,"座標値種別":"図上測量","筆界未定構成筆":null,"代表点緯度":927.9305,"代表点経度":8807.99345566}},{"type":"MultiPolygon","arcs":[[[-253,253,254,-247]]],"properties":{"筆ID":"H000000080","version":"ver1.0","座標系":"任意座標系","測地系判別":null,"地図名":"富良野市開拓図Ｃ２５００図無Ｈ１９","地図番号":"C1-2","縮尺分母":"2500","市区町村コード":"01229","市区町村名":"富良野市","大字コード":"000","丁目コード":"000","小字コード":"0000","予備コード":"00","大字名":null,"丁目名":null,"小字名":null,"予備名":null,"地番":"10865-4","精度区分":null,"座標値種別":"図上測量","筆界未定構成筆":null,"代表点緯度":916.3815,"代表点経度":8746.039183592}},{"type":"MultiPolygon","arcs":[[[255,256,257,258,-244,-36]]],"properties":{"筆ID":"H000000081","version":"ver1.0","座標系":"任意座標系","測地系判別":null,"地図名":"富良野市開拓図Ｃ２５００図無Ｈ１９","地図番号":"C1-3","縮尺分母":"2500","市区町村コード":"01229","市区町村名":"富良野市","大字コード":"000","丁目コード":"000","小字コード":"0000","予備コード":"00","大字名":null,"丁目名":null,"小字名":null,"予備名":null,"地番":"10866-1","精度区分":null,"座標値種別":"図上測量","筆界未定構成筆":null,"代表点緯度":1025.505,"代表点経度":9241.966115589}},{"type":"MultiPolygon","arcs":[[[259,-249,-259]]],"properties":{"筆ID":"H000000082","version":"ver1.0","座標系":"任意座標系","測地系判別":null,"地図名":"富良野市開拓図Ｃ２５００図無Ｈ１９","地図番号":"C1-3","縮尺分母":"2500","市区町村コード":"01229","市区町村名":"富良野市","大字コード":"000","丁目コード":"000","小字コード":"0000","予備コード":"00","大字名":null,"丁目名":null,"小字名":null,"予備名":null,"地番":"10866-2","精度区分":null,"座標値種別":"図上測量","筆界未定構成筆":null,"代表点緯度":963.7185,"代表点経度":8999.509925484}},{"type":"MultiPolygon","arcs":[[[260,261,-256,-35]]],"properties":{"筆ID":"H000000083","version":"ver1.0","座標系":"任意座標系","測地系判別":null,"地図名":"富良野市開拓図Ｃ２５００図無Ｈ１９","地図番号":"C1-3","縮尺分母":"2500","市区町村コード":"01229","市区町村名":"富良野市","大字コード":"000","丁目コード":"000","小字コード":"0000","予備コード":"00","大字名":null,"丁目名":null,"小字名":null,"予備名":null,"地番":"10867","精度区分":null,"座標値種別":"図上測量","筆界未定構成筆":null,"代表点緯度":1057.3605,"代表点経度":9298.408327214}},{"type":"MultiPolygon","arcs":[[[262,263,264,-257,-262]]],"properties":{"筆ID":"H000000084","version":"ver1.0","座標系":"任意座標系","測地系判別":null,"地図名":"富良野市開拓図Ｃ２５００図無Ｈ１９","地図番号":"C1-3","縮尺分母":"2500","市区町村コード":"01229","市区町村名":"富良野市","大字コード":"000","丁目コード":"000","小字コード":"0000","予備コード":"00","大字名":null,"丁目名":null,"小字名":null,"予備名":null,"地番":"10868","精度区分":null,"座標値種別":"図上測量","筆界未定構成筆":null,"代表点緯度":1065.5305,"代表点経度":9360.241776547}},{"type":"MultiPolygon","arcs":[[[-33,265,-264,266]]],"properties":{"筆ID":"H000000085","version":"ver1.0","座標系":"任意座標系","測地系判別":null,"地図名":"富良野市開拓図Ｃ２５００図無Ｈ１９","地図番号":"C1-3","縮尺分母":"2500","市区町村コード":"01229","市区町村名":"富良野市","大字コード":"000","丁目コード":"000","小字コード":"0000","予備コード":"00","大字名":null,"丁目名":null,"小字名":null,"予備名":null,"地番":"10869","精度区分":null,"座標値種別":"図上測量","筆界未定構成筆":null,"代表点緯度":1065.2625,"代表点経度":9486.38502549}},{"type":"MultiPolygon","arcs":[[[267,-54,268,-52,-41,-79,-72,-71,-69,-65,-59,269,-3,270]]],"properties":{"筆ID":"H000000086","version":"ver1.0","座標系":"任意座標系","測地系判別":null,"地図名":"富良野市開拓図Ｃ２５００図無Ｈ１９","地図番号":"C1-1","縮尺分母":"2500","市区町村コード":"01229","市区町村名":"富良野市","大字コード":"000","丁目コード":"000","小字コード":"0000","予備コード":"00","大字名":null,"丁目名":null,"小字名":null,"予備名":null,"地番":"10870","精度区分":null,"座標値種別":"図上測量","筆界未定構成筆":null,"代表点緯度":880.4055,"代表点経度":6953.676681539}},{"type":"MultiPolygon","arcs":[[[-61,-64,-91,-90,-115,-116,-118,-110,-95,-100,-48,-270]]],"properties":{"筆ID":"H000000087","version":"ver1.0","座標系":"任意座標系","測地系判別":null,"地図名":"富良野市開拓図Ｃ２５００図無Ｈ１９","地図番号":"C1-1","縮尺分母":"2500","市区町村コード":"01229","市区町村名":"富良野市","大字コード":"000","丁目コード":"000","小字コード":"0000","予備コード":"00","大字名":null,"丁目名":null,"小字名":null,"予備名":null,"地番":"10871","精度区分":null,"座標値種別":"図上測量","筆界未定構成筆":null,"代表点緯度":707.0745,"代表点経度":6906.563058695}},{"type":"MultiPolygon","arcs":[[[-98,-103,-109,271,-6,-101]]],"properties":{"筆ID":"H000000088","version":"ver1.0","座標系":"任意座標系","測地系判別":null,"地図名":"富良野市開拓図Ｃ２５００図無Ｈ１９","地図番号":"C1-1","縮尺分母":"2500","市区町村コード":"01229","市区町村名":"富良野市","大字コード":"000","丁目コード":"000","小字コード":"0000","予備コード":"00","大字名":null,"丁目名":null,"小字名":null,"予備名":null,"地番":"10872","精度区分":null,"座標値種別":"図上測量","筆界未定構成筆":null,"代表点緯度":602.8275,"代表点経度":7032.779614589}},{"type":"MultiPolygon","arcs":[[[-138,-170,-155,-149,-144,-124,-140]]],"properties":{"筆ID":"H000000089","version":"ver1.0","座標系":"任意座標系","測地系判別":null,"地図名":"富良野市開拓図Ｃ２５００図無Ｈ１９","地図番号":"C1-1","縮尺分母":"2500","市区町村コード":"01229","市区町村名":"富良野市","大字コード":"000","丁目コード":"000","小字コード":"0000","予備コード":"00","大字名":null,"丁目名":null,"小字名":null,"予備名":null,"地番":"10873","精度区分":null,"座標値種別":"図上測量","筆界未定構成筆":null,"代表点緯度":829.414,"代表点経度":7464.47149197}},{"type":"MultiPolygon","arcs":[[[272,-11,-163,-161]]],"properties":{"筆ID":"H000000090","version":"ver1.0","座標系":"任意座標系","測地系判別":null,"地図名":"富良野市開拓図Ｃ２５００図無Ｈ１９","地図番号":"C1-1","縮尺分母":"2500","市区町村コード":"01229","市区町村名":"富良野市","大字コード":"000","丁目コード":"000","小字コード":"0000","予備コード":"00","大字名":null,"丁目名":null,"小字名":null,"予備名":null,"地番":"10874","精度区分":null,"座標値種別":"図上測量","筆界未定構成筆":null,"代表点緯度":960.6305,"代表点経度":7619.221865285}},{"type":"MultiPolygon","arcs":[[[-222,-214,-208,-211,273,-203,-201,-199,274,-196,-23]]],"properties":{"筆ID":"H000000091","version":"ver1.0","座標系":"任意座標系","測地系判別":null,"地図名":"富良野市開拓図Ｃ２５００図無Ｈ１９","地図番号":"C1-2","縮尺分母":"2500","市区町村コード":"01229","市区町村名":"富良野市","大字コード":"000","丁目コード":"000","小字コード":"0000","予備コード":"00","大字名":null,"丁目名":null,"小字名":null,"予備名":null,"地番":"10875","精度区分":null,"座標値種別":"図上測量","筆界未定構成筆":null,"代表点緯度":934.9405,"代表点経度":8481.939102456}},{"type":"MultiPolygon","arcs":[[[-224,-226,-237,-17,-239,-240,-14,-241,275,276,-227,-220,-21]]],"properties":{"筆ID":"H000000092","version":"ver1.0","座標系":"任意座標系","測地系判別":null,"地図名":"富良野市開拓図Ｃ２５００図無Ｈ１９","地図番号":"C1-2","縮尺分母":"2500","市区町村コード":"01229","市区町村名":"富良野市","大字コード":"000","丁目コード":"000","小字コード":"0000","予備コード":"00","大字名":null,"丁目名":null,"小字名":null,"予備名":null,"地番":"10877","精度区分":null,"座標値種別":"図上測量","筆界未定構成筆":null,"代表点緯度":995.153,"代表点経度":8641.491880875}},{"type":"MultiPolygon","arcs":[[[-189,-27]]],"properties":{"筆ID":"H000000093","version":"ver1.0","座標系":"任意座標系","測地系判別":null,"地図名":"富良野市開拓図Ｃ２５００図無Ｈ１９","地図番号":"C1-2","縮尺分母":"2500","市区町村コード":"01229","市区町村名":"富良野市","大字コード":"000","丁目コード":"000","小字コード":"0000","予備コード":"00","大字名":null,"丁目名":null,"小字名":null,"予備名":null,"地番":"10878","精度区分":null,"座標値種別":"図上測量","筆界未定構成筆":null,"代表点緯度":1022.779,"代表点経度":8363.263664895}},{"type":"MultiPolygon","arcs":[[[-267,-263,-261,-34]]],"properties":{"筆ID":"H000000094","version":"ver1.0","座標系":"任意座標系","測地系判別":null,"地図名":"富良野市開拓図Ｃ２５００図無Ｈ１９","地図番号":"C1-3","縮尺分母":"2500","市区町村コード":"01229","市区町村名":"富良野市","大字コード":"000","丁目コード":"000","小字コード":"0000","予備コード":"00","大字名":null,"丁目名":null,"小字名":null,"予備名":null,"地番":"10879","精度区分":null,"座標値種別":"図上測量","筆界未定構成筆":null,"代表点緯度":1087.627,"代表点経度":9598.871750141}},{"type":"MultiPolygon","arcs":[[[-197,-275,-198,-194]]],"properties":{"筆ID":"H000000095","version":"ver1.0","座標系":"任意座標系","測地系判別":null,"地図名":"富良野市開拓図Ｃ２５００図無Ｈ１９","地図番号":"C1-2","縮尺分母":"2500","市区町村コード":"01229","市区町村名":"富良野市","大字コード":"000","丁目コード":"000","小字コード":"0000","予備コード":"00","大字名":null,"丁目名":null,"小字名":null,"予備名":null,"地番":"10876","精度区分":null,"座標値種別":"図上測量","筆界未定構成筆":null,"代表点緯度":973.2755,"代表点経度":8451.01956777}},{"type":"MultiPolygon","arcs":[[[-46,277,278,279,280,281,282,283,-2]]],"properties":{"筆ID":"H000000096","version":"ver1.0","座標系":"任意座標系","測地系判別":null,"地図名":"富良野市開拓図Ｃ２５００図無Ｈ１９","地図番号":"C1-1","縮尺分母":"2500","市区町村コード":"01229","市区町村名":"富良野市","大字コード":"000","丁目コード":"000","小字コード":"0000","予備コード":"00","大字名":null,"丁目名":null,"小字名":null,"予備名":null,"地番":"地区外-2000000","精度区分":null,"座標値種別":"図上測量","筆界未定構成筆":null,"代表点緯度":786.619,"代表点経度":6729.150542053}},{"type":"MultiPolygon","arcs":[[[284,285,286,-43]]],"properties":{"筆ID":"H000000097","version":"ver1.0","座標系":"任意座標系","測地系判別":null,"地図名":"富良野市開拓図Ｃ２５００図無Ｈ１９","地図番号":"C1-1","縮尺分母":"2500","市区町村コード":"01229","市区町村名":"富良野市","大字コード":"000","丁目コード":"000","小字コード":"0000","予備コード":"00","大字名":null,"丁目名":null,"小字名":null,"予備名":null,"地番":"10800-2","精度区分":null,"座標値種別":"図上測量","筆界未定構成筆":null,"代表点緯度":968.748,"代表点経度":6732.389256359}},{"type":"MultiPolygon","arcs":[[[287,288,289,-286]]],"properties":{"筆ID":"H000000098","version":"ver1.0","座標系":"任意座標系","測地系判別":null,"地図名":"富良野市開拓図Ｃ２５００図無Ｈ１９","地図番号":"C1-1","縮尺分母":"2500","市区町村コード":"01229","市区町村名":"富良野市","大字コード":"000","丁目コード":"000","小字コード":"0000","予備コード":"00","大字名":null,"丁目名":null,"小字名":null,"予備名":null,"地番":"10800-1","精度区分":null,"座標値種別":"図上測量","筆界未定構成筆":null,"代表点緯度":927.336,"代表点経度":6795.406944307}},{"type":"MultiPolygon","arcs":[[[290,-57,291,292]]],"properties":{"筆ID":"H000000099","version":"ver1.0","座標系":"任意座標系","測地系判別":null,"地図名":"富良野市開拓図Ｃ２５００図無Ｈ１９","地図番号":"C1-1","縮尺分母":"2500","市区町村コード":"01229","市区町村名":"富良野市","大字コード":"000","丁目コード":"000","小字コード":"0000","予備コード":"00","大字名":null,"丁目名":null,"小字名":null,"予備名":null,"地番":"10801-1","精度区分":null,"座標値種別":"図上測量","筆界未定構成筆":null,"代表点緯度":945.1075,"代表点経度":6886.682015381}},{"type":"MultiPolygon","arcs":[[[-289,293,-292,-56,294]]],"properties":{"筆ID":"H000000100","version":"ver1.0","座標系":"任意座標系","測地系判別":null,"地図名":"富良野市開拓図Ｃ２５００図無Ｈ１９","地図番号":"C1-1","縮尺分母":"2500","市区町村コード":"01229","市区町村名":"富良野市","大字コード":"000","丁目コード":"000","小字コード":"0000","予備コード":"00","大字名":null,"丁目名":null,"小字名":null,"予備名":null,"地番":"10801-2","精度区分":null,"座標値種別":"図上測量","筆界未定構成筆":null,"代表点緯度":939.023,"代表点経度":6827.891137115}},{"type":"MultiPolygon","arcs":[[[-53,-269,-58,-291,295]]],"properties":{"筆ID":"H000000101","version":"ver1.0","座標系":"任意座標系","測地系判別":null,"地図名":"富良野市開拓図Ｃ２５００図無Ｈ１９","地図番号":"C1-1","縮尺分母":"2500","市区町村コード":"01229","市区町村名":"富良野市","大字コード":"000","丁目コード":"000","小字コード":"0000","予備コード":"00","大字名":null,"丁目名":null,"小字名":null,"予備名":null,"地番":"10801-3","精度区分":null,"座標値種別":"図上測量","筆界未定構成筆":null,"代表点緯度":961.7285,"代表点経度":6964.016680911}},{"type":"MultiPolygon","arcs":[[[-271,-284,296,297]]],"properties":{"筆ID":"H000000102","version":"ver1.0","座標系":"任意座標系","測地系判別":null,"地図名":"富良野市開拓図Ｃ２５００図無Ｈ１９","地図番号":"C1-1","縮尺分母":"2500","市区町村コード":"01229","市区町村名":"富良野市","大字コード":"000","丁目コード":"000","小字コード":"0000","予備コード":"00","大字名":null,"丁目名":null,"小字名":null,"予備名":null,"地番":"10805-1","精度区分":null,"座標値種別":"図上測量","筆界未定構成筆":null,"代表点緯度":777.7195,"代表点経度":6844.665238015}},{"type":"MultiPolygon","arcs":[[[298,-282,299]]],"properties":{"筆ID":"H000000103","version":"ver1.0","座標系":"任意座標系","測地系判別":null,"地図名":"富良野市開拓図Ｃ２５００図無Ｈ１９","地図番号":"C1-1","縮尺分母":"2500","市区町村コード":"01229","市区町村名":"富良野市","大字コード":"000","丁目コード":"000","小字コード":"0000","予備コード":"00","大字名":null,"丁目名":null,"小字名":null,"予備名":null,"地番":"10805-2","精度区分":null,"座標値種別":"図上測量","筆界未定構成筆":null,"代表点緯度":757.936,"代表点経度":6804.324633079}},{"type":"MultiPolygon","arcs":[[[300,-297,-283,-299]]],"properties":{"筆ID":"H000000104","version":"ver1.0","座標系":"任意座標系","測地系判別":null,"地図名":"富良野市開拓図Ｃ２５００図無Ｈ１９","地図番号":"C1-1","縮尺分母":"2500","市区町村コード":"01229","市区町村名":"富良野市","大字コード":"000","丁目コード":"000","小字コード":"0000","予備コード":"00","大字名":null,"丁目名":null,"小字名":null,"予備名":null,"地番":"10805-3","精度区分":null,"座標値種別":"図上測量","筆界未定構成筆":null,"代表点緯度":761.6855,"代表点経度":6806.854197488}},{"type":"MultiPolygon","arcs":[[[301,-248,-255,302,-233,-230,-228,-277]]],"properties":{"筆ID":"H000000105","version":"ver1.0","座標系":"任意座標系","測地系判別":null,"地図名":"富良野市開拓図Ｃ２５００図無Ｈ１９","地図番号":"C1-2","縮尺分母":"2500","市区町村コード":"01229","市区町村名":"富良野市","大字コード":"000","丁目コード":"000","小字コード":"0000","予備コード":"00","大字名":null,"丁目名":null,"小字名":null,"予備名":null,"地番":"10860-1","精度区分":null,"座標値種別":"図上測量","筆界未定構成筆":null,"代表点緯度":939.0045,"代表点経度":8713.25588236}},{"type":"MultiPolygon","arcs":[[[-243,-302,-276]]],"properties":{"筆ID":"H000000106","version":"ver1.0","座標系":"任意座標系","測地系判別":null,"地図名":"富良野市開拓図Ｃ２５００図無Ｈ１９","地図番号":"C1-2","縮尺分母":"2500","市区町村コード":"01229","市区町村名":"富良野市","大字コード":"000","丁目コード":"000","小字コード":"0000","予備コード":"00","大字名":null,"丁目名":null,"小字名":null,"予備名":null,"地番":"10860-2","精度区分":null,"座標値種別":"図上測量","筆界未定構成筆":null,"代表点緯度":979.093,"代表点経度":8686.794660777}},{"type":"MultiPolygon","arcs":[[[-290,-295,-55,-268,-298,303,304]]],"properties":{"筆ID":"H000000107","version":"ver1.0","座標系":"任意座標系","測地系判別":null,"地図名":"富良野市開拓図Ｃ２５００図無Ｈ１９","地図番号":"C1-1","縮尺分母":"2500","市区町村コード":"01229","市区町村名":"富良野市","大字コード":"000","丁目コード":"000","小字コード":"0000","予備コード":"00","大字名":null,"丁目名":null,"小字名":null,"予備名":null,"地番":"10804-1","精度区分":null,"座標値種別":"図上測量","筆界未定構成筆":null,"代表点緯度":873.9435,"代表点経度":6792.642661453}},{"type":"MultiPolygon","arcs":[[[-45,305,-278]]],"properties":{"筆ID":"H000000108","version":"ver1.0","座標系":"任意座標系","測地系判別":null,"地図名":"富良野市開拓図Ｃ２５００図無Ｈ１９","地図番号":"C1-1","縮尺分母":"2500","市区町村コード":"01229","市区町村名":"富良野市","大字コード":"000","丁目コード":"000","小字コード":"0000","予備コード":"00","大字名":null,"丁目名":null,"小字名":null,"予備名":null,"地番":"10804-2","精度区分":null,"座標値種別":"図上測量","筆界未定構成筆":null,"代表点緯度":887.563,"代表点経度":6695.371356838}},{"type":"MultiPolygon","arcs":[[[306,-280,307]]],"properties":{"筆ID":"H000000109","version":"ver1.0","座標系":"任意座標系","測地系判別":null,"地図名":"富良野市開拓図Ｃ２５００図無Ｈ１９","地図番号":"C1-1","縮尺分母":"2500","市区町村コード":"01229","市区町村名":"富良野市","大字コード":"000","丁目コード":"000","小字コード":"0000","予備コード":"00","大字名":null,"丁目名":null,"小字名":null,"予備名":null,"地番":"10804-3","精度区分":null,"座標値種別":"図上測量","筆界未定構成筆":null,"代表点緯度":785.8485,"代表点経度":6766.354348575}},{"type":"MultiPolygon","arcs":[[[308,-304,-301,309]]],"properties":{"筆ID":"H000000110","version":"ver1.0","座標系":"任意座標系","測地系判別":null,"地図名":"富良野市開拓図Ｃ２５００図無Ｈ１９","地図番号":"C1-1","縮尺分母":"2500","市区町村コード":"01229","市区町村名":"富良野市","大字コード":"000","丁目コード":"000","小字コード":"0000","予備コード":"00","大字名":null,"丁目名":null,"小字名":null,"予備名":null,"地番":"10804-6","精度区分":null,"座標値種別":"図上測量","筆界未定構成筆":null,"代表点緯度":773.044,"代表点経度":6796.22413515}},{"type":"MultiPolygon","arcs":[[[310,-310,-300,-281,-307]]],"properties":{"筆ID":"H000000111","version":"ver1.0","座標系":"任意座標系","測地系判別":null,"地図名":"富良野市開拓図Ｃ２５００図無Ｈ１９","地図番号":"C1-1","縮尺分母":"2500","市区町村コード":"01229","市区町村名":"富良野市","大字コード":"000","丁目コード":"000","小字コード":"0000","予備コード":"00","大字名":null,"丁目名":null,"小字名":null,"予備名":null,"地番":"10804-4","精度区分":null,"座標値種別":"図上測量","筆界未定構成筆":null,"代表点緯度":767.405,"代表点経度":6790.45306914}},{"type":"MultiPolygon","arcs":[[[-287,-305,-309,-311,-308,-279,-306,-44]]],"properties":{"筆ID":"H000000112","version":"ver1.0","座標系":"任意座標系","測地系判別":null,"地図名":"富良野市開拓図Ｃ２５００図無Ｈ１９","地図番号":"C1-1","縮尺分母":"2500","市区町村コード":"01229","市区町村名":"富良野市","大字コード":"000","丁目コード":"000","小字コード":"0000","予備コード":"00","大字名":null,"丁目名":null,"小字名":null,"予備名":null,"地番":"10804-5","精度区分":null,"座標値種別":"図上測量","筆界未定構成筆":null,"代表点緯度":865.4945,"代表点経度":6719.897567841}}]}},"arcs":[[[16748,462497],[3867,-14053]],[[20615,448444],[52733,-198509],[6771,62732]],[[80119,312667],[2301,-6995]],[[82420,305672],[-6941,-63758],[41732,-157078]],[[117211,84836],[5926,-22304]],[[123137,62532],[1509,-5681]],[[124646,56851],[12416,-46374],[-2229,-10477],[-60610,228487],[-4206,-37339],[-2274,7138],[4193,38473],[-71936,271421],[653,15067],[16095,-60750]],[[329378,732363],[14098,134575],[3412,7039]],[[346888,873977],[-3033,-30409]],[[343855,843568],[-12196,-113516]],[[331659,730052],[-2281,2311]],[[346888,873977],[2215,4571],[10542,31993],[24384,9370],[9870,-32118],[22765,87238],[16458,-26394],[9229,18395],[10466,-56623],[25741,-9158],[24327,-42718],[3813,-91949],[31870,-25353],[12444,129452],[33575,-46011],[6521,44304],[24424,-40174],[23667,18388],[23293,-14511],[5006,-10033],[8912,-26411],[1880,-17564]],[[678290,778671],[-2040,-1906]],[[676250,776765],[-528,7980]],[[675722,784745],[-443,7912],[-10715,23619],[-3614,2684]],[[660950,818960],[-6699,4977]],[[654251,823937],[-3921,2913]],[[650330,826850],[-10591,7707]],[[639739,834557],[-16054,-10854]],[[623685,823703],[-8651,-5848],[-23028,40144],[-6255,-40391]],[[585751,817608],[-864,-5580]],[[584887,812028],[-513,-3309]],[[584374,808719],[-1444,2267]],[[582930,810986],[-7469,11717]],[[575461,822703],[-13588,21318]],[[561873,844021],[-3439,5394]],[[558434,849415],[-6225,9768],[-297,-3039]],[[551912,856144],[-2843,-29079]],[[549069,827065],[-9484,-97000],[-34938,26272],[-558,17833]],[[504089,774170],[-2306,73657],[-23296,44467],[-5768,2190]],[[472719,894484],[-21527,8174],[-10257,51003],[-6953,-16515],[-18369,21668],[-21310,-83277],[-9721,33944],[-3431,-1858]],[[381151,907623],[-20098,-6297],[-17198,-57758]],[[966574,967959],[-2654,4042],[-7950,1711]],[[955970,973712],[-2614,561],[-21368,-176],[-10630,-9569],[-1130,-2093],[-24689,10170],[-35933,15884],[-1002,-13047]],[[858604,975442],[-2008,-26148],[-9905,-6878]],[[846691,942416],[-10882,-7559],[-3866,-56006],[-564,-3857],[-30394,-34302],[-47320,-18676],[-6375,-10046]],[[747290,811970],[-23996,-37805],[-44497,-45571]],[[678797,728594],[-2547,48171]],[[678290,778671],[1661,-34367],[8929,7859],[11931,12569],[17924,18481],[25394,40055],[7888,11285],[16149,5924],[24024,8253],[5174,1518],[2294,3585],[30674,33245],[4333,58037],[20790,14461],[2619,40423],[26055,-11671],[19555,-9450],[13264,-5877],[15390,13302],[16533,-355],[15099,-1857],[13789,-19163],[22240,10781],[-2169,-15689],[-19615,-9788],[-11641,17727]],[[136587,808443],[-5405,-50629]],[[131182,757814],[-2641,6745]],[[128541,764559],[18535,172460],[2912,-3494],[-13401,-125082]],[[47143,774540],[-11397,-17001]],[[35746,757539],[-2733,-20314],[-4637,-107596]],[[28376,629629],[-502,-11662]],[[27874,617967],[-7259,-169523]],[[16748,462497],[11593,283386],[4234,35448],[30509,42639],[3776,-22904],[-19717,-26526]],[[82420,305672],[27598,-83943]],[[110018,221729],[849,-2582]],[[110867,219147],[6344,-134311]],[[123743,776812],[4798,-12253]],[[128541,764559],[-5499,-51583]],[[123042,712976],[714,52794],[-13,11042]],[[121358,697181],[-21285,-199667]],[[100073,497514],[-17413,61187],[-2109,64367]],[[80551,623068],[-3098,40637]],[[77453,663705],[29648,22605]],[[107101,686310],[14257,10871]],[[82977,310793],[4679,42983]],[[87656,353776],[19202,-81017],[18406,48518],[692,-18942]],[[125956,302335],[-16183,-72009],[-26796,80467]],[[92797,400999],[21222,-87910],[15197,57065],[3784,-17972]],[[133000,352182],[3184,-15119]],[[136184,337063],[-8633,-27628],[-1595,-7100]],[[87656,353776],[5141,47223]],[[103036,495055],[15803,-16199],[3720,39649]],[[122559,518505],[20338,-24634]],[[142897,493871],[-9897,-141689]],[[92797,400999],[10239,94056]],[[122751,679103],[-192,-160598]],[[103036,495055],[19715,184048]],[[122751,679103],[1738,16224]],[[124489,695327],[23901,-45829],[-2314,-38106],[6065,-26098]],[[152141,585294],[5661,-24362],[-3572,-78433]],[[154230,482499],[-11333,11372]],[[136587,808443],[24709,-23569]],[[161296,784874],[-1340,-49659],[-2230,-84886]],[[157726,650329],[-5585,-65035]],[[124489,695327],[6693,62487]],[[208282,539783],[-8452,45168],[-22430,184560]],[[177400,769511],[6698,-6388],[24184,-223340]],[[161296,784874],[16104,-15363]],[[208282,539783],[21318,-149236],[4045,-26226]],[[233645,364321],[-17322,-28294]],[[216323,336027],[-1672,31283],[-9821,13928]],[[204830,381238],[-7893,11194],[-15425,52694]],[[181512,445126],[449,18194],[-11501,29075],[-2764,84834],[-9970,73100]],[[146933,355410],[3672,55184],[3625,71905]],[[181512,445126],[-3851,-21325],[-4059,-71768]],[[173602,352033],[-26669,3377]],[[146933,355410],[-9947,-15778],[-802,-2569]],[[173293,345838],[-123,-50892]],[[173170,294946],[-36852,-31286]],[[136318,263660],[-7741,41531]],[[128577,305191],[8615,27351],[9528,16040],[26573,-2744]],[[136318,263660],[-320,-12156]],[[135998,251504],[-6522,-24351],[6311,-151291]],[[135787,75862],[-6033,-6358]],[[129754,69504],[-18887,149643]],[[110018,221729],[18559,83462]],[[129754,69504],[-6617,-6972]],[[137842,212341],[2476,-51288],[6128,4185],[5462,-72390]],[[151908,92848],[-16121,-16986]],[[135998,251504],[1844,-39163]],[[173170,294946],[-123,-50894]],[[173047,244052],[-35205,-31711]],[[173047,244052],[8417,-17166],[-1129,-111742]],[[180335,115144],[-27905,-29210]],[[152430,85934],[-522,6914]],[[173293,345838],[12130,-15823],[18092,-22634],[12873,21319]],[[216388,328700],[755,-85999]],[[217143,242701],[772,-87732]],[[217915,154969],[-33535,-35589],[-4045,-4236]],[[204830,381238],[-6073,-61014]],[[198757,320224],[-25155,31809]],[[216323,336027],[-12910,-21692],[-4656,5889]],[[263487,219812],[-33464,-30416],[-7040,50504],[-5840,2801]],[[216388,328700],[-65,7327]],[[233645,364321],[29842,-144509]],[[263487,219812],[2546,-12327]],[[266033,207485],[-25657,-28677],[-22461,-23839]],[[233645,364321],[5539,38634],[16271,-78730]],[[255455,324225],[6231,-30152]],[[261686,294073],[953,-4613]],[[262639,289460],[14428,-69815]],[[277067,219645],[-8923,-9801],[-2111,-2359]],[[220169,654995],[15213,-68506]],[[235382,586489],[25786,-156246]],[[261168,430243],[-5713,-106018]],[[208282,539783],[11887,115212]],[[248212,696376],[-12830,-109887]],[[220169,654995],[5950,57661],[22093,-16280]],[[248212,696376],[18018,-13278],[6600,-36490]],[[272830,646608],[-407,-7546]],[[272423,639062],[-9374,-173933]],[[263049,465129],[-1881,-34886]],[[272423,639062],[4890,-28014]],[[277313,611048],[-8355,-169460]],[[268958,441588],[-5909,23541]],[[268958,441588],[-7272,-147515]],[[269961,439544],[26588,-135214],[11354,24175],[5367,-48093],[18165,42435]],[[331435,322847],[3270,-26486]],[[334705,296361],[-57005,-61813],[-633,-14903]],[[262639,289460],[7322,150084]],[[334705,296361],[1534,-12427]],[[336239,283934],[-40198,-43451],[-18974,-20838]],[[275135,545587],[4705,-43670],[30170,-5514]],[[310010,496403],[21425,-173556]],[[269961,439544],[5174,106043]],[[278107,606499],[10624,-60872],[6744,79035]],[[295475,624662],[4598,-7332]],[[300073,617330],[12178,-56324]],[[312251,561006],[-238,-6873]],[[312013,554133],[-2003,-57730]],[[275135,545587],[2972,60912]],[[304881,756982],[-1252,-96238]],[[303629,660744],[-3556,-43414]],[[295475,624662],[678,7941],[-1086,4156]],[[295067,636759],[-16638,63713],[12306,70912],[14146,-14402]],[[304881,756982],[7197,-7096]],[[312078,749886],[-354,-7583]],[[311724,742303],[-3834,-82267],[-4261,708]],[[311724,742303],[19333,-18202],[602,5951]],[[331659,730052],[7733,-7755],[4953,-159440]],[[344345,562857],[-14707,-58305]],[[329638,504552],[-17387,56454]],[[329638,504552],[1239,-38342]],[[330877,466210],[-18864,87923]],[[272830,646608],[15627,-89495],[6610,79646]],[[278107,606499],[-794,4549]],[[330877,466210],[4973,-169377],[389,-12899]],[[344345,562857],[25838,-119605],[53920,114767]],[[424103,558019],[4510,-161595]],[[428613,396424],[381,-13653]],[[428994,382771],[-32350,-33565],[-60405,-65272]],[[381151,907623],[14584,-60786],[18393,13540],[5360,-137006],[4615,-165352]],[[472719,894484],[-12376,-26671]],[[460343,867813],[6497,-75819],[26596,-87303]],[[493436,704691],[-429,-77599],[7728,29237],[29443,-41644],[34,-86071],[-15983,29797],[-27264,3940],[-8807,78703],[-19052,-16121],[-35003,-66914]],[[504089,774170],[-43746,93643]],[[504089,774170],[-10653,-69479]],[[549069,827065],[-1088,-52460],[-6983,-63721],[2079,-2682],[8735,598]],[[551812,708800],[25598,-35281]],[[577410,673519],[177,-106624]],[[577587,566895],[-8631,-20642]],[[568956,546253],[-101256,-109714],[-38881,-39894],[-206,-221]],[[568956,546253],[-10523,-25166]],[[558433,521087],[-37473,-41014],[-57528,-61573],[-34438,-35729]],[[551912,856144],[2713,-6755],[3809,26]],[[561873,844021],[-2291,-38149],[17667,-32878]],[[577249,772994],[551,-15306]],[[577800,757688],[-25121,11203],[-867,-60091]],[[575461,822703],[1788,-49709]],[[577800,757688],[-13,-2621]],[[577787,755067],[-377,-81548]],[[582930,810986],[3879,-44436]],[[586809,766550],[-9009,-8862]],[[577787,755067],[9249,8890]],[[587036,763957],[4916,-56307],[-2430,-121005]],[[589522,586645],[-11935,-19750]],[[589522,586645],[-372,-18509]],[[589150,568136],[-20194,-21883]],[[589150,568136],[-260,-13715]],[[588890,554421],[-30457,-33334]],[[592267,671574],[15689,-13888]],[[607956,657686],[1218,-67761]],[[609174,589925],[-18925,-20647]],[[590249,569278],[2018,102296]],[[609174,589925],[234,-13047]],[[609408,576878],[-19429,-21264]],[[589979,555614],[270,13664]],[[592987,708029],[13706,1440]],[[606693,709469],[1263,-51783]],[[592267,671574],[720,36455]],[[634130,650761],[2414,-30973]],[[636544,619788],[-27370,-29863]],[[606693,709469],[7316,-102497],[15287,15448],[4834,28341]],[[636544,619788],[949,-12171]],[[637493,607617],[-28085,-30739]],[[584887,812028],[33954,-33790],[4846,6513]],[[623687,784751],[10443,-133990]],[[592987,708029],[-8613,100690]],[[623685,823703],[-789,-29462],[-145,-4579]],[[622751,789662],[-4303,-5405],[-32697,33351]],[[639739,834557],[849,-32477]],[[640588,802080],[-8937,-1237],[-8900,-11181]],[[623687,784751],[6342,8523]],[[630029,793274],[34373,-119757]],[[664402,673517],[-23150,-12275],[-7122,-10481]],[[664402,673517],[5277,-18387]],[[669679,655130],[-27385,-29210]],[[642294,625920],[-5750,-6132]],[[669679,655130],[2860,-9962]],[[672539,645168],[-29539,-31651]],[[643000,613517],[-706,12403]],[[643000,613517],[-5507,-5900]],[[650330,826850],[-2982,-23380],[-6760,-1390]],[[660950,818960],[908,-27522]],[[661858,791438],[-3132,1512],[-3037,24873],[-1438,6114]],[[675722,784745],[-13864,6693]],[[670495,779958],[5755,-3193]],[[678797,728594],[-7157,-7694]],[[671640,720900],[-1145,59058]],[[747290,811970],[1939,-68939]],[[749229,743031],[-37481,-40865]],[[711748,702166],[-34675,-38024]],[[677073,664142],[-4194,-4600]],[[672879,659542],[-1239,61358]],[[749229,743031],[375,-13326]],[[749604,729705],[-6059,-6215],[-31319,-34451]],[[712226,689039],[-478,13127]],[[712226,689039],[-24848,-27333],[-9830,-10974]],[[677548,650732],[-475,13410]],[[677548,650732],[-4396,-4908]],[[673152,645824],[-273,13718]],[[846691,942416],[-319,-50796]],[[846372,891620],[-331,-54528]],[[846041,837092],[-47427,-52021],[-37301,-41075]],[[761313,743996],[-604,12453],[-11410,-13341],[-70,-77]],[[761313,743996],[-11709,-14291]],[[858604,975442],[1081,-327],[452,7179],[3619,-1534]],[[863756,980760],[-17384,-89140]],[[863756,980760],[18830,-7991]],[[882586,972769],[-273,-96677]],[[882313,876092],[-27628,-29519],[-8644,-9481]],[[966574,967959],[-56133,-61813],[-28128,-30054]],[[882586,972769],[36768,-15522],[11966,10213],[22930,-164],[1720,6416]],[[90558,409372],[9515,88142]],[[121358,697181],[1684,15795]],[[82977,310793],[-557,-5121]],[[80119,312667],[10439,96705]],[[152430,85934],[-27784,-29083]],[[312078,749886],[17300,-17523]],[[589979,555614],[-1089,-1193]],[[587036,763957],[-227,2593]],[[670495,779958],[-12438,6396],[-3336,26021],[-3590,8787],[-3285,-24307],[-5614,-728]],[[642232,796127],[-11157,-1447],[-1046,-1406]],[[27874,617967],[3838,-32727]],[[31712,585240],[16917,-144234]],[[48629,441006],[6314,-53829],[1997,-5909]],[[56940,381268],[4817,-14255]],[[61757,367013],[4191,-12405]],[[65948,354608],[3871,-11454]],[[69819,343154],[10267,-30386],[33,-101]],[[47143,774540],[3036,-5662]],[[50179,768878],[-3907,-6134],[554,-15459],[-5452,-7783],[-821,-2922]],[[40553,736580],[-4807,20959]],[[50179,768878],[18742,-33193]],[[68921,735685],[-552,-120398]],[[68369,615287],[-27816,121293]],[[104939,780475],[2162,-94165]],[[77453,663705],[-5106,66981]],[[72347,730686],[13934,27919],[14101,5967],[4557,15903]],[[68921,735685],[3426,-4999]],[[80551,623068],[-12182,-7781]],[[104939,780475],[7339,25614],[11465,-29277]],[[69819,343154],[-2042,16865],[-4084,25730]],[[63693,385749],[3818,36927],[8036,39442],[15011,-52746]],[[62637,375532],[3311,-20924]],[[61757,367013],[880,8519]],[[62637,375532],[1056,10217]],[[642232,796127],[267,-32827],[28314,-42495],[827,95]],[[673152,645824],[-613,-656]],[[63693,385749],[-2251,14186]],[[61442,399935],[2929,16477],[-3264,21499],[-10030,48134],[-5063,32805],[-2215,17129],[-6338,57929],[-3126,45899],[-121,33797],[1919,32879],[1095,13015],[1997,12354],[1328,4728]],[[28376,629629],[3336,-44389]],[[57302,382526],[-362,-1258]],[[48629,441006],[2859,-16480],[2979,-23731],[2835,-18269]],[[60031,392001],[1411,7934]],[[62637,375532],[-2606,16469]],[[57302,382526],[2729,9475]]],"bbox":[6599.559,563.7,9778.681,1102.032],"transform":{"scale":[0.003179125179125179,0.0005383325383325381],"translate":[6599.559,563.7]}}
