{"type":"Topology","objects":{"01229-4500-1.featurecollection":{"type":"GeometryCollection","geometries":[{"type":"Polygon","arcs":[[0,1,2]],"properties":{"市区町村名":"富良野市","大字名":null,"丁目名":null,"小字名":null,"地番":"2774","精度区分":null,"座標系":"任意座標系"}},{"type":"Polygon","arcs":[[3,4,5,6]],"properties":{"市区町村名":"富良野市","大字名":null,"丁目名":null,"小字名":null,"地番":"2778","精度区分":null,"座標系":"任意座標系"}},{"type":"Polygon","arcs":[[-6,7,8,9]],"properties":{"市区町村名":"富良野市","大字名":null,"丁目名":null,"小字名":null,"地番":"2779","精度区分":null,"座標系":"任意座標系"}},{"type":"Polygon","arcs":[[10,11,12,13,14]],"properties":{"市区町村名":"富良野市","大字名":null,"丁目名":null,"小字名":null,"地番":"2780","精度区分":null,"座標系":"任意座標系"}},{"type":"Polygon","arcs":[[-13,15,16,17,18]],"properties":{"市区町村名":"富良野市","大字名":null,"丁目名":null,"小字名":null,"地番":"2781","精度区分":null,"座標系":"任意座標系"}},{"type":"Polygon","arcs":[[19,20,21,22]],"properties":{"市区町村名":"富良野市","大字名":null,"丁目名":null,"小字名":null,"地番":"2782","精度区分":null,"座標系":"任意座標系"}},{"type":"Polygon","arcs":[[23,24,25,26,27]],"properties":{"市区町村名":"富良野市","大字名":null,"丁目名":null,"小字名":null,"地番":"2783-1","精度区分":null,"座標系":"任意座標系"}},{"type":"Polygon","arcs":[[28,-25,29]],"properties":{"市区町村名":"富良野市","大字名":null,"丁目名":null,"小字名":null,"地番":"2783-2","精度区分":null,"座標系":"任意座標系"}},{"type":"Polygon","arcs":[[30,-28,31,32]],"properties":{"市区町村名":"富良野市","大字名":null,"丁目名":null,"小字名":null,"地番":"2784","精度区分":null,"座標系":"任意座標系"}},{"type":"Polygon","arcs":[[33,-33,34,35]],"properties":{"市区町村名":"富良野市","大字名":null,"丁目名":null,"小字名":null,"地番":"2785","精度区分":null,"座標系":"任意座標系"}},{"type":"Polygon","arcs":[[36,37,38,-36,39,40]],"properties":{"市区町村名":"富良野市","大字名":null,"丁目名":null,"小字名":null,"地番":"2786","精度区分":null,"座標系":"任意座標系"}},{"type":"Polygon","arcs":[[41,-38,42,43]],"properties":{"市区町村名":"富良野市","大字名":null,"丁目名":null,"小字名":null,"地番":"2787","精度区分":null,"座標系":"任意座標系"}},{"type":"Polygon","arcs":[[-43,-37,44,45]],"properties":{"市区町村名":"富良野市","大字名":null,"丁目名":null,"小字名":null,"地番":"2788","精度区分":null,"座標系":"任意座標系"}},{"type":"Polygon","arcs":[[-45,-41,46,47,48,49]],"properties":{"市区町村名":"富良野市","大字名":null,"丁目名":null,"小字名":null,"地番":"2789","精度区分":null,"座標系":"任意座標系"}},{"type":"Polygon","arcs":[[50,51,52]],"properties":{"市区町村名":"富良野市","大字名":null,"丁目名":null,"小字名":null,"地番":"2790-1","精度区分":null,"座標系":"任意座標系"}},{"type":"Polygon","arcs":[[53,-52,54,-21]],"properties":{"市区町村名":"富良野市","大字名":null,"丁目名":null,"小字名":null,"地番":"2790-2","精度区分":null,"座標系":"任意座標系"}},{"type":"Polygon","arcs":[[55,56,57,58]],"properties":{"市区町村名":"富良野市","大字名":null,"丁目名":null,"小字名":null,"地番":"2791","精度区分":null,"座標系":"任意座標系"}},{"type":"Polygon","arcs":[[59,60,-56,61]],"properties":{"市区町村名":"富良野市","大字名":null,"丁目名":null,"小字名":null,"地番":"2792","精度区分":null,"座標系":"任意座標系"}},{"type":"Polygon","arcs":[[62,-27,-60,63]],"properties":{"市区町村名":"富良野市","大字名":null,"丁目名":null,"小字名":null,"地番":"2793","精度区分":null,"座標系":"任意座標系"}},{"type":"Polygon","arcs":[[64,-32,-63,65]],"properties":{"市区町村名":"富良野市","大字名":null,"丁目名":null,"小字名":null,"地番":"2794","精度区分":null,"座標系":"任意座標系"}},{"type":"Polygon","arcs":[[66,-35,-65,67]],"properties":{"市区町村名":"富良野市","大字名":null,"丁目名":null,"小字名":null,"地番":"2795","精度区分":null,"座標系":"任意座標系"}},{"type":"Polygon","arcs":[[68,-40,-67,69]],"properties":{"市区町村名":"富良野市","大字名":null,"丁目名":null,"小字名":null,"地番":"2796","精度区分":null,"座標系":"任意座標系"}},{"type":"Polygon","arcs":[[70,-47,-69,71]],"properties":{"市区町村名":"富良野市","大字名":null,"丁目名":null,"小字名":null,"地番":"2797","精度区分":null,"座標系":"任意座標系"}},{"type":"Polygon","arcs":[[72,-48,-71,73]],"properties":{"市区町村名":"富良野市","大字名":null,"丁目名":null,"小字名":null,"地番":"2798","精度区分":null,"座標系":"任意座標系"}},{"type":"Polygon","arcs":[[-49,-73,74,75]],"properties":{"市区町村名":"富良野市","大字名":null,"丁目名":null,"小字名":null,"地番":"2799","精度区分":null,"座標系":"任意座標系"}},{"type":"Polygon","arcs":[[76,77,78,79]],"properties":{"市区町村名":"富良野市","大字名":null,"丁目名":null,"小字名":null,"地番":"2800-2","精度区分":null,"座標系":"任意座標系"}},{"type":"Polygon","arcs":[[80,-79,81,82]],"properties":{"市区町村名":"富良野市","大字名":null,"丁目名":null,"小字名":null,"地番":"2802-3","精度区分":null,"座標系":"任意座標系"}},{"type":"Polygon","arcs":[[83,84,85,86]],"properties":{"市区町村名":"富良野市","大字名":null,"丁目名":null,"小字名":null,"地番":"2804","精度区分":null,"座標系":"任意座標系"}},{"type":"Polygon","arcs":[[87,-86,88,89]],"properties":{"市区町村名":"富良野市","大字名":null,"丁目名":null,"小字名":null,"地番":"2805","精度区分":null,"座標系":"任意座標系"}},{"type":"Polygon","arcs":[[90,-90,91,92]],"properties":{"市区町村名":"富良野市","大字名":null,"丁目名":null,"小字名":null,"地番":"2806","精度区分":null,"座標系":"任意座標系"}},{"type":"Polygon","arcs":[[93,94,95,96]],"properties":{"市区町村名":"富良野市","大字名":null,"丁目名":null,"小字名":null,"地番":"2810-1","精度区分":null,"座標系":"任意座標系"}},{"type":"Polygon","arcs":[[-96,97,98,99]],"properties":{"市区町村名":"富良野市","大字名":null,"丁目名":null,"小字名":null,"地番":"2810-2","精度区分":null,"座標系":"任意座標系"}},{"type":"Polygon","arcs":[[100,-94,101,102]],"properties":{"市区町村名":"富良野市","大字名":null,"丁目名":null,"小字名":null,"地番":"2810-3","精度区分":null,"座標系":"任意座標系"}},{"type":"Polygon","arcs":[[-99,103,104,105,106]],"properties":{"市区町村名":"富良野市","大字名":null,"丁目名":null,"小字名":null,"地番":"2811","精度区分":null,"座標系":"任意座標系"}},{"type":"Polygon","arcs":[[107,108,109,110,111]],"properties":{"市区町村名":"富良野市","大字名":null,"丁目名":null,"小字名":null,"地番":"2812","精度区分":null,"座標系":"任意座標系"}},{"type":"Polygon","arcs":[[112,113,114,115]],"properties":{"市区町村名":"富良野市","大字名":null,"丁目名":null,"小字名":null,"地番":"2814","精度区分":null,"座標系":"任意座標系"}},{"type":"Polygon","arcs":[[116,117,-114,118]],"properties":{"市区町村名":"富良野市","大字名":null,"丁目名":null,"小字名":null,"地番":"2815","精度区分":null,"座標系":"任意座標系"}},{"type":"Polygon","arcs":[[119,120,-117,121]],"properties":{"市区町村名":"富良野市","大字名":null,"丁目名":null,"小字名":null,"地番":"2816","精度区分":null,"座標系":"任意座標系"}},{"type":"Polygon","arcs":[[122,123,124,125,-110]],"properties":{"市区町村名":"富良野市","大字名":null,"丁目名":null,"小字名":null,"地番":"2817-1","精度区分":null,"座標系":"任意座標系"}},{"type":"Polygon","arcs":[[-125,126,127]],"properties":{"市区町村名":"富良野市","大字名":null,"丁目名":null,"小字名":null,"地番":"2817-2","精度区分":null,"座標系":"任意座標系"}},{"type":"Polygon","arcs":[[128,129,130,-123]],"properties":{"市区町村名":"富良野市","大字名":null,"丁目名":null,"小字名":null,"地番":"2818","精度区分":null,"座標系":"任意座標系"}},{"type":"Polygon","arcs":[[-115,131,132,133,134,-130]],"properties":{"市区町村名":"富良野市","大字名":null,"丁目名":null,"小字名":null,"地番":"2819","精度区分":null,"座標系":"任意座標系"}},{"type":"Polygon","arcs":[[-121,135,136,-132,-118]],"properties":{"市区町村名":"富良野市","大字名":null,"丁目名":null,"小字名":null,"地番":"2820","精度区分":null,"座標系":"任意座標系"}},{"type":"Polygon","arcs":[[137,138,-133,-137]],"properties":{"市区町村名":"富良野市","大字名":null,"丁目名":null,"小字名":null,"地番":"2821","精度区分":null,"座標系":"任意座標系"}},{"type":"Polygon","arcs":[[139,140,-134,-139]],"properties":{"市区町村名":"富良野市","大字名":null,"丁目名":null,"小字名":null,"地番":"2822","精度区分":null,"座標系":"任意座標系"}},{"type":"Polygon","arcs":[[141,142,143,144]],"properties":{"市区町村名":"富良野市","大字名":null,"丁目名":null,"小字名":null,"地番":"2823-1","精度区分":null,"座標系":"任意座標系"}},{"type":"Polygon","arcs":[[145,-145,146,147]],"properties":{"市区町村名":"富良野市","大字名":null,"丁目名":null,"小字名":null,"地番":"2823-2","精度区分":null,"座標系":"任意座標系"}},{"type":"Polygon","arcs":[[-147,-144,148,149,150]],"properties":{"市区町村名":"富良野市","大字名":null,"丁目名":null,"小字名":null,"地番":"2824","精度区分":null,"座標系":"任意座標系"}},{"type":"Polygon","arcs":[[-150,151,152,153]],"properties":{"市区町村名":"富良野市","大字名":null,"丁目名":null,"小字名":null,"地番":"2825","精度区分":null,"座標系":"任意座標系"}},{"type":"Polygon","arcs":[[-153,154,155,156]],"properties":{"市区町村名":"富良野市","大字名":null,"丁目名":null,"小字名":null,"地番":"2826","精度区分":null,"座標系":"任意座標系"}},{"type":"Polygon","arcs":[[-156,157,158,159,160]],"properties":{"市区町村名":"富良野市","大字名":null,"丁目名":null,"小字名":null,"地番":"2827","精度区分":null,"座標系":"任意座標系"}},{"type":"Polygon","arcs":[[-160,161,162,163]],"properties":{"市区町村名":"富良野市","大字名":null,"丁目名":null,"小字名":null,"地番":"2828-1","精度区分":null,"座標系":"任意座標系"}},{"type":"Polygon","arcs":[[-159,164,165,-162]],"properties":{"市区町村名":"富良野市","大字名":null,"丁目名":null,"小字名":null,"地番":"2828-2","精度区分":null,"座標系":"任意座標系"}},{"type":"Polygon","arcs":[[166,167,168,169]],"properties":{"市区町村名":"富良野市","大字名":null,"丁目名":null,"小字名":null,"地番":"2829","精度区分":null,"座標系":"任意座標系"}},{"type":"Polygon","arcs":[[170,171,172,-167]],"properties":{"市区町村名":"富良野市","大字名":null,"丁目名":null,"小字名":null,"地番":"2830","精度区分":null,"座標系":"任意座標系"}},{"type":"Polygon","arcs":[[173,174,175,-172]],"properties":{"市区町村名":"富良野市","大字名":null,"丁目名":null,"小字名":null,"地番":"2831","精度区分":null,"座標系":"任意座標系"}},{"type":"Polygon","arcs":[[176,177,178,-175]],"properties":{"市区町村名":"富良野市","大字名":null,"丁目名":null,"小字名":null,"地番":"2832","精度区分":null,"座標系":"任意座標系"}},{"type":"Polygon","arcs":[[179,180,181,182,-178]],"properties":{"市区町村名":"富良野市","大字名":null,"丁目名":null,"小字名":null,"地番":"2833","精度区分":null,"座標系":"任意座標系"}},{"type":"Polygon","arcs":[[183,184,-181,185]],"properties":{"市区町村名":"富良野市","大字名":null,"丁目名":null,"小字名":null,"地番":"2834-1","精度区分":null,"座標系":"任意座標系"}},{"type":"Polygon","arcs":[[186,187,-182,-185]],"properties":{"市区町村名":"富良野市","大字名":null,"丁目名":null,"小字名":null,"地番":"2834-2","精度区分":null,"座標系":"任意座標系"}},{"type":"Polygon","arcs":[[188,189,190,191]],"properties":{"市区町村名":"富良野市","大字名":null,"丁目名":null,"小字名":null,"地番":"2835","精度区分":null,"座標系":"任意座標系"}},{"type":"Polygon","arcs":[[192,193,194,195]],"properties":{"市区町村名":"富良野市","大字名":null,"丁目名":null,"小字名":null,"地番":"2836-1","精度区分":null,"座標系":"任意座標系"}},{"type":"Polygon","arcs":[[196,197,-193,-189]],"properties":{"市区町村名":"富良野市","大字名":null,"丁目名":null,"小字名":null,"地番":"2836-2","精度区分":null,"座標系":"任意座標系"}},{"type":"Polygon","arcs":[[198,199,200,-198]],"properties":{"市区町村名":"富良野市","大字名":null,"丁目名":null,"小字名":null,"地番":"2837-1","精度区分":null,"座標系":"任意座標系"}},{"type":"Polygon","arcs":[[-201,201,-194]],"properties":{"市区町村名":"富良野市","大字名":null,"丁目名":null,"小字名":null,"地番":"2837-2","精度区分":null,"座標系":"任意座標系"}},{"type":"Polygon","arcs":[[-196,202,203,-190]],"properties":{"市区町村名":"富良野市","大字名":null,"丁目名":null,"小字名":null,"地番":"2838","精度区分":null,"座標系":"任意座標系"}},{"type":"Polygon","arcs":[[204,-188,205]],"properties":{"市区町村名":"富良野市","大字名":null,"丁目名":null,"小字名":null,"地番":"2839","精度区分":null,"座標系":"任意座標系"}},{"type":"Polygon","arcs":[[206,-183,-205,207]],"properties":{"市区町村名":"富良野市","大字名":null,"丁目名":null,"小字名":null,"地番":"2840","精度区分":null,"座標系":"任意座標系"}},{"type":"Polygon","arcs":[[208,209,210,-179,-207,211]],"properties":{"市区町村名":"富良野市","大字名":null,"丁目名":null,"小字名":null,"地番":"2841","精度区分":null,"座標系":"任意座標系"}},{"type":"Polygon","arcs":[[-173,-176,-211,212,213,-168]],"properties":{"市区町村名":"富良野市","大字名":null,"丁目名":null,"小字名":null,"地番":"2842","精度区分":null,"座標系":"任意座標系"}},{"type":"Polygon","arcs":[[-210,214,215,216,-213]],"properties":{"市区町村名":"富良野市","大字名":null,"丁目名":null,"小字名":null,"地番":"2843","精度区分":null,"座標系":"任意座標系"}},{"type":"Polygon","arcs":[[217,218,219,-216]],"properties":{"市区町村名":"富良野市","大字名":null,"丁目名":null,"小字名":null,"地番":"2844-1","精度区分":null,"座標系":"任意座標系"}},{"type":"Polygon","arcs":[[-218,-215,-209,220]],"properties":{"市区町村名":"富良野市","大字名":null,"丁目名":null,"小字名":null,"地番":"2844-2","精度区分":null,"座標系":"任意座標系"}},{"type":"Polygon","arcs":[[221,222,223,224,225]],"properties":{"市区町村名":"富良野市","大字名":null,"丁目名":null,"小字名":null,"地番":"2845-1","精度区分":null,"座標系":"任意座標系"}},{"type":"Polygon","arcs":[[-223,226,227,228,229,230,231]],"properties":{"市区町村名":"富良野市","大字名":null,"丁目名":null,"小字名":null,"地番":"2845-2","精度区分":null,"座標系":"任意座標系"}},{"type":"Polygon","arcs":[[-232,232,-224]],"properties":{"市区町村名":"富良野市","大字名":null,"丁目名":null,"小字名":null,"地番":"2845-3","精度区分":null,"座標系":"任意座標系"}},{"type":"Polygon","arcs":[[-222,233,234,-227]],"properties":{"市区町村名":"富良野市","大字名":null,"丁目名":null,"小字名":null,"地番":"2845-4","精度区分":null,"座標系":"任意座標系"}},{"type":"Polygon","arcs":[[-235,235,236,237,-228]],"properties":{"市区町村名":"富良野市","大字名":null,"丁目名":null,"小字名":null,"地番":"2848","精度区分":null,"座標系":"任意座標系"}},{"type":"Polygon","arcs":[[238,239,-237,240]],"properties":{"市区町村名":"富良野市","大字名":null,"丁目名":null,"小字名":null,"地番":"2849","精度区分":null,"座標系":"任意座標系"}},{"type":"Polygon","arcs":[[241,242,243,244,-230]],"properties":{"市区町村名":"富良野市","大字名":null,"丁目名":null,"小字名":null,"地番":"2850","精度区分":null,"座標系":"任意座標系"}},{"type":"Polygon","arcs":[[-243,245,246,247]],"properties":{"市区町村名":"富良野市","大字名":null,"丁目名":null,"小字名":null,"地番":"2851-1","精度区分":null,"座標系":"任意座標系"}},{"type":"Polygon","arcs":[[-247,248,249,250]],"properties":{"市区町村名":"富良野市","大字名":null,"丁目名":null,"小字名":null,"地番":"2851-2","精度区分":null,"座標系":"任意座標系"}},{"type":"Polygon","arcs":[[-248,251,252,-244]],"properties":{"市区町村名":"富良野市","大字名":null,"丁目名":null,"小字名":null,"地番":"2851-3","精度区分":null,"座標系":"任意座標系"}},{"type":"Polygon","arcs":[[-252,-251,253,254]],"properties":{"市区町村名":"富良野市","大字名":null,"丁目名":null,"小字名":null,"地番":"2851-4","精度区分":null,"座標系":"任意座標系"}},{"type":"Polygon","arcs":[[-238,-240,255,256,-242,-229]],"properties":{"市区町村名":"富良野市","大字名":null,"丁目名":null,"小字名":null,"地番":"2852","精度区分":null,"座標系":"任意座標系"}},{"type":"Polygon","arcs":[[257,258,-246,-257]],"properties":{"市区町村名":"富良野市","大字名":null,"丁目名":null,"小字名":null,"地番":"2853","精度区分":null,"座標系":"任意座標系"}},{"type":"Polygon","arcs":[[259,-249,-259]],"properties":{"市区町村名":"富良野市","大字名":null,"丁目名":null,"小字名":null,"地番":"2854","精度区分":null,"座標系":"任意座標系"}},{"type":"Polygon","arcs":[[260,261]],"properties":{"市区町村名":"富良野市","大字名":null,"丁目名":null,"小字名":null,"地番":"2855","精度区分":null,"座標系":"任意座標系"}},{"type":"Polygon","arcs":[[262,263,-15,264,265]],"properties":{"市区町村名":"富良野市","大字名":null,"丁目名":null,"小字名":null,"地番":"2857","精度区分":null,"座標系":"任意座標系"}},{"type":"Polygon","arcs":[[266,267,-57,-61,-26]],"properties":{"市区町村名":"富良野市","大字名":null,"丁目名":null,"小字名":null,"地番":"2858-1","精度区分":null,"座標系":"任意座標系"}},{"type":"Polygon","arcs":[[268,269,-267,-29,270]],"properties":{"市区町村名":"富良野市","大字名":null,"丁目名":null,"小字名":null,"地番":"2858-2","精度区分":null,"座標系":"任意座標系"}},{"type":"Polygon","arcs":[[271,-23,272,-17]],"properties":{"市区町村名":"富良野市","大字名":null,"丁目名":null,"小字名":null,"地番":"2859","精度区分":null,"座標系":"任意座標系"}},{"type":"Polygon","arcs":[[-266,-4,273,274]],"properties":{"市区町村名":"富良野市","大字名":null,"丁目名":null,"小字名":null,"地番":"2870","精度区分":null,"座標系":"任意座標系"}},{"type":"Polygon","arcs":[[-5,-265,275,276,-8]],"properties":{"市区町村名":"富良野市","大字名":null,"丁目名":null,"小字名":null,"地番":"2871","精度区分":null,"座標系":"任意座標系"}},{"type":"Polygon","arcs":[[277,278,-11,-264]],"properties":{"市区町村名":"富良野市","大字名":null,"丁目名":null,"小字名":null,"地番":"2872","精度区分":null,"座標系":"任意座標系"}},{"type":"Polygon","arcs":[[-9,-277,279,-271,-30,-24,-31,-34,-39,-42,280]],"properties":{"市区町村名":"富良野市","大字名":null,"丁目名":null,"小字名":null,"地番":"11658-1","精度区分":null,"座標系":"任意座標系"}},{"type":"Polygon","arcs":[[-58,-268,-270,281,-18,-273,-22,-55,-51,282]],"properties":{"市区町村名":"富良野市","大字名":null,"丁目名":null,"小字名":null,"地番":"11658-2","精度区分":null,"座標系":"任意座標系"}},{"type":"Polygon","arcs":[[-14,-19,-282,-269,-280,-276]],"properties":{"市区町村名":"富良野市","大字名":null,"丁目名":null,"小字名":null,"地番":"11658-3","精度区分":null,"座標系":"任意座標系"}},{"type":"Polygon","arcs":[[-219,-221,-212,-208,-206,-187,-184,283,-191,-204,284,285,-241,-236,-234,-226,286]],"properties":{"市区町村名":"富良野市","大字名":null,"丁目名":null,"小字名":null,"地番":"11659","精度区分":null,"座標系":"任意座標系"}},{"type":"Polygon","arcs":[[287,-102,-97,-100,-107,288,289,-148,-151,-154,-157,-161,-164,290,291]],"properties":{"市区町村名":"富良野市","大字名":null,"丁目名":null,"小字名":null,"地番":"11670-1","精度区分":null,"座標系":"任意座標系"}},{"type":"Polygon","arcs":[[-106,292,-111,-126,-128,293,-289]],"properties":{"市区町村名":"富良野市","大字名":null,"丁目名":null,"小字名":null,"地番":"11670-2","精度区分":null,"座標系":"任意座標系"}},{"type":"Polygon","arcs":[[-294,-127,-124,-131,-135,-141,294,-142,-146,-290]],"properties":{"市区町村名":"富良野市","大字名":null,"丁目名":null,"小字名":null,"地番":"11671","精度区分":null,"座標系":"任意座標系"}},{"type":"Polygon","arcs":[[295,-112,-293,-105]],"properties":{"市区町村名":"富良野市","大字名":null,"丁目名":null,"小字名":null,"地番":"11672","精度区分":null,"座標系":"任意座標系"}},{"type":"Polygon","arcs":[[-163,296,297,-291]],"properties":{"市区町村名":"富良野市","大字名":null,"丁目名":null,"小字名":null,"地番":"11673-1","精度区分":null,"座標系":"任意座標系"}},{"type":"Polygon","arcs":[[298,-103,-288,299]],"properties":{"市区町村名":"富良野市","大字名":null,"丁目名":null,"小字名":null,"地番":"11674","精度区分":null,"座標系":"任意座標系"}},{"type":"Polygon","arcs":[[-203,-195,-202,-200,300,301,302,-261,-285]],"properties":{"市区町村名":"富良野市","大字名":null,"丁目名":null,"小字名":null,"地番":"11676","精度区分":null,"座標系":"任意座標系"}},{"type":"Polygon","arcs":[[303]],"properties":{"市区町村名":"富良野市","大字名":null,"丁目名":null,"小字名":"字老節布","地番":"5471W3","精度区分":null,"座標系":"任意座標系"}},{"type":"Polygon","arcs":[[304]],"properties":{"市区町村名":"富良野市","大字名":null,"丁目名":null,"小字名":"字老節布","地番":"5542W3","精度区分":null,"座標系":"任意座標系"}},{"type":"Polygon","arcs":[[305,306,307]],"properties":{"市区町村名":"富良野市","大字名":null,"丁目名":null,"小字名":null,"地番":"2809","精度区分":null,"座標系":"任意座標系"}},{"type":"Polygon","arcs":[[308,309,310,-306]],"properties":{"市区町村名":"富良野市","大字名":null,"丁目名":null,"小字名":null,"地番":"2808","精度区分":null,"座標系":"任意座標系"}},{"type":"Polygon","arcs":[[311,312,313,314]],"properties":{"市区町村名":"富良野市","大字名":null,"丁目名":null,"小字名":null,"地番":"2777","精度区分":null,"座標系":"任意座標系"}},{"type":"Polygon","arcs":[[315,316,317,-2]],"properties":{"市区町村名":"富良野市","大字名":null,"丁目名":null,"小字名":null,"地番":"2775","精度区分":null,"座標系":"任意座標系"}},{"type":"Polygon","arcs":[[318,-93,319,-310]],"properties":{"市区町村名":"富良野市","大字名":null,"丁目名":null,"小字名":null,"地番":"2807","精度区分":null,"座標系":"任意座標系"}},{"type":"Polygon","arcs":[[320,321,322,-314,323,324,325,326,327,-319,-309,-308,328,329,330]],"properties":{"市区町村名":"富良野市","大字名":null,"丁目名":null,"小字名":null,"地番":"11813","精度区分":null,"座標系":"任意座標系"}},{"type":"Polygon","arcs":[[-85,331,-122,-119,-113,332,-108,-296,-104,-98,-95,-101,-299,333,-329,-307,-311,-320,-92,-89]],"properties":{"市区町村名":"富良野市","大字名":null,"丁目名":null,"小字名":null,"地番":"7195-5W3","精度区分":null,"座標系":"任意座標系"}},{"type":"Polygon","arcs":[[-274,-7,-10,-281,-44,-46,-50,-76,334,-84,335,336,-77,337,338,-312,339,340,341,342,-316,-1,343]],"properties":{"市区町村名":"富良野市","大字名":null,"丁目名":null,"小字名":null,"地番":"長狭物不明-197-1","精度区分":null,"座標系":"任意座標系"}},{"type":"Polygon","arcs":[[344,-301,-199,-197,-192,-284,-186,-180,-177,-174,-171,-170,345,-75,-74,-72,-70,-68,-66,-64,-62,-59,-283,-53,-54,-20,-272,-16,-12,-279]],"properties":{"市区町村名":"富良野市","大字名":null,"丁目名":null,"小字名":null,"地番":"長狭物不明-197","精度区分":null,"座標系":"任意座標系"}},{"type":"Polygon","arcs":[[-335,-346,-169,-214,-217,-220,-287,-225,-233,-231,-245,-253,-255,346,347,348,-165,-158,-155,-152,-149,-143,-295,-140,-138,-136,-120,-332]],"properties":{"市区町村名":"富良野市","大字名":null,"丁目名":null,"小字名":null,"地番":"7195-4W1","精度区分":null,"座標系":"任意座標系"}},{"type":"Polygon","arcs":[[-303,349,-347,-254,-250,-260,-258,-256,-239,-286,-262]],"properties":{"市区町村名":"富良野市","大字名":null,"丁目名":null,"小字名":null,"地番":"長狭物不明-197-2","精度区分":null,"座標系":"任意座標系"}},{"type":"Polygon","arcs":[[-297,-166,-349,350]],"properties":{"市区町村名":"富良野市","大字名":null,"丁目名":null,"小字名":null,"地番":"11673-2","精度区分":null,"座標系":"任意座標系"}},{"type":"Polygon","arcs":[[-116,-129,-109,-333]],"properties":{"市区町村名":"富良野市","大字名":null,"丁目名":null,"小字名":null,"地番":"2813","精度区分":null,"座標系":"任意座標系"}},{"type":"Polygon","arcs":[[-340,-315,-323,351]],"properties":{"市区町村名":"富良野市","大字名":null,"丁目名":null,"小字名":null,"地番":"2776-1","精度区分":null,"座標系":"任意座標系"}},{"type":"Polygon","arcs":[[-341,-352,-322,352]],"properties":{"市区町村名":"富良野市","大字名":null,"丁目名":null,"小字名":null,"地番":"2776-2","精度区分":null,"座標系":"任意座標系"}},{"type":"Polygon","arcs":[[-82,-78,-337,353,-327,354]],"properties":{"市区町村名":"富良野市","大字名":null,"丁目名":null,"小字名":null,"地番":"2800-1","精度区分":null,"座標系":"任意座標系"}},{"type":"Polygon","arcs":[[-336,-87,-88,-91,-328,-354]],"properties":{"市区町村名":"富良野市","大字名":null,"丁目名":null,"小字名":null,"地番":"2801-1","精度区分":null,"座標系":"任意座標系"}},{"type":"Polygon","arcs":[[-83,-355,-326,355]],"properties":{"市区町村名":"富良野市","大字名":null,"丁目名":null,"小字名":null,"地番":"2803-3","精度区分":null,"座標系":"任意座標系"}},{"type":"Polygon","arcs":[[356,-342,-353,-321]],"properties":{"市区町村名":"富良野市","大字名":null,"丁目名":null,"小字名":null,"地番":"2856-1","精度区分":null,"座標系":"任意座標系"}},{"type":"Polygon","arcs":[[-343,-357,-331,-317]],"properties":{"市区町村名":"富良野市","大字名":null,"丁目名":null,"小字名":null,"地番":"2856-2","精度区分":null,"座標系":"任意座標系"}},{"type":"Polygon","arcs":[[-339,357,-324,-313]],"properties":{"市区町村名":"富良野市","大字名":null,"丁目名":null,"小字名":null,"地番":"11684-1","精度区分":null,"座標系":"任意座標系"}},{"type":"Polygon","arcs":[[-338,-80,-81,-356,-325,-358]],"properties":{"市区町村名":"富良野市","大字名":null,"丁目名":null,"小字名":null,"地番":"11684-2","精度区分":null,"座標系":"任意座標系"}}]}},"arcs":[[[892269,117552],[-364,-6241]],[[891905,111311],[-21922,451]],[[869983,111762],[335,6285],[14075,392],[7876,-887]],[[899083,95075],[22315,-358]],[[921398,94717],[-189,-4019]],[[921209,90698],[-22318,335]],[[898891,91033],[192,4042]],[[921209,90698],[-188,-3973]],[[921021,86725],[-22318,339]],[[898703,87064],[188,3969]],[[948273,98263],[29401,-399]],[[977674,97864],[-710,-12025]],[[976964,85839],[-7450,117]],[[969514,85956],[-21806,346]],[[947708,86302],[565,11961]],[[976964,85839],[-384,-7141]],[[976580,78698],[-7366,1420]],[[969214,80118],[147,3064]],[[969361,83182],[153,2774]],[[976432,75953],[-266,-4948]],[[976166,71005],[-7386,106]],[[968780,71111],[299,6207]],[[969079,77318],[7353,-1365]],[[942718,83633],[3539,-60]],[[946257,83573],[3899,-1001]],[[950156,82572],[-626,-11146]],[[949530,71426],[-7438,122]],[[942092,71548],[626,12085]],[[950209,83506],[-53,-934]],[[946257,83573],[3952,-67]],[[935543,83754],[7175,-121]],[[942092,71548],[-7217,118]],[[934875,71666],[668,12088]],[[928184,83879],[7359,-125]],[[934875,71666],[-7316,120]],[[927559,71786],[625,12093]],[[920474,75826],[210,4105]],[[920684,79931],[208,4071]],[[920892,84002],[7292,-123]],[[927559,71786],[-7285,119]],[[920274,71905],[200,3921]],[[898576,84380],[22316,-378]],[[920684,79931],[-22302,362]],[[898382,80293],[194,4087]],[[920474,75826],[-22286,370]],[[898188,76196],[194,4097]],[[920274,71905],[-7415,122]],[[912859,72027],[-7228,118]],[[905631,72145],[-7629,125]],[[898002,72270],[186,3926]],[[968198,59009],[381,7912]],[[968579,66921],[7363,-94]],[[975942,66827],[-428,-7949],[-7316,131]],[[976166,71005],[-224,-4178]],[[968579,66921],[201,4190]],[[956253,59207],[487,12102]],[[956740,71309],[7124,-117]],[[963864,71192],[-514,-12097]],[[963350,59095],[-7097,112]],[[948849,59323],[681,12103]],[[949530,71426],[7210,-117]],[[956253,59207],[-7404,116]],[[941465,59439],[627,12109]],[[948849,59323],[-7384,116]],[[934206,59553],[669,12113]],[[941465,59439],[-7259,114]],[[926932,59667],[627,12119]],[[934206,59553],[-7274,114]],[[919653,59781],[621,12124]],[[926932,59667],[-7279,114]],[[912287,59897],[572,12130]],[[919653,59781],[-7366,116]],[[905002,60011],[629,12134]],[[912287,59897],[-7285,114]],[[905002,60011],[-7576,119]],[[897426,60130],[576,12140]],[[890641,84498],[-183,-4126]],[[890458,80372],[-7233,109]],[[883225,80481],[202,4139]],[[883427,84620],[7214,-122]],[[876092,84743],[7335,-123]],[[883225,80481],[-7315,112]],[[875910,80593],[182,4150]],[[890094,72395],[-604,-12120]],[[889490,60275],[-7171,105]],[[882319,60380],[534,12122]],[[882853,72502],[7241,-107]],[[875530,72610],[7323,-108]],[[882319,60380],[-7325,108]],[[874994,60488],[536,12122]],[[868172,72718],[7358,-108]],[[874994,60488],[-7431,109]],[[867563,60597],[609,12121]],[[816879,48998],[345,6762]],[[817224,55760],[7760,-114]],[[824984,55646],[-288,-6763]],[[824696,48883],[-7817,115]],[[824984,55646],[1160,-17]],[[826144,55629],[-278,-6763]],[[825866,48866],[-1170,17]],[[811272,55848],[5952,-88]],[[816879,48998],[-5926,88]],[[810953,49086],[319,6762]],[[826144,55629],[14495,-214],[-22,-669]],[[840617,54746],[-201,-6077]],[[840416,48669],[-419,-11]],[[839997,48658],[-14131,208]],[[845245,54678],[7362,-109]],[[852607,54569],[-535,-12180]],[[852072,42389],[-7437,114]],[[844635,42503],[306,6100]],[[844941,48603],[304,6075]],[[860106,54459],[7110,-105]],[[867216,54354],[-624,-12188]],[[866592,42166],[-7085,109]],[[859507,42275],[599,12184]],[[874646,54245],[-600,-12194]],[[874046,42051],[-7454,115]],[[867216,54354],[7430,-109]],[[889037,54033],[-623,-12203]],[[888414,41830],[-14368,221]],[[874646,54245],[14391,-212]],[[852072,42389],[-529,-12049]],[[851543,30340],[-5866,79]],[[845677,30419],[-1602,932]],[[844075,31351],[560,11152]],[[845677,30419],[-1647,23]],[[844030,30442],[45,909]],[[852072,42389],[7435,-114]],[[859507,42275],[-591,-12036]],[[858916,30239],[-7373,101]],[[866592,42166],[-210,-4125]],[[866382,38041],[-201,-3941]],[[866181,34100],[-203,-3956]],[[865978,30144],[-7062,95]],[[888414,41830],[-210,-4129]],[[888204,37701],[-21822,340]],[[888204,37701],[-200,-3928]],[[888004,33773],[-21823,327]],[[888004,33773],[-201,-3926]],[[887803,29847],[-21825,297]],[[876840,27352],[10838,-158]],[[887678,27194],[-243,-4193]],[[887435,23001],[-10778,176]],[[876657,23177],[183,4175]],[[865785,27513],[11055,-161]],[[876657,23177],[-11068,180]],[[865589,23357],[196,4156]],[[887435,23001],[-180,-4038]],[[887255,18963],[-21857,335]],[[865398,19298],[191,4059]],[[887255,18963],[-179,-4025]],[[887076,14938],[-21899,313]],[[865177,15251],[221,4047]],[[887076,14938],[-177,-3972]],[[886899,10966],[-21940,288]],[[864959,11254],[218,3997]],[[886899,10966],[-180,-4062]],[[886719,6904],[-729,10]],[[885990,6914],[-21251,294]],[[864739,7208],[220,4046]],[[885990,6914],[-215,-3988]],[[885775,2926],[-21261,287]],[[864514,3213],[225,3995]],[[886719,6904],[-178,-3988]],[[886541,2916],[-766,10]],[[904685,53724],[-666,-12121]],[[904019,41603],[-7550,118]],[[896469,41721],[592,12122]],[[897061,53843],[7624,-119]],[[904685,53724],[7311,-113]],[[911996,53611],[-578,-12122]],[[911418,41489],[-7399,114]],[[911996,53611],[7400,-115]],[[919396,53496],[-677,-12121]],[[918719,41375],[-7301,114]],[[919396,53496],[7245,-112]],[[926641,53384],[-681,-12121]],[[925960,41263],[-7241,112]],[[926641,53384],[7217,-113]],[[933858,53271],[-399,-8111]],[[933459,45160],[-197,-4011]],[[933262,41149],[-7302,114]],[[941048,53160],[-435,-8119]],[[940613,45041],[-7154,119]],[[933858,53271],[7190,-111]],[[940613,45041],[-215,-4002]],[[940398,41039],[-7136,110]],[[953554,52961],[-674,-12107]],[[952880,40854],[-7526,119]],[[945354,40973],[619,12110]],[[945973,53083],[7581,-122]],[[952880,40854],[7252,-115]],[[960132,40739],[-297,-6105],[14359,-318]],[[974194,34316],[-326,-5880],[-21658,383]],[[952210,28819],[670,12035]],[[953554,52961],[7169,-116]],[[960723,52845],[-591,-12106]],[[960723,52845],[14488,-234]],[[975211,52611],[-673,-12101]],[[974538,40510],[-14406,229]],[[974538,40510],[-344,-6194]],[[952210,28819],[-7471,131]],[[944739,28950],[615,12023]],[[932674,29159],[588,11990]],[[940398,41039],[-642,-11983],[-7082,103]],[[925286,29268],[674,11995]],[[932674,29159],[-7388,109]],[[918050,29373],[219,3937]],[[918269,33310],[220,3935]],[[918489,37245],[230,4130]],[[925286,29268],[-7236,105]],[[918489,37245],[-22223,323]],[[896266,37568],[203,4153]],[[918269,33310],[-11099,168]],[[907170,33478],[-11096,168]],[[896074,33646],[192,3922]],[[907170,33478],[-119,-3944]],[[907051,29534],[-11170,163]],[[895881,29697],[193,3949]],[[918050,29373],[-10999,161]],[[910093,26800],[-179,-4179]],[[909914,22621],[-10289,187]],[[899625,22808],[-4077,74]],[[895548,22882],[203,4141]],[[895751,27023],[14342,-223]],[[909914,22621],[-19,-394],[15023,-232]],[[924918,21995],[-399,-7625]],[[924519,14370],[-7295,107]],[[917224,14477],[-22071,322]],[[895153,14799],[308,6308]],[[895461,21107],[4065,-60],[99,1761]],[[895461,21107],[87,1775]],[[910093,26800],[15064,-235]],[[925157,26565],[-239,-4570]],[[925157,26565],[7391,-115]],[[932548,26450],[-596,-12188]],[[931952,14262],[-7433,108]],[[939685,26338],[-637,-12179]],[[939048,14159],[-7096,103]],[[932548,26450],[7137,-112]],[[917224,14477],[-245,-3965]],[[916979,10512],[-20721,300]],[[896258,10812],[-1298,19]],[[894960,10831],[193,3968]],[[916979,10512],[-250,-4058]],[[916729,6454],[-20609,345]],[[896120,6799],[138,4013]],[[916729,6454],[-250,-4056]],[[916479,2398],[-20282,326]],[[896197,2724],[-149,1762],[72,2313]],[[896120,6799],[-1356,23]],[[894764,6822],[196,4009]],[[896197,2724],[-1633,26]],[[894564,2750],[200,4072]],[[939048,14159],[-207,-3964]],[[938841,10195],[-21862,317]],[[938841,10195],[-215,-4108]],[[938626,6087],[-21897,367]],[[938626,6087],[-212,-4042],[-21935,353]],[[944600,26220],[29157,-480],[-1353,-24285]],[[972404,1455],[-29172,489],[1368,24276]],[[923175,111250],[28892,-1042]],[[952067,110208],[-3794,-11945]],[[947708,86302],[-26310,8415]],[[921398,94717],[1777,16533]],[[950156,82572],[14046,-3440]],[[964202,79132],[-338,-7940]],[[959557,83348],[4820,-82]],[[964377,83266],[-175,-4134]],[[950209,83506],[9348,-158]],[[976580,78698],[-148,-2745]],[[969079,77318],[135,2800]],[[899083,95075],[1071,22068]],[[900154,117143],[23021,-5893]],[[947708,86302],[-1159,18]],[[946549,86320],[-25528,405]],[[952067,110208],[18692,-4439],[7210,-2906]],[[977969,102863],[-295,-4999]],[[946549,86320],[13008,-2972]],[[898576,84380],[127,2684]],[[964377,83266],[4984,-84]],[[968198,59009],[-4848,86]],[[941048,53160],[4925,-77]],[[944739,28950],[-139,-2730]],[[944600,26220],[-4915,118]],[[895751,27023],[130,2674]],[[808130,49116],[2823,-30]],[[839997,48658],[-1089,-20700],[4994,-74]],[[843902,27884],[21883,-371]],[[864514,3213],[-83,-1487]],[[864431,1726],[-58459,862],[2158,46528]],[[840416,48669],[4525,-66]],[[844030,30442],[-128,-2558]],[[887803,29847],[-125,-2653]],[[840617,54746],[4628,-68]],[[885775,2926],[-82,-1512]],[[885693,1414],[-21262,312]],[[808433,55920],[2839,-72]],[[808130,49116],[303,6804]],[[975211,52611],[2730,-40]],[[977941,52571],[-4100,-52517],[-1519,-54]],[[972322,0],[82,1455]],[[4607,355025],[2440,-682],[3811,-1048],[7951,-2134],[31142,-8615],[24860,-2320],[28031,172],[7754,-10],[3830,-1855],[-16352,-42],[-22850,-156],[-26412,2433],[-6499,1923],[-7050,1832],[-4728,1310],[-13130,3518],[-11226,3007],[-3429,919],[-2750,737],[4607,1011]],[[927692,998677],[2200,1322],[70107,-37448],[-2227,-1330],[-3087,1650],[-316,169],[-66458,35520],[-219,117]],[[853463,72934],[-497,-12121]],[[852966,60813],[-7372,108]],[[845594,60921],[572,12121],[7297,-108]],[[853463,72934],[7558,-111]],[[861021,72823],[-553,-12121]],[[860468,60702],[-7502,111]],[[890935,91178],[-177,-4004]],[[890758,87174],[-21971,334]],[[868787,87508],[166,3994]],[[868953,91502],[21982,-324]],[[891905,111311],[-202,-4094]],[[891703,107217],[-21941,386]],[[869762,107603],[221,4159]],[[861021,72823],[7151,-105]],[[867563,60597],[-7095,105]],[[869522,103096],[-402,-7564]],[[869120,95532],[-37,-900]],[[869083,94632],[-130,-3130]],[[868787,87508],[-87,-2090]],[[868700,85418],[-22,-550]],[[868678,84868],[-173,-4163]],[[868505,80705],[-160,-3855]],[[868345,76850],[-173,-4132]],[[845594,60921],[-1903,28],[-139,-1052],[-34862,473]],[[808690,60370],[-14584,227],[-62740,975],[1087,52223],[16838,911],[34221,-1215],[11136,-4706],[1710,-415],[20832,-5050],[52572,4283]],[[869762,107603],[-240,-4507]],[[889490,60275],[-453,-6242]],[[860106,54459],[-7499,110]],[[808433,55920],[257,4450]],[[897426,60130],[-7936,145]],[[890094,72395],[193,4099]],[[890287,76494],[171,3878]],[[890641,84498],[56,1300]],[[890697,85798],[61,1376]],[[890935,91178],[135,3083]],[[891070,94261],[44,977]],[[891114,95238],[368,7491]],[[891482,102729],[221,4488]],[[892269,117552],[4625,-361],[3260,-48]],[[977969,102863],[2449,-986],[-2477,-49306]],[[897061,53843],[365,6287]],[[894564,2750],[0,-1480]],[[894564,1270],[-8090,133]],[[886474,1403],[67,1513]],[[972322,0],[-77758,1270]],[[886474,1403],[-781,11]],[[869083,94632],[21987,-371]],[[869120,95532],[21994,-294]],[[890287,76494],[-21942,356]],[[868505,80705],[7405,-112]],[[868678,84868],[7414,-125]],[[869522,103096],[21960,-367]],[[890697,85798],[-15537,272],[-6460,-652]]],"bbox":[15725.195,82281.967,17942.416,86251.277],"transform":{"scale":[0.0022172232172232185,0.003969313969313967],"translate":[15725.195,82281.967]}}