{"type":"Topology","objects":{"01482-4502-34.featurecollection":{"type":"GeometryCollection","geometries":[{"type":"Polygon","arcs":[[0,1]],"properties":{"市区町村名":"留萌郡小平町","大字名":"字花岡","丁目名":null,"小字名":null,"地番":"72-1","精度区分":null,"座標系":"任意座標系"}},{"type":"Polygon","arcs":[[2,-1]],"properties":{"市区町村名":"留萌郡小平町","大字名":"字花岡","丁目名":null,"小字名":null,"地番":"72-5","精度区分":null,"座標系":"任意座標系"}},{"type":"Polygon","arcs":[[3]],"properties":{"市区町村名":"留萌郡小平町","大字名":"字寧楽","丁目名":null,"小字名":null,"地番":"476-1","精度区分":null,"座標系":"任意座標系"}}]}},"arcs":[[[2280,145536],[1735,172],[217,1906],[-933,1692],[-627,533]],[[2672,149839],[565,5479],[-80,30427],[-9,3590],[636,-8],[3012,2689],[2232,3903],[1291,130],[882,-2685],[6722,1539],[887,3251],[4919,2586],[1467,-558],[2403,2599],[353,2495],[906,-1966],[1449,140],[1669,2595],[8544,-1034],[2567,-3153],[1508,-16113],[4011,-42847],[-11629,-60123],[-1053,-15651],[618,-772],[-829,-14611],[-15698,-23135],[-19952,-28606],[61,686],[2750,11823],[-118,4496],[-275,3252],[91,4421],[-534,6265],[-4,2132],[566,8545],[567,2179],[268,3095],[-1580,3443],[-1855,1513],[15,2302],[1227,1556],[1473,4253],[2212,9503],[259,2388],[-244,4050],[-481,5633],[-106,4310],[114,1505],[258,1433],[9,2547],[-518,2825],[-89,3212],[-516,2953],[-1195,3687],[-458,99],[-73,1434],[-290,2522],[-1277,2514],[147,3300],[1102,759],[52,784],[3369,8741],[-56,2681],[-3801,2817],[296,6930],[851,8948]],[[2280,145536],[392,4303]],[[623423,244228],[-9066,-1388],[-3231,1945],[-4041,4527],[-1085,-355],[-4628,-1516],[-8506,-10690],[-3944,-2631],[-3396,6979],[1288,13725],[-3947,10349],[-2647,10641],[386,10003],[-5890,7587],[-2458,12049],[1347,13501],[-3828,9935],[-4035,5988],[-1155,24287],[1715,8428],[6231,-1130],[7913,2237],[3876,2689],[4929,8247],[3829,9466],[4233,6141],[343,11013],[2195,10500],[6149,9533],[3972,6156],[875,4555],[306,1590],[3525,8414],[-145,6647],[4001,21128],[-1085,9804],[829,6774],[-805,7566],[1194,6312],[3483,9124],[191,6640],[-1633,4534],[-304,6012],[62,3021],[288,8097],[-1298,7399],[1862,8370],[2321,11969],[3313,7864],[811,4865],[716,12229],[268,11428],[4341,11917],[6784,7608],[4938,2232],[4904,8043],[2565,1817],[4648,10326],[2266,7981],[3505,2098],[3518,4930],[3550,5080],[288,5201],[4500,9761],[-1527,4472],[-71,208],[3674,4724],[2682,7420],[1904,7968],[-1133,8500],[277,25313],[2490,3539],[2853,9712],[-909,4557],[-248,14100],[520,3244],[-994,7942],[-6880,495],[-3848,11329],[2252,12244],[-742,11314],[2368,4972],[1224,13990],[-2420,7089],[1930,2237],[1656,3729],[2218,12578],[409,10888],[-3469,8936],[7567,1980],[7922,3877],[5114,-2719],[3972,3507],[6998,10289],[3833,12621],[5220,5683],[2152,-734],[6073,5032],[4722,10730],[3512,3959],[3521,3523],[3990,13196],[517,9314],[6863,6730],[156,9013],[2718,2300],[3789,8011],[7836,3199],[7081,4083],[3071,1125],[3576,-775],[957,-1513],[3076,-209],[3107,-1683],[1418,-2626],[1773,-1425],[1183,-2753],[1163,-1680],[2059,-4891],[1091,-1442],[399,-2232],[2893,-4917],[2760,-1054],[1753,-1267],[1048,72],[479,-1017],[4340,-6108],[1523,-5308],[945,-1528],[4783,-2944],[1099,-1579],[481,-2222],[-898,-4087],[341,-2105],[-640,-2809],[363,-2392],[465,-3064],[1614,-2871],[-2357,-2610],[-2592,-2010],[-1158,-3252],[311,-6488],[878,-4805],[-284,-2466],[336,-3239],[1569,-1628],[3800,-1341],[3721,228],[2052,-3613],[2109,-1290],[3662,-157],[1588,-2192],[678,-2377],[2580,-1793],[2275,-2334],[1231,1286],[595,621],[4690,156],[2095,-1117],[7614,-322],[2605,-2165],[3494,-571],[1736,713],[1399,-416],[2431,2152],[2678,954],[1821,-863],[205,-1655],[2853,-4110],[4634,-3954],[1401,-3708],[1126,-1400],[10041,-900],[5368,-1959],[1263,-2227],[3895,-5365],[5436,-3513],[4477,1110],[4594,-1202],[532,-1629],[1256,-1033],[2028,-3008],[3207,-3144],[6878,-8270],[2767,-1142],[11570,6125],[5917,-11070],[2269,-3005],[4197,-6969],[3371,-2447],[3678,-1246],[3770,116],[1628,-4048],[4960,-5677],[1630,-3539],[2421,-2512],[3401,-1554],[2277,-2713],[2724,-5288],[6707,-5890],[5143,-3727],[1305,-4167],[965,-1237],[-1028,-1998],[-474,-2617],[-4637,-3418],[-3103,-6823],[-883,-5895],[132,-830],[96,-2057],[-3864,-4687],[-1321,-7465],[-20,-2779],[-3050,-3688],[-2190,-5521],[-1049,-952],[-137,-1166],[1295,-3169],[1197,-4870],[-799,-1324],[-789,-12180],[4176,-7782],[5779,-5473],[158,-3188],[2725,-3130],[-4856,-5907],[-605,-1503],[-594,-1476],[1530,-6474],[2925,-4219],[1223,-3967],[-5277,-254],[-2317,-784],[-910,-814],[-595,-677],[-1531,-2150],[-1378,-105],[-1575,-1123],[-1103,-1656],[-303,-4441],[-1704,-2027],[-1399,-8092],[-1454,-3830],[-3606,-2195],[-984,-2322],[-496,-3186],[101,-3926],[-1183,-2227],[-2460,-768],[-2787,1405],[-2675,-6043],[-2558,-2663],[-5584,197],[-2823,-1398],[-1832,-3303],[-9779,-599],[-2417,-5646],[-3506,-549],[-4143,-7541],[-1124,-948],[-6213,7637],[-4251,-817],[-3949,-7953],[-105,-3312],[-2502,-4626],[-2201,-1346],[-128,-2796],[-1089,-2571],[-280,-3616],[824,-5188],[-16,-3320],[1022,-11219],[-2400,-4231],[-1443,-760],[-2193,-8315],[-1479,-1114],[-1650,-3979],[962,-2476],[398,-4519],[911,-2496],[-366,-6956],[1011,-4585],[787,-2085],[-5393,-10548],[1625,-8268],[339,-4805],[-455,-14448],[-546,-1281],[5536,-14844],[2949,-10291],[1903,-1403],[2563,-5403],[3013,-4407],[313,-729],[2694,-2989],[1488,-3688],[930,-1322],[464,-2383],[100,-513],[-609,-2320],[-211,-2131],[465,-2088],[216,-3113],[-469,-2789],[-74,-1108],[-32,-1223],[226,-1877],[-791,-3390],[-932,-1849],[-1592,-4941],[-284,-4471],[-901,-3687],[-1427,-1628],[-1259,-3459],[-693,-6444],[-4373,-2696],[-1360,-3290],[-1321,-3776],[370,-1990],[-368,-2103],[570,-3459],[-386,-2335],[-924,-1472],[-1171,-2498],[-1295,-2101],[-469,-1460],[334,-2048],[1216,-4860],[570,-4854],[998,-4861],[3978,964],[1392,-3827],[1792,-2252],[3607,-2896],[-44,-2604],[408,-4763],[-591,-3730],[-148,-5282],[-245,-5387],[-651,-5313],[1087,-3309],[-1587,-4907],[-929,-2537],[-1203,-1354],[-627,-2419],[-191,-2160],[2,-2435],[1331,-2221],[1774,-4655],[3022,-202],[1584,-902],[2003,-4730],[-418,-5983],[1697,-6806],[-21,-639],[677,-1899],[299,-3016],[-1113,-3023],[160,-3537],[-167,-3084],[1559,-2598],[1077,-1396],[2746,-3385],[656,-2002],[-22024,293],[-5957,-146],[-13413,-461],[-3494,578],[-3105,-244],[-1368,-172],[-3774,760],[-15656,68817],[-4949,17712],[-635,1653],[-11225,4030],[-19424,6973],[-6717,4276],[-9237,746],[-9224,1144],[1332,-8971],[3419,-15616],[1362,-7653],[7042,-36030],[2070,-11907],[899,-3874],[1444,-9936],[1236,-7595],[-5376,860],[-5767,553],[-1916,-6],[-4667,-49],[-6545,726],[-7678,643],[-8555,295],[-4788,6569],[-6108,11139],[-3601,6749],[-3570,12073],[-2903,14445],[-6026,14866],[-4054,11946],[-2493,8947],[-2516,10521],[-1751,24747],[-155,12534],[-314,9568],[-2040,16486],[-766,11364],[-1974,15770],[-1173,12818],[-11436,87046],[-137,17562],[959,6454],[3016,-3731],[975,15748],[1220,4352],[11693,1076],[-13342,15439],[-4258,5343],[-5514,7420],[-5590,-17159],[-1185,-3314],[-587,-1421],[-5246,-16070],[-7072,-29374],[-1775,-6241],[-2904,-9934],[-2507,-10344],[-6331,-19206],[-1096,-5305],[-5038,-16758],[-3414,-11760],[-634,294],[-755,-3143],[546,-55],[-1242,-4508],[-4279,-1590],[-460,-1289],[1387,-1251],[1706,133],[367,-357],[-713,-2384],[-428,-8491],[-303,-6010],[-111,-9740],[-242,-13517],[275,-12483],[261,-11788],[-1043,-11314],[-745,-14454],[-1132,-11110],[-616,-10346],[-929,-6215],[181,-31286],[-4484,-5667],[-2185,-12466],[-2927,-5178],[-3961,-7696],[-5603,-11612],[-1890,-3489],[-1486,-2526],[-3820,-7056],[-1302,-2552],[-3915,-6396],[-2680,-4263],[-2259,14393]]],"bbox":[74576.074,191469.302,86166.692,198633.388],"transform":{"scale":[0.011590629590629594,0.007164093164093174],"translate":[74576.074,191469.302]}}