{"type":"Topology","objects":{"01228-4500-54.featurecollection":{"type":"GeometryCollection","geometries":[{"type":"Polygon","arcs":[[0,1,2,3]],"properties":{"市区町村名":"深川市","大字名":"深川町","丁目名":null,"小字名":"字オーホ","地番":"559-3","精度区分":null,"座標系":"任意座標系"}},{"type":"Polygon","arcs":[[4,-4,5,6]],"properties":{"市区町村名":"深川市","大字名":"深川町","丁目名":null,"小字名":"字オーホ","地番":"559-4","精度区分":null,"座標系":"任意座標系"}},{"type":"Polygon","arcs":[[7,-2]],"properties":{"市区町村名":"深川市","大字名":"深川町","丁目名":null,"小字名":"字オーホ","地番":"559-5","精度区分":null,"座標系":"任意座標系"}},{"type":"Polygon","arcs":[[8,9,10,11]],"properties":{"市区町村名":"深川市","大字名":"深川町","丁目名":null,"小字名":"字オーホ","地番":"559-6","精度区分":null,"座標系":"任意座標系"}},{"type":"Polygon","arcs":[[12,13,14,15,16,-9]],"properties":{"市区町村名":"深川市","大字名":"深川町","丁目名":null,"小字名":"字オーホ","地番":"559-7","精度区分":null,"座標系":"任意座標系"}},{"type":"Polygon","arcs":[[17,18,-16]],"properties":{"市区町村名":"深川市","大字名":"深川町","丁目名":null,"小字名":"字オーホ","地番":"559-8","精度区分":null,"座標系":"任意座標系"}},{"type":"Polygon","arcs":[[-18,-15,19,-7,20]],"properties":{"市区町村名":"深川市","大字名":"深川町","丁目名":null,"小字名":"字オーホ","地番":"559-9","精度区分":null,"座標系":"任意座標系"}},{"type":"Polygon","arcs":[[21]],"properties":{"市区町村名":"深川市","大字名":"深川町","丁目名":null,"小字名":"字オーホ","地番":"570-3","精度区分":null,"座標系":"任意座標系"}},{"type":"Polygon","arcs":[[22,23,24,25]],"properties":{"市区町村名":"深川市","大字名":"深川町","丁目名":null,"小字名":"字オーホ","地番":"578-5","精度区分":null,"座標系":"任意座標系"}},{"type":"Polygon","arcs":[[26]],"properties":{"市区町村名":"深川市","大字名":"深川町","丁目名":null,"小字名":"字オーホ","地番":"6126-3","精度区分":null,"座標系":"任意座標系"}},{"type":"Polygon","arcs":[[27,28]],"properties":{"市区町村名":"深川市","大字名":"深川町","丁目名":null,"小字名":"字メム","地番":"36-2","精度区分":null,"座標系":"任意座標系"}},{"type":"Polygon","arcs":[[29,30,31]],"properties":{"市区町村名":"深川市","大字名":"深川町","丁目名":null,"小字名":"字メム","地番":"36-6","精度区分":null,"座標系":"任意座標系"}},{"type":"Polygon","arcs":[[32,33,34,35]],"properties":{"市区町村名":"深川市","大字名":"深川町","丁目名":null,"小字名":"字メム","地番":"36-25","精度区分":null,"座標系":"任意座標系"}},{"type":"Polygon","arcs":[[36,-33,37]],"properties":{"市区町村名":"深川市","大字名":"深川町","丁目名":null,"小字名":"字メム","地番":"36-26","精度区分":null,"座標系":"任意座標系"}},{"type":"Polygon","arcs":[[38,39]],"properties":{"市区町村名":"深川市","大字名":"深川町","丁目名":null,"小字名":"字メム","地番":"36-28","精度区分":null,"座標系":"任意座標系"}},{"type":"Polygon","arcs":[[40,41,-39,-35,42,-32,43,44,45,46]],"properties":{"市区町村名":"深川市","大字名":"深川町","丁目名":null,"小字名":"字メム","地番":"36-37","精度区分":null,"座標系":"任意座標系"}},{"type":"Polygon","arcs":[[47,48,-45]],"properties":{"市区町村名":"深川市","大字名":"深川町","丁目名":null,"小字名":"字メム","地番":"36-38","精度区分":null,"座標系":"任意座標系"}},{"type":"Polygon","arcs":[[49,50,-47,51]],"properties":{"市区町村名":"深川市","大字名":"深川町","丁目名":null,"小字名":"字メム","地番":"36-42","精度区分":null,"座標系":"任意座標系"}},{"type":"Polygon","arcs":[[52,53,-50,54]],"properties":{"市区町村名":"深川市","大字名":"深川町","丁目名":null,"小字名":"字メム","地番":"36-43","精度区分":null,"座標系":"任意座標系"}},{"type":"Polygon","arcs":[[55,-41,-51,-54,56]],"properties":{"市区町村名":"深川市","大字名":"深川町","丁目名":null,"小字名":"字メム","地番":"36-44","精度区分":null,"座標系":"任意座標系"}},{"type":"Polygon","arcs":[[-53,57]],"properties":{"市区町村名":"深川市","大字名":"深川町","丁目名":null,"小字名":"字メム","地番":"36-45","精度区分":null,"座標系":"任意座標系"}},{"type":"Polygon","arcs":[[58,-42,-56,59]],"properties":{"市区町村名":"深川市","大字名":"深川町","丁目名":null,"小字名":"字メム","地番":"36-46","精度区分":null,"座標系":"任意座標系"}},{"type":"Polygon","arcs":[[60,61,62,63]],"properties":{"市区町村名":"深川市","大字名":"深川町","丁目名":null,"小字名":"字メム","地番":"46-2","精度区分":null,"座標系":"任意座標系"}},{"type":"Polygon","arcs":[[64,-62,65]],"properties":{"市区町村名":"深川市","大字名":"深川町","丁目名":null,"小字名":"字メム","地番":"46-73","精度区分":null,"座標系":"任意座標系"}},{"type":"Polygon","arcs":[[66,-66,-61,67]],"properties":{"市区町村名":"深川市","大字名":"深川町","丁目名":null,"小字名":"字メム","地番":"46-75","精度区分":null,"座標系":"任意座標系"}},{"type":"Polygon","arcs":[[-68,-64,68]],"properties":{"市区町村名":"深川市","大字名":"深川町","丁目名":null,"小字名":"字メム","地番":"46-76","精度区分":null,"座標系":"任意座標系"}},{"type":"Polygon","arcs":[[69]],"properties":{"市区町村名":"深川市","大字名":"深川町","丁目名":null,"小字名":"字メム","地番":"47-3","精度区分":null,"座標系":"任意座標系"}},{"type":"Polygon","arcs":[[70,71,72]],"properties":{"市区町村名":"深川市","大字名":"深川町","丁目名":null,"小字名":"字メム","地番":"47-6","精度区分":null,"座標系":"任意座標系"}},{"type":"Polygon","arcs":[[73,74,75]],"properties":{"市区町村名":"深川市","大字名":"深川町","丁目名":null,"小字名":"字メム","地番":"47-8","精度区分":null,"座標系":"任意座標系"}},{"type":"Polygon","arcs":[[76,77]],"properties":{"市区町村名":"深川市","大字名":"深川町","丁目名":null,"小字名":"字メム","地番":"47-14","精度区分":null,"座標系":"任意座標系"}},{"type":"Polygon","arcs":[[78,-77,79,80,81]],"properties":{"市区町村名":"深川市","大字名":"深川町","丁目名":null,"小字名":"字メム","地番":"47-15","精度区分":null,"座標系":"任意座標系"}},{"type":"Polygon","arcs":[[82,83,84,85]],"properties":{"市区町村名":"深川市","大字名":"深川町","丁目名":null,"小字名":"字メム","地番":"47-32","精度区分":null,"座標系":"任意座標系"}},{"type":"Polygon","arcs":[[86,87,-83,88]],"properties":{"市区町村名":"深川市","大字名":"深川町","丁目名":null,"小字名":"字メム","地番":"47-33","精度区分":null,"座標系":"任意座標系"}},{"type":"Polygon","arcs":[[89,-73,90]],"properties":{"市区町村名":"深川市","大字名":"深川町","丁目名":null,"小字名":"字メム","地番":"47-36","精度区分":null,"座標系":"任意座標系"}},{"type":"Polygon","arcs":[[91,92,93,94]],"properties":{"市区町村名":"深川市","大字名":"深川町","丁目名":null,"小字名":"字メム","地番":"47-44","精度区分":null,"座標系":"任意座標系"}},{"type":"Polygon","arcs":[[-74,95,-85,96,97,98]],"properties":{"市区町村名":"深川市","大字名":"深川町","丁目名":null,"小字名":"字メム","地番":"47-45","精度区分":null,"座標系":"任意座標系"}},{"type":"Polygon","arcs":[[-75,-99,99]],"properties":{"市区町村名":"深川市","大字名":"深川町","丁目名":null,"小字名":"字メム","地番":"47-46","精度区分":null,"座標系":"任意座標系"}},{"type":"Polygon","arcs":[[100,101,102,-93]],"properties":{"市区町村名":"深川市","大字名":"深川町","丁目名":null,"小字名":"字メム","地番":"47-47","精度区分":null,"座標系":"任意座標系"}},{"type":"Polygon","arcs":[[-84,-88,-95,103,-97]],"properties":{"市区町村名":"深川市","大字名":"深川町","丁目名":null,"小字名":"字メム","地番":"47-48","精度区分":null,"座標系":"任意座標系"}},{"type":"Polygon","arcs":[[-91,-72,104,105,-87,106]],"properties":{"市区町村名":"深川市","大字名":"深川町","丁目名":null,"小字名":"字メム","地番":"47-49","精度区分":null,"座標系":"任意座標系"}},{"type":"Polygon","arcs":[[-80,-78,-79,107,-102]],"properties":{"市区町村名":"深川市","大字名":"深川町","丁目名":null,"小字名":"字メム","地番":"47-50","精度区分":null,"座標系":"任意座標系"}},{"type":"Polygon","arcs":[[108,109,110,111,112,113,114,115]],"properties":{"市区町村名":"深川市","大字名":"深川町","丁目名":null,"小字名":"字メム","地番":"48-1","精度区分":null,"座標系":"任意座標系"}},{"type":"Polygon","arcs":[[116,117,118,119]],"properties":{"市区町村名":"深川市","大字名":"深川町","丁目名":null,"小字名":"字メム","地番":"48-3","精度区分":null,"座標系":"任意座標系"}},{"type":"Polygon","arcs":[[120,121,122,123]],"properties":{"市区町村名":"深川市","大字名":"深川町","丁目名":null,"小字名":"字メム","地番":"48-5","精度区分":null,"座標系":"任意座標系"}},{"type":"Polygon","arcs":[[124,-121,125,126]],"properties":{"市区町村名":"深川市","大字名":"深川町","丁目名":null,"小字名":"字メム","地番":"48-6","精度区分":null,"座標系":"任意座標系"}},{"type":"Polygon","arcs":[[127,128,129,130]],"properties":{"市区町村名":"深川市","大字名":"深川町","丁目名":null,"小字名":"字メム","地番":"48-7","精度区分":null,"座標系":"任意座標系"}},{"type":"Polygon","arcs":[[-119,131,132,133,134,135,136]],"properties":{"市区町村名":"深川市","大字名":"深川町","丁目名":null,"小字名":"字メム","地番":"48-8","精度区分":null,"座標系":"任意座標系"}},{"type":"Polygon","arcs":[[137,138,-112,139]],"properties":{"市区町村名":"深川市","大字名":"深川町","丁目名":null,"小字名":"字メム","地番":"48-11","精度区分":null,"座標系":"任意座標系"}},{"type":"Polygon","arcs":[[-126,-124,140,141]],"properties":{"市区町村名":"深川市","大字名":"深川町","丁目名":null,"小字名":"字メム","地番":"48-12","精度区分":null,"座標系":"任意座標系"}},{"type":"Polygon","arcs":[[-122,-125,142,143,-110,144]],"properties":{"市区町村名":"深川市","大字名":"深川町","丁目名":null,"小字名":"字メム","地番":"48-13","精度区分":null,"座標系":"任意座標系"}},{"type":"Polygon","arcs":[[-130,145,-140,-111,-144,146]],"properties":{"市区町村名":"深川市","大字名":"深川町","丁目名":null,"小字名":"字メム","地番":"48-14","精度区分":null,"座標系":"任意座標系"}},{"type":"Polygon","arcs":[[147,148,149,-133]],"properties":{"市区町村名":"深川市","大字名":"深川町","丁目名":null,"小字名":"字メム","地番":"48-15","精度区分":null,"座標系":"任意座標系"}},{"type":"Polygon","arcs":[[150,151,152,-114,153]],"properties":{"市区町村名":"深川市","大字名":"深川町","丁目名":null,"小字名":"字メム","地番":"48-16","精度区分":null,"座標系":"任意座標系"}},{"type":"Polygon","arcs":[[-153,154,155,156,157,158,159,-115]],"properties":{"市区町村名":"深川市","大字名":"深川町","丁目名":null,"小字名":"字メム","地番":"48-17","精度区分":null,"座標系":"任意座標系"}},{"type":"Polygon","arcs":[[160,-157]],"properties":{"市区町村名":"深川市","大字名":"深川町","丁目名":null,"小字名":"字メム","地番":"48-18","精度区分":null,"座標系":"任意座標系"}},{"type":"Polygon","arcs":[[161,162,163,-158,-161,-156]],"properties":{"市区町村名":"深川市","大字名":"深川町","丁目名":null,"小字名":"字メム","地番":"48-19","精度区分":null,"座標系":"任意座標系"}},{"type":"Polygon","arcs":[[-164,164,165,-159]],"properties":{"市区町村名":"深川市","大字名":"深川町","丁目名":null,"小字名":"字メム","地番":"48-20","精度区分":null,"座標系":"任意座標系"}},{"type":"Polygon","arcs":[[166,167,168,-149]],"properties":{"市区町村名":"深川市","大字名":"深川町","丁目名":null,"小字名":"字メム","地番":"48-21","精度区分":null,"座標系":"任意座標系"}},{"type":"Polygon","arcs":[[169,170,-155,171]],"properties":{"市区町村名":"深川市","大字名":"深川町","丁目名":null,"小字名":"字メム","地番":"48-22","精度区分":null,"座標系":"任意座標系"}},{"type":"Polygon","arcs":[[172,173,-162,-171]],"properties":{"市区町村名":"深川市","大字名":"深川町","丁目名":null,"小字名":"字メム","地番":"48-23","精度区分":null,"座標系":"任意座標系"}},{"type":"Polygon","arcs":[[174,-174,175]],"properties":{"市区町村名":"深川市","大字名":"深川町","丁目名":null,"小字名":"字メム","地番":"48-24","精度区分":null,"座標系":"任意座標系"}},{"type":"Polygon","arcs":[[176,177,-170,178]],"properties":{"市区町村名":"深川市","大字名":"深川町","丁目名":null,"小字名":"字メム","地番":"48-25","精度区分":null,"座標系":"任意座標系"}},{"type":"Polygon","arcs":[[179,-173,-178]],"properties":{"市区町村名":"深川市","大字名":"深川町","丁目名":null,"小字名":"字メム","地番":"48-26","精度区分":null,"座標系":"任意座標系"}},{"type":"Polygon","arcs":[[180,181,182,183,-176,-180,-177,184]],"properties":{"市区町村名":"深川市","大字名":"深川町","丁目名":null,"小字名":"字メム","地番":"48-27","精度区分":null,"座標系":"任意座標系"}},{"type":"Polygon","arcs":[[185,186,-179,187,-129]],"properties":{"市区町村名":"深川市","大字名":"深川町","丁目名":null,"小字名":"字メム","地番":"48-28","精度区分":null,"座標系":"任意座標系"}},{"type":"Polygon","arcs":[[188,-151,-138]],"properties":{"市区町村名":"深川市","大字名":"深川町","丁目名":null,"小字名":"字メム","地番":"48-29","精度区分":null,"座標系":"任意座標系"}},{"type":"Polygon","arcs":[[-146,-188,-172,-152,-189]],"properties":{"市区町村名":"深川市","大字名":"深川町","丁目名":null,"小字名":"字メム","地番":"48-30","精度区分":null,"座標系":"任意座標系"}},{"type":"Polygon","arcs":[[-154,-113,-139]],"properties":{"市区町村名":"深川市","大字名":"深川町","丁目名":null,"小字名":"字メム","地番":"48-31","精度区分":null,"座標系":"任意座標系"}},{"type":"Polygon","arcs":[[-120,189,190]],"properties":{"市区町村名":"深川市","大字名":"深川町","丁目名":null,"小字名":"字メム","地番":"48-32","精度区分":null,"座標系":"任意座標系"}},{"type":"Polygon","arcs":[[-190,-137,191,192]],"properties":{"市区町村名":"深川市","大字名":"深川町","丁目名":null,"小字名":"字メム","地番":"48-33","精度区分":null,"座標系":"任意座標系"}},{"type":"Polygon","arcs":[[-185,-187,193]],"properties":{"市区町村名":"深川市","大字名":"深川町","丁目名":null,"小字名":"字メム","地番":"48-34","精度区分":null,"座標系":"任意座標系"}},{"type":"Polygon","arcs":[[-163,-175,194,-169,195,-165]],"properties":{"市区町村名":"深川市","大字名":"深川町","丁目名":null,"小字名":"字メム","地番":"48-36","精度区分":null,"座標系":"任意座標系"}},{"type":"Polygon","arcs":[[196,-150,-195,-184]],"properties":{"市区町村名":"深川市","大字名":"深川町","丁目名":null,"小字名":"字メム","地番":"48-37","精度区分":null,"座標系":"任意座標系"}},{"type":"Polygon","arcs":[[-197,-183,-134]],"properties":{"市区町村名":"深川市","大字名":"深川町","丁目名":null,"小字名":"字メム","地番":"48-38","精度区分":null,"座標系":"任意座標系"}},{"type":"Polygon","arcs":[[-136,-181,197]],"properties":{"市区町村名":"深川市","大字名":"深川町","丁目名":null,"小字名":"字メム","地番":"48-39","精度区分":null,"座標系":"任意座標系"}},{"type":"Polygon","arcs":[[-182,-135]],"properties":{"市区町村名":"深川市","大字名":"深川町","丁目名":null,"小字名":"字メム","地番":"48-40","精度区分":null,"座標系":"任意座標系"}},{"type":"Polygon","arcs":[[-141,-123,-145,-109,198]],"properties":{"市区町村名":"深川市","大字名":"深川町","丁目名":null,"小字名":"字メム","地番":"48-41","精度区分":null,"座標系":"任意座標系"}},{"type":"Polygon","arcs":[[-192,-198,-194,-186,-128,199]],"properties":{"市区町村名":"深川市","大字名":"深川町","丁目名":null,"小字名":"字メム","地番":"48-42","精度区分":null,"座標系":"任意座標系"}},{"type":"Polygon","arcs":[[200,201,-118]],"properties":{"市区町村名":"深川市","大字名":"深川町","丁目名":null,"小字名":"字メム","地番":"48-43","精度区分":null,"座標系":"任意座標系"}},{"type":"Polygon","arcs":[[-202,202,203,-132]],"properties":{"市区町村名":"深川市","大字名":"深川町","丁目名":null,"小字名":"字メム","地番":"48-44","精度区分":null,"座標系":"任意座標系"}},{"type":"Polygon","arcs":[[204,205,-148,-204]],"properties":{"市区町村名":"深川市","大字名":"深川町","丁目名":null,"小字名":"字メム","地番":"48-45","精度区分":null,"座標系":"任意座標系"}},{"type":"Polygon","arcs":[[-206,206,-167]],"properties":{"市区町村名":"深川市","大字名":"深川町","丁目名":null,"小字名":"字メム","地番":"48-46","精度区分":null,"座標系":"任意座標系"}},{"type":"Polygon","arcs":[[207,208,209,210,211,212,213]],"properties":{"市区町村名":"深川市","大字名":"深川町","丁目名":null,"小字名":"字メム","地番":"212-1","精度区分":null,"座標系":"任意座標系"}},{"type":"Polygon","arcs":[[214,215,216,217,-211]],"properties":{"市区町村名":"深川市","大字名":"深川町","丁目名":null,"小字名":"字メム","地番":"212-4","精度区分":null,"座標系":"任意座標系"}},{"type":"Polygon","arcs":[[218,219]],"properties":{"市区町村名":"深川市","大字名":"深川町","丁目名":null,"小字名":"字メム","地番":"212-5","精度区分":null,"座標系":"任意座標系"}},{"type":"Polygon","arcs":[[220,221,222]],"properties":{"市区町村名":"深川市","大字名":"深川町","丁目名":null,"小字名":"字メム","地番":"212-18","精度区分":null,"座標系":"任意座標系"}},{"type":"Polygon","arcs":[[-222,223,224,225,226,227,228]],"properties":{"市区町村名":"深川市","大字名":"深川町","丁目名":null,"小字名":"字メム","地番":"212-21","精度区分":null,"座標系":"任意座標系"}},{"type":"Polygon","arcs":[[229,-226]],"properties":{"市区町村名":"深川市","大字名":"深川町","丁目名":null,"小字名":"字メム","地番":"212-22","精度区分":null,"座標系":"任意座標系"}},{"type":"Polygon","arcs":[[230,231]],"properties":{"市区町村名":"深川市","大字名":"深川町","丁目名":null,"小字名":"字メム","地番":"212-23","精度区分":null,"座標系":"任意座標系"}},{"type":"Polygon","arcs":[[232,233,234]],"properties":{"市区町村名":"深川市","大字名":"深川町","丁目名":null,"小字名":"字メム","地番":"212-26","精度区分":null,"座標系":"任意座標系"}},{"type":"Polygon","arcs":[[235,236,237,-233]],"properties":{"市区町村名":"深川市","大字名":"深川町","丁目名":null,"小字名":"字メム","地番":"212-27","精度区分":null,"座標系":"任意座標系"}},{"type":"Polygon","arcs":[[238,239,240,241]],"properties":{"市区町村名":"深川市","大字名":"深川町","丁目名":null,"小字名":"字メム","地番":"212-28","精度区分":null,"座標系":"任意座標系"}},{"type":"Polygon","arcs":[[-241,242,243]],"properties":{"市区町村名":"深川市","大字名":"深川町","丁目名":null,"小字名":"字メム","地番":"212-29","精度区分":null,"座標系":"任意座標系"}},{"type":"Polygon","arcs":[[-240,244,245,246,-243]],"properties":{"市区町村名":"深川市","大字名":"深川町","丁目名":null,"小字名":"字メム","地番":"212-30","精度区分":null,"座標系":"任意座標系"}},{"type":"Polygon","arcs":[[247,248,249,250]],"properties":{"市区町村名":"深川市","大字名":"深川町","丁目名":null,"小字名":"字メム","地番":"212-31","精度区分":null,"座標系":"任意座標系"}},{"type":"Polygon","arcs":[[251,252,-248,253]],"properties":{"市区町村名":"深川市","大字名":"深川町","丁目名":null,"小字名":"字メム","地番":"212-32","精度区分":null,"座標系":"任意座標系"}},{"type":"Polygon","arcs":[[-234,-238,254,-250,255,-209,256,257,-245,-239,258]],"properties":{"市区町村名":"深川市","大字名":"深川町","丁目名":null,"小字名":"字メム","地番":"212-33","精度区分":null,"座標系":"任意座標系"}},{"type":"Polygon","arcs":[[259,-215,260]],"properties":{"市区町村名":"深川市","大字名":"深川町","丁目名":null,"小字名":"字メム","地番":"212-35","精度区分":null,"座標系":"任意座標系"}},{"type":"Polygon","arcs":[[261,-216,-260,262]],"properties":{"市区町村名":"深川市","大字名":"深川町","丁目名":null,"小字名":"字メム","地番":"212-36","精度区分":null,"座標系":"任意座標系"}},{"type":"Polygon","arcs":[[263,264,-212]],"properties":{"市区町村名":"深川市","大字名":"深川町","丁目名":null,"小字名":"字メム","地番":"212-37","精度区分":null,"座標系":"任意座標系"}},{"type":"Polygon","arcs":[[265,-264,-218]],"properties":{"市区町村名":"深川市","大字名":"深川町","丁目名":null,"小字名":"字メム","地番":"212-38","精度区分":null,"座標系":"任意座標系"}},{"type":"Polygon","arcs":[[266,267,268]],"properties":{"市区町村名":"深川市","大字名":"深川町","丁目名":null,"小字名":"字メム","地番":"212-41","精度区分":null,"座標系":"任意座標系"}},{"type":"Polygon","arcs":[[-257,-208,269]],"properties":{"市区町村名":"深川市","大字名":"深川町","丁目名":null,"小字名":"字メム","地番":"212-44","精度区分":null,"座標系":"任意座標系"}},{"type":"Polygon","arcs":[[270,-261,-210,-256,-249]],"properties":{"市区町村名":"深川市","大字名":"深川町","丁目名":null,"小字名":"字メム","地番":"212-45","精度区分":null,"座標系":"任意座標系"}},{"type":"Polygon","arcs":[[-258,-270,-214,271,-246]],"properties":{"市区町村名":"深川市","大字名":"深川町","丁目名":null,"小字名":"字メム","地番":"212-50","精度区分":null,"座標系":"任意座標系"}},{"type":"Polygon","arcs":[[272,273,-251,-255,-237]],"properties":{"市区町村名":"深川市","大字名":"深川町","丁目名":null,"小字名":"字メム","地番":"212-51","精度区分":null,"座標系":"任意座標系"}},{"type":"Polygon","arcs":[[-254,-274,274]],"properties":{"市区町村名":"深川市","大字名":"深川町","丁目名":null,"小字名":"字メム","地番":"212-52","精度区分":null,"座標系":"任意座標系"}},{"type":"Polygon","arcs":[[275,276,-224,-221]],"properties":{"市区町村名":"深川市","大字名":"深川町","丁目名":null,"小字名":"字メム","地番":"212-53","精度区分":null,"座標系":"任意座標系"}},{"type":"Polygon","arcs":[[-232,277,278,-269,279,-228]],"properties":{"市区町村名":"深川市","大字名":"深川町","丁目名":null,"小字名":"字メム","地番":"212-55","精度区分":null,"座標系":"任意座標系"}},{"type":"Polygon","arcs":[[280,-278,281,-230]],"properties":{"市区町村名":"深川市","大字名":"深川町","丁目名":null,"小字名":"字メム","地番":"212-56","精度区分":null,"座標系":"任意座標系"}},{"type":"Polygon","arcs":[[-282,-231,-227]],"properties":{"市区町村名":"深川市","大字名":"深川町","丁目名":null,"小字名":"字メム","地番":"212-57","精度区分":null,"座標系":"任意座標系"}},{"type":"Polygon","arcs":[[282,-220,283,-267,-279,-281,-225,-277]],"properties":{"市区町村名":"深川市","大字名":"深川町","丁目名":null,"小字名":"字メム","地番":"212-58","精度区分":null,"座標系":"任意座標系"}},{"type":"Polygon","arcs":[[-44,-31,-29,284,-48]],"properties":{"市区町村名":"深川市","大字名":"深川町","丁目名":null,"小字名":"字メム","地番":"無地番-2","精度区分":null,"座標系":"任意座標系"}},{"type":"Polygon","arcs":[[285,286,287]],"properties":{"市区町村名":"深川市","大字名":"緑町","丁目名":null,"小字名":null,"地番":"4101-9","精度区分":null,"座標系":"任意座標系"}},{"type":"Polygon","arcs":[[288,-288,289]],"properties":{"市区町村名":"深川市","大字名":"緑町","丁目名":null,"小字名":null,"地番":"4101-10","精度区分":null,"座標系":"任意座標系"}},{"type":"Polygon","arcs":[[290,291,292,293,-286,-289,294]],"properties":{"市区町村名":"深川市","大字名":"緑町","丁目名":null,"小字名":null,"地番":"国有地-1","精度区分":null,"座標系":"任意座標系"}},{"type":"Polygon","arcs":[[295,296]],"properties":{"市区町村名":"深川市","大字名":"緑町","丁目名":null,"小字名":null,"地番":"国有地-2","精度区分":null,"座標系":"任意座標系"}},{"type":"Polygon","arcs":[[-296,297,-291,298]],"properties":{"市区町村名":"深川市","大字名":"緑町","丁目名":null,"小字名":null,"地番":"水-1","精度区分":null,"座標系":"任意座標系"}},{"type":"Polygon","arcs":[[299]],"properties":{"市区町村名":"深川市","大字名":"八条","丁目名":null,"小字名":null,"地番":"22-59","精度区分":null,"座標系":"任意座標系"}},{"type":"Polygon","arcs":[[300,301,-36,-40,302]],"properties":{"市区町村名":"深川市","大字名":"深川町","丁目名":null,"小字名":"字メム","地番":"36-24","精度区分":null,"座標系":"任意座標系"}},{"type":"Polygon","arcs":[[303,-38,-302,304]],"properties":{"市区町村名":"深川市","大字名":"深川町","丁目名":null,"小字名":"字メム","地番":"36-27","精度区分":null,"座標系":"任意座標系"}},{"type":"Polygon","arcs":[[305,-303,-59,306]],"properties":{"市区町村名":"深川市","大字名":"深川町","丁目名":null,"小字名":"字メム","地番":"36-47","精度区分":null,"座標系":"任意座標系"}},{"type":"Polygon","arcs":[[307]],"properties":{"市区町村名":"深川市","大字名":"深川町","丁目名":null,"小字名":"字オーホ","地番":"569-1","精度区分":null,"座標系":"任意座標系"}},{"type":"Polygon","arcs":[[308,309,310,311]],"properties":{"市区町村名":"深川市","大字名":"深川町","丁目名":null,"小字名":"字オーホ","地番":"道-4","精度区分":null,"座標系":"任意座標系"}},{"type":"Polygon","arcs":[[312,313,-14,314,315,316,317,318]],"properties":{"市区町村名":"深川市","大字名":"深川町","丁目名":null,"小字名":"字オーホ","地番":"道-1","精度区分":null,"座標系":"任意座標系"}},{"type":"Polygon","arcs":[[319,320,-319,321]],"properties":{"市区町村名":"深川市","大字名":"深川町","丁目名":null,"小字名":"字オーホ","地番":"水-2","精度区分":null,"座標系":"任意座標系"}},{"type":"Polygon","arcs":[[-315,-13,-12,322,323,324,325,326,-310,327]],"properties":{"市区町村名":"深川市","大字名":"深川町","丁目名":null,"小字名":"字オーホ","地番":"水-3","精度区分":null,"座標系":"任意座標系"}},{"type":"Polygon","arcs":[[-11,328,329,-323]],"properties":{"市区町村名":"深川市","大字名":"深川町","丁目名":null,"小字名":"字オーホ","地番":"道-3","精度区分":null,"座標系":"任意座標系"}},{"type":"Polygon","arcs":[[-305,-301,-306,330]],"properties":{"市区町村名":"深川市","大字名":"緑町","丁目名":null,"小字名":null,"地番":"36-96","精度区分":null,"座標系":"任意座標系"}},{"type":"Polygon","arcs":[[-316,-328,-309,331,332]],"properties":{"市区町村名":"深川市","大字名":"深川町","丁目名":null,"小字名":"字オーホ","地番":"11-40","精度区分":null,"座標系":"任意座標系"}},{"type":"Polygon","arcs":[[-333,333]],"properties":{"市区町村名":"深川市","大字名":"深川町","丁目名":null,"小字名":"字オーホ","地番":"11-41","精度区分":null,"座標系":"任意座標系"}},{"type":"Polygon","arcs":[[334,335,-325]],"properties":{"市区町村名":"深川市","大字名":"深川町","丁目名":null,"小字名":"字オーホ","地番":"25-29","精度区分":null,"座標系":"任意座標系"}},{"type":"Polygon","arcs":[[-26,336]],"properties":{"市区町村名":"深川市","大字名":"深川町","丁目名":null,"小字名":"字オーホ","地番":"25-30","精度区分":null,"座標系":"任意座標系"}},{"type":"Polygon","arcs":[[-311,-327,337,338]],"properties":{"市区町村名":"深川市","大字名":"深川町","丁目名":null,"小字名":"字オーホ","地番":"26-42","精度区分":null,"座標系":"任意座標系"}},{"type":"Polygon","arcs":[[339,340]],"properties":{"市区町村名":"深川市","大字名":"深川町","丁目名":null,"小字名":"字オーホ","地番":"27-46","精度区分":null,"座標系":"任意座標系"}},{"type":"Polygon","arcs":[[-340,341,342,-313,-321]],"properties":{"市区町村名":"深川市","大字名":"深川町","丁目名":null,"小字名":"字オーホ","地番":"29-16","精度区分":null,"座標系":"任意座標系"}},{"type":"Polygon","arcs":[[-343,343]],"properties":{"市区町村名":"深川市","大字名":"深川町","丁目名":null,"小字名":"字オーホ","地番":"29-17","精度区分":null,"座標系":"任意座標系"}},{"type":"Polygon","arcs":[[-322,-318,344]],"properties":{"市区町村名":"深川市","大字名":"深川町","丁目名":null,"小字名":"字オーホ","地番":"30-21","精度区分":null,"座標系":"任意座標系"}},{"type":"Polygon","arcs":[[-330,345,-335,-324]],"properties":{"市区町村名":"深川市","大字名":"深川町","丁目名":null,"小字名":"字オーホ","地番":"25-28","精度区分":null,"座標系":"任意座標系"}},{"type":"Polygon","arcs":[[-338,346]],"properties":{"市区町村名":"深川市","大字名":"深川町","丁目名":null,"小字名":"字オーホ","地番":"574-5","精度区分":null,"座標系":"任意座標系"}},{"type":"Polygon","arcs":[[-298,347,348,-292]],"properties":{"市区町村名":"深川市","大字名":"八条","丁目名":null,"小字名":null,"地番":"23-24","精度区分":null,"座標系":"任意座標系"}},{"type":"Polygon","arcs":[[-293,-349,349,350,351]],"properties":{"市区町村名":"深川市","大字名":"八条","丁目名":null,"小字名":null,"地番":"筆界未定地-1","精度区分":null,"座標系":"任意座標系"}},{"type":"Polygon","arcs":[[352,-351]],"properties":{"市区町村名":"深川市","大字名":"八条","丁目名":null,"小字名":null,"地番":"23-30","精度区分":null,"座標系":"任意座標系"}},{"type":"Polygon","arcs":[[-92,-106,-81,-101]],"properties":{"市区町村名":"深川市","大字名":"深川町","丁目名":null,"小字名":"字メム","地番":"無地番-1","精度区分":null,"座標系":"任意座標系"}},{"type":"Polygon","arcs":[[353]],"properties":{"市区町村名":"深川市","大字名":"深川町","丁目名":null,"小字名":"字メム","地番":"47-43","精度区分":null,"座標系":"任意座標系"}},{"type":"Polygon","arcs":[[354,355]],"properties":{"市区町村名":"深川市","大字名":"深川町","丁目名":null,"小字名":"字オーホ","地番":"6580","精度区分":null,"座標系":"任意座標系"}},{"type":"Polygon","arcs":[[356,-356,357,-24]],"properties":{"市区町村名":"深川市","大字名":"深川町","丁目名":null,"小字名":"字オーホ","地番":"578-6","精度区分":null,"座標系":"任意座標系"}}]}},"arcs":[[[65490,954761],[44,-361]],[[65534,954400],[-1295,-65],[35,-317]],[[64274,954018],[-21594,-1247],[-89,695]],[[42591,953466],[22899,1295]],[[65378,955669],[112,-908]],[[42591,953466],[-110,851]],[[42481,954317],[22897,1352]],[[65534,954400],[38,-307],[-1298,-75]],[[58169,981529],[-4268,-5765]],[[53901,975764],[-13652,-3366]],[[40249,972398],[-451,3589]],[[39798,975987],[2973,1325],[6331,863],[5013,2970],[4054,384]],[[58169,981529],[3973,377]],[[62142,981906],[492,-3988]],[[62634,977918],[-868,-215]],[[61766,977703],[-2080,-512]],[[59686,977191],[-5785,-1427]],[[61766,977703],[160,-1269],[-249,-16]],[[61677,976418],[-1912,-126],[-79,899]],[[62634,977918],[2744,-22249]],[[42481,954317],[-106,815],[21646,1290],[-2344,19996]],[[236054,999908],[1959,91],[-2776,-24730],[-1983,-100],[2800,24739]],[[40179,952649],[1619,-13316]],[[41798,939333],[-1207,-55]],[[40591,939278],[-1640,13294]],[[38951,952572],[1228,77]],[[230988,934071],[-181,-1857],[-1388,-68],[-310,1848],[1879,77]],[[854922,410309],[996,-5202],[-5638,-1685]],[[850280,403422],[4642,6887]],[[853439,423472],[-674,-1895],[2157,-11268]],[[854922,410309],[-9379,3083]],[[845543,413392],[4732,10008],[1598,-395],[1566,467]],[[854669,428838],[384,-822]],[[855053,428016],[-624,-1757]],[[854429,426259],[-3613,150]],[[850816,426409],[3853,2429]],[[855541,429387],[-488,-1371]],[[854669,428838],[872,549]],[[850816,426409],[-6107,-3850],[-705,4134]],[[844004,426693],[6812,-284]],[[836483,416588],[6169,8281],[-99,108]],[[842553,424977],[1451,1716]],[[854429,426259],[-990,-2787]],[[845543,413392],[-1350,-2855]],[[844193,410537],[-11537,-3304]],[[832656,407233],[-1055,1678]],[[831601,408911],[3761,5063],[1121,2614]],[[844193,410537],[-137,-291],[-10012,-5220]],[[834044,405026],[-1388,2207]],[[830563,415995],[1005,-143],[2975,445]],[[834543,416297],[1940,291]],[[831601,408911],[-2787,4434],[1749,2650]],[[830738,416260],[712,-102],[1115,2423]],[[832565,418581],[3925,-525],[-1947,-1759]],[[830563,415995],[175,265]],[[836922,423382],[5631,1595]],[[832565,418581],[914,1120],[1982,2119],[1461,1562]],[[830738,416260],[1827,2321]],[[843644,428542],[360,-1849]],[[836922,423382],[2058,1651],[1010,769],[3654,2740]],[[829094,398442],[711,4416],[533,268]],[[830338,403126],[2655,1338]],[[832993,404464],[3241,-5238],[-7499,-2240]],[[828735,396986],[359,1456]],[[831498,406857],[1495,-2393]],[[830338,403126],[1160,3731]],[[828074,411460],[255,469],[3169,-5072]],[[829094,398442],[-1024,2373],[2363,6815],[-2359,3830]],[[828735,396986],[-4574,-1366],[167,4295],[942,4965],[1032,2954],[525,1069],[1247,2557]],[[849863,402612],[6206,1873],[5586,-15318],[-8704,-2643],[358,-4379],[-2469,3608],[-1533,4050],[-637,3912],[-278,4700],[1471,4197]],[[848199,378675],[-8198,-3860]],[[840001,374815],[-2296,4739],[-496,6577]],[[837209,386131],[10990,-7456]],[[827537,395933],[635,-1498],[-2436,-837],[-37,54]],[[825699,393652],[-996,1432]],[[824703,395084],[2834,849]],[[840403,362577],[2508,-3089],[-6782,-2663]],[[836129,356825],[-1817,3017],[6091,2735]],[[838875,352265],[-2746,4560]],[[840403,362577],[-4959,10092]],[[835444,372669],[983,463]],[[836427,373132],[10864,-15219],[-6673,-5192],[-1743,-456]],[[829554,396529],[601,-4113],[1076,-7049],[494,-3183]],[[831725,382184],[-1488,2858],[-735,3958]],[[829502,389000],[-341,1837],[-396,5459]],[[828765,396296],[789,233]],[[831209,397017],[450,-2815],[1826,-15398]],[[833485,378804],[-1760,3380]],[[829554,396529],[1655,488]],[[838719,394897],[9480,-16222]],[[837209,386131],[583,6810],[927,1956]],[[833485,378804],[935,-2934]],[[834420,375870],[-7136,-3091]],[[827284,372779],[-1690,8282]],[[825594,381061],[2177,605],[2418,-3790],[3296,928]],[[827537,395933],[1228,363]],[[829502,389000],[-3561,-958],[2089,-3738],[-2811,-818]],[[825219,383486],[-1478,9571]],[[823741,393057],[1958,595]],[[823741,393057],[-518,1583],[1480,444]],[[834420,375870],[1024,-3201]],[[835444,372669],[-6987,-3289]],[[828457,369380],[-1173,3399]],[[825594,381061],[-375,2425]],[[840001,374815],[-3574,-1683]],[[836427,373132],[-2942,5672]],[[831209,397017],[5284,1559],[2226,-3679]],[[838875,352265],[-6361,-1662],[-4,2198],[-666,4596],[-581,4522],[-502,1529],[-1049,2890],[-1255,3042]],[[831660,341054],[6141,3430]],[[837801,344484],[2579,-2590],[4569,2754]],[[844949,344648],[91,-136]],[[845040,344512],[2098,-3212]],[[847138,341300],[1438,-2266]],[[848576,339034],[3125,-4717]],[[851701,334317],[-16173,-9304]],[[835528,325013],[-13844,8084],[-1691,1440],[11667,6517]],[[883488,352454],[7307,-557]],[[890795,351897],[-5380,-4415]],[[885415,347482],[-5806,2752]],[[879609,350234],[3879,2220]],[[839518,346143],[2749,837]],[[842267,346980],[156,-311],[-2220,-702]],[[840203,345967],[-5312,-1681],[-1016,1869]],[[833875,346155],[2873,690],[841,-1289],[1929,587]],[[841076,349345],[1191,-2365]],[[839518,346143],[-1641,2414]],[[837877,348557],[3199,788]],[[855792,356926],[8574,-8983]],[[864366,347943],[-5204,-2926]],[[859162,345017],[-8036,10369]],[[851126,355386],[608,366],[4058,1174]],[[885415,347482],[-3070,-2519],[2687,-2632],[3822,-5042],[2847,-5919],[1551,-7795],[5150,-5908],[364,-1494]],[[898766,316173],[-16816,14068]],[[881950,330241],[-2021,5370]],[[879929,335611],[-25,2021],[-2898,1764]],[[877006,339396],[-6431,5668]],[[870575,345064],[9034,5170]],[[853913,342065],[-3302,-1875]],[[850611,340190],[-3473,1110]],[[845040,344512],[4947,2992],[3926,-5439]],[[833875,346155],[-680,1249]],[[833195,347404],[4682,1153]],[[841076,349345],[507,305]],[[841583,349650],[3366,-5002]],[[837801,344484],[2402,1483]],[[859162,345017],[-5249,-2952]],[[841583,349650],[9543,5736]],[[898766,316173],[1760,-7219]],[[900526,308954],[-17956,17736]],[[882570,326690],[-620,3551]],[[850611,340190],[1818,-582]],[[852429,339608],[5455,-1744]],[[857884,337864],[-6183,-3547]],[[848576,339034],[2035,1156]],[[857884,337864],[10380,-3320]],[[868264,334544],[-8226,-4372]],[[860038,330172],[-4142,-2202],[4847,-7455]],[[860743,320515],[393,-604]],[[861136,319911],[-19449,-10677]],[[841687,309234],[-537,210],[49,12258],[-5671,3311]],[[860038,330172],[1872,-2475],[9468,4717],[3142,-3847],[-9659,-4982],[722,-752],[-4840,-2318]],[[868264,334544],[5990,-1915]],[[874254,332629],[796,-1674],[5774,-5454],[1210,-4909],[-1024,-6823]],[[881010,313769],[-18123,3448],[-1751,2694]],[[881010,313769],[-463,-3080],[-12807,-11675]],[[867740,299014],[-26053,10220]],[[900526,308954],[-358,-2669]],[[900168,306285],[-11091,-12721]],[[889077,293564],[1923,14216],[-1457,7104],[-5232,6366],[-1741,5440]],[[862606,340572],[372,-473],[9248,-3449]],[[872226,336650],[-3962,-2106]],[[857884,337864],[4722,2708]],[[872226,336650],[1694,-632]],[[873920,336018],[334,-3389]],[[877563,331570],[-3309,1059]],[[873920,336018],[3915,-1461],[-272,-2987]],[[867674,343404],[3548,-3477],[2554,-2453]],[[873776,337474],[-1550,-824]],[[862606,340572],[5068,2832]],[[873776,337474],[144,-1456]],[[869090,344214],[7916,-4818]],[[877006,339396],[2923,-3785]],[[879929,335611],[44,-3648]],[[879973,331963],[-2410,-393]],[[867674,343404],[1416,810]],[[864366,347943],[1944,-2036]],[[866310,345907],[1364,-2503]],[[862606,340572],[-3444,4445]],[[853913,342065],[963,-1291],[-2447,-1166]],[[879609,350234],[-9000,7097],[-5690,4423],[-4695,6648]],[[860224,368402],[2951,3967],[3088,-6510],[11016,-8328],[6399,-4969],[-190,-108]],[[870575,345064],[-2538,2237],[-5303,4579],[-4100,5148],[-4181,4312]],[[854453,361340],[5771,7062]],[[866310,345907],[2780,-1693]],[[877563,331570],[5007,-4880]],[[889077,293564],[-1897,-2176],[-19440,7626]],[[879973,331963],[1977,-1722]],[[869090,344214],[1485,850]],[[831660,341054],[360,2425],[-562,3497],[1737,428]],[[855792,356926],[-2258,3290],[919,1124]],[[890795,351897],[17153,-1141],[13805,-19713],[-354,-406]],[[921399,330637],[-35984,16845]],[[921399,330637],[-16837,-19312]],[[904562,311325],[-5796,4848]],[[904562,311325],[-2978,-3416]],[[901584,307909],[-1058,1045]],[[901584,307909],[-1416,-1624]],[[343550,42042],[16425,-2300],[6425,2956]],[[366400,42698],[431,198]],[[366831,42896],[2116,969]],[[368947,43865],[-19112,-12938]],[[349835,30927],[-7686,-987]],[[342149,29940],[-5462,13063]],[[336687,43003],[6863,-961]],[[368947,43865],[14356,6577]],[[383303,50442],[3688,1690]],[[386991,52132],[8242,-4699],[4533,-10037]],[[399766,37396],[-4592,-646],[-45339,-5823]],[[327735,115700],[688,-1997]],[[328423,113703],[-2990,-532],[-625,1999],[2927,530]],[[325661,120400],[-10387,-2899]],[[315274,117501],[-9985,12106]],[[305289,129607],[11978,3615],[526,-1799],[7868,-11023]],[[315274,117501],[276,-334],[2309,-1428],[16,-1870]],[[317875,113869],[7,-816]],[[317882,113053],[-5713,6547],[-1143,-1784],[64,-5748]],[[311090,112068],[-6882,-995],[-335,-1443]],[[303873,109630],[-2693,-379]],[[301180,109251],[-946,4837],[2051,14612],[3004,907]],[[317882,113053],[-6792,-985]],[[303873,109630],[7727,1087]],[[311600,110717],[4125,-11383],[-855,-1300],[-2234,-331],[-822,3388],[-4337,-114],[-411,3879],[-4353,-228],[1160,5002]],[[356556,69551],[-7273,-2251]],[[349283,67300],[-1278,5168],[-1032,2563]],[[346973,75031],[9583,-5480]],[[356556,69551],[15603,-8963]],[[372159,60588],[-15816,-4823]],[[356343,55765],[-5861,6686],[-1199,4849]],[[348811,67154],[1088,-4602],[5902,-6986]],[[355801,55566],[-4461,-1356]],[[351340,54210],[-7059,11541]],[[344281,65751],[4530,1403]],[[351340,54210],[-16903,-5139]],[[334437,49071],[-4535,12228],[14379,4452]],[[355801,55566],[3382,-4106]],[[359183,51460],[-23071,-6905]],[[336112,44555],[-1675,4516]],[[377108,56825],[3036,-3065],[-461,-436],[406,-335]],[[380089,52989],[-17253,-5222]],[[362836,47767],[-3149,3841]],[[359687,51608],[17421,5217]],[[378191,57149],[5426,-3093]],[[383617,54056],[-3528,-1067]],[[377108,56825],[1083,324]],[[356343,55765],[3344,-4157]],[[362836,47767],[3995,-4871]],[[366400,42698],[-4054,4922]],[[362346,47620],[-3163,3840]],[[348811,67154],[-1334,5642],[-1004,2522],[500,-287]],[[380967,52293],[2336,-1851]],[[368947,43865],[12020,8428]],[[383617,54056],[3374,-1924]],[[380967,52293],[2650,1763]],[[349835,30927],[21824,-14648],[17414,11891],[11210,7974]],[[400283,36144],[6083,-14725],[-11952,-19236],[-27375,-2183],[-19533,15123],[-5357,14817]],[[399766,37396],[517,-1252]],[[319527,102914],[11755,2614]],[[331282,105528],[3611,-10306],[-15517,-5741],[-537,1421]],[[318839,90902],[2288,4397],[394,1839],[-1994,5776]],[[343550,42042],[18796,5578]],[[380089,52989],[878,-696]],[[336687,43003],[-575,1552]],[[372159,60588],[2807,-1600]],[[374966,58988],[2142,-2163]],[[374966,58988],[3225,-1839]],[[325661,120400],[2329,-3261],[-494,-742]],[[327496,116397],[-9621,-2528]],[[311600,110717],[6295,886]],[[317895,111603],[35,-4059],[1597,-4630]],[[318839,90902],[-510,1347],[-16093,11591],[-1056,5411]],[[317882,113053],[13,-1450]],[[311600,110717],[-510,1351]],[[327496,116397],[239,-697]],[[328423,113703],[282,-820],[2577,-7355]],[[850280,403422],[-12885,-3859],[-3351,5463]],[[946959,487911],[657,-1722]],[[947616,486189],[-192,-109],[-2360,-3040],[-3162,-1621],[-7151,-5338],[-7249,-4054],[-7638,-5726],[-5204,-4135],[-3316,2584]],[[911344,464750],[31166,20368],[4449,2793]],[[946207,489881],[752,-1970]],[[911344,464750],[-689,538],[-916,652],[36468,23941]],[[971545,504782],[2815,-940]],[[974360,503842],[-996,-2617]],[[973364,501225],[-231,-605]],[[973133,500620],[-25517,-14431]],[[946207,489881],[25338,14901]],[[974935,505353],[-1467,561]],[[973468,505914],[817,480],[650,-1041]],[[974935,505353],[-575,-1511]],[[971545,504782],[1923,1132]],[[996438,508211],[3561,-1891],[-4722,-8884],[-5453,8810],[6614,1965]],[[846087,428105],[6779,4596]],[[852866,432701],[1803,-3863]],[[844004,426693],[2083,1412]],[[857899,436025],[-2358,-6638]],[[852866,432701],[5033,3324]],[[845996,430404],[91,-2299]],[[843644,428542],[2352,1862]],[[172610,990369],[22442,1122],[2227,-18195],[-30208,-1450],[5539,18523]],[[39137,980949],[379,-3072]],[[39516,977877],[-2340,-1014]],[[37176,976863],[-487,3663]],[[36689,980526],[2448,423]],[[64763,982056],[438,-3672]],[[65201,978384],[-2567,-466]],[[62142,981906],[-334,2496]],[[61808,984402],[-263,1970]],[[61545,986372],[2643,493]],[[64188,986865],[265,-2217]],[[64453,984648],[310,-2592]],[[83147,989229],[3065,-697]],[[86212,988532],[-8876,-5639],[-2497,474],[-2523,36],[-4468,-1075],[-3085,-272]],[[64453,984648],[7252,753],[3034,28],[2050,-334],[6358,4134]],[[39798,975987],[-2412,-1045]],[[37386,974942],[-5405,-902],[-13919,-3947],[-7367,-2624]],[[10695,967469],[-3158,-1125]],[[7537,966344],[-221,2085]],[[7316,968429],[23779,7736],[6081,698]],[[39516,977877],[3738,1756],[5157,653],[5749,3266],[7648,850]],[[40249,972398],[-2431,-612]],[[37818,971786],[-432,3156]],[[845996,430404],[13069,8942],[-1166,-3321]],[[39137,980949],[44,8],[13112,3170],[6192,1488]],[[58485,985615],[3060,757]],[[58485,985615],[-243,1010],[803,214],[2428,70],[72,-537]],[[10695,967469],[439,-2250]],[[11134,965219],[-3394,-790],[-203,1915]],[[38951,952572],[-29703,-1711],[-40,250],[29708,1724],[-201,1945],[1163,139],[301,-2270]],[[7316,968429],[-581,5069]],[[6735,973498],[13852,3322],[16058,3698],[44,8]],[[86660,985837],[-448,2695]],[[86212,988532],[5956,1464],[402,-2735],[-5910,-1424]],[[86660,985837],[-20,-5],[-1508,-401],[-16857,-6308],[-588,-121]],[[67687,979002],[-2486,-618]],[[67687,979002],[-1546,-8490],[-940,7872]],[[64188,986865],[33,6],[4320,1230],[14606,1128]],[[37818,971786],[-28,-7],[-26639,-6556],[-17,-4]],[[7316,968429],[-3358,-1122],[-3958,515],[0,4147],[6673,1515],[62,14]],[[974935,505353],[9138,2715],[1885,-3042]],[[985958,505026],[-12594,-3801]],[[985958,505026],[2954,-4771]],[[988912,500255],[-19934,-18153]],[[968978,482102],[-3019,-329],[7174,18847]],[[988912,500255],[4364,-7047],[-5935,-9104],[-18363,-2002]],[[826975,326237],[8971,-5413],[-3269,-5074],[-12171,-145],[2226,2852],[2156,3817],[2087,3963]],[[43587,924615],[230,-1720],[-584,-43],[-210,1742]],[[43023,924594],[564,21]],[[41798,939333],[1789,-14718]],[[43023,924594],[-619,-23],[-1813,14707]]],"bbox":[-4533.201,-3977.987,1379.928,4537.644],"transform":{"scale":[0.005913134913134914,0.008515639515639517],"translate":[-4533.201,-3977.987]}}