{"type":"Topology","objects":{"01228-4500-57":{"type":"GeometryCollection","geometries":[{"type":"MultiPolygon","arcs":[[[0]]],"properties":{"筆ID":"H000000001","version":"ver1.0","座標系":"任意座標系","測地系判別":null,"地図名":"深川市旧納内村附属連絡図３０００・図郭有","地図番号":"9","縮尺分母":"3000","市区町村コード":"01228","市区町村名":"深川市","大字コード":"029","丁目コード":"000","小字コード":"0002","予備コード":"00","大字名":"納内町","丁目名":null,"小字名":"字納内","予備名":null,"地番":"3963V1","精度区分":null,"座標値種別":"図上測量","筆界未定構成筆":null,"代表点緯度":1996.983,"代表点経度":-2419.021222038}},{"type":"MultiPolygon","arcs":[[[1]]],"properties":{"筆ID":"H000000002","version":"ver1.0","座標系":"任意座標系","測地系判別":null,"地図名":"深川市旧納内村附属連絡図３０００・図郭有","地図番号":"10","縮尺分母":"3000","市区町村コード":"01228","市区町村名":"深川市","大字コード":"029","丁目コード":"000","小字コード":"0002","予備コード":"00","大字名":"納内町","丁目名":null,"小字名":"字納内","予備名":null,"地番":"3963V2","精度区分":null,"座標値種別":"図上測量","筆界未定構成筆":null,"代表点緯度":1528.1835,"代表点経度":-2377.544063541}},{"type":"MultiPolygon","arcs":[[[2]]],"properties":{"筆ID":"H000000003","version":"ver1.0","座標系":"任意座標系","測地系判別":null,"地図名":"深川市旧納内村附属連絡図３０００・図郭有","地図番号":"11","縮尺分母":"3000","市区町村コード":"01228","市区町村名":"深川市","大字コード":"029","丁目コード":"000","小字コード":"0002","予備コード":"00","大字名":"納内町","丁目名":null,"小字名":"字納内","予備名":null,"地番":"3963V3","精度区分":null,"座標値種別":"図上測量","筆界未定構成筆":null,"代表点緯度":1042.9925,"代表点経度":-2334.349875569}},{"type":"MultiPolygon","arcs":[[[3]]],"properties":{"筆ID":"H000000004","version":"ver1.0","座標系":"任意座標系","測地系判別":null,"地図名":"深川市旧納内村附属連絡図３０００・図郭有","地図番号":"11","縮尺分母":"3000","市区町村コード":"01228","市区町村名":"深川市","大字コード":"029","丁目コード":"000","小字コード":"0002","予備コード":"00","大字名":"納内町","丁目名":null,"小字名":"字納内","予備名":null,"地番":"3963V4","精度区分":null,"座標値種別":"図上測量","筆界未定構成筆":null,"代表点緯度":648.886,"代表点経度":-2299.169551361}},{"type":"MultiPolygon","arcs":[[[4]]],"properties":{"筆ID":"H000000005","version":"ver1.0","座標系":"任意座標系","測地系判別":null,"地図名":"深川市旧納内村附属連絡図３０００・図郭有","地図番号":"11","縮尺分母":"3000","市区町村コード":"01228","市区町村名":"深川市","大字コード":"029","丁目コード":"000","小字コード":"0002","予備コード":"00","大字名":"納内町","丁目名":null,"小字名":"字納内","予備名":null,"地番":"3963V5","精度区分":null,"座標値種別":"図上測量","筆界未定構成筆":null,"代表点緯度":393.8815,"代表点経度":-2276.084059822}},{"type":"MultiPolygon","arcs":[[[5,6]]],"properties":{"筆ID":"H000000006","version":"ver1.0","座標系":"任意座標系","測地系判別":null,"地図名":"深川市旧納内村附属連絡図３０００・図郭有","地図番号":"13","縮尺分母":"3000","市区町村コード":"01228","市区町村名":"深川市","大字コード":"029","丁目コード":"000","小字コード":"0002","予備コード":"00","大字名":"納内町","丁目名":null,"小字名":"字納内","予備名":null,"地番":"無地番-62","精度区分":null,"座標値種別":"図上測量","筆界未定構成筆":null,"代表点緯度":3136.2895,"代表点経度":-2941.915919572}},{"type":"MultiPolygon","arcs":[[[7,8]]],"properties":{"筆ID":"H000000007","version":"ver1.0","座標系":"任意座標系","測地系判別":null,"地図名":"深川市旧納内村附属連絡図３０００・図郭有","地図番号":"13","縮尺分母":"3000","市区町村コード":"01228","市区町村名":"深川市","大字コード":"029","丁目コード":"000","小字コード":"0002","予備コード":"00","大字名":"納内町","丁目名":null,"小字名":"字納内","予備名":null,"地番":"無地番-66","精度区分":null,"座標値種別":"図上測量","筆界未定構成筆":null,"代表点緯度":3268.6685,"代表点経度":-2800.636792972}},{"type":"MultiPolygon","arcs":[[[9,10]]],"properties":{"筆ID":"H000000008","version":"ver1.0","座標系":"任意座標系","測地系判別":null,"地図名":"深川市旧納内村附属連絡図３０００・図郭有","地図番号":"13","縮尺分母":"3000","市区町村コード":"01228","市区町村名":"深川市","大字コード":"029","丁目コード":"000","小字コード":"0002","予備コード":"00","大字名":"納内町","丁目名":null,"小字名":"字納内","予備名":null,"地番":"無地番-70","精度区分":null,"座標値種別":"図上測量","筆界未定構成筆":null,"代表点緯度":3396.41,"代表点経度":-2776.699467283}},{"type":"MultiPolygon","arcs":[[[11]]],"properties":{"筆ID":"H000000009","version":"ver1.0","座標系":"任意座標系","測地系判別":null,"地図名":"深川市旧納内村附属連絡図３０００・図郭有","地図番号":"4-1","縮尺分母":"3000","市区町村コード":"01228","市区町村名":"深川市","大字コード":"029","丁目コード":"000","小字コード":"0002","予備コード":"00","大字名":"納内町","丁目名":null,"小字名":"字納内","予備名":null,"地番":"筆界未定地-13","精度区分":null,"座標値種別":"図上測量","筆界未定構成筆":[{"大字コード":"029","丁目コード":"000","小字コード":"0002","予備コード":"00","大字名":"納内町","小字名":"字納内","地番":"1196-134"},{"大字コード":"029","丁目コード":"000","小字コード":"0002","予備コード":"00","大字名":"納内町","小字名":"字納内","地番":"1196-298"},{"大字コード":"029","丁目コード":"000","小字コード":"0002","予備コード":"00","大字名":"納内町","小字名":"字納内","地番":"1196-299"},{"大字コード":"029","丁目コード":"000","小字コード":"0002","予備コード":"00","大字名":"納内町","小字名":"字納内","地番":"1196-300"},{"大字コード":"029","丁目コード":"000","小字コード":"0002","予備コード":"00","大字名":"納内町","小字名":"字納内","地番":"1196-301"},{"大字コード":"029","丁目コード":"000","小字コード":"0002","予備コード":"00","大字名":"納内町","小字名":"字納内","地番":"1196-302"},{"大字コード":"029","丁目コード":"000","小字コード":"0002","予備コード":"00","大字名":"納内町","小字名":"字納内","地番":"1196-303"},{"大字コード":"029","丁目コード":"000","小字コード":"0002","予備コード":"00","大字名":"納内町","小字名":"字納内","地番":"1196-304"},{"大字コード":"029","丁目コード":"000","小字コード":"0002","予備コード":"00","大字名":"納内町","小字名":"字納内","地番":"1196-305"},{"大字コード":"029","丁目コード":"000","小字コード":"0002","予備コード":"00","大字名":"納内町","小字名":"字納内","地番":"1196-306"},{"大字コード":"029","丁目コード":"000","小字コード":"0002","予備コード":"00","大字名":"納内町","小字名":"字納内","地番":"1196-307"},{"大字コード":"029","丁目コード":"000","小字コード":"0002","予備コード":"00","大字名":"納内町","小字名":"字納内","地番":"1196-308"},{"大字コード":"029","丁目コード":"000","小字コード":"0002","予備コード":"00","大字名":"納内町","小字名":"字納内","地番":"1196-309"},{"大字コード":"029","丁目コード":"000","小字コード":"0002","予備コード":"00","大字名":"納内町","小字名":"字納内","地番":"1196-310"},{"大字コード":"029","丁目コード":"000","小字コード":"0002","予備コード":"00","大字名":"納内町","小字名":"字納内","地番":"1196-311"},{"大字コード":"029","丁目コード":"000","小字コード":"0002","予備コード":"00","大字名":"納内町","小字名":"字納内","地番":"1196-312"},{"大字コード":"029","丁目コード":"000","小字コード":"0002","予備コード":"00","大字名":"納内町","小字名":"字納内","地番":"1196-313"},{"大字コード":"029","丁目コード":"000","小字コード":"0002","予備コード":"00","大字名":"納内町","小字名":"字納内","地番":"1196-314"},{"大字コード":"029","丁目コード":"000","小字コード":"0002","予備コード":"00","大字名":"納内町","小字名":"字納内","地番":"1196-315"},{"大字コード":"029","丁目コード":"000","小字コード":"0002","予備コード":"00","大字名":"納内町","小字名":"字納内","地番":"1196-316"},{"大字コード":"029","丁目コード":"000","小字コード":"0002","予備コード":"00","大字名":"納内町","小字名":"字納内","地番":"1196-317"},{"大字コード":"029","丁目コード":"000","小字コード":"0002","予備コード":"00","大字名":"納内町","小字名":"字納内","地番":"1196-318"},{"大字コード":"029","丁目コード":"000","小字コード":"0002","予備コード":"00","大字名":"納内町","小字名":"字納内","地番":"1196-319"},{"大字コード":"029","丁目コード":"000","小字コード":"0002","予備コード":"00","大字名":"納内町","小字名":"字納内","地番":"1196-320"},{"大字コード":"029","丁目コード":"000","小字コード":"0002","予備コード":"00","大字名":"納内町","小字名":"字納内","地番":"1196-321"},{"大字コード":"029","丁目コード":"000","小字コード":"0002","予備コード":"00","大字名":"納内町","小字名":"字納内","地番":"1196-322"},{"大字コード":"029","丁目コード":"000","小字コード":"0002","予備コード":"00","大字名":"納内町","小字名":"字納内","地番":"1196-323"},{"大字コード":"029","丁目コード":"000","小字コード":"0002","予備コード":"00","大字名":"納内町","小字名":"字納内","地番":"1196-324"},{"大字コード":"029","丁目コード":"000","小字コード":"0002","予備コード":"00","大字名":"納内町","小字名":"字納内","地番":"1196-325"},{"大字コード":"029","丁目コード":"000","小字コード":"0002","予備コード":"00","大字名":"納内町","小字名":"字納内","地番":"1196-326"}],"代表点緯度":1745.4565,"代表点経度":-154.171579184}},{"type":"MultiPolygon","arcs":[[[12,-10,13,-9,14,-6]]],"properties":{"筆ID":"H000000010","version":"ver1.0","座標系":"任意座標系","測地系判別":null,"地図名":"深川市旧納内村附属連絡図３０００・図郭有","地図番号":"13","縮尺分母":"3000","市区町村コード":"01228","市区町村名":"深川市","大字コード":"029","丁目コード":"000","小字コード":"0002","予備コード":"00","大字名":"納内町","丁目名":null,"小字名":"字納内","予備名":null,"地番":"水-189","精度区分":null,"座標値種別":"図上測量","筆界未定構成筆":null,"代表点緯度":3271.3225,"代表点経度":-2856.556329544}},{"type":"MultiPolygon","arcs":[[[15]]],"properties":{"筆ID":"H000000011","version":"ver1.0","座標系":"任意座標系","測地系判別":null,"地図名":"深川市旧納内村附属連絡図３０００・図郭有","地図番号":"16","縮尺分母":"3000","市区町村コード":"01228","市区町村名":"深川市","大字コード":"029","丁目コード":"000","小字コード":"0002","予備コード":"00","大字名":"納内町","丁目名":null,"小字名":"字納内","予備名":null,"地番":"水-203","精度区分":null,"座標値種別":"図上測量","筆界未定構成筆":null,"代表点緯度":779.014,"代表点経度":-2844.633987851}},{"type":"MultiPolygon","arcs":[[[16,17,18,19,20,21,22,23,24,25,26,27]]],"properties":{"筆ID":"H000000012","version":"ver1.0","座標系":"任意座標系","測地系判別":null,"地図名":"深川市旧納内村附属連絡図３０００・図郭有","地図番号":"11","縮尺分母":"3000","市区町村コード":"01228","市区町村名":"深川市","大字コード":"029","丁目コード":"000","小字コード":"0002","予備コード":"00","大字名":"納内町","丁目名":null,"小字名":"字納内","予備名":null,"地番":"水-208","精度区分":null,"座標値種別":"図上測量","筆界未定構成筆":null,"代表点緯度":46.3745,"代表点経度":-2001.429758179}},{"type":"MultiPolygon","arcs":[[[28]]],"properties":{"筆ID":"H000000013","version":"ver1.0","座標系":"任意座標系","測地系判別":null,"地図名":"深川市旧納内村附属連絡図３０００・図郭有","地図番号":"11","縮尺分母":"3000","市区町村コード":"01228","市区町村名":"深川市","大字コード":"029","丁目コード":"000","小字コード":"0002","予備コード":"00","大字名":"納内町","丁目名":null,"小字名":"字納内","予備名":null,"地番":"水-209","精度区分":null,"座標値種別":"図上測量","筆界未定構成筆":null,"代表点緯度":41.157,"代表点経度":-1760.822224725}},{"type":"MultiPolygon","arcs":[[[29,30]]],"properties":{"筆ID":"H000000014","version":"ver1.0","座標系":"任意座標系","測地系判別":null,"地図名":"深川市旧納内村附属連絡図３０００・図郭有","地図番号":"3","縮尺分母":"3000","市区町村コード":"01228","市区町村名":"深川市","大字コード":"029","丁目コード":"000","小字コード":"0002","予備コード":"00","大字名":"納内町","丁目名":null,"小字名":"字納内","予備名":null,"地番":"水-211","精度区分":null,"座標値種別":"図上測量","筆界未定構成筆":null,"代表点緯度":710.022,"代表点経度":197.192666524}},{"type":"MultiPolygon","arcs":[[[31]]],"properties":{"筆ID":"H000000015","version":"ver1.0","座標系":"任意座標系","測地系判別":null,"地図名":"深川市旧納内村附属連絡図３０００・図郭有","地図番号":"16","縮尺分母":"3000","市区町村コード":"01228","市区町村名":"深川市","大字コード":"029","丁目コード":"003","小字コード":"0000","予備コード":"00","大字名":"納内町","丁目名":"３丁目","小字名":null,"予備名":null,"地番":"水-1","精度区分":null,"座標値種別":"図上測量","筆界未定構成筆":null,"代表点緯度":263.942,"代表点経度":-2949.56787121}},{"type":"MultiPolygon","arcs":[[[32,33]]],"properties":{"筆ID":"H000000016","version":"ver1.0","座標系":"任意座標系","測地系判別":null,"地図名":"深川市旧納内村附属連絡図３０００・図郭有","地図番号":"16","縮尺分母":"3000","市区町村コード":"01228","市区町村名":"深川市","大字コード":"029","丁目コード":"003","小字コード":"0000","予備コード":"00","大字名":"納内町","丁目名":"３丁目","小字名":null,"予備名":null,"地番":"水-3","精度区分":null,"座標値種別":"図上測量","筆界未定構成筆":null,"代表点緯度":654.3425,"代表点経度":-2876.668810375}},{"type":"MultiPolygon","arcs":[[[34,35]]],"properties":{"筆ID":"H000000017","version":"ver1.0","座標系":"任意座標系","測地系判別":null,"地図名":"深川市旧納内村附属連絡図３０００・図郭有","地図番号":"24","縮尺分母":"3000","市区町村コード":"01228","市区町村名":"深川市","大字コード":"029","丁目コード":"000","小字コード":"0002","予備コード":"00","大字名":"納内町","丁目名":null,"小字名":"字納内","予備名":null,"地番":"地区外-2","精度区分":null,"座標値種別":"図上測量","筆界未定構成筆":null,"代表点緯度":-1213.5325,"代表点経度":-4279.028289753}},{"type":"MultiPolygon","arcs":[[[36,37,38]]],"properties":{"筆ID":"H000000018","version":"ver1.0","座標系":"任意座標系","測地系判別":null,"地図名":"深川市旧納内村附属連絡図３０００・図郭有","地図番号":"11","縮尺分母":"3000","市区町村コード":"01228","市区町村名":"深川市","大字コード":"029","丁目コード":"000","小字コード":"0002","予備コード":"00","大字名":"納内町","丁目名":null,"小字名":"字納内","予備名":null,"地番":"地区外-34","精度区分":null,"座標値種別":"図上測量","筆界未定構成筆":null,"代表点緯度":521.968,"代表点経度":-1923.514142274}},{"type":"MultiPolygon","arcs":[[[39,40,41,-37,42]]],"properties":{"筆ID":"H000000019","version":"ver1.0","座標系":"任意座標系","測地系判別":null,"地図名":"深川市旧納内村附属連絡図３０００・図郭有","地図番号":"11","縮尺分母":"3000","市区町村コード":"01228","市区町村名":"深川市","大字コード":"029","丁目コード":"000","小字コード":"0002","予備コード":"00","大字名":"納内町","丁目名":null,"小字名":"字納内","予備名":null,"地番":"地区外-35","精度区分":null,"座標値種別":"図上測量","筆界未定構成筆":null,"代表点緯度":518.1485,"代表点経度":-1916.642612096}},{"type":"MultiPolygon","arcs":[[[-43,43,44]]],"properties":{"筆ID":"H000000020","version":"ver1.0","座標系":"任意座標系","測地系判別":null,"地図名":"深川市旧納内村附属連絡図３０００・図郭有","地図番号":"11","縮尺分母":"3000","市区町村コード":"01228","市区町村名":"深川市","大字コード":"029","丁目コード":"000","小字コード":"0002","予備コード":"00","大字名":"納内町","丁目名":null,"小字名":"字納内","予備名":null,"地番":"地区外-36","精度区分":null,"座標値種別":"図上測量","筆界未定構成筆":null,"代表点緯度":524.1085,"代表点経度":-1922.113887231}},{"type":"MultiPolygon","arcs":[[[45,46]]],"properties":{"筆ID":"H000000021","version":"ver1.0","座標系":"任意座標系","測地系判別":null,"地図名":"深川市旧納内村附属連絡図３０００・図郭有","地図番号":"11","縮尺分母":"3000","市区町村コード":"01228","市区町村名":"深川市","大字コード":"029","丁目コード":"000","小字コード":"0002","予備コード":"00","大字名":"納内町","丁目名":null,"小字名":"字納内","予備名":null,"地番":"地区外-37","精度区分":null,"座標値種別":"図上測量","筆界未定構成筆":null,"代表点緯度":535.961,"代表点経度":-1900.599521136}},{"type":"MultiPolygon","arcs":[[[-44,-39,47]]],"properties":{"筆ID":"H000000022","version":"ver1.0","座標系":"任意座標系","測地系判別":null,"地図名":"深川市旧納内村附属連絡図３０００・図郭有","地図番号":"11","縮尺分母":"3000","市区町村コード":"01228","市区町村名":"深川市","大字コード":"029","丁目コード":"000","小字コード":"0002","予備コード":"00","大字名":"納内町","丁目名":null,"小字名":"字納内","予備名":null,"地番":"地区外-38","精度区分":null,"座標値種別":"図上測量","筆界未定構成筆":null,"代表点緯度":533.094,"代表点経度":-1940.960440038}},{"type":"MultiPolygon","arcs":[[[48,-41]]],"properties":{"筆ID":"H000000023","version":"ver1.0","座標系":"任意座標系","測地系判別":null,"地図名":"深川市旧納内村附属連絡図３０００・図郭有","地図番号":"11","縮尺分母":"3000","市区町村コード":"01228","市区町村名":"深川市","大字コード":"029","丁目コード":"000","小字コード":"0002","予備コード":"00","大字名":"納内町","丁目名":null,"小字名":"字納内","予備名":null,"地番":"地区外-39","精度区分":null,"座標値種別":"図上測量","筆界未定構成筆":null,"代表点緯度":505.5445,"代表点経度":-1895.844698369}},{"type":"MultiPolygon","arcs":[[[-46,49]]],"properties":{"筆ID":"H000000024","version":"ver1.0","座標系":"任意座標系","測地系判別":null,"地図名":"深川市旧納内村附属連絡図３０００・図郭有","地図番号":"11","縮尺分母":"3000","市区町村コード":"01228","市区町村名":"深川市","大字コード":"029","丁目コード":"000","小字コード":"0002","予備コード":"00","大字名":"納内町","丁目名":null,"小字名":"字納内","予備名":null,"地番":"地区外-40","精度区分":null,"座標値種別":"図上測量","筆界未定構成筆":null,"代表点緯度":554.8535,"代表点経度":-1931.826507854}},{"type":"MultiPolygon","arcs":[[[50,51,52,53]]],"properties":{"筆ID":"H000000025","version":"ver1.0","座標系":"任意座標系","測地系判別":null,"地図名":"深川市旧納内村附属連絡図３０００・図郭有","地図番号":"11","縮尺分母":"3000","市区町村コード":"01228","市区町村名":"深川市","大字コード":"029","丁目コード":"000","小字コード":"0002","予備コード":"00","大字名":"納内町","丁目名":null,"小字名":"字納内","予備名":null,"地番":"地区外-41","精度区分":null,"座標値種別":"図上測量","筆界未定構成筆":null,"代表点緯度":613.4055,"代表点経度":-2527.027568526}},{"type":"MultiPolygon","arcs":[[[54,55,56,57]]],"properties":{"筆ID":"H000000026","version":"ver1.0","座標系":"任意座標系","測地系判別":null,"地図名":"深川市旧納内村附属連絡図３０００・図郭有","地図番号":"11","縮尺分母":"3000","市区町村コード":"01228","市区町村名":"深川市","大字コード":"029","丁目コード":"000","小字コード":"0002","予備コード":"00","大字名":"納内町","丁目名":null,"小字名":"字納内","予備名":null,"地番":"地区外-42","精度区分":null,"座標値種別":"図上測量","筆界未定構成筆":null,"代表点緯度":690.9375,"代表点経度":-2533.171652145}},{"type":"MultiPolygon","arcs":[[[58,-51,-56]]],"properties":{"筆ID":"H000000027","version":"ver1.0","座標系":"任意座標系","測地系判別":null,"地図名":"深川市旧納内村附属連絡図３０００・図郭有","地図番号":"11","縮尺分母":"3000","市区町村コード":"01228","市区町村名":"深川市","大字コード":"029","丁目コード":"000","小字コード":"0002","予備コード":"00","大字名":"納内町","丁目名":null,"小字名":"字納内","予備名":null,"地番":"地区外-43","精度区分":null,"座標値種別":"図上測量","筆界未定構成筆":null,"代表点緯度":613.769,"代表点経度":-2524.032910386}},{"type":"MultiPolygon","arcs":[[[-58,59,60,61]]],"properties":{"筆ID":"H000000028","version":"ver1.0","座標系":"任意座標系","測地系判別":null,"地図名":"深川市旧納内村附属連絡図３０００・図郭有","地図番号":"11","縮尺分母":"3000","市区町村コード":"01228","市区町村名":"深川市","大字コード":"029","丁目コード":"000","小字コード":"0002","予備コード":"00","大字名":"納内町","丁目名":null,"小字名":"字納内","予備名":null,"地番":"地区外-44","精度区分":null,"座標値種別":"図上測量","筆界未定構成筆":null,"代表点緯度":711.7105,"代表点経度":-2537.830032904}},{"type":"MultiPolygon","arcs":[[[62,-53,63,64,65,66]]],"properties":{"筆ID":"H000000029","version":"ver1.0","座標系":"任意座標系","測地系判別":null,"地図名":"深川市旧納内村附属連絡図３０００・図郭有","地図番号":"11","縮尺分母":"3000","市区町村コード":"01228","市区町村名":"深川市","大字コード":"029","丁目コード":"000","小字コード":"0002","予備コード":"00","大字名":"納内町","丁目名":null,"小字名":"字納内","予備名":null,"地番":"地区外-45","精度区分":null,"座標値種別":"図上測量","筆界未定構成筆":null,"代表点緯度":624.611,"代表点経度":-2533.88747809}},{"type":"MultiPolygon","arcs":[[[67,-65,68,69,70]]],"properties":{"筆ID":"H000000030","version":"ver1.0","座標系":"任意座標系","測地系判別":null,"地図名":"深川市旧納内村附属連絡図３０００・図郭有","地図番号":"11","縮尺分母":"3000","市区町村コード":"01228","市区町村名":"深川市","大字コード":"029","丁目コード":"000","小字コード":"0002","予備コード":"00","大字名":"納内町","丁目名":null,"小字名":"字納内","予備名":null,"地番":"地区外-46","精度区分":null,"座標値種別":"図上測量","筆界未定構成筆":null,"代表点緯度":637.9915,"代表点経度":-2539.819295296}},{"type":"MultiPolygon","arcs":[[[-66,-68,71]]],"properties":{"筆ID":"H000000031","version":"ver1.0","座標系":"任意座標系","測地系判別":null,"地図名":"深川市旧納内村附属連絡図３０００・図郭有","地図番号":"11","縮尺分母":"3000","市区町村コード":"01228","市区町村名":"深川市","大字コード":"029","丁目コード":"000","小字コード":"0002","予備コード":"00","大字名":"納内町","丁目名":null,"小字名":"字納内","予備名":null,"地番":"地区外-47","精度区分":null,"座標値種別":"図上測量","筆界未定構成筆":null,"代表点緯度":637.992,"代表点経度":-2538.831471404}},{"type":"MultiPolygon","arcs":[[[72,-71,73]]],"properties":{"筆ID":"H000000032","version":"ver1.0","座標系":"任意座標系","測地系判別":null,"地図名":"深川市旧納内村附属連絡図３０００・図郭有","地図番号":"11","縮尺分母":"3000","市区町村コード":"01228","市区町村名":"深川市","大字コード":"029","丁目コード":"000","小字コード":"0002","予備コード":"00","大字名":"納内町","丁目名":null,"小字名":"字納内","予備名":null,"地番":"地区外-48","精度区分":null,"座標値種別":"図上測量","筆界未定構成筆":null,"代表点緯度":710.2115,"代表点経度":-2548.38289284}},{"type":"MultiPolygon","arcs":[[[-61,-67,-72,-73,74]]],"properties":{"筆ID":"H000000033","version":"ver1.0","座標系":"任意座標系","測地系判別":null,"地図名":"深川市旧納内村附属連絡図３０００・図郭有","地図番号":"11","縮尺分母":"3000","市区町村コード":"01228","市区町村名":"深川市","大字コード":"029","丁目コード":"000","小字コード":"0002","予備コード":"00","大字名":"納内町","丁目名":null,"小字名":"字納内","予備名":null,"地番":"地区外-49","精度区分":null,"座標値種別":"図上測量","筆界未定構成筆":null,"代表点緯度":710.214,"代表点経度":-2544.488461212}},{"type":"MultiPolygon","arcs":[[[75,76,77]]],"properties":{"筆ID":"H000000034","version":"ver1.0","座標系":"任意座標系","測地系判別":null,"地図名":"深川市旧納内村附属連絡図３０００・図郭有","地図番号":"11","縮尺分母":"3000","市区町村コード":"01228","市区町村名":"深川市","大字コード":"029","丁目コード":"000","小字コード":"0002","予備コード":"00","大字名":"納内町","丁目名":null,"小字名":"字納内","予備名":null,"地番":"地区外-50","精度区分":null,"座標値種別":"図上測量","筆界未定構成筆":null,"代表点緯度":712.3395,"代表点経度":-2679.552686851}},{"type":"MultiPolygon","arcs":[[[-77,78]]],"properties":{"筆ID":"H000000035","version":"ver1.0","座標系":"任意座標系","測地系判別":null,"地図名":"深川市旧納内村附属連絡図３０００・図郭有","地図番号":"16","縮尺分母":"3000","市区町村コード":"01228","市区町村名":"深川市","大字コード":"029","丁目コード":"000","小字コード":"0002","予備コード":"00","大字名":"納内町","丁目名":null,"小字名":"字納内","予備名":null,"地番":"地区外-51","精度区分":null,"座標値種別":"図上測量","筆界未定構成筆":null,"代表点緯度":712.303,"代表点経度":-2770.405599267}},{"type":"MultiPolygon","arcs":[[[79]]],"properties":{"筆ID":"H000000036","version":"ver1.0","座標系":"任意座標系","測地系判別":null,"地図名":"深川市旧納内村附属連絡図３０００・図郭有","地図番号":"23","縮尺分母":"3000","市区町村コード":"01228","市区町村名":"深川市","大字コード":"029","丁目コード":"000","小字コード":"0002","予備コード":"00","大字名":"納内町","丁目名":null,"小字名":"字納内","予備名":null,"地番":"地区外-52","精度区分":null,"座標値種別":"図上測量","筆界未定構成筆":null,"代表点緯度":-84.572,"代表点経度":-4535.181241591}},{"type":"MultiPolygon","arcs":[[[80,81]]],"properties":{"筆ID":"H000000037","version":"ver1.0","座標系":"任意座標系","測地系判別":null,"地図名":"深川市旧納内村附属連絡図３０００・図郭有","地図番号":"24","縮尺分母":"3000","市区町村コード":"01228","市区町村名":"深川市","大字コード":"029","丁目コード":"000","小字コード":"0002","予備コード":"00","大字名":"納内町","丁目名":null,"小字名":"字納内","予備名":null,"地番":"地区外-53","精度区分":null,"座標値種別":"図上測量","筆界未定構成筆":null,"代表点緯度":-1005.449,"代表点経度":-4876.553758274}},{"type":"MultiPolygon","arcs":[[[82,-81]]],"properties":{"筆ID":"H000000038","version":"ver1.0","座標系":"任意座標系","測地系判別":null,"地図名":"深川市旧納内村附属連絡図３０００・図郭有","地図番号":"24","縮尺分母":"3000","市区町村コード":"01228","市区町村名":"深川市","大字コード":"029","丁目コード":"000","小字コード":"0002","予備コード":"00","大字名":"納内町","丁目名":null,"小字名":"字納内","予備名":null,"地番":"地区外-54","精度区分":null,"座標値種別":"図上測量","筆界未定構成筆":null,"代表点緯度":-978.2355,"代表点経度":-4862.740778234}},{"type":"MultiPolygon","arcs":[[[83]]],"properties":{"筆ID":"H000000039","version":"ver1.0","座標系":"任意座標系","測地系判別":null,"地図名":"深川市旧納内村附属連絡図３０００・図郭有","地図番号":"23","縮尺分母":"3000","市区町村コード":"01228","市区町村名":"深川市","大字コード":"029","丁目コード":"000","小字コード":"0002","予備コード":"00","大字名":"納内町","丁目名":null,"小字名":"字納内","予備名":null,"地番":"地区外-55","精度区分":null,"座標値種別":"図上測量","筆界未定構成筆":null,"代表点緯度":-780.453,"代表点経度":-4859.74419679}},{"type":"MultiPolygon","arcs":[[[84,85,86]]],"properties":{"筆ID":"H000000040","version":"ver1.0","座標系":"任意座標系","測地系判別":null,"地図名":"深川市旧納内村附属連絡図３０００・図郭有","地図番号":"23","縮尺分母":"3000","市区町村コード":"01228","市区町村名":"深川市","大字コード":"029","丁目コード":"000","小字コード":"0002","予備コード":"00","大字名":"納内町","丁目名":null,"小字名":"字納内","予備名":null,"地番":"地区外-56","精度区分":null,"座標値種別":"図上測量","筆界未定構成筆":null,"代表点緯度":-731.943,"代表点経度":-4841.006199189}},{"type":"MultiPolygon","arcs":[[[87,-86,88]]],"properties":{"筆ID":"H000000041","version":"ver1.0","座標系":"任意座標系","測地系判別":null,"地図名":"深川市旧納内村附属連絡図３０００・図郭有","地図番号":"23","縮尺分母":"3000","市区町村コード":"01228","市区町村名":"深川市","大字コード":"029","丁目コード":"000","小字コード":"0002","予備コード":"00","大字名":"納内町","丁目名":null,"小字名":"字納内","予備名":null,"地番":"地区外-57","精度区分":null,"座標値種別":"図上測量","筆界未定構成筆":null,"代表点緯度":-730.6285,"代表点経度":-4833.881899918}},{"type":"MultiPolygon","arcs":[[[89,90]]],"properties":{"筆ID":"H000000042","version":"ver1.0","座標系":"任意座標系","測地系判別":null,"地図名":"深川市旧納内村附属連絡図３０００・図郭有","地図番号":"23","縮尺分母":"3000","市区町村コード":"01228","市区町村名":"深川市","大字コード":"029","丁目コード":"000","小字コード":"0002","予備コード":"00","大字名":"納内町","丁目名":null,"小字名":"字納内","予備名":null,"地番":"地区外-58","精度区分":null,"座標値種別":"図上測量","筆界未定構成筆":null,"代表点緯度":-680.4455,"代表点経度":-4811.678759099}},{"type":"MultiPolygon","arcs":[[[91,92,-89,-85,93]]],"properties":{"筆ID":"H000000043","version":"ver1.0","座標系":"任意座標系","測地系判別":null,"地図名":"深川市旧納内村附属連絡図３０００・図郭有","地図番号":"23","縮尺分母":"3000","市区町村コード":"01228","市区町村名":"深川市","大字コード":"029","丁目コード":"000","小字コード":"0002","予備コード":"00","大字名":"納内町","丁目名":null,"小字名":"字納内","予備名":null,"地番":"地区外-59","精度区分":null,"座標値種別":"図上測量","筆界未定構成筆":null,"代表点緯度":-725.2765,"代表点経度":-4834.168638704}},{"type":"MultiPolygon","arcs":[[[-90,94,-92,95]]],"properties":{"筆ID":"H000000044","version":"ver1.0","座標系":"任意座標系","測地系判別":null,"地図名":"深川市旧納内村附属連絡図３０００・図郭有","地図番号":"23","縮尺分母":"3000","市区町村コード":"01228","市区町村名":"深川市","大字コード":"029","丁目コード":"000","小字コード":"0002","予備コード":"00","大字名":"納内町","丁目名":null,"小字名":"字納内","予備名":null,"地番":"地区外-60","精度区分":null,"座標値種別":"図上測量","筆界未定構成筆":null,"代表点緯度":-691.046,"代表点経度":-4819.80975313}},{"type":"MultiPolygon","arcs":[[[96,-95]]],"properties":{"筆ID":"H000000045","version":"ver1.0","座標系":"任意座標系","測地系判別":null,"地図名":"深川市旧納内村附属連絡図３０００・図郭有","地図番号":"23","縮尺分母":"3000","市区町村コード":"01228","市区町村名":"深川市","大字コード":"029","丁目コード":"000","小字コード":"0002","予備コード":"00","大字名":"納内町","丁目名":null,"小字名":"字納内","予備名":null,"地番":"地区外-61","精度区分":null,"座標値種別":"図上測量","筆界未定構成筆":null,"代表点緯度":-709.239,"代表点経度":-4815.370674479}},{"type":"MultiPolygon","arcs":[[[97,98,99,100]]],"properties":{"筆ID":"H000000046","version":"ver1.0","座標系":"任意座標系","測地系判別":null,"地図名":"深川市旧納内村附属連絡図３０００・図郭有","地図番号":"17","縮尺分母":"3000","市区町村コード":"01228","市区町村名":"深川市","大字コード":"029","丁目コード":"000","小字コード":"0002","予備コード":"00","大字名":"納内町","丁目名":null,"小字名":"字納内","予備名":null,"地番":"地区外-62","精度区分":null,"座標値種別":"図上測量","筆界未定構成筆":null,"代表点緯度":-486.055,"代表点経度":-2946.443647049}},{"type":"MultiPolygon","arcs":[[[101,-99]]],"properties":{"筆ID":"H000000047","version":"ver1.0","座標系":"任意座標系","測地系判別":null,"地図名":"深川市旧納内村附属連絡図３０００・図郭有","地図番号":"17","縮尺分母":"3000","市区町村コード":"01228","市区町村名":"深川市","大字コード":"029","丁目コード":"000","小字コード":"0002","予備コード":"00","大字名":"納内町","丁目名":null,"小字名":"字納内","予備名":null,"地番":"地区外-63","精度区分":null,"座標値種別":"図上測量","筆界未定構成筆":null,"代表点緯度":-484.033,"代表点経度":-2924.963771838}},{"type":"MultiPolygon","arcs":[[[102,103]]],"properties":{"筆ID":"H000000048","version":"ver1.0","座標系":"任意座標系","測地系判別":null,"地図名":"深川市旧納内村附属連絡図３０００・図郭有","地図番号":"17","縮尺分母":"3000","市区町村コード":"01228","市区町村名":"深川市","大字コード":"029","丁目コード":"000","小字コード":"0002","予備コード":"00","大字名":"納内町","丁目名":null,"小字名":"字納内","予備名":null,"地番":"地区外-64","精度区分":null,"座標値種別":"図上測量","筆界未定構成筆":null,"代表点緯度":-492.2665,"代表点経度":-2969.644735163}},{"type":"MultiPolygon","arcs":[[[104,-101,105,-103]]],"properties":{"筆ID":"H000000049","version":"ver1.0","座標系":"任意座標系","測地系判別":null,"地図名":"深川市旧納内村附属連絡図３０００・図郭有","地図番号":"17","縮尺分母":"3000","市区町村コード":"01228","市区町村名":"深川市","大字コード":"029","丁目コード":"000","小字コード":"0002","予備コード":"00","大字名":"納内町","丁目名":null,"小字名":"字納内","予備名":null,"地番":"地区外-65","精度区分":null,"座標値種別":"図上測量","筆界未定構成筆":null,"代表点緯度":-490.745,"代表点経度":-2960.655899615}},{"type":"MultiPolygon","arcs":[[[106,107]]],"properties":{"筆ID":"H000000050","version":"ver1.0","座標系":"任意座標系","測地系判別":null,"地図名":"深川市旧納内村附属連絡図３０００・図郭有","地図番号":"17","縮尺分母":"3000","市区町村コード":"01228","市区町村名":"深川市","大字コード":"029","丁目コード":"000","小字コード":"0002","予備コード":"00","大字名":"納内町","丁目名":null,"小字名":"字納内","予備名":null,"地番":"地区外-66","精度区分":null,"座標値種別":"図上測量","筆界未定構成筆":null,"代表点緯度":-727.442,"代表点経度":-3560.234748609}},{"type":"MultiPolygon","arcs":[[[-107,108]]],"properties":{"筆ID":"H000000051","version":"ver1.0","座標系":"任意座標系","測地系判別":null,"地図名":"深川市旧納内村附属連絡図３０００・図郭有","地図番号":"17","縮尺分母":"3000","市区町村コード":"01228","市区町村名":"深川市","大字コード":"029","丁目コード":"000","小字コード":"0002","予備コード":"00","大字名":"納内町","丁目名":null,"小字名":"字納内","予備名":null,"地番":"地区外-67","精度区分":null,"座標値種別":"図上測量","筆界未定構成筆":null,"代表点緯度":-787.248,"代表点経度":-3546.597302343}},{"type":"MultiPolygon","arcs":[[[109,110]]],"properties":{"筆ID":"H000000052","version":"ver1.0","座標系":"任意座標系","測地系判別":null,"地図名":"深川市旧納内村附属連絡図３０００・図郭有","地図番号":"24","縮尺分母":"3000","市区町村コード":"01228","市区町村名":"深川市","大字コード":"029","丁目コード":"000","小字コード":"0002","予備コード":"00","大字名":"納内町","丁目名":null,"小字名":"字納内","予備名":null,"地番":"地区外-68","精度区分":null,"座標値種別":"図上測量","筆界未定構成筆":null,"代表点緯度":-1187.663,"代表点経度":-4826.131931739}},{"type":"MultiPolygon","arcs":[[[-110,111]]],"properties":{"筆ID":"H000000053","version":"ver1.0","座標系":"任意座標系","測地系判別":null,"地図名":"深川市旧納内村附属連絡図３０００・図郭有","地図番号":"24","縮尺分母":"3000","市区町村コード":"01228","市区町村名":"深川市","大字コード":"029","丁目コード":"000","小字コード":"0002","予備コード":"00","大字名":"納内町","丁目名":null,"小字名":"字納内","予備名":null,"地番":"地区外-69","精度区分":null,"座標値種別":"図上測量","筆界未定構成筆":null,"代表点緯度":-1193.9815,"代表点経度":-4846.853316123}},{"type":"MultiPolygon","arcs":[[[112,113,114,-35]]],"properties":{"筆ID":"H000000054","version":"ver1.0","座標系":"任意座標系","測地系判別":null,"地図名":"深川市旧納内村附属連絡図３０００・図郭有","地図番号":"24","縮尺分母":"3000","市区町村コード":"01228","市区町村名":"深川市","大字コード":"029","丁目コード":"000","小字コード":"0002","予備コード":"00","大字名":"納内町","丁目名":null,"小字名":"字納内","予備名":null,"地番":"地区外-70","精度区分":null,"座標値種別":"図上測量","筆界未定構成筆":null,"代表点緯度":-1199.502,"代表点経度":-4199.95819276}},{"type":"MultiPolygon","arcs":[[[115,-114]]],"properties":{"筆ID":"H000000055","version":"ver1.0","座標系":"任意座標系","測地系判別":null,"地図名":"深川市旧納内村附属連絡図３０００・図郭有","地図番号":"24","縮尺分母":"3000","市区町村コード":"01228","市区町村名":"深川市","大字コード":"029","丁目コード":"000","小字コード":"0002","予備コード":"00","大字名":"納内町","丁目名":null,"小字名":"字納内","予備名":null,"地番":"地区外-71","精度区分":null,"座標値種別":"図上測量","筆界未定構成筆":null,"代表点緯度":-1331.474,"代表点経度":-4371.87329188}},{"type":"MultiPolygon","arcs":[[[116]]],"properties":{"筆ID":"H000000056","version":"ver1.0","座標系":"任意座標系","測地系判別":null,"地図名":"深川市旧納内村附属連絡図３０００・図郭有","地図番号":"18","縮尺分母":"3000","市区町村コード":"01228","市区町村名":"深川市","大字コード":"029","丁目コード":"000","小字コード":"0002","予備コード":"00","大字名":"納内町","丁目名":null,"小字名":"字納内","予備名":null,"地番":"地区外-72","精度区分":null,"座標値種別":"図上測量","筆界未定構成筆":null,"代表点緯度":-939.405,"代表点経度":-3837.086948993}},{"type":"MultiPolygon","arcs":[[[117]]],"properties":{"筆ID":"H000000057","version":"ver1.0","座標系":"任意座標系","測地系判別":null,"地図名":"深川市旧納内村附属連絡図３０００・図郭有","地図番号":"17","縮尺分母":"3000","市区町村コード":"01228","市区町村名":"深川市","大字コード":"029","丁目コード":"000","小字コード":"0002","予備コード":"00","大字名":"納内町","丁目名":null,"小字名":"字納内","予備名":null,"地番":"地区外-73","精度区分":null,"座標値種別":"図上測量","筆界未定構成筆":null,"代表点緯度":-692.508,"代表点経度":-3572.923732541}},{"type":"MultiPolygon","arcs":[[[118,119]]],"properties":{"筆ID":"H000000058","version":"ver1.0","座標系":"任意座標系","測地系判別":null,"地図名":"深川市旧納内村附属連絡図３０００・図郭有","地図番号":"17","縮尺分母":"3000","市区町村コード":"01228","市区町村名":"深川市","大字コード":"029","丁目コード":"000","小字コード":"0002","予備コード":"00","大字名":"納内町","丁目名":null,"小字名":"字納内","予備名":null,"地番":"地区外-74","精度区分":null,"座標値種別":"図上測量","筆界未定構成筆":null,"代表点緯度":-661.697,"代表点経度":-3408.541988409}},{"type":"MultiPolygon","arcs":[[[-119,120]]],"properties":{"筆ID":"H000000059","version":"ver1.0","座標系":"任意座標系","測地系判別":null,"地図名":"深川市旧納内村附属連絡図３０００・図郭有","地図番号":"17","縮尺分母":"3000","市区町村コード":"01228","市区町村名":"深川市","大字コード":"029","丁目コード":"000","小字コード":"0002","予備コード":"00","大字名":"納内町","丁目名":null,"小字名":"字納内","予備名":null,"地番":"地区外-75","精度区分":null,"座標値種別":"図上測量","筆界未定構成筆":null,"代表点緯度":-662.952,"代表点経度":-3434.173301116}},{"type":"MultiPolygon","arcs":[[[121]]],"properties":{"筆ID":"H000000060","version":"ver1.0","座標系":"任意座標系","測地系判別":null,"地図名":"深川市旧納内村附属連絡図３０００・図郭有","地図番号":"17","縮尺分母":"3000","市区町村コード":"01228","市区町村名":"深川市","大字コード":"029","丁目コード":"000","小字コード":"0002","予備コード":"00","大字名":"納内町","丁目名":null,"小字名":"字納内","予備名":null,"地番":"地区外-76","精度区分":null,"座標値種別":"図上測量","筆界未定構成筆":null,"代表点緯度":-467.943,"代表点経度":-3153.867372115}},{"type":"MultiPolygon","arcs":[[[122,123,-17,124,125]]],"properties":{"筆ID":"H000000061","version":"ver1.0","座標系":"任意座標系","測地系判別":null,"地図名":"深川市旧納内村附属連絡図３０００・図郭有","地図番号":"11","縮尺分母":"3000","市区町村コード":"01228","市区町村名":"深川市","大字コード":"029","丁目コード":"000","小字コード":"0002","予備コード":"00","大字名":"納内町","丁目名":null,"小字名":"字納内","予備名":null,"地番":"地区外-77","精度区分":null,"座標値種別":"図上測量","筆界未定構成筆":null,"代表点緯度":59.5855,"代表点経度":-1981.667227591}},{"type":"MultiPolygon","arcs":[[[126,127,-18,-124,128]]],"properties":{"筆ID":"H000000062","version":"ver1.0","座標系":"任意座標系","測地系判別":null,"地図名":"深川市旧納内村附属連絡図３０００・図郭有","地図番号":"11","縮尺分母":"3000","市区町村コード":"01228","市区町村名":"深川市","大字コード":"029","丁目コード":"000","小字コード":"0002","予備コード":"00","大字名":"納内町","丁目名":null,"小字名":"字納内","予備名":null,"地番":"地区外-78","精度区分":null,"座標値種別":"図上測量","筆界未定構成筆":null,"代表点緯度":67.6445,"代表点経度":-1865.712516963}},{"type":"MultiPolygon","arcs":[[[129,130,-23]]],"properties":{"筆ID":"H000000063","version":"ver1.0","座標系":"任意座標系","測地系判別":null,"地図名":"深川市旧納内村附属連絡図３０００・図郭有","地図番号":"11","縮尺分母":"3000","市区町村コード":"01228","市区町村名":"深川市","大字コード":"029","丁目コード":"000","小字コード":"0002","予備コード":"00","大字名":"納内町","丁目名":null,"小字名":"字納内","予備名":null,"地番":"地区外-79","精度区分":null,"座標値種別":"図上測量","筆界未定構成筆":null,"代表点緯度":29.3715,"代表点経度":-1941.458257762}},{"type":"MultiPolygon","arcs":[[[131,132,-21]]],"properties":{"筆ID":"H000000064","version":"ver1.0","座標系":"任意座標系","測地系判別":null,"地図名":"深川市旧納内村附属連絡図３０００・図郭有","地図番号":"11","縮尺分母":"3000","市区町村コード":"01228","市区町村名":"深川市","大字コード":"029","丁目コード":"000","小字コード":"0002","予備コード":"00","大字名":"納内町","丁目名":null,"小字名":"字納内","予備名":null,"地番":"地区外-80","精度区分":null,"座標値種別":"図上測量","筆界未定構成筆":null,"代表点緯度":48.4985,"代表点経度":-1841.805986173}},{"type":"MultiPolygon","arcs":[[[133,134]]],"properties":{"筆ID":"H000000065","version":"ver1.0","座標系":"任意座標系","測地系判別":null,"地図名":"深川市旧納内村附属連絡図３０００・図郭有","地図番号":"11","縮尺分母":"3000","市区町村コード":"01228","市区町村名":"深川市","大字コード":"029","丁目コード":"000","小字コード":"0002","予備コード":"00","大字名":"納内町","丁目名":null,"小字名":"字納内","予備名":null,"地番":"地区外-81","精度区分":null,"座標値種別":"図上測量","筆界未定構成筆":null,"代表点緯度":84.7185,"代表点経度":-1844.412973766}},{"type":"MultiPolygon","arcs":[[[-134,-127,135]]],"properties":{"筆ID":"H000000066","version":"ver1.0","座標系":"任意座標系","測地系判別":null,"地図名":"深川市旧納内村附属連絡図３０００・図郭有","地図番号":"11","縮尺分母":"3000","市区町村コード":"01228","市区町村名":"深川市","大字コード":"029","丁目コード":"000","小字コード":"0002","予備コード":"00","大字名":"納内町","丁目名":null,"小字名":"字納内","予備名":null,"地番":"地区外-83","精度区分":null,"座標値種別":"図上測量","筆界未定構成筆":null,"代表点緯度":89.4905,"代表点経度":-1872.766085713}},{"type":"MultiPolygon","arcs":[[[-126,136,137]]],"properties":{"筆ID":"H000000067","version":"ver1.0","座標系":"任意座標系","測地系判別":null,"地図名":"深川市旧納内村附属連絡図３０００・図郭有","地図番号":"11","縮尺分母":"3000","市区町村コード":"01228","市区町村名":"深川市","大字コード":"029","丁目コード":"000","小字コード":"0002","予備コード":"00","大字名":"納内町","丁目名":null,"小字名":"字納内","予備名":null,"地番":"地区外-82","精度区分":null,"座標値種別":"図上測量","筆界未定構成筆":null,"代表点緯度":58.902,"代表点経度":-2026.897903403}},{"type":"MultiPolygon","arcs":[[[-137,138,139]]],"properties":{"筆ID":"H000000068","version":"ver1.0","座標系":"任意座標系","測地系判別":null,"地図名":"深川市旧納内村附属連絡図３０００・図郭有","地図番号":"11","縮尺分母":"3000","市区町村コード":"01228","市区町村名":"深川市","大字コード":"029","丁目コード":"000","小字コード":"0002","予備コード":"00","大字名":"納内町","丁目名":null,"小字名":"字納内","予備名":null,"地番":"地区外-84","精度区分":null,"座標値種別":"図上測量","筆界未定構成筆":null,"代表点緯度":54.5875,"代表点経度":-2044.06162508}},{"type":"MultiPolygon","arcs":[[[-139,-125,-28,140]]],"properties":{"筆ID":"H000000069","version":"ver1.0","座標系":"任意座標系","測地系判別":null,"地図名":"深川市旧納内村附属連絡図３０００・図郭有","地図番号":"11","縮尺分母":"3000","市区町村コード":"01228","市区町村名":"深川市","大字コード":"029","丁目コード":"000","小字コード":"0002","予備コード":"00","大字名":"納内町","丁目名":null,"小字名":"字納内","予備名":null,"地番":"地区外-85","精度区分":null,"座標値種別":"図上測量","筆界未定構成筆":null,"代表点緯度":46.658,"代表点経度":-2046.45529367}},{"type":"MultiPolygon","arcs":[[[141,-26]]],"properties":{"筆ID":"H000000070","version":"ver1.0","座標系":"任意座標系","測地系判別":null,"地図名":"深川市旧納内村附属連絡図３０００・図郭有","地図番号":"11","縮尺分母":"3000","市区町村コード":"01228","市区町村名":"深川市","大字コード":"029","丁目コード":"000","小字コード":"0002","予備コード":"00","大字名":"納内町","丁目名":null,"小字名":"字納内","予備名":null,"地番":"地区外-86","精度区分":null,"座標値種別":"図上測量","筆界未定構成筆":null,"代表点緯度":35.127,"代表点経度":-2002.332092034}},{"type":"MultiPolygon","arcs":[[[-131,142,-24]]],"properties":{"筆ID":"H000000071","version":"ver1.0","座標系":"任意座標系","測地系判別":null,"地図名":"深川市旧納内村附属連絡図３０００・図郭有","地図番号":"11","縮尺分母":"3000","市区町村コード":"01228","市区町村名":"深川市","大字コード":"029","丁目コード":"000","小字コード":"0002","予備コード":"00","大字名":"納内町","丁目名":null,"小字名":"字納内","予備名":null,"地番":"地区外-87","精度区分":null,"座標値種別":"図上測量","筆界未定構成筆":null,"代表点緯度":25.4795,"代表点経度":-1944.559296928}},{"type":"MultiPolygon","arcs":[[[-20,143,-132]]],"properties":{"筆ID":"H000000072","version":"ver1.0","座標系":"任意座標系","測地系判別":null,"地図名":"深川市旧納内村附属連絡図３０００・図郭有","地図番号":"11","縮尺分母":"3000","市区町村コード":"01228","市区町村名":"深川市","大字コード":"029","丁目コード":"000","小字コード":"0002","予備コード":"00","大字名":"納内町","丁目名":null,"小字名":"字納内","予備名":null,"地番":"地区外-88","精度区分":null,"座標値種別":"図上測量","筆界未定構成筆":null,"代表点緯度":29.932,"代表点経度":-1836.294640644}},{"type":"MultiPolygon","arcs":[[[144,145,146,-30]]],"properties":{"筆ID":"H000000073","version":"ver1.0","座標系":"任意座標系","測地系判別":null,"地図名":"深川市旧納内村附属連絡図３０００・図郭有","地図番号":"3","縮尺分母":"3000","市区町村コード":"01228","市区町村名":"深川市","大字コード":"029","丁目コード":"000","小字コード":"0002","予備コード":"00","大字名":"納内町","丁目名":null,"小字名":"字納内","予備名":null,"地番":"地区外-89","精度区分":null,"座標値種別":"図上測量","筆界未定構成筆":null,"代表点緯度":665.878,"代表点経度":359.095191418}},{"type":"MultiPolygon","arcs":[[[-146,147]]],"properties":{"筆ID":"H000000074","version":"ver1.0","座標系":"任意座標系","測地系判別":null,"地図名":"深川市旧納内村附属連絡図３０００・図郭有","地図番号":"3","縮尺分母":"3000","市区町村コード":"01228","市区町村名":"深川市","大字コード":"029","丁目コード":"000","小字コード":"0002","予備コード":"00","大字名":"納内町","丁目名":null,"小字名":"字納内","予備名":null,"地番":"地区外-90","精度区分":null,"座標値種別":"図上測量","筆界未定構成筆":null,"代表点緯度":698.1485,"代表点経度":342.022124028}},{"type":"MultiPolygon","arcs":[[[148,149]]],"properties":{"筆ID":"H000000075","version":"ver1.0","座標系":"任意座標系","測地系判別":null,"地図名":"深川市旧納内村附属連絡図３０００・図郭有","地図番号":"3","縮尺分母":"3000","市区町村コード":"01228","市区町村名":"深川市","大字コード":"029","丁目コード":"000","小字コード":"0002","予備コード":"00","大字名":"納内町","丁目名":null,"小字名":"字納内","予備名":null,"地番":"地区外-92","精度区分":null,"座標値種別":"図上測量","筆界未定構成筆":null,"代表点緯度":681.588,"代表点経度":641.422099976}},{"type":"MultiPolygon","arcs":[[[150,-149]]],"properties":{"筆ID":"H000000076","version":"ver1.0","座標系":"任意座標系","測地系判別":null,"地図名":"深川市旧納内村附属連絡図３０００・図郭有","地図番号":"3","縮尺分母":"3000","市区町村コード":"01228","市区町村名":"深川市","大字コード":"029","丁目コード":"000","小字コード":"0002","予備コード":"00","大字名":"納内町","丁目名":null,"小字名":"字納内","予備名":null,"地番":"地区外-93","精度区分":null,"座標値種別":"図上測量","筆界未定構成筆":null,"代表点緯度":689.424,"代表点経度":844.602283642}},{"type":"MultiPolygon","arcs":[[[151]]],"properties":{"筆ID":"H000000077","version":"ver1.0","座標系":"任意座標系","測地系判別":null,"地図名":"深川市旧納内村附属連絡図３０００・図郭有","地図番号":"5","縮尺分母":"3000","市区町村コード":"01228","市区町村名":"深川市","大字コード":"029","丁目コード":"000","小字コード":"0002","予備コード":"00","大字名":"納内町","丁目名":null,"小字名":"字納内","予備名":null,"地番":"地区外-91","精度区分":null,"座標値種別":"図上測量","筆界未定構成筆":null,"代表点緯度":598.4175,"代表点経度":-398.252936985}},{"type":"MultiPolygon","arcs":[[[152,153,154]]],"properties":{"筆ID":"H000000078","version":"ver1.0","座標系":"任意座標系","測地系判別":null,"地図名":"深川市旧納内村附属連絡図３０００・図郭有","地図番号":"22","縮尺分母":"3000","市区町村コード":"01228","市区町村名":"深川市","大字コード":"029","丁目コード":"002","小字コード":"0000","予備コード":"00","大字名":"納内町","丁目名":"２丁目","小字名":null,"予備名":null,"地番":"地区外-1","精度区分":null,"座標値種別":"図上測量","筆界未定構成筆":null,"代表点緯度":262.317,"代表点経度":-4613.426051973}},{"type":"MultiPolygon","arcs":[[[155,156,-153,157]]],"properties":{"筆ID":"H000000079","version":"ver1.0","座標系":"任意座標系","測地系判別":null,"地図名":"深川市旧納内村附属連絡図３０００・図郭有","地図番号":"22","縮尺分母":"3000","市区町村コード":"01228","市区町村名":"深川市","大字コード":"029","丁目コード":"002","小字コード":"0000","予備コード":"00","大字名":"納内町","丁目名":"２丁目","小字名":null,"予備名":null,"地番":"地区外-2","精度区分":null,"座標値種別":"図上測量","筆界未定構成筆":null,"代表点緯度":265.0135,"代表点経度":-4591.76557901}},{"type":"MultiPolygon","arcs":[[[158,159,-156,160]]],"properties":{"筆ID":"H000000080","version":"ver1.0","座標系":"任意座標系","測地系判別":null,"地図名":"深川市旧納内村附属連絡図３０００・図郭有","地図番号":"22","縮尺分母":"3000","市区町村コード":"01228","市区町村名":"深川市","大字コード":"029","丁目コード":"002","小字コード":"0000","予備コード":"00","大字名":"納内町","丁目名":"２丁目","小字名":null,"予備名":null,"地番":"地区外-3","精度区分":null,"座標値種別":"図上測量","筆界未定構成筆":null,"代表点緯度":267.7185,"代表点経度":-4570.03528881}},{"type":"MultiPolygon","arcs":[[[161,-159,162]]],"properties":{"筆ID":"H000000081","version":"ver1.0","座標系":"任意座標系","測地系判別":null,"地図名":"深川市旧納内村附属連絡図３０００・図郭有","地図番号":"22","縮尺分母":"3000","市区町村コード":"01228","市区町村名":"深川市","大字コード":"029","丁目コード":"002","小字コード":"0000","予備コード":"00","大字名":"納内町","丁目名":"２丁目","小字名":null,"予備名":null,"地番":"地区外-4","精度区分":null,"座標値種別":"図上測量","筆界未定構成筆":null,"代表点緯度":270.4375,"代表点経度":-4548.199060364}},{"type":"MultiPolygon","arcs":[[[163,164]]],"properties":{"筆ID":"H000000082","version":"ver1.0","座標系":"任意座標系","測地系判別":null,"地図名":"深川市旧納内村附属連絡図３０００・図郭有","地図番号":"22","縮尺分母":"3000","市区町村コード":"01228","市区町村名":"深川市","大字コード":"029","丁目コード":"002","小字コード":"0000","予備コード":"00","大字名":"納内町","丁目名":"２丁目","小字名":null,"予備名":null,"地番":"地区外-5","精度区分":null,"座標値種別":"図上測量","筆界未定構成筆":null,"代表点緯度":151.182,"代表点経度":-4547.695604175}},{"type":"MultiPolygon","arcs":[[[-164,165,166,167]]],"properties":{"筆ID":"H000000083","version":"ver1.0","座標系":"任意座標系","測地系判別":null,"地図名":"深川市旧納内村附属連絡図３０００・図郭有","地図番号":"22","縮尺分母":"3000","市区町村コード":"01228","市区町村名":"深川市","大字コード":"029","丁目コード":"002","小字コード":"0000","予備コード":"00","大字名":"納内町","丁目名":"２丁目","小字名":null,"予備名":null,"地番":"地区外-6","精度区分":null,"座標値種別":"図上測量","筆界未定構成筆":null,"代表点緯度":148.94,"代表点経度":-4566.080480375}},{"type":"MultiPolygon","arcs":[[[-167,168,169,170]]],"properties":{"筆ID":"H000000084","version":"ver1.0","座標系":"任意座標系","測地系判別":null,"地図名":"深川市旧納内村附属連絡図３０００・図郭有","地図番号":"22","縮尺分母":"3000","市区町村コード":"01228","市区町村名":"深川市","大字コード":"029","丁目コード":"002","小字コード":"0000","予備コード":"00","大字名":"納内町","丁目名":"２丁目","小字名":null,"予備名":null,"地番":"地区外-7","精度区分":null,"座標値種別":"図上測量","筆界未定構成筆":null,"代表点緯度":146.818,"代表点経度":-4583.480929272}},{"type":"MultiPolygon","arcs":[[[-170,171]]],"properties":{"筆ID":"H000000085","version":"ver1.0","座標系":"任意座標系","測地系判別":null,"地図名":"深川市旧納内村附属連絡図３０００・図郭有","地図番号":"22","縮尺分母":"3000","市区町村コード":"01228","市区町村名":"深川市","大字コード":"029","丁目コード":"002","小字コード":"0000","予備コード":"00","大字名":"納内町","丁目名":"２丁目","小字名":null,"予備名":null,"地番":"地区外-8","精度区分":null,"座標値種別":"図上測量","筆界未定構成筆":null,"代表点緯度":144.68,"代表点経度":-4600.98655055}},{"type":"MultiPolygon","arcs":[[[172,-158,173,174]]],"properties":{"筆ID":"H000000086","version":"ver1.0","座標系":"任意座標系","測地系判別":null,"地図名":"深川市旧納内村附属連絡図３０００・図郭有","地図番号":"22","縮尺分母":"3000","市区町村コード":"01228","市区町村名":"深川市","大字コード":"029","丁目コード":"002","小字コード":"0000","予備コード":"00","大字名":"納内町","丁目名":"２丁目","小字名":null,"予備名":null,"地番":"地区外-9","精度区分":null,"座標値種別":"図上測量","筆界未定構成筆":null,"代表点緯度":268.4095,"代表点経度":-4592.174158881}},{"type":"MultiPolygon","arcs":[[[-161,-173,175]]],"properties":{"筆ID":"H000000087","version":"ver1.0","座標系":"任意座標系","測地系判別":null,"地図名":"深川市旧納内村附属連絡図３０００・図郭有","地図番号":"22","縮尺分母":"3000","市区町村コード":"01228","市区町村名":"深川市","大字コード":"029","丁目コード":"002","小字コード":"0000","予備コード":"00","大字名":"納内町","丁目名":"２丁目","小字名":null,"予備名":null,"地番":"地区外-10","精度区分":null,"座標値種別":"図上測量","筆界未定構成筆":null,"代表点緯度":271.165,"代表点経度":-4570.449386074}},{"type":"MultiPolygon","arcs":[[[-174,-155,176]]],"properties":{"筆ID":"H000000088","version":"ver1.0","座標系":"任意座標系","測地系判別":null,"地図名":"深川市旧納内村附属連絡図３０００・図郭有","地図番号":"22","縮尺分母":"3000","市区町村コード":"01228","市区町村名":"深川市","大字コード":"029","丁目コード":"002","小字コード":"0000","予備コード":"00","大字名":"納内町","丁目名":"２丁目","小字名":null,"予備名":null,"地番":"地区外-11","精度区分":null,"座標値種別":"図上測量","筆界未定構成筆":null,"代表点緯度":265.664,"代表点経度":-4613.827059763}},{"type":"MultiPolygon","arcs":[[[177]]],"properties":{"筆ID":"H000000089","version":"ver1.0","座標系":"任意座標系","測地系判別":null,"地図名":"深川市旧納内村附属連絡図３０００・図郭有","地図番号":"22","縮尺分母":"3000","市区町村コード":"01228","市区町村名":"深川市","大字コード":"029","丁目コード":"002","小字コード":"0000","予備コード":"00","大字名":"納内町","丁目名":"２丁目","小字名":null,"予備名":null,"地番":"地区外-12","精度区分":null,"座標値種別":"図上測量","筆界未定構成筆":null,"代表点緯度":225.7315,"代表点経度":-4529.820896884}},{"type":"MultiPolygon","arcs":[[[178,179]]],"properties":{"筆ID":"H000000090","version":"ver1.0","座標系":"任意座標系","測地系判別":null,"地図名":"深川市旧納内村附属連絡図３０００・図郭有","地図番号":"11","縮尺分母":"3000","市区町村コード":"01228","市区町村名":"深川市","大字コード":"029","丁目コード":"003","小字コード":"0000","予備コード":"00","大字名":"納内町","丁目名":"３丁目","小字名":null,"予備名":null,"地番":"地区外-1","精度区分":null,"座標値種別":"図上測量","筆界未定構成筆":null,"代表点緯度":589.77,"代表点経度":-2594.010297401}},{"type":"MultiPolygon","arcs":[[[-70,180,181,182,-180,183,184,185,186]]],"properties":{"筆ID":"H000000091","version":"ver1.0","座標系":"任意座標系","測地系判別":null,"地図名":"深川市旧納内村附属連絡図３０００・図郭有","地図番号":"11","縮尺分母":"3000","市区町村コード":"01228","市区町村名":"深川市","大字コード":"029","丁目コード":"003","小字コード":"0000","予備コード":"00","大字名":"納内町","丁目名":"３丁目","小字名":null,"予備名":null,"地番":"地区外-2","精度区分":null,"座標値種別":"図上測量","筆界未定構成筆":null,"代表点緯度":655.628,"代表点経度":-2584.634320846}},{"type":"MultiPolygon","arcs":[[[-182,187,188,189,-179,190]]],"properties":{"筆ID":"H000000092","version":"ver1.0","座標系":"任意座標系","測地系判別":null,"地図名":"深川市旧納内村附属連絡図３０００・図郭有","地図番号":"11","縮尺分母":"3000","市区町村コード":"01228","市区町村名":"深川市","大字コード":"029","丁目コード":"003","小字コード":"0000","予備コード":"00","大字名":"納内町","丁目名":"３丁目","小字名":null,"予備名":null,"地番":"地区外-3","精度区分":null,"座標値種別":"図上測量","筆界未定構成筆":null,"代表点緯度":561.6165,"代表点経度":-2572.672841628}},{"type":"MultiPolygon","arcs":[[[-184,-190]]],"properties":{"筆ID":"H000000093","version":"ver1.0","座標系":"任意座標系","測地系判別":null,"地図名":"深川市旧納内村附属連絡図３０００・図郭有","地図番号":"11","縮尺分母":"3000","市区町村コード":"01228","市区町村名":"深川市","大字コード":"029","丁目コード":"003","小字コード":"0000","予備コード":"00","大字名":"納内町","丁目名":"３丁目","小字名":null,"予備名":null,"地番":"地区外-4","精度区分":null,"座標値種別":"図上測量","筆界未定構成筆":null,"代表点緯度":582.3795,"代表点経度":-2589.699984528}},{"type":"MultiPolygon","arcs":[[[191,-185,-189]]],"properties":{"筆ID":"H000000094","version":"ver1.0","座標系":"任意座標系","測地系判別":null,"地図名":"深川市旧納内村附属連絡図３０００・図郭有","地図番号":"11","縮尺分母":"3000","市区町村コード":"01228","市区町村名":"深川市","大字コード":"029","丁目コード":"003","小字コード":"0000","予備コード":"00","大字名":"納内町","丁目名":"３丁目","小字名":null,"予備名":null,"地番":"地区外-5","精度区分":null,"座標値種別":"図上測量","筆界未定構成筆":null,"代表点緯度":562.8405,"代表点経度":-2577.026725248}},{"type":"MultiPolygon","arcs":[[[192,193]]],"properties":{"筆ID":"H000000095","version":"ver1.0","座標系":"任意座標系","測地系判別":null,"地図名":"深川市旧納内村附属連絡図３０００・図郭有","地図番号":"16","縮尺分母":"3000","市区町村コード":"01228","市区町村名":"深川市","大字コード":"029","丁目コード":"003","小字コード":"0000","予備コード":"00","大字名":"納内町","丁目名":"３丁目","小字名":null,"予備名":null,"地番":"地区外-6","精度区分":null,"座標値種別":"図上測量","筆界未定構成筆":null,"代表点緯度":592.251,"代表点経度":-2761.85688158}},{"type":"MultiPolygon","arcs":[[[194,195]]],"properties":{"筆ID":"H000000096","version":"ver1.0","座標系":"任意座標系","測地系判別":null,"地図名":"深川市旧納内村附属連絡図３０００・図郭有","地図番号":"16","縮尺分母":"3000","市区町村コード":"01228","市区町村名":"深川市","大字コード":"029","丁目コード":"003","小字コード":"0000","予備コード":"00","大字名":"納内町","丁目名":"３丁目","小字名":null,"予備名":null,"地番":"地区外-7","精度区分":null,"座標値種別":"図上測量","筆界未定構成筆":null,"代表点緯度":530.728,"代表点経度":-2749.687788311}},{"type":"MultiPolygon","arcs":[[[196,197,-193]]],"properties":{"筆ID":"H000000097","version":"ver1.0","座標系":"任意座標系","測地系判別":null,"地図名":"深川市旧納内村附属連絡図３０００・図郭有","地図番号":"16","縮尺分母":"3000","市区町村コード":"01228","市区町村名":"深川市","大字コード":"029","丁目コード":"003","小字コード":"0000","予備コード":"00","大字名":"納内町","丁目名":"３丁目","小字名":null,"予備名":null,"地番":"地区外-8","精度区分":null,"座標値種別":"図上測量","筆界未定構成筆":null,"代表点緯度":565.8765,"代表点経度":-2768.740554975}},{"type":"MultiPolygon","arcs":[[[198]]],"properties":{"筆ID":"H000000098","version":"ver1.0","座標系":"任意座標系","測地系判別":null,"地図名":"深川市旧納内村附属連絡図３０００・図郭有","地図番号":"16","縮尺分母":"3000","市区町村コード":"01228","市区町村名":"深川市","大字コード":"029","丁目コード":"003","小字コード":"0000","予備コード":"00","大字名":"納内町","丁目名":"３丁目","小字名":null,"予備名":null,"地番":"地区外-9","精度区分":null,"座標値種別":"図上測量","筆界未定構成筆":null,"代表点緯度":553.98,"代表点経度":-2748.382569837}},{"type":"MultiPolygon","arcs":[[[-33,199,200,201,202]]],"properties":{"筆ID":"H000000099","version":"ver1.0","座標系":"任意座標系","測地系判別":null,"地図名":"深川市旧納内村附属連絡図３０００・図郭有","地図番号":"16","縮尺分母":"3000","市区町村コード":"01228","市区町村名":"深川市","大字コード":"029","丁目コード":"003","小字コード":"0000","予備コード":"00","大字名":"納内町","丁目名":"３丁目","小字名":null,"予備名":null,"地番":"地区外-10","精度区分":null,"座標値種別":"図上測量","筆界未定構成筆":null,"代表点緯度":581.3055,"代表点経度":-2916.3770821}},{"type":"MultiPolygon","arcs":[[[203,-200,204,205]]],"properties":{"筆ID":"H000000100","version":"ver1.0","座標系":"任意座標系","測地系判別":null,"地図名":"深川市旧納内村附属連絡図３０００・図郭有","地図番号":"16","縮尺分母":"3000","市区町村コード":"01228","市区町村名":"深川市","大字コード":"029","丁目コード":"003","小字コード":"0000","予備コード":"00","大字名":"納内町","丁目名":"３丁目","小字名":null,"予備名":null,"地番":"地区外-11","精度区分":null,"座標値種別":"図上測量","筆界未定構成筆":null,"代表点緯度":519.122,"代表点経度":-2910.802883779}},{"type":"MultiPolygon","arcs":[[[206]]],"properties":{"筆ID":"H000000101","version":"ver1.0","座標系":"任意座標系","測地系判別":null,"地図名":"深川市旧納内村附属連絡図３０００・図郭有","地図番号":"16","縮尺分母":"3000","市区町村コード":"01228","市区町村名":"深川市","大字コード":"029","丁目コード":"003","小字コード":"0000","予備コード":"00","大字名":"納内町","丁目名":"３丁目","小字名":null,"予備名":null,"地番":"地区外-12","精度区分":null,"座標値種別":"図上測量","筆界未定構成筆":null,"代表点緯度":266.965,"代表点経度":-2863.251638514}},{"type":"MultiPolygon","arcs":[[[207]]],"properties":{"筆ID":"H000000102","version":"ver1.0","座標系":"任意座標系","測地系判別":null,"地図名":"深川市旧納内村附属連絡図３０００・図郭有","地図番号":"16","縮尺分母":"3000","市区町村コード":"01228","市区町村名":"深川市","大字コード":"029","丁目コード":"003","小字コード":"0000","予備コード":"00","大字名":"納内町","丁目名":"３丁目","小字名":null,"予備名":null,"地番":"地区外-13","精度区分":null,"座標値種別":"図上測量","筆界未定構成筆":null,"代表点緯度":294.269,"代表点経度":-2790.964896722}},{"type":"MultiPolygon","arcs":[[[208]]],"properties":{"筆ID":"H000000103","version":"ver1.0","座標系":"任意座標系","測地系判別":null,"地図名":"深川市旧納内村附属連絡図３０００・図郭有","地図番号":"16","縮尺分母":"3000","市区町村コード":"01228","市区町村名":"深川市","大字コード":"029","丁目コード":"003","小字コード":"0000","予備コード":"00","大字名":"納内町","丁目名":"３丁目","小字名":null,"予備名":null,"地番":"地区外-14","精度区分":null,"座標値種別":"図上測量","筆界未定構成筆":null,"代表点緯度":176.3765,"代表点経度":-2852.730862854}}]}},"arcs":[[[433163,701649],[1325,-36675],[-7832,-428],[-22651,-3021],[-3230,36432],[32388,3692]],[[427297,661709],[7295,375],[2172,-36682],[3384,-73570],[-11268,-706],[-13368,-1814],[-7440,72771],[-3861,36547],[23086,3079]],[[430592,548458],[9743,525],[5591,-117209],[-18428,-27],[-11683,114770],[14777,1941]],[[446300,424295],[1446,-29200],[-16378,-1048],[-3122,30248],[18054,0]],[[448092,389641],[3910,-72971],[-14151,11369],[-6037,60497],[16278,1105]],[[346658,942484],[-3727,-2791],[-781,-3102],[1508,-5507],[-337,-10740],[-3674,-6119],[-2946,-1772],[-2857,148],[-3994,-2765],[870,-4262],[1207,-928],[1065,-5022],[-3213,-14095],[2290,-3122],[1331,-612],[754,-5200]],[[334154,876595],[-5743,-934],[-1628,42633],[13346,28924],[6529,-4734]],[[393689,999964],[27093,-764],[-4317,-7066],[-5888,-4182],[-24454,-23819],[-8023,-4055],[-3480,-3973],[-4556,-7830],[-5403,-4911],[-1732,-4741],[-3301,-2785],[-10328,-3579],[-3230,-7795],[6698,-44841],[-16509,-2685]],[[336259,876938],[-836,5321],[-3532,4853],[2893,10613],[249,5001],[-3100,6180],[2548,1507],[3168,-256],[5082,4957],[2521,6207],[317,11134],[-1486,4585],[3311,4123],[9061,6433],[6869,7096],[405,3315],[7848,13531],[2932,916],[3044,3396],[-1277,1206],[3927,3419],[-244,2189],[827,2614],[6145,-2502],[3045,2860],[2950,6591],[763,7737]],[[368081,968379],[-5503,-9591],[-789,-3389],[-5335,-5578],[-6466,-4843]],[[349988,944978],[-7969,8980],[17184,22115],[8878,-7694]],[[824036,669816],[80,-23507],[1602,-31100],[-45082,-3259],[-2469,34930],[80,23126],[45789,-190]],[[346658,942484],[3330,2494]],[[368081,968379],[2876,4723],[4594,2734],[-1652,1630],[4049,3344],[1842,6703],[7085,-2771],[1992,1765],[2950,6413],[611,7079],[1261,-35]],[[336259,876938],[-2105,-343]],[[342556,433902],[4320,4053],[622,-6409],[-4964,0],[22,2356]],[[483914,287170],[1726,-413],[2585,3410],[2214,-601],[1427,-3445],[4666,18],[2666,1553]],[[499198,287692],[1851,1079],[3373,4717],[9987,-1937]],[[514409,291551],[5883,-2267],[4964,-3484],[676,-474],[-2650,-157]],[[523282,285169],[-666,500]],[[522616,285669],[-2447,1836],[-5674,2310]],[[514495,289815],[-186,76],[-9245,1358],[-2901,-3988],[-2845,-2049]],[[499318,285212],[-1290,-929]],[[498028,284283],[-920,-663]],[[497108,283620],[-6958,447],[-313,631]],[[489837,284698],[-1036,2081],[-1126,-1630]],[[487675,285149],[-938,-1358],[-2219,848],[-484,46],[-2308,221],[-1561,1700]],[[480165,286606],[2592,840],[1157,-276]],[[528629,285818],[1348,2724],[149,-2967],[-1666,-99],[169,342]],[[862633,418273],[-98,-1921]],[[862535,416352],[-2292,1092],[576,8323],[2198,29],[-384,-7523]],[[328806,373455],[-1330,-5828],[6293,-9999],[-124,-9375],[-2783,974],[-1716,-23178],[5782,-9044],[-417,-7922],[5349,-4605],[-2345,-4040],[-2167,1074],[-5841,2893],[-3531,33731],[-3602,34402],[6432,917]],[[336027,388973],[-1332,14197]],[[334695,403170],[7537,21230],[5956,-20],[-1314,-3828],[-733,-2131],[-9717,-28293],[-397,-1155]],[[137201,52437],[-8158,-5263],[-40782,-25868]],[[88261,21306],[17012,26133],[31928,4998]],[[502177,384264],[14,-297]],[[502191,383967],[-402,284]],[[501789,384251],[388,13]],[[502816,384284],[696,-538]],[[503512,383746],[0,-814]],[[503512,382932],[-1321,1035]],[[502177,384264],[639,20]],[[502177,384264],[-24,533]],[[502153,384797],[663,-513]],[[501948,389665],[-43,691]],[[501905,390356],[7900,-6160],[17,-352],[-7874,5821]],[[501789,384251],[-2156,1519],[-3037,1164],[-2412,331],[-102,1998],[1396,-74],[3261,-1751],[3414,-2641]],[[503512,383746],[6569,-5082],[45,-914],[-6614,5182]],[[501948,389665],[-2036,1456],[1993,-765]],[[398845,415514],[2593,-25827]],[[401438,389687],[-766,-110]],[[400672,389577],[-2627,25821]],[[398045,415398],[800,116]],[[398579,420795],[518,-5244]],[[399097,415551],[-252,-37]],[[398845,415514],[-530,5281]],[[398315,420795],[264,0]],[[399097,415551],[2553,-25833],[-212,-31]],[[398315,420795],[-819,-1]],[[397496,420794],[-350,3448]],[[397146,424242],[1213,2],[146,-1169],[-10,-1429],[84,-851]],[[397496,420794],[549,-5396]],[[400672,389577],[-1110,-159]],[[399562,389418],[-491,4787]],[[399071,394205],[-2559,26588]],[[396512,420793],[984,1]],[[396341,420793],[2730,-26588]],[[399562,389418],[-350,-51]],[[399212,389367],[-3043,31426]],[[396169,420793],[172,0]],[[396341,420793],[171,0]],[[396050,424240],[31,-916],[260,-2531]],[[396169,420793],[-247,2558],[-38,889],[166,0]],[[396050,424240],[1096,2]],[[381840,420779],[-2067,-2],[-13489,-12]],[[366284,420765],[-348,3430]],[[365936,424195],[15550,23],[354,-3439]],[[366284,420765],[-15212,-778],[-387,4384],[15251,-176]],[[66922,263801],[169,-1585],[-15464,-2263],[-158,1498],[15453,2350]],[[3267,84727],[-609,-4436]],[[2658,80291],[-1126,-8205],[-1532,-223],[2073,15081],[1530,225],[-873,-1545],[537,-897]],[[3267,84727],[1188,-1981],[142,-2143],[-1939,-312]],[[5221,126244],[-1096,-9394],[-1996,-267],[3092,9661]],[[7159,131959],[556,75]],[[7715,132034],[141,-1340]],[[7856,130694],[-1228,-391],[531,1656]],[[9578,132285],[-292,-1136],[-1430,-455]],[[7715,132034],[1863,251]],[[12218,138071],[-429,8026]],[[11789,146097],[-59,1187],[1131,163],[122,-2799],[-630,-5880],[-135,-697]],[[7510,133056],[2350,326]],[[9860,133382],[-282,-1097]],[[7159,131959],[351,1097]],[[12218,138071],[-2358,-4689]],[[7510,133056],[2812,8015],[1467,5026]],[[12218,138071],[186,-4335],[-2544,-354]],[[327725,183525],[5483,815]],[[333208,184340],[-4798,-6073]],[[328410,178267],[-3260,-1858]],[[325150,176409],[2575,7116]],[[333208,184340],[7923,1179],[-12721,-7252]],[[327505,183492],[-3194,-7561]],[[324311,175931],[-7371,-4202],[9657,11628],[908,135]],[[327505,183492],[220,33]],[[325150,176409],[-839,-478]],[[225991,131147],[-2292,-1866]],[[223699,129281],[-393,4040],[1706,1368],[979,-3542]],[[225991,131147],[4009,-14508],[-3556,-2568],[-2747,9645],[-514,5145],[516,420]],[[9579,39247],[-16,181]],[[9563,39428],[645,232],[17,-177],[-646,-236]],[[9579,39247],[-5846,-2131],[-1797,-2120],[884,2001],[6743,2431]],[[137201,52437],[7830,1443],[-14379,-9453],[-23229,-14717]],[[107423,29710],[-23393,-14821]],[[84030,14889],[4231,6417]],[[107423,29710],[879,-7545],[-29491,-22165],[-617,6038],[5836,8851]],[[177809,89913],[453,-705],[-429,-417],[-529,-85],[-227,1091],[732,116]],[[222169,141069],[974,-3585],[-810,-118],[-539,5404],[375,-1701]],[[248940,141251],[-755,7968]],[[248185,149219],[3213,2616],[969,-10078],[-3427,-506]],[[248940,141251],[-12876,-1902],[12121,9870]],[[294994,187309],[595,-5523],[-8949,-1325],[8354,6848]],[[485579,291536],[3685,-289],[2668,1925],[6859,2921]],[[498791,296093],[407,-8401]],[[483914,287170],[-145,2994]],[[483769,290164],[1547,379],[263,993]],[[506210,297423],[7973,-1296]],[[514183,296127],[226,-4576]],[[498791,296093],[474,202],[4321,781],[2624,347]],[[499318,285212],[39,-816]],[[499357,284396],[-1329,-113]],[[522616,285669],[-7899,-341]],[[514717,285328],[-222,4487]],[[514183,296127],[-15,298]],[[514168,296425],[1263,-306],[739,-315],[-1987,323]],[[506210,297423],[2638,288],[5320,-1286]],[[483769,290164],[-40,807]],[[483729,290971],[1457,595],[393,-30]],[[483769,290164],[-3993,-977],[-149,424]],[[479627,289611],[2261,609],[1841,751]],[[480165,286606],[-2318,2526],[1780,479]],[[489837,284698],[-2162,451]],[[499357,284396],[31,-641],[-2280,-135]],[[523282,285169],[-8532,-504],[-33,663]],[[862633,418273],[15629,-25],[4818,-7]],[[883080,418241],[3787,-7]],[[886867,418234],[444,0],[10296,-16],[2513,-341],[8181,-2432],[715,-1460],[-1541,-4368],[-7278,2140],[51,257],[-1515,242],[-27171,-44],[-9027,4140]],[[883080,418241],[5,167],[1078,27],[1100,803],[785,777],[130,155],[639,1280],[50,-3216]],[[963649,418598],[-5,-1461]],[[963644,417137],[-35498,-1699],[-11,2930],[35514,230]],[[963649,418598],[36350,235],[-36355,-1696]],[[753350,405671],[5765,-3698],[4868,-4904],[1488,-1809],[-815,-1258],[-748,868],[-878,1017],[-5403,6267],[-5401,3804],[1124,-287]],[[47767,332357],[63,-621]],[[47830,331736],[-3676,-522],[-58,579]],[[44096,331793],[3671,564]],[[51438,332922],[67,-663]],[[51505,332259],[-3675,-523]],[[47767,332357],[3671,565]],[[55133,333490],[71,-705]],[[55204,332785],[-3699,-526]],[[51438,332922],[3695,568]],[[58914,333313],[-3710,-528]],[[55133,333490],[3706,570],[75,-747]],[[56069,304039],[-1061,10191]],[[55008,314230],[2034,299],[1101,161],[1072,-10200],[-3146,-451]],[[56069,304039],[-3102,-445]],[[52967,303594],[-1046,10184]],[[51921,313778],[1442,211],[1645,241]],[[52967,303594],[-2814,-404]],[[50153,303190],[-1031,10178]],[[49122,313368],[554,81],[2245,329]],[[50153,303190],[-3135,-450],[-1022,10169],[3126,459]],[[51368,333606],[70,-684]],[[47767,332357],[-71,707]],[[47696,333064],[3672,542]],[[51368,333606],[3698,547],[67,-663]],[[44096,331793],[-73,729],[3673,542]],[[58914,333313],[645,92],[1836,-18238],[-644,-95],[-470,4669],[-481,432],[-3279,-472],[-3685,-530],[-3684,-531],[-3253,-468],[-376,-565],[-223,2217],[580,-485],[3154,469],[3682,547],[3684,549],[3310,492],[347,572],[-424,4205],[-511,513],[-3257,-468],[-3692,-529],[-3679,-528],[-3262,-468],[-360,-607],[-231,2291],[498,-515],[3236,475],[3677,540],[3692,542],[3261,479],[390,642],[-481,4773]],[[388366,398788],[190,-2005]],[[388556,396783],[-150,-18],[-166,2008],[126,15]],[[399212,389367],[-6247,-897],[-138,1405],[2787,428],[-591,5837],[-1043,-99],[-378,3741],[-1284,-208]],[[392318,399574],[-123,1179]],[[392195,400753],[-60,576],[-3960,-537],[191,-2004]],[[388556,396783],[108,-1137],[1154,147]],[[389818,395793],[258,-728],[1099,471],[249,-2216],[-1449,-1942],[373,-3284]],[[390348,388094],[-5032,-723],[-3476,33408]],[[381840,420779],[14329,14]],[[392318,399574],[356,-3416],[-959,-123],[841,-7624],[-270,-38]],[[392286,388373],[-847,7627],[-1621,-207]],[[389818,395793],[-388,1093],[-874,-103]],[[388366,398788],[2772,325],[-120,1437],[1177,203]],[[392286,388373],[-1938,-279]],[[362070,396199],[-3796,-586]],[[358274,395613],[-480,4744],[3795,536],[481,-4694]],[[361878,389616],[557,-5566],[-501,-76],[-388,3727],[-192,1838]],[[361354,389539],[524,77]],[[362070,396199],[116,-1133],[-3374,-447],[375,-3614],[1983,298],[184,-1764]],[[361354,389539],[-488,-72],[-1941,-287],[-651,6433]],[[361878,389616],[-176,1767],[848,127],[181,-1767],[-853,-127]],[[336027,388973],[-467,-6]],[[335560,388967],[-1743,-3432]],[[333817,385535],[-2504,-344],[-33,-2756],[506,-899]],[[331786,381536],[-1040,-2049],[-4952,-639],[8901,24322]],[[333817,385535],[997,137],[746,3295]],[[336027,388973],[829,-8677],[-4070,-539],[-1000,1779]],[[331786,381536],[2031,3999]],[[344074,338532],[-351,-11234],[-1516,-869],[-1162,11676],[3029,427]],[[356359,340265],[361,-3680],[-3070,-467],[-394,3709],[3103,438]],[[348549,319445],[-4821,-8304],[-657,6597],[5478,1707]]],"bbox":[-4884.485,-1383.378,1012.835,3577.045],"transform":{"scale":[0.005897325897325897,0.00496042796042796],"translate":[-4884.485,-1383.378]}}
