{"type":"Topology","objects":{"01424-4315-17":{"type":"GeometryCollection","geometries":[{"type":"MultiPolygon","arcs":[[[0,1,2]]],"properties":{"筆ID":"H000000001","version":"ver1.0","座標系":"任意座標系","測地系判別":null,"地図名":"H20431501424022","地図番号":"美附-39","縮尺分母":"3000","市区町村コード":"01424","市区町村名":"空知郡奈井江町","大字コード":"000","丁目コード":"000","小字コード":"0009","予備コード":"00","大字名":null,"丁目名":null,"小字名":"字茶志内美唄","予備名":null,"地番":"1701-31","精度区分":null,"座標値種別":"図上測量","筆界未定構成筆":null,"代表点緯度":4788.869,"代表点経度":2059.654258815}},{"type":"MultiPolygon","arcs":[[[-1,3]]],"properties":{"筆ID":"H000000002","version":"ver1.0","座標系":"任意座標系","測地系判別":null,"地図名":"H20431501424022","地図番号":"美附-39","縮尺分母":"3000","市区町村コード":"01424","市区町村名":"空知郡奈井江町","大字コード":"000","丁目コード":"000","小字コード":"0009","予備コード":"00","大字名":null,"丁目名":null,"小字名":"字茶志内美唄","予備名":null,"地番":"1701-29","精度区分":null,"座標値種別":"図上測量","筆界未定構成筆":null,"代表点緯度":4784.9935,"代表点経度":2060.590570562}},{"type":"MultiPolygon","arcs":[[[4,5]]],"properties":{"筆ID":"H000000003","version":"ver1.0","座標系":"任意座標系","測地系判別":null,"地図名":"H20431501424022","地図番号":"美附-39","縮尺分母":"3000","市区町村コード":"01424","市区町村名":"空知郡奈井江町","大字コード":"000","丁目コード":"000","小字コード":"0009","予備コード":"00","大字名":null,"丁目名":null,"小字名":"字茶志内美唄","予備名":null,"地番":"1701-28","精度区分":null,"座標値種別":"図上測量","筆界未定構成筆":null,"代表点緯度":4876.6495,"代表点経度":2070.344529659}},{"type":"MultiPolygon","arcs":[[[6,7,8,9,10,11]]],"properties":{"筆ID":"H000000004","version":"ver1.0","座標系":"任意座標系","測地系判別":null,"地図名":"H20431501424022","地図番号":"美附-39-1","縮尺分母":"3000","市区町村コード":"01424","市区町村名":"空知郡奈井江町","大字コード":"000","丁目コード":"000","小字コード":"0000","予備コード":"00","大字名":null,"丁目名":null,"小字名":null,"予備名":null,"地番":"地区外-442904","精度区分":null,"座標値種別":"図上測量","筆界未定構成筆":null,"代表点緯度":5540.983,"代表点経度":1771.129}},{"type":"MultiPolygon","arcs":[[[12,13,14,15]]],"properties":{"筆ID":"H000000005","version":"ver1.0","座標系":"任意座標系","測地系判別":null,"地図名":"H20431501424022","地図番号":"美附-58","縮尺分母":"3000","市区町村コード":"01424","市区町村名":"空知郡奈井江町","大字コード":"000","丁目コード":"000","小字コード":"0009","予備コード":"00","大字名":null,"丁目名":null,"小字名":"字茶志内美唄","予備名":null,"地番":"1704-8","精度区分":null,"座標値種別":"図上測量","筆界未定構成筆":null,"代表点緯度":4214.4975,"代表点経度":835.625597941}},{"type":"MultiPolygon","arcs":[[[16,17,-16,18,19]]],"properties":{"筆ID":"H000000006","version":"ver1.0","座標系":"任意座標系","測地系判別":null,"地図名":"H20431501424022","地図番号":"美附-58","縮尺分母":"3000","市区町村コード":"01424","市区町村名":"空知郡奈井江町","大字コード":"000","丁目コード":"000","小字コード":"0000","予備コード":"00","大字名":null,"丁目名":null,"小字名":null,"予備名":null,"地番":"地区外-442906","精度区分":null,"座標値種別":"図上測量","筆界未定構成筆":null,"代表点緯度":3694.233,"代表点経度":409.129}},{"type":"MultiPolygon","arcs":[[[20,21]]],"properties":{"筆ID":"H000000007","version":"ver1.0","座標系":"任意座標系","測地系判別":null,"地図名":"H20431501424022","地図番号":"美附-40","縮尺分母":"3000","市区町村コード":"01424","市区町村名":"空知郡奈井江町","大字コード":"000","丁目コード":"000","小字コード":"0009","予備コード":"00","大字名":null,"丁目名":null,"小字名":"字茶志内美唄","予備名":null,"地番":"1699-27","精度区分":null,"座標値種別":"図上測量","筆界未定構成筆":null,"代表点緯度":4091.6695,"代表点経度":1411.061314174}},{"type":"MultiPolygon","arcs":[[[22]]],"properties":{"筆ID":"H000000008","version":"ver1.0","座標系":"任意座標系","測地系判別":null,"地図名":"H20431501424022","地図番号":"美附-40","縮尺分母":"3000","市区町村コード":"01424","市区町村名":"空知郡奈井江町","大字コード":"000","丁目コード":"000","小字コード":"0009","予備コード":"00","大字名":null,"丁目名":null,"小字名":"字茶志内美唄","予備名":null,"地番":"1695-14","精度区分":null,"座標値種別":"図上測量","筆界未定構成筆":null,"代表点緯度":3958.208,"代表点経度":1381.719643551}},{"type":"MultiPolygon","arcs":[[[23,24,25]]],"properties":{"筆ID":"H000000009","version":"ver1.0","座標系":"任意座標系","測地系判別":null,"地図名":"H20431501424022","地図番号":"美附-39","縮尺分母":"3000","市区町村コード":"01424","市区町村名":"空知郡奈井江町","大字コード":"000","丁目コード":"000","小字コード":"0009","予備コード":"00","大字名":null,"丁目名":null,"小字名":"字茶志内美唄","予備名":null,"地番":"1702-25","精度区分":null,"座標値種別":"図上測量","筆界未定構成筆":null,"代表点緯度":4931.5165,"代表点経度":1575.408588952}},{"type":"MultiPolygon","arcs":[[[26,27,28,29,30]]],"properties":{"筆ID":"H000000010","version":"ver1.0","座標系":"任意座標系","測地系判別":null,"地図名":"H20431501424022","地図番号":"美附-27","縮尺分母":"3000","市区町村コード":"01424","市区町村名":"空知郡奈井江町","大字コード":"000","丁目コード":"000","小字コード":"0000","予備コード":"00","大字名":null,"丁目名":null,"小字名":null,"予備名":null,"地番":"地区外-442917","精度区分":null,"座標値種別":"図上測量","筆界未定構成筆":null,"代表点緯度":3502.185,"代表点経度":3133.129}},{"type":"MultiPolygon","arcs":[[[31,32,33,34,35,36,37,38,39,-29]]],"properties":{"筆ID":"H000000011","version":"ver1.0","座標系":"任意座標系","測地系判別":null,"地図名":"H20431501424022","地図番号":"美附-27","縮尺分母":"3000","市区町村コード":"01424","市区町村名":"空知郡奈井江町","大字コード":"000","丁目コード":"000","小字コード":"0008","予備コード":"00","大字名":null,"丁目名":null,"小字名":"字茶志内","予備名":null,"地番":"1943-22","精度区分":null,"座標値種別":"図上測量","筆界未定構成筆":null,"代表点緯度":4487.7765,"代表点経度":3124.977091932}},{"type":"MultiPolygon","arcs":[[[-30,-40,40,41,42]]],"properties":{"筆ID":"H000000012","version":"ver1.0","座標系":"任意座標系","測地系判別":null,"地図名":"H20431501424022","地図番号":"美附-27","縮尺分母":"3000","市区町村コード":"01424","市区町村名":"空知郡奈井江町","大字コード":"000","丁目コード":"000","小字コード":"0008","予備コード":"00","大字名":null,"丁目名":null,"小字名":"字茶志内","予備名":null,"地番":"1943-20","精度区分":null,"座標値種別":"図上測量","筆界未定構成筆":null,"代表点緯度":4513.025,"代表点経度":3591.5515}},{"type":"MultiPolygon","arcs":[[[43,44,-41,-39]]],"properties":{"筆ID":"H000000013","version":"ver1.0","座標系":"任意座標系","測地系判別":null,"地図名":"H20431501424022","地図番号":"美附-27","縮尺分母":"3000","市区町村コード":"01424","市区町村名":"空知郡奈井江町","大字コード":"000","丁目コード":"000","小字コード":"0008","予備コード":"00","大字名":null,"丁目名":null,"小字名":"字茶志内","予備名":null,"地番":"1943-21","精度区分":null,"座標値種別":"図上測量","筆界未定構成筆":null,"代表点緯度":4706.22,"代表点経度":3325.277995694}},{"type":"MultiPolygon","arcs":[[[-28,45,46,47,48,49,50,-32]]],"properties":{"筆ID":"H000000014","version":"ver1.0","座標系":"任意座標系","測地系判別":null,"地図名":"H20431501424022","地図番号":"美附-26","縮尺分母":"3000","市区町村コード":"01424","市区町村名":"空知郡奈井江町","大字コード":"000","丁目コード":"000","小字コード":"0000","予備コード":"00","大字名":null,"丁目名":null,"小字名":null,"予備名":null,"地番":"地区外-442921","精度区分":null,"座標値種別":"図上測量","筆界未定構成筆":null,"代表点緯度":4616.9725,"代表点経度":2617.9985}},{"type":"MultiPolygon","arcs":[[[51,52,-50]]],"properties":{"筆ID":"H000000015","version":"ver1.0","座標系":"任意座標系","測地系判別":null,"地図名":"H20431501424022","地図番号":"美附-26","縮尺分母":"3000","市区町村コード":"01424","市区町村名":"空知郡奈井江町","大字コード":"000","丁目コード":"000","小字コード":"0008","予備コード":"00","大字名":null,"丁目名":null,"小字名":"字茶志内","予備名":null,"地番":"1943-25","精度区分":null,"座標値種別":"図上測量","筆界未定構成筆":null,"代表点緯度":4965.746,"代表点経度":2541.096044882}},{"type":"MultiPolygon","arcs":[[[-51,-53,53,-48,54,-37,55,-35,56,-33]]],"properties":{"筆ID":"H000000016","version":"ver1.0","座標系":"任意座標系","測地系判別":null,"地図名":"H20431501424022","地図番号":"美附-26","縮尺分母":"3000","市区町村コード":"01424","市区町村名":"空知郡奈井江町","大字コード":"000","丁目コード":"000","小字コード":"0008","予備コード":"00","大字名":null,"丁目名":null,"小字名":"字茶志内","予備名":null,"地番":"1943-24","精度区分":null,"座標値種別":"図上測量","筆界未定構成筆":null,"代表点緯度":4927.3175,"代表点経度":2617.716473275}},{"type":"MultiPolygon","arcs":[[[-49,-54,-52]]],"properties":{"筆ID":"H000000017","version":"ver1.0","座標系":"任意座標系","測地系判別":null,"地図名":"H20431501424022","地図番号":"美附-26","縮尺分母":"3000","市区町村コード":"01424","市区町村名":"空知郡奈井江町","大字コード":"000","丁目コード":"000","小字コード":"0008","予備コード":"00","大字名":null,"丁目名":null,"小字名":"字茶志内","予備名":null,"地番":"1943-26","精度区分":null,"座標値種別":"図上測量","筆界未定構成筆":null,"代表点緯度":5013.055,"代表点経度":2552.796777675}},{"type":"MultiPolygon","arcs":[[[-57,-34]]],"properties":{"筆ID":"H000000018","version":"ver1.0","座標系":"任意座標系","測地系判別":null,"地図名":"H20431501424022","地図番号":"美附-26","縮尺分母":"3000","市区町村コード":"01424","市区町村名":"空知郡奈井江町","大字コード":"000","丁目コード":"000","小字コード":"0008","予備コード":"00","大字名":null,"丁目名":null,"小字名":"字茶志内","予備名":null,"地番":"1943-28","精度区分":null,"座標値種別":"図上測量","筆界未定構成筆":null,"代表点緯度":4925.344,"代表点経度":2679.710986516}},{"type":"MultiPolygon","arcs":[[[-56,-36]]],"properties":{"筆ID":"H000000019","version":"ver1.0","座標系":"任意座標系","測地系判別":null,"地図名":"H20431501424022","地図番号":"美附-26","縮尺分母":"3000","市区町村コード":"01424","市区町村名":"空知郡奈井江町","大字コード":"000","丁目コード":"000","小字コード":"0008","予備コード":"00","大字名":null,"丁目名":null,"小字名":"字茶志内","予備名":null,"地番":"1943-27","精度区分":null,"座標値種別":"図上測量","筆界未定構成筆":null,"代表点緯度":5066.38,"代表点経度":2655.714806398}},{"type":"MultiPolygon","arcs":[[[-42,-45,57,58]]],"properties":{"筆ID":"H000000020","version":"ver1.0","座標系":"任意座標系","測地系判別":null,"地図名":"H20431501424022","地図番号":"美附-26","縮尺分母":"3000","市区町村コード":"01424","市区町村名":"空知郡奈井江町","大字コード":"000","丁目コード":"000","小字コード":"0000","予備コード":"00","大字名":null,"丁目名":null,"小字名":null,"予備名":null,"地番":"地区外-442927","精度区分":null,"座標値種別":"図上測量","筆界未定構成筆":null,"代表点緯度":5015.27,"代表点経度":3785.62875}},{"type":"MultiPolygon","arcs":[[[-47,-11,59,-58,-44,-38,-55]]],"properties":{"筆ID":"H000000021","version":"ver1.0","座標系":"任意座標系","測地系判別":null,"地図名":"H20431501424022","地図番号":"美附-25","縮尺分母":"3000","市区町村コード":"01424","市区町村名":"空知郡奈井江町","大字コード":"000","丁目コード":"000","小字コード":"0000","予備コード":"00","大字名":null,"丁目名":null,"小字名":null,"予備名":null,"地番":"地区外-442928","精度区分":null,"座標値種別":"図上測量","筆界未定構成筆":null,"代表点緯度":5606.078,"代表点経度":3133.129}},{"type":"MultiPolygon","arcs":[[[-14,60,61,62]]],"properties":{"筆ID":"H000000022","version":"ver1.0","座標系":"任意座標系","測地系判別":null,"地図名":"H20431501424022","地図番号":"美附-57","縮尺分母":"3000","市区町村コード":"01424","市区町村名":"空知郡奈井江町","大字コード":"000","丁目コード":"000","小字コード":"0009","予備コード":"00","大字名":null,"丁目名":null,"小字名":"字茶志内美唄","予備名":null,"地番":"1704-6","精度区分":null,"座標値種別":"図上測量","筆界未定構成筆":null,"代表点緯度":4481.0095,"代表点経度":894.161105271}},{"type":"MultiPolygon","arcs":[[[63,-62]]],"properties":{"筆ID":"H000000023","version":"ver1.0","座標系":"任意座標系","測地系判別":null,"地図名":"H20431501424022","地図番号":"美附-57","縮尺分母":"3000","市区町村コード":"01424","市区町村名":"空知郡奈井江町","大字コード":"000","丁目コード":"000","小字コード":"0009","予備コード":"00","大字名":null,"丁目名":null,"小字名":"字茶志内美唄","予備名":null,"地番":"1704-4","精度区分":null,"座標値種別":"図上測量","筆界未定構成筆":null,"代表点緯度":4670.0015,"代表点経度":857.733044329}},{"type":"MultiPolygon","arcs":[[[-15,-63,-64,-61,-13,-18,64,65,-19]]],"properties":{"筆ID":"H000000024","version":"ver1.0","座標系":"任意座標系","測地系判別":null,"地図名":"H20431501424022","地図番号":"美附-57","縮尺分母":"3000","市区町村コード":"01424","市区町村名":"空知郡奈井江町","大字コード":"000","丁目コード":"000","小字コード":"0000","予備コード":"00","大字名":null,"丁目名":null,"小字名":null,"予備名":null,"地番":"地区外-442908","精度区分":null,"座標値種別":"図上測量","筆界未定構成筆":null,"代表点緯度":4645.51,"代表点経度":276.932630357}},{"type":"MultiPolygon","arcs":[[[-20,66,-22,67,-27,68],[-23]]],"properties":{"筆ID":"H000000025","version":"ver1.0","座標系":"任意座標系","測地系判別":null,"地図名":"H20431501424022","地図番号":"美附-40","縮尺分母":"3000","市区町村コード":"01424","市区町村名":"空知郡奈井江町","大字コード":"000","丁目コード":"000","小字コード":"0000","予備コード":"00","大字名":null,"丁目名":null,"小字名":null,"予備名":null,"地番":"地区外-442912","精度区分":null,"座標値種別":"図上測量","筆界未定構成筆":null,"代表点緯度":3581.0675,"代表点経度":1771.129}},{"type":"MultiPolygon","arcs":[[[69,70,71,-8]]],"properties":{"筆ID":"H000000026","version":"ver1.0","座標系":"任意座標系","測地系判別":null,"地図名":"H20431501424022","地図番号":"美附-39-1","縮尺分母":"3000","市区町村コード":"01424","市区町村名":"空知郡奈井江町","大字コード":"000","丁目コード":"000","小字コード":"0009","予備コード":"00","大字名":null,"丁目名":null,"小字名":"字茶志内美唄","予備名":null,"地番":"1702-33","精度区分":null,"座標値種別":"図上測量","筆界未定構成筆":null,"代表点緯度":5003.991,"代表点経度":1609.405167199}},{"type":"MultiPolygon","arcs":[[[-71,72,-24,73]]],"properties":{"筆ID":"H000000027","version":"ver1.0","座標系":"任意座標系","測地系判別":null,"地図名":"H20431501424022","地図番号":"美附-39","縮尺分母":"3000","市区町村コード":"01424","市区町村名":"空知郡奈井江町","大字コード":"000","丁目コード":"000","小字コード":"0009","予備コード":"00","大字名":null,"丁目名":null,"小字名":"字茶志内美唄","予備名":null,"地番":"1702-23","精度区分":null,"座標値種別":"図上測量","筆界未定構成筆":null,"代表点緯度":4936.3525,"代表点経度":1571.047820744}},{"type":"MultiPolygon","arcs":[[[-7,74,75,-70]]],"properties":{"筆ID":"H000000028","version":"ver1.0","座標系":"任意座標系","測地系判別":null,"地図名":"H20431501424022","地図番号":"美附-39-1","縮尺分母":"3000","市区町村コード":"01424","市区町村名":"空知郡奈井江町","大字コード":"000","丁目コード":"000","小字コード":"0009","予備コード":"00","大字名":null,"丁目名":null,"小字名":"字茶志内美唄","予備名":null,"地番":"1702-34","精度区分":null,"座標値種別":"図上測量","筆界未定構成筆":null,"代表点緯度":5003.723,"代表点経度":1614.041984899}},{"type":"MultiPolygon","arcs":[[[-76,76,-25,-73]]],"properties":{"筆ID":"H000000029","version":"ver1.0","座標系":"任意座標系","測地系判別":null,"地図名":"H20431501424022","地図番号":"美附-39","縮尺分母":"3000","市区町村コード":"01424","市区町村名":"空知郡奈井江町","大字コード":"000","丁目コード":"000","小字コード":"0009","予備コード":"00","大字名":null,"丁目名":null,"小字名":"字茶志内美唄","予備名":null,"地番":"1702-24","精度区分":null,"座標値種別":"図上測量","筆界未定構成筆":null,"代表点緯度":4933.636,"代表点経度":1598.326645613}},{"type":"MultiPolygon","arcs":[[[-67,-66,-9,-72,-74,-26,-77,-75,-12,77,-5,78,-2,-4,-3,-79,-6,-78,-46,-68,-21]]],"properties":{"筆ID":"H000000030","version":"ver1.0","座標系":"任意座標系","測地系判別":null,"地図名":"H20431501424022","地図番号":"美附-39","縮尺分母":"3000","市区町村コード":"01424","市区町村名":"空知郡奈井江町","大字コード":"000","丁目コード":"000","小字コード":"0000","予備コード":"00","大字名":null,"丁目名":null,"小字名":null,"予備名":null,"地番":"地区外-442915","精度区分":null,"座標値種別":"図上測量","筆界未定構成筆":null,"代表点緯度":4482.94,"代表点経度":1771.129}}]}},"arcs":[[[572662,576678],[-4131,-27842]],[[568531,548836],[-6521,1300],[196,1403],[6249,-1211],[3794,26495]],[[572249,576823],[413,-145]],[[572662,576678],[540,-139],[-4223,-27793],[-448,90]],[[570913,578889],[-1347,374],[5993,34543],[381,-119],[1195,7081],[-642,255],[355,2266],[288,-89],[3223,18903],[1376,-437]],[[581735,641666],[-3243,-19000],[249,-92],[-404,-2142],[-787,273],[-1199,-7149],[544,-223],[-5982,-34444]],[[465601,666666],[2033,12571],[-1080,280]],[[466554,679517],[-1182,306],[-2125,-13157]],[[463247,666666],[-129914,0]],[[333333,666666],[0,333333],[333333,0]],[[666666,999999],[0,-333333]],[[666666,666666],[-201065,0]],[[261137,333333],[6680,44694]],[[267817,378027],[13125,-4390]],[[280942,373637],[-5996,-40304]],[[274946,333333],[-1257,-7928],[-13018,4115],[466,3813]],[[333333,0],[-333333,0],[0,333333]],[[0,333333],[261137,0]],[[274946,333333],[58387,0]],[[333333,333333],[0,-333333]],[[414488,333333],[2005,12430],[-16778,5826],[519,3512],[19301,-6314],[-2381,-15454]],[[417154,333333],[-7893,-50699],[-2798,920],[8025,49779]],[[401118,242887],[4990,33972],[2222,-740],[-5063,-33710],[-2149,478]],[[445519,616614],[395,2446],[11025,-3499]],[[456939,615561],[1002,-317]],[[457941,615244],[-196,-1319],[-10863,3478],[-231,-1181],[-1132,392]],[[666666,0],[0,333333]],[[666666,333333],[102838,0]],[[769504,333333],[8702,-30110],[14649,-46777],[3663,-11910],[537,-59980],[13255,16068],[29100,2593],[27669,27927],[22019,31624],[3056,20234],[13162,19456]],[[905316,302458],[24571,4746],[8604,1137],[31861,791],[7159,530],[16952,4777],[5536,-21103]],[[999999,293336],[0,-293336],[-333333,0]],[[769504,333333],[-2327,8036],[-13026,27216],[-35746,35963],[-9631,6204],[-5870,30946],[-2923,40933],[42375,-62300],[13215,-9892],[31293,15557],[18576,-10290],[12348,28973],[-44970,40587],[-21808,8097],[-6310,15422],[-6506,29531],[-14546,8906],[-9628,1022]],[[714020,548244],[311,10189],[-4046,8222],[1019,5288],[-2507,5135],[-6299,8625],[3201,18621]],[[705699,604324],[5615,-4796],[11569,7178],[4506,10280],[-860,5452],[-5440,5078]],[[721089,627516],[922,11135],[-3193,13383]],[[718818,652034],[6,11976],[-2416,3726],[-2062,12805]],[[714346,680541],[452,5424]],[[714798,685965],[19791,32908]],[[734589,718873],[2699,-28748],[18551,-45390],[24821,-39881],[19222,-43648],[24483,-45160],[9563,-41112],[19000,-16055],[3902,-10363],[5532,-23497],[-996,-27447],[5071,-9963],[12330,-35834],[19023,-27847]],[[897790,323928],[7526,-21470]],[[897790,323928],[-1696,38906],[13888,44665],[-19554,42385],[1250,26144],[13106,31740],[15518,7911],[19520,9005],[12312,18234],[15408,42025],[17519,43782],[3551,6167]],[[988612,634892],[2238,-10683],[9149,-7200]],[[999999,617009],[0,-283676],[0,-39997]],[[734589,718873],[5227,8691],[40796,-7083],[29591,-3956],[69857,8629],[39457,1647],[14906,-22009],[23871,-11223],[21246,-26903]],[[979540,666666],[3945,-7297],[5127,-24477]],[[666666,333333],[0,333333]],[[666666,666666],[34662,0]],[[701328,666666],[-8776,-10014]],[[692552,656652],[-3241,-3985]],[[689311,652667],[-8216,-10100],[-2286,-18329],[13835,-27646]],[[692644,596592],[5345,-10679],[-4501,-29141],[615,-6415],[19917,-2113]],[[689311,652667],[2648,-11269]],[[691959,641398],[48,-1520],[3301,-5450],[2879,-726],[-5543,-37110]],[[691959,641398],[-310,9841],[903,5413]],[[701328,666666],[6928,8420],[6542,10879]],[[714346,680541],[-1020,-12217],[4108,-4935],[1384,-11355]],[[721089,627516],[20,-9083],[-4203,-7110],[-11207,-6999]],[[979540,666666],[20459,0]],[[999999,666666],[0,-49657]],[[666666,999999],[333333,0],[0,-333333]],[[267817,378027],[10305,70352],[604,12276],[11,7947],[-2810,14720],[-3578,13815],[-8868,34308],[13535,-4566]],[[277016,526879],[-1951,-13285],[-2070,775],[-1208,-6208],[4313,-1552],[1035,6467],[-1207,518],[1707,13076]],[[277635,526670],[2165,-730],[13249,-50480],[-144,-21408],[-11963,-80415]],[[277016,526879],[619,-209]],[[0,333333],[0,333333],[333333,0]],[[333333,666666],[0,-333333]],[[333333,333333],[80792,0],[363,0]],[[417154,333333],[249512,0]],[[666666,0],[-333333,0]],[[466554,679517],[-9079,-60390]],[[457475,619127],[-1171,196]],[[456304,619323],[6943,47343]],[[457475,619127],[-536,-3566]],[[445519,616614],[-970,336],[616,4000],[10845,-3627],[294,2000]],[[465601,666666],[-7126,-47837]],[[458475,618829],[-1000,298]],[[458475,618829],[-534,-3585]],[[666666,666666],[-84931,-25000]],[[570913,578889],[1336,-2066]]],"bbox":[-271.872,3250.543,3814.129,5977.543],"transform":{"scale":[0.004086005086005085,0.0027270027270027268],"translate":[-271.872,3250.543]}}
