{"type":"Topology","objects":{"01424-4315-21.featurecollection":{"type":"GeometryCollection","geometries":[{"type":"Polygon","arcs":[[0,1]],"properties":{"市区町村名":"空知郡奈井江町","大字名":null,"丁目名":null,"小字名":"字東奈井江","地番":"328","精度区分":null,"座標系":"任意座標系"}},{"type":"Polygon","arcs":[[-1,2]],"properties":{"市区町村名":"空知郡奈井江町","大字名":null,"丁目名":null,"小字名":"字東奈井江","地番":"58-3","精度区分":null,"座標系":"任意座標系"}}]}},"arcs":[[[393321,627721],[-939,1815],[-1136,3192],[-338,422],[-219,458],[-405,317],[-200,507],[-355,79],[-82,458],[-442,97],[-1082,1304],[-1059,1080],[-1314,945],[-2229,1345],[-1847,1141],[-1658,1108],[-1811,1874],[-1055,1301],[-114,423],[-552,480],[-621,775],[-282,554],[-608,793],[-877,572],[-1181,1226],[-1384,735],[-705,551],[-1509,820],[-1402,1531],[-1656,1298],[-1136,871],[-1934,2036],[-2044,1610],[-965,348],[-2173,1186],[-1045,928],[-2816,2102],[-1333,514],[-1628,218],[-656,207],[-2608,1068],[-1996,886],[-1753,732],[-1413,789],[-1848,1275],[-1086,728],[-921,36],[-617,273],[-680,630],[-1315,718],[-758,795],[-1179,1070],[-2371,1170],[-1009,634],[-1975,1709],[-1182,731],[-933,802]],[[326885,678988],[-279,1495],[61,1586],[454,2414],[438,817],[358,1268],[495,6358],[186,590],[-48,2110],[-231,1473],[-127,3843],[207,4813],[-130,6108],[-593,4577],[-77,1052],[37,2057],[-965,5269],[-380,395],[-340,1427],[-307,2231],[-144,3442],[73,4512],[-322,1441],[-31,3706],[111,1598],[326,2069],[266,4655],[280,3425],[-78,988],[318,2353],[673,2025],[917,3448],[1258,3656],[677,1539],[828,3218],[1028,4789],[418,4714],[-29,4160],[192,3545],[489,3323],[1319,5151],[838,3478],[-394,6885],[-262,1688],[143,2795],[2444,-667],[710,-523],[1052,153],[512,-634],[536,-153],[1018,-653],[1225,17],[2666,-386],[3470,-952],[3105,-1773],[4173,-1380],[2702,-1086],[8090,-1034],[4696,66],[530,77],[1901,332],[3648,-266],[2054,-556],[1589,109],[2928,935],[5658,2019],[3407,1143],[4920,1489],[4375,1911],[2032,408],[3034,1291],[1612,875],[2491,964],[1270,415],[1052,610],[1103,885],[2239,1476],[1399,134],[785,541],[1108,699],[704,-412],[3716,3094],[1435,1744],[1812,1785],[798,1016],[2259,2057],[2117,2345],[1095,1803],[1441,1700],[1507,1538],[2983,2374],[1591,1695],[1768,1062],[2724,1095],[5243,1856],[1087,197],[1784,64],[1015,57],[2345,722],[1640,82],[3883,-78],[2540,533],[1891,77],[2117,-188],[2928,216],[2279,-66],[1246,-164],[2677,-688],[1148,246],[2430,320],[3089,-54],[1690,217],[513,248],[1279,697],[2655,34],[1681,-51],[1839,378],[2508,758],[3603,1208],[1048,464],[2025,179],[2362,-460],[2431,251],[1720,-105],[1480,-300],[966,-445],[1939,-1735],[2521,-1451],[952,-550],[1177,-1510],[854,-723],[1968,-1047],[1638,-1282],[1119,-1093],[1365,-657],[1890,-488],[2000,-815],[2526,-653],[1005,-725],[3037,-91],[1390,-317],[1122,454],[1418,74],[1135,546],[1963,331],[1742,648],[3024,1074],[1050,329],[1806,391],[987,494],[961,715],[2403,1092],[770,718],[4273,1211],[2668,774],[5800,2420],[967,501],[1111,182],[1477,703],[3720,401],[1996,651],[1869,1068],[2330,744],[3304,1481],[1407,1138],[513,581],[2213,1580],[2452,961],[904,605],[413,534],[1311,1008],[1826,2325],[1138,1901],[523,1660],[410,2458],[716,3353],[999,3151],[494,2752],[503,2255],[-51,1318],[481,3912],[-85,1868],[338,2827],[866,3067],[1145,3306],[535,1755],[127,1293],[586,1841],[1231,3198],[-44,1261],[604,1807],[1219,5158],[-250,2735],[1055,3864],[46,1223],[1289,4472],[127,1020],[424,1087],[92,1152],[1126,4691],[2197,6249],[1652,5105],[2020,5548],[464,1654],[447,840],[956,1450],[711,1784],[135,886],[686,1330],[453,778],[1468,3287],[708,1817],[555,944],[492,523],[2749,493],[2044,809],[1838,331],[2999,1012],[3411,205],[2716,-90],[3901,-700],[4435,-233],[4870,-706],[3660,405],[2156,43],[1738,-335],[473,192],[966,756],[1370,216],[1231,46],[2336,911],[4969,1555],[2424,938],[1657,109],[725,-151],[2312,486],[2165,798],[3776,493],[3208,404],[1502,580],[2184,208],[1955,314],[2787,-422],[800,63],[2725,1389],[2137,713],[2904,671],[1723,769],[1506,485],[1518,203],[4034,1805],[2277,1473],[4193,2217],[2488,1705],[2727,1577],[2240,1119],[1245,933],[2787,1657],[1097,455],[1065,705],[1315,602],[576,657],[1353,786],[2832,1097],[1139,811],[2863,964],[1540,730],[4091,912],[478,463],[3875,375],[1113,335],[1020,-266],[737,100],[4621,3177],[493,339],[4360,-184],[1411,257],[1454,-649],[3310,369],[1394,17],[2072,-121],[3294,-1207],[2678,-218],[1979,-324],[2509,-902],[1299,-623],[1961,-1289],[2886,-1740],[2446,-1351],[1054,-323],[3995,-1114],[2913,-623],[4237,-674],[2796,100],[4033,-681],[3484,-929],[5708,-949],[2455,-320],[2779,49],[2733,627],[3859,-226],[3899,-652],[2052,-8],[2038,230],[1884,56],[2286,758],[1308,254],[2317,-94],[2569,-201],[1731,-168],[3076,292],[3177,-250],[2320,-26],[994,155],[1630,-265],[2295,-849],[3956,-655],[2365,-959],[1487,-539],[1338,-222],[2871,-1126],[1189,-206],[1339,-686],[992,-305],[2914,-1855],[2077,-1685],[1422,-850],[5372,-2823],[2701,-1673],[1792,-5832],[4327,-10488],[5154,-14804],[1405,-4065],[2531,-5175],[2733,-8499],[1004,-5027],[4532,-16391],[2138,-8200],[747,-5250],[317,-3986],[2437,-15055],[2173,-8793],[2053,-10973],[819,-9603],[2251,-9830],[1244,-7212],[1711,-9714],[1249,-5556],[934,-6270],[772,-5631],[289,-6984],[728,-5541],[967,-9564],[575,-7407],[558,-1809],[1566,-6327],[2109,-11976],[100,-2291],[119,-3670],[800,-3614],[2673,-18222],[2062,-13165],[594,-2435],[1606,-4281],[719,-3945],[1409,-10914],[966,-6648],[135,-4388],[889,-6263],[1594,-14348],[621,-12730],[1068,-10996],[154,-4861],[534,-10540],[1224,-10603],[1466,-11997],[-17,-4303],[1023,-6425],[1185,-4776],[2522,-11823],[1686,-7709],[2595,-8239],[1761,-10371],[1373,-7456],[2250,-11174],[2033,-8136],[1253,-3902],[2014,-8156],[1346,-12046],[336,-9558],[-382,-5469],[-1464,-11973],[-458,-5081],[191,-4419],[931,-5919],[1401,-5062],[1723,-7373],[1241,-6366],[966,-6226],[1616,-6264],[471,-4392],[-125,-5509],[-288,-3535],[-648,-2948],[1214,-2141],[1352,-2386],[1459,-1863],[513,-1689],[243,-1770],[-22,-4065],[-697,-7496],[-601,-4251],[-555,-3458],[-103,-3908],[1183,-3776],[447,-2699],[40,-2947],[-198,-5247],[-1089,-7356],[-617,-7250],[-824,-13472],[-261,-3573],[-1118,-5559],[-988,-3150],[-2139,-5686],[-3274,-8760],[-1839,-5725],[-1727,-3988],[-2275,-5838],[-4229,-8848],[-4290,-9883],[-4283,-10152],[-3297,-6073],[-5275,-8628],[-1558,-2132],[-4033,-4201],[-2238,-2064],[-548,-56],[-286,347],[11,1277],[606,2590],[392,1215],[2702,8384],[1573,6596],[430,3932],[511,8801],[35,6454],[-956,5901],[-826,3827],[-1351,4094],[-2078,4985],[-1308,3828],[-1479,5673],[-662,5019],[-1217,6070],[-1227,2937],[-3940,7505],[-4492,6861],[-4623,5660],[-2995,3199],[-4579,3808],[-4966,2952],[-3102,2714],[-1195,1870],[-2017,4582],[-2284,4620],[-3024,5975],[-2982,5649],[-1637,3822],[-1243,5194],[-981,5750],[-1117,6504],[-271,3454],[247,2896],[279,1611],[515,1393],[167,1710],[-1207,4225],[-1212,4311],[-1013,2944],[-1305,3239],[-507,2371],[-493,2877],[-281,5340],[-781,4914],[-959,5971],[-418,6464],[-403,7101],[-25,3577],[160,3631],[-549,4132],[-632,2108],[-1028,2814],[-618,2348],[-278,2379],[29,3805],[572,4454],[170,6851],[-195,5304],[-734,2633],[-1594,4846],[-1569,3173],[-1880,4253],[-1888,3825],[-1019,3326],[-1519,3240],[-1449,1957],[-2565,1719],[-1216,1335],[-1088,2091],[-1485,3840],[-2039,3997],[-3467,5107],[-2659,2798],[-2638,2309],[-2582,1452],[-3255,1702],[-2805,1354],[-2315,783],[-2775,339],[-3391,-774],[-3573,-10],[-3004,-1135],[-4586,-2173],[-1643,-349],[-2593,237],[-3292,838],[-2379,1423],[-1272,7],[-1007,-368],[-2080,-1513],[-1854,-2683],[-1230,-1054],[-1111,-285],[-1404,374],[-2538,347],[-2024,-321],[-5541,-2724],[-1453,-264],[-3589,240],[-2605,482],[-1690,1162],[-2331,807],[-1563,-322],[-4362,-1033],[-3616,550],[-5748,1106],[-1592,700],[-3246,2342],[-3832,1709],[-2411,1203],[-2836,647],[-1667,105],[-5383,339],[-3776,3689],[-2442,1921],[-1946,1559],[-3282,3422],[-1521,3152],[-2108,4663],[-2387,5527],[-2479,5355],[-1299,1970],[-1986,1801],[-2655,2050],[-2689,1433],[-1654,1196],[-2496,2968],[-1401,2113],[-1250,390],[-1763,43],[-1447,444],[-1734,1088],[-2045,1960],[-962,1723],[-890,2820],[-1083,2166],[-2051,862],[-2590,-326],[-3189,-1310],[-1931,-403],[-2302,695],[-1608,71],[-2345,-860],[-1559,-168],[-872,215],[-1464,1112],[-2475,3352],[-2114,3336],[-2397,3343],[-1502,1719],[-1746,1764],[-824,1719],[-235,2318],[-89,3435],[-479,1691],[-606,811],[-924,1651],[-201,1591],[-59,2495],[276,2039],[-248,2555],[-531,3586],[-15,4865],[325,2122],[740,1683],[1210,2901],[843,4364],[381,7729],[447,5557],[-198,2505],[-564,1478],[-1540,1217],[-2315,1165],[-1596,1547],[-1135,2054],[-527,2249],[24,2022],[-15,3180],[-401,1656],[-1016,1062],[-2246,1424],[-1984,2205],[-929,2053],[-337,2084],[15,2178],[450,2554],[972,3762],[439,4362],[-109,3143],[-778,3503],[-1302,3951],[-722,3305],[-643,3285],[-963,1965],[-1260,1031],[-2328,621],[-2070,1065],[-1158,1155],[-1012,2137],[-607,2091],[-129,1292],[-52,6398],[-522,2197],[-765,1675],[-714,614],[-1455,254],[-3530,-2],[-2004,544],[-1357,1251],[-465,1399],[34,1168],[540,2135],[787,4146],[-69,1457],[-757,1259],[-1293,688],[-2051,1362],[-1946,2389],[-2304,2266],[-1633,705],[-2691,302],[-2401,151],[-3333,971],[-2158,40],[-1783,-761],[-871,-1171],[-1555,-3506],[-1229,-1695],[-1212,-831],[-1578,-668],[-2413,-64],[-1577,1018],[-2879,2065],[-1712,-114],[-1942,-1534],[-1867,-3006],[-1666,-1349],[-1912,-583],[-2380,393],[-1933,1870],[-1969,2547],[-2067,5154],[-1071,1571],[-1519,717],[-932,-715],[-1559,-2097],[-1930,-1240],[-1340,-31],[-2600,1379],[-2697,453],[-1870,1414],[-1972,1653],[-843,78],[-779,-933],[-1526,-2742],[-1030,-716],[-1759,-237],[-1250,534],[-2338,1711],[-2459,3608],[-2246,2716],[-1233,847],[-1553,316],[-2122,-663],[-2195,50],[-2837,1195],[-1235,1249],[-620,1566],[-828,1996],[-925,1297],[-2030,401],[-1873,394],[-1053,887],[-2209,2760],[-1903,1710],[-1367,305],[-2660,-67],[-2580,316],[-2714,927],[-2279,1561],[-2159,980],[-1336,-266],[-1740,-1215],[-2788,-1610],[-2512,258],[-2867,574],[-1710,1014],[-2644,3253],[-1867,1548],[-1208,269],[-1151,-199],[-5137,-4067],[-4196,-3385],[-1877,-2384],[-1058,-3088],[-1083,-6138],[-1357,-5813],[-1282,-2884],[-1431,-1505],[-3484,-2023],[-2197,-10],[-3101,1055],[-1800,141],[-3371,-1666],[-2382,-2012],[-1592,-2232],[-1162,-2995],[-354,-2505],[-465,-2577],[-683,-1320],[-1234,-1063],[-2311,-1178],[-4863,-2993],[-1832,-2480],[-2278,-1859],[-4845,-3589],[-5381,-2228],[-3100,-1746],[-951,-1223],[-725,-2530],[-937,-2160],[-1243,-1939],[-1370,-2855],[-234,-2361],[152,-2595],[363,-3605],[-254,-5228],[-606,-4681],[-1016,-2223],[-1591,-1397],[-1691,-799],[-8981,238],[-1225,-192],[-2009,-1012],[-365,-709],[-2318,-4575],[-2054,-2572],[-1364,-1107],[-2374,-1566],[-1030,-1659],[-843,-2041],[-1289,-3013],[-808,-2126],[-416,-2291],[-13,-2681],[938,-3035],[468,-3607],[-379,-3397],[-1057,-3215],[-1521,-2846],[-1424,-2049],[-2777,-2980],[-1330,-1832],[-551,-1257],[-269,-1423],[118,-2169],[73,-4030],[-278,-2528],[-677,-3134],[-1080,-1894],[-1152,-1386],[-1608,-1165],[-1371,-545]],[[393321,627721],[-1127,-875],[-1419,-1665],[-1819,-1697],[-1546,-632],[-1677,-28],[-1341,665],[-1459,152],[-1489,-314],[-1028,-737],[-1089,-1316],[-1449,-2621],[-1940,-4632],[-205,-1185],[499,-1282],[876,-905],[1074,-1276],[1406,-3218],[501,-3409],[471,-2794],[343,-2638],[-590,-3181],[-1328,-3320],[-1030,-1549],[-1085,-640],[-1520,93],[-3092,883],[-1062,257],[-1464,-370],[-942,-1149],[-1760,-3495],[-1641,-3320],[-2055,-4330],[-803,-3227],[-707,-1971],[-901,-1659],[-2000,-2470],[-1058,-932],[-1423,-664],[-1000,-915],[-2956,-2369],[-2150,-1469],[-2506,-1606],[-2516,-1949],[-2002,-1707],[-800,-1205],[-922,-1351],[-1102,-2119],[-1089,-1587],[-1227,-2062],[-922,-1962],[-459,-2093],[-148,-2239],[-189,-5455],[-370,-2326],[-638,-1907],[-761,-1474],[-1854,-2311],[-364,-630],[-1170,-2017],[-2291,-4337],[-2501,-4349],[-714,-2745],[-1105,-2382],[-1521,-2019],[-2029,-2970],[-1840,-3797],[-1292,-1950],[-1765,-1566],[-2370,-1046],[-821,-853],[-1049,-1905],[-665,-2111],[-15,-4203],[455,-5541],[-125,-2205],[-834,-3991],[-1018,-2565],[-934,-2488],[-3277,-4010],[-1237,-2366],[-1290,-2700],[-826,-3951],[-91,-4592],[278,-3134],[1164,-6312],[637,-2230],[53,-1788],[-70,-667],[-422,-1852],[-864,-3205],[-845,-2475],[-1526,-2568],[-1486,-1741],[-1796,-1222],[-2136,-1137],[-1958,-914],[-2673,-2485],[-1038,-1477],[-1085,-2166],[-557,-2712],[-861,-2516],[-1275,-3543],[-350,-3123],[-1,-4524],[-429,-4107],[211,-5055],[31,-761],[-334,-3208],[-1028,-6254],[-904,-5529],[-1478,-3852],[-1881,-3430],[-3005,-6014],[-2491,-6785],[-1127,-2272],[-4514,-5021],[-3238,-3927],[-5898,-7013],[-1553,-3370],[-2088,-3989],[-2130,-3486],[-913,-3290],[-501,-9363],[-780,-10755],[-769,-3896],[-949,-2869],[-1293,-3058],[-1574,-2261],[-2343,-1143],[-2634,-159],[-4250,-443],[-4588,321],[-5963,334],[-1695,-1122],[-1474,-2262],[-2282,-3317],[-3040,-3567],[-3191,-3447],[-3506,-1496],[-2386,-1540],[-3222,-3333],[-1398,-2090],[-2635,-4671],[-1682,-2684],[-2133,-1771],[-3390,-2431],[-2898,-1932],[-3174,-3616],[-2475,-3475],[-3160,-3596],[-2248,-2718],[-1290,-2373],[-1424,-3806],[-1178,-4802],[-961,-3272],[-1121,-1220],[-1621,-1207],[-1873,-1000],[-1569,-1409],[-2150,-3911],[-1052,-3083],[762,-5396],[1089,-5579],[353,-3690],[-355,-3410],[-760,-3022],[-730,-4589],[-552,-2449],[-662,-906],[-1113,-376],[-1918,627],[-1929,160],[-2105,-373],[-2318,-1607],[-1274,-2113],[-1249,-4022],[-2456,-5537],[-732,-2581],[-37,-3701],[-709,-3176],[-715,-1004],[-1478,-646],[-1371,464],[-1076,1375],[-612,1574],[-1102,977],[-1129,298],[-1477,-150],[-1594,-1036],[-2918,-3710],[-5397,-6478],[-4339,-6534],[-4826,-6771],[-2809,-2606],[-2985,-3115],[-2414,-3289],[-3375,-6383],[-2353,-3741],[-2389,-5197],[-1392,-3344],[-1018,-4693],[-1147,-7922],[-1160,-4431],[-3307,-9567],[-941,-2775],[-1213,-6083],[-796,-2251],[-1179,-2033],[-3341,-7983],[-948,-2795],[-568,-4298],[-500,-5400],[-624,-3015],[-182,-3441],[228,-7054],[-257,-2323],[-889,-1492],[-1051,-750],[-889,-233],[-2212,449],[-5749,3387],[-1616,952],[-1030,1470],[-1875,3476],[-2518,3736],[-902,1039],[-1669,1069],[-2107,183],[-1557,-525],[-2582,-2126],[-1192,-2298],[-1617,-5787],[-1664,-4426],[-1203,-1605],[-1671,-1199],[-1670,-13],[-2073,851],[-3240,2030],[-2463,1708],[-2744,1349],[-1569,407],[-1256,-455],[-836,-1231],[-470,-1669],[-72,-4216],[-709,-4563],[-830,-2481],[-949,-1216],[-1530,-603],[-3888,-257],[-2041,-462],[-2099,-1145],[-1810,-2018],[-1872,-6431],[-859,-4481],[-923,-3599],[-771,-2274],[-1563,-2512],[-1312,-1616],[-1098,-556],[-1349,-25],[-1759,703],[-3210,2224],[-3331,3489],[-1716,1438],[-1750,386068],[-1536,145842],[1796,1143],[1117,914],[436,598],[255,585],[1262,598],[5137,143],[3788,913],[1606,1252],[1259,1853],[1779,1996],[2572,2102],[1652,644],[1939,167],[2529,906],[1448,66],[581,443],[1153,2336],[1058,604],[800,-593],[3469,-4842],[2890,-4055],[714,-1103],[923,-698],[1526,-2849],[448,-938],[1598,-1994],[816,-1885],[600,-875],[1113,-1878],[1373,-2826],[591,-535],[604,-1048],[741,-669],[357,-872],[1382,-1885],[2053,-2619],[1896,-1689],[2487,-4392],[1937,-2031],[1070,-1103],[1898,-2338],[2017,-1098],[1766,-1130],[2314,2057],[1218,1733],[3207,3693],[3326,2743],[1270,1599],[1340,1508],[1391,1150],[942,1299],[1787,2249],[2839,2861],[2190,1867],[794,1174],[2091,4307],[1323,1707],[858,1905],[2708,3932],[2011,2496],[2497,3256],[528,200],[2586,2811],[707,961],[556,368],[1360,1475],[1975,1598],[284,367],[340,636],[2217,2827],[554,839],[454,1198],[2524,2714],[2218,1725],[864,877],[2507,1769],[2223,2083],[408,654],[433,324],[576,47],[7071,5273],[1941,1307],[6215,2325],[458,-190],[1299,438],[1349,-434],[2812,-2067],[1126,-1450],[1915,-2065],[491,-958],[887,-1023],[574,-1047],[2703,-2109],[1132,-733],[1032,13],[1106,100],[4413,-773],[943,184],[1151,359],[647,720],[2119,1971],[2814,2428],[1065,445],[4374,97],[2031,-683],[2378,-121],[1593,81],[1325,616],[3865,138],[1594,341],[1449,-16],[3758,1833],[1402,897],[2888,3386],[1263,1067],[796,-328],[1411,786],[1799,1456],[1466,977],[2915,4359],[2209,3097],[809,1472],[1784,4166],[765,1253],[336,944],[124,795],[805,1509],[1212,1461],[2589,2629],[2410,2101],[2632,2716],[1593,1967],[1612,1834],[1333,1743],[1231,2037],[1151,1481],[1244,1064],[563,380],[700,1172],[1090,1198],[1395,1196],[3346,3886],[1787,2413],[1539,2153],[2248,2476],[3918,4077],[2498,2158],[1412,1621],[1208,848],[340,609],[655,555],[472,648],[1314,1116],[820,788],[1810,2173],[2785,2657],[4667,3728],[2093,1839],[2461,1439],[1882,467],[3108,-197],[1085,-53],[3132,619],[1628,528],[5385,-343],[3390,305],[6059,435],[2652,-534],[1278,76],[2551,-312],[1800,308],[1869,599],[1667,88],[1596,-181],[956,217],[966,578],[2118,667],[849,664],[2427,886],[1257,786],[1343,1971],[1246,2020],[1149,1496],[1085,942],[2981,1276],[1346,825],[959,271],[735,-506]]],"bbox":[1313.388,876.518,6231.136,4463.73],"transform":{"scale":[0.004917752917752918,0.003587215587215587],"translate":[1313.388,876.518]}}