{"type":"Topology","objects":{"01424-4315-22.featurecollection":{"type":"GeometryCollection","geometries":[{"type":"Polygon","arcs":[[0,1,2,3]],"properties":{"市区町村名":"空知郡奈井江町","大字名":null,"丁目名":null,"小字名":"字キナウスナイ","地番":"198-40","精度区分":null,"座標系":"任意座標系"}},{"type":"Polygon","arcs":[[4,-4,5,6]],"properties":{"市区町村名":"空知郡奈井江町","大字名":null,"丁目名":null,"小字名":"字キナウスナイ","地番":"198-43","精度区分":null,"座標系":"任意座標系"}},{"type":"Polygon","arcs":[[7,-7,8,9]],"properties":{"市区町村名":"空知郡奈井江町","大字名":null,"丁目名":null,"小字名":"字キナウスナイ","地番":"198-38","精度区分":null,"座標系":"任意座標系"}},{"type":"Polygon","arcs":[[10,11,-5,-8]],"properties":{"市区町村名":"空知郡奈井江町","大字名":null,"丁目名":null,"小字名":"字キナウスナイ","地番":"198-42","精度区分":null,"座標系":"任意座標系"}},{"type":"Polygon","arcs":[[12,13,14,-1,-12,15,16,17]],"properties":{"市区町村名":"空知郡奈井江町","大字名":null,"丁目名":null,"小字名":"字キナウスナイ","地番":"198-1","精度区分":null,"座標系":"任意座標系"}},{"type":"Polygon","arcs":[[18,19,-2,-15]],"properties":{"市区町村名":"空知郡奈井江町","大字名":null,"丁目名":null,"小字名":"字キナウスナイ","地番":"198-2","精度区分":null,"座標系":"任意座標系"}},{"type":"Polygon","arcs":[[-19,-14,20,21]],"properties":{"市区町村名":"空知郡奈井江町","大字名":null,"丁目名":null,"小字名":"字キナウスナイ","地番":"198-37","精度区分":null,"座標系":"任意座標系"}},{"type":"Polygon","arcs":[[-21,-13,22,23]],"properties":{"市区町村名":"空知郡奈井江町","大字名":null,"丁目名":null,"小字名":"字キナウスナイ","地番":"198-3","精度区分":null,"座標系":"任意座標系"}},{"type":"Polygon","arcs":[[24,-23,-18,25,26]],"properties":{"市区町村名":"空知郡奈井江町","大字名":null,"丁目名":null,"小字名":"字キナウスナイ","地番":"198-4","精度区分":null,"座標系":"任意座標系"}},{"type":"Polygon","arcs":[[27,28,-11,-10,29]],"properties":{"市区町村名":"空知郡奈井江町","大字名":null,"丁目名":null,"小字名":"字キナウスナイ","地番":"198-6","精度区分":null,"座標系":"任意座標系"}},{"type":"Polygon","arcs":[[30,-16,-29,31]],"properties":{"市区町村名":"空知郡奈井江町","大字名":null,"丁目名":null,"小字名":"字キナウスナイ","地番":"198-41","精度区分":null,"座標系":"任意座標系"}},{"type":"Polygon","arcs":[[-17,-31,32,-26]],"properties":{"市区町村名":"空知郡奈井江町","大字名":null,"丁目名":null,"小字名":"字キナウスナイ","地番":"198-75","精度区分":null,"座標系":"任意座標系"}},{"type":"Polygon","arcs":[[33,-27,-33,-32,-28]],"properties":{"市区町村名":"空知郡奈井江町","大字名":null,"丁目名":null,"小字名":"字キナウスナイ","地番":"198-7","精度区分":null,"座標系":"任意座標系"}},{"type":"Polygon","arcs":[[34]],"properties":{"市区町村名":"空知郡奈井江町","大字名":null,"丁目名":null,"小字名":"字キナウスナイ","地番":"198-9","精度区分":null,"座標系":"任意座標系"}}]}},"arcs":[[[593774,688440],[-287879,21302]],[[305895,709742],[-81048,5997]],[[224847,715739],[227009,284260],[287930,-204326]],[[739786,795673],[-146012,-107233]],[[845104,670419],[-251330,18021]],[[739786,795673],[27735,-19507],[112826,-74963]],[[880347,701203],[-35243,-30784]],[[577372,432772],[103277,103511],[164455,134136]],[[880347,701203],[76375,-54733],[43277,-28783],[-108340,-93239]],[[891659,524448],[-314287,-91676]],[[577372,432772],[-344597,-100043]],[[232775,332729],[10889,40863],[69170,70420],[179338,169496],[101602,74932]],[[207772,466534],[58100,154545]],[[265872,621079],[798,2127]],[[266670,623206],[39225,86536]],[[232775,332729],[-40825,-11050]],[[191950,321679],[-43011,-11641]],[[148939,310038],[58833,156496]],[[266670,623206],[-116383,6595]],[[150287,629801],[74560,85938]],[[265872,621079],[-122275,-688]],[[143597,620391],[6690,9410]],[[207772,466534],[-146650,-1418]],[[61122,465116],[82475,155275]],[[45577,295575],[15545,169541]],[[148939,310038],[-4732,-12592]],[[144207,297446],[-98630,-1871]],[[230932,203168],[2330,50759],[-279,45204]],[[232983,299131],[-208,33598]],[[891659,524448],[-124138,-110021],[-134069,-144555],[-25882,-39301],[-370173,-78278],[-6465,50875]],[[193690,298385],[-1740,23294]],[[232983,299131],[-39293,-746]],[[193690,298385],[-49483,-939]],[[230932,203168],[-196115,-24912],[10760,117319]],[[0,0],[25265,98096],[101633,-64371],[-126898,-33725]]],"bbox":[40137.299,-4487.882,40430.432,-3902.112],"transform":{"scale":[0.00029313329313329476,0.0005857705857705854],"translate":[40137.299,-4487.882]}}