{"type":"Topology","objects":{"01424-4315-27.featurecollection":{"type":"GeometryCollection","geometries":[{"type":"Polygon","arcs":[[0,1,2,3,4,5,6,7,8,9,10,11,12,13,14,15,16,17,18,19,20,21,22,23,24,25,26,27,28,29,30,31,32,33,34]],"properties":{"市区町村名":"空知郡奈井江町","大字名":null,"丁目名":null,"小字名":"字奈井江","地番":"長狭物不明-4","精度区分":null,"座標系":"任意座標系"}},{"type":"Polygon","arcs":[[35,36]],"properties":{"市区町村名":"空知郡奈井江町","大字名":null,"丁目名":null,"小字名":"字奈井江","地番":"長狭物不明-5","精度区分":null,"座標系":"任意座標系"}},{"type":"Polygon","arcs":[[37,38]],"properties":{"市区町村名":"空知郡奈井江町","大字名":null,"丁目名":null,"小字名":"字奈井江","地番":"長狭物不明-6","精度区分":null,"座標系":"任意座標系"}},{"type":"Polygon","arcs":[[39,40]],"properties":{"市区町村名":"空知郡奈井江町","大字名":null,"丁目名":null,"小字名":"字奈井江","地番":"長狭物不明-8","精度区分":null,"座標系":"任意座標系"}},{"type":"Polygon","arcs":[[41,42,43,44]],"properties":{"市区町村名":"空知郡奈井江町","大字名":null,"丁目名":null,"小字名":"字奈井江","地番":"502-14","精度区分":null,"座標系":"任意座標系"}},{"type":"Polygon","arcs":[[45,-45,46,47]],"properties":{"市区町村名":"空知郡奈井江町","大字名":null,"丁目名":null,"小字名":"字奈井江","地番":"502-16","精度区分":null,"座標系":"任意座標系"}},{"type":"Polygon","arcs":[[48,-48,49,50]],"properties":{"市区町村名":"空知郡奈井江町","大字名":null,"丁目名":null,"小字名":"字奈井江","地番":"502-15","精度区分":null,"座標系":"任意座標系"}},{"type":"Polygon","arcs":[[51,52,53,54]],"properties":{"市区町村名":"空知郡奈井江町","大字名":null,"丁目名":null,"小字名":"字奈井江","地番":"502-10","精度区分":null,"座標系":"任意座標系"}},{"type":"Polygon","arcs":[[55]],"properties":{"市区町村名":"空知郡奈井江町","大字名":null,"丁目名":null,"小字名":"字奈江原野","地番":"1013-4","精度区分":null,"座標系":"任意座標系"}},{"type":"Polygon","arcs":[[56,57,-9]],"properties":{"市区町村名":"空知郡奈井江町","大字名":null,"丁目名":null,"小字名":"字奈井江","地番":"513-5","精度区分":null,"座標系":"任意座標系"}},{"type":"Polygon","arcs":[[58,59,-26]],"properties":{"市区町村名":"空知郡奈井江町","大字名":null,"丁目名":null,"小字名":"字奈井江","地番":"筆界未定地-2","精度区分":null,"座標系":"任意座標系"}},{"type":"Polygon","arcs":[[60,61]],"properties":{"市区町村名":"空知郡奈井江町","大字名":null,"丁目名":null,"小字名":"字奈江原野","地番":"148-7","精度区分":null,"座標系":"任意座標系"}},{"type":"Polygon","arcs":[[62]],"properties":{"市区町村名":"空知郡奈井江町","大字名":null,"丁目名":null,"小字名":"字奈江原野","地番":"384-4","精度区分":null,"座標系":"任意座標系"}},{"type":"Polygon","arcs":[[-61,63]],"properties":{"市区町村名":"空知郡奈井江町","大字名":null,"丁目名":null,"小字名":"字奈江原野","地番":"148-6","精度区分":null,"座標系":"任意座標系"}},{"type":"Polygon","arcs":[[64]],"properties":{"市区町村名":"空知郡奈井江町","大字名":null,"丁目名":null,"小字名":"字奈井江","地番":"1216-4","精度区分":null,"座標系":"任意座標系"}},{"type":"Polygon","arcs":[[65,-27,-60,66]],"properties":{"市区町村名":"空知郡奈井江町","大字名":null,"丁目名":null,"小字名":"字奈井江","地番":"483-8","精度区分":null,"座標系":"任意座標系"}},{"type":"Polygon","arcs":[[67,68,69]],"properties":{"市区町村名":"空知郡奈井江町","大字名":null,"丁目名":null,"小字名":"字奈井江","地番":"502-26","精度区分":null,"座標系":"任意座標系"}},{"type":"Polygon","arcs":[[70,71,72,73,74,75,76,77,78]],"properties":{"市区町村名":"空知郡奈井江町","大字名":null,"丁目名":null,"小字名":"字奈井江","地番":"844-1","精度区分":null,"座標系":"任意座標系"}},{"type":"Polygon","arcs":[[79,80,81,82]],"properties":{"市区町村名":"空知郡奈井江町","大字名":null,"丁目名":null,"小字名":"字奈井江","地番":"896-3","精度区分":null,"座標系":"任意座標系"}},{"type":"Polygon","arcs":[[83,84,85,-81]],"properties":{"市区町村名":"空知郡奈井江町","大字名":null,"丁目名":null,"小字名":"字奈井江","地番":"896-2","精度区分":null,"座標系":"任意座標系"}},{"type":"Polygon","arcs":[[86,87,-85]],"properties":{"市区町村名":"空知郡奈井江町","大字名":null,"丁目名":null,"小字名":"字奈井江","地番":"908","精度区分":null,"座標系":"任意座標系"}},{"type":"Polygon","arcs":[[88,89,90]],"properties":{"市区町村名":"空知郡奈井江町","大字名":null,"丁目名":null,"小字名":"字奈井江","地番":"88-2","精度区分":null,"座標系":"任意座標系"}},{"type":"Polygon","arcs":[[91,92,93,-76,94]],"properties":{"市区町村名":"空知郡奈井江町","大字名":null,"丁目名":null,"小字名":"字奈井江","地番":"845","精度区分":null,"座標系":"任意座標系"}},{"type":"Polygon","arcs":[[95,96]],"properties":{"市区町村名":"空知郡奈井江町","大字名":null,"丁目名":null,"小字名":"字奈井江","地番":"422-4","精度区分":null,"座標系":"任意座標系"}},{"type":"Polygon","arcs":[[97,98,99,100]],"properties":{"市区町村名":"空知郡奈井江町","大字名":null,"丁目名":null,"小字名":"字奈井江","地番":"435-6","精度区分":null,"座標系":"任意座標系"}},{"type":"Polygon","arcs":[[101,-98,102]],"properties":{"市区町村名":"空知郡奈井江町","大字名":null,"丁目名":null,"小字名":"字奈井江","地番":"435-3","精度区分":null,"座標系":"任意座標系"}},{"type":"Polygon","arcs":[[-102,103,104,105,106,-99]],"properties":{"市区町村名":"空知郡奈井江町","大字名":null,"丁目名":null,"小字名":"字奈井江","地番":"435-1","精度区分":null,"座標系":"任意座標系"}},{"type":"Polygon","arcs":[[107,108,109]],"properties":{"市区町村名":"空知郡奈井江町","大字名":null,"丁目名":null,"小字名":"字奈井江","地番":"433-11","精度区分":null,"座標系":"任意座標系"}},{"type":"Polygon","arcs":[[-108,110,111,112]],"properties":{"市区町村名":"空知郡奈井江町","大字名":null,"丁目名":null,"小字名":"字奈井江","地番":"433-13","精度区分":null,"座標系":"任意座標系"}},{"type":"Polygon","arcs":[[-110,113,114,115,116]],"properties":{"市区町村名":"空知郡奈井江町","大字名":null,"丁目名":null,"小字名":"字奈井江","地番":"433-12","精度区分":null,"座標系":"任意座標系"}},{"type":"Polygon","arcs":[[-112,117,118]],"properties":{"市区町村名":"空知郡奈井江町","大字名":null,"丁目名":null,"小字名":"字奈井江","地番":"433-4","精度区分":null,"座標系":"任意座標系"}},{"type":"Polygon","arcs":[[119,120,121,-118]],"properties":{"市区町村名":"空知郡奈井江町","大字名":null,"丁目名":null,"小字名":"字奈井江","地番":"433-6","精度区分":null,"座標系":"任意座標系"}},{"type":"Polygon","arcs":[[-117,122,-120,-111]],"properties":{"市区町村名":"空知郡奈井江町","大字名":null,"丁目名":null,"小字名":"字奈井江","地番":"433-14","精度区分":null,"座標系":"任意座標系"}},{"type":"Polygon","arcs":[[123,124,125,-121,126,127,128]],"properties":{"市区町村名":"空知郡奈井江町","大字名":null,"丁目名":null,"小字名":"字奈井江","地番":"428-2","精度区分":null,"座標系":"任意座標系"}},{"type":"Polygon","arcs":[[-115,129,130]],"properties":{"市区町村名":"空知郡奈井江町","大字名":null,"丁目名":null,"小字名":"字奈井江","地番":"433-5","精度区分":null,"座標系":"任意座標系"}},{"type":"Polygon","arcs":[[131,-116,-131,132,133]],"properties":{"市区町村名":"空知郡奈井江町","大字名":null,"丁目名":null,"小字名":"字奈井江","地番":"433-7","精度区分":null,"座標系":"任意座標系"}},{"type":"Polygon","arcs":[[-123,134,135,-127]],"properties":{"市区町村名":"空知郡奈井江町","大字名":null,"丁目名":null,"小字名":"字奈井江","地番":"428-8","精度区分":null,"座標系":"任意座標系"}},{"type":"Polygon","arcs":[[136,-128,-136,137]],"properties":{"市区町村名":"空知郡奈井江町","大字名":null,"丁目名":null,"小字名":"字奈井江","地番":"428-7","精度区分":null,"座標系":"任意座標系"}},{"type":"Polygon","arcs":[[-135,-132,138]],"properties":{"市区町村名":"空知郡奈井江町","大字名":null,"丁目名":null,"小字名":"字奈井江","地番":"428-5","精度区分":null,"座標系":"任意座標系"}},{"type":"Polygon","arcs":[[-138,-139,-134,139]],"properties":{"市区町村名":"空知郡奈井江町","大字名":null,"丁目名":null,"小字名":"字奈井江","地番":"428-4","精度区分":null,"座標系":"任意座標系"}},{"type":"Polygon","arcs":[[-126,140,141,142]],"properties":{"市区町村名":"空知郡奈井江町","大字名":null,"丁目名":null,"小字名":"字奈井江","地番":"430","精度区分":null,"座標系":"任意座標系"}},{"type":"Polygon","arcs":[[-125,143,-141]],"properties":{"市区町村名":"空知郡奈井江町","大字名":null,"丁目名":null,"小字名":"字奈井江","地番":"429","精度区分":null,"座標系":"任意座標系"}},{"type":"Polygon","arcs":[[144,145,146,147,148,149,-129,150]],"properties":{"市区町村名":"空知郡奈井江町","大字名":null,"丁目名":null,"小字名":"字奈井江","地番":"長狭物不明-9","精度区分":null,"座標系":"任意座標系"}},{"type":"Polygon","arcs":[[151,-151,-137,152]],"properties":{"市区町村名":"空知郡奈井江町","大字名":null,"丁目名":null,"小字名":"字奈井江","地番":"428-6","精度区分":null,"座標系":"任意座標系"}},{"type":"Polygon","arcs":[[-145,-152,153,154]],"properties":{"市区町村名":"空知郡奈井江町","大字名":null,"丁目名":null,"小字名":"字奈井江","地番":"421-4","精度区分":null,"座標系":"任意座標系"}},{"type":"Polygon","arcs":[[155]],"properties":{"市区町村名":"空知郡奈井江町","大字名":null,"丁目名":null,"小字名":"字奈井江","地番":"404","精度区分":null,"座標系":"任意座標系"}},{"type":"Polygon","arcs":[[156,-155,157]],"properties":{"市区町村名":"空知郡奈井江町","大字名":null,"丁目名":null,"小字名":"字奈井江","地番":"421-3","精度区分":null,"座標系":"任意座標系"}},{"type":"Polygon","arcs":[[158,159,-146,-157]],"properties":{"市区町村名":"空知郡奈井江町","大字名":null,"丁目名":null,"小字名":"字奈井江","地番":"421-2","精度区分":null,"座標系":"任意座標系"}},{"type":"Polygon","arcs":[[160,161,162,-159,-96]],"properties":{"市区町村名":"空知郡奈井江町","大字名":null,"丁目名":null,"小字名":"字奈井江","地番":"422-2","精度区分":null,"座標系":"任意座標系"}},{"type":"Polygon","arcs":[[163,-148,164,165]],"properties":{"市区町村名":"空知郡奈井江町","大字名":null,"丁目名":null,"小字名":"字奈井江","地番":"423","精度区分":null,"座標系":"任意座標系"}},{"type":"Polygon","arcs":[[-166,166]],"properties":{"市区町村名":"空知郡奈井江町","大字名":null,"丁目名":null,"小字名":"字奈井江","地番":"414","精度区分":null,"座標系":"任意座標系"}},{"type":"Polygon","arcs":[[167,168,169,-162]],"properties":{"市区町村名":"空知郡奈井江町","大字名":null,"丁目名":null,"小字名":"字奈井江","地番":"412-2","精度区分":null,"座標系":"任意座標系"}},{"type":"Polygon","arcs":[[170,171,172,173,-169]],"properties":{"市区町村名":"空知郡奈井江町","大字名":null,"丁目名":null,"小字名":"字奈井江","地番":"411-2","精度区分":null,"座標系":"任意座標系"}},{"type":"Polygon","arcs":[[174,175,-173,176,177,178,179,-179]],"properties":{"市区町村名":"空知郡奈井江町","大字名":null,"丁目名":null,"小字名":"字奈井江","地番":"403-2","精度区分":null,"座標系":"任意座標系"}},{"type":"Polygon","arcs":[[-177,-172,180]],"properties":{"市区町村名":"空知郡奈井江町","大字名":null,"丁目名":null,"小字名":"字奈井江","地番":"403-3","精度区分":null,"座標系":"任意座標系"}},{"type":"Polygon","arcs":[[181,182,183,184,-175,185]],"properties":{"市区町村名":"空知郡奈井江町","大字名":null,"丁目名":null,"小字名":"字奈井江","地番":"長狭物不明-10","精度区分":null,"座標系":"任意座標系"}},{"type":"Polygon","arcs":[[186,-182,187,188,189]],"properties":{"市区町村名":"空知郡奈井江町","大字名":null,"丁目名":null,"小字名":"字奈井江","地番":"399-3","精度区分":null,"座標系":"任意座標系"}},{"type":"Polygon","arcs":[[190,191,192,-183,-187]],"properties":{"市区町村名":"空知郡奈井江町","大字名":null,"丁目名":null,"小字名":"字奈井江","地番":"無地番-2","精度区分":null,"座標系":"任意座標系"}},{"type":"Polygon","arcs":[[193,194,-191,195]],"properties":{"市区町村名":"空知郡奈井江町","大字名":null,"丁目名":null,"小字名":"字奈井江","地番":"392-2","精度区分":null,"座標系":"任意座標系"}},{"type":"Polygon","arcs":[[196,197,-194,198]],"properties":{"市区町村名":"空知郡奈井江町","大字名":null,"丁目名":null,"小字名":"字奈井江","地番":"395-3","精度区分":null,"座標系":"任意座標系"}},{"type":"Polygon","arcs":[[-198,199,200,201,-195]],"properties":{"市区町村名":"空知郡奈井江町","大字名":null,"丁目名":null,"小字名":"字奈井江","地番":"395-2","精度区分":null,"座標系":"任意座標系"}},{"type":"Polygon","arcs":[[202,-200,-197]],"properties":{"市区町村名":"空知郡奈井江町","大字名":null,"丁目名":null,"小字名":"字奈井江","地番":"396","精度区分":null,"座標系":"任意座標系"}},{"type":"Polygon","arcs":[[203,204,-192,-202]],"properties":{"市区町村名":"空知郡奈井江町","大字名":null,"丁目名":null,"小字名":"字奈井江","地番":"401-2","精度区分":null,"座標系":"任意座標系"}},{"type":"Polygon","arcs":[[-205,205,206]],"properties":{"市区町村名":"空知郡奈井江町","大字名":null,"丁目名":null,"小字名":"字奈井江","地番":"401-1","精度区分":null,"座標系":"任意座標系"}},{"type":"Polygon","arcs":[[-207,-184,-193]],"properties":{"市区町村名":"空知郡奈井江町","大字名":null,"丁目名":null,"小字名":"字奈井江","地番":"399-1","精度区分":null,"座標系":"任意座標系"}},{"type":"Polygon","arcs":[[-105,207]],"properties":{"市区町村名":"空知郡奈井江町","大字名":null,"丁目名":null,"小字名":"字奈井江","地番":"437","精度区分":null,"座標系":"任意座標系"}},{"type":"Polygon","arcs":[[-100,-107,208]],"properties":{"市区町村名":"空知郡奈井江町","大字名":null,"丁目名":null,"小字名":"字奈井江","地番":"435-4","精度区分":null,"座標系":"任意座標系"}},{"type":"Polygon","arcs":[[209,-90,210,211]],"properties":{"市区町村名":"空知郡奈井江町","大字名":null,"丁目名":null,"小字名":"字奈井江","地番":"94-2","精度区分":null,"座標系":"任意座標系"}},{"type":"Polygon","arcs":[[212,213]],"properties":{"市区町村名":"空知郡奈井江町","大字名":null,"丁目名":null,"小字名":"字奈井江","地番":"89-2","精度区分":null,"座標系":"任意座標系"}},{"type":"Polygon","arcs":[[214,215,216,217,-213,218,219]],"properties":{"市区町村名":"空知郡奈井江町","大字名":null,"丁目名":null,"小字名":"字奈井江","地番":"89-1","精度区分":null,"座標系":"任意座標系"}},{"type":"Polygon","arcs":[[-217,220]],"properties":{"市区町村名":"空知郡奈井江町","大字名":null,"丁目名":null,"小字名":"字奈井江","地番":"90","精度区分":null,"座標系":"任意座標系"}},{"type":"Polygon","arcs":[[221,222]],"properties":{"市区町村名":"空知郡奈井江町","大字名":null,"丁目名":null,"小字名":"字奈井江","地番":"無地番-3","精度区分":null,"座標系":"任意座標系"}},{"type":"Polygon","arcs":[[223,224,225]],"properties":{"市区町村名":"空知郡奈井江町","大字名":null,"丁目名":null,"小字名":"字奈井江","地番":"118-2","精度区分":null,"座標系":"任意座標系"}},{"type":"Polygon","arcs":[[226,227,-223,228]],"properties":{"市区町村名":"空知郡奈井江町","大字名":null,"丁目名":null,"小字名":"字奈井江","地番":"126-2","精度区分":null,"座標系":"任意座標系"}},{"type":"Polygon","arcs":[[229,230,231,-228]],"properties":{"市区町村名":"空知郡奈井江町","大字名":null,"丁目名":null,"小字名":"字奈井江","地番":"126-1","精度区分":null,"座標系":"任意座標系"}},{"type":"Polygon","arcs":[[232,-230,233,234]],"properties":{"市区町村名":"空知郡奈井江町","大字名":null,"丁目名":null,"小字名":"字奈井江","地番":"125-1","精度区分":null,"座標系":"任意座標系"}},{"type":"Polygon","arcs":[[-226,235,236,237]],"properties":{"市区町村名":"空知郡奈井江町","大字名":null,"丁目名":null,"小字名":"字奈井江","地番":"121-2","精度区分":null,"座標系":"任意座標系"}},{"type":"Polygon","arcs":[[-234,-227,238,-237]],"properties":{"市区町村名":"空知郡奈井江町","大字名":null,"丁目名":null,"小字名":"字奈井江","地番":"125-2","精度区分":null,"座標系":"任意座標系"}},{"type":"Polygon","arcs":[[239,240]],"properties":{"市区町村名":"空知郡奈井江町","大字名":null,"丁目名":null,"小字名":"字奈井江","地番":"122","精度区分":null,"座標系":"任意座標系"}},{"type":"Polygon","arcs":[[241,242,243,-225]],"properties":{"市区町村名":"空知郡奈井江町","大字名":null,"丁目名":null,"小字名":"字奈井江","地番":"118-1","精度区分":null,"座標系":"任意座標系"}},{"type":"Polygon","arcs":[[-244,244,-240,245,-235,-236]],"properties":{"市区町村名":"空知郡奈井江町","大字名":null,"丁目名":null,"小字名":"字奈井江","地番":"121-1","精度区分":null,"座標系":"任意座標系"}},{"type":"Polygon","arcs":[[246,247,248]],"properties":{"市区町村名":"空知郡奈井江町","大字名":null,"丁目名":null,"小字名":"字奈井江","地番":"114-2","精度区分":null,"座標系":"任意座標系"}},{"type":"Polygon","arcs":[[249,250,251,252]],"properties":{"市区町村名":"空知郡奈井江町","大字名":null,"丁目名":null,"小字名":"字奈井江","地番":"110-2","精度区分":null,"座標系":"任意座標系"}},{"type":"Polygon","arcs":[[-253,253,-247,254]],"properties":{"市区町村名":"空知郡奈井江町","大字名":null,"丁目名":null,"小字名":"字奈井江","地番":"111-2","精度区分":null,"座標系":"任意座標系"}},{"type":"Polygon","arcs":[[255,256,-251,257]],"properties":{"市区町村名":"空知郡奈井江町","大字名":null,"丁目名":null,"小字名":"字奈井江","地番":"109-2","精度区分":null,"座標系":"任意座標系"}},{"type":"Polygon","arcs":[[258,259,-256,260]],"properties":{"市区町村名":"空知郡奈井江町","大字名":null,"丁目名":null,"小字名":"字奈井江","地番":"104-2","精度区分":null,"座標系":"任意座標系"}},{"type":"Polygon","arcs":[[-212,261,-259,262]],"properties":{"市区町村名":"空知郡奈井江町","大字名":null,"丁目名":null,"小字名":"字奈井江","地番":"101-2","精度区分":null,"座標系":"任意座標系"}},{"type":"Polygon","arcs":[[263,264,265,266,267,268,269,270,271]],"properties":{"市区町村名":"空知郡奈井江町","大字名":null,"丁目名":null,"小字名":"字奈井江","地番":"1421-5","精度区分":null,"座標系":"任意座標系"}},{"type":"Polygon","arcs":[[272,273,274]],"properties":{"市区町村名":"空知郡奈井江町","大字名":null,"丁目名":null,"小字名":"字奈井江","地番":"570-11","精度区分":null,"座標系":"任意座標系"}},{"type":"Polygon","arcs":[[275,276,277,278,279]],"properties":{"市区町村名":"空知郡奈井江町","大字名":null,"丁目名":null,"小字名":"字奈井江","地番":"567-2","精度区分":null,"座標系":"任意座標系"}},{"type":"Polygon","arcs":[[280,281,282,283]],"properties":{"市区町村名":"空知郡奈井江町","大字名":null,"丁目名":null,"小字名":"字奈井江","地番":"565-2","精度区分":null,"座標系":"任意座標系"}},{"type":"Polygon","arcs":[[284,285,286,287,288,289]],"properties":{"市区町村名":"空知郡奈井江町","大字名":null,"丁目名":null,"小字名":"字奈井江","地番":"長狭物不明-11","精度区分":null,"座標系":"任意座標系"}},{"type":"Polygon","arcs":[[290,291,292,293,294,-289]],"properties":{"市区町村名":"空知郡奈井江町","大字名":null,"丁目名":null,"小字名":"字奈井江","地番":"564-11","精度区分":null,"座標系":"任意座標系"}},{"type":"Polygon","arcs":[[295,-285,296,297,298,299,300,301,302,303,304,-264,305,306,307,308]],"properties":{"市区町村名":"空知郡奈井江町","大字名":null,"丁目名":null,"小字名":"字奈井江","地番":"1421-4","精度区分":null,"座標系":"任意座標系"}},{"type":"Polygon","arcs":[[309,310,-276,311]],"properties":{"市区町村名":"空知郡奈井江町","大字名":null,"丁目名":null,"小字名":"字奈井江","地番":"566-10","精度区分":null,"座標系":"任意座標系"}},{"type":"Polygon","arcs":[[312,313,314,-300]],"properties":{"市区町村名":"空知郡奈井江町","大字名":null,"丁目名":null,"小字名":"字奈井江","地番":"564-19","精度区分":null,"座標系":"任意座標系"}},{"type":"Polygon","arcs":[[315,316,317,-314]],"properties":{"市区町村名":"空知郡奈井江町","大字名":null,"丁目名":null,"小字名":"字奈井江","地番":"564-1","精度区分":null,"座標系":"任意座標系"}},{"type":"Polygon","arcs":[[318,319,320,321,322]],"properties":{"市区町村名":"空知郡奈井江町","大字名":null,"丁目名":null,"小字名":"字奈井江","地番":"566-8","精度区分":null,"座標系":"任意座標系"}},{"type":"Polygon","arcs":[[323,324,-319,-317]],"properties":{"市区町村名":"空知郡奈井江町","大字名":null,"丁目名":null,"小字名":"字奈井江","地番":"564-8","精度区分":null,"座標系":"任意座標系"}},{"type":"Polygon","arcs":[[325,326,-281,327]],"properties":{"市区町村名":"空知郡奈井江町","大字名":null,"丁目名":null,"小字名":"字奈井江","地番":"565-3","精度区分":null,"座標系":"任意座標系"}},{"type":"Polygon","arcs":[[-290,-295,-297]],"properties":{"市区町村名":"空知郡奈井江町","大字名":null,"丁目名":null,"小字名":"字奈井江","地番":"1421-7","精度区分":null,"座標系":"任意座標系"}},{"type":"Polygon","arcs":[[328,329,330,331,332]],"properties":{"市区町村名":"空知郡奈井江町","大字名":null,"丁目名":null,"小字名":"字奈井江","地番":"561-15","精度区分":null,"座標系":"任意座標系"}},{"type":"Polygon","arcs":[[333,334,335,-316,336,337,338,339]],"properties":{"市区町村名":"空知郡奈井江町","大字名":null,"丁目名":null,"小字名":"字奈井江","地番":"564-2","精度区分":null,"座標系":"任意座標系"}},{"type":"Polygon","arcs":[[340,-339,341]],"properties":{"市区町村名":"空知郡奈井江町","大字名":null,"丁目名":null,"小字名":"字奈井江","地番":"564-4","精度区分":null,"座標系":"任意座標系"}},{"type":"Polygon","arcs":[[342,343,344,-340]],"properties":{"市区町村名":"空知郡奈井江町","大字名":null,"丁目名":null,"小字名":"字奈井江","地番":"564-14","精度区分":null,"座標系":"任意座標系"}},{"type":"Polygon","arcs":[[345,-343,-341,-292]],"properties":{"市区町村名":"空知郡奈井江町","大字名":null,"丁目名":null,"小字名":"字奈井江","地番":"564-12","精度区分":null,"座標系":"任意座標系"}},{"type":"Polygon","arcs":[[-293,-342,-338,346]],"properties":{"市区町村名":"空知郡奈井江町","大字名":null,"丁目名":null,"小字名":"字奈井江","地番":"564-3","精度区分":null,"座標系":"任意座標系"}},{"type":"Polygon","arcs":[[347,348,349,-334]],"properties":{"市区町村名":"空知郡奈井江町","大字名":null,"丁目名":null,"小字名":"字奈井江","地番":"564-7","精度区分":null,"座標系":"任意座標系"}},{"type":"Polygon","arcs":[[-350,350,351,352,-335]],"properties":{"市区町村名":"空知郡奈井江町","大字名":null,"丁目名":null,"小字名":"字奈井江","地番":"564-13","精度区分":null,"座標系":"任意座標系"}},{"type":"Polygon","arcs":[[353,354,-324,-336,-353]],"properties":{"市区町村名":"空知郡奈井江町","大字名":null,"丁目名":null,"小字名":"字奈井江","地番":"564-9","精度区分":null,"座標系":"任意座標系"}},{"type":"Polygon","arcs":[[355,-354,356,-283]],"properties":{"市区町村名":"空知郡奈井江町","大字名":null,"丁目名":null,"小字名":"字奈井江","地番":"564-10","精度区分":null,"座標系":"任意座標系"}},{"type":"Polygon","arcs":[[357,358,-326,359]],"properties":{"市区町村名":"空知郡奈井江町","大字名":null,"丁目名":null,"小字名":"字奈井江","地番":"564-15","精度区分":null,"座標系":"任意座標系"}},{"type":"Polygon","arcs":[[360,361,-358,362]],"properties":{"市区町村名":"空知郡奈井江町","大字名":null,"丁目名":null,"小字名":"字奈井江","地番":"564-16","精度区分":null,"座標系":"任意座標系"}},{"type":"Polygon","arcs":[[-328,-284,363]],"properties":{"市区町村名":"空知郡奈井江町","大字名":null,"丁目名":null,"小字名":"字奈井江","地番":"565-1","精度区分":null,"座標系":"任意座標系"}},{"type":"Polygon","arcs":[[364,-360,-364,-357,-352]],"properties":{"市区町村名":"空知郡奈井江町","大字名":null,"丁目名":null,"小字名":"字奈井江","地番":"564-5","精度区分":null,"座標系":"任意座標系"}},{"type":"Polygon","arcs":[[365,-361,-348,-345]],"properties":{"市区町村名":"空知郡奈井江町","大字名":null,"丁目名":null,"小字名":"字奈井江","地番":"564-17","精度区分":null,"座標系":"任意座標系"}},{"type":"Polygon","arcs":[[-321,366,367,368]],"properties":{"市区町村名":"空知郡奈井江町","大字名":null,"丁目名":null,"小字名":"字奈井江","地番":"566-7","精度区分":null,"座標系":"任意座標系"}},{"type":"Polygon","arcs":[[369,-369,370,-303]],"properties":{"市区町村名":"空知郡奈井江町","大字名":null,"丁目名":null,"小字名":"字奈井江","地番":"566-2","精度区分":null,"座標系":"任意座標系"}},{"type":"Polygon","arcs":[[371,372,-304,-371]],"properties":{"市区町村名":"空知郡奈井江町","大字名":null,"丁目名":null,"小字名":"字奈井江","地番":"566-5","精度区分":null,"座標系":"任意座標系"}},{"type":"Polygon","arcs":[[373,374,-310,375,376,377]],"properties":{"市区町村名":"空知郡奈井江町","大字名":null,"丁目名":null,"小字名":"字奈井江","地番":"566-11","精度区分":null,"座標系":"任意座標系"}},{"type":"Polygon","arcs":[[378,-374,-372,-368]],"properties":{"市区町村名":"空知郡奈井江町","大字名":null,"丁目名":null,"小字名":"字奈井江","地番":"566-9","精度区分":null,"座標系":"任意座標系"}},{"type":"Polygon","arcs":[[379,-377,380]],"properties":{"市区町村名":"空知郡奈井江町","大字名":null,"丁目名":null,"小字名":"字奈井江","地番":"566-13","精度区分":null,"座標系":"任意座標系"}},{"type":"Polygon","arcs":[[381,382,-312,383]],"properties":{"市区町村名":"空知郡奈井江町","大字名":null,"丁目名":null,"小字名":"字奈井江","地番":"566-4","精度区分":null,"座標系":"任意座標系"}},{"type":"Polygon","arcs":[[-382,384,385]],"properties":{"市区町村名":"空知郡奈井江町","大字名":null,"丁目名":null,"小字名":"字奈井江","地番":"566-6","精度区分":null,"座標系":"任意座標系"}},{"type":"Polygon","arcs":[[386,-275,387,388,389,390,391,-267,392,393]],"properties":{"市区町村名":"空知郡奈井江町","大字名":null,"丁目名":null,"小字名":"字奈井江","地番":"570-1","精度区分":null,"座標系":"任意座標系"}},{"type":"Polygon","arcs":[[394,-279,395,396]],"properties":{"市区町村名":"空知郡奈井江町","大字名":null,"丁目名":null,"小字名":"字奈井江","地番":"567-1","精度区分":null,"座標系":"任意座標系"}},{"type":"Polygon","arcs":[[397,398,399,-396]],"properties":{"市区町村名":"空知郡奈井江町","大字名":null,"丁目名":null,"小字名":"字奈井江","地番":"568-1","精度区分":null,"座標系":"任意座標系"}},{"type":"Polygon","arcs":[[400,401,402,403]],"properties":{"市区町村名":"空知郡奈井江町","大字名":null,"丁目名":null,"小字名":"字奈井江","地番":"569-2","精度区分":null,"座標系":"任意座標系"}},{"type":"Polygon","arcs":[[404,-401,-398,-278]],"properties":{"市区町村名":"空知郡奈井江町","大字名":null,"丁目名":null,"小字名":"字奈井江","地番":"568-2","精度区分":null,"座標系":"任意座標系"}},{"type":"Polygon","arcs":[[-403,405,406,407]],"properties":{"市区町村名":"空知郡奈井江町","大字名":null,"丁目名":null,"小字名":"字奈井江","地番":"570-8","精度区分":null,"座標系":"任意座標系"}},{"type":"Polygon","arcs":[[-407,408,409,410]],"properties":{"市区町村名":"空知郡奈井江町","大字名":null,"丁目名":null,"小字名":"字奈井江","地番":"570-9","精度区分":null,"座標系":"任意座標系"}},{"type":"Polygon","arcs":[[-410,411,412,413,414]],"properties":{"市区町村名":"空知郡奈井江町","大字名":null,"丁目名":null,"小字名":"字奈井江","地番":"570-10","精度区分":null,"座標系":"任意座標系"}},{"type":"Polygon","arcs":[[-413,415,-273,-387,416]],"properties":{"市区町村名":"空知郡奈井江町","大字名":null,"丁目名":null,"小字名":"字奈井江","地番":"570-7","精度区分":null,"座標系":"任意座標系"}},{"type":"Polygon","arcs":[[417,-414,-417,-394,418]],"properties":{"市区町村名":"空知郡奈井江町","大字名":null,"丁目名":null,"小字名":"字奈井江","地番":"570-6","精度区分":null,"座標系":"任意座標系"}},{"type":"Polygon","arcs":[[-399,-404,-408,-411,-415,-418,419]],"properties":{"市区町村名":"空知郡奈井江町","大字名":null,"丁目名":null,"小字名":"字奈井江","地番":"569-1","精度区分":null,"座標系":"任意座標系"}},{"type":"Polygon","arcs":[[-391,420,-389,421]],"properties":{"市区町村名":"空知郡奈井江町","大字名":null,"丁目名":null,"小字名":"字奈井江","地番":"570-4","精度区分":null,"座標系":"任意座標系"}},{"type":"Polygon","arcs":[[-390,-421]],"properties":{"市区町村名":"空知郡奈井江町","大字名":null,"丁目名":null,"小字名":"字奈井江","地番":"571-2","精度区分":null,"座標系":"任意座標系"}},{"type":"Polygon","arcs":[[422,423,424,-329]],"properties":{"市区町村名":"空知郡奈井江町","大字名":null,"丁目名":null,"小字名":"字奈井江","地番":"559-3","精度区分":null,"座標系":"任意座標系"}},{"type":"Polygon","arcs":[[425,-423,426,427,428]],"properties":{"市区町村名":"空知郡奈井江町","大字名":null,"丁目名":null,"小字名":"字奈井江","地番":"559-2","精度区分":null,"座標系":"任意座標系"}},{"type":"Polygon","arcs":[[-429,429,430,431]],"properties":{"市区町村名":"空知郡奈井江町","大字名":null,"丁目名":null,"小字名":"字奈井江","地番":"560","精度区分":null,"座標系":"任意座標系"}},{"type":"Polygon","arcs":[[-430,-428,432,-332,433,434]],"properties":{"市区町村名":"空知郡奈井江町","大字名":null,"丁目名":null,"小字名":"字奈井江","地番":"561-7","精度区分":null,"座標系":"任意座標系"}},{"type":"Polygon","arcs":[[-427,-333,-433]],"properties":{"市区町村名":"空知郡奈井江町","大字名":null,"丁目名":null,"小字名":"字奈井江","地番":"561-16","精度区分":null,"座標系":"任意座標系"}},{"type":"Polygon","arcs":[[-306,-272,435]],"properties":{"市区町村名":"空知郡奈井江町","大字名":null,"丁目名":null,"小字名":"字奈井江","地番":"長狭物不明-12","精度区分":null,"座標系":"任意座標系"}},{"type":"Polygon","arcs":[[436,437,-270,438,439,440,441,442]],"properties":{"市区町村名":"空知郡奈井江町","大字名":null,"丁目名":null,"小字名":"字奈井江","地番":"長狭物不明-13","精度区分":null,"座標系":"任意座標系"}},{"type":"Polygon","arcs":[[443,-437,444,-308]],"properties":{"市区町村名":"空知郡奈井江町","大字名":null,"丁目名":null,"小字名":"字奈井江","地番":"1421-8","精度区分":null,"座標系":"任意座標系"}},{"type":"Polygon","arcs":[[445,-322,-370,-302]],"properties":{"市区町村名":"空知郡奈井江町","大字名":null,"丁目名":null,"小字名":"字奈井江","地番":"566-3","精度区分":null,"座標系":"任意座標系"}},{"type":"Polygon","arcs":[[446,-337,-313,-299]],"properties":{"市区町村名":"空知郡奈井江町","大字名":null,"丁目名":null,"小字名":"字奈井江","地番":"564-20","精度区分":null,"座標系":"任意座標系"}},{"type":"Polygon","arcs":[[-349,-363,-365,-351]],"properties":{"市区町村名":"空知郡奈井江町","大字名":null,"丁目名":null,"小字名":"字奈井江","地番":"564-6","精度区分":null,"座標系":"任意座標系"}},{"type":"Polygon","arcs":[[-347,-447,-298,-294]],"properties":{"市区町村名":"空知郡奈井江町","大字名":null,"丁目名":null,"小字名":"字奈井江","地番":"564-18","精度区分":null,"座標系":"任意座標系"}},{"type":"Polygon","arcs":[[-315,-318,-323,-446,-301]],"properties":{"市区町村名":"空知郡奈井江町","大字名":null,"丁目名":null,"小字名":"字奈井江","地番":"566-14","精度区分":null,"座標系":"任意座標系"}},{"type":"Polygon","arcs":[[447,448]],"properties":{"市区町村名":"空知郡奈井江町","大字名":null,"丁目名":null,"小字名":"字奈井江","地番":"1297-2","精度区分":null,"座標系":"任意座標系"}},{"type":"Polygon","arcs":[[449,450,451,452,-448,453,454]],"properties":{"市区町村名":"空知郡奈井江町","大字名":null,"丁目名":null,"小字名":"字奈井江","地番":"1297-1","精度区分":null,"座標系":"任意座標系"}},{"type":"Polygon","arcs":[[455,456]],"properties":{"市区町村名":"空知郡奈井江町","大字名":null,"丁目名":null,"小字名":"字奈井江","地番":"505-7","精度区分":null,"座標系":"任意座標系"}},{"type":"Polygon","arcs":[[-457,457,-2,458,459]],"properties":{"市区町村名":"空知郡奈井江町","大字名":null,"丁目名":null,"小字名":"字奈井江","地番":"508-2","精度区分":null,"座標系":"任意座標系"}},{"type":"Polygon","arcs":[[460,461,462,463,-13]],"properties":{"市区町村名":"空知郡奈井江町","大字名":null,"丁目名":null,"小字名":"字奈井江","地番":"520-4","精度区分":null,"座標系":"任意座標系"}},{"type":"Polygon","arcs":[[464,465,-11,466]],"properties":{"市区町村名":"空知郡奈井江町","大字名":null,"丁目名":null,"小字名":"字奈井江","地番":"517-2","精度区分":null,"座標系":"任意座標系"}},{"type":"Polygon","arcs":[[467,-465,468,469]],"properties":{"市区町村名":"空知郡奈井江町","大字名":null,"丁目名":null,"小字名":"字奈井江","地番":"515-2","精度区分":null,"座標系":"任意座標系"}},{"type":"Polygon","arcs":[[470,471,472,-470]],"properties":{"市区町村名":"空知郡奈井江町","大字名":null,"丁目名":null,"小字名":"字奈井江","地番":"516-2","精度区分":null,"座標系":"任意座標系"}},{"type":"Polygon","arcs":[[473,474,-34]],"properties":{"市区町村名":"空知郡奈井江町","大字名":null,"丁目名":null,"小字名":"字奈井江","地番":"485-5","精度区分":null,"座標系":"任意座標系"}},{"type":"Polygon","arcs":[[475,476,-474,-33]],"properties":{"市区町村名":"空知郡奈井江町","大字名":null,"丁目名":null,"小字名":"字奈井江","地番":"485-8","精度区分":null,"座標系":"任意座標系"}},{"type":"Polygon","arcs":[[477,478,-476,-32]],"properties":{"市区町村名":"空知郡奈井江町","大字名":null,"丁目名":null,"小字名":"字奈井江","地番":"485-6","精度区分":null,"座標系":"任意座標系"}},{"type":"Polygon","arcs":[[479,480,-478,-31]],"properties":{"市区町村名":"空知郡奈井江町","大字名":null,"丁目名":null,"小字名":"字奈井江","地番":"485-7","精度区分":null,"座標系":"任意座標系"}},{"type":"Polygon","arcs":[[481,-4]],"properties":{"市区町村名":"空知郡奈井江町","大字名":null,"丁目名":null,"小字名":"字奈井江","地番":"511","精度区分":null,"座標系":"任意座標系"}},{"type":"Polygon","arcs":[[-1,482,-459]],"properties":{"市区町村名":"空知郡奈井江町","大字名":null,"丁目名":null,"小字名":"字奈井江","地番":"507-3","精度区分":null,"座標系":"任意座標系"}},{"type":"Polygon","arcs":[[-6,483]],"properties":{"市区町村名":"空知郡奈井江町","大字名":null,"丁目名":null,"小字名":"字奈井江","地番":"514","精度区分":null,"座標系":"任意座標系"}},{"type":"Polygon","arcs":[[484,-472,485,-57,-8]],"properties":{"市区町村名":"空知郡奈井江町","大字名":null,"丁目名":null,"小字名":"字奈井江","地番":"513-2","精度区分":null,"座標系":"任意座標系"}},{"type":"Polygon","arcs":[[-24,486]],"properties":{"市区町村名":"空知郡奈井江町","大字名":null,"丁目名":null,"小字名":"字奈井江","地番":"483-6","精度区分":null,"座標系":"任意座標系"}},{"type":"Polygon","arcs":[[487,-51,488,-54]],"properties":{"市区町村名":"空知郡奈井江町","大字名":null,"丁目名":null,"小字名":"字奈井江","地番":"502-12","精度区分":null,"座標系":"任意座標系"}},{"type":"Polygon","arcs":[[-22,489,-20,490,-52,491]],"properties":{"市区町村名":"空知郡奈井江町","大字名":null,"丁目名":null,"小字名":"字奈井江","地番":"長狭物不明-15","精度区分":null,"座標系":"任意座標系"}},{"type":"Polygon","arcs":[[492,493,494,495]],"properties":{"市区町村名":"空知郡奈井江町","大字名":null,"丁目名":null,"小字名":"字奈井江","地番":"502-27","精度区分":null,"座標系":"任意座標系"}},{"type":"Polygon","arcs":[[496,497,498,-493]],"properties":{"市区町村名":"空知郡奈井江町","大字名":null,"丁目名":null,"小字名":"字奈井江","地番":"502-23","精度区分":null,"座標系":"任意座標系"}},{"type":"Polygon","arcs":[[-498,499,-70,500,501]],"properties":{"市区町村名":"空知郡奈井江町","大字名":null,"丁目名":null,"小字名":"字奈井江","地番":"502-24","精度区分":null,"座標系":"任意座標系"}},{"type":"Polygon","arcs":[[-69,502,503,504,-501]],"properties":{"市区町村名":"空知郡奈井江町","大字名":null,"丁目名":null,"小字名":"字奈井江","地番":"502-25","精度区分":null,"座標系":"任意座標系"}},{"type":"Polygon","arcs":[[505,506,507,508]],"properties":{"市区町村名":"空知郡奈井江町","大字名":null,"丁目名":null,"小字名":"字奈井江","地番":"503-4","精度区分":null,"座標系":"任意座標系"}},{"type":"Polygon","arcs":[[509,-18,510,511]],"properties":{"市区町村名":"空知郡奈井江町","大字名":null,"丁目名":null,"小字名":"字奈井江","地番":"496-2","精度区分":null,"座標系":"任意座標系"}},{"type":"Polygon","arcs":[[512,513,514,-512]],"properties":{"市区町村名":"空知郡奈井江町","大字名":null,"丁目名":null,"小字名":"字奈井江","地番":"497-2","精度区分":null,"座標系":"任意座標系"}},{"type":"Polygon","arcs":[[-514,515,516,517]],"properties":{"市区町村名":"空知郡奈井江町","大字名":null,"丁目名":null,"小字名":"字奈井江","地番":"498-2","精度区分":null,"座標系":"任意座標系"}},{"type":"Polygon","arcs":[[-517,518,519,520]],"properties":{"市区町村名":"空知郡奈井江町","大字名":null,"丁目名":null,"小字名":"字奈井江","地番":"502-6","精度区分":null,"座標系":"任意座標系"}},{"type":"Polygon","arcs":[[-520,521,-506]],"properties":{"市区町村名":"空知郡奈井江町","大字名":null,"丁目名":null,"小字名":"字奈井江","地番":"503-3","精度区分":null,"座標系":"任意座標系"}},{"type":"Polygon","arcs":[[522,523,-43,-508,524,525]],"properties":{"市区町村名":"空知郡奈井江町","大字名":null,"丁目名":null,"小字名":"字奈井江","地番":"503-5","精度区分":null,"座標系":"任意座標系"}},{"type":"Polygon","arcs":[[526,527,-504,528]],"properties":{"市区町村名":"空知郡奈井江町","大字名":null,"丁目名":null,"小字名":"字奈井江","地番":"502-17","精度区分":null,"座標系":"任意座標系"}},{"type":"Polygon","arcs":[[-494,-499,-502,-505,529,530,531,532]],"properties":{"市区町村名":"空知郡奈井江町","大字名":null,"丁目名":null,"小字名":"字奈井江","地番":"503-1","精度区分":null,"座標系":"任意座標系"}},{"type":"Polygon","arcs":[[-528,-526,533,-530]],"properties":{"市区町村名":"空知郡奈井江町","大字名":null,"丁目名":null,"小字名":"字奈井江","地番":"503-6","精度区分":null,"座標系":"任意座標系"}},{"type":"Polygon","arcs":[[-462,534,-16]],"properties":{"市区町村名":"空知郡奈井江町","大字名":null,"丁目名":null,"小字名":"字奈井江","地番":"520-2","精度区分":null,"座標系":"任意座標系"}},{"type":"Polygon","arcs":[[-15,535,-463]],"properties":{"市区町村名":"空知郡奈井江町","大字名":null,"丁目名":null,"小字名":"字奈井江","地番":"520-6","精度区分":null,"座標系":"任意座標系"}},{"type":"Polygon","arcs":[[536,537,-480,-30]],"properties":{"市区町村名":"空知郡奈井江町","大字名":null,"丁目名":null,"小字名":"字奈井江","地番":"484-6","精度区分":null,"座標系":"任意座標系"}},{"type":"Polygon","arcs":[[-66,538,539,-28]],"properties":{"市区町村名":"空知郡奈井江町","大字名":null,"丁目名":null,"小字名":"字奈井江","地番":"484-7","精度区分":null,"座標系":"任意座標系"}},{"type":"Polygon","arcs":[[-540,540,-537,-29]],"properties":{"市区町村名":"空知郡奈井江町","大字名":null,"丁目名":null,"小字名":"字奈井江","地番":"484-8","精度区分":null,"座標系":"任意座標系"}},{"type":"Polygon","arcs":[[541,-532,542]],"properties":{"市区町村名":"空知郡奈井江町","大字名":null,"丁目名":null,"小字名":"字奈井江","地番":"502-18","精度区分":null,"座標系":"任意座標系"}},{"type":"Polygon","arcs":[[543,-495,-533,-542]],"properties":{"市区町村名":"空知郡奈井江町","大字名":null,"丁目名":null,"小字名":"字奈井江","地番":"502-28","精度区分":null,"座標系":"任意座標系"}},{"type":"Polygon","arcs":[[544,-523,-527]],"properties":{"市区町村名":"空知郡奈井江町","大字名":null,"丁目名":null,"小字名":"字奈井江","地番":"502-8","精度区分":null,"座標系":"任意座標系"}},{"type":"Polygon","arcs":[[545,546,547,548,549,550,551]],"properties":{"市区町村名":"空知郡奈井江町","大字名":null,"丁目名":null,"小字名":"字奈井江","地番":"長狭物不明-16","精度区分":null,"座標系":"任意座標系"}},{"type":"Polygon","arcs":[[552,-547,553,554]],"properties":{"市区町村名":"空知郡奈井江町","大字名":null,"丁目名":null,"小字名":"字奈井江","地番":"379-2","精度区分":null,"座標系":"任意座標系"}},{"type":"Polygon","arcs":[[555,-551,556]],"properties":{"市区町村名":"空知郡奈井江町","大字名":null,"丁目名":null,"小字名":"字奈井江","地番":"365-5","精度区分":null,"座標系":"任意座標系"}},{"type":"Polygon","arcs":[[557,-548,-553,558]],"properties":{"市区町村名":"空知郡奈井江町","大字名":null,"丁目名":null,"小字名":"字奈井江","地番":"378-4","精度区分":null,"座標系":"任意座標系"}},{"type":"Polygon","arcs":[[559,-549,-558,560]],"properties":{"市区町村名":"空知郡奈井江町","大字名":null,"丁目名":null,"小字名":"字奈井江","地番":"378-5","精度区分":null,"座標系":"任意座標系"}},{"type":"Polygon","arcs":[[-557,-550,-560,561]],"properties":{"市区町村名":"空知郡奈井江町","大字名":null,"丁目名":null,"小字名":"字奈井江","地番":"365-6","精度区分":null,"座標系":"任意座標系"}},{"type":"Polygon","arcs":[[562]],"properties":{"市区町村名":"空知郡奈井江町","大字名":null,"丁目名":null,"小字名":"字奈井江","地番":"386-2","精度区分":null,"座標系":"任意座標系"}},{"type":"Polygon","arcs":[[-554,-546,563]],"properties":{"市区町村名":"空知郡奈井江町","大字名":null,"丁目名":null,"小字名":"字奈井江","地番":"380","精度区分":null,"座標系":"任意座標系"}},{"type":"Polygon","arcs":[[564,565,566]],"properties":{"市区町村名":"空知郡奈井江町","大字名":null,"丁目名":null,"小字名":"字奈井江","地番":"533-2","精度区分":null,"座標系":"任意座標系"}},{"type":"Polygon","arcs":[[567,-565,568]],"properties":{"市区町村名":"空知郡奈井江町","大字名":null,"丁目名":null,"小字名":"字奈井江","地番":"532-2","精度区分":null,"座標系":"任意座標系"}},{"type":"Polygon","arcs":[[569,570]],"properties":{"市区町村名":"空知郡奈井江町","大字名":null,"丁目名":null,"小字名":"字奈井江","地番":"1421-11","精度区分":null,"座標系":"任意座標系"}},{"type":"Polygon","arcs":[[571,572,573,574]],"properties":{"市区町村名":"空知郡奈井江町","大字名":null,"丁目名":null,"小字名":"字奈井江","地番":"539","精度区分":null,"座標系":"任意座標系"}},{"type":"Polygon","arcs":[[575,576,577,578]],"properties":{"市区町村名":"空知郡奈井江町","大字名":null,"丁目名":null,"小字名":"字奈井江","地番":"552-1","精度区分":null,"座標系":"任意座標系"}},{"type":"Polygon","arcs":[[-578,579,580,581]],"properties":{"市区町村名":"空知郡奈井江町","大字名":null,"丁目名":null,"小字名":"字奈井江","地番":"552-3","精度区分":null,"座標系":"任意座標系"}},{"type":"Polygon","arcs":[[582,583,584,585,586]],"properties":{"市区町村名":"空知郡奈井江町","大字名":null,"丁目名":null,"小字名":"字奈井江","地番":"543-11","精度区分":null,"座標系":"任意座標系"}},{"type":"Polygon","arcs":[[587,588,-583,589]],"properties":{"市区町村名":"空知郡奈井江町","大字名":null,"丁目名":null,"小字名":"字奈井江","地番":"543-7","精度区分":null,"座標系":"任意座標系"}},{"type":"Polygon","arcs":[[590,591,-588,592]],"properties":{"市区町村名":"空知郡奈井江町","大字名":null,"丁目名":null,"小字名":"字奈井江","地番":"542-6","精度区分":null,"座標系":"任意座標系"}},{"type":"Polygon","arcs":[[593,-587,594,595]],"properties":{"市区町村名":"空知郡奈井江町","大字名":null,"丁目名":null,"小字名":"字奈井江","地番":"543-3","精度区分":null,"座標系":"任意座標系"}},{"type":"Polygon","arcs":[[596,597,598,599,-590,-594,600,601,602]],"properties":{"市区町村名":"空知郡奈井江町","大字名":null,"丁目名":null,"小字名":"字奈井江","地番":"543-1","精度区分":null,"座標系":"任意座標系"}},{"type":"Polygon","arcs":[[-601,-596,603,604,605]],"properties":{"市区町村名":"空知郡奈井江町","大字名":null,"丁目名":null,"小字名":"字奈井江","地番":"543-10","精度区分":null,"座標系":"任意座標系"}},{"type":"Polygon","arcs":[[606,-602,-606,607]],"properties":{"市区町村名":"空知郡奈井江町","大字名":null,"丁目名":null,"小字名":"字奈井江","地番":"543-9","精度区分":null,"座標系":"任意座標系"}},{"type":"Polygon","arcs":[[-603,-607,608,609]],"properties":{"市区町村名":"空知郡奈井江町","大字名":null,"丁目名":null,"小字名":"字奈井江","地番":"543-8","精度区分":null,"座標系":"任意座標系"}},{"type":"Polygon","arcs":[[610,611,-591,612]],"properties":{"市区町村名":"空知郡奈井江町","大字名":null,"丁目名":null,"小字名":"字奈井江","地番":"542-5","精度区分":null,"座標系":"任意座標系"}},{"type":"Polygon","arcs":[[613,614,-613,615]],"properties":{"市区町村名":"空知郡奈井江町","大字名":null,"丁目名":null,"小字名":"字奈井江","地番":"542-4","精度区分":null,"座標系":"任意座標系"}},{"type":"Polygon","arcs":[[616,-614,617,-599,618,619]],"properties":{"市区町村名":"空知郡奈井江町","大字名":null,"丁目名":null,"小字名":"字奈井江","地番":"542-2","精度区分":null,"座標系":"任意座標系"}},{"type":"Polygon","arcs":[[-595,-586,620,-604]],"properties":{"市区町村名":"空知郡奈井江町","大字名":null,"丁目名":null,"小字名":"字奈井江","地番":"543-12","精度区分":null,"座標系":"任意座標系"}},{"type":"Polygon","arcs":[[621,-220,622]],"properties":{"市区町村名":"空知郡奈井江町","大字名":null,"丁目名":null,"小字名":"字奈井江","地番":"89-5","精度区分":null,"座標系":"任意座標系"}},{"type":"Polygon","arcs":[[623,624,625,626,627]],"properties":{"市区町村名":"空知郡奈井江町","大字名":null,"丁目名":null,"小字名":"字奈井江","地番":"78-7","精度区分":null,"座標系":"任意座標系"}},{"type":"Polygon","arcs":[[628,629,-626,630]],"properties":{"市区町村名":"空知郡奈井江町","大字名":null,"丁目名":null,"小字名":"字奈井江","地番":"78-10","精度区分":null,"座標系":"任意座標系"}},{"type":"Polygon","arcs":[[631,-631]],"properties":{"市区町村名":"空知郡奈井江町","大字名":null,"丁目名":null,"小字名":"字奈井江","地番":"78-6","精度区分":null,"座標系":"任意座標系"}},{"type":"Polygon","arcs":[[632,633,634,635,636,637]],"properties":{"市区町村名":"空知郡奈井江町","大字名":null,"丁目名":null,"小字名":"字奈井江","地番":"81-1","精度区分":null,"座標系":"任意座標系"}},{"type":"Polygon","arcs":[[638,639,640,641]],"properties":{"市区町村名":"空知郡奈井江町","大字名":null,"丁目名":null,"小字名":"字奈井江","地番":"83-1","精度区分":null,"座標系":"任意座標系"}},{"type":"Polygon","arcs":[[642,643,-639]],"properties":{"市区町村名":"空知郡奈井江町","大字名":null,"丁目名":null,"小字名":"字奈井江","地番":"83-2","精度区分":null,"座標系":"任意座標系"}},{"type":"Polygon","arcs":[[644,645,646,647]],"properties":{"市区町村名":"空知郡奈井江町","大字名":null,"丁目名":null,"小字名":"字奈井江","地番":"84-3","精度区分":null,"座標系":"任意座標系"}},{"type":"Polygon","arcs":[[648,649,-629,650,651]],"properties":{"市区町村名":"空知郡奈井江町","大字名":null,"丁目名":null,"小字名":"字奈井江","地番":"78-8","精度区分":null,"座標系":"任意座標系"}},{"type":"Polygon","arcs":[[652,-650]],"properties":{"市区町村名":"空知郡奈井江町","大字名":null,"丁目名":null,"小字名":"字奈井江","地番":"78-3","精度区分":null,"座標系":"任意座標系"}},{"type":"Polygon","arcs":[[653,-633,-627]],"properties":{"市区町村名":"空知郡奈井江町","大字名":null,"丁目名":null,"小字名":"字奈井江","地番":"78-1","精度区分":null,"座標系":"任意座標系"}},{"type":"Polygon","arcs":[[-628,-638,654]],"properties":{"市区町村名":"空知郡奈井江町","大字名":null,"丁目名":null,"小字名":"字奈井江","地番":"81-4","精度区分":null,"座標系":"任意座標系"}},{"type":"Polygon","arcs":[[-651,-632,-625,655]],"properties":{"市区町村名":"空知郡奈井江町","大字名":null,"丁目名":null,"小字名":"字奈井江","地番":"78-5","精度区分":null,"座標系":"任意座標系"}},{"type":"Polygon","arcs":[[656,657,658,659]],"properties":{"市区町村名":"空知郡奈井江町","大字名":null,"丁目名":null,"小字名":"字奈井江","地番":"78-13","精度区分":null,"座標系":"任意座標系"}},{"type":"Polygon","arcs":[[660,661,-648,662]],"properties":{"市区町村名":"空知郡奈井江町","大字名":null,"丁目名":null,"小字名":"字奈井江","地番":"84-5","精度区分":null,"座標系":"任意座標系"}},{"type":"Polygon","arcs":[[663,-658,664,-662]],"properties":{"市区町村名":"空知郡奈井江町","大字名":null,"丁目名":null,"小字名":"字奈井江","地番":"84-6","精度区分":null,"座標系":"任意座標系"}},{"type":"Polygon","arcs":[[-616,-593,-600,-618]],"properties":{"市区町村名":"空知郡奈井江町","大字名":null,"丁目名":null,"小字名":"字奈井江","地番":"542-3","精度区分":null,"座標系":"任意座標系"}},{"type":"Polygon","arcs":[[665,666,667,-92,-74]],"properties":{"市区町村名":"空知郡奈井江町","大字名":null,"丁目名":null,"小字名":"字奈井江","地番":"844-5","精度区分":null,"座標系":"任意座標系"}},{"type":"Polygon","arcs":[[-666,-73,668]],"properties":{"市区町村名":"空知郡奈井江町","大字名":null,"丁目名":null,"小字名":"字奈井江","地番":"844-8","精度区分":null,"座標系":"任意座標系"}},{"type":"Polygon","arcs":[[669,670,671,672,673,674]],"properties":{"市区町村名":"空知郡奈井江町","大字名":null,"丁目名":null,"小字名":"字奈井江","地番":"1292-1","精度区分":null,"座標系":"任意座標系"}},{"type":"Polygon","arcs":[[675,676,-671]],"properties":{"市区町村名":"空知郡奈井江町","大字名":null,"丁目名":null,"小字名":"字奈井江","地番":"1292-15","精度区分":null,"座標系":"任意座標系"}},{"type":"Polygon","arcs":[[677,678,679,680,681,682,683]],"properties":{"市区町村名":"空知郡奈井江町","大字名":null,"丁目名":null,"小字名":"字奈井江","地番":"1290-1","精度区分":null,"座標系":"任意座標系"}},{"type":"Polygon","arcs":[[684,-680]],"properties":{"市区町村名":"空知郡奈井江町","大字名":null,"丁目名":null,"小字名":"字奈井江","地番":"1290-12","精度区分":null,"座標系":"任意座標系"}},{"type":"Polygon","arcs":[[685,-682]],"properties":{"市区町村名":"空知郡奈井江町","大字名":null,"丁目名":null,"小字名":"字奈井江","地番":"1290-11","精度区分":null,"座標系":"任意座標系"}},{"type":"Polygon","arcs":[[-93,-668,686,-78]],"properties":{"市区町村名":"空知郡奈井江町","大字名":null,"丁目名":null,"小字名":"字奈井江","地番":"844-6","精度区分":null,"座標系":"任意座標系"}},{"type":"Polygon","arcs":[[687,688]],"properties":{"市区町村名":"空知郡奈井江町","大字名":null,"丁目名":null,"小字名":"字奈井江","地番":"1421-9","精度区分":null,"座標系":"任意座標系"}},{"type":"Polygon","arcs":[[689,690]],"properties":{"市区町村名":"空知郡奈井江町","大字名":null,"丁目名":null,"小字名":"字奈井江","地番":"1421-10","精度区分":null,"座標系":"任意座標系"}},{"type":"Polygon","arcs":[[691,692,693,694,695,696,697,698,699,700]],"properties":{"市区町村名":"空知郡奈井江町","大字名":null,"丁目名":null,"小字名":"字奈井江","地番":"1294-2","精度区分":null,"座標系":"任意座標系"}},{"type":"Polygon","arcs":[[701,-694]],"properties":{"市区町村名":"空知郡奈井江町","大字名":null,"丁目名":null,"小字名":"字奈井江","地番":"1294-22","精度区分":null,"座標系":"任意座標系"}},{"type":"Polygon","arcs":[[702,-696]],"properties":{"市区町村名":"空知郡奈井江町","大字名":null,"丁目名":null,"小字名":"字奈井江","地番":"1294-21","精度区分":null,"座標系":"任意座標系"}},{"type":"Polygon","arcs":[[703,-673]],"properties":{"市区町村名":"空知郡奈井江町","大字名":null,"丁目名":null,"小字名":"字奈井江","地番":"1292-14","精度区分":null,"座標系":"任意座標系"}},{"type":"Polygon","arcs":[[704,705,706,707,708]],"properties":{"市区町村名":"空知郡奈井江町","大字名":null,"丁目名":null,"小字名":"字奈井江","地番":"1293-5","精度区分":null,"座標系":"任意座標系"}},{"type":"Polygon","arcs":[[-95,-75]],"properties":{"市区町村名":"空知郡奈井江町","大字名":null,"丁目名":null,"小字名":"字奈井江","地番":"844-7","精度区分":null,"座標系":"任意座標系"}},{"type":"Polygon","arcs":[[709,710,-455]],"properties":{"市区町村名":"空知郡奈井江町","大字名":null,"丁目名":null,"小字名":"字奈井江","地番":"1297","精度区分":null,"座標系":"任意座標系"}},{"type":"Polygon","arcs":[[711,-451]],"properties":{"市区町村名":"空知郡奈井江町","大字名":null,"丁目名":null,"小字名":"字奈井江","地番":"1297-10","精度区分":null,"座標系":"任意座標系"}},{"type":"Polygon","arcs":[[712,713,714,715]],"properties":{"市区町村名":"空知郡奈井江町","大字名":null,"丁目名":null,"小字名":"字奈井江","地番":"885","精度区分":null,"座標系":"任意座標系"}},{"type":"Polygon","arcs":[[716,717,718,719,720,721,722,723]],"properties":{"市区町村名":"空知郡奈井江町","大字名":null,"丁目名":null,"小字名":"字奈井江","地番":"無地番-4","精度区分":null,"座標系":"任意座標系"}},{"type":"Polygon","arcs":[[724,725,726,727,-715]],"properties":{"市区町村名":"空知郡奈井江町","大字名":null,"丁目名":null,"小字名":"字奈井江","地番":"1295-8","精度区分":null,"座標系":"任意座標系"}},{"type":"Polygon","arcs":[[728,-698]],"properties":{"市区町村名":"空知郡奈井江町","大字名":null,"丁目名":null,"小字名":"字奈井江","地番":"1294-20","精度区分":null,"座標系":"任意座標系"}},{"type":"Polygon","arcs":[[729,730,-717]],"properties":{"市区町村名":"空知郡奈井江町","大字名":null,"丁目名":null,"小字名":"字奈井江","地番":"無地番-5","精度区分":null,"座標系":"任意座標系"}},{"type":"Polygon","arcs":[[-728,-730,731,732]],"properties":{"市区町村名":"空知郡奈井江町","大字名":null,"丁目名":null,"小字名":"字奈井江","地番":"長狭物不明-17","精度区分":null,"座標系":"任意座標系"}},{"type":"Polygon","arcs":[[733,-732,-724,734,735,736,-720,737,738,739]],"properties":{"市区町村名":"空知郡奈井江町","大字名":null,"丁目名":null,"小字名":"字奈井江","地番":"1296-2","精度区分":null,"座標系":"任意座標系"}},{"type":"Polygon","arcs":[[740,-721,-737]],"properties":{"市区町村名":"空知郡奈井江町","大字名":null,"丁目名":null,"小字名":"字奈井江","地番":"1296-10","精度区分":null,"座標系":"任意座標系"}},{"type":"Polygon","arcs":[[-735,-723,741]],"properties":{"市区町村名":"空知郡奈井江町","大字名":null,"丁目名":null,"小字名":"字奈井江","地番":"1296-11","精度区分":null,"座標系":"任意座標系"}},{"type":"Polygon","arcs":[[-742,-722,-741,-736]],"properties":{"市区町村名":"空知郡奈井江町","大字名":null,"丁目名":null,"小字名":"字奈井江","地番":"1296-4","精度区分":null,"座標系":"任意座標系"}},{"type":"Polygon","arcs":[[-719,742,743,-738]],"properties":{"市区町村名":"空知郡奈井江町","大字名":null,"丁目名":null,"小字名":"字奈井江","地番":"1296-5","精度区分":null,"座標系":"任意座標系"}},{"type":"Polygon","arcs":[[744,-739]],"properties":{"市区町村名":"空知郡奈井江町","大字名":null,"丁目名":null,"小字名":"字奈井江","地番":"1296-6","精度区分":null,"座標系":"任意座標系"}},{"type":"Polygon","arcs":[[745,-740,746]],"properties":{"市区町村名":"空知郡奈井江町","大字名":null,"丁目名":null,"小字名":"字奈井江","地番":"1296-7","精度区分":null,"座標系":"任意座標系"}},{"type":"Polygon","arcs":[[747,748,-734]],"properties":{"市区町村名":"空知郡奈井江町","大字名":null,"丁目名":null,"小字名":"字奈井江","地番":"886-1","精度区分":null,"座標系":"任意座標系"}},{"type":"Polygon","arcs":[[749,-748,-746,750]],"properties":{"市区町村名":"空知郡奈井江町","大字名":null,"丁目名":null,"小字名":"字奈井江","地番":"886-2","精度区分":null,"座標系":"任意座標系"}},{"type":"Polygon","arcs":[[751,-725,-714]],"properties":{"市区町村名":"空知郡奈井江町","大字名":null,"丁目名":null,"小字名":"字奈井江","地番":"1295-1","精度区分":null,"座標系":"任意座標系"}},{"type":"Polygon","arcs":[[-94,-77]],"properties":{"市区町村名":"空知郡奈井江町","大字名":null,"丁目名":null,"小字名":"字奈井江","地番":"844-9","精度区分":null,"座標系":"任意座標系"}},{"type":"Polygon","arcs":[[752,-700,753,-726]],"properties":{"市区町村名":"空知郡奈井江町","大字名":null,"丁目名":null,"小字名":"字奈井江","地番":"長狭物不明-18","精度区分":null,"座標系":"任意座標系"}},{"type":"Polygon","arcs":[[-716,-733,-749,-750,754]],"properties":{"市区町村名":"空知郡奈井江町","大字名":null,"丁目名":null,"小字名":"字奈井江","地番":"長狭物不明-19","精度区分":null,"座標系":"任意座標系"}},{"type":"Polygon","arcs":[[755,756,757,758]],"properties":{"市区町村名":"空知郡奈井江町","大字名":null,"丁目名":null,"小字名":"字奈井江","地番":"1216-3","精度区分":null,"座標系":"任意座標系"}},{"type":"Polygon","arcs":[[759,760,-756,761]],"properties":{"市区町村名":"空知郡奈井江町","大字名":null,"丁目名":null,"小字名":"字奈井江","地番":"1208-19","精度区分":null,"座標系":"任意座標系"}},{"type":"Polygon","arcs":[[762,763]],"properties":{"市区町村名":"空知郡奈井江町","大字名":null,"丁目名":null,"小字名":"字奈井江","地番":"1226-18","精度区分":null,"座標系":"任意座標系"}},{"type":"Polygon","arcs":[[-634,-654,-630,-653,764,-659,765,766,767]],"properties":{"市区町村名":"空知郡奈井江町","大字名":null,"丁目名":null,"小字名":"字奈井江","地番":"78-2","精度区分":null,"座標系":"任意座標系"}},{"type":"Polygon","arcs":[[768,769,-767]],"properties":{"市区町村名":"空知郡奈井江町","大字名":null,"丁目名":null,"小字名":"字奈井江","地番":"78-16","精度区分":null,"座標系":"任意座標系"}},{"type":"Polygon","arcs":[[-635,-768,-770,-643,-642,770]],"properties":{"市区町村名":"空知郡奈井江町","大字名":null,"丁目名":null,"小字名":"字奈井江","地番":"82","精度区分":null,"座標系":"任意座標系"}},{"type":"Polygon","arcs":[[771,-640,772,773]],"properties":{"市区町村名":"空知郡奈井江町","大字名":null,"丁目名":null,"小字名":"字奈井江","地番":"84-7","精度区分":null,"座標系":"任意座標系"}},{"type":"Polygon","arcs":[[774,-774,775,-661]],"properties":{"市区町村名":"空知郡奈井江町","大字名":null,"丁目名":null,"小字名":"字奈井江","地番":"84-1","精度区分":null,"座標系":"任意座標系"}},{"type":"Polygon","arcs":[[-776,776,-766,-664]],"properties":{"市区町村名":"空知郡奈井江町","大字名":null,"丁目名":null,"小字名":"字奈井江","地番":"84-2","精度区分":null,"座標系":"任意座標系"}},{"type":"Polygon","arcs":[[-773,-644,-769,-777]],"properties":{"市区町村名":"空知郡奈井江町","大字名":null,"丁目名":null,"小字名":"字奈井江","地番":"84-8","精度区分":null,"座標系":"任意座標系"}},{"type":"Polygon","arcs":[[777,778,779,-691,780,781,782,-689,783,784,785,786,787,-431,-435,788,-286,-296]],"properties":{"市区町村名":"空知郡奈井江町","大字名":null,"丁目名":null,"小字名":"字奈井江","地番":"1421-3","精度区分":null,"座標系":"任意座標系"}},{"type":"Polygon","arcs":[[-787,789]],"properties":{"市区町村名":"空知郡奈井江町","大字名":null,"丁目名":null,"小字名":"字奈井江","地番":"1421-12","精度区分":null,"座標系":"任意座標系"}},{"type":"Polygon","arcs":[[790,-779]],"properties":{"市区町村名":"空知郡奈井江町","大字名":null,"丁目名":null,"小字名":"字奈井江","地番":"1421-13","精度区分":null,"座標系":"任意座標系"}},{"type":"Polygon","arcs":[[-83,791,792,793]],"properties":{"市区町村名":"空知郡奈井江町","大字名":null,"丁目名":null,"小字名":"字奈井江","地番":"896-4","精度区分":null,"座標系":"任意座標系"}},{"type":"Polygon","arcs":[[-793,794,795]],"properties":{"市区町村名":"空知郡奈井江町","大字名":null,"丁目名":null,"小字名":"字奈井江","地番":"896-1","精度区分":null,"座標系":"任意座標系"}},{"type":"Polygon","arcs":[[796,-576,797,-785]],"properties":{"市区町村名":"空知郡奈井江町","大字名":null,"丁目名":null,"小字名":"字奈井江","地番":"551-1","精度区分":null,"座標系":"任意座標系"}},{"type":"Polygon","arcs":[[798]],"properties":{"市区町村名":"空知郡奈井江町","大字名":null,"丁目名":null,"小字名":"字奈井江","地番":"1058","精度区分":null,"座標系":"任意座標系"}},{"type":"Polygon","arcs":[[799,-760]],"properties":{"市区町村名":"空知郡奈井江町","大字名":null,"丁目名":null,"小字名":"字奈井江","地番":"1208-18","精度区分":null,"座標系":"任意座標系"}},{"type":"Polygon","arcs":[[800,801]],"properties":{"市区町村名":"空知郡奈井江町","大字名":null,"丁目名":null,"小字名":"字奈井江","地番":"1226-19","精度区分":null,"座標系":"任意座標系"}},{"type":"Polygon","arcs":[[-36,802,-41,803,804,805,-636,-771,-641,-772,-775,-663,-647,806,-215,-622,807,-91,-210,-263,-261,-258,-250,-255,-249,808,-242,-224,-238,-239,-229,-222,-232,809,-268,-392,-422,-388,-274,-416,-412,-409,-406,-402,-405,-277,-311,-375,-379,-367,-320,-325,-355,-356,-282,-327,-359,-362,-366,-344,-346,-291,-288,810,-330,-425,811,-581,812,-584,-589,-592,-612,813,-575,-570,814,-566,-568,815]],"properties":{"市区町村名":"空知郡奈井江町","大字名":null,"丁目名":null,"小字名":"字奈井江","地番":"長狭物不明-7","精度区分":null,"座標系":"任意座標系"}},{"type":"Polygon","arcs":[[816,817,-657,818]],"properties":{"市区町村名":"空知郡奈井江町","大字名":null,"丁目名":null,"小字名":"字奈井江","地番":"78-12","精度区分":null,"座標系":"任意座標系"}},{"type":"Polygon","arcs":[[819,820,821,-660]],"properties":{"市区町村名":"空知郡奈井江町","大字名":null,"丁目名":null,"小字名":"字奈井江","地番":"78-15","精度区分":null,"座標系":"任意座標系"}},{"type":"Polygon","arcs":[[-649,822,-820,-765]],"properties":{"市区町村名":"空知郡奈井江町","大字名":null,"丁目名":null,"小字名":"字奈井江","地番":"78-9","精度区分":null,"座標系":"任意座標系"}},{"type":"Polygon","arcs":[[-822,823,-819]],"properties":{"市区町村名":"空知郡奈井江町","大字名":null,"丁目名":null,"小字名":"字奈井江","地番":"78-14","精度区分":null,"座標系":"任意座標系"}},{"type":"Polygon","arcs":[[-818,824,-645,-665]],"properties":{"市区町村名":"空知郡奈井江町","大字名":null,"丁目名":null,"小字名":"字奈井江","地番":"84-4","精度区分":null,"座標系":"任意座標系"}},{"type":"Polygon","arcs":[[825,-805,826,827,828]],"properties":{"市区町村名":"空知郡奈井江町","大字名":null,"丁目名":null,"小字名":"字奈井江","地番":"52-7","精度区分":null,"座標系":"任意座標系"}},{"type":"Polygon","arcs":[[-829,829,830]],"properties":{"市区町村名":"空知郡奈井江町","大字名":null,"丁目名":null,"小字名":"字奈井江","地番":"52-8","精度区分":null,"座標系":"任意座標系"}},{"type":"Polygon","arcs":[[-830,-828,831]],"properties":{"市区町村名":"空知郡奈井江町","大字名":null,"丁目名":null,"小字名":"字奈井江","地番":"52-6","精度区分":null,"座標系":"任意座標系"}},{"type":"Polygon","arcs":[[832,833,834]],"properties":{"市区町村名":"空知郡奈井江町","大字名":null,"丁目名":null,"小字名":"字奈井江","地番":"861-2","精度区分":null,"座標系":"任意座標系"}},{"type":"Polygon","arcs":[[835,836,837,-833,838,-753,-752,-713,-755,-751,-747,-745,-744,839,-795,-792,-82,-86,-88,840,-442,841,-440,842,-452,-712,-450,-711,843,-758,844]],"properties":{"市区町村名":"空知郡奈井江町","大字名":null,"丁目名":null,"小字名":"字奈井江","地番":"長狭物不明-14","精度区分":null,"座標系":"任意座標系"}},{"type":"Polygon","arcs":[[-598,845,846,-619]],"properties":{"市区町村名":"空知郡奈井江町","大字名":null,"丁目名":null,"小字名":"字奈井江","地番":"542-1","精度区分":null,"座標系":"任意座標系"}},{"type":"Polygon","arcs":[[-847,847,848,-620]],"properties":{"市区町村名":"空知郡奈井江町","大字名":null,"丁目名":null,"小字名":"字奈井江","地番":"541","精度区分":null,"座標系":"任意座標系"}},{"type":"Polygon","arcs":[[-849,849,-573,850]],"properties":{"市区町村名":"空知郡奈井江町","大字名":null,"丁目名":null,"小字名":"字奈井江","地番":"540","精度区分":null,"座標系":"任意座標系"}},{"type":"Polygon","arcs":[[-571,-574,-850,-848,-846,-597,-610,851,-782,852]],"properties":{"市区町村名":"空知郡奈井江町","大字名":null,"丁目名":null,"小字名":"字奈井江","地番":"1421-2","精度区分":null,"座標系":"任意座標系"}},{"type":"Polygon","arcs":[[853,-189]],"properties":{"市区町村名":"空知郡奈井江町","大字名":null,"丁目名":null,"小字名":"字奈井江","地番":"無地番-1","精度区分":null,"座標系":"任意座標系"}},{"type":"Polygon","arcs":[[-38,854,-678,855,856,857,858,859,860,861]],"properties":{"市区町村名":"空知郡奈井江町","大字名":null,"丁目名":null,"小字名":"字奈井江","地番":"長狭物不明-3","精度区分":null,"座標系":"任意座標系"}},{"type":"Polygon","arcs":[[-861,862,-859,863,864,-856,-684,865,-676,-670,866,867,868,869,870,871]],"properties":{"市区町村名":"空知郡奈井江町","大字名":null,"丁目名":null,"小字名":"字奈井江","地番":"長狭物不明-1","精度区分":null,"座標系":"任意座標系"}},{"type":"Polygon","arcs":[[872,-869,873,-71,874,-709,875,-707,876,877,878,879,-867,-675,880,-692,881,-834,-838,882,-836,883,-871]],"properties":{"市区町村名":"空知郡奈井江町","大字名":null,"丁目名":null,"小字名":"字奈井江","地番":"長狭物不明-2","精度区分":null,"座標系":"任意座標系"}},{"type":"Polygon","arcs":[[884,-857,-865]],"properties":{"市区町村名":"空知郡奈井江町","大字名":null,"丁目名":null,"小字名":"字奈井江","地番":"1291","精度区分":null,"座標系":"任意座標系"}},{"type":"Polygon","arcs":[[885,886,-879]],"properties":{"市区町村名":"空知郡奈井江町","大字名":null,"丁目名":null,"小字名":"字奈井江","地番":"1293-2","精度区分":null,"座標系":"任意座標系"}},{"type":"Polygon","arcs":[[887,888,-886,-878]],"properties":{"市区町村名":"空知郡奈井江町","大字名":null,"丁目名":null,"小字名":"字奈井江","地番":"1293-3","精度区分":null,"座標系":"任意座標系"}},{"type":"Polygon","arcs":[[-706,889,-888,-877]],"properties":{"市区町村名":"空知郡奈井江町","大字名":null,"丁目名":null,"小字名":"字奈井江","地番":"1293-4","精度区分":null,"座標系":"任意座標系"}},{"type":"Polygon","arcs":[[890,-763,891,-801]],"properties":{"市区町村名":"空知郡奈井江町","大字名":null,"丁目名":null,"小字名":"字奈井江","地番":"1226-20","精度区分":null,"座標系":"任意座標系"}},{"type":"Polygon","arcs":[[892,893,894,895,-381,-376,-383,-386]],"properties":{"市区町村名":"空知郡奈井江町","大字名":null,"丁目名":null,"小字名":"字奈井江","地番":"566-12","精度区分":null,"座標系":"任意座標系"}},{"type":"Polygon","arcs":[[896,897,898,-895]],"properties":{"市区町村名":"空知郡奈井江町","大字名":null,"丁目名":null,"小字名":"字奈井江","地番":"566-16","精度区分":null,"座標系":"任意座標系"}},{"type":"Polygon","arcs":[[899,900,-897,-894]],"properties":{"市区町村名":"空知郡奈井江町","大字名":null,"丁目名":null,"小字名":"字奈井江","地番":"566-15","精度区分":null,"座標系":"任意座標系"}},{"type":"Polygon","arcs":[[-265,-305,-373,-378,-380,-896,-899,901]],"properties":{"市区町村名":"空知郡奈井江町","大字名":null,"丁目名":null,"小字名":"字奈井江","地番":"566-1","精度区分":null,"座標系":"任意座標系"}},{"type":"Polygon","arcs":[[902,-900,-893,-385,-384,-280,-395]],"properties":{"市区町村名":"空知郡奈井江町","大字名":null,"丁目名":null,"小字名":"字奈井江","地番":"567-3","精度区分":null,"座標系":"任意座標系"}},{"type":"Polygon","arcs":[[-902,-898,-901,-903,-397,-400,-420,-419,-393,-266]],"properties":{"市区町村名":"空知郡奈井江町","大字名":null,"丁目名":null,"小字名":"字奈井江","地番":"1421-6","精度区分":null,"座標系":"任意座標系"}}]}},"arcs":[[[29692,37899],[-5603,667]],[[24089,38566],[-8705,1039]],[[15384,39605],[-2461,293]],[[12923,39898],[-6712,800]],[[6211,40698],[1344,1608]],[[7555,42306],[7404,-880]],[[14959,41426],[3360,-400]],[[18319,41026],[7382,-878]],[[25701,40148],[20656,-2418]],[[46357,37730],[44595,-5724],[1271,-159],[18735,51892],[-17909,2150]],[[93049,85889],[-18581,2439]],[[74468,88328],[7342,931]],[[81810,89259],[13519,-1914]],[[95329,87345],[16326,-1947],[4326,11871]],[[115981,97269],[526,1445]],[[116507,98714],[7914,21719]],[[124421,120433],[2934,-357]],[[127355,120076],[-7792,-21209]],[[119563,98867],[-3805,-10357],[-1266,-3448]],[[114492,85062],[-593,-1666]],[[113899,83396],[-18857,-51878],[45275,-5230],[-157,-507],[45783,-5403],[2211,5403],[17251,46820]],[[205405,72601],[3196,-344]],[[208601,72257],[-17203,-46476],[-2239,-5753],[45180,-5516],[0,-1612],[-45670,5695],[-3326,-8911],[-3192,380],[3382,8889],[-40290,4757]],[[145243,23710],[-2262,267]],[[142981,23977],[-8788,1037]],[[134193,25014],[-7903,1032]],[[126290,26046],[-9087,1066]],[[117203,27112],[-4566,544]],[[112637,27656],[-4325,514]],[[108312,28170],[-4287,510]],[[104025,28680],[-22561,3064]],[[81464,31744],[-14061,1672]],[[67403,33416],[-8535,1015]],[[58868,34431],[-334,40],[-76,-204]],[[58458,34267],[-3024,-8486],[-9113,-25574],[-3506,-207],[9373,25781],[3287,9043],[-25783,3075]],[[602850,81498],[4561,-511]],[[607411,80987],[-18988,-51589],[12156,-1468],[-585,-1671],[-12170,1358],[-700,-1829],[-4726,0],[906,2391],[-62189,7329],[0,1811],[62814,-7393],[18921,51572]],[[664503,76073],[0,-1787]],[[664503,74286],[-30291,3470],[629,1693],[29662,-3376]],[[528882,136845],[-7767,-21093],[0,9399],[4352,11694]],[[525467,136845],[3415,0]],[[150481,97632],[6187,16567]],[[156668,114199],[1434,-1241]],[[158102,112958],[-5878,-15818]],[[152224,97140],[-1743,492]],[[150211,96910],[270,722]],[[152224,97140],[-264,-709]],[[151960,96431],[-1749,479]],[[149523,95067],[688,1843]],[[151960,96431],[-583,-1570]],[[151377,94861],[-1854,206]],[[146342,81310],[-1875,221]],[[144467,81531],[1966,5265]],[[146433,86796],[1860,-234]],[[148293,86562],[-1951,-5252]],[[853438,983739],[8893,8398],[5702,7862],[15872,-2022],[-1289,-5124],[-4022,-12395],[-25156,3281]],[[25701,40148],[3179,2543]],[[28880,42691],[10796,-3444],[6681,-1517]],[[134193,25014],[-122,-234],[-7869,1001]],[[126202,25781],[88,265]],[[821546,925134],[-13619,-4012]],[[807927,921122],[-37,18],[-1390,645],[1390,498],[14339,4467],[-683,-1616]],[[833010,924999],[-8830,-2647],[1275,3295],[8088,3579],[5686,-731],[-3727,-2081],[-2492,-1415]],[[821546,925134],[-762,-2065],[-9567,-2640],[-3290,693]],[[994846,198483],[-698,-1892],[-2017,391],[676,1774],[2039,-273]],[[117158,27014],[45,98]],[[126202,25781],[-7739,984],[-1,97],[-1304,152]],[[176107,91494],[-40,826]],[[176067,92320],[443,-31]],[[176510,92289],[-403,-795]],[[826555,147288],[-6000,-16806]],[[820555,130482],[-12665,1608],[-434,55]],[[807456,132145],[1484,3867]],[[808940,136012],[7614,-962],[521,1713]],[[817075,136763],[2883,-275],[1281,4495],[-2775,349]],[[818464,141332],[-5121,644]],[[813343,141976],[823,2246],[-2465,308],[-824,-2244]],[[810877,142286],[-60,9],[-9607,1482]],[[801210,143777],[2498,6366],[4182,-522],[18665,-2333]],[[861779,249488],[1081,2797]],[[862860,252285],[2475,-285]],[[865335,252000],[-1077,-2785]],[[864258,249215],[-2479,273]],[[862860,252285],[675,1710]],[[863535,253995],[2447,-273]],[[865982,253722],[-647,-1722]],[[863535,253995],[660,1763],[2419,-325]],[[866614,255433],[-632,-1711]],[[660535,242556],[2037,5347],[1164,3057]],[[663736,250960],[1362,-145]],[[665098,250815],[-2828,-8460],[-1735,201]],[[817075,136763],[-7947,759]],[[809128,137522],[1749,4764]],[[810877,142286],[2466,-310]],[[818464,141332],[-1389,-4569]],[[436315,308638],[93,549]],[[436408,309187],[62,-497],[-155,-52]],[[476460,355067],[-650,75]],[[475810,355142],[2242,5626]],[[478052,360768],[587,-81]],[[478639,360687],[-669,-1727],[-1510,-3893]],[[460725,356853],[15085,-1711]],[[476460,355067],[-76,-217],[-15721,1792],[62,211]],[[460725,356853],[775,2107],[1167,3176]],[[462667,362136],[4319,11931]],[[466986,374067],[11317,-1261],[3465,-2261]],[[481768,370545],[-3716,-9777]],[[429332,348246],[-1199,3458]],[[428133,351704],[3598,2094],[1036,-6158]],[[432767,347640],[-3435,606]],[[429332,348246],[-2792,472]],[[426540,348718],[-596,1680]],[[425944,350398],[2189,1306]],[[432767,347640],[599,-3591]],[[433366,344049],[-1900,-1453]],[[431466,342596],[-165,-190]],[[431301,342406],[-1969,5840]],[[426540,348718],[-2658,429]],[[423882,349147],[2062,1251]],[[426540,348718],[2245,-6024]],[[428785,342694],[-8993,1004]],[[419792,343698],[-4298,528],[8388,4921]],[[431301,342406],[-2516,288]],[[426522,324988],[64,4391],[-2722,-199]],[[423864,329180],[-5824,8990]],[[418040,338170],[1752,5528]],[[428785,342694],[1941,-4752]],[[430726,337942],[3137,-8059],[1380,-5909]],[[435243,323974],[-8721,1014]],[[433366,344049],[347,-1746]],[[433713,342303],[-2247,293]],[[433089,342208],[-1788,198]],[[433713,342303],[42,-174]],[[433755,342129],[-666,79]],[[431301,342406],[939,-1939]],[[432240,340467],[-1514,-2525]],[[436834,323793],[-1591,181]],[[432240,340467],[397,-932],[815,-4892],[1829,-5177],[494,-1819],[1059,-3854]],[[433089,342208],[-849,-1741]],[[433755,342129],[999,-3965],[1702,-9503],[378,-4868]],[[418040,338170],[-2937,-9673]],[[415103,328497],[-11487,-884]],[[403616,327613],[16176,16085]],[[423864,329180],[-8761,-683]],[[435581,322562],[175,-727]],[[435756,321835],[-8457,1019]],[[427299,322854],[-8956,1097]],[[418343,323951],[-15539,1847]],[[402804,325798],[812,1815]],[[403616,327613],[10809,-1258],[12097,-1367]],[[435243,323974],[338,-1412]],[[437014,322421],[-1433,141]],[[436834,323793],[180,-1372]],[[437014,322421],[96,-738]],[[437110,321683],[-1354,152]],[[422695,271482],[-2574,279],[959,2899],[2645,-306],[-1030,-2872]],[[436408,309187],[-18,8922],[-634,3726]],[[437110,321683],[-6,-3518],[-365,-4249],[-331,-4729]],[[436408,309187],[-5838,643]],[[430570,309830],[-3271,13024]],[[436315,308638],[-895,-5292]],[[435420,303346],[-3716,436]],[[431704,303782],[255,788],[-1389,5260]],[[403941,307767],[-7595,927],[6458,17104]],[[418343,323951],[-2865,-7590],[-3597,-9473]],[[411881,306888],[-7940,879]],[[411881,306888],[14883,-1714],[-12579,-6765],[-7685,-4066],[-2559,13424]],[[435420,303346],[-1930,-7099]],[[433490,296247],[-4305,465]],[[429185,296712],[2519,7070]],[[433490,296247],[-2419,-8946]],[[431071,287301],[-285,31]],[[430786,287332],[-3874,423]],[[426912,287755],[-1335,156],[1241,2073],[2367,6728]],[[424813,269264],[-13803,1574]],[[411010,270838],[-357,2016],[16259,14901]],[[430786,287332],[-1382,-4225],[-2234,-6700]],[[427170,276407],[-2357,-7143]],[[424813,269264],[-2118,2218]],[[422695,271482],[1030,2872],[-2645,306],[-959,-2899],[2574,-279]],[[431071,287301],[-2140,-6630],[-1761,-4264]],[[424110,267603],[-1420,158]],[[422690,267761],[-3672,431]],[[419018,268192],[-9188,1036]],[[409830,269228],[1180,1610]],[[424813,269264],[-703,-1661]],[[411755,252319],[4213,5977],[2888,4098],[3834,5367]],[[424110,267603],[936,-104]],[[425046,267499],[-873,-2570],[2657,-290]],[[426830,264639],[-2145,-5814],[-2792,-7700],[-10138,1194]],[[411755,252319],[-7746,945]],[[404009,253264],[1634,4644],[1812,4986]],[[407455,262894],[5498,-569],[910,2568],[3845,-340],[1310,3639]],[[405483,243761],[-4955,608],[2405,5794]],[[402933,250163],[1076,3101]],[[411755,252319],[-3237,-4416],[-3035,-4142]],[[395086,248439],[2904,-536],[1825,2802]],[[399815,250705],[3118,-542]],[[405483,243761],[-6902,-8456],[-11146,1244],[7306,11354],[345,536]],[[399815,250705],[-2985,527]],[[396830,251232],[1675,2672]],[[398505,253904],[5504,-640]],[[395086,248439],[1744,2793]],[[398505,253904],[1667,4612],[1846,4953]],[[402018,263469],[5437,-575]],[[402018,263469],[1882,5078],[1656,1182],[4274,-501]],[[409830,269228],[-2375,-6334]],[[462667,362136],[-14082,1489],[-5888,-3446],[-2168,282],[11632,5998],[14825,7608]],[[481768,370545],[508,-328],[-3637,-9530]],[[667628,259519],[-2530,-8704]],[[663736,250960],[767,2718],[1695,6013]],[[666198,259691],[1430,-172]],[[661229,247436],[-2745,292],[515,964],[2584,-264]],[[661583,248428],[462,-47],[-195,-478],[-207,-511],[-414,44]],[[654955,243206],[-6994,814]],[[647961,244020],[1381,3883],[1295,3643],[316,-36]],[[650953,251510],[-588,-1555],[2672,-275],[579,1504]],[[653616,251184],[8547,-999],[-580,-1757]],[[661229,247436],[-434,-1223]],[[660795,246213],[-4583,486],[-1257,-3493]],[[650953,251510],[2663,-326]],[[700470,347059],[1504,-194],[-549,-1372]],[[701425,345493],[-955,1566]],[[688430,312389],[-6655,-16897],[-1491,170]],[[680284,295662],[6626,16904]],[[686910,312566],[1520,-177]],[[695348,330096],[-1467,187]],[[693881,330283],[6589,16776]],[[701425,345493],[-6077,-15397]],[[693881,330283],[-697,79]],[[693184,330362],[6176,15854],[-791,1080]],[[698569,347296],[1901,-237]],[[692972,329787],[212,575]],[[693881,330283],[-227,-578]],[[693654,329705],[-682,82]],[[686910,312566],[6744,17139]],[[693654,329705],[1484,-196]],[[695138,329509],[-6708,-17120]],[[695348,330096],[-210,-587]],[[692670,329821],[-3362,-8773]],[[689308,321048],[-1012,164],[3418,8721],[956,-112]],[[680284,295662],[-768,87]],[[679516,295749],[6547,16917]],[[686063,312666],[847,-100]],[[686063,312666],[3245,8382]],[[692670,329821],[302,-34]],[[677602,285089],[-1469,193]],[[676133,285282],[3397,8558]],[[679530,293840],[1545,-191],[-3473,-8560]],[[676721,282802],[-227,-590]],[[676494,282212],[-1463,199]],[[675031,282411],[211,564]],[[675242,282975],[1479,-173]],[[675242,282975],[891,2307]],[[677602,285089],[-881,-2287]],[[674325,276584],[-1505,196]],[[672820,276780],[2211,5631]],[[676494,282212],[-2169,-5628]],[[670793,267546],[-1449,187]],[[669344,267733],[3476,9047]],[[674325,276584],[-3532,-9038]],[[666198,259691],[3146,8042]],[[670793,267546],[-3165,-8027]],[[723891,320445],[-5990,692]],[[717901,321137],[-670,81]],[[717231,321218],[6826,17282],[-5463,620]],[[718594,339120],[2153,5501]],[[720747,344621],[473,854]],[[721220,345475],[19847,-2348]],[[741067,343127],[-328,-894]],[[740739,342233],[-6161,-16379],[-307,-871],[-436,-1089],[-1673,-4411]],[[732162,319483],[-8271,962]],[[704458,337586],[-1357,172]],[[703101,337758],[3421,8561],[1304,-163]],[[707826,346156],[-3368,-8570]],[[700739,328176],[-1367,196]],[[699372,328372],[251,628]],[[699623,329000],[1372,-189]],[[700995,328811],[-96,-233]],[[700899,328578],[-160,-402]],[[688112,295798],[-405,-1031]],[[687707,294767],[-1455,178],[1045,2633]],[[687297,297578],[1442,-181]],[[688739,297397],[-627,-1599]],[[705954,290062],[-10383,-27555]],[[695571,262507],[-1516,168]],[[694055,262675],[11032,28118]],[[705087,290793],[720,1827]],[[705807,292620],[1060,-124]],[[706867,292496],[-913,-2434]],[[705807,292620],[-3475,413]],[[702332,293033],[369,1008]],[[702701,294041],[4172,-511]],[[706873,293530],[363,-58]],[[707236,293472],[-369,-976]],[[701587,261769],[-6016,738]],[[705954,290062],[1570,-190],[1357,3380],[-1645,220]],[[707236,293472],[1215,3141]],[[708451,296613],[4188,10866]],[[712639,307479],[730,1964]],[[713369,309443],[218,543]],[[713587,309986],[1309,3297]],[[714896,313283],[1445,3752]],[[716341,317035],[36,98]],[[716377,317133],[1524,4004]],[[723891,320445],[-209,-648]],[[723682,319797],[-10364,-27303]],[[713318,292494],[-2252,276],[-1329,-3384],[2263,-309]],[[712000,289077],[-10413,-27308]],[[700137,326581],[-1394,188]],[[698743,326769],[629,1603]],[[700739,328176],[-602,-1595]],[[712639,307479],[-386,49]],[[712253,307528],[738,1955]],[[712991,309483],[378,-40]],[[712253,307528],[-18679,2269]],[[693574,309797],[727,1851]],[[694301,311648],[18690,-2165]],[[694301,311648],[-1450,137]],[[692851,311785],[1555,3881]],[[694406,315666],[1367,-152]],[[695773,315514],[-1268,-3279]],[[694505,312235],[-204,-587]],[[693574,309797],[-1424,172]],[[692150,309969],[701,1816]],[[689793,295599],[-411,-1017]],[[689382,294582],[-1675,185]],[[688112,295798],[1681,-199]],[[673376,258768],[-1538,167]],[[671838,258935],[1866,4630]],[[673704,263565],[1514,-190]],[[675218,263375],[-914,-2255]],[[674304,261120],[-928,-2352]],[[696099,294832],[1253,3354]],[[697352,298186],[518,-59],[799,2085],[-8459,998]],[[690210,301210],[3364,8587]],[[712253,307528],[-4180,-10870]],[[708073,296658],[-4122,526]],[[703951,297184],[-929,111],[-1206,-3148]],[[701816,294147],[-5717,685]],[[702701,294041],[-885,106]],[[703951,297184],[-1250,-3143]],[[701816,294147],[-368,-1020]],[[701448,293127],[-5735,689]],[[695713,293816],[386,1016]],[[702332,293033],[-884,94]],[[708073,296658],[-1200,-3128]],[[696099,294832],[-1934,226]],[[694165,295058],[1299,3353]],[[695464,298411],[1888,-225]],[[695464,298411],[-3741,455]],[[691723,298866],[-2320,274]],[[689403,299140],[807,2070]],[[689403,299140],[-1457,173]],[[687946,299313],[4204,10656]],[[687297,297578],[649,1735]],[[689403,299140],[-664,-1743]],[[690417,295520],[-404,-1018]],[[690013,294502],[-631,80]],[[689793,295599],[624,-79]],[[694165,295058],[-400,-1015]],[[693765,294043],[-3752,459]],[[690417,295520],[3748,-462]],[[688739,297397],[1682,-211],[-628,-1587]],[[691723,298866],[-1306,-3346]],[[695713,293816],[-1948,227]],[[694406,315666],[1490,3792]],[[695896,319458],[1337,-163]],[[697233,319295],[-1460,-3781]],[[714896,313283],[-19123,2231]],[[697233,319295],[19108,-2260]],[[697233,319295],[46,97]],[[697279,319392],[19098,-2259]],[[697279,319392],[-1363,162]],[[695916,319554],[2827,7215]],[[700137,326581],[-510,-1280]],[[699627,325301],[-752,-1883]],[[698875,323418],[-1596,-4026]],[[695896,319458],[20,96]],[[703752,324814],[-757,-1901],[-4120,505]],[[699627,325301],[4125,-487]],[[701744,328052],[-602,-1590]],[[701142,326462],[-1005,119]],[[700739,328176],[1005,-124]],[[701744,328052],[1302,-158]],[[703046,327894],[-677,-1582],[-1227,150]],[[704304,337208],[154,378]],[[707826,346156],[4805,-570]],[[712631,345586],[-1193,-3058]],[[711438,342528],[-832,-2149]],[[710606,340379],[-89,-194],[7601,-941],[2137,5433]],[[720255,344677],[492,-56]],[[718594,339120],[-1331,-3488]],[[717263,335632],[-12959,1576]],[[713862,326933],[-12963,1645]],[[700995,328811],[12959,-1636]],[[713954,327175],[-92,-242]],[[700995,328811],[244,624]],[[701239,329435],[12957,-1636]],[[714196,327799],[-242,-624]],[[701239,329435],[-1382,182]],[[699857,329617],[287,733]],[[700144,330350],[1394,-174]],[[701538,330176],[-299,-741]],[[699623,329000],[234,617]],[[700144,330350],[600,1479]],[[700744,331829],[1400,-169]],[[702144,331660],[-606,-1484]],[[700744,331829],[1526,3842]],[[702270,335671],[1352,-170]],[[703622,335501],[-1478,-3841]],[[702270,335671],[404,1025]],[[702674,336696],[1345,-175]],[[704019,336521],[-148,-386]],[[703871,336135],[-249,-634]],[[702674,336696],[427,1062]],[[704304,337208],[-285,-687]],[[716831,334530],[-12960,1605]],[[717263,335632],[-432,-1102]],[[716831,334530],[-2635,-6731]],[[710606,340379],[2005,-253],[797,2150],[-1970,252]],[[712631,345586],[7624,-909]],[[673376,258768],[-3408,-8753]],[[669968,250015],[-1517,177]],[[668451,250192],[3387,8743]],[[685432,248193],[-15464,1822]],[[673376,258768],[2654,-342]],[[676030,258426],[12682,-1561]],[[688712,256865],[-3280,-8672]],[[688712,256865],[612,-75]],[[689324,256790],[-3329,-8662]],[[685995,248128],[-563,65]],[[676030,258426],[992,2352],[-2718,342]],[[675218,263375],[15954,-1949]],[[691172,261426],[-1848,-4636]],[[732162,319483],[-189,-588],[-8291,902]],[[712312,289930],[752,1913]],[[713064,291843],[64835,-7728],[6694,17173],[6629,17097],[213,603],[6406,16478],[-57102,6767]],[[741067,343127],[66823,-7860]],[[807890,335267],[0,-953]],[[807890,334314],[-7016,835],[-20041,-51233],[27057,-3376]],[[807890,280540],[0,-2003]],[[807890,278537],[-27799,3420],[-13306,-34054],[-2967,0],[13396,34383],[-64902,7644]],[[713318,292494],[-254,-651]],[[712312,289930],[-312,-853]],[[713587,309986],[-19082,2249]],[[708451,296613],[-378,45]],[[897177,250318],[-7268,918]],[[889909,251236],[196,73],[6218,962],[6201,657],[2367,140],[5351,56],[4975,-417],[-786,-2301],[-6827,140],[-4046,-83],[-2938,-190],[-1094,-238],[-2349,283]],[[862707,236351],[134,356]],[[862841,236707],[1133,613],[-422,1280]],[[863552,238600],[1573,4190]],[[865125,242790],[10625,5113],[8349,4041],[5810,-708]],[[897177,250318],[-5536,-1724],[-1323,-691],[-15613,-7784],[-8473,-4217]],[[866232,235902],[-3525,449]],[[10045,21034],[-10045,-8471],[3112,9307]],[[3112,21870],[6933,-836]],[[3112,21870],[-516,62],[1351,3849],[3622,10318],[7815,3506]],[[24089,38566],[-2847,-7620]],[[21242,30946],[-5835,-5165],[-5362,-4747]],[[81810,89259],[9142,11487],[709,1094]],[[91661,101840],[24846,-3126]],[[116507,98714],[-9737,-4476],[-496,-1336]],[[106274,92902],[-1711,-770],[-9234,-4787]],[[67181,71766],[-5642,711]],[[61539,72477],[12929,15851]],[[93049,85889],[-2097,-1112],[-12650,-6703],[-11121,-6308]],[[55967,63954],[1130,3116],[4442,5407]],[[67181,71766],[-11412,-8358]],[[55769,63408],[198,546]],[[55769,63408],[-10270,-7417]],[[45499,55991],[-1193,131]],[[44306,56122],[11661,7832]],[[58868,34431],[-73,-205]],[[58795,34226],[-337,41]],[[67403,33416],[-102,-214]],[[67301,33202],[-8506,1024]],[[81464,31744],[-62,-158]],[[81402,31586],[-839,100],[-40,-77],[-13222,1593]],[[104025,28680],[-71,-290]],[[103954,28390],[-5153,573],[21,123],[-7870,1130],[-9550,1370]],[[12923,39898],[-10827,-6800],[4115,7600]],[[29692,37899],[-8450,-6953]],[[7555,42306],[10362,4587],[-2958,-5467]],[[18319,41026],[25987,15096]],[[45499,55991],[-16619,-13300]],[[145243,23710],[-62,-150],[-2236,281],[36,136]],[[146433,86796],[3090,8271]],[[151377,94861],[-3084,-8299]],[[205405,72601],[-91506,10795]],[[114492,85062],[3592,-423],[26383,-3108]],[[146342,81310],[46654,-5496],[41343,-4885],[0,-1671],[-25738,2999]],[[179589,86039],[317,107]],[[179906,86146],[1318,447]],[[181224,86593],[9718,-5271]],[[190942,81322],[3475,-1885],[-338,-862],[-13672,6666],[-818,798]],[[179589,86039],[-3570,3481],[-369,52]],[[175650,89572],[197,376],[3064,-922]],[[178911,89026],[995,-2880]],[[175650,89572],[-496,70],[953,1852]],[[176510,92289],[1610,3179]],[[178120,95468],[6163,-4599],[-5372,-1843]],[[176067,92320],[-50,1017],[-6100,5339],[-3646,4958],[-1950,2972]],[[164321,106606],[714,288]],[[165035,106894],[13085,-11426]],[[156811,114582],[4171,1512]],[[160982,116094],[3624,-429],[1061,-1299]],[[165667,114366],[-8999,-167]],[[156668,114199],[143,383]],[[138829,107992],[-19266,-9125]],[[127355,120076],[15247,-1805]],[[142602,118271],[-3773,-10279]],[[142602,118271],[7483,-886]],[[150085,117385],[-2170,-5994]],[[147915,111391],[-9086,-3399]],[[150085,117385],[4377,-519]],[[154462,116866],[-1375,-3634]],[[153087,113232],[-5172,-1841]],[[154462,116866],[3103,-367]],[[157565,116499],[-754,-1917]],[[156811,114582],[-3724,-1350]],[[157565,116499],[3417,-405]],[[164556,107313],[-1866,1629]],[[162690,108942],[-4588,4016]],[[165667,114366],[4057,-4965]],[[169724,109401],[-5168,-2088]],[[163905,107050],[651,263]],[[164556,107313],[479,-419]],[[164321,106606],[-104,-42],[-312,486]],[[165035,106894],[5065,2047]],[[170100,108941],[1167,-1429],[25936,-15501],[-12006,-4071]],[[185197,87940],[-3414,-1158]],[[181783,86782],[-559,-189]],[[169724,109401],[376,-460]],[[91661,101840],[5436,6533],[23921,12457],[3403,-397]],[[115981,97269],[-9707,-4367]],[[108312,28170],[-49,-119]],[[108263,28051],[-2615,305],[-73,-146],[-1621,180]],[[117158,27014],[-4556,531]],[[112602,27545],[35,111]],[[112602,27545],[-4339,506]],[[191332,81575],[-9549,5207]],[[185197,87940],[9063,-4469],[-2928,-1896]],[[191332,81575],[-390,-253]],[[163905,107050],[-1215,1892]],[[381155,219573],[-820,86]],[[380335,219659],[-17272,1482],[-3691,-10058]],[[359372,211083],[-1274,-3470]],[[358098,207613],[-1279,-3486]],[[356819,204127],[-1295,-3527]],[[355524,200600],[-1978,-5389]],[[353546,195211],[-9448,-25800],[33629,-4165],[0,-1862],[-34285,4183],[-11279,-30729],[-3457,0],[11376,31141],[717,1902],[19459,53328],[17469,-1524],[508,-43],[2920,-2069]],[[371152,209748],[-11780,1335]],[[380335,219659],[-170,-526],[1469,-156]],[[381634,218977],[-3907,-3440],[-6575,-5789]],[[359549,200167],[-6003,-4956]],[[355524,200600],[4025,-433]],[[367239,206517],[-9141,1096]],[[371152,209748],[-3913,-3231]],[[363370,203323],[-6551,804]],[[367239,206517],[-3869,-3194]],[[363370,203323],[-3821,-3156]],[[391334,233026],[5527,583],[-8805,-9153],[3278,8570]],[[381155,219573],[649,-460],[-170,-136]],[[625376,125567],[-1408,177]],[[623968,125744],[3085,8343],[1391,-168]],[[628444,133919],[-3068,-8352]],[[620860,117340],[3108,8404]],[[625376,125567],[-3061,-8376],[-1455,149]],[[647745,131586],[712,1922]],[[648457,133508],[861,-100],[-758,-1921],[-815,99]],[[646381,133750],[1137,3095],[2129,5795]],[[649647,142640],[2096,-225]],[[651743,142415],[-3286,-8907]],[[648457,133508],[-2076,242]],[[657092,208701],[-1016,-2838]],[[656076,205863],[-875,102]],[[655201,205965],[1055,2775]],[[656256,208740],[836,-39]],[[655201,205965],[-1393,162]],[[653808,206127],[990,2679]],[[654798,208806],[1458,-66]],[[636957,156298],[-1495,156]],[[635462,156454],[952,2578]],[[636414,159032],[1489,-164]],[[637903,158868],[-359,-976]],[[637544,157892],[-587,-1594]],[[636859,156032],[-1492,163]],[[635367,156195],[95,259]],[[636957,156298],[-98,-266]],[[636733,155688],[-1494,161]],[[635239,155849],[128,346]],[[636859,156032],[-126,-344]],[[641674,156250],[-149,-431],[-4568,479]],[[637544,157892],[4525,-504]],[[642069,157388],[-395,-1138]],[[656327,154711],[-288,-772]],[[656039,153939],[-1977,216]],[[654062,154155],[-12468,1360]],[[641594,155515],[-4735,517]],[[641674,156250],[7697,-809]],[[649371,155441],[3614,-379]],[[652985,155062],[3342,-351]],[[642069,157388],[341,986]],[[642410,158374],[7709,-847]],[[650119,157527],[-748,-2086]],[[653751,157129],[-766,-2067]],[[650119,157527],[3632,-398]],[[653751,157129],[3341,-367]],[[657092,156762],[-765,-2051]],[[635774,153081],[-1494,171]],[[634280,153252],[959,2597]],[[636733,155688],[-959,-2607]],[[641465,155179],[-1012,-2632]],[[640453,152547],[-4679,534]],[[636733,155688],[4732,-509]],[[652901,151127],[-12448,1420]],[[641465,155179],[129,336]],[[654062,154155],[-1015,-2647]],[[653047,151508],[-146,-381]],[[637903,158868],[4507,-494]],[[659887,242632],[-4932,574]],[[660795,246213],[370,-39],[-1278,-3542]],[[657865,237715],[-1612,-4333],[-375,42]],[[655878,233424],[-3405,382]],[[652473,233806],[388,1041]],[[652861,234847],[2920,-214],[1223,3178]],[[657004,237811],[861,-96]],[[649088,232968],[-692,90]],[[648396,233058],[776,2061],[3689,-272]],[[652473,233806],[-2945,329],[-440,-1167]],[[652473,233806],[-454,-1220],[-2931,382]],[[657004,237811],[-2918,328]],[[654086,238139],[200,535]],[[654286,238674],[447,-52],[1024,2609]],[[655757,241231],[3276,-375]],[[659033,240856],[-425,-1141]],[[658608,239715],[-828,111],[-776,-2015]],[[650170,241505],[-665,76]],[[649505,241581],[119,354]],[[649624,241935],[684,-79]],[[650308,241856],[-138,-351]],[[650170,241505],[-293,-741],[-623,73]],[[649254,240837],[251,744]],[[616492,245308],[-462,53]],[[616030,245361],[150,410]],[[616180,245771],[462,-53]],[[616642,245718],[-150,-410]],[[632231,225860],[56,153]],[[632287,226013],[12891,-1525],[3218,8570]],[[649088,232968],[-312,-828]],[[648776,232140],[-2971,-7888],[-684,81],[-12890,1527]],[[632287,226013],[3179,8731],[12930,-1686]],[[652861,234847],[1225,3292]],[[658608,239715],[-743,-2000]],[[655878,233424],[-747,-2040],[-5741,683],[-614,73]],[[610369,228603],[5900,16099]],[[616269,244702],[2353,-276]],[[618622,244426],[-5957,-16094]],[[612665,228332],[-2296,271]],[[619000,245448],[-150,-406]],[[618850,245042],[-2358,266]],[[616642,245718],[2358,-270]],[[618850,245042],[-228,-616]],[[616269,244702],[223,606]],[[808940,136012],[-10284,1279]],[[798656,137291],[707,1795]],[[799363,139086],[9765,-1564]],[[807456,132145],[-10106,1283],[1155,3417],[151,446]],[[719445,124653],[-4573,556]],[[714872,125209],[324,833],[-1228,149]],[[713968,126191],[3863,10654],[2148,5927],[46,122],[2478,5636]],[[722503,148530],[247,-14],[532,926],[-363,36]],[[722919,149478],[973,2212],[2068,3706],[1525,2023],[2077,2048],[1537,1043],[2623,1968]],[[733722,162478],[-7715,-20441],[-6562,-17384]],[[714872,125209],[-1211,147]],[[713661,125356],[307,835]],[[699511,71741],[-3437,430]],[[696074,72171],[700,6997]],[[696774,79168],[1575,-147],[278,898],[-1760,178]],[[696867,80097],[37,367],[767,2814],[8454,22272]],[[706125,105550],[738,-52],[347,959],[-708,86]],[[706502,106543],[6451,16993]],[[712953,123536],[5771,-712],[-19213,-51083]],[[696774,79168],[93,929]],[[706125,105550],[377,993]],[[799363,139086],[1847,4691]],[[665321,186058],[631,1789]],[[665952,187847],[2779,-348],[385,161],[1522,-219],[-805,-2437],[-4512,1054]],[[677948,186295],[-707,-1964]],[[677241,184331],[-5432,645],[697,1989],[5442,-670]],[[761848,175928],[-11154,1362]],[[750694,177290],[12761,8263]],[[763455,185553],[948,-483],[1115,692],[-922,530]],[[764596,186292],[8577,5454],[15027,9362]],[[788200,201108],[1075,-595],[1218,704],[-1136,611]],[[789357,201828],[8088,5039],[10445,5166],[14516,7180]],[[822406,219213],[1086,-713],[1236,628],[-1063,717]],[[823665,219845],[1515,761]],[[825180,220606],[10916,-1323]],[[836096,219283],[-12278,-6425],[-15928,-8444],[-9109,-4830],[-5161,-3161],[-11859,-7563],[-19913,-12932]],[[763455,185553],[1141,739]],[[788200,201108],[1157,720]],[[722503,148530],[416,948]],[[759422,174379],[-19901,-16022]],[[739521,158357],[-3904,474]],[[735617,158831],[2542,6750]],[[738159,165581],[2252,2087],[8613,7983]],[[749024,175651],[10398,-1272]],[[866232,235902],[-4543,-2260]],[[861689,233642],[1018,2709]],[[862841,236707],[711,1893]],[[856615,228766],[-3617,-9614],[-13355,1597]],[[839643,220749],[4929,3136],[-642,383]],[[843930,224268],[7910,5059]],[[851840,229327],[4775,-561]],[[842216,231264],[-235,27]],[[841981,231291],[9955,6343],[8809,3067]],[[860745,240701],[-589,-303]],[[860156,240398],[-12274,-6296]],[[847882,234102],[-517,-259]],[[847365,233843],[-1720,-861]],[[845645,232982],[-161,-81]],[[845484,232901],[-3268,-1637]],[[843930,224268],[-5310,-3397]],[[838620,220871],[-10984,1314]],[[827636,222185],[13175,8361],[101,64]],[[840912,230610],[10928,-1283]],[[822406,219213],[1259,632]],[[842216,231264],[-1304,-654]],[[840912,230610],[1069,681]],[[842216,231264],[10679,-1263]],[[852895,230001],[-1055,-674]],[[857236,232777],[-4341,-2776]],[[845484,232901],[555,-636],[205,63]],[[846244,232328],[1931,595]],[[848175,232923],[606,186],[-899,993]],[[860156,240398],[-545,-747],[485,-1630]],[[860096,238021],[-1828,-890],[683,-2156]],[[858951,234975],[-1022,-441],[-693,-1757]],[[848175,232923],[-810,920]],[[845645,232982],[599,-654]],[[860745,240701],[413,144]],[[861158,240845],[-1062,-2824]],[[860096,238021],[-1145,-3046]],[[858405,233525],[-1169,-748]],[[858951,234975],[-546,-1450]],[[857236,232777],[-1241,-3142]],[[855995,229635],[-3100,366]],[[856901,229528],[-906,107]],[[858405,233525],[-1504,-3997]],[[839643,220749],[-1023,122]],[[838620,220871],[-2524,-1588]],[[825180,220606],[2456,1579]],[[856901,229528],[-286,-762]],[[977016,185124],[-803,96]],[[976213,185220],[3972,3945],[854,6522],[797,-77],[736,3834],[-1424,49],[462,2816]],[[981610,202309],[3117,-357]],[[984727,201952],[-359,-2587],[-1436,37],[-767,-3798],[803,-81],[-1786,-6119],[435,-42],[-4601,-4238]],[[972126,180884],[114,510]],[[972240,181394],[2273,-195],[1700,4021]],[[977016,185124],[165,-20],[-1951,-4519],[-3104,299]],[[979310,215624],[205,54],[6283,-1398]],[[985798,214280],[18,-424],[-2874,-175],[-3486,785],[14,320],[226,258],[-386,580]],[[632287,226013],[-19622,2319]],[[618622,244426],[25408,-2977]],[[644030,241449],[-687,-1888],[3581,-709],[1293,1744],[885,-210]],[[649102,240386],[-360,-1068],[5544,-644]],[[644030,241449],[5224,-612]],[[649254,240837],[-152,-451]],[[650308,241856],[5449,-625]],[[644416,242532],[5208,-597]],[[649505,241581],[-5223,589]],[[644282,242170],[134,362]],[[619000,245448],[25416,-2916]],[[644282,242170],[-25432,2872]],[[644282,242170],[-252,-721]],[[701587,261769],[2488,-278],[-4721,-13588],[-4238,-12199]],[[695116,235704],[-5575,627],[-636,-1768],[141,0],[5445,-656]],[[694491,233907],[-16543,-47612]],[[677241,184331],[-2233,-6195],[-3046,335]],[[671962,178471],[-6511,716]],[[665451,179187],[-948,105],[-1510,166],[1510,4280],[818,2320]],[[665952,187847],[5711,16189]],[[671663,204036],[1376,3900]],[[673039,207936],[8820,27433]],[[681859,235369],[4755,-576],[643,1808],[-4821,565]],[[682436,237166],[3453,10737],[106,225]],[[691172,261426],[588,1544],[2295,-295]],[[681859,235369],[577,1797]],[[695116,235704],[-625,-1797]],[[864258,249215],[-485,-1362]],[[863773,247853],[-2526,296]],[[861247,248149],[532,1339]],[[863773,247853],[-932,-2618]],[[862841,245235],[-2407,250],[716,2418],[97,246]],[[671663,204036],[-7160,840],[-8427,987]],[[657092,208701],[7411,-355],[8536,-410]],[[951871,244104],[10409,-1240],[-968,-2341],[-9078,3030],[-363,551]],[[972126,180884],[-1320,127],[8,211],[223,275],[1203,-103]],[[985790,214456],[-6151,1370],[-2,87],[-376,2]],[[979261,215915],[54,271],[6453,-1233],[22,-497]],[[602850,81498],[-81735,9608],[0,1837],[82373,-9736],[18929,51507],[-18116,2131],[-72216,8583],[-3203,-8583]],[[525467,136845],[3294,8939],[-7646,707],[-82927,9794],[-7321,-19447],[-3577,0],[7537,19850],[626,1783],[3513,-419],[82149,-9386],[8294,-1049],[3361,-391],[87693,-10381],[2589,-349],[130,349],[16706,45051]],[[639888,181896],[1290,3481]],[[641178,185377],[20462,55180],[-2607,299]],[[616180,245771],[-18676,2132],[17159,0],[33298,-3883]],[[659887,242632],[648,-76]],[[679530,293840],[-15027,1766],[0,1886],[15013,-1743]],[[698569,347296],[-34066,3988],[0,1023],[56717,-6832]],[[705087,290793],[-19558,2335],[-11825,-29563]],[[668451,250192],[-599,-2289],[-3349,-12819],[-9705,-26278]],[[653808,206127],[-17394,-47095]],[[634280,153252],[-6153,-16407],[-348,-929],[18602,-2166]],[[647745,131586],[-19301,2333]],[[620860,117340],[-12814,-34640],[17939,-2134],[-618,-1716],[-17956,2137]],[[609892,228660],[5915,16096]],[[615807,244756],[462,-54]],[[610369,228603],[-477,57]],[[612665,228332],[-55,-149]],[[612610,228183],[-2295,272]],[[610315,228455],[54,148]],[[632231,225860],[-19621,2323]],[[610315,228455],[-477,56],[54,149]],[[615807,244756],[223,605]],[[639726,185557],[1452,-180]],[[639888,181896],[-1382,179]],[[638506,182075],[608,1735]],[[639114,183810],[612,1747]],[[639114,183810],[-3120,333]],[[635994,184143],[655,1795],[3077,-381]],[[638506,182075],[-3118,405],[606,1663]],[[834275,168588],[-676,-1817]],[[833599,166771],[-2752,351]],[[830847,167122],[707,1839],[2721,-373]],[[930736,155163],[-2936,359]],[[927800,155522],[12590,33715],[6113,16289],[255,679],[-6855,807],[-84507,9949],[-18144,-48738],[-649,-1741]],[[836603,166482],[-3004,289]],[[834275,168588],[15821,42543],[59,153],[2216,6030],[-15095,1828],[-1180,141]],[[861158,240845],[1683,4390]],[[866614,255433],[5971,15603],[-64695,7501]],[[807890,280540],[65365,-7657],[19483,51158],[-84848,10273]],[[807890,335267],[143388,-17191],[0,-928],[-55208,6483],[-19578,-51173],[74786,-8679],[0,-1869],[-13514,1568],[-5034,-1285],[-1872,235],[-3764,1035],[-1768,1410],[-49522,5719],[-8723,-22689],[-1956,-5113]],[[861689,233642],[-5575,-14844],[91234,-10960],[3930,8812],[2900,-342],[-2041,-5025],[-162,-397],[-1326,-3183],[490,-57],[1090,-126],[12096,-1400],[14556,-1686],[21118,-2349],[-597,-1817],[-14675,1684]],[[981610,202309],[-30332,3366],[-530,59],[-1072,110],[-260,-694],[-6090,-16272],[-12590,-33715]],[[656039,153939],[-997,-2674]],[[655042,151265],[-1995,243]],[[655042,151265],[-138,-372]],[[654904,150893],[-2003,234]],[[654904,150893],[-3161,-8478]],[[649647,142640],[3254,8487]],[[657092,156762],[7411,19881],[948,2544]],[[671962,178471],[-7459,-19529],[-8440,-22097],[-10033,-27001],[-6053,761],[7768,20981]],[[425046,267499],[2677,-294],[-893,-2566]],[[664503,76073],[31571,-3902]],[[699511,71741],[3089,-394]],[[702600,71347],[2519,-311]],[[705119,71036],[240,-29],[38009,-4722],[3907,-467],[46327,-5701]],[[793602,60117],[2866,-328]],[[796468,59789],[11422,-1477],[80242,-9707]],[[888132,48605],[2958,-432]],[[891090,48173],[49978,-6084],[-635,-1625],[-5733,-14676],[-3012,0],[5942,15035],[-47182,5719],[-7754,-20754],[-3012,0],[-22,0],[7782,21131],[-79552,9589],[-12014,1528],[-12055,-32248],[-3053,0],[12180,32615],[-46337,5693],[-44602,5490],[-16294,-43798],[-3513,0],[16669,44208],[-34368,4290]],[[888132,48605],[19027,51163],[-91019,11009],[-8250,-22025],[-11422,-28963]],[[793602,60117],[14288,36371],[5284,14623],[-5284,652],[-13569,1684],[-4528,562],[-67074,8326],[-914,113],[-4021,-10698],[-652,-1736],[-84,-222],[-1521,-4047],[-6622,-17620],[-1203,-3201],[-1350,-3593],[-413,-1100]],[[705939,80231],[-14,-37],[-3325,-8847]],[[712953,123536],[708,1820]],[[719445,124653],[3119,-381]],[[722564,124272],[763,-94],[84563,-10455],[5999,-744]],[[813889,112979],[2848,-354]],[[816737,112625],[91120,-11055]],[[907857,101570],[2966,-431]],[[910823,101139],[40455,-4931],[0,-1816],[-41087,4976],[-19101,-51195]],[[907857,101570],[13086,35275],[6046,16920],[-89888,10789],[-1114,133],[-869,-2331],[-9285,-25511],[-2461,-6760],[-6635,-17460]],[[813889,112979],[2224,6121],[4442,11382]],[[826555,147288],[3124,8552],[145,389],[2459,6627],[190,510],[593,1598],[-25176,3218],[-48468,6197]],[[749024,175651],[-2274,268],[-4498,530],[-2703,-7177],[-214,-567],[-212,-565],[-964,-2559]],[[735617,158831],[-2702,-7172]],[[732915,151659],[-63,-168]],[[732852,151491],[-571,-1517],[-93,-246],[-47,-125]],[[732141,149603],[-2978,-7907],[-16,-42],[-3176,-8463],[-3407,-8919]],[[733722,162478],[5413,14340],[676,1808],[3128,-388],[7755,-948]],[[761848,175928],[46042,-5876],[22957,-2930]],[[836603,166482],[1079,-130],[90118,-10830]],[[930736,155163],[20542,-2312],[30458,-3734],[-605,-1761],[-29853,3677],[-21243,2357],[-5908,-16545],[-13304,-35706]],[[705939,80231],[-820,-9195]],[[732852,151491],[370,-82]],[[733222,151409],[-1081,-1806]],[[732915,151659],[383,-106]],[[733298,151553],[-76,-144]],[[739521,158357],[-1836,-1539],[-1135,-1119],[-1361,-1521],[-1891,-2625]],[[985790,214456],[8,-176]],[[979310,215624],[-49,291]],[[703046,327894],[6804,-870]],[[709850,327024],[-583,-1403]],[[709267,325621],[-582,-1401]],[[708685,324220],[-4933,594]],[[709267,325621],[3880,-481]],[[713147,325140],[-556,-1390]],[[712591,323750],[-43,4],[-3863,466]],[[709850,327024],[3853,-493]],[[713703,326531],[-556,-1391]],[[712591,323750],[-724,-1895],[199,-25],[5165,-612]],[[713862,326933],[-159,-402]]],"bbox":[305.428,873.517,6130.188,11116.853],"transform":{"scale":[0.005824765824765825,0.010243346243346243],"translate":[305.428,873.517]}}