{"type":"Topology","objects":{"01452-4500-15.featurecollection":{"type":"GeometryCollection","geometries":[{"type":"Polygon","arcs":[[0,1,2,3,4,5,6,7,8]],"properties":{"市区町村名":"上川郡鷹栖町","大字名":null,"丁目名":null,"小字名":null,"地番":"土地改良-12","精度区分":null,"座標系":"任意座標系"}},{"type":"Polygon","arcs":[[9,10]],"properties":{"市区町村名":"上川郡鷹栖町","大字名":null,"丁目名":null,"小字名":null,"地番":"土地改良-13","精度区分":null,"座標系":"任意座標系"}},{"type":"Polygon","arcs":[[11,12,13,14,15,16,17,18,19,20,21]],"properties":{"市区町村名":"上川郡鷹栖町","大字名":null,"丁目名":null,"小字名":null,"地番":"土地改良-14","精度区分":null,"座標系":"任意座標系"}},{"type":"Polygon","arcs":[[22,23,24,25,26,27]],"properties":{"市区町村名":"上川郡鷹栖町","大字名":null,"丁目名":null,"小字名":null,"地番":"土地改良-41","精度区分":null,"座標系":"任意座標系"}},{"type":"Polygon","arcs":[[28,29,30,31,32,33,34,35,36,37,38,39,40,41,42,43,44,45,46,47,48,49,50,51,52,53,54,55,56,57,58,59,60,61,62,63]],"properties":{"市区町村名":"上川郡鷹栖町","大字名":null,"丁目名":null,"小字名":null,"地番":"土地改良-42","精度区分":null,"座標系":"任意座標系"}},{"type":"Polygon","arcs":[[-26,64,65]],"properties":{"市区町村名":"上川郡鷹栖町","大字名":null,"丁目名":null,"小字名":null,"地番":"6051-2","精度区分":null,"座標系":"任意座標系"}},{"type":"Polygon","arcs":[[-24,66,67]],"properties":{"市区町村名":"上川郡鷹栖町","大字名":null,"丁目名":null,"小字名":null,"地番":"6051-3","精度区分":null,"座標系":"任意座標系"}},{"type":"Polygon","arcs":[[68,-28,69,70,71,72,73,74]],"properties":{"市区町村名":"上川郡鷹栖町","大字名":null,"丁目名":null,"小字名":null,"地番":"6052-1","精度区分":null,"座標系":"任意座標系"}},{"type":"Polygon","arcs":[[75,-71]],"properties":{"市区町村名":"上川郡鷹栖町","大字名":null,"丁目名":null,"小字名":null,"地番":"6052-2","精度区分":null,"座標系":"任意座標系"}},{"type":"Polygon","arcs":[[76,77,-73]],"properties":{"市区町村名":"上川郡鷹栖町","大字名":null,"丁目名":null,"小字名":null,"地番":"6052-3","精度区分":null,"座標系":"任意座標系"}},{"type":"Polygon","arcs":[[78,-74,-78,79]],"properties":{"市区町村名":"上川郡鷹栖町","大字名":null,"丁目名":null,"小字名":null,"地番":"6052-4","精度区分":null,"座標系":"任意座標系"}},{"type":"Polygon","arcs":[[80,81,-67,-23,-69,82,83,84]],"properties":{"市区町村名":"上川郡鷹栖町","大字名":null,"丁目名":null,"小字名":null,"地番":"6053","精度区分":null,"座標系":"任意座標系"}},{"type":"Polygon","arcs":[[85,86,87,-85,88,89,90]],"properties":{"市区町村名":"上川郡鷹栖町","大字名":null,"丁目名":null,"小字名":null,"地番":"6054-1","精度区分":null,"座標系":"任意座標系"}},{"type":"Polygon","arcs":[[-88,91,92,-81]],"properties":{"市区町村名":"上川郡鷹栖町","大字名":null,"丁目名":null,"小字名":null,"地番":"6054-2","精度区分":null,"座標系":"任意座標系"}},{"type":"Polygon","arcs":[[93,94,95,-89,-84]],"properties":{"市区町村名":"上川郡鷹栖町","大字名":null,"丁目名":null,"小字名":null,"地番":"6055","精度区分":null,"座標系":"任意座標系"}},{"type":"Polygon","arcs":[[96,97,98,-90,-96]],"properties":{"市区町村名":"上川郡鷹栖町","大字名":null,"丁目名":null,"小字名":null,"地番":"6056","精度区分":null,"座標系":"任意座標系"}},{"type":"Polygon","arcs":[[99,-91,-99,100]],"properties":{"市区町村名":"上川郡鷹栖町","大字名":null,"丁目名":null,"小字名":null,"地番":"6057","精度区分":null,"座標系":"任意座標系"}},{"type":"Polygon","arcs":[[-87,101,102,103,104,105]],"properties":{"市区町村名":"上川郡鷹栖町","大字名":null,"丁目名":null,"小字名":null,"地番":"6058-3","精度区分":null,"座標系":"任意座標系"}},{"type":"Polygon","arcs":[[106,107,108,-101,-98,109,110,111,112,113]],"properties":{"市区町村名":"上川郡鷹栖町","大字名":null,"丁目名":null,"小字名":null,"地番":"6064","精度区分":null,"座標系":"任意座標系"}},{"type":"Polygon","arcs":[[114,115,116,117,118,119]],"properties":{"市区町村名":"上川郡鷹栖町","大字名":null,"丁目名":null,"小字名":null,"地番":"6065","精度区分":null,"座標系":"任意座標系"}},{"type":"Polygon","arcs":[[120,-107,121]],"properties":{"市区町村名":"上川郡鷹栖町","大字名":null,"丁目名":null,"小字名":null,"地番":"6066","精度区分":null,"座標系":"任意座標系"}},{"type":"Polygon","arcs":[[122,123,124,125,126,127,-116,128]],"properties":{"市区町村名":"上川郡鷹栖町","大字名":null,"丁目名":null,"小字名":null,"地番":"6067","精度区分":null,"座標系":"任意座標系"}},{"type":"Polygon","arcs":[[129,-127]],"properties":{"市区町村名":"上川郡鷹栖町","大字名":null,"丁目名":null,"小字名":null,"地番":"6068","精度区分":null,"座標系":"任意座標系"}},{"type":"Polygon","arcs":[[-128,-130,-126,130,131,132,133,-22,134,135,136,137,138,139,140,141,-108,-121,142,-117]],"properties":{"市区町村名":"上川郡鷹栖町","大字名":null,"丁目名":null,"小字名":null,"地番":"6069-1","精度区分":null,"座標系":"任意座標系"}},{"type":"Polygon","arcs":[[143,144,-134,145]],"properties":{"市区町村名":"上川郡鷹栖町","大字名":null,"丁目名":null,"小字名":null,"地番":"6069-2","精度区分":null,"座標系":"任意座標系"}},{"type":"Polygon","arcs":[[146,-136,147]],"properties":{"市区町村名":"上川郡鷹栖町","大字名":null,"丁目名":null,"小字名":null,"地番":"6070-1","精度区分":null,"座標系":"任意座標系"}},{"type":"Polygon","arcs":[[-137,-147,148,149]],"properties":{"市区町村名":"上川郡鷹栖町","大字名":null,"丁目名":null,"小字名":null,"地番":"6070-2","精度区分":null,"座標系":"任意座標系"}},{"type":"Polygon","arcs":[[-138,-150,150,151]],"properties":{"市区町村名":"上川郡鷹栖町","大字名":null,"丁目名":null,"小字名":null,"地番":"6071","精度区分":null,"座標系":"任意座標系"}},{"type":"Polygon","arcs":[[152,153,-19]],"properties":{"市区町村名":"上川郡鷹栖町","大字名":null,"丁目名":null,"小字名":null,"地番":"6072-2","精度区分":null,"座標系":"任意座標系"}},{"type":"Polygon","arcs":[[154,-153,-18,155]],"properties":{"市区町村名":"上川郡鷹栖町","大字名":null,"丁目名":null,"小字名":null,"地番":"6072-3","精度区分":null,"座標系":"任意座標系"}},{"type":"Polygon","arcs":[[156,-156,-17,157,158]],"properties":{"市区町村名":"上川郡鷹栖町","大字名":null,"丁目名":null,"小字名":null,"地番":"6073","精度区分":null,"座標系":"任意座標系"}},{"type":"Polygon","arcs":[[159,-158,-16]],"properties":{"市区町村名":"上川郡鷹栖町","大字名":null,"丁目名":null,"小字名":null,"地番":"6074","精度区分":null,"座標系":"任意座標系"}},{"type":"Polygon","arcs":[[160,161,162,163]],"properties":{"市区町村名":"上川郡鷹栖町","大字名":null,"丁目名":null,"小字名":null,"地番":"6075-1","精度区分":null,"座標系":"任意座標系"}},{"type":"Polygon","arcs":[[-161,164,165]],"properties":{"市区町村名":"上川郡鷹栖町","大字名":null,"丁目名":null,"小字名":null,"地番":"6075-2","精度区分":null,"座標系":"任意座標系"}},{"type":"Polygon","arcs":[[166,-14]],"properties":{"市区町村名":"上川郡鷹栖町","大字名":null,"丁目名":null,"小字名":null,"地番":"6077-2","精度区分":null,"座標系":"任意座標系"}},{"type":"Polygon","arcs":[[-145,167,-12]],"properties":{"市区町村名":"上川郡鷹栖町","大字名":null,"丁目名":null,"小字名":null,"地番":"6078-2","精度区分":null,"座標系":"任意座標系"}},{"type":"Polygon","arcs":[[-135,-21,168,-151,-149,-148]],"properties":{"市区町村名":"上川郡鷹栖町","大字名":null,"丁目名":null,"小字名":null,"地番":"6079","精度区分":null,"座標系":"任意座標系"}},{"type":"Polygon","arcs":[[169,-133,170]],"properties":{"市区町村名":"上川郡鷹栖町","大字名":null,"丁目名":null,"小字名":null,"地番":"6080-1","精度区分":null,"座標系":"任意座標系"}},{"type":"Polygon","arcs":[[171,-146,-170,172]],"properties":{"市区町村名":"上川郡鷹栖町","大字名":null,"丁目名":null,"小字名":null,"地番":"6080-2","精度区分":null,"座標系":"任意座標系"}},{"type":"Polygon","arcs":[[173,174,175,176,177,-173,-171,-132,178,-124]],"properties":{"市区町村名":"上川郡鷹栖町","大字名":null,"丁目名":null,"小字名":null,"地番":"6081","精度区分":null,"座標系":"任意座標系"}},{"type":"Polygon","arcs":[[179,-176,180,181,182]],"properties":{"市区町村名":"上川郡鷹栖町","大字名":null,"丁目名":null,"小字名":null,"地番":"6082-1","精度区分":null,"座標系":"任意座標系"}},{"type":"Polygon","arcs":[[-181,-175,183,184,185,186,187]],"properties":{"市区町村名":"上川郡鷹栖町","大字名":null,"丁目名":null,"小字名":null,"地番":"6082-2","精度区分":null,"座標系":"任意座標系"}},{"type":"Polygon","arcs":[[-177,-180,188]],"properties":{"市区町村名":"上川郡鷹栖町","大字名":null,"丁目名":null,"小字名":null,"地番":"6082-3","精度区分":null,"座標系":"任意座標系"}},{"type":"Polygon","arcs":[[189,-129,-115]],"properties":{"市区町村名":"上川郡鷹栖町","大字名":null,"丁目名":null,"小字名":null,"地番":"6083","精度区分":null,"座標系":"任意座標系"}},{"type":"Polygon","arcs":[[190,-186,191,-184,-174,-123,-190,-120,192]],"properties":{"市区町村名":"上川郡鷹栖町","大字名":null,"丁目名":null,"小字名":null,"地番":"6084-1","精度区分":null,"座標系":"任意座標系"}},{"type":"Polygon","arcs":[[193,-193]],"properties":{"市区町村名":"上川郡鷹栖町","大字名":null,"丁目名":null,"小字名":null,"地番":"6084-2","精度区分":null,"座標系":"任意座標系"}},{"type":"Polygon","arcs":[[-185,-192]],"properties":{"市区町村名":"上川郡鷹栖町","大字名":null,"丁目名":null,"小字名":null,"地番":"6085","精度区分":null,"座標系":"任意座標系"}},{"type":"Polygon","arcs":[[-182,-188,194]],"properties":{"市区町村名":"上川郡鷹栖町","大字名":null,"丁目名":null,"小字名":null,"地番":"6086","精度区分":null,"座標系":"任意座標系"}},{"type":"Polygon","arcs":[[195,196,197,198,199]],"properties":{"市区町村名":"上川郡鷹栖町","大字名":null,"丁目名":null,"小字名":null,"地番":"6087-2","精度区分":null,"座標系":"任意座標系"}},{"type":"Polygon","arcs":[[200,201,202,203]],"properties":{"市区町村名":"上川郡鷹栖町","大字名":null,"丁目名":null,"小字名":null,"地番":"6088-1","精度区分":null,"座標系":"任意座標系"}},{"type":"Polygon","arcs":[[204,205,206,-203]],"properties":{"市区町村名":"上川郡鷹栖町","大字名":null,"丁目名":null,"小字名":null,"地番":"6088-2","精度区分":null,"座標系":"任意座標系"}},{"type":"Polygon","arcs":[[207,-202,208,209]],"properties":{"市区町村名":"上川郡鷹栖町","大字名":null,"丁目名":null,"小字名":null,"地番":"6089-1","精度区分":null,"座標系":"任意座標系"}},{"type":"Polygon","arcs":[[210,-205,-208,211]],"properties":{"市区町村名":"上川郡鷹栖町","大字名":null,"丁目名":null,"小字名":null,"地番":"6089-2","精度区分":null,"座標系":"任意座標系"}},{"type":"Polygon","arcs":[[212,213,-210,214,215]],"properties":{"市区町村名":"上川郡鷹栖町","大字名":null,"丁目名":null,"小字名":null,"地番":"6090-1","精度区分":null,"座標系":"任意座標系"}},{"type":"Polygon","arcs":[[-214,216,-212]],"properties":{"市区町村名":"上川郡鷹栖町","大字名":null,"丁目名":null,"小字名":null,"地番":"6090-2","精度区分":null,"座標系":"任意座標系"}},{"type":"Polygon","arcs":[[217,218,219,-216]],"properties":{"市区町村名":"上川郡鷹栖町","大字名":null,"丁目名":null,"小字名":null,"地番":"6091","精度区分":null,"座標系":"任意座標系"}},{"type":"Polygon","arcs":[[220,-10,221,222,223]],"properties":{"市区町村名":"上川郡鷹栖町","大字名":null,"丁目名":null,"小字名":null,"地番":"6095","精度区分":null,"座標系":"任意座標系"}},{"type":"Polygon","arcs":[[224,-223,225,226,227,228]],"properties":{"市区町村名":"上川郡鷹栖町","大字名":null,"丁目名":null,"小字名":null,"地番":"6096-1","精度区分":null,"座標系":"任意座標系"}},{"type":"Polygon","arcs":[[-224,-225,229]],"properties":{"市区町村名":"上川郡鷹栖町","大字名":null,"丁目名":null,"小字名":null,"地番":"6096-2","精度区分":null,"座標系":"任意座標系"}},{"type":"Polygon","arcs":[[230,231,232,-227,233,234]],"properties":{"市区町村名":"上川郡鷹栖町","大字名":null,"丁目名":null,"小字名":null,"地番":"6097","精度区分":null,"座標系":"任意座標系"}},{"type":"Polygon","arcs":[[235,236,237]],"properties":{"市区町村名":"上川郡鷹栖町","大字名":null,"丁目名":null,"小字名":null,"地番":"6098-1","精度区分":null,"座標系":"任意座標系"}},{"type":"Polygon","arcs":[[238,-238,239,240]],"properties":{"市区町村名":"上川郡鷹栖町","大字名":null,"丁目名":null,"小字名":null,"地番":"6098-2","精度区分":null,"座標系":"任意座標系"}},{"type":"Polygon","arcs":[[241,242,-235,243,-236]],"properties":{"市区町村名":"上川郡鷹栖町","大字名":null,"丁目名":null,"小字名":null,"地番":"6099-1","精度区分":null,"座標系":"任意座標系"}},{"type":"Polygon","arcs":[[-239,244,245,-242]],"properties":{"市区町村名":"上川郡鷹栖町","大字名":null,"丁目名":null,"小字名":null,"地番":"6099-2","精度区分":null,"座標系":"任意座標系"}},{"type":"Polygon","arcs":[[-246,246,247,248,249,-231,-243]],"properties":{"市区町村名":"上川郡鷹栖町","大字名":null,"丁目名":null,"小字名":null,"地番":"6100","精度区分":null,"座標系":"任意座標系"}},{"type":"Polygon","arcs":[[250,-249,251,252]],"properties":{"市区町村名":"上川郡鷹栖町","大字名":null,"丁目名":null,"小字名":null,"地番":"6101-1","精度区分":null,"座標系":"任意座標系"}},{"type":"Polygon","arcs":[[-248,253,254,255,-252]],"properties":{"市区町村名":"上川郡鷹栖町","大字名":null,"丁目名":null,"小字名":null,"地番":"6101-2","精度区分":null,"座標系":"任意座標系"}},{"type":"Polygon","arcs":[[256,-253,-256,257]],"properties":{"市区町村名":"上川郡鷹栖町","大字名":null,"丁目名":null,"小字名":null,"地番":"6101-3","精度区分":null,"座標系":"任意座標系"}},{"type":"Polygon","arcs":[[-251,258,259,260,-232,-250]],"properties":{"市区町村名":"上川郡鷹栖町","大字名":null,"丁目名":null,"小字名":null,"地番":"6102-1","精度区分":null,"座標系":"任意座標系"}},{"type":"Polygon","arcs":[[-259,-257,261,262]],"properties":{"市区町村名":"上川郡鷹栖町","大字名":null,"丁目名":null,"小字名":null,"地番":"6102-2","精度区分":null,"座標系":"任意座標系"}},{"type":"Polygon","arcs":[[-233,-261,263,-262,-258,264,265,266,267,-228]],"properties":{"市区町村名":"上川郡鷹栖町","大字名":null,"丁目名":null,"小字名":null,"地番":"6103-1","精度区分":null,"座標系":"任意座標系"}},{"type":"Polygon","arcs":[[268,269,-265,-255]],"properties":{"市区町村名":"上川郡鷹栖町","大字名":null,"丁目名":null,"小字名":null,"地番":"6103-2","精度区分":null,"座標系":"任意座標系"}},{"type":"Polygon","arcs":[[-263,-264,-260]],"properties":{"市区町村名":"上川郡鷹栖町","大字名":null,"丁目名":null,"小字名":null,"地番":"6104","精度区分":null,"座標系":"任意座標系"}},{"type":"Polygon","arcs":[[270,271,-267]],"properties":{"市区町村名":"上川郡鷹栖町","大字名":null,"丁目名":null,"小字名":null,"地番":"6105","精度区分":null,"座標系":"任意座標系"}},{"type":"Polygon","arcs":[[-266,272,273,274,-271]],"properties":{"市区町村名":"上川郡鷹栖町","大字名":null,"丁目名":null,"小字名":null,"地番":"6106-1","精度区分":null,"座標系":"任意座標系"}},{"type":"Polygon","arcs":[[-273,-270,275,276]],"properties":{"市区町村名":"上川郡鷹栖町","大字名":null,"丁目名":null,"小字名":null,"地番":"6106-2","精度区分":null,"座標系":"任意座標系"}},{"type":"Polygon","arcs":[[277,278,279,280]],"properties":{"市区町村名":"上川郡鷹栖町","大字名":null,"丁目名":null,"小字名":null,"地番":"6107-2","精度区分":null,"座標系":"任意座標系"}},{"type":"Polygon","arcs":[[281,-280,282]],"properties":{"市区町村名":"上川郡鷹栖町","大字名":null,"丁目名":null,"小字名":null,"地番":"6108-2","精度区分":null,"座標系":"任意座標系"}},{"type":"Polygon","arcs":[[283,284,285]],"properties":{"市区町村名":"上川郡鷹栖町","大字名":null,"丁目名":null,"小字名":null,"地番":"6109-3","精度区分":null,"座標系":"任意座標系"}},{"type":"Polygon","arcs":[[-285,286,287]],"properties":{"市区町村名":"上川郡鷹栖町","大字名":null,"丁目名":null,"小字名":null,"地番":"6110-2","精度区分":null,"座標系":"任意座標系"}},{"type":"Polygon","arcs":[[288,289]],"properties":{"市区町村名":"上川郡鷹栖町","大字名":null,"丁目名":null,"小字名":null,"地番":"6111-2","精度区分":null,"座標系":"任意座標系"}},{"type":"Polygon","arcs":[[290,291,292,293,294]],"properties":{"市区町村名":"上川郡鷹栖町","大字名":null,"丁目名":null,"小字名":null,"地番":"6115-3","精度区分":null,"座標系":"任意座標系"}},{"type":"Polygon","arcs":[[295,296,297]],"properties":{"市区町村名":"上川郡鷹栖町","大字名":null,"丁目名":null,"小字名":null,"地番":"6118-1","精度区分":null,"座標系":"任意座標系"}},{"type":"Polygon","arcs":[[298,299,-296,300]],"properties":{"市区町村名":"上川郡鷹栖町","大字名":null,"丁目名":null,"小字名":null,"地番":"6118-2","精度区分":null,"座標系":"任意座標系"}},{"type":"Polygon","arcs":[[-292,301,-301,302]],"properties":{"市区町村名":"上川郡鷹栖町","大字名":null,"丁目名":null,"小字名":null,"地番":"6119-2","精度区分":null,"座標系":"任意座標系"}},{"type":"Polygon","arcs":[[303,304,305,306]],"properties":{"市区町村名":"上川郡鷹栖町","大字名":null,"丁目名":null,"小字名":null,"地番":"6121-3","精度区分":null,"座標系":"任意座標系"}},{"type":"Polygon","arcs":[[307,308,309,-304]],"properties":{"市区町村名":"上川郡鷹栖町","大字名":null,"丁目名":null,"小字名":null,"地番":"6122-2","精度区分":null,"座標系":"任意座標系"}},{"type":"Polygon","arcs":[[310,311,312,313]],"properties":{"市区町村名":"上川郡鷹栖町","大字名":null,"丁目名":null,"小字名":null,"地番":"6123-1","精度区分":null,"座標系":"任意座標系"}},{"type":"Polygon","arcs":[[314,315,-311,-309]],"properties":{"市区町村名":"上川郡鷹栖町","大字名":null,"丁目名":null,"小字名":null,"地番":"6123-2","精度区分":null,"座標系":"任意座標系"}},{"type":"Polygon","arcs":[[316,317,318,-312]],"properties":{"市区町村名":"上川郡鷹栖町","大字名":null,"丁目名":null,"小字名":null,"地番":"6124-1","精度区分":null,"座標系":"任意座標系"}},{"type":"Polygon","arcs":[[319,-317,-316,320]],"properties":{"市区町村名":"上川郡鷹栖町","大字名":null,"丁目名":null,"小字名":null,"地番":"6124-2","精度区分":null,"座標系":"任意座標系"}},{"type":"Polygon","arcs":[[321,322,323,-318]],"properties":{"市区町村名":"上川郡鷹栖町","大字名":null,"丁目名":null,"小字名":null,"地番":"6127-1","精度区分":null,"座標系":"任意座標系"}},{"type":"Polygon","arcs":[[324,325,-322,-320]],"properties":{"市区町村名":"上川郡鷹栖町","大字名":null,"丁目名":null,"小字名":null,"地番":"6127-2","精度区分":null,"座標系":"任意座標系"}},{"type":"Polygon","arcs":[[326,327,328,329,330,-323]],"properties":{"市区町村名":"上川郡鷹栖町","大字名":null,"丁目名":null,"小字名":null,"地番":"6129-1","精度区分":null,"座標系":"任意座標系"}},{"type":"Polygon","arcs":[[331,332,-327,-326]],"properties":{"市区町村名":"上川郡鷹栖町","大字名":null,"丁目名":null,"小字名":null,"地番":"6129-2","精度区分":null,"座標系":"任意座標系"}},{"type":"Polygon","arcs":[[333,334,-328]],"properties":{"市区町村名":"上川郡鷹栖町","大字名":null,"丁目名":null,"小字名":null,"地番":"6130-1","精度区分":null,"座標系":"任意座標系"}},{"type":"Polygon","arcs":[[-333,335,336,-334]],"properties":{"市区町村名":"上川郡鷹栖町","大字名":null,"丁目名":null,"小字名":null,"地番":"6130-2","精度区分":null,"座標系":"任意座標系"}},{"type":"Polygon","arcs":[[337,338,339,-329,-335]],"properties":{"市区町村名":"上川郡鷹栖町","大字名":null,"丁目名":null,"小字名":null,"地番":"6131-1","精度区分":null,"座標系":"任意座標系"}},{"type":"Polygon","arcs":[[-337,340,341,-338]],"properties":{"市区町村名":"上川郡鷹栖町","大字名":null,"丁目名":null,"小字名":null,"地番":"6131-2","精度区分":null,"座標系":"任意座標系"}},{"type":"Polygon","arcs":[[-340,342,-330]],"properties":{"市区町村名":"上川郡鷹栖町","大字名":null,"丁目名":null,"小字名":null,"地番":"6132","精度区分":null,"座標系":"任意座標系"}},{"type":"Polygon","arcs":[[-342,343,344,345]],"properties":{"市区町村名":"上川郡鷹栖町","大字名":null,"丁目名":null,"小字名":null,"地番":"6133-2","精度区分":null,"座標系":"任意座標系"}},{"type":"Polygon","arcs":[[346,347,-345,348]],"properties":{"市区町村名":"上川郡鷹栖町","大字名":null,"丁目名":null,"小字名":null,"地番":"6134-2","精度区分":null,"座標系":"任意座標系"}},{"type":"Polygon","arcs":[[349,350,351,-347]],"properties":{"市区町村名":"上川郡鷹栖町","大字名":null,"丁目名":null,"小字名":null,"地番":"6138-2","精度区分":null,"座標系":"任意座標系"}},{"type":"Polygon","arcs":[[352,353,-351,354]],"properties":{"市区町村名":"上川郡鷹栖町","大字名":null,"丁目名":null,"小字名":null,"地番":"6139-2","精度区分":null,"座標系":"任意座標系"}},{"type":"Polygon","arcs":[[355,-353,356,357,358]],"properties":{"市区町村名":"上川郡鷹栖町","大字名":null,"丁目名":null,"小字名":null,"地番":"6140","精度区分":null,"座標系":"任意座標系"}},{"type":"Polygon","arcs":[[-341,-336,-332,-325,-321,-315,-308,-307,359,-299,-302,-291,360,361,-357,-355,-350,-349,-344]],"properties":{"市区町村名":"上川郡鷹栖町","大字名":null,"丁目名":null,"小字名":null,"地番":"6141","精度区分":null,"座標系":"任意座標系"}},{"type":"Polygon","arcs":[[362]],"properties":{"市区町村名":"上川郡鷹栖町","大字名":null,"丁目名":null,"小字名":null,"地番":"6153-2","精度区分":null,"座標系":"任意座標系"}},{"type":"Polygon","arcs":[[363,364,365,366]],"properties":{"市区町村名":"上川郡鷹栖町","大字名":null,"丁目名":null,"小字名":null,"地番":"6156-4","精度区分":null,"座標系":"任意座標系"}},{"type":"Polygon","arcs":[[367,368,369,370,371]],"properties":{"市区町村名":"上川郡鷹栖町","大字名":null,"丁目名":null,"小字名":null,"地番":"6156-5","精度区分":null,"座標系":"任意座標系"}},{"type":"Polygon","arcs":[[-366,372,373,374]],"properties":{"市区町村名":"上川郡鷹栖町","大字名":null,"丁目名":null,"小字名":null,"地番":"6156-6","精度区分":null,"座標系":"任意座標系"}},{"type":"Polygon","arcs":[[375,376,377,-374]],"properties":{"市区町村名":"上川郡鷹栖町","大字名":null,"丁目名":null,"小字名":null,"地番":"6156-7","精度区分":null,"座標系":"任意座標系"}},{"type":"Polygon","arcs":[[378,-370,379,-364]],"properties":{"市区町村名":"上川郡鷹栖町","大字名":null,"丁目名":null,"小字名":null,"地番":"6158-3","精度区分":null,"座標系":"任意座標系"}},{"type":"Polygon","arcs":[[-377,380,381,382]],"properties":{"市区町村名":"上川郡鷹栖町","大字名":null,"丁目名":null,"小字名":null,"地番":"6159-2","精度区分":null,"座標系":"任意座標系"}},{"type":"Polygon","arcs":[[383,384,-382]],"properties":{"市区町村名":"上川郡鷹栖町","大字名":null,"丁目名":null,"小字名":null,"地番":"6160-2","精度区分":null,"座標系":"任意座標系"}},{"type":"Polygon","arcs":[[385,386,387,388]],"properties":{"市区町村名":"上川郡鷹栖町","大字名":null,"丁目名":null,"小字名":null,"地番":"6164","精度区分":null,"座標系":"任意座標系"}},{"type":"Polygon","arcs":[[389,390,391,-389]],"properties":{"市区町村名":"上川郡鷹栖町","大字名":null,"丁目名":null,"小字名":null,"地番":"6165","精度区分":null,"座標系":"任意座標系"}},{"type":"Polygon","arcs":[[392,393]],"properties":{"市区町村名":"上川郡鷹栖町","大字名":null,"丁目名":null,"小字名":null,"地番":"6166","精度区分":null,"座標系":"任意座標系"}},{"type":"Polygon","arcs":[[-35,394,395,-394,396,-386,-392,397]],"properties":{"市区町村名":"上川郡鷹栖町","大字名":null,"丁目名":null,"小字名":null,"地番":"6167","精度区分":null,"座標系":"任意座標系"}},{"type":"Polygon","arcs":[[-38,398,399]],"properties":{"市区町村名":"上川郡鷹栖町","大字名":null,"丁目名":null,"小字名":null,"地番":"6175","精度区分":null,"座標系":"任意座標系"}},{"type":"Polygon","arcs":[[-39,-400,400,401]],"properties":{"市区町村名":"上川郡鷹栖町","大字名":null,"丁目名":null,"小字名":null,"地番":"6176","精度区分":null,"座標系":"任意座標系"}},{"type":"Polygon","arcs":[[-402,402,-40]],"properties":{"市区町村名":"上川郡鷹栖町","大字名":null,"丁目名":null,"小字名":null,"地番":"6177","精度区分":null,"座標系":"任意座標系"}},{"type":"Polygon","arcs":[[403,-42,404]],"properties":{"市区町村名":"上川郡鷹栖町","大字名":null,"丁目名":null,"小字名":null,"地番":"6178-2","精度区分":null,"座標系":"任意座標系"}},{"type":"Polygon","arcs":[[-44,405,406,407]],"properties":{"市区町村名":"上川郡鷹栖町","大字名":null,"丁目名":null,"小字名":null,"地番":"6179-2","精度区分":null,"座標系":"任意座標系"}},{"type":"Polygon","arcs":[[-406,-43,-404,408]],"properties":{"市区町村名":"上川郡鷹栖町","大字名":null,"丁目名":null,"小字名":null,"地番":"6180-2","精度区分":null,"座標系":"任意座標系"}},{"type":"Polygon","arcs":[[409,-45,-408,410]],"properties":{"市区町村名":"上川郡鷹栖町","大字名":null,"丁目名":null,"小字名":null,"地番":"6182-2","精度区分":null,"座標系":"任意座標系"}},{"type":"Polygon","arcs":[[-46,-410,411,412,413]],"properties":{"市区町村名":"上川郡鷹栖町","大字名":null,"丁目名":null,"小字名":null,"地番":"6183-2","精度区分":null,"座標系":"任意座標系"}},{"type":"Polygon","arcs":[[-47,-414,414,415]],"properties":{"市区町村名":"上川郡鷹栖町","大字名":null,"丁目名":null,"小字名":null,"地番":"6183-3","精度区分":null,"座標系":"任意座標系"}},{"type":"Polygon","arcs":[[-48,-416,416]],"properties":{"市区町村名":"上川郡鷹栖町","大字名":null,"丁目名":null,"小字名":null,"地番":"6184-3","精度区分":null,"座標系":"任意座標系"}},{"type":"Polygon","arcs":[[417,-51,418,419]],"properties":{"市区町村名":"上川郡鷹栖町","大字名":null,"丁目名":null,"小字名":null,"地番":"6187-2","精度区分":null,"座標系":"任意座標系"}},{"type":"Polygon","arcs":[[-52,-418,420]],"properties":{"市区町村名":"上川郡鷹栖町","大字名":null,"丁目名":null,"小字名":null,"地番":"6187-3","精度区分":null,"座標系":"任意座標系"}},{"type":"Polygon","arcs":[[421,-420,422,-56]],"properties":{"市区町村名":"上川郡鷹栖町","大字名":null,"丁目名":null,"小字名":null,"地番":"6189-3","精度区分":null,"座標系":"任意座標系"}},{"type":"Polygon","arcs":[[423,424,425]],"properties":{"市区町村名":"上川郡鷹栖町","大字名":null,"丁目名":null,"小字名":null,"地番":"6189-4","精度区分":null,"座標系":"任意座標系"}},{"type":"Polygon","arcs":[[-426,-61,426]],"properties":{"市区町村名":"上川郡鷹栖町","大字名":null,"丁目名":null,"小字名":null,"地番":"6189-5","精度区分":null,"座標系":"任意座標系"}},{"type":"Polygon","arcs":[[427,-54]],"properties":{"市区町村名":"上川郡鷹栖町","大字名":null,"丁目名":null,"小字名":null,"地番":"6189-6","精度区分":null,"座標系":"任意座標系"}},{"type":"Polygon","arcs":[[-422,-55,-428,-53,-421]],"properties":{"市区町村名":"上川郡鷹栖町","大字名":null,"丁目名":null,"小字名":null,"地番":"6189-7","精度区分":null,"座標系":"任意座標系"}},{"type":"Polygon","arcs":[[428,429,430]],"properties":{"市区町村名":"上川郡鷹栖町","大字名":null,"丁目名":null,"小字名":null,"地番":"6192-1","精度区分":null,"座標系":"任意座標系"}},{"type":"Polygon","arcs":[[431,432,433,434]],"properties":{"市区町村名":"上川郡鷹栖町","大字名":null,"丁目名":null,"小字名":null,"地番":"6192-2","精度区分":null,"座標系":"任意座標系"}},{"type":"Polygon","arcs":[[435,-429,436,-435]],"properties":{"市区町村名":"上川郡鷹栖町","大字名":null,"丁目名":null,"小字名":null,"地番":"6192-3","精度区分":null,"座標系":"任意座標系"}},{"type":"Polygon","arcs":[[-430,437,438]],"properties":{"市区町村名":"上川郡鷹栖町","大字名":null,"丁目名":null,"小字名":null,"地番":"6193-1","精度区分":null,"座標系":"任意座標系"}},{"type":"Polygon","arcs":[[-434,439,440,441]],"properties":{"市区町村名":"上川郡鷹栖町","大字名":null,"丁目名":null,"小字名":null,"地番":"6193-2","精度区分":null,"座標系":"任意座標系"}},{"type":"Polygon","arcs":[[442,-438,-436,-442,443]],"properties":{"市区町村名":"上川郡鷹栖町","大字名":null,"丁目名":null,"小字名":null,"地番":"6193-3","精度区分":null,"座標系":"任意座標系"}},{"type":"Polygon","arcs":[[-439,444,445,446,447,-59,448,449,-431]],"properties":{"市区町村名":"上川郡鷹栖町","大字名":null,"丁目名":null,"小字名":null,"地番":"6194-1","精度区分":null,"座標系":"任意座標系"}},{"type":"Polygon","arcs":[[450,-432,451,-449,-58]],"properties":{"市区町村名":"上川郡鷹栖町","大字名":null,"丁目名":null,"小字名":null,"地番":"6194-2","精度区分":null,"座標系":"任意座標系"}},{"type":"Polygon","arcs":[[452,-444,-441,453,454]],"properties":{"市区町村名":"上川郡鷹栖町","大字名":null,"丁目名":null,"小字名":null,"地番":"6194-3","精度区分":null,"座標系":"任意座標系"}},{"type":"Polygon","arcs":[[455,-447]],"properties":{"市区町村名":"上川郡鷹栖町","大字名":null,"丁目名":null,"小字名":null,"地番":"6194-4","精度区分":null,"座標系":"任意座標系"}},{"type":"Polygon","arcs":[[-437,-450,-452]],"properties":{"市区町村名":"上川郡鷹栖町","大字名":null,"丁目名":null,"小字名":null,"地番":"6194-5","精度区分":null,"座標系":"任意座標系"}},{"type":"Polygon","arcs":[[-443,-453,456,-445]],"properties":{"市区町村名":"上川郡鷹栖町","大字名":null,"丁目名":null,"小字名":null,"地番":"6194-6","精度区分":null,"座標系":"任意座標系"}},{"type":"Polygon","arcs":[[457,-63,458]],"properties":{"市区町村名":"上川郡鷹栖町","大字名":null,"丁目名":null,"小字名":null,"地番":"6196-2","精度区分":null,"座標系":"任意座標系"}},{"type":"Polygon","arcs":[[-32,459,460,461]],"properties":{"市区町村名":"上川郡鷹栖町","大字名":null,"丁目名":null,"小字名":null,"地番":"6203-2","精度区分":null,"座標系":"任意座標系"}},{"type":"Polygon","arcs":[[-29,462,463]],"properties":{"市区町村名":"上川郡鷹栖町","大字名":null,"丁目名":null,"小字名":null,"地番":"6203-3","精度区分":null,"座標系":"任意座標系"}},{"type":"Polygon","arcs":[[-31,464,-460]],"properties":{"市区町村名":"上川郡鷹栖町","大字名":null,"丁目名":null,"小字名":null,"地番":"6203-9","精度区分":null,"座標系":"任意座標系"}},{"type":"Polygon","arcs":[[-33,-462,465,466]],"properties":{"市区町村名":"上川郡鷹栖町","大字名":null,"丁目名":null,"小字名":null,"地番":"6204-2","精度区分":null,"座標系":"任意座標系"}},{"type":"Polygon","arcs":[[-467,467,-395,-34]],"properties":{"市区町村名":"上川郡鷹栖町","大字名":null,"丁目名":null,"小字名":null,"地番":"6205","精度区分":null,"座標系":"任意座標系"}},{"type":"Polygon","arcs":[[-114,468,469,-118,-143,-122]],"properties":{"市区町村名":"上川郡鷹栖町","大字名":null,"丁目名":null,"小字名":null,"地番":"6208-1","精度区分":null,"座標系":"任意座標系"}},{"type":"Polygon","arcs":[[-113,470,-469]],"properties":{"市区町村名":"上川郡鷹栖町","大字名":null,"丁目名":null,"小字名":null,"地番":"6208-2","精度区分":null,"座標系":"任意座標系"}},{"type":"Polygon","arcs":[[471,472,473,474,475,476]],"properties":{"市区町村名":"上川郡鷹栖町","大字名":null,"丁目名":null,"小字名":null,"地番":"6210","精度区分":null,"座標系":"任意座標系"}},{"type":"Polygon","arcs":[[477,478,479,480]],"properties":{"市区町村名":"上川郡鷹栖町","大字名":null,"丁目名":null,"小字名":null,"地番":"6212-2","精度区分":null,"座標系":"任意座標系"}},{"type":"Polygon","arcs":[[-481,481,482,483]],"properties":{"市区町村名":"上川郡鷹栖町","大字名":null,"丁目名":null,"小字名":null,"地番":"6212-3","精度区分":null,"座標系":"任意座標系"}},{"type":"Polygon","arcs":[[484,485,486,487]],"properties":{"市区町村名":"上川郡鷹栖町","大字名":null,"丁目名":null,"小字名":null,"地番":"6213-1","精度区分":null,"座標系":"任意座標系"}},{"type":"Polygon","arcs":[[488,489,-487]],"properties":{"市区町村名":"上川郡鷹栖町","大字名":null,"丁目名":null,"小字名":null,"地番":"6213-2","精度区分":null,"座標系":"任意座標系"}},{"type":"Polygon","arcs":[[-478,-484,490,491,492,493,494,495,496,497,498,499,500,501]],"properties":{"市区町村名":"上川郡鷹栖町","大字名":null,"丁目名":null,"小字名":null,"地番":"6215","精度区分":null,"座標系":"任意座標系"}},{"type":"Polygon","arcs":[[502,-499,503,504,505]],"properties":{"市区町村名":"上川郡鷹栖町","大字名":null,"丁目名":null,"小字名":null,"地番":"6217-1","精度区分":null,"座標系":"任意座標系"}},{"type":"Polygon","arcs":[[-504,-498,506,507]],"properties":{"市区町村名":"上川郡鷹栖町","大字名":null,"丁目名":null,"小字名":null,"地番":"6217-2","精度区分":null,"座標系":"任意座標系"}},{"type":"Polygon","arcs":[[-507,-497,508,509]],"properties":{"市区町村名":"上川郡鷹栖町","大字名":null,"丁目名":null,"小字名":null,"地番":"6217-3","精度区分":null,"座標系":"任意座標系"}},{"type":"Polygon","arcs":[[-509,-496,510,511]],"properties":{"市区町村名":"上川郡鷹栖町","大字名":null,"丁目名":null,"小字名":null,"地番":"6217-4","精度区分":null,"座標系":"任意座標系"}},{"type":"Polygon","arcs":[[512,-511,-495,513]],"properties":{"市区町村名":"上川郡鷹栖町","大字名":null,"丁目名":null,"小字名":null,"地番":"6217-5","精度区分":null,"座標系":"任意座標系"}},{"type":"Polygon","arcs":[[514,515,516,517,-501]],"properties":{"市区町村名":"上川郡鷹栖町","大字名":null,"丁目名":null,"小字名":null,"地番":"6217-6","精度区分":null,"座標系":"任意座標系"}},{"type":"Polygon","arcs":[[518,-515,-500,-503]],"properties":{"市区町村名":"上川郡鷹栖町","大字名":null,"丁目名":null,"小字名":null,"地番":"6217-7","精度区分":null,"座標系":"任意座標系"}},{"type":"Polygon","arcs":[[-493,519,520]],"properties":{"市区町村名":"上川郡鷹栖町","大字名":null,"丁目名":null,"小字名":null,"地番":"6219","精度区分":null,"座標系":"任意座標系"}},{"type":"Polygon","arcs":[[521,522,523,524]],"properties":{"市区町村名":"上川郡鷹栖町","大字名":null,"丁目名":null,"小字名":null,"地番":"6222-1","精度区分":null,"座標系":"任意座標系"}},{"type":"Polygon","arcs":[[525,526,527,528]],"properties":{"市区町村名":"上川郡鷹栖町","大字名":null,"丁目名":null,"小字名":null,"地番":"6223-3","精度区分":null,"座標系":"任意座標系"}},{"type":"Polygon","arcs":[[529,530,531,532]],"properties":{"市区町村名":"上川郡鷹栖町","大字名":null,"丁目名":null,"小字名":null,"地番":"6227-2","精度区分":null,"座標系":"任意座標系"}},{"type":"Polygon","arcs":[[-530,533,534,535]],"properties":{"市区町村名":"上川郡鷹栖町","大字名":null,"丁目名":null,"小字名":null,"地番":"6227-3","精度区分":null,"座標系":"任意座標系"}},{"type":"Polygon","arcs":[[536,537,538,539,540,541,542,543]],"properties":{"市区町村名":"上川郡鷹栖町","大字名":null,"丁目名":null,"小字名":null,"地番":"6229","精度区分":null,"座標系":"任意座標系"}},{"type":"Polygon","arcs":[[-542,544,545,546,547]],"properties":{"市区町村名":"上川郡鷹栖町","大字名":null,"丁目名":null,"小字名":null,"地番":"6230-2","精度区分":null,"座標系":"任意座標系"}},{"type":"Polygon","arcs":[[548,549,-546]],"properties":{"市区町村名":"上川郡鷹栖町","大字名":null,"丁目名":null,"小字名":null,"地番":"6230-4","精度区分":null,"座標系":"任意座標系"}},{"type":"Polygon","arcs":[[550,-540,551]],"properties":{"市区町村名":"上川郡鷹栖町","大字名":null,"丁目名":null,"小字名":null,"地番":"6231","精度区分":null,"座標系":"任意座標系"}},{"type":"Polygon","arcs":[[-539,552,553,-552]],"properties":{"市区町村名":"上川郡鷹栖町","大字名":null,"丁目名":null,"小字名":null,"地番":"6232","精度区分":null,"座標系":"任意座標系"}},{"type":"Polygon","arcs":[[554,555,556,557]],"properties":{"市区町村名":"上川郡鷹栖町","大字名":null,"丁目名":null,"小字名":null,"地番":"6234-3","精度区分":null,"座標系":"任意座標系"}},{"type":"Polygon","arcs":[[558,559,560,561,562]],"properties":{"市区町村名":"上川郡鷹栖町","大字名":null,"丁目名":null,"小字名":null,"地番":"6235-1","精度区分":null,"座標系":"任意座標系"}},{"type":"Polygon","arcs":[[563,564,565]],"properties":{"市区町村名":"上川郡鷹栖町","大字名":null,"丁目名":null,"小字名":null,"地番":"6235-2","精度区分":null,"座標系":"任意座標系"}},{"type":"Polygon","arcs":[[566,-560]],"properties":{"市区町村名":"上川郡鷹栖町","大字名":null,"丁目名":null,"小字名":null,"地番":"6235-3","精度区分":null,"座標系":"任意座標系"}},{"type":"Polygon","arcs":[[-562,567,-565,568]],"properties":{"市区町村名":"上川郡鷹栖町","大字名":null,"丁目名":null,"小字名":null,"地番":"6235-4","精度区分":null,"座標系":"任意座標系"}},{"type":"Polygon","arcs":[[-564,569,570,571,-563,-569]],"properties":{"市区町村名":"上川郡鷹栖町","大字名":null,"丁目名":null,"小字名":null,"地番":"6236","精度区分":null,"座標系":"任意座標系"}},{"type":"Polygon","arcs":[[572,573,-571]],"properties":{"市区町村名":"上川郡鷹栖町","大字名":null,"丁目名":null,"小字名":null,"地番":"6237","精度区分":null,"座標系":"任意座標系"}},{"type":"Polygon","arcs":[[574,575,576,577]],"properties":{"市区町村名":"上川郡鷹栖町","大字名":null,"丁目名":null,"小字名":null,"地番":"6238-2","精度区分":null,"座標系":"任意座標系"}},{"type":"Polygon","arcs":[[578,579,580,581]],"properties":{"市区町村名":"上川郡鷹栖町","大字名":null,"丁目名":null,"小字名":null,"地番":"6240","精度区分":null,"座標系":"任意座標系"}},{"type":"Polygon","arcs":[[582,-3,583]],"properties":{"市区町村名":"上川郡鷹栖町","大字名":null,"丁目名":null,"小字名":null,"地番":"6241-1","精度区分":null,"座標系":"任意座標系"}},{"type":"Polygon","arcs":[[584,585,586,-583]],"properties":{"市区町村名":"上川郡鷹栖町","大字名":null,"丁目名":null,"小字名":null,"地番":"6241-2","精度区分":null,"座標系":"任意座標系"}},{"type":"Polygon","arcs":[[-587,587,588,-4]],"properties":{"市区町村名":"上川郡鷹栖町","大字名":null,"丁目名":null,"小字名":null,"地番":"6242-3","精度区分":null,"座標系":"任意座標系"}},{"type":"Polygon","arcs":[[589,590,-7]],"properties":{"市区町村名":"上川郡鷹栖町","大字名":null,"丁目名":null,"小字名":null,"地番":"6242-4","精度区分":null,"座標系":"任意座標系"}},{"type":"Polygon","arcs":[[591,-5,592,593]],"properties":{"市区町村名":"上川郡鷹栖町","大字名":null,"丁目名":null,"小字名":null,"地番":"6243-1","精度区分":null,"座標系":"任意座標系"}},{"type":"Polygon","arcs":[[-589,594,595,-593]],"properties":{"市区町村名":"上川郡鷹栖町","大字名":null,"丁目名":null,"小字名":null,"地番":"6243-2","精度区分":null,"座標系":"任意座標系"}},{"type":"Polygon","arcs":[[596,597,-594,-596,598]],"properties":{"市区町村名":"上川郡鷹栖町","大字名":null,"丁目名":null,"小字名":null,"地番":"6243-3","精度区分":null,"座標系":"任意座標系"}},{"type":"Polygon","arcs":[[599,600,-597]],"properties":{"市区町村名":"上川郡鷹栖町","大字名":null,"丁目名":null,"小字名":null,"地番":"6243-4","精度区分":null,"座標系":"任意座標系"}},{"type":"Polygon","arcs":[[601,-6,-592,-598]],"properties":{"市区町村名":"上川郡鷹栖町","大字名":null,"丁目名":null,"小字名":null,"地番":"6244-1","精度区分":null,"座標系":"任意座標系"}},{"type":"Polygon","arcs":[[602,-590,-602,-601]],"properties":{"市区町村名":"上川郡鷹栖町","大字名":null,"丁目名":null,"小字名":null,"地番":"6244-2","精度区分":null,"座標系":"任意座標系"}},{"type":"Polygon","arcs":[[603,604,-9]],"properties":{"市区町村名":"上川郡鷹栖町","大字名":null,"丁目名":null,"小字名":null,"地番":"6247-3","精度区分":null,"座標系":"任意座標系"}},{"type":"Polygon","arcs":[[605,606,607,-1,-605]],"properties":{"市区町村名":"上川郡鷹栖町","大字名":null,"丁目名":null,"小字名":null,"地番":"6248","精度区分":null,"座標系":"任意座標系"}},{"type":"Polygon","arcs":[[608,609,610,611]],"properties":{"市区町村名":"上川郡鷹栖町","大字名":null,"丁目名":null,"小字名":null,"地番":"6249","精度区分":null,"座標系":"任意座標系"}},{"type":"Polygon","arcs":[[612,613,614,-612,615,616]],"properties":{"市区町村名":"上川郡鷹栖町","大字名":null,"丁目名":null,"小字名":null,"地番":"6250","精度区分":null,"座標系":"任意座標系"}},{"type":"Polygon","arcs":[[-616,-611,617]],"properties":{"市区町村名":"上川郡鷹栖町","大字名":null,"丁目名":null,"小字名":null,"地番":"6251","精度区分":null,"座標系":"任意座標系"}},{"type":"Polygon","arcs":[[618,619,620]],"properties":{"市区町村名":"上川郡鷹栖町","大字名":null,"丁目名":null,"小字名":null,"地番":"6252-2","精度区分":null,"座標系":"任意座標系"}},{"type":"Polygon","arcs":[[-619,621]],"properties":{"市区町村名":"上川郡鷹栖町","大字名":null,"丁目名":null,"小字名":null,"地番":"6253-3","精度区分":null,"座標系":"任意座標系"}},{"type":"Polygon","arcs":[[622,623,624,625,626,627,628]],"properties":{"市区町村名":"上川郡鷹栖町","大字名":null,"丁目名":null,"小字名":null,"地番":"6254-1","精度区分":null,"座標系":"任意座標系"}},{"type":"Polygon","arcs":[[-620,629,-624]],"properties":{"市区町村名":"上川郡鷹栖町","大字名":null,"丁目名":null,"小字名":null,"地番":"6254-2","精度区分":null,"座標系":"任意座標系"}},{"type":"Polygon","arcs":[[-626,630]],"properties":{"市区町村名":"上川郡鷹栖町","大字名":null,"丁目名":null,"小字名":null,"地番":"6255","精度区分":null,"座標系":"任意座標系"}},{"type":"Polygon","arcs":[[-627,-631,631,632,633,-613,634]],"properties":{"市区町村名":"上川郡鷹栖町","大字名":null,"丁目名":null,"小字名":null,"地番":"6256","精度区分":null,"座標系":"任意座標系"}},{"type":"Polygon","arcs":[[635,636,637,-614,-634,638]],"properties":{"市区町村名":"上川郡鷹栖町","大字名":null,"丁目名":null,"小字名":null,"地番":"6257-1","精度区分":null,"座標系":"任意座標系"}},{"type":"Polygon","arcs":[[-636,639,640]],"properties":{"市区町村名":"上川郡鷹栖町","大字名":null,"丁目名":null,"小字名":null,"地番":"6257-2","精度区分":null,"座標系":"任意座標系"}},{"type":"Polygon","arcs":[[-361,-295,641,642,643,644]],"properties":{"市区町村名":"上川郡鷹栖町","大字名":null,"丁目名":null,"小字名":null,"地番":"6261","精度区分":null,"座標系":"任意座標系"}},{"type":"Polygon","arcs":[[-125,-179,-131]],"properties":{"市区町村名":"上川郡鷹栖町","大字名":null,"丁目名":null,"小字名":null,"地番":"6262","精度区分":null,"座標系":"任意座標系"}},{"type":"Polygon","arcs":[[645,-110,-97,-95,646]],"properties":{"市区町村名":"上川郡鷹栖町","大字名":null,"丁目名":null,"小字名":null,"地番":"6263-1","精度区分":null,"座標系":"任意座標系"}},{"type":"Polygon","arcs":[[-646,647,-111]],"properties":{"市区町村名":"上川郡鷹栖町","大字名":null,"丁目名":null,"小字名":null,"地番":"6263-2","精度区分":null,"座標系":"任意座標系"}},{"type":"Polygon","arcs":[[-588,-586,648,649,-577,650,651,652,-606,-604,-8,-591,-603,-600,-599,-595]],"properties":{"市区町村名":"上川郡鷹栖町","大字名":null,"丁目名":null,"小字名":null,"地番":"無地番-10","精度区分":null,"座標系":"任意座標系"}},{"type":"Polygon","arcs":[[-419,-50,653,-415,-413,654,655,656,-454,-440,-433,-451,-57,-423]],"properties":{"市区町村名":"上川郡鷹栖町","大字名":null,"丁目名":null,"小字名":null,"地番":"無地番-88","精度区分":null,"座標系":"任意座標系"}},{"type":"Polygon","arcs":[[-206,-211,-217,-213,-220,657,658,659,660,661,-240,-237,-244,-234,-226,-222,-11,-221,-230,-229,-268,-272,-275,662,-163,663,-159,-160,-15,-167,-13,-168,-144,-172,-178,-189,-183,-195,-187,-191,-194,-119,-470,-471,-112,-648,-647,-94,-83,-75,-79,664,-200,665]],"properties":{"市区町村名":"上川郡鷹栖町","大字名":null,"丁目名":null,"小字名":null,"地番":"道-60","精度区分":null,"座標系":"任意座標系"}},{"type":"Polygon","arcs":[[666,-384,-381,-376,-373,-365,-380,-369,667,-652,668,669,670,-662]],"properties":{"市区町村名":"上川郡鷹栖町","大字名":null,"丁目名":null,"小字名":null,"地番":"道-63","精度区分":null,"座標系":"任意座標系"}},{"type":"Polygon","arcs":[[-396,-468,-466,-461,-465,-30,-464,671,672,-387,-397,-393]],"properties":{"市区町村名":"上川郡鷹栖町","大字名":null,"丁目名":null,"小字名":null,"地番":"道-71","精度区分":null,"座標系":"任意座標系"}},{"type":"Polygon","arcs":[[673,674,675,-522,676,677]],"properties":{"市区町村名":"上川郡鷹栖町","大字名":null,"丁目名":null,"小字名":null,"地番":"6225-1","精度区分":null,"座標系":"任意座標系"}},{"type":"Polygon","arcs":[[-580,678,-575,679,680]],"properties":{"市区町村名":"上川郡鷹栖町","大字名":null,"丁目名":null,"小字名":null,"地番":"6238-1","精度区分":null,"座標系":"任意座標系"}},{"type":"Polygon","arcs":[[681,682,683,684,-505,-508,-510,-512,-513,685,686,687]],"properties":{"市区町村名":"上川郡鷹栖町","大字名":null,"丁目名":null,"小字名":null,"地番":"6220","精度区分":null,"座標系":"任意座標系"}},{"type":"Polygon","arcs":[[-514,-494,-521,688,-686]],"properties":{"市区町村名":"上川郡鷹栖町","大字名":null,"丁目名":null,"小字名":null,"地番":"6218","精度区分":null,"座標系":"任意座標系"}},{"type":"Polygon","arcs":[[-533,689,690,691,692,-674,693,694,695,-534]],"properties":{"市区町村名":"上川郡鷹栖町","大字名":null,"丁目名":null,"小字名":null,"地番":"6226","精度区分":null,"座標系":"任意座標系"}},{"type":"Polygon","arcs":[[696,697,-688,698,699,-677,-525,700]],"properties":{"市区町村名":"上川郡鷹栖町","大字名":null,"丁目名":null,"小字名":null,"地番":"6221","精度区分":null,"座標系":"任意座標系"}},{"type":"Polygon","arcs":[[-573,-570,-566,-568,701,-656,702,703,-474,704,-479,-502,-518,705,-682,-698,706,707,708,-690,-532,709,-543,-548,710,711,-557,712,713,714,715,-553,-538,716,-695,717,-699,-687,-689,-520,-492,718,719,-669,-651,-576,-679,-579,720,-609,-615,-638,721]],"properties":{"市区町村名":"上川郡鷹栖町","大字名":null,"丁目名":null,"小字名":null,"地番":"無地番-16","精度区分":null,"座標系":"任意座標系"}},{"type":"Polygon","arcs":[[-683,-706,-517,722]],"properties":{"市区町村名":"上川郡鷹栖町","大字名":null,"丁目名":null,"小字名":null,"地番":"6216-2","精度区分":null,"座標系":"任意座標系"}},{"type":"Polygon","arcs":[[723,724,-707,-697]],"properties":{"市区町村名":"上川郡鷹栖町","大字名":null,"丁目名":null,"小字名":null,"地番":"6222-2","精度区分":null,"座標系":"任意座標系"}},{"type":"Polygon","arcs":[[-527,725,-708,-725]],"properties":{"市区町村名":"上川郡鷹栖町","大字名":null,"丁目名":null,"小字名":null,"地番":"6223-2","精度区分":null,"座標系":"任意座標系"}},{"type":"Polygon","arcs":[[-709,-726,726,-691]],"properties":{"市区町村名":"上川郡鷹栖町","大字名":null,"丁目名":null,"小字名":null,"地番":"6224-2","精度区分":null,"座標系":"任意座標系"}},{"type":"Polygon","arcs":[[727,-714,728,-555,729,-711,-547,-550,730]],"properties":{"市区町村名":"上川郡鷹栖町","大字名":null,"丁目名":null,"小字名":null,"地番":"6233","精度区分":null,"座標系":"任意座標系"}},{"type":"Polygon","arcs":[[-106,731,-92]],"properties":{"市区町村名":"上川郡鷹栖町","大字名":null,"丁目名":null,"小字名":null,"地番":"6058-2","精度区分":null,"座標系":"任意座標系"}},{"type":"Polygon","arcs":[[-306,732,-300,-360]],"properties":{"市区町村名":"上川郡鷹栖町","大字名":null,"丁目名":null,"小字名":null,"地番":"6116-2","精度区分":null,"座標系":"任意座標系"}},{"type":"Polygon","arcs":[[733]],"properties":{"市区町村名":"上川郡鷹栖町","大字名":null,"丁目名":null,"小字名":null,"地番":"6151-3","精度区分":null,"座標系":"任意座標系"}},{"type":"Polygon","arcs":[[734,-644]],"properties":{"市区町村名":"上川郡鷹栖町","大字名":null,"丁目名":null,"小字名":null,"地番":"6151-4","精度区分":null,"座標系":"任意座標系"}},{"type":"Polygon","arcs":[[735,736]],"properties":{"市区町村名":"上川郡鷹栖町","大字名":null,"丁目名":null,"小字名":null,"地番":"6151-2","精度区分":null,"座標系":"任意座標系"}},{"type":"Polygon","arcs":[[-654,-49,-417]],"properties":{"市区町村名":"上川郡鷹栖町","大字名":null,"丁目名":null,"小字名":null,"地番":"6184-2","精度区分":null,"座標系":"任意座標系"}},{"type":"Polygon","arcs":[[737,-459,-62,-425]],"properties":{"市区町村名":"上川郡鷹栖町","大字名":null,"丁目名":null,"小字名":null,"地番":"6186-2","精度区分":null,"座標系":"任意座標系"}},{"type":"Polygon","arcs":[[738,739,740,-476]],"properties":{"市区町村名":"上川郡鷹栖町","大字名":null,"丁目名":null,"小字名":null,"地番":"6209-5","精度区分":null,"座標系":"任意座標系"}},{"type":"Polygon","arcs":[[-506,-685,741]],"properties":{"市区町村名":"上川郡鷹栖町","大字名":null,"丁目名":null,"小字名":null,"地番":"6216-1","精度区分":null,"座標系":"任意座標系"}},{"type":"Polygon","arcs":[[-723,-516,-519,-742,-684]],"properties":{"市区町村名":"上川郡鷹栖町","大字名":null,"丁目名":null,"小字名":null,"地番":"6216-3","精度区分":null,"座標系":"任意座標系"}},{"type":"Polygon","arcs":[[-545,-541,-551,-554,-716,742,-731,-549]],"properties":{"市区町村名":"上川郡鷹栖町","大字名":null,"丁目名":null,"小字名":null,"地番":"6230-1","精度区分":null,"座標系":"任意座標系"}},{"type":"Polygon","arcs":[[-728,-743,-715]],"properties":{"市区町村名":"上川郡鷹栖町","大字名":null,"丁目名":null,"小字名":null,"地番":"6230-3","精度区分":null,"座標系":"任意座標系"}},{"type":"Polygon","arcs":[[-730,-558,-712]],"properties":{"市区町村名":"上川郡鷹栖町","大字名":null,"丁目名":null,"小字名":null,"地番":"6234-2","精度区分":null,"座標系":"任意座標系"}},{"type":"Polygon","arcs":[[-581,-681,743,744]],"properties":{"市区町村名":"上川郡鷹栖町","大字名":null,"丁目名":null,"小字名":null,"地番":"6239-1","精度区分":null,"座標系":"任意座標系"}},{"type":"Polygon","arcs":[[745,-578,-650,746]],"properties":{"市区町村名":"上川郡鷹栖町","大字名":null,"丁目名":null,"小字名":null,"地番":"6239-3","精度区分":null,"座標系":"任意座標系"}},{"type":"Polygon","arcs":[[-744,-680,-746,747]],"properties":{"市区町村名":"上川郡鷹栖町","大字名":null,"丁目名":null,"小字名":null,"地番":"6239-2","精度区分":null,"座標系":"任意座標系"}},{"type":"Polygon","arcs":[[748,-747,-649,-585]],"properties":{"市区町村名":"上川郡鷹栖町","大字名":null,"丁目名":null,"小字名":null,"地番":"6246-2","精度区分":null,"座標系":"任意座標系"}},{"type":"Polygon","arcs":[[-608,749,-628,-635,-617,-618,-610,-721,-582,-745,-748,-749,-584,-2]],"properties":{"市区町村名":"上川郡鷹栖町","大字名":null,"丁目名":null,"小字名":null,"地番":"6246-3","精度区分":null,"座標系":"任意座標系"}},{"type":"Polygon","arcs":[[750,-640,751]],"properties":{"市区町村名":"上川郡鷹栖町","大字名":null,"丁目名":null,"小字名":null,"地番":"6258-2","精度区分":null,"座標系":"任意座標系"}},{"type":"Polygon","arcs":[[-633,752,-752,-639]],"properties":{"市区町村名":"上川郡鷹栖町","大字名":null,"丁目名":null,"小字名":null,"地番":"6258-1","精度区分":null,"座標系":"任意座標系"}},{"type":"Polygon","arcs":[[-741,753,754,755,756,-477]],"properties":{"市区町村名":"上川郡鷹栖町","大字名":null,"丁目名":null,"小字名":null,"地番":"6209-1","精度区分":null,"座標系":"任意座標系"}},{"type":"Polygon","arcs":[[757,758,-756]],"properties":{"市区町村名":"上川郡鷹栖町","大字名":null,"丁目名":null,"小字名":null,"地番":"6209-3","精度区分":null,"座標系":"任意座標系"}},{"type":"Polygon","arcs":[[-755,759,760,-758]],"properties":{"市区町村名":"上川郡鷹栖町","大字名":null,"丁目名":null,"小字名":null,"地番":"6209-4","精度区分":null,"座標系":"任意座標系"}},{"type":"Polygon","arcs":[[761,762,763,764,765]],"properties":{"市区町村名":"上川郡鷹栖町","大字名":null,"丁目名":null,"小字名":null,"地番":"6060-1","精度区分":null,"座標系":"任意座標系"}},{"type":"Polygon","arcs":[[766,-104,767,-764]],"properties":{"市区町村名":"上川郡鷹栖町","大字名":null,"丁目名":null,"小字名":null,"地番":"6060-2","精度区分":null,"座標系":"任意座標系"}},{"type":"Polygon","arcs":[[-765,-768,-103,768,769]],"properties":{"市区町村名":"上川郡鷹栖町","大字名":null,"丁目名":null,"小字名":null,"地番":"6059-2","精度区分":null,"座標系":"任意座標系"}},{"type":"Polygon","arcs":[[-475,-704,-739]],"properties":{"市区町村名":"上川郡鷹栖町","大字名":null,"丁目名":null,"小字名":null,"地番":"6209-2","精度区分":null,"座標系":"任意座標系"}},{"type":"Polygon","arcs":[[-678,-700,-718,-694]],"properties":{"市区町村名":"上川郡鷹栖町","大字名":null,"丁目名":null,"小字名":null,"地番":"6225-2","精度区分":null,"座標系":"任意座標系"}},{"type":"Polygon","arcs":[[-535,-696,-717,-537,770]],"properties":{"市区町村名":"上川郡鷹栖町","大字名":null,"丁目名":null,"小字名":null,"地番":"6227-1","精度区分":null,"座標系":"任意座標系"}},{"type":"Polygon","arcs":[[-729,-713,-556]],"properties":{"市区町村名":"上川郡鷹栖町","大字名":null,"丁目名":null,"小字名":null,"地番":"6234-1","精度区分":null,"座標系":"任意座標系"}},{"type":"Polygon","arcs":[[-536,-771,-544,-710,-531]],"properties":{"市区町村名":"上川郡鷹栖町","大字名":null,"丁目名":null,"小字名":null,"地番":"6228","精度区分":null,"座標系":"任意座標系"}},{"type":"Polygon","arcs":[[-736,771,772]],"properties":{"市区町村名":"上川郡鷹栖町","大字名":null,"丁目名":null,"小字名":null,"地番":"6153-3","精度区分":null,"座標系":"任意座標系"}},{"type":"Polygon","arcs":[[-701,-524,-528,-724]],"properties":{"市区町村名":"上川郡鷹栖町","大字名":null,"丁目名":null,"小字名":null,"地番":"6222-3","精度区分":null,"座標系":"任意座標系"}},{"type":"Polygon","arcs":[[-693,773,774,775,-675]],"properties":{"市区町村名":"上川郡鷹栖町","大字名":null,"丁目名":null,"小字名":null,"地番":"6224-1","精度区分":null,"座標系":"任意座標系"}},{"type":"Polygon","arcs":[[776,777,-775]],"properties":{"市区町村名":"上川郡鷹栖町","大字名":null,"丁目名":null,"小字名":null,"地番":"6224-4","精度区分":null,"座標系":"任意座標系"}},{"type":"Polygon","arcs":[[-529,-523,-676,-776,-778]],"properties":{"市区町村名":"上川郡鷹栖町","大字名":null,"丁目名":null,"小字名":null,"地番":"6223-1","精度区分":null,"座標系":"任意座標系"}},{"type":"Polygon","arcs":[[-692,-727,-526,-777,-774]],"properties":{"市区町村名":"上川郡鷹栖町","大字名":null,"丁目名":null,"小字名":null,"地番":"6224-3","精度区分":null,"座標系":"任意座標系"}},{"type":"Polygon","arcs":[[-623,778,-621]],"properties":{"市区町村名":"上川郡鷹栖町","大字名":null,"丁目名":null,"小字名":null,"地番":"6252-3","精度区分":null,"座標系":"任意座標系"}},{"type":"Polygon","arcs":[[779,780,781,782,-642,-294]],"properties":{"市区町村名":"上川郡鷹栖町","大字名":null,"丁目名":null,"小字名":null,"地番":"6115-2","精度区分":null,"座標系":"任意座標系"}},{"type":"Polygon","arcs":[[-781,783,784,785]],"properties":{"市区町村名":"上川郡鷹栖町","大字名":null,"丁目名":null,"小字名":null,"地番":"6113-2","精度区分":null,"座標系":"任意座標系"}},{"type":"Polygon","arcs":[[786,787,788]],"properties":{"市区町村名":"上川郡鷹栖町","大字名":null,"丁目名":null,"小字名":null,"地番":"6156-9","精度区分":null,"座標系":"任意座標系"}},{"type":"Polygon","arcs":[[-789,789]],"properties":{"市区町村名":"上川郡鷹栖町","大字名":null,"丁目名":null,"小字名":null,"地番":"6259-2","精度区分":null,"座標系":"任意座標系"}},{"type":"Polygon","arcs":[[790,791,792]],"properties":{"市区町村名":"上川郡鷹栖町","大字名":null,"丁目名":null,"小字名":null,"地番":"6212-4","精度区分":null,"座標系":"任意座標系"}},{"type":"Polygon","arcs":[[-483,793,-485,794,-793,795,-670,-720,796]],"properties":{"市区町村名":"上川郡鷹栖町","大字名":null,"丁目名":null,"小字名":null,"地番":"6212-1","精度区分":null,"座標系":"任意座標系"}},{"type":"Polygon","arcs":[[797,798,799]],"properties":{"市区町村名":"上川郡鷹栖町","大字名":null,"丁目名":null,"小字名":null,"地番":"6092-2","精度区分":null,"座標系":"任意座標系"}},{"type":"Polygon","arcs":[[800,-658,-219,801,-798]],"properties":{"市区町村名":"上川郡鷹栖町","大字名":null,"丁目名":null,"小字名":null,"地番":"6092-1","精度区分":null,"座標系":"任意座標系"}},{"type":"Polygon","arcs":[[-801,-800,802,-659]],"properties":{"市区町村名":"上川郡鷹栖町","大字名":null,"丁目名":null,"小字名":null,"地番":"6093","精度区分":null,"座標系":"任意座標系"}},{"type":"Polygon","arcs":[[-247,-245,-241,-671,-796,-792,803,-489,804,-472,-757,-759,-761,805,-655,-412,-411,-407,-409,-405,-41,-403,-401,-399,-37,806,-390,-388,-673,807,-65,-25,-68,-82,-93,-732,-105,-767,-763,808,-139,-152,-169,-20,-154,-155,-157,-664,-162,-166,809,-276,-269,-254]],"properties":{"市区町村名":"上川郡鷹栖町","大字名":null,"丁目名":null,"小字名":null,"地番":"道-65","精度区分":null,"座標系":"任意座標系"}},{"type":"Polygon","arcs":[[-488,-490,-804,-791,-795]],"properties":{"市区町村名":"上川郡鷹栖町","大字名":null,"丁目名":null,"小字名":null,"地番":"6214","精度区分":null,"座標系":"任意座標系"}},{"type":"Polygon","arcs":[[-482,-480,-705,-473,-805,-486,-794]],"properties":{"市区町村名":"上川郡鷹栖町","大字名":null,"丁目名":null,"小字名":null,"地番":"6211","精度区分":null,"座標系":"任意座標系"}},{"type":"Polygon","arcs":[[-141,810,811,812]],"properties":{"市区町村名":"上川郡鷹栖町","大字名":null,"丁目名":null,"小字名":null,"地番":"6062-2","精度区分":null,"座標系":"任意座標系"}},{"type":"Polygon","arcs":[[-812,813,-766,-770,814]],"properties":{"市区町村名":"上川郡鷹栖町","大字名":null,"丁目名":null,"小字名":null,"地番":"6062-3","精度区分":null,"座標系":"任意座標系"}},{"type":"Polygon","arcs":[[-109,-142,-813,-815,-769,-102,-86,-100]],"properties":{"市区町村名":"上川郡鷹栖町","大字名":null,"丁目名":null,"小字名":null,"地番":"土地改良-15","精度区分":null,"座標系":"任意座標系"}},{"type":"Polygon","arcs":[[-814,-811,-140,-809,-762]],"properties":{"市区町村名":"上川郡鷹栖町","大字名":null,"丁目名":null,"小字名":null,"地番":"6061","精度区分":null,"座標系":"任意座標系"}},{"type":"Polygon","arcs":[[815,-281,816,817]],"properties":{"市区町村名":"上川郡鷹栖町","大字名":null,"丁目名":null,"小字名":null,"地番":"6107-3","精度区分":null,"座標系":"任意座標系"}},{"type":"Polygon","arcs":[[-817,-282,818,819]],"properties":{"市区町村名":"上川郡鷹栖町","大字名":null,"丁目名":null,"小字名":null,"地番":"6108-3","精度区分":null,"座標系":"任意座標系"}},{"type":"Polygon","arcs":[[-819,820,821]],"properties":{"市区町村名":"上川郡鷹栖町","大字名":null,"丁目名":null,"小字名":null,"地番":"6109-5","精度区分":null,"座標系":"任意座標系"}},{"type":"Polygon","arcs":[[-286,822,823]],"properties":{"市区町村名":"上川郡鷹栖町","大字名":null,"丁目名":null,"小字名":null,"地番":"6109-4","精度区分":null,"座標系":"任意座標系"}},{"type":"Polygon","arcs":[[-823,-288,824,825,826]],"properties":{"市区町村名":"上川郡鷹栖町","大字名":null,"丁目名":null,"小字名":null,"地番":"6110-6","精度区分":null,"座標系":"任意座標系"}},{"type":"Polygon","arcs":[[827,-826,828,829,830,831]],"properties":{"市区町村名":"上川郡鷹栖町","大字名":null,"丁目名":null,"小字名":null,"地番":"6110-5","精度区分":null,"座標系":"任意座標系"}},{"type":"Polygon","arcs":[[-832,832,-290,833,834,835]],"properties":{"市区町村名":"上川郡鷹栖町","大字名":null,"丁目名":null,"小字名":null,"地番":"6111-3","精度区分":null,"座標系":"任意座標系"}},{"type":"Polygon","arcs":[[-827,836]],"properties":{"市区町村名":"上川郡鷹栖町","大字名":null,"丁目名":null,"小字名":null,"地番":"6110-4","精度区分":null,"座標系":"任意座標系"}},{"type":"Polygon","arcs":[[837,-835,838,839]],"properties":{"市区町村名":"上川郡鷹栖町","大字名":null,"丁目名":null,"小字名":null,"地番":"6260-2","精度区分":null,"座標系":"任意座標系"}},{"type":"Polygon","arcs":[[-830,840]],"properties":{"市区町村名":"上川郡鷹栖町","大字名":null,"丁目名":null,"小字名":null,"地番":"6110-3","精度区分":null,"座標系":"任意座標系"}},{"type":"Polygon","arcs":[[-201,841,842,-197,843,-278,-816,844,-359,845,-660,-803,-799,-802,-218,-215,-209]],"properties":{"市区町村名":"上川郡鷹栖町","大字名":null,"丁目名":null,"小字名":null,"地番":"道-57","精度区分":null,"座標系":"任意座標系"}},{"type":"Polygon","arcs":[[-821,846]],"properties":{"市区町村名":"上川郡鷹栖町","大字名":null,"丁目名":null,"小字名":null,"地番":"6109-2","精度区分":null,"座標系":"任意座標系"}},{"type":"Polygon","arcs":[[-305,847,848,849]],"properties":{"市区町村名":"上川郡鷹栖町","大字名":null,"丁目名":null,"小字名":null,"地番":"6121-5","精度区分":null,"座標系":"任意座標系"}},{"type":"Polygon","arcs":[[-310,-314,850,-848]],"properties":{"市区町村名":"上川郡鷹栖町","大字名":null,"丁目名":null,"小字名":null,"地番":"6122-1","精度区分":null,"座標系":"任意座標系"}},{"type":"Polygon","arcs":[[851,852,-371]],"properties":{"市区町村名":"上川郡鷹栖町","大字名":null,"丁目名":null,"小字名":null,"地番":"6156-10","精度区分":null,"座標系":"任意座標系"}},{"type":"Polygon","arcs":[[-853,853,854,-372]],"properties":{"市区町村名":"上川郡鷹栖町","大字名":null,"丁目名":null,"小字名":null,"地番":"6156-8","精度区分":null,"座標系":"任意座標系"}},{"type":"Polygon","arcs":[[-733,-850,855,-297]],"properties":{"市区町村名":"上川郡鷹栖町","大字名":null,"丁目名":null,"小字名":null,"地番":"6116-4","精度区分":null,"座標系":"任意座標系"}},{"type":"Polygon","arcs":[[856,857,858]],"properties":{"市区町村名":"上川郡鷹栖町","大字名":null,"丁目名":null,"小字名":null,"地番":"6112-4","精度区分":null,"座標系":"任意座標系"}},{"type":"Polygon","arcs":[[-840,859,860,-857,861]],"properties":{"市区町村名":"上川郡鷹栖町","大字名":null,"丁目名":null,"小字名":null,"地番":"6112-3","精度区分":null,"座標系":"任意座標系"}},{"type":"Polygon","arcs":[[862,863,864,-842,-204]],"properties":{"市区町村名":"上川郡鷹栖町","大字名":null,"丁目名":null,"小字名":null,"地番":"6087-1","精度区分":null,"座標系":"任意座標系"}},{"type":"Polygon","arcs":[[865,866,-864]],"properties":{"市区町村名":"上川郡鷹栖町","大字名":null,"丁目名":null,"小字名":null,"地番":"6087-5","精度区分":null,"座標系":"任意座標系"}},{"type":"Polygon","arcs":[[-867,867,-198,-843,-865]],"properties":{"市区町村名":"上川郡鷹栖町","大字名":null,"丁目名":null,"小字名":null,"地番":"6087-4","精度区分":null,"座標系":"任意座標系"}},{"type":"Polygon","arcs":[[-207,-666,-199,-868,-866,-863]],"properties":{"市区町村名":"上川郡鷹栖町","大字名":null,"丁目名":null,"小字名":null,"地番":"6087-3","精度区分":null,"座標系":"任意座標系"}},{"type":"Polygon","arcs":[[-785,868,-858,869,870]],"properties":{"市区町村名":"上川郡鷹栖町","大字名":null,"丁目名":null,"小字名":null,"地番":"6112-2","精度区分":null,"座標系":"任意座標系"}},{"type":"Polygon","arcs":[[-870,-861,871]],"properties":{"市区町村名":"上川郡鷹栖町","大字名":null,"丁目名":null,"小字名":null,"地番":"6112-5","精度区分":null,"座標系":"任意座標系"}},{"type":"Polygon","arcs":[[-782,-786,-871,-872,872]],"properties":{"市区町村名":"上川郡鷹栖町","大字名":null,"丁目名":null,"小字名":null,"地番":"道-75","精度区分":null,"座標系":"任意座標系"}}]}},"arcs":[[[344534,922065],[36231,-34726],[57236,-54858],[-48185,-50979]],[[389816,781502],[-2273,-2419],[-903,-944]],[[386640,778139],[-41989,-43879]],[[344651,734260],[-21252,20818],[-30972,30339],[-14029,13742]],[[278398,799159],[14509,14854]],[[292907,814013],[7424,7605],[-28147,27087]],[[272184,848705],[19306,20868],[752,814],[-388,372]],[[291854,870759],[2227,2401]],[[294081,873160],[1221,-1196],[49232,50101]],[[432232,461473],[6085,-3595],[64304,-37980]],[[502621,419898],[-21342,-29963],[-1071,-1505],[-72286,-101494],[-6588,-11268],[11647,70041],[19251,115764]],[[646356,396025],[13360,-15324]],[[659716,380701],[30967,-36896],[15075,-17962]],[[705758,325843],[5782,-9048],[3054,-3406],[852,910]],[[715446,314299],[766,-912]],[[716212,313387],[-8162,-8722],[35330,-42989]],[[743380,261676],[11297,-12798]],[[754677,248878],[-6026,-6198],[8013,-8148]],[[756664,234532],[-6129,-5825],[-47665,-50056],[-8928,-10109]],[[693942,168542],[-9310,-9735]],[[684632,158807],[-60932,57627],[14185,15132],[30296,32316],[-75687,72242],[44179,46811],[-1345,1459]],[[635328,384394],[11028,11631]],[[486488,163396],[62034,-59629],[43300,-41621]],[[591822,62146],[-13476,-15101]],[[578346,47045],[-29824,-31363],[-7056,-7422]],[[541466,8260],[-1072,999],[-942,-987],[-90018,85824]],[[449434,94096],[472,1121],[-14564,14026]],[[435342,109243],[51146,54153]],[[978200,474818],[4858,-7428]],[[983058,467390],[-636,-657],[-24046,-24801],[-1451,-1495]],[[956925,440437],[-32836,28068],[-11597,9989],[-18966,-18468],[-24419,-23778]],[[869107,436248],[-9082,-8842]],[[860025,427406],[-2444,-2359]],[[857581,425047],[-714,-756]],[[856867,424291],[-88257,-91491]],[[768610,332800],[-1687,1643],[-670,653],[-1788,-1844],[-13555,13661],[-9048,-9272]],[[741862,337641],[-32289,31558],[-936,913],[-2192,2136]],[[706445,372248],[4498,4645],[2579,2663],[-4619,4853]],[[708903,384409],[-14646,15382],[-1763,-1836]],[[692494,397955],[-10866,10376],[-5815,-6223]],[[675813,402108],[-11021,10743]],[[664792,412851],[-1316,1461]],[[663476,414312],[-4284,4474]],[[659192,418786],[-10924,11411]],[[648268,430197],[14331,6436],[18463,4803],[2695,1225],[-1046,1118],[-2022,-1032],[-18593,-4862],[-7120,-3142]],[[654976,434743],[-10536,9968]],[[644440,444711],[400,8648]],[[644840,453359],[930,32251],[-1072,-1127],[-857,-902]],[[643841,483581],[-1494,-1572]],[[642347,482009],[152,1580],[468,4861]],[[642967,488450],[1600,1688]],[[644567,490138],[648,684],[1157,1220],[3559,47090]],[[649931,539132],[5324,55602]],[[655255,594734],[160,1669],[-894,-1047]],[[654521,595356],[-734,-886]],[[653787,594470],[-135,-153],[-568,-643]],[[653084,593674],[181,1882],[507,5270]],[[653772,600826],[454,530],[1494,1750]],[[655720,603106],[97560,114192],[-3720,3457],[906,4658]],[[750466,725413],[12529,-8170]],[[762995,717243],[-1433,-1991],[20413,-13491],[12897,-22031],[4959,-13486],[2798,-4226],[1543,1243]],[[804172,663261],[5450,-8939],[1977,-1678]],[[811599,652644],[9644,-8184]],[[821243,644460],[29631,-31868],[1539,-1654],[9465,-10243],[28476,-30815],[9385,-10156],[46389,-50199],[32072,-34707]],[[541466,8260],[-2761,-2902]],[[538705,5358],[-90366,86142],[1095,2596]],[[591822,62146],[462,-444]],[[592284,61702],[-13938,-14657]],[[402800,236175],[2973,-485],[927,3114],[1098,230],[78690,-75638]],[[435342,109243],[-19325,18612],[-810,226]],[[415207,128081],[-6851,6592],[-123,142],[-5133,5903]],[[403100,140718],[649,675],[-1869,816]],[[401880,142209],[-5339,6070]],[[396541,148279],[4142,2238],[1204,9626],[-2542,2191],[-400,7344],[-289,8447]],[[398656,178125],[126,2182],[2533,43725],[1485,12143]],[[415207,128081],[-6062,1694],[-3884,3806],[-4646,4553],[2485,2584]],[[401880,142209],[-7909,3456],[1358,3992]],[[395329,149657],[1212,-1378]],[[397350,155599],[1306,22526]],[[395329,149657],[2021,5942]],[[594203,64804],[538,-516]],[[594741,64288],[-2457,-2586]],[[402800,236175],[2761,9885],[1482,4329]],[[407043,250389],[2375,-1172],[-1085,-4194]],[[408333,245023],[-370,-1432],[140559,-134935],[45681,-43852]],[[532751,125887],[15771,-15101],[19829,-18986]],[[568351,91800],[27010,-25863]],[[595361,65937],[-1158,-1133]],[[408333,245023],[9658,-9248]],[[417991,235775],[58848,-56349]],[[476839,179426],[55912,-53539]],[[595361,65937],[496,-476]],[[595857,65461],[-1116,-1173]],[[407043,250389],[1929,6063],[3415,7475],[7861,13675],[18686,26605]],[[438934,304207],[23968,-22477]],[[462902,281730],[-44911,-45955]],[[462902,281730],[19790,20249]],[[482692,301979],[57590,-55460]],[[540282,246519],[-63443,-67093]],[[595900,192959],[-25619,-27210],[-21759,-23110],[-15771,-16752]],[[540282,246519],[8240,-7936],[47378,-45624]],[[568351,91800],[16065,17011]],[[584416,108811],[9379,-8975]],[[593795,99836],[18194,-17410]],[[611989,82426],[-2994,-3149]],[[608995,79277],[-13634,-13340]],[[515022,273519],[-472,-631],[18338,-17671]],[[532888,255217],[15634,-15065],[48139,-46384]],[[596661,193768],[-761,-809]],[[482692,301979],[-25500,24556]],[[457192,326535],[-1537,1480]],[[455655,328015],[1128,1606]],[[456783,329621],[1685,-1623]],[[458468,327998],[56554,-54479]],[[536535,357327],[-692,-789],[12679,-11848],[6175,-5770]],[[554697,338920],[-6175,-6473],[-5754,-6031],[5754,-7184],[9043,-11289]],[[557565,307943],[-9043,-9582],[-11028,-11686]],[[537494,286675],[-66204,63601]],[[471290,350276],[25927,36933]],[[497217,387209],[1037,-558],[3029,3457],[35252,-32781]],[[532640,281531],[-813,-4476],[-320,-17004],[1381,-4834]],[[515022,273519],[11742,12981],[5876,-4969]],[[561528,334085],[2148,2204]],[[563676,336289],[22385,22960]],[[586061,359249],[10417,-10070]],[[596478,349179],[-1181,-1252]],[[595297,347927],[-6997,6678],[-31070,-28375],[8303,-9844]],[[565533,316386],[-7968,-8443]],[[554697,338920],[6041,-5645],[790,810]],[[595297,347927],[-29764,-31541]],[[596478,349179],[6537,6927]],[[603015,356106],[3667,3885]],[[606682,359991],[36951,39158]],[[643633,399149],[2723,-3124]],[[635328,384394],[-46623,-49172]],[[588705,335222],[-40183,-42378],[-12169,-12834],[-807,-3771],[-181,-15275],[1235,-4562],[11922,-11490],[74611,-71901]],[[623133,173011],[25239,-24323]],[[648372,148688],[13893,-13389]],[[662265,135299],[-2356,-2477]],[[659909,132822],[-13185,12706]],[[646724,145528],[-14496,13969]],[[632228,159497],[-34613,33352],[-954,919]],[[532640,281531],[4854,5144]],[[643939,399499],[2681,-3195]],[[646620,396304],[-264,-279]],[[643633,399149],[306,350]],[[643056,194184],[-19923,-21173]],[[588705,335222],[74946,-71493],[-44268,-47046],[23673,-22499]],[[643056,194184],[25437,-24178]],[[668493,170006],[-20121,-21318]],[[668493,170006],[14063,-13367]],[[682556,156639],[-20291,-21340]],[[756664,234532],[4341,4128]],[[761005,238660],[-67063,-70118]],[[762405,240123],[-1400,-1463]],[[754677,248878],[7728,-8755]],[[775959,254294],[-13554,-14171]],[[743380,261676],[11325,11147]],[[754705,272823],[21254,-18529]],[[716212,313387],[15092,-17981],[13842,-14100],[9559,-8483]],[[733610,329965],[31747,-32318],[27056,-26410]],[[792413,271237],[-9300,-9576]],[[783113,261661],[-28134,24442],[-16131,15501],[-15669,18715]],[[723179,320319],[10431,9646]],[[733610,329965],[926,857]],[[734536,330822],[59399,-58019],[-1522,-1566]],[[705758,325843],[9688,-11544]],[[646620,396304],[13096,-15603]],[[684632,158807],[-2076,-2168]],[[611676,425246],[6991,-3370],[14054,-10645],[10912,-12082]],[[606682,359991],[4994,65255]],[[611807,426941],[10114,-6285],[8240,-5983],[6270,-6228],[7508,-8946]],[[611676,425246],[131,1695]],[[563676,336289],[-1397,1308]],[[562279,337597],[40586,41456]],[[602865,379053],[2223,2271],[3755,45687]],[[608843,427011],[144,1743]],[[608987,428754],[2820,-1813]],[[603015,356106],[1844,22425],[-18798,-19282]],[[604575,429237],[4268,-2226]],[[602865,379053],[-54343,51583],[-5621,5336]],[[542901,435972],[5621,3252],[4445,2571]],[[552967,441795],[3411,-398],[47814,-13080],[383,920]],[[562279,337597],[-13757,12878],[-9849,9220]],[[538673,359695],[583,692],[-34681,32632]],[[504575,393019],[3246,4411],[-1995,1825]],[[505826,399255],[18376,25900]],[[524202,425155],[18699,10817]],[[604575,429237],[480,1159],[3932,-1642]],[[536535,357327],[11987,-11147],[13006,-12095]],[[502612,394603],[3214,4652]],[[504575,393019],[-612,-832],[34710,-32492]],[[497217,387209],[5536,5697],[-141,1697]],[[497217,387209],[5395,7394]],[[524202,425155],[4870,6894],[4152,3954],[7418,3653],[4510,1368],[3370,333],[4445,438]],[[369885,166741],[-48575,39318],[-49967,49642],[-10853,10782],[-1824,1812]],[[258666,268295],[3530,3668]],[[262196,271963],[1860,-1781],[11999,-11487],[78815,-75450],[1521,1692],[13738,-10438]],[[370129,174499],[930,-707]],[[371059,173792],[-1174,-7051]],[[321650,333761],[2408,2503]],[[324058,336264],[1914,-1861],[27364,-26597],[33975,-33022]],[[387311,274784],[-345,-1715],[-4048,-14053]],[[382918,259016],[-2279,2020],[1778,2322],[734,10690],[-32809,31855],[-26779,26001],[-1913,1857]],[[387311,274784],[497,-484]],[[387808,274300],[-2848,-17092]],[[384960,257208],[-2042,1808]],[[387597,276206],[-286,-1422]],[[324058,336264],[850,883]],[[324908,337147],[1915,-1862],[27574,-26805],[33200,-32274]],[[388052,275764],[-244,-1464]],[[387597,276206],[455,-442]],[[401328,355887],[-3251,-19649],[-7388,-44649]],[[390689,291589],[-3092,-15383]],[[324908,337147],[46320,48145]],[[371228,385292],[1961,-1915],[28139,-27490]],[[390689,291589],[-2637,-15825]],[[371228,385292],[879,914]],[[372107,386206],[1963,-1914],[27517,-26846]],[[401587,357446],[-259,-1559]],[[503799,421553],[-1178,-1655]],[[432232,461473],[626,3769]],[[432858,465242],[1287,-765],[39407,-23451],[-549,-957],[29350,-17647]],[[502353,422422],[1446,-869]],[[514715,436881],[-7807,-8144],[-4555,-6315]],[[432858,465242],[167,1004],[11462,68924]],[[444487,535170],[1718,-114],[1485,1847],[71984,-70663]],[[519674,466240],[-8360,-10404],[8344,-12463]],[[519658,443373],[-1110,-1111],[-3833,-5381]],[[514715,436881],[-10916,-15328]],[[466329,523355],[23522,-23120]],[[489851,500235],[35794,-35181]],[[525645,465054],[-2036,-2678],[-3935,3864]],[[444487,535170],[2354,14154]],[[446841,549324],[1819,-1864],[-490,-5877],[2250,-2363],[15909,-15865]],[[469797,586516],[-1929,-2530],[-1681,-2204],[-17838,-23392]],[[448349,558390],[5783,34782],[537,3224],[706,4249]],[[455375,600645],[14422,-14129]],[[470388,587288],[-591,-772]],[[455375,600645],[196,1174]],[[455571,601819],[14817,-14531]],[[469797,586516],[29508,-28855]],[[499305,557661],[-1632,-1699],[-1981,-2060],[-29363,-30547]],[[446841,549324],[1508,9066]],[[470388,587288],[29647,-28860]],[[500035,558428],[-730,-767]],[[500035,558428],[774,-753]],[[500809,557675],[-757,-784]],[[500052,556891],[-1595,-1666],[-1979,-2066],[-2120,-2214]],[[494358,550945],[-26301,-27468],[22664,-22347],[-870,-895]],[[554649,492161],[-6127,5973],[-30975,30201],[-8147,7943],[-1169,1141],[-13873,13526]],[[500052,556891],[48470,-47138],[12163,-11829]],[[560685,497924],[-2113,-2018],[-3923,-3745]],[[500809,557675],[47713,-46447],[20462,-19919]],[[568984,491309],[-745,-750]],[[568239,490559],[-7554,7365]],[[562368,484642],[-7719,7519]],[[568239,490559],[-1907,-1922],[-3964,-3995]],[[554649,492161],[-4072,-3805]],[[550577,488356],[-2055,-1921],[-7384,-6902]],[[541138,479533],[-15493,-14479]],[[562368,484642],[-3472,-3498]],[[558896,481144],[-8319,7212]],[[541138,479533],[7384,-6882],[1011,-942],[9363,9435]],[[568239,490559],[3093,-3016]],[[571332,487543],[-1810,-1895],[-7791,-8167]],[[561731,477481],[-13209,-13843],[-6641,-6961]],[[541881,456677],[-7200,-2697],[-10219,-5797],[-4804,-4810]],[[568984,491309],[3080,-2998]],[[572064,488311],[-732,-768]],[[561731,477481],[11991,-9645],[-7386,-13671]],[[566336,454165],[-8085,2273],[-5552,299],[-4177,-23],[-6641,-37]],[[571332,487543],[41518,-40482]],[[612850,447061],[-408,-1620],[-1662,-6591]],[[610780,438850],[-3510,709],[593,2930],[-41527,11676]],[[572064,488311],[41074,-40112]],[[613138,448199],[-288,-1138]],[[257968,278583],[-4300,-4465]],[[253668,274118],[-50306,38974]],[[203362,313092],[8471,8838]],[[211833,321930],[46135,-43347]],[[184382,348381],[27451,-26451]],[[203362,313092],[-664,514],[-20048,32920],[1732,1855]],[[165896,366339],[-18047,931],[-29581,28578],[-125,683]],[[118143,396531],[7479,7729]],[[125622,404260],[40274,-37921]],[[118143,396531],[-979,5340],[-8340,11865],[-10292,18483]],[[98532,432219],[25408,-26375],[1682,-1584]],[[49293,483400],[-12605,5316],[-2460,2811],[228,15688]],[[34456,507215],[5669,-11707],[9168,-12108]],[[109580,663014],[36373,-23691],[-384,-330],[8827,-5679]],[[154396,633314],[-1879,-1973]],[[152517,631341],[-5493,3218],[-3260,1201],[-8660,5761],[-35087,23953]],[[100017,665474],[2196,2338]],[[102213,667812],[7367,-4798]],[[153820,630755],[17689,-10355],[2630,-1535]],[[174139,618865],[-14394,-15297]],[[159745,603568],[-17315,15278],[11390,11909]],[[155611,632628],[166,-93],[20164,-11756]],[[175941,620779],[-1802,-1914]],[[153820,630755],[1791,1873]],[[154396,633314],[1215,-686]],[[153820,630755],[-1303,586]],[[197805,607104],[-1190,-1239]],[[196615,605865],[-2103,1214]],[[194512,607079],[1273,1336]],[[195785,608415],[2020,-1311]],[[197805,607104],[14126,-9160]],[[211931,597944],[-690,-872]],[[211241,597072],[-3578,2422],[-11048,6371]],[[211241,597072],[20230,-13288],[11964,-8560]],[[243435,575224],[-28548,-28681]],[[214887,546543],[-8484,8053],[-19079,12226]],[[187324,566822],[23917,30250]],[[211931,597944],[32888,-21330]],[[244819,576614],[-1384,-1390]],[[243435,575224],[10577,-7601],[11941,-7621],[5051,-3085]],[[271004,556917],[-31885,-33378]],[[239119,523539],[-24232,23004]],[[272583,558570],[-1579,-1653]],[[244819,576614],[27590,-17893],[174,-151]],[[271004,556917],[1172,-697]],[[272176,556220],[-32084,-33619]],[[240092,522601],[-973,938]],[[272583,558570],[1007,-868]],[[273590,557702],[-1414,-1482]],[[272176,556220],[11584,-7309]],[[283760,548911],[-10807,-11440],[5272,-5307]],[[278225,532164],[-13401,-13488]],[[264824,518676],[-10113,-10178]],[[254711,508498],[-14619,14103]],[[273590,557702],[11827,-7038]],[[285417,550664],[-1657,-1753]],[[283760,548911],[6386,-3974],[476,-295]],[[290622,544642],[-12397,-12478]],[[285417,550664],[7033,-4183]],[[292450,546481],[-1828,-1839]],[[290622,544642],[17832,-10670]],[[308454,533972],[-29385,-29096]],[[279069,504876],[-14245,13800]],[[292450,546481],[17888,-10644]],[[310338,535837],[-1884,-1865]],[[279069,504876],[-9932,-10294],[-14426,13916]],[[310338,535837],[33545,-19959]],[[343883,515878],[-1781,-1878]],[[342102,514000],[-15791,9477],[-17857,10495]],[[377500,495875],[-1784,-1876]],[[375716,493999],[-33614,20001]],[[343883,515878],[33617,-20003]],[[377500,495875],[28748,-17105]],[[406248,478770],[-1518,-1836]],[[404730,476934],[-27021,16044],[-1993,1021]],[[416586,472619],[-394,-2448]],[[416192,470171],[-11462,6763]],[[406248,478770],[10338,-6151]],[[411153,437650],[794,6212],[4245,26309]],[[416586,472619],[2404,-1431]],[[418990,471188],[-5037,-30632]],[[413953,440556],[-2800,-2906]],[[195785,608415],[-12120,7859],[-7724,4505]],[[109580,663014],[3109,3181]],[[112689,666195],[36579,-23913],[684,-447],[4172,-2727],[2750,-1643],[29563,-17082],[37671,-24754],[21127,-13922],[17467,-11516],[1076,-709],[12595,-7873],[4753,-2833],[135307,-80632],[3352,-1998],[-795,-4958]],[[195157,712743],[12064,725],[-6222,-801],[-5842,76]],[[328076,722229],[1125,1287]],[[329201,723516],[3550,-3410]],[[332751,720106],[-1157,-1209]],[[331594,718897],[-3518,3332]],[[294079,756938],[169,154]],[[294248,757092],[15643,-15028],[2029,-1948]],[[311920,740116],[-172,-195]],[[311748,739921],[-2115,2036],[-14731,14189]],[[294902,756146],[-823,792]],[[332751,720106],[29133,-27985]],[[361884,692121],[-986,-979]],[[360898,691142],[-29304,27755]],[[361884,692121],[10023,-9601]],[[371907,682520],[-957,-991]],[[370950,681529],[-10052,9613]],[[328076,722229],[-541,512],[920,1089],[-16707,16091]],[[311920,740116],[17281,-16600]],[[371907,682520],[28956,-27998]],[[400863,654522],[-959,-933]],[[399904,653589],[-28954,27940]],[[400863,654522],[15313,-14807],[16412,-15870]],[[432588,623845],[-1422,-427],[-15874,15320],[-15388,14851]],[[800437,304084],[6913,6638],[11927,-11896]],[[819277,298826],[-18251,-18746]],[[801026,280080],[-12802,12456]],[[788224,292536],[12213,11548]],[[788224,292536],[-6958,6779]],[[781266,299315],[10452,10967]],[[791718,310282],[8719,-6198]],[[854843,335359],[-9550,-9809]],[[845293,325550],[-12562,12157],[9412,9740],[12700,-12088]],[[856867,424291],[44805,-40830]],[[901672,383461],[-46829,-48102]],[[845293,325550],[-26016,-26724]],[[791718,310282],[-23108,22518]],[[706445,372248],[-4856,4733]],[[701589,376981],[7314,7428]],[[701589,376981],[-15099,14719]],[[686490,391700],[6004,6255]],[[686490,391700],[-10677,10408]],[[663349,414257],[127,55]],[[664792,412851],[-1443,1406]],[[659192,418786],[-300,-255]],[[658892,418531],[-11674,11195]],[[647218,429726],[1050,471]],[[663349,414257],[-4457,4274]],[[646080,430818],[8896,3925]],[[647218,429726],[-1138,1092]],[[646080,430818],[-5338,5119],[-2691,2581]],[[638051,438518],[1131,11169]],[[639182,449687],[2488,-2355],[2770,-2621]],[[639182,449687],[812,8029]],[[639994,457716],[2350,-2113],[2496,-2244]],[[639994,457716],[1638,-10],[2209,25875]],[[649197,538816],[-92,-274],[-754,-2249],[-3784,-46155]],[[642967,488450],[4760,49506]],[[647727,537956],[1397,818],[73,42]],[[649197,538816],[734,316]],[[653787,594470],[-4590,-55654]],[[647727,537956],[5357,55718]],[[797057,680671],[8383,-16387]],[[805440,664284],[-1268,-1023]],[[804172,663261],[-727,1193],[-6388,16217]],[[762995,717243],[20722,-13512],[2816,-2489],[10524,-20571]],[[655255,594734],[-734,622]],[[663667,681333],[1035,9610]],[[664702,690943],[17537,4637]],[[682239,695580],[2936,-8652],[-21508,-5595]],[[662700,681051],[-1477,-368]],[[661223,680683],[916,9540]],[[662139,690223],[1180,354]],[[663319,690577],[-619,-9526]],[[663319,690577],[1383,366]],[[663667,681333],[-967,-282]],[[664702,690943],[2373,22037]],[[667075,712980],[9255,15],[5909,-17415]],[[662139,690223],[2191,22819]],[[664330,713042],[280,-7]],[[664610,713035],[-1291,-22458]],[[666464,712993],[611,-13]],[[664610,713035],[1854,-42]],[[667075,712980],[2746,24638]],[[669821,737618],[18012,5458],[16169,10617]],[[704002,753693],[8633,-7148],[7497,-1351]],[[720132,745194],[30334,-19781]],[[655720,603106],[438,4311]],[[656158,607417],[7509,73916]],[[653772,600826],[3247,34804],[4204,45053]],[[662700,681051],[-6542,-73634]],[[668896,737337],[-2432,-24344]],[[664330,713042],[2394,23637]],[[666724,736679],[2172,658]],[[704002,753693],[8432,-4945],[7698,-3554]],[[668896,737337],[925,281]],[[812437,653170],[3118,-2592],[5688,-6118]],[[811599,652644],[838,526]],[[869107,436248],[42946,-42094]],[[912053,394154],[-7290,-7518]],[[904763,386636],[-44738,40770]],[[978200,474818],[5886,-6369]],[[984086,468449],[-1028,-1059]],[[956925,440437],[-44872,-46283]],[[904763,386636],[-2405,-2470]],[[902358,384166],[-44777,40881]],[[902358,384166],[-686,-705]],[[458468,327998],[1865,2856],[3022,8124]],[[463355,338978],[7935,11298]],[[456783,329621],[6572,9357]],[[513610,555013],[-3763,3547]],[[509847,558560],[38675,-3761],[93014,-9045]],[[641536,545754],[-240,-3084]],[[641296,542670],[-890,86]],[[640406,542756],[-2374,230]],[[638032,542986],[-89510,8652],[-34912,3375]],[[645754,624781],[2096,-157]],[[647850,624624],[-6242,-77733]],[[641608,546891],[-564,54]],[[641044,546945],[3215,49534],[1495,28302]],[[641044,546945],[-2665,256]],[[638379,547201],[4875,77766]],[[643254,624967],[2500,-186]],[[510253,606998],[8795,-2069],[-3331,-45842]],[[515717,559087],[-7071,606]],[[508646,559693],[5877,19707],[-11476,3347]],[[503047,582747],[7206,24251]],[[508646,559693],[-9726,9165]],[[498920,568858],[4127,13889]],[[643254,624967],[-94732,7085],[-88053,6584]],[[460469,638636],[358,2442]],[[460827,641078],[5719,-432]],[[466546,640646],[77128,-5837]],[[543674,634809],[4848,-351],[16524,-1194]],[[565046,633264],[7114,-514]],[[572160,632750],[7183,-519]],[[579343,632231],[8737,-632]],[[588080,631599],[55278,-3997]],[[643358,627602],[2698,-194]],[[646056,627408],[2006,-146]],[[648062,627262],[-212,-2638]],[[648268,683020],[-4910,-55418]],[[588080,631599],[5176,68436]],[[593256,700035],[38597,-2881]],[[631853,697154],[-973,-13003],[17388,-1131]],[[579343,632231],[5239,68452]],[[584582,700683],[8674,-648]],[[572160,632750],[5256,68468]],[[577416,701218],[7166,-535]],[[565046,633264],[5073,68498]],[[570119,701762],[7297,-544]],[[548810,703353],[21309,-1591]],[[543674,634809],[4848,64708],[288,3836]],[[646056,627408],[4542,55459]],[[650598,682867],[731,-48]],[[651329,682819],[1188,-76]],[[652517,682743],[-4455,-55481]],[[648268,683020],[2330,-153]],[[460827,641078],[1986,14559],[9,59]],[[462822,655696],[4955,-1081],[-1231,-13969]],[[633358,701308],[1756,18320]],[[635114,719628],[17563,-1808]],[[652677,717820],[-113,-915],[-915,136],[-1455,-16809]],[[650194,700232],[-16836,1076]],[[657515,756473],[365,-33]],[[657880,756440],[-1318,-16515],[-2169,-22282]],[[654393,717643],[-1716,177]],[[652677,717820],[3194,26065],[1644,12588]],[[659136,785699],[5774,68466]],[[664910,854165],[1402,-127]],[[666312,854038],[-5477,-68483]],[[660835,785555],[-1699,144]],[[659136,785699],[-1742,145]],[[657394,785844],[5844,68475]],[[663238,854319],[1672,-154]],[[561717,864610],[-13019,1274]],[[548698,865884],[1663,3172]],[[550361,869056],[23675,-2214]],[[574036,866842],[27372,-2470]],[[601408,864372],[63489,-6027]],[[664897,858345],[1705,-160]],[[666602,858185],[-223,-3190]],[[666379,854995],[-23384,2012],[-81278,7603]],[[664897,858345],[737,8089]],[[665634,866434],[212,2326],[474,11924],[-1819,11275],[-8281,28858]],[[656220,920817],[1915,642]],[[658135,921459],[10573,-37115],[-2106,-26159]],[[665634,866434],[-2617,865],[-486,14944],[-9735,37426]],[[652796,919669],[3424,1148]],[[580854,878046],[17647,28998],[8277,-1115],[-411,-21858],[-4959,-19699]],[[574036,866842],[6818,11204]],[[550361,869056],[490,935],[6108,11045]],[[556959,881036],[23895,-2990]],[[654432,928108],[-4238,-1577]],[[650194,926531],[-5749,14235],[-9187,12463]],[[635258,953229],[12886,-5266]],[[648144,947963],[1441,-1297],[4847,-18558]],[[726371,821109],[-9124,-8216],[3688,-3556]],[[720935,809337],[-8657,-7723],[-2294,-2897]],[[709984,798717],[-18733,6463],[-8512,-9526],[-5869,-12198],[-7878,494]],[[668992,783950],[1165,14046],[1668,23291],[3126,43388]],[[674951,864675],[28898,-12684],[19982,-10633],[2540,-20249]],[[672313,865833],[1829,-802]],[[674142,865031],[-5304,-81081]],[[668838,783950],[-3091,134],[6566,81749]],[[720935,809337],[-10620,-10735],[-331,115]],[[668992,783950],[-154,0]],[[674142,865031],[809,-356]],[[672313,865833],[99,1242]],[[672412,867075],[31146,-13760],[21216,-11047],[2767,-20104]],[[727541,822164],[-1170,-1055]],[[672412,867075],[256,3187]],[[672668,870262],[32911,-14297],[21863,-11639],[1017,-7260],[-544,-109],[2951,-11798],[-3325,-2995]],[[367888,711361],[77011,-75137],[984,-959]],[[445883,635265],[-747,-4674]],[[445136,630591],[-900,884],[-78750,77376]],[[365486,708851],[2402,2510]],[[458137,711528],[-310,-1474],[-19,-118]],[[457808,709936],[-788,756],[-8805,8450],[-37981,36450]],[[410234,755592],[-19403,18621]],[[390831,774213],[841,884],[57099,-54611],[8663,-8285],[703,-673]],[[346099,732836],[-1448,1424]],[[386640,778139],[1570,-1508],[-42111,-43795]],[[346099,732836],[-2441,-2539]],[[343658,730297],[-1442,1418]],[[342216,731715],[2435,2545]],[[342216,731715],[-20250,19896],[-23066,22664],[-9335,9954],[-12606,13443]],[[276959,797672],[1439,1487]],[[272184,848705],[-745,719]],[[271439,849424],[20415,21335]],[[269255,825622],[6914,5346],[16738,-16955]],[[278398,799159],[-17634,17593]],[[260764,816752],[8491,8870]],[[276959,797672],[-20043,21374],[-1438,2904]],[[255478,821950],[5286,-5198]],[[252673,827617],[7210,7793]],[[259883,835410],[9372,-9788]],[[255478,821950],[-2805,5667]],[[252673,827617],[-717,1447],[6999,7315]],[[258955,836379],[928,-969]],[[259883,835410],[12301,13295]],[[258955,836379],[12484,13045]],[[294081,873160],[48584,50696]],[[342665,923856],[1869,-1791]],[[342665,923856],[2169,2267]],[[344834,926123],[1807,-1728],[51694,-49446],[43642,-41741]],[[441977,833208],[-50536,-53166],[-1625,1460]],[[492117,785140],[-21886,-42014],[-3022,-5801],[-569,-1091],[-755,-1839],[-5421,-13206],[-1508,-5774]],[[458956,715415],[-505,484],[-8293,7944],[-55585,53244]],[[394573,777087],[50610,52884]],[[445183,829971],[46272,-44199],[662,-632]],[[511076,900686],[21235,23560]],[[532311,924246],[16211,-18100],[2641,-2949],[2039,-2278]],[[553202,900919],[-3818,-7168],[-862,-1522],[-7732,-13658],[-48673,-93431]],[[445183,829971],[63718,66578]],[[508901,896549],[2175,4137]],[[394573,777087],[-871,833],[114494,119456],[705,-827]],[[466336,945888],[7207,7519]],[[473543,953407],[8240,-9371]],[[481783,944036],[-13775,1228],[-1672,624]],[[466336,945888],[-13400,5007],[-13139,7726],[-8052,6841],[-24295,23494],[34401,-25687],[224,1226],[31468,-11088]],[[476812,927644],[9756,10950],[-4785,5442]],[[481783,944036],[1150,-103],[14500,1316]],[[497433,945249],[12530,1614]],[[509963,946863],[-1266,-16974],[-9603,-9586],[11623,-17211]],[[510717,903092],[-989,-1061]],[[509728,902031],[-4092,-2356]],[[505636,899675],[-28824,27969]],[[473543,953407],[23890,-8158]],[[509963,946863],[19944,-22410],[-19190,-21361]],[[509963,946863],[1989,447]],[[511952,947310],[12929,-14768]],[[524881,932542],[7430,-8296]],[[511076,900686],[-1348,1345]],[[541563,968048],[6959,4618],[20370,13516],[3541,800]],[[572433,986982],[23609,-10157]],[[596042,976825],[-2719,-4661],[-8783,-15052],[-7997,-11947],[-23341,-44246]],[[524881,932542],[12210,24238],[4472,11268]],[[541563,968048],[493,1241]],[[542056,969289],[6466,4725],[20114,14696],[3797,-1728]],[[102213,667812],[-258,168]],[[101955,667980],[3138,3181]],[[105093,671161],[170,-110]],[[105263,671051],[7426,-4856]],[[453521,324975],[3671,1560]],[[438934,304207],[14587,20768]],[[453521,324975],[2134,3040]],[[343658,730297],[2774,-2725]],[[346432,727572],[19054,-18721]],[[445136,630591],[-634,-3960]],[[444502,626631],[-831,800],[-123758,119209],[-18054,17391]],[[301859,764031],[-18054,17391],[-45573,43898],[166768,174679],[1186,-9763],[-61352,-64113]],[[642347,482009],[-2353,-24293]],[[638051,438518],[-4380,4239]],[[633671,442757],[3759,39533],[26841,282229],[3204,-625]],[[667475,763894],[1899,-371],[-2650,-26844]],[[401587,357446],[5887,35581]],[[407474,393027],[5272,31379],[822,4895]],[[413568,429301],[2876,13276]],[[416444,442577],[5787,34765],[787,4731],[20208,121405],[529,3181],[931,5592]],[[444686,612251],[10885,-10432]],[[610780,438850],[2196,-558],[16333,-10610],[12083,-9673],[81787,-97690]],[[783113,261661],[-7154,-7367]],[[397350,155599],[-21616,8769],[-5849,2373]],[[371059,173792],[13901,83416]],[[444686,612251],[-2384,2284],[-9714,9310]],[[294248,757092],[7611,6939]],[[444502,626631],[12624,-12170]],[[457126,614461],[-760,-5496]],[[456366,608965],[-795,-7146]],[[984086,468449],[15913,5592],[-193547,-199262]],[[806452,274779],[-5426,5301]],[[567164,790970],[74197,-6136]],[[641361,784834],[-2558,-26705]],[[638803,758129],[-3689,-38501]],[[633358,701308],[-73399,5600]],[[559959,706908],[7205,84062]],[[457808,709936],[-2396,-15004],[-9529,-59667]],[[367888,711361],[16065,16780]],[[383953,728141],[26281,27451]],[[653804,698772],[-260,-3237]],[[653544,695535],[-905,68]],[[652639,695603],[-1193,89]],[[651446,695692],[-19593,1462]],[[548810,703353],[-288,24],[-54468,4533],[-22841,1902]],[[471213,709812],[870,2682]],[[472083,712494],[23143,-1747],[53296,-4025],[105282,-7950]],[[462822,655696],[4547,34272],[1772,13358],[2072,6486]],[[660835,785555],[-248,-2311]],[[660587,783244],[-565,46]],[[660022,783290],[-2633,218]],[[657389,783508],[-16028,1326]],[[567164,790970],[-18642,1541],[-35700,2953]],[[512822,795464],[1228,2411]],[[514050,797875],[34472,-2894],[108872,-9137]],[[652834,700062],[1068,-68]],[[653902,699994],[-98,-1222]],[[472083,712494],[353,1092]],[[472436,713586],[23231,-1773],[52855,-4033],[11437,-872]],[[650194,700232],[2640,-170]],[[668992,783950],[-1517,-20056]],[[633671,442757],[2854,38547]],[[636525,481304],[4771,61366]],[[641536,545754],[72,1137]],[[652517,682743],[1027,12792]],[[653902,699994],[1418,17652]],[[655320,717646],[3111,38745]],[[658431,756391],[2156,26853]],[[666312,854038],[67,957]],[[658135,921459],[-1952,7302]],[[656183,928761],[-5022,17986],[-3017,1216]],[[635258,953229],[-30638,12517],[-1009,394],[-11325,-19867],[-1859,-2969]],[[590427,943304],[-3894,-5478]],[[586533,937826],[-494,-695],[-3594,-4794],[-17904,-36040]],[[564541,896297],[-7582,-15261]],[[548698,865884],[-176,-335],[-342,-652],[-34130,-67022]],[[512822,795464],[-35994,-70742],[-4392,-11136]],[[460469,638636],[-5,-32]],[[460464,638604],[-3338,-24143]],[[458137,711528],[819,3887]],[[596042,976825],[11934,-5392],[47765,-21515],[18123,-65643],[-1196,-14013]],[[651329,682819],[1310,12784]],[[652834,700062],[1559,17581]],[[654393,717643],[927,3]],[[657880,756440],[551,-49]],[[657880,756440],[2142,26850]],[[586977,937484],[-444,342]],[[590427,943304],[29652,-22421],[13431,-411],[16684,6059]],[[654432,928108],[1751,653]],[[652796,919669],[-17997,-6032],[-17223,265],[-30556,23549],[-43,33]],[[608995,79277],[-13138,-13816]],[[194512,607079],[-20373,11786]],[[164988,720551],[-6790,45],[-7827,-2487],[-18443,-18432],[24116,25228],[9773,-3828],[10784,-4222],[-10195,3686],[-1418,10]],[[105093,671161],[16499,17533],[-16329,-17643]],[[181423,715058],[-77,-82]],[[181346,714976],[-1152,540],[1229,-458]],[[805440,664284],[4715,-9219],[2282,-1895]],[[640406,542756],[-3881,-61452]],[[636525,481304],[-3688,-4019]],[[632837,477285],[5195,65701]],[[651446,695692],[-487,-6237],[-2134,191],[-557,-6626]],[[564541,896297],[22436,41187]],[[383953,728141],[-19221,18654]],[[364732,746795],[26099,27418]],[[348860,730121],[19028,-18760]],[[346432,727572],[2428,2549]],[[348860,730121],[15872,16674]],[[346099,732836],[2761,-2715]],[[441977,833208],[63659,66467]],[[528443,959343],[13613,9946]],[[541563,968048],[-13120,-8705]],[[511952,947310],[16491,12033]],[[632837,477285],[-13294,-14481]],[[619543,462804],[-7871,7049],[-2954,-3334]],[[608718,466519],[-28951,26143]],[[579767,492662],[-31245,29447],[-34912,32904]],[[608718,466519],[2494,-2252],[-612,-665]],[[610600,463602],[-30833,29060]],[[619543,462804],[-3756,-4090]],[[615787,458714],[-5187,4888]],[[619690,116801],[12653,-12969]],[[632343,103832],[-11999,-12620]],[[620344,91212],[-8101,8301],[595,657],[-9326,9716]],[[603512,109886],[11411,11801]],[[614923,121687],[4767,-4886]],[[620344,91212],[-8355,-8786]],[[593795,99836],[9717,10050]],[[584416,108811],[21398,22262]],[[605814,131073],[9109,-9386]],[[561717,864610],[-76,-990],[38642,-3428],[42553,-4063],[20402,-1810]],[[181423,715058],[13734,-2315]],[[195157,712743],[-4160,-188],[-9651,2421]],[[657389,783508],[-1178,-12396],[792,-8897]],[[657003,762215],[-8010,806],[-213,-5775]],[[648780,757246],[-9977,883]],[[657003,762215],[512,-5742]],[[657515,756473],[-8735,773]],[[476812,927644],[-14746,13789],[4270,4455]],[[100017,665474],[-56021,-59120]],[[43996,606354],[-388,371]],[[43608,606725],[40830,42865]],[[84438,649590],[17517,18390]],[[43996,606354],[-2487,-2501]],[[41509,603853],[-326,311]],[[41183,604164],[2425,2561]],[[245782,718123],[8172,3256]],[[253954,721379],[-7457,-3933]],[[246497,717446],[-715,677]],[[246497,717446],[-1143,-538],[-13878,-2834],[-1014,964],[15320,3085]],[[489889,592821],[-3201,-12435]],[[486688,580386],[-9032,8514]],[[477656,588900],[4802,5487],[7431,-1566]],[[638379,547201],[-89857,8707],[-32805,3179]],[[510253,606998],[-15762,3709],[-4602,-17886]],[[477656,588900],[-21199,19979],[-91,86]],[[460464,638604],[88058,-6569],[94732,-7068]],[[399225,402367],[-10476,-10987],[-6095,5789]],[[382654,397169],[11034,11468]],[[393688,408637],[1843,-2087],[3694,-4183]],[[399225,402367],[8249,-9340]],[[372107,386206],[10547,10963]],[[393688,408637],[19880,20664]],[[486688,580386],[12232,-11528]],[[508646,559693],[1201,-1133]],[[615787,458714],[17884,-15957]],[[741862,337641],[39404,-38326]],[[806452,274779],[6299,-6264],[-7147,-7157],[-6084,6170],[-250998,-263129],[-4196,-4399],[-5621,5358]],[[632343,103832],[27566,28990]],[[734536,330822],[-121398,117377]],[[646724,145528],[-11331,-12041]],[[635393,133487],[-14459,13857]],[[620934,147344],[11294,12153]],[[635393,133487],[-15703,-16686]],[[605814,131073],[15120,16271]],[[264616,285487],[-6648,-6904]],[[211833,321930],[3921,4090]],[[215754,326020],[45532,-43060],[2914,3032],[416,-505]],[[184382,348381],[4305,4504]],[[188687,352885],[22736,-22770],[4331,-4095]],[[184382,348381],[-4713,4543]],[[179669,352924],[-1439,10584],[8399,-8560],[2058,-2063]],[[125622,404260],[7014,7248]],[[132636,411508],[29560,-31275],[13151,-14382],[-9451,488]],[[98532,432219],[-1996,3587]],[[96536,435806],[6801,7146]],[[103337,442952],[11475,-12585],[17824,-18859]],[[72174,477129],[31163,-34177]],[[96536,435806],[-5032,9038],[-11781,7376]],[[79723,452220],[-10545,10962]],[[69178,463182],[-4692,5954]],[[64486,469136],[7688,7993]],[[64486,469136],[-9277,11769],[-5916,2495]],[[34456,507215],[205,1919]],[[34661,509134],[8678,8807]],[[43339,517941],[3539,-10242],[20158,-24935],[5138,-5635]],[[103337,442952],[50760,53330],[31445,-30106],[-52906,-54668]],[[38047,533112],[5292,-15171]],[[34661,509134],[10,87],[-144,4836],[-5051,20280],[-5205,12474]],[[24271,546811],[13776,-13699]],[[79723,452220],[-3759,2354],[-6786,8608]],[[321650,333761],[-55606,-57799]],[[266044,275962],[-3848,-3999]],[[258666,268295],[-2884,-654],[-10688,-2426],[6022,6254],[2552,2649]],[[264616,285487],[52464,54478],[2377,2468],[782,812],[11388,11825],[38743,40230],[1099,1141],[39684,41209]],[[413953,440556],[2491,2021]],[[184382,348381],[-1747,-1828],[-2727,4606],[-239,1765]],[[196615,605865],[-19938,-20741]],[[176677,585124],[-1604,1541]],[[175073,586665],[19439,20414]],[[187324,566822],[-17475,11199],[6828,7103]],[[311748,739921],[-1029,-1172],[-17268,16110]],[[293451,754859],[1451,1287]],[[293451,754859],[-9545,-8462],[-17960,-15923],[-2544,-2256],[-9448,-6839]],[[253954,721379],[9196,7389],[2458,2240],[17914,16316],[10557,9614]],[[175073,586665],[-15328,16903]],[[27886,562127],[-4571,13141],[-1037,6524],[-611,1298]],[[21667,583090],[3011,3150]],[[24678,586240],[5226,-18226],[1717,-4483],[-3735,-1404]],[[24271,546811],[-11109,26623]],[[13162,573434],[2292,3153],[6213,6503]],[[27886,562127],[209,-602],[7775,-22175],[2177,-6238]],[[382918,259016],[-4332,-15038],[-2432,-13996],[-2738,-25208]],[[373416,204774],[-2452,263],[-1527,-6649],[-2269,-7087],[-1731,-11922]],[[365437,179379],[-1170,886],[-4909,2515],[-20615,19740],[-1636,7929],[-6491,3445],[-24106,23077],[-37741,36036],[-2725,2955]],[[373416,204774],[-3154,-29048]],[[370262,175726],[-4825,3653]],[[370262,175726],[-133,-1227]],[[41509,603853],[-16831,-17613]],[[21667,583090],[-175,303]],[[21492,583393],[19691,20771]],[[13162,573434],[-245,914],[8575,9045]],[[13162,573434],[-13162,-1712],[72692,77072],[11746,796]]],"bbox":[177.761,-436.693,1604.48,986.49],"transform":{"scale":[0.0014267204267204268,0.0014231844231844231],"translate":[177.761,-436.693]}}