{"type":"Topology","objects":{"01394-4334-49":{"type":"GeometryCollection","geometries":[{"type":"MultiPolygon","arcs":[[[0,1,2,3,4]]],"properties":{"筆ID":"H000000001","version":"ver1.0","座標系":"任意座標系","測地系判別":null,"地図名":"H21433401394060","地図番号":"開-M-6-2","縮尺分母":"3000","市区町村コード":"01394","市区町村名":"磯谷郡蘭越町","大字コード":"000","丁目コード":"000","小字コード":"0000","予備コード":"00","大字名":null,"丁目名":null,"小字名":null,"予備名":null,"地番":"地区外-205263","精度区分":null,"座標値種別":"図上測量","筆界未定構成筆":null,"代表点緯度":-132906.4445,"代表点経度":13575.89125}},{"type":"MultiPolygon","arcs":[[[5,6,7,8,9,-2,10]]],"properties":{"筆ID":"H000000002","version":"ver1.0","座標系":"任意座標系","測地系判別":null,"地図名":"H21433401394060","地図番号":"開-M-6-2","縮尺分母":"3000","市区町村コード":"01394","市区町村名":"磯谷郡蘭越町","大字コード":"016","丁目コード":"000","小字コード":"0000","予備コード":"00","大字名":"名駒町","丁目名":null,"小字名":null,"予備名":null,"地番":"道-3","精度区分":null,"座標値種別":"図上測量","筆界未定構成筆":null,"代表点緯度":-133035.376,"代表点経度":12944.314080073}},{"type":"MultiPolygon","arcs":[[[11,-8,12,13,14,-3,-10]]],"properties":{"筆ID":"H000000003","version":"ver1.0","座標系":"任意座標系","測地系判別":null,"地図名":"H21433401394060","地図番号":"開-M-6-2","縮尺分母":"3000","市区町村コード":"01394","市区町村名":"磯谷郡蘭越町","大字コード":"016","丁目コード":"000","小字コード":"0000","予備コード":"00","大字名":"名駒町","丁目名":null,"小字名":null,"予備名":null,"地番":"535-1","精度区分":null,"座標値種別":"図上測量","筆界未定構成筆":null,"代表点緯度":-132934.633,"代表点経度":13041.974673244}},{"type":"MultiPolygon","arcs":[[[-9,-12]]],"properties":{"筆ID":"H000000004","version":"ver1.0","座標系":"任意座標系","測地系判別":null,"地図名":"H21433401394060","地図番号":"開-M-6-2","縮尺分母":"3000","市区町村コード":"01394","市区町村名":"磯谷郡蘭越町","大字コード":"016","丁目コード":"000","小字コード":"0000","予備コード":"00","大字名":"名駒町","丁目名":null,"小字名":null,"予備名":null,"地番":"535-2","精度区分":null,"座標値種別":"図上測量","筆界未定構成筆":null,"代表点緯度":-133006.6215,"代表点経度":13063.206147605}},{"type":"MultiPolygon","arcs":[[[15,16,17,18]]],"properties":{"筆ID":"H000000005","version":"ver1.0","座標系":"任意座標系","測地系判別":null,"地図名":"H21433401394060","地図番号":"開-M-6-1","縮尺分母":"3000","市区町村コード":"01394","市区町村名":"磯谷郡蘭越町","大字コード":"016","丁目コード":"000","小字コード":"0000","予備コード":"00","大字名":"名駒町","丁目名":null,"小字名":null,"予備名":null,"地番":"524-8","精度区分":null,"座標値種別":"図上測量","筆界未定構成筆":null,"代表点緯度":-132220.096,"代表点経度":12789.761434948}},{"type":"MultiPolygon","arcs":[[[-19,19,20,21]]],"properties":{"筆ID":"H000000006","version":"ver1.0","座標系":"任意座標系","測地系判別":null,"地図名":"H21433401394060","地図番号":"開-M-6-1","縮尺分母":"3000","市区町村コード":"01394","市区町村名":"磯谷郡蘭越町","大字コード":"016","丁目コード":"000","小字コード":"0000","予備コード":"00","大字名":"名駒町","丁目名":null,"小字名":null,"予備名":null,"地番":"524-9","精度区分":null,"座標値種別":"図上測量","筆界未定構成筆":null,"代表点緯度":-132250.3225,"代表点経度":12830.017893831}},{"type":"MultiPolygon","arcs":[[[22,23,24,25,26,27,28,29,30,31,32,33,34,35,36,-11,-1]]],"properties":{"筆ID":"H000000007","version":"ver1.0","座標系":"任意座標系","測地系判別":null,"地図名":"H21433401394060","地図番号":"開-M-6-1","縮尺分母":"3000","市区町村コード":"01394","市区町村名":"磯谷郡蘭越町","大字コード":"000","丁目コード":"000","小字コード":"0000","予備コード":"00","大字名":null,"丁目名":null,"小字名":null,"予備名":null,"地番":"地区外-205269","精度区分":null,"座標値種別":"図上測量","筆界未定構成筆":null,"代表点緯度":-132916.536,"代表点経度":12470.508}},{"type":"MultiPolygon","arcs":[[[-15,37,38,39,40,41,42,43,44,45,46,47,48,-4]]],"properties":{"筆ID":"H000000008","version":"ver1.0","座標系":"任意座標系","測地系判別":null,"地図名":"H21433401394060","地図番号":"開-M-6-1","縮尺分母":"3000","市区町村コード":"01394","市区町村名":"磯谷郡蘭越町","大字コード":"000","丁目コード":"000","小字コード":"0000","予備コード":"00","大字名":null,"丁目名":null,"小字名":null,"予備名":null,"地番":"地区外-205270","精度区分":null,"座標値種別":"図上測量","筆界未定構成筆":null,"代表点緯度":-132540.299,"代表点経度":13043.2805}},{"type":"MultiPolygon","arcs":[[[49,50,51,52,53,54,55,56,57,58,59,60,61,62,63,-31]]],"properties":{"筆ID":"H000000009","version":"ver1.0","座標系":"任意座標系","測地系判別":null,"地図名":"H21433401394060","地図番号":"開-M-6-1","縮尺分母":"3000","市区町村コード":"01394","市区町村名":"磯谷郡蘭越町","大字コード":"016","丁目コード":"000","小字コード":"0000","予備コード":"00","大字名":"名駒町","丁目名":null,"小字名":null,"予備名":null,"地番":"道-5","精度区分":null,"座標値種別":"図上測量","筆界未定構成筆":null,"代表点緯度":-132537.6855,"代表点経度":12759.039609922}},{"type":"MultiPolygon","arcs":[[[-35,64,65,-14,66]]],"properties":{"筆ID":"H000000010","version":"ver1.0","座標系":"任意座標系","測地系判別":null,"地図名":"H21433401394060","地図番号":"開-M-6-1","縮尺分母":"3000","市区町村コード":"01394","市区町村名":"磯谷郡蘭越町","大字コード":"016","丁目コード":"000","小字コード":"0000","予備コード":"00","大字名":"名駒町","丁目名":null,"小字名":null,"予備名":null,"地番":"532-1","精度区分":null,"座標値種別":"図上測量","筆界未定構成筆":null,"代表点緯度":-132890.2975,"代表点経度":12824.062027277}},{"type":"MultiPolygon","arcs":[[[-34,67,-65]]],"properties":{"筆ID":"H000000011","version":"ver1.0","座標系":"任意座標系","測地系判別":null,"地図名":"H21433401394060","地図番号":"開-M-6-1","縮尺分母":"3000","市区町村コード":"01394","市区町村名":"磯谷郡蘭越町","大字コード":"016","丁目コード":"000","小字コード":"0000","予備コード":"00","大字名":"名駒町","丁目名":null,"小字名":null,"予備名":null,"地番":"532-2","精度区分":null,"座標値種別":"図上測量","筆界未定構成筆":null,"代表点緯度":-132840.9815,"代表点経度":12754.286032306}},{"type":"MultiPolygon","arcs":[[[-36,-67,-13,-7,68]]],"properties":{"筆ID":"H000000012","version":"ver1.0","座標系":"任意座標系","測地系判別":null,"地図名":"H21433401394060","地図番号":"開-M-6-1","縮尺分母":"3000","市区町村コード":"01394","市区町村名":"磯谷郡蘭越町","大字コード":"016","丁目コード":"000","小字コード":"0000","予備コード":"00","大字名":"名駒町","丁目名":null,"小字名":null,"予備名":null,"地番":"532-3","精度区分":null,"座標値種別":"図上測量","筆界未定構成筆":null,"代表点緯度":-132987.0065,"代表点経度":12858.303697239}},{"type":"MultiPolygon","arcs":[[[-69,-6,-37]]],"properties":{"筆ID":"H000000013","version":"ver1.0","座標系":"任意座標系","測地系判別":null,"地図名":"H21433401394060","地図番号":"開-M-6-1","縮尺分母":"3000","市区町村コード":"01394","市区町村名":"磯谷郡蘭越町","大字コード":"016","丁目コード":"000","小字コード":"0000","予備コード":"00","大字名":"名駒町","丁目名":null,"小字名":null,"予備名":null,"地番":"532-4","精度区分":null,"座標値種別":"図上測量","筆界未定構成筆":null,"代表点緯度":-133065.1595,"代表点経度":12889.09334031}},{"type":"MultiPolygon","arcs":[[[69,70,71,72,73,-16,-22,74,75,-56,76]]],"properties":{"筆ID":"H000000014","version":"ver1.0","座標系":"任意座標系","測地系判別":null,"地図名":"H21433401394060","地図番号":"開-M-6-1","縮尺分母":"3000","市区町村コード":"01394","市区町村名":"磯谷郡蘭越町","大字コード":"016","丁目コード":"000","小字コード":"0000","予備コード":"00","大字名":"名駒町","丁目名":null,"小字名":null,"予備名":null,"地番":"524-1","精度区分":null,"座標値種別":"図上測量","筆界未定構成筆":null,"代表点緯度":-132307.9955,"代表点経度":12788.631014107}},{"type":"MultiPolygon","arcs":[[[77,-26,78,79,80,81,-54]]],"properties":{"筆ID":"H000000015","version":"ver1.0","座標系":"任意座標系","測地系判別":null,"地図名":"H21433401394060","地図番号":"開-M-6-1","縮尺分母":"3000","市区町村コード":"01394","市区町村名":"磯谷郡蘭越町","大字コード":"016","丁目コード":"000","小字コード":"0000","予備コード":"00","大字名":"名駒町","丁目名":null,"小字名":null,"予備名":null,"地番":"524-2","精度区分":null,"座標値種別":"図上測量","筆界未定構成筆":null,"代表点緯度":-132458.514,"代表点経度":12680.234069437}},{"type":"MultiPolygon","arcs":[[[-53,82,-27,-78]]],"properties":{"筆ID":"H000000016","version":"ver1.0","座標系":"任意座標系","測地系判別":null,"地図名":"H21433401394060","地図番号":"開-M-6-1","縮尺分母":"3000","市区町村コード":"01394","市区町村名":"磯谷郡蘭越町","大字コード":"016","丁目コード":"000","小字コード":"0000","予備コード":"00","大字名":"名駒町","丁目名":null,"小字名":null,"予備名":null,"地番":"524-3","精度区分":null,"座標値種別":"図上測量","筆界未定構成筆":null,"代表点緯度":-132499.1425,"代表点経度":12660.928487671}},{"type":"MultiPolygon","arcs":[[[-28,-83,-52,83]]],"properties":{"筆ID":"H000000017","version":"ver1.0","座標系":"任意座標系","測地系判別":null,"地図名":"H21433401394060","地図番号":"開-M-6-1","縮尺分母":"3000","市区町村コード":"01394","市区町村名":"磯谷郡蘭越町","大字コード":"016","丁目コード":"000","小字コード":"0000","予備コード":"00","大字名":"名駒町","丁目名":null,"小字名":null,"予備名":null,"地番":"524-4","精度区分":null,"座標値種別":"図上測量","筆界未定構成筆":null,"代表点緯度":-132605.594,"代表点経度":12686.455825487}},{"type":"MultiPolygon","arcs":[[[-29,-84,-51,84]]],"properties":{"筆ID":"H000000018","version":"ver1.0","座標系":"任意座標系","測地系判別":null,"地図名":"H21433401394060","地図番号":"開-M-6-1","縮尺分母":"3000","市区町村コード":"01394","市区町村名":"磯谷郡蘭越町","大字コード":"016","丁目コード":"000","小字コード":"0000","予備コード":"00","大字名":"名駒町","丁目名":null,"小字名":null,"予備名":null,"地番":"524-5","精度区分":null,"座標値種別":"図上測量","筆界未定構成筆":null,"代表点緯度":-132653.178,"代表点経度":12702.301014724}},{"type":"MultiPolygon","arcs":[[[-50,-30,-85]]],"properties":{"筆ID":"H000000019","version":"ver1.0","座標系":"任意座標系","測地系判別":null,"地図名":"H21433401394060","地図番号":"開-M-6-1","縮尺分母":"3000","市区町村コード":"01394","市区町村名":"磯谷郡蘭越町","大字コード":"016","丁目コード":"000","小字コード":"0000","予備コード":"00","大字名":"名駒町","丁目名":null,"小字名":null,"予備名":null,"地番":"524-6","精度区分":null,"座標値種別":"図上測量","筆界未定構成筆":null,"代表点緯度":-132650.1665,"代表点経度":12758.165127654}},{"type":"MultiPolygon","arcs":[[[-21,85,86,-75]]],"properties":{"筆ID":"H000000020","version":"ver1.0","座標系":"任意座標系","測地系判別":null,"地図名":"H21433401394060","地図番号":"開-M-6-1","縮尺分母":"3000","市区町村コード":"01394","市区町村名":"磯谷郡蘭越町","大字コード":"016","丁目コード":"000","小字コード":"0000","予備コード":"00","大字名":"名駒町","丁目名":null,"小字名":null,"予備名":null,"地番":"524-10","精度区分":null,"座標値種別":"図上測量","筆界未定構成筆":null,"代表点緯度":-132279.8185,"代表点経度":12869.196527909}},{"type":"MultiPolygon","arcs":[[[-57,-76,-87,87,88]]],"properties":{"筆ID":"H000000021","version":"ver1.0","座標系":"任意座標系","測地系判別":null,"地図名":"H21433401394060","地図番号":"開-M-6-1","縮尺分母":"3000","市区町村コード":"01394","市区町村名":"磯谷郡蘭越町","大字コード":"016","丁目コード":"000","小字コード":"0000","予備コード":"00","大字名":"名駒町","丁目名":null,"小字名":null,"予備名":null,"地番":"524-11","精度区分":null,"座標値種別":"図上測量","筆界未定構成筆":null,"代表点緯度":-132307.3585,"代表点経度":12909.14922604}},{"type":"MultiPolygon","arcs":[[[-89,89,-48,90,91,-58]]],"properties":{"筆ID":"H000000022","version":"ver1.0","座標系":"任意座標系","測地系判別":null,"地図名":"H21433401394060","地図番号":"開-M-6-1","縮尺分母":"3000","市区町村コード":"01394","市区町村名":"磯谷郡蘭越町","大字コード":"016","丁目コード":"000","小字コード":"0000","予備コード":"00","大字名":"名駒町","丁目名":null,"小字名":null,"予備名":null,"地番":"524-12","精度区分":null,"座標値種別":"図上測量","筆界未定構成筆":null,"代表点緯度":-132303.355,"代表点経度":12948.248946034}},{"type":"MultiPolygon","arcs":[[[92,93,-91,-47]]],"properties":{"筆ID":"H000000023","version":"ver1.0","座標系":"任意座標系","測地系判別":null,"地図名":"H21433401394060","地図番号":"開-M-6-1","縮尺分母":"3000","市区町村コード":"01394","市区町村名":"磯谷郡蘭越町","大字コード":"016","丁目コード":"000","小字コード":"0000","予備コード":"00","大字名":"名駒町","丁目名":null,"小字名":null,"予備名":null,"地番":"524-13","精度区分":null,"座標値種別":"図上測量","筆界未定構成筆":null,"代表点緯度":-132312.5075,"代表点経度":12960.283769086}},{"type":"MultiPolygon","arcs":[[[94,95,96,97,-45]]],"properties":{"筆ID":"H000000024","version":"ver1.0","座標系":"任意座標系","測地系判別":null,"地図名":"H21433401394060","地図番号":"開-M-6-1","縮尺分母":"3000","市区町村コード":"01394","市区町村名":"磯谷郡蘭越町","大字コード":"016","丁目コード":"000","小字コード":"0000","予備コード":"00","大字名":"名駒町","丁目名":null,"小字名":null,"予備名":null,"地番":"524-14","精度区分":null,"座標値種別":"図上測量","筆界未定構成筆":null,"代表点緯度":-132388.7055,"代表点経度":12980.69783079}},{"type":"MultiPolygon","arcs":[[[-95,-44,98]]],"properties":{"筆ID":"H000000025","version":"ver1.0","座標系":"任意座標系","測地系判別":null,"地図名":"H21433401394060","地図番号":"開-M-6-1","縮尺分母":"3000","市区町村コード":"01394","市区町村名":"磯谷郡蘭越町","大字コード":"016","丁目コード":"000","小字コード":"0000","予備コード":"00","大字名":"名駒町","丁目名":null,"小字名":null,"予備名":null,"地番":"524-15","精度区分":null,"座標値種別":"図上測量","筆界未定構成筆":null,"代表点緯度":-132427.288,"代表点経度":13023.623414238}},{"type":"MultiPolygon","arcs":[[[-42,99,100,101]]],"properties":{"筆ID":"H000000026","version":"ver1.0","座標系":"任意座標系","測地系判別":null,"地図名":"H21433401394060","地図番号":"開-M-6-1","縮尺分母":"3000","市区町村コード":"01394","市区町村名":"磯谷郡蘭越町","大字コード":"016","丁目コード":"000","小字コード":"0000","予備コード":"00","大字名":"名駒町","丁目名":null,"小字名":null,"予備名":null,"地番":"524-16","精度区分":null,"座標値種別":"図上測量","筆界未定構成筆":null,"代表点緯度":-132521.4935,"代表点経度":12962.9593434}},{"type":"MultiPolygon","arcs":[[[-101,102,103,104]]],"properties":{"筆ID":"H000000027","version":"ver1.0","座標系":"任意座標系","測地系判別":null,"地図名":"H21433401394060","地図番号":"開-M-6-1","縮尺分母":"3000","市区町村コード":"01394","市区町村名":"磯谷郡蘭越町","大字コード":"016","丁目コード":"000","小字コード":"0000","予備コード":"00","大字名":"名駒町","丁目名":null,"小字名":null,"予備名":null,"地番":"524-17","精度区分":null,"座標値種別":"図上測量","筆界未定構成筆":null,"代表点緯度":-132487.03,"代表点経度":12909.48649164}},{"type":"MultiPolygon","arcs":[[[-104,105,-61,106]]],"properties":{"筆ID":"H000000028","version":"ver1.0","座標系":"任意座標系","測地系判別":null,"地図名":"H21433401394060","地図番号":"開-M-6-1","縮尺分母":"3000","市区町村コード":"01394","市区町村名":"磯谷郡蘭越町","大字コード":"016","丁目コード":"000","小字コード":"0000","予備コード":"00","大字名":"名駒町","丁目名":null,"小字名":null,"予備名":null,"地番":"524-18","精度区分":null,"座標値種別":"図上測量","筆界未定構成筆":null,"代表点緯度":-132455.907,"代表点経度":12863.129966601}},{"type":"MultiPolygon","arcs":[[[-55,-82,107,-77]]],"properties":{"筆ID":"H000000029","version":"ver1.0","座標系":"任意座標系","測地系判別":null,"地図名":"H21433401394060","地図番号":"開-M-6-1","縮尺分母":"3000","市区町村コード":"01394","市区町村名":"磯谷郡蘭越町","大字コード":"016","丁目コード":"000","小字コード":"0000","予備コード":"00","大字名":"名駒町","丁目名":null,"小字名":null,"予備名":null,"地番":"524-19","精度区分":null,"座標値種別":"図上測量","筆界未定構成筆":null,"代表点緯度":-132423.349,"代表点経度":12814.57644675}},{"type":"MultiPolygon","arcs":[[[-108,-81,108,-70]]],"properties":{"筆ID":"H000000030","version":"ver1.0","座標系":"任意座標系","測地系判別":null,"地図名":"H21433401394060","地図番号":"開-M-6-1","縮尺分母":"3000","市区町村コード":"01394","市区町村名":"磯谷郡蘭越町","大字コード":"016","丁目コード":"000","小字コード":"0000","予備コード":"00","大字名":"名駒町","丁目名":null,"小字名":null,"予備名":null,"地番":"524-20","精度区分":null,"座標値種別":"図上測量","筆界未定構成筆":null,"代表点緯度":-132396.953,"代表点経度":12775.162520056}},{"type":"MultiPolygon","arcs":[[[-109,-80,109,-71]]],"properties":{"筆ID":"H000000031","version":"ver1.0","座標系":"任意座標系","測地系判別":null,"地図名":"H21433401394060","地図番号":"開-M-6-1","縮尺分母":"3000","市区町村コード":"01394","市区町村名":"磯谷郡蘭越町","大字コード":"016","丁目コード":"000","小字コード":"0000","予備コード":"00","大字名":"名駒町","丁目名":null,"小字名":null,"予備名":null,"地番":"524-21","精度区分":null,"座標値種別":"図上測量","筆界未定構成筆":null,"代表点緯度":-132372.1115,"代表点経度":12738.0439452}},{"type":"MultiPolygon","arcs":[[[-110,-79,-25,110,-72]]],"properties":{"筆ID":"H000000032","version":"ver1.0","座標系":"任意座標系","測地系判別":null,"地図名":"H21433401394060","地図番号":"開-M-6-1","縮尺分母":"3000","市区町村コード":"01394","市区町村名":"磯谷郡蘭越町","大字コード":"016","丁目コード":"000","小字コード":"0000","予備コード":"00","大字名":"名駒町","丁目名":null,"小字名":null,"予備名":null,"地番":"524-22","精度区分":null,"座標値種別":"図上測量","筆界未定構成筆":null,"代表点緯度":-132346.6915,"代表点経度":12698.569963854}},{"type":"MultiPolygon","arcs":[[[-105,-107,-60,111,112,-96,-99,-43,-102]]],"properties":{"筆ID":"H000000033","version":"ver1.0","座標系":"任意座標系","測地系判別":null,"地図名":"H21433401394060","地図番号":"開-M-6-1","縮尺分母":"3000","市区町村コード":"01394","市区町村名":"磯谷郡蘭越町","大字コード":"016","丁目コード":"000","小字コード":"0000","予備コード":"00","大字名":"名駒町","丁目名":null,"小字名":null,"予備名":null,"地番":"524-23","精度区分":null,"座標値種別":"図上測量","筆界未定構成筆":null,"代表点緯度":-132435.5845,"代表点経度":12945.705522886}},{"type":"MultiPolygon","arcs":[[[-93,-46,-98,113]]],"properties":{"筆ID":"H000000034","version":"ver1.0","座標系":"任意座標系","測地系判別":null,"地図名":"H21433401394060","地図番号":"開-M-6-1","縮尺分母":"3000","市区町村コード":"01394","市区町村名":"磯谷郡蘭越町","大字コード":"016","丁目コード":"000","小字コード":"0000","予備コード":"00","大字名":"名駒町","丁目名":null,"小字名":null,"予備名":null,"地番":"524-24","精度区分":null,"座標値種別":"図上測量","筆界未定構成筆":null,"代表点緯度":-132330.2375,"代表点経度":12976.898388678}},{"type":"MultiPolygon","arcs":[[[114,-112,-59,-92,-94]]],"properties":{"筆ID":"H000000035","version":"ver1.0","座標系":"任意座標系","測地系判別":null,"地図名":"H21433401394060","地図番号":"開-M-6-1","縮尺分母":"3000","市区町村コード":"01394","市区町村名":"磯谷郡蘭越町","大字コード":"016","丁目コード":"000","小字コード":"0000","予備コード":"00","大字名":"名駒町","丁目名":null,"小字名":null,"予備名":null,"地番":"524-25","精度区分":null,"座標値種別":"図上測量","筆界未定構成筆":null,"代表点緯度":-132367.02,"代表点経度":12915.927334269}},{"type":"MultiPolygon","arcs":[[[-97,-113,-115,-114]]],"properties":{"筆ID":"H000000036","version":"ver1.0","座標系":"任意座標系","測地系判別":null,"地図名":"H21433401394060","地図番号":"開-M-6-1","縮尺分母":"3000","市区町村コード":"01394","市区町村名":"磯谷郡蘭越町","大字コード":"016","丁目コード":"000","小字コード":"0000","予備コード":"00","大字名":"名駒町","丁目名":null,"小字名":null,"予備名":null,"地番":"524-26","精度区分":null,"座標値種別":"図上測量","筆界未定構成筆":null,"代表点緯度":-132380.9335,"代表点経度":12936.366140566}},{"type":"MultiPolygon","arcs":[[[115,-62,-106,-103,-100,-41]]],"properties":{"筆ID":"H000000037","version":"ver1.0","座標系":"任意座標系","測地系判別":null,"地図名":"H21433401394060","地図番号":"開-M-6-1","縮尺分母":"3000","市区町村コード":"01394","市区町村名":"磯谷郡蘭越町","大字コード":"016","丁目コード":"000","小字コード":"0000","予備コード":"00","大字名":"名駒町","丁目名":null,"小字名":null,"予備名":null,"地番":"528-2","精度区分":null,"座標値種別":"図上測量","筆界未定構成筆":null,"代表点緯度":-132567.0855,"代表点経度":12859.763773772}},{"type":"MultiPolygon","arcs":[[[116,117,-63,-116,-40]]],"properties":{"筆ID":"H000000038","version":"ver1.0","座標系":"任意座標系","測地系判別":null,"地図名":"H21433401394060","地図番号":"開-M-6-1","縮尺分母":"3000","市区町村コード":"01394","市区町村名":"磯谷郡蘭越町","大字コード":"016","丁目コード":"000","小字コード":"0000","予備コード":"00","大字名":"名駒町","丁目名":null,"小字名":null,"予備名":null,"地番":"528-3","精度区分":null,"座標値種別":"図上測量","筆界未定構成筆":null,"代表点緯度":-132628.7555,"代表点経度":12842.672429606}},{"type":"MultiPolygon","arcs":[[[118,-64,-118]]],"properties":{"筆ID":"H000000039","version":"ver1.0","座標系":"任意座標系","測地系判別":null,"地図名":"H21433401394060","地図番号":"開-M-6-1","縮尺分母":"3000","市区町村コード":"01394","市区町村名":"磯谷郡蘭越町","大字コード":"016","丁目コード":"000","小字コード":"0000","予備コード":"00","大字名":"名駒町","丁目名":null,"小字名":null,"予備名":null,"地番":"528-4","精度区分":null,"座標値種別":"図上測量","筆界未定構成筆":null,"代表点緯度":-132693.866,"代表点経度":12750.776072009}},{"type":"MultiPolygon","arcs":[[[-32,-119,-117,-39,119]]],"properties":{"筆ID":"H000000040","version":"ver1.0","座標系":"任意座標系","測地系判別":null,"地図名":"H21433401394060","地図番号":"開-M-6-1","縮尺分母":"3000","市区町村コード":"01394","市区町村名":"磯谷郡蘭越町","大字コード":"016","丁目コード":"000","小字コード":"0000","予備コード":"00","大字名":"名駒町","丁目名":null,"小字名":null,"予備名":null,"地番":"528-5","精度区分":null,"座標値種別":"図上測量","筆界未定構成筆":null,"代表点緯度":-132742.346,"代表点経度":12786.418121938}},{"type":"MultiPolygon","arcs":[[[-33,-120,-38,-66,-68]]],"properties":{"筆ID":"H000000041","version":"ver1.0","座標系":"任意座標系","測地系判別":null,"地図名":"H21433401394060","地図番号":"開-M-6-1","縮尺分母":"3000","市区町村コード":"01394","市区町村名":"磯谷郡蘭越町","大字コード":"016","丁目コード":"000","小字コード":"0000","予備コード":"00","大字名":"名駒町","丁目名":null,"小字名":null,"予備名":null,"地番":"水-4","精度区分":null,"座標値種別":"図上測量","筆界未定構成筆":null,"代表点緯度":-132787.7875,"代表点経度":12823.459992473}},{"type":"MultiPolygon","arcs":[[[-17,-74,120]]],"properties":{"筆ID":"H000000042","version":"ver1.0","座標系":"任意座標系","測地系判別":null,"地図名":"H21433401394060","地図番号":"開-M-5-1","縮尺分母":"3000","市区町村コード":"01394","市区町村名":"磯谷郡蘭越町","大字コード":"016","丁目コード":"000","小字コード":"0000","予備コード":"00","大字名":"名駒町","丁目名":null,"小字名":null,"予備名":null,"地番":"524-7","精度区分":null,"座標値種別":"図上測量","筆界未定構成筆":null,"代表点緯度":-132206.053,"代表点経度":12738.15333395}},{"type":"MultiPolygon","arcs":[[[-24,121,-49,-90,-88,-86,-20,-18,-121,-73,-111]]],"properties":{"筆ID":"H000000043","version":"ver1.0","座標系":"任意座標系","測地系判別":null,"地図名":"H21433401394060","地図番号":"開-M-5-1","縮尺分母":"3000","市区町村コード":"01394","市区町村名":"磯谷郡蘭越町","大字コード":"000","丁目コード":"000","小字コード":"0000","予備コード":"00","大字名":null,"丁目名":null,"小字名":null,"予備名":null,"地番":"地区外-205305","精度区分":null,"座標値種別":"図上測量","筆界未定構成筆":null,"代表点緯度":-131519.96,"代表点経度":12636.3635}}]}},"arcs":[[[500000,0],[0,206405]],[[500000,206405],[4612,952]],[[504612,207357],[25789,3088],[11508,8351],[20601,4578],[4450,15259],[-66960,58007]],[[500000,296640],[0,203360]],[[500000,500000],[499999,0],[0,-500000],[-499999,0]],[[426730,203907],[-14413,28187]],[[412317,232094],[-9087,17772]],[[403230,249866],[1893,430],[7127,-13940]],[[412250,236356],[15973,-31238]],[[428223,205118],[20785,-1864],[38076,1881],[16938,3496],[590,-1274]],[[500000,206405],[-12543,-2588],[-38509,-1902],[-22218,1992]],[[428223,205118],[78091,20336],[-8993,17239],[-48057,-18119],[-15937,26685],[-21077,-14903]],[[403230,249866],[-4477,13477]],[[398753,263343],[-17879,53827]],[[380874,317170],[11445,1598],[27213,-3688],[21713,7778],[15641,-2501],[12653,2671],[30461,-26388]],[[322585,494530],[-21789,11748]],[[300796,506278],[44068,36746]],[[344864,543024],[23097,-10707]],[[367961,532317],[-45376,-37787]],[[367961,532317],[22473,-10417]],[[390434,521900],[-46651,-38850]],[[343783,483050],[-21198,11480]],[[500000,0],[-500000,0],[0,500000]],[[0,500000],[290823,0]],[[290823,500000],[-819,-6764],[-44430,-38563]],[[245574,454673],[-7096,-21228],[3304,-8014]],[[241782,425431],[10813,-26223]],[[252595,399208],[12341,-29928]],[[264936,369280],[7239,-17558]],[[272175,351722],[6728,-16316]],[[278903,335406],[1165,-2825]],[[280068,332581],[10826,-26255]],[[290894,306326],[2370,-5747]],[[293264,300579],[441,-1071],[10552,-15736]],[[304257,283772],[26603,-39671]],[[330860,244101],[19531,-29125]],[[350391,214976],[23274,-34707],[24207,13546],[28858,10092]],[[380874,317170],[-1993,5862]],[[378881,323032],[18828,21705]],[[397709,344737],[11296,13023]],[[409005,357760],[25339,29210]],[[434344,386970],[26528,29840]],[[460872,416810],[1701,1913]],[[462573,418723],[28996,32615],[-19649,17323]],[[471920,468661],[-18588,16387]],[[453332,485048],[-8438,7439]],[[444894,492487],[-7613,6712]],[[437281,499199],[-929,801]],[[436352,500000],[63648,0]],[[278903,335406],[64871,36082]],[[343774,371488],[-21231,15129]],[[322543,386617],[-14610,10412]],[[307933,397029],[13792,11501]],[[321725,408530],[4210,3510],[11581,9658]],[[337516,421698],[45015,37535]],[[382531,459233],[2062,1718]],[[384593,460951],[14775,12321]],[[399368,473272],[3094,-1691]],[[402462,471581],[-14765,-12311]],[[387697,459270],[-2061,-1719]],[[385636,457551],[-44538,-37138]],[[341098,420413],[-10042,-8372],[-17838,-14875]],[[313218,397166],[36370,-25917],[-6446,-3586]],[[343142,367663],[-63074,-35082]],[[304257,283772],[59980,17825],[-6092,6622]],[[358145,308219],[22729,8951]],[[398753,263343],[-67893,-19242]],[[293264,300579],[27080,39],[10085,2714],[21639,2494],[6077,2393]],[[412317,232094],[-61926,-17118]],[[361710,470508],[-19538,10580]],[[342172,481088],[-18462,9998]],[[323710,491086],[-31883,17215]],[[291827,508301],[-468,3088]],[[291359,511389],[9437,-5111]],[[343783,483050],[20656,-11186]],[[364439,471864],[20154,-10913]],[[382531,459233],[-20821,11275]],[[321725,408530],[-79943,16901]],[[245574,454673],[24102,-8644]],[[269676,446029],[21292,-7637]],[[290968,438392],[22534,-8081]],[[313502,430311],[24014,-8613]],[[307933,397029],[-55338,2179]],[[322543,386617],[-57607,-17337]],[[343774,371488],[-71599,-19766]],[[390434,521900],[21898,-10151]],[[412332,511749],[-47893,-39885]],[[412332,511749],[22474,-10418]],[[434806,501331],[-35438,-28059]],[[434806,501331],[1546,-1331]],[[437281,499199],[-26298,-20859]],[[410983,478340],[-8521,-6759]],[[444894,492487],[-23638,-19710]],[[421256,472777],[-10273,5563]],[[471920,468661],[-39990,-33345]],[[431930,435316],[-23184,12555]],[[408746,447871],[23034,19206]],[[431780,467077],[21552,17971]],[[462573,418723],[-30643,16593]],[[434344,386970],[-38451,13791]],[[395893,400761],[37253,31063]],[[433146,431824],[27726,-15014]],[[395893,400761],[-28605,10259]],[[367288,411020],[41057,34234]],[[408345,445254],[24801,-13430]],[[367288,411020],[-26190,9393]],[[385636,457551],[22709,-12297]],[[313502,430311],[48208,40197]],[[290968,438392],[51204,42696]],[[269676,446029],[54034,45057]],[[290823,500000],[1004,8301]],[[387697,459270],[10525,-5699]],[[398222,453571],[10524,-5700]],[[431780,467077],[-10524,5700]],[[421256,472777],[-23034,-19206]],[[409005,357760],[-95787,39406]],[[397709,344737],[-32956,13846]],[[364753,358583],[-21611,9080]],[[364753,358583],[-84685,-26002]],[[378881,323032],[-28033,-10356],[-21231,-3063],[-14246,-3309],[-24477,22]],[[291359,511389],[-3952,26116],[38029,14524],[19428,-9005]],[[0,500000],[0,499999],[500000,0],[0,-499999]]],"bbox":[12181.818,-133636.364,14000,-130909.091],"transform":{"scale":[0.0018181838181838188,0.0027272757272757283],"translate":[12181.818,-133636.364]}}
