{"type":"Topology","objects":{"01204-4500-133":{"type":"GeometryCollection","geometries":[{"type":"MultiPolygon","arcs":[[[0,1,2]]],"properties":{"筆ID":"H000000001","version":"ver1.0","座標系":"任意座標系","測地系判別":null,"地図名":"西神楽町改良図Ｉ・図郭座標有","地図番号":"改I22","縮尺分母":"2000","市区町村コード":"01204","市区町村名":"旭川市","大字コード":"319","丁目コード":"618","小字コード":"0000","予備コード":"00","大字名":"西神楽五線","丁目名":"十八号","小字名":null,"予備名":null,"地番":"11-694W1","精度区分":null,"座標値種別":"図上測量","筆界未定構成筆":null,"代表点緯度":-36016.795,"代表点経度":14546.4519609}},{"type":"MultiPolygon","arcs":[[[3,4,-1,5,6]]],"properties":{"筆ID":"H000000002","version":"ver1.0","座標系":"任意座標系","測地系判別":null,"地図名":"西神楽町改良図Ｉ・図郭座標有","地図番号":"改I22","縮尺分母":"2000","市区町村コード":"01204","市区町村名":"旭川市","大字コード":"319","丁目コード":"618","小字コード":"0000","予備コード":"00","大字名":"西神楽五線","丁目名":"十八号","小字名":null,"予備名":null,"地番":"48-1","精度区分":null,"座標値種別":"図上測量","筆界未定構成筆":null,"代表点緯度":-36022.1435,"代表点経度":14562.169332743}},{"type":"MultiPolygon","arcs":[[[7,8,9,10]]],"properties":{"筆ID":"H000000003","version":"ver1.0","座標系":"任意座標系","測地系判別":null,"地図名":"西神楽町改良図Ｉ・図郭座標有","地図番号":"改I22","縮尺分母":"2000","市区町村コード":"01204","市区町村名":"旭川市","大字コード":"319","丁目コード":"618","小字コード":"0000","予備コード":"00","大字名":"西神楽五線","丁目名":"十八号","小字名":null,"予備名":null,"地番":"48-5","精度区分":null,"座標値種別":"図上測量","筆界未定構成筆":null,"代表点緯度":-35860.0095,"代表点経度":14676.974416533}},{"type":"MultiPolygon","arcs":[[[-10,11,12]]],"properties":{"筆ID":"H000000004","version":"ver1.0","座標系":"任意座標系","測地系判別":null,"地図名":"西神楽町改良図Ｉ・図郭座標有","地図番号":"改I22","縮尺分母":"2000","市区町村コード":"01204","市区町村名":"旭川市","大字コード":"319","丁目コード":"618","小字コード":"0000","予備コード":"00","大字名":"西神楽五線","丁目名":"十八号","小字名":null,"予備名":null,"地番":"48-10","精度区分":null,"座標値種別":"図上測量","筆界未定構成筆":null,"代表点緯度":-35825.1045,"代表点経度":14652.069415805}},{"type":"MultiPolygon","arcs":[[[13,14,15,16,17]]],"properties":{"筆ID":"H000000005","version":"ver1.0","座標系":"任意座標系","測地系判別":null,"地図名":"西神楽町改良図Ｉ・図郭座標有","地図番号":"改I22","縮尺分母":"2000","市区町村コード":"01204","市区町村名":"旭川市","大字コード":"319","丁目コード":"618","小字コード":"0000","予備コード":"00","大字名":"西神楽五線","丁目名":"十八号","小字名":null,"予備名":null,"地番":"49-1","精度区分":null,"座標値種別":"図上測量","筆界未定構成筆":null,"代表点緯度":-36064.471,"代表点経度":14680.854947691}},{"type":"MultiPolygon","arcs":[[[18,19,-8,20]]],"properties":{"筆ID":"H000000006","version":"ver1.0","座標系":"任意座標系","測地系判別":null,"地図名":"西神楽町改良図Ｉ・図郭座標有","地図番号":"改I22","縮尺分母":"2000","市区町村コード":"01204","市区町村名":"旭川市","大字コード":"319","丁目コード":"618","小字コード":"0000","予備コード":"00","大字名":"西神楽五線","丁目名":"十八号","小字名":null,"予備名":null,"地番":"49-2","精度区分":null,"座標値種別":"図上測量","筆界未定構成筆":null,"代表点緯度":-35905.198,"代表点経度":14725.506248919}},{"type":"MultiPolygon","arcs":[[[21,22,-19,23]]],"properties":{"筆ID":"H000000007","version":"ver1.0","座標系":"任意座標系","測地系判別":null,"地図名":"西神楽町改良図Ｉ・図郭座標有","地図番号":"改I22","縮尺分母":"2000","市区町村コード":"01204","市区町村名":"旭川市","大字コード":"319","丁目コード":"618","小字コード":"0000","予備コード":"00","大字名":"西神楽五線","丁目名":"十八号","小字名":null,"予備名":null,"地番":"49-3","精度区分":null,"座標値種別":"図上測量","筆界未定構成筆":null,"代表点緯度":-35955.5295,"代表点経度":14779.253518461}},{"type":"MultiPolygon","arcs":[[[24,25,-14,26]]],"properties":{"筆ID":"H000000008","version":"ver1.0","座標系":"任意座標系","測地系判別":null,"地図名":"西神楽町改良図Ｉ・図郭座標有","地図番号":"改I22","縮尺分母":"2000","市区町村コード":"01204","市区町村名":"旭川市","大字コード":"319","丁目コード":"618","小字コード":"0000","予備コード":"00","大字名":"西神楽五線","丁目名":"十八号","小字名":null,"予備名":null,"地番":"50-1","精度区分":null,"座標値種別":"図上測量","筆界未定構成筆":null,"代表点緯度":-36124.6605,"代表点経度":14744.496225357}},{"type":"MultiPolygon","arcs":[[[27,28,-22,29,30]]],"properties":{"筆ID":"H000000009","version":"ver1.0","座標系":"任意座標系","測地系判別":null,"地図名":"西神楽町改良図Ｉ・図郭座標有","地図番号":"改I22","縮尺分母":"2000","市区町村コード":"01204","市区町村名":"旭川市","大字コード":"319","丁目コード":"618","小字コード":"0000","予備コード":"00","大字名":"西神楽五線","丁目名":"十八号","小字名":null,"予備名":null,"地番":"50-2","精度区分":null,"座標値種別":"図上測量","筆界未定構成筆":null,"代表点緯度":-36018.035,"代表点経度":14845.669784599}},{"type":"MultiPolygon","arcs":[[[31,-27,-18,32]]],"properties":{"筆ID":"H000000010","version":"ver1.0","座標系":"任意座標系","測地系判別":null,"地図名":"西神楽町改良図Ｉ・図郭座標有","地図番号":"改I22","縮尺分母":"2000","市区町村コード":"01204","市区町村名":"旭川市","大字コード":"319","丁目コード":"618","小字コード":"0000","予備コード":"00","大字名":"西神楽五線","丁目名":"十八号","小字名":null,"予備名":null,"地番":"50-3","精度区分":null,"座標値種別":"図上測量","筆界未定構成筆":null,"代表点緯度":-36071.5995,"代表点経度":14793.857249281}},{"type":"MultiPolygon","arcs":[[[33,34,35,36]]],"properties":{"筆ID":"H000000011","version":"ver1.0","座標系":"任意座標系","測地系判別":null,"地図名":"西神楽町改良図Ｉ・図郭座標有","地図番号":"改I22","縮尺分母":"2000","市区町村コード":"01204","市区町村名":"旭川市","大字コード":"319","丁目コード":"618","小字コード":"0000","予備コード":"00","大字名":"西神楽五線","丁目名":"十八号","小字名":null,"予備名":null,"地番":"51-1","精度区分":null,"座標値種別":"図上測量","筆界未定構成筆":null,"代表点緯度":-36187.7205,"代表点経度":14814.598795879}},{"type":"MultiPolygon","arcs":[[[37,-28,38]]],"properties":{"筆ID":"H000000012","version":"ver1.0","座標系":"任意座標系","測地系判別":null,"地図名":"西神楽町改良図Ｉ・図郭座標有","地図番号":"改I22","縮尺分母":"2000","市区町村コード":"01204","市区町村名":"旭川市","大字コード":"319","丁目コード":"618","小字コード":"0000","予備コード":"00","大字名":"西神楽五線","丁目名":"十八号","小字名":null,"予備名":null,"地番":"51-2","精度区分":null,"座標値種別":"図上測量","筆界未定構成筆":null,"代表点緯度":-36078.996,"代表点経度":14911.483943611}},{"type":"MultiPolygon","arcs":[[[39,40,-34,41]]],"properties":{"筆ID":"H000000013","version":"ver1.0","座標系":"任意座標系","測地系判別":null,"地図名":"西神楽町改良図Ｉ・図郭座標有","地図番号":"改I22","縮尺分母":"2000","市区町村コード":"01204","市区町村名":"旭川市","大字コード":"319","丁目コード":"618","小字コード":"0000","予備コード":"00","大字名":"西神楽五線","丁目名":"十八号","小字名":null,"予備名":null,"地番":"52","精度区分":null,"座標値種別":"図上測量","筆界未定構成筆":null,"代表点緯度":-36256.075,"代表点経度":14869.424198219}},{"type":"MultiPolygon","arcs":[[[42,43]]],"properties":{"筆ID":"H000000014","version":"ver1.0","座標系":"任意座標系","測地系判別":null,"地図名":"西神楽町改良図Ｉ・図郭座標有","地図番号":"改I22","縮尺分母":"2000","市区町村コード":"01204","市区町村名":"旭川市","大字コード":"319","丁目コード":"618","小字コード":"0000","予備コード":"00","大字名":"西神楽五線","丁目名":"十八号","小字名":null,"予備名":null,"地番":"53","精度区分":null,"座標値種別":"図上測量","筆界未定構成筆":null,"代表点緯度":-36289.2,"代表点経度":14938.900945845}},{"type":"MultiPolygon","arcs":[[[44,45,46,47]]],"properties":{"筆ID":"H000000015","version":"ver1.0","座標系":"任意座標系","測地系判別":null,"地図名":"西神楽町改良図Ｉ・図郭座標有","地図番号":"改I22","縮尺分母":"2000","市区町村コード":"01204","市区町村名":"旭川市","大字コード":"319","丁目コード":"618","小字コード":"0000","予備コード":"00","大字名":"西神楽五線","丁目名":"十八号","小字名":null,"予備名":null,"地番":"57-1","精度区分":null,"座標値種別":"図上測量","筆界未定構成筆":null,"代表点緯度":-35615.172,"代表点経度":14870.435350868}},{"type":"MultiPolygon","arcs":[[[-45,48,49,50]]],"properties":{"筆ID":"H000000016","version":"ver1.0","座標系":"任意座標系","測地系判別":null,"地図名":"西神楽町改良図Ｉ・図郭座標有","地図番号":"改I22","縮尺分母":"2000","市区町村コード":"01204","市区町村名":"旭川市","大字コード":"319","丁目コード":"618","小字コード":"0000","予備コード":"00","大字名":"西神楽五線","丁目名":"十八号","小字名":null,"予備名":null,"地番":"57-2","精度区分":null,"座標値種別":"図上測量","筆界未定構成筆":null,"代表点緯度":-35599.0945,"代表点経度":14844.568950135}},{"type":"MultiPolygon","arcs":[[[51,52,53,-49,-48]]],"properties":{"筆ID":"H000000017","version":"ver1.0","座標系":"任意座標系","測地系判別":null,"地図名":"西神楽町改良図Ｉ・図郭座標有","地図番号":"改I22","縮尺分母":"2000","市区町村コード":"01204","市区町村名":"旭川市","大字コード":"319","丁目コード":"618","小字コード":"0000","予備コード":"00","大字名":"西神楽五線","丁目名":"十八号","小字名":null,"予備名":null,"地番":"57-3","精度区分":null,"座標値種別":"図上測量","筆界未定構成筆":null,"代表点緯度":-35708.918,"代表点経度":14783.312452403}},{"type":"MultiPolygon","arcs":[[[54,55,56,-54]]],"properties":{"筆ID":"H000000018","version":"ver1.0","座標系":"任意座標系","測地系判別":null,"地図名":"西神楽町改良図Ｉ・図郭座標有","地図番号":"改I22","縮尺分母":"2000","市区町村コード":"01204","市区町村名":"旭川市","大字コード":"319","丁目コード":"618","小字コード":"0000","予備コード":"00","大字名":"西神楽五線","丁目名":"十八号","小字名":null,"予備名":null,"地番":"57-4","精度区分":null,"座標値種別":"図上測量","筆界未定構成筆":null,"代表点緯度":-35690.6945,"代表点経度":14761.977551613}},{"type":"MultiPolygon","arcs":[[[-50,-57,57]]],"properties":{"筆ID":"H000000019","version":"ver1.0","座標系":"任意座標系","測地系判別":null,"地図名":"西神楽町改良図Ｉ・図郭座標有","地図番号":"改I22","縮尺分母":"2000","市区町村コード":"01204","市区町村名":"旭川市","大字コード":"319","丁目コード":"618","小字コード":"0000","予備コード":"00","大字名":"西神楽五線","丁目名":"十八号","小字名":null,"予備名":null,"地番":"57-5","精度区分":null,"座標値種別":"図上測量","筆界未定構成筆":null,"代表点緯度":-35586.189,"代表点経度":14845.90832706}},{"type":"MultiPolygon","arcs":[[[58,59,60,61]]],"properties":{"筆ID":"H000000020","version":"ver1.0","座標系":"任意座標系","測地系判別":null,"地図名":"西神楽町改良図Ｉ・図郭座標有","地図番号":"改I22","縮尺分母":"2000","市区町村コード":"01204","市区町村名":"旭川市","大字コード":"319","丁目コード":"618","小字コード":"0000","予備コード":"00","大字名":"西神楽五線","丁目名":"十八号","小字名":null,"予備名":null,"地番":"58","精度区分":null,"座標値種別":"図上測量","筆界未定構成筆":null,"代表点緯度":-35752.2755,"代表点経度":14847.058898768}},{"type":"MultiPolygon","arcs":[[[-59,62,63,64]]],"properties":{"筆ID":"H000000021","version":"ver1.0","座標系":"任意座標系","測地系判別":null,"地図名":"西神楽町改良図Ｉ・図郭座標有","地図番号":"改I22","縮尺分母":"2000","市区町村コード":"01204","市区町村名":"旭川市","大字コード":"319","丁目コード":"618","小字コード":"0000","予備コード":"00","大字名":"西神楽五線","丁目名":"十八号","小字名":null,"予備名":null,"地番":"59","精度区分":null,"座標値種別":"図上測量","筆界未定構成筆":null,"代表点緯度":-35812.183,"代表点経度":14911.204506203}},{"type":"MultiPolygon","arcs":[[[65,66,67,68]]],"properties":{"筆ID":"H000000022","version":"ver1.0","座標系":"任意座標系","測地系判別":null,"地図名":"西神楽町改良図Ｉ・図郭座標有","地図番号":"改I22","縮尺分母":"2000","市区町村コード":"01204","市区町村名":"旭川市","大字コード":"319","丁目コード":"618","小字コード":"0000","予備コード":"00","大字名":"西神楽五線","丁目名":"十八号","小字名":null,"予備名":null,"地番":"60-1","精度区分":null,"座標値種別":"図上測量","筆界未定構成筆":null,"代表点緯度":-35778.034,"代表点経度":15044.871169296}},{"type":"MultiPolygon","arcs":[[[69,70,71,-66,72]]],"properties":{"筆ID":"H000000023","version":"ver1.0","座標系":"任意座標系","測地系判別":null,"地図名":"西神楽町改良図Ｉ・図郭座標有","地図番号":"改I22","縮尺分母":"2000","市区町村コード":"01204","市区町村名":"旭川市","大字コード":"319","丁目コード":"618","小字コード":"0000","予備コード":"00","大字名":"西神楽五線","丁目名":"十八号","小字名":null,"予備名":null,"地番":"60-2","精度区分":null,"座標値種別":"図上測量","筆界未定構成筆":null,"代表点緯度":-35807.9385,"代表点経度":15077.001245801}},{"type":"MultiPolygon","arcs":[[[-67,-72,73,74,75,76,77]]],"properties":{"筆ID":"H000000024","version":"ver1.0","座標系":"任意座標系","測地系判別":null,"地図名":"西神楽町改良図Ｉ・図郭座標有","地図番号":"改I22","縮尺分母":"2000","市区町村コード":"01204","市区町村名":"旭川市","大字コード":"319","丁目コード":"618","小字コード":"0000","予備コード":"00","大字名":"西神楽五線","丁目名":"十八号","小字名":null,"予備名":null,"地番":"60-3","精度区分":null,"座標値種別":"図上測量","筆界未定構成筆":null,"代表点緯度":-35889.9275,"代表点経度":14968.035108049}},{"type":"MultiPolygon","arcs":[[[78,79,80,81]]],"properties":{"筆ID":"H000000025","version":"ver1.0","座標系":"任意座標系","測地系判別":null,"地図名":"西神楽町改良図Ｉ・図郭座標有","地図番号":"改I22","縮尺分母":"2000","市区町村コード":"01204","市区町村名":"旭川市","大字コード":"319","丁目コード":"618","小字コード":"0000","予備コード":"00","大字名":"西神楽五線","丁目名":"十八号","小字名":null,"予備名":null,"地番":"61-1","精度区分":null,"座標値種別":"図上測量","筆界未定構成筆":null,"代表点緯度":-35873.3115,"代表点経度":15151.566752034}},{"type":"MultiPolygon","arcs":[[[-81,82,-70,83]]],"properties":{"筆ID":"H000000026","version":"ver1.0","座標系":"任意座標系","測地系判別":null,"地図名":"西神楽町改良図Ｉ・図郭座標有","地図番号":"改I22","縮尺分母":"2000","市区町村コード":"01204","市区町村名":"旭川市","大字コード":"319","丁目コード":"618","小字コード":"0000","予備コード":"00","大字名":"西神楽五線","丁目名":"十八号","小字名":null,"予備名":null,"地番":"61-2","精度区分":null,"座標値種別":"図上測量","筆界未定構成筆":null,"代表点緯度":-35838.796,"代表点経度":15114.742657305}},{"type":"MultiPolygon","arcs":[[[84,85,-74,-71,-83,-80]]],"properties":{"筆ID":"H000000027","version":"ver1.0","座標系":"任意座標系","測地系判別":null,"地図名":"西神楽町改良図Ｉ・図郭座標有","地図番号":"改I22","縮尺分母":"2000","市区町村コード":"01204","市区町村名":"旭川市","大字コード":"319","丁目コード":"618","小字コード":"0000","予備コード":"00","大字名":"西神楽五線","丁目名":"十八号","小字名":null,"予備名":null,"地番":"61-3","精度区分":null,"座標値種別":"図上測量","筆界未定構成筆":null,"代表点緯度":-35932.4475,"代表点経度":15069.921303239}},{"type":"MultiPolygon","arcs":[[[-86,86,87,-75]]],"properties":{"筆ID":"H000000028","version":"ver1.0","座標系":"任意座標系","測地系判別":null,"地図名":"西神楽町改良図Ｉ・図郭座標有","地図番号":"改I22","縮尺分母":"2000","市区町村コード":"01204","市区町村名":"旭川市","大字コード":"319","丁目コード":"618","小字コード":"0000","予備コード":"00","大字名":"西神楽五線","丁目名":"十八号","小字名":null,"予備名":null,"地番":"61-4","精度区分":null,"座標値種別":"図上測量","筆界未定構成筆":null,"代表点緯度":-36019.154,"代表点経度":14988.79866446}},{"type":"MultiPolygon","arcs":[[[-47,88,-61,89,-52]]],"properties":{"筆ID":"H000000029","version":"ver1.0","座標系":"任意座標系","測地系判別":null,"地図名":"西神楽町改良図Ｉ・図郭座標有","地図番号":"改I22","縮尺分母":"2000","市区町村コード":"01204","市区町村名":"旭川市","大字コード":"319","丁目コード":"618","小字コード":"0000","予備コード":"00","大字名":"西神楽五線","丁目名":"十八号","小字名":null,"予備名":null,"地番":"62-1","精度区分":null,"座標値種別":"図上測量","筆界未定構成筆":null,"代表点緯度":-35730.888,"代表点経度":14802.181142347}},{"type":"MultiPolygon","arcs":[[[-90,-60,-65,90,-77,91,-30,-24,-21,-11,92,-53]]],"properties":{"筆ID":"H000000030","version":"ver1.0","座標系":"任意座標系","測地系判別":null,"地図名":"西神楽町改良図Ｉ・図郭座標有","地図番号":"改I22","縮尺分母":"2000","市区町村コード":"01204","市区町村名":"旭川市","大字コード":"319","丁目コード":"618","小字コード":"0000","予備コード":"00","大字名":"西神楽五線","丁目名":"十八号","小字名":null,"予備名":null,"地番":"62-2","精度区分":null,"座標値種別":"図上測量","筆界未定構成筆":null,"代表点緯度":-35863.467,"代表点経度":14764.197916723}},{"type":"MultiPolygon","arcs":[[[-92,-76,-88,93,94,-39,-31]]],"properties":{"筆ID":"H000000031","version":"ver1.0","座標系":"任意座標系","測地系判別":null,"地図名":"西神楽町改良図Ｉ・図郭座標有","地図番号":"改I22","縮尺分母":"2000","市区町村コード":"01204","市区町村名":"旭川市","大字コード":"319","丁目コード":"618","小字コード":"0000","予備コード":"00","大字名":"西神楽五線","丁目名":"十八号","小字名":null,"予備名":null,"地番":"62-3","精度区分":null,"座標値種別":"図上測量","筆界未定構成筆":null,"代表点緯度":-36037.3345,"代表点経度":14950.420425078}},{"type":"MultiPolygon","arcs":[[[-13,95,-55,-93]]],"properties":{"筆ID":"H000000032","version":"ver1.0","座標系":"任意座標系","測地系判別":null,"地図名":"西神楽町改良図Ｉ・図郭座標有","地図番号":"改I22","縮尺分母":"2000","市区町村コード":"01204","市区町村名":"旭川市","大字コード":"319","丁目コード":"618","小字コード":"0000","予備コード":"00","大字名":"西神楽五線","丁目名":"十八号","小字名":null,"予備名":null,"地番":"62-4","精度区分":null,"座標値種別":"図上測量","筆界未定構成筆":null,"代表点緯度":-35786.799,"代表点経度":14682.962873759}},{"type":"MultiPolygon","arcs":[[[-16,96,97,98,99]]],"properties":{"筆ID":"H000000033","version":"ver1.0","座標系":"任意座標系","測地系判別":null,"地図名":"西神楽町改良図Ｉ・図郭座標有","地図番号":"改I22","縮尺分母":"2000","市区町村コード":"01204","市区町村名":"旭川市","大字コード":"319","丁目コード":"618","小字コード":"0000","予備コード":"00","大字名":"西神楽五線","丁目名":"十八号","小字名":null,"予備名":null,"地番":"63","精度区分":null,"座標値種別":"図上測量","筆界未定構成筆":null,"代表点緯度":-36021.0905,"代表点経度":14656.482323215}},{"type":"MultiPolygon","arcs":[[[-36,100,-25,-32,101]]],"properties":{"筆ID":"H000000034","version":"ver1.0","座標系":"任意座標系","測地系判別":null,"地図名":"西神楽町改良図Ｉ・図郭座標有","地図番号":"改I22","縮尺分母":"2000","市区町村コード":"01204","市区町村名":"旭川市","大字コード":"319","丁目コード":"618","小字コード":"0000","予備コード":"00","大字名":"西神楽五線","丁目名":"十八号","小字名":null,"予備名":null,"地番":"64","精度区分":null,"座標値種別":"図上測量","筆界未定構成筆":null,"代表点緯度":-36154.6285,"代表点経度":14781.167377574}},{"type":"MultiPolygon","arcs":[[[-43,102,-40,103]]],"properties":{"筆ID":"H000000035","version":"ver1.0","座標系":"任意座標系","測地系判別":null,"地図名":"西神楽町改良図Ｉ・図郭座標有","地図番号":"改I22","縮尺分母":"2000","市区町村コード":"01204","市区町村名":"旭川市","大字コード":"319","丁目コード":"618","小字コード":"0000","予備コード":"00","大字名":"西神楽五線","丁目名":"十八号","小字名":null,"予備名":null,"地番":"65","精度区分":null,"座標値種別":"図上測量","筆界未定構成筆":null,"代表点緯度":-36289.4265,"代表点経度":14903.191387048}},{"type":"MultiPolygon","arcs":[[[-68,-78,-91,-64,104]]],"properties":{"筆ID":"H000000036","version":"ver1.0","座標系":"任意座標系","測地系判別":null,"地図名":"西神楽町改良図Ｉ・図郭座標有","地図番号":"改I22","縮尺分母":"2000","市区町村コード":"01204","市区町村名":"旭川市","大字コード":"319","丁目コード":"618","小字コード":"0000","予備コード":"00","大字名":"西神楽五線","丁目名":"十八号","小字名":null,"予備名":null,"地番":"66","精度区分":null,"座標値種別":"図上測量","筆界未定構成筆":null,"代表点緯度":-35857.682,"代表点経度":14933.326862389}},{"type":"MultiPolygon","arcs":[[[-79,105,-94,-87,-85]]],"properties":{"筆ID":"H000000037","version":"ver1.0","座標系":"任意座標系","測地系判別":null,"地図名":"西神楽町改良図Ｉ・図郭座標有","地図番号":"改I22","縮尺分母":"2000","市区町村コード":"01204","市区町村名":"旭川市","大字コード":"319","丁目コード":"618","小字コード":"0000","予備コード":"00","大字名":"西神楽五線","丁目名":"十八号","小字名":null,"予備名":null,"地番":"67","精度区分":null,"座標値種別":"図上測量","筆界未定構成筆":null,"代表点緯度":-35974.176,"代表点経度":15117.309269078}},{"type":"MultiPolygon","arcs":[[[106,107]]],"properties":{"筆ID":"H000000038","version":"ver1.0","座標系":"任意座標系","測地系判別":null,"地図名":"西神楽町改良図Ｉ・図郭座標有","地図番号":"改I22","縮尺分母":"2000","市区町村コード":"01204","市区町村名":"旭川市","大字コード":"319","丁目コード":"619","小字コード":"0000","予備コード":"00","大字名":"西神楽五線","丁目名":"十九号","小字名":null,"予備名":null,"地番":"54","精度区分":null,"座標値種別":"図上測量","筆界未定構成筆":null,"代表点緯度":-36368.295,"代表点経度":14991.568271517}},{"type":"MultiPolygon","arcs":[[[108,109,110,-107]]],"properties":{"筆ID":"H000000039","version":"ver1.0","座標系":"任意座標系","測地系判別":null,"地図名":"西神楽町改良図Ｉ・図郭座標有","地図番号":"改I22","縮尺分母":"2000","市区町村コード":"01204","市区町村名":"旭川市","大字コード":"319","丁目コード":"619","小字コード":"0000","予備コード":"00","大字名":"西神楽五線","丁目名":"十九号","小字名":null,"予備名":null,"地番":"55","精度区分":null,"座標値種別":"図上測量","筆界未定構成筆":null,"代表点緯度":-36481.292,"代表点経度":15053.377253852}},{"type":"MultiPolygon","arcs":[[[-110,111]]],"properties":{"筆ID":"H000000040","version":"ver1.0","座標系":"任意座標系","測地系判別":null,"地図名":"西神楽町改良図Ｉ・図郭座標有","地図番号":"改I22","縮尺分母":"2000","市区町村コード":"01204","市区町村名":"旭川市","大字コード":"319","丁目コード":"619","小字コード":"0000","予備コード":"00","大字名":"西神楽五線","丁目名":"十九号","小字名":null,"予備名":null,"地番":"56","精度区分":null,"座標値種別":"図上測量","筆界未定構成筆":null,"代表点緯度":-36549.2385,"代表点経度":15114.059139649}},{"type":"MultiPolygon","arcs":[[[112,113,114]]],"properties":{"筆ID":"H000000041","version":"ver1.0","座標系":"任意座標系","測地系判別":null,"地図名":"西神楽町改良図Ｉ・図郭座標有","地図番号":"改I22","縮尺分母":"2000","市区町村コード":"01204","市区町村名":"旭川市","大字コード":"319","丁目コード":"618","小字コード":"0000","予備コード":"00","大字名":"西神楽五線","丁目名":"十八号","小字名":null,"予備名":null,"地番":"48-9","精度区分":null,"座標値種別":"図上測量","筆界未定構成筆":null,"代表点緯度":-35942.202,"代表点経度":14559.942354985}},{"type":"MultiPolygon","arcs":[[[115,-6,-3,116,117,118]]],"properties":{"筆ID":"H000000042","version":"ver1.0","座標系":"任意座標系","測地系判別":null,"地図名":"西神楽町改良図Ｉ・図郭座標有","地図番号":"改I22","縮尺分母":"2000","市区町村コード":"01204","市区町村名":"旭川市","大字コード":"319","丁目コード":"618","小字コード":"0000","予備コード":"00","大字名":"西神楽五線","丁目名":"十八号","小字名":null,"予備名":null,"地番":"48-2","精度区分":null,"座標値種別":"図上測量","筆界未定構成筆":null,"代表点緯度":-35996.9405,"代表点経度":14534.568127693}},{"type":"MultiPolygon","arcs":[[[-114,-119,119,120]]],"properties":{"筆ID":"H000000043","version":"ver1.0","座標系":"任意座標系","測地系判別":null,"地図名":"西神楽町改良図Ｉ・図郭座標有","地図番号":"改I22","縮尺分母":"2000","市区町村コード":"01204","市区町村名":"旭川市","大字コード":"319","丁目コード":"618","小字コード":"0000","予備コード":"00","大字名":"西神楽五線","丁目名":"十八号","小字名":null,"予備名":null,"地番":"48-7","精度区分":null,"座標値種別":"図上測量","筆界未定構成筆":null,"代表点緯度":-35982.443,"代表点経度":14527.027073916}},{"type":"MultiPolygon","arcs":[[[121,-118,122]]],"properties":{"筆ID":"H000000044","version":"ver1.0","座標系":"任意座標系","測地系判別":null,"地図名":"西神楽町改良図Ｉ・図郭座標有","地図番号":"改I22","縮尺分母":"2000","市区町村コード":"01204","市区町村名":"旭川市","大字コード":"319","丁目コード":"618","小字コード":"0000","予備コード":"00","大字名":"西神楽五線","丁目名":"十八号","小字名":null,"予備名":null,"地番":"48-8","精度区分":null,"座標値種別":"図上測量","筆界未定構成筆":null,"代表点緯度":-36000.179,"代表点経度":14518.42542634}},{"type":"MultiPolygon","arcs":[[[-120,-122,123]]],"properties":{"筆ID":"H000000045","version":"ver1.0","座標系":"任意座標系","測地系判別":null,"地図名":"西神楽町改良図Ｉ・図郭座標有","地図番号":"改I22","縮尺分母":"2000","市区町村コード":"01204","市区町村名":"旭川市","大字コード":"319","丁目コード":"618","小字コード":"0000","予備コード":"00","大字名":"西神楽五線","丁目名":"十八号","小字名":null,"予備名":null,"地番":"48-6","精度区分":null,"座標値種別":"図上測量","筆界未定構成筆":null,"代表点緯度":-35997.488,"代表点経度":14515.670692419}},{"type":"MultiPolygon","arcs":[[[124,125,126,-4]]],"properties":{"筆ID":"H000000046","version":"ver1.0","座標系":"任意座標系","測地系判別":null,"地図名":"西神楽町改良図Ｉ・図郭座標有","地図番号":"改I22","縮尺分母":"2000","市区町村コード":"01204","市区町村名":"旭川市","大字コード":"319","丁目コード":"618","小字コード":"0000","予備コード":"00","大字名":"西神楽五線","丁目名":"十八号","小字名":null,"予備名":null,"地番":"48-11","精度区分":null,"座標値種別":"図上測量","筆界未定構成筆":null,"代表点緯度":-36047.065,"代表点経度":14579.556953582}},{"type":"MultiPolygon","arcs":[[[127,-98,128,-126]]],"properties":{"筆ID":"H000000047","version":"ver1.0","座標系":"任意座標系","測地系判別":null,"地図名":"西神楽町改良図Ｉ・図郭座標有","地図番号":"改I22","縮尺分母":"2000","市区町村コード":"01204","市区町村名":"旭川市","大字コード":"319","丁目コード":"618","小字コード":"0000","予備コード":"00","大字名":"西神楽五線","丁目名":"十八号","小字名":null,"予備名":null,"地番":"48-3","精度区分":null,"座標値種別":"図上測量","筆界未定構成筆":null,"代表点緯度":-36061.116,"代表点経度":14594.434303069}},{"type":"MultiPolygon","arcs":[[[-99,-128,-125,-7,-116,-113,129]]],"properties":{"筆ID":"H000000048","version":"ver1.0","座標系":"任意座標系","測地系判別":null,"地図名":"西神楽町改良図Ｉ・図郭座標有","地図番号":"改I22","縮尺分母":"2000","市区町村コード":"01204","市区町村名":"旭川市","大字コード":"319","丁目コード":"618","小字コード":"0000","予備コード":"00","大字名":"西神楽五線","丁目名":"十八号","小字名":null,"予備名":null,"地番":"48-4","精度区分":null,"座標値種別":"図上測量","筆界未定構成筆":null,"代表点緯度":-35983.007,"代表点経度":14616.825252791}}]}},"arcs":[[[58013,577276],[16819,-10794],[-25284,-17995]],[[49548,548487],[-17086,10562]],[[32462,559049],[25551,18227]],[[109821,546470],[-26762,-18697]],[[83059,527773],[-33511,20714]],[[58013,577276],[1158,826]],[[59171,578102],[50650,-31632]],[[345241,730775],[-108847,-77186]],[[236394,653589],[-80491,50779]],[[155903,704368],[39337,32788],[37396,29759],[24233,19749]],[[256869,786664],[51531,-31727],[-969,-905],[37810,-23257]],[[155903,704368],[-2345,1479],[100487,82519]],[[254045,788366],[2824,-1702]],[[374575,536090],[-143366,-99890]],[[231209,436200],[-95600,59092]],[[135609,495292],[146974,103079]],[[282583,598371],[95054,-60112]],[[377637,538259],[-3062,-2169]],[[407760,692318],[-110106,-77025]],[[297654,615293],[-61260,38296]],[[345241,730775],[62519,-38457]],[[507086,631221],[-110428,-77813]],[[396658,553408],[-99004,61885]],[[407760,692318],[99326,-61097]],[[469470,476322],[-142518,-99301]],[[326952,377021],[-95743,59179]],[[374575,536090],[94895,-59768]],[[607144,569674],[-109555,-77354]],[[497589,492320],[-100931,61088]],[[507086,631221],[21915,-13480]],[[529001,617741],[78143,-48067]],[[476282,481215],[-6812,-4893]],[[377637,538259],[1432,1141],[97213,-58185]],[[576132,415755],[-146362,-102287]],[[429770,313468],[-95085,58772]],[[334685,372240],[148770,104272]],[[483455,476512],[92677,-60757]],[[595079,434422],[-45456,29383],[-3933,-2970],[-48101,31485]],[[607144,569674],[96395,-59295],[-108460,-75957]],[[645092,339543],[-120382,-84758]],[[524710,254785],[-94940,58683]],[[576132,415755],[68960,-76212]],[[533461,249376],[118124,82990]],[[651585,332366],[69794,-77134],[-92545,-64807],[-95373,58951]],[[491673,963828],[37074,26420]],[[528747,990248],[57562,-35440]],[[586309,954808],[-37287,-26061]],[[549022,928747],[-57349,35081]],[[491673,963828],[-6300,3833]],[[485373,967661],[2447,1821],[10172,11421],[17245,14441],[3356,-377],[806,1036]],[[519399,996003],[9348,-5755]],[[549022,928747],[-238279,-167368]],[[310743,761379],[-48625,29971]],[[262118,791350],[8886,7346],[56540,44237],[18900,16503],[19548,14639],[11065,6495],[8158,8358],[35217,30610],[64941,48123]],[[262118,791350],[-2473,1615]],[[259645,792965],[218966,178998]],[[478611,971963],[6762,-4302]],[[478611,971963],[34297,28036],[6491,-3996]],[[689913,891022],[-275462,-193482]],[[414451,697540],[-96380,59328]],[[318071,756868],[275474,193486]],[[593545,950354],[96368,-59332]],[[689913,891022],[95790,-58974]],[[785703,832048],[-275407,-193507]],[[510296,638541],[-95845,58999]],[[844537,795826],[-37045,-26025]],[[807492,769801],[-51371,31397]],[[756121,801198],[37089,26227]],[[793210,827425],[51327,-31599]],[[889458,768169],[-30415,-21358]],[[859043,746811],[-6485,-4554]],[[852558,742257],[-45066,27544]],[[844537,795826],[44921,-27657]],[[852558,742257],[-164037,-115186]],[[688521,627071],[-74550,-52348]],[[613971,574723],[-77922,47965]],[[536049,622688],[-18058,11117]],[[517991,633805],[238130,167393]],[[974186,681289],[-10077,7318],[-5411,-3566]],[[958698,685041],[-38270,23720]],[[920428,708761],[30664,21462]],[[951092,730223],[48907,-30110],[-25813,-18824]],[[920428,708761],[-61385,38050]],[[889458,768169],[61634,-37946]],[[958698,685041],[28432,-20016],[-168694,-118877]],[[818436,546148],[-129915,80923]],[[818436,546148],[-36711,-25868],[-34165,20922],[-37047,-25906]],[[710513,515296],[-96542,59427]],[[586309,954808],[7236,-4454]],[[318071,756868],[-7328,4511]],[[510296,638541],[7695,-4736]],[[536049,622688],[-7048,-4947]],[[256869,786664],[5249,4686]],[[710513,515296],[7489,-4611]],[[718002,510685],[-116445,-81785],[-3834,2366],[983,811],[-3627,2345]],[[254045,788366],[5600,4599]],[[135609,495292],[-7901,4883]],[[127708,500175],[26619,18502]],[[154327,518677],[122545,85863]],[[276872,604540],[3798,-2358],[-2009,-1371],[3922,-2440]],[[334685,372240],[-7733,4781]],[[476282,481215],[7173,-4703]],[[533461,249376],[-8751,5409]],[[645092,339543],[6493,-7177]],[[785703,832048],[7507,-4623]],[[974186,681289],[25169,-17745],[-217032,-152836],[-34357,21023],[-29964,-21046]],[[800983,166355],[-61835,-43696]],[[739148,122659],[-99622,61673],[89240,62740],[72217,-80717]],[[800983,166355],[72441,-80750]],[[873424,85605],[-34261,-24253]],[[839163,61352],[-100015,61307]],[[873424,85605],[1771,1064],[80989,-73935],[-17891,-12734],[-99130,61352]],[[139762,689660],[-15999,-16078],[-16070,-14279],[-59908,-45773],[-9400,-8038]],[[38385,605492],[-3504,2190]],[[34881,607682],[102226,83727],[2655,-1749]],[[38385,605492],[28269,-17779],[-10835,-7519],[3352,-2092]],[[32462,559049],[-20126,12439]],[[12336,571488],[463,13056]],[[12799,584544],[25586,20948]],[[12799,584544],[644,1650],[-2745,1681]],[[10698,587875],[24183,19807]],[[8598,573799],[4201,10745]],[[12336,571488],[-30,18],[-3488,2157],[-220,136]],[[8598,573799],[-8598,5314],[10569,8656],[129,106]],[[109821,546470],[13595,-8489]],[[123416,537981],[-26697,-18651]],[[96719,519330],[-13660,8443]],[[123416,537981],[30911,-19304]],[[127708,500175],[-30989,19155]],[[139762,689660],[137110,-85120]]],"bbox":[14510.647,-36586.755,15178.139,-35573.971],"transform":{"scale":[0.0006674926674926658,0.0010127850127850124],"translate":[14510.647,-36586.755]}}
