{"type":"Topology","objects":{"01204-4500-26":{"type":"GeometryCollection","geometries":[{"type":"MultiPolygon","arcs":[[[0,1,2,3,4]]],"properties":{"筆ID":"H000000001","version":"ver1.0","座標系":"任意座標系","測地系判別":null,"地図名":"旭川市開拓図・開中５・図郭無","地図番号":"開中5","縮尺分母":"3000","市区町村コード":"01204","市区町村名":"旭川市","大字コード":"153","丁目コード":"000","小字コード":"0004","予備コード":"00","大字名":"江丹別町","丁目名":null,"小字名":"清水","予備名":null,"地番":"228-1","精度区分":null,"座標値種別":"図上測量","筆界未定構成筆":null,"代表点緯度":-508.224,"代表点経度":658.068982316}},{"type":"MultiPolygon","arcs":[[[-1,5]]],"properties":{"筆ID":"H000000002","version":"ver1.0","座標系":"任意座標系","測地系判別":null,"地図名":"旭川市開拓図・開中５・図郭無","地図番号":"開中5","縮尺分母":"3000","市区町村コード":"01204","市区町村名":"旭川市","大字コード":"153","丁目コード":"000","小字コード":"0004","予備コード":"00","大字名":"江丹別町","丁目名":null,"小字名":"清水","予備名":null,"地番":"228-2","精度区分":null,"座標値種別":"図上測量","筆界未定構成筆":null,"代表点緯度":-494.185,"代表点経度":547.038522435}},{"type":"MultiPolygon","arcs":[[[6,7,8,9,10,11]]],"properties":{"筆ID":"H000000003","version":"ver1.0","座標系":"任意座標系","測地系判別":null,"地図名":"旭川市開拓図・開中５・図郭無","地図番号":"開中5","縮尺分母":"3000","市区町村コード":"01204","市区町村名":"旭川市","大字コード":"153","丁目コード":"000","小字コード":"0004","予備コード":"00","大字名":"江丹別町","丁目名":null,"小字名":"清水","予備名":null,"地番":"229-1","精度区分":null,"座標値種別":"図上測量","筆界未定構成筆":null,"代表点緯度":-585.207,"代表点経度":386.564330235}},{"type":"MultiPolygon","arcs":[[[-7,12]]],"properties":{"筆ID":"H000000004","version":"ver1.0","座標系":"任意座標系","測地系判別":null,"地図名":"旭川市開拓図・開中５・図郭無","地図番号":"開中5","縮尺分母":"3000","市区町村コード":"01204","市区町村名":"旭川市","大字コード":"153","丁目コード":"000","小字コード":"0004","予備コード":"00","大字名":"江丹別町","丁目名":null,"小字名":"清水","予備名":null,"地番":"229-2","精度区分":null,"座標値種別":"図上測量","筆界未定構成筆":null,"代表点緯度":-560.689,"代表点経度":443.140351411}},{"type":"MultiPolygon","arcs":[[[13,14,15]]],"properties":{"筆ID":"H000000005","version":"ver1.0","座標系":"任意座標系","測地系判別":null,"地図名":"旭川市開拓図・開中５・図郭無","地図番号":"開中5","縮尺分母":"3000","市区町村コード":"01204","市区町村名":"旭川市","大字コード":"153","丁目コード":"000","小字コード":"0004","予備コード":"00","大字名":"江丹別町","丁目名":null,"小字名":"清水","予備名":null,"地番":"230","精度区分":null,"座標値種別":"図上測量","筆界未定構成筆":null,"代表点緯度":-573.039,"代表点経度":308.402990157}},{"type":"MultiPolygon","arcs":[[[16,17,18,19]]],"properties":{"筆ID":"H000000006","version":"ver1.0","座標系":"任意座標系","測地系判別":null,"地図名":"旭川市開拓図・開中５・図郭無","地図番号":"開中5","縮尺分母":"3000","市区町村コード":"01204","市区町村名":"旭川市","大字コード":"153","丁目コード":"000","小字コード":"0004","予備コード":"00","大字名":"江丹別町","丁目名":null,"小字名":"清水","予備名":null,"地番":"231","精度区分":null,"座標値種別":"図上測量","筆界未定構成筆":null,"代表点緯度":-663.272,"代表点経度":359.56116832}},{"type":"MultiPolygon","arcs":[[[20,21,22]]],"properties":{"筆ID":"H000000007","version":"ver1.0","座標系":"任意座標系","測地系判別":null,"地図名":"旭川市開拓図・開中５・図郭無","地図番号":"開中5","縮尺分母":"3000","市区町村コード":"01204","市区町村名":"旭川市","大字コード":"153","丁目コード":"000","小字コード":"0004","予備コード":"00","大字名":"江丹別町","丁目名":null,"小字名":"清水","予備名":null,"地番":"232","精度区分":null,"座標値種別":"図上測量","筆界未定構成筆":null,"代表点緯度":-646.6495,"代表点経度":370.527870095}},{"type":"MultiPolygon","arcs":[[[-22,23,-18,24]]],"properties":{"筆ID":"H000000008","version":"ver1.0","座標系":"任意座標系","測地系判別":null,"地図名":"旭川市開拓図・開中５・図郭無","地図番号":"開中5","縮尺分母":"3000","市区町村コード":"01204","市区町村名":"旭川市","大字コード":"153","丁目コード":"000","小字コード":"0004","予備コード":"00","大字名":"江丹別町","丁目名":null,"小字名":"清水","予備名":null,"地番":"244","精度区分":null,"座標値種別":"図上測量","筆界未定構成筆":null,"代表点緯度":-656.725,"代表点経度":363.065342997}},{"type":"MultiPolygon","arcs":[[[-11,25,-14,26]]],"properties":{"筆ID":"H000000009","version":"ver1.0","座標系":"任意座標系","測地系判別":null,"地図名":"旭川市開拓図・開中５・図郭無","地図番号":"開中5","縮尺分母":"3000","市区町村コード":"01204","市区町村名":"旭川市","大字コード":"153","丁目コード":"000","小字コード":"0004","予備コード":"00","大字名":"江丹別町","丁目名":null,"小字名":"清水","予備名":null,"地番":"245","精度区分":null,"座標値種別":"図上測量","筆界未定構成筆":null,"代表点緯度":-567.3645,"代表点経度":315.545132053}},{"type":"MultiPolygon","arcs":[[[27,-15,-26,-10,28,-23,-25,-17,29,30]]],"properties":{"筆ID":"H000000010","version":"ver1.0","座標系":"任意座標系","測地系判別":null,"地図名":"旭川市開拓図・開中５・図郭無","地図番号":"開中5","縮尺分母":"3000","市区町村コード":"01204","市区町村名":"旭川市","大字コード":"153","丁目コード":"000","小字コード":"0004","予備コード":"00","大字名":"江丹別町","丁目名":null,"小字名":"清水","予備名":null,"地番":"246","精度区分":null,"座標値種別":"図上測量","筆界未定構成筆":null,"代表点緯度":-639.714,"代表点経度":377.169651594}},{"type":"MultiPolygon","arcs":[[[-4,31,-8,32]]],"properties":{"筆ID":"H000000011","version":"ver1.0","座標系":"任意座標系","測地系判別":null,"地図名":"旭川市開拓図・開中５・図郭無","地図番号":"開中5","縮尺分母":"3000","市区町村コード":"01204","市区町村名":"旭川市","大字コード":"153","丁目コード":"000","小字コード":"0004","予備コード":"00","大字名":"江丹別町","丁目名":null,"小字名":"清水","予備名":null,"地番":"248","精度区分":null,"座標値種別":"図上測量","筆界未定構成筆":null,"代表点緯度":-615.9375,"代表点経度":564.903340834}},{"type":"MultiPolygon","arcs":[[[-16,-28,33]]],"properties":{"筆ID":"H000000012","version":"ver1.0","座標系":"任意座標系","測地系判別":null,"地図名":"旭川市開拓図・開中５・図郭無","地図番号":"開中5","縮尺分母":"3000","市区町村コード":"01204","市区町村名":"旭川市","大字コード":"153","丁目コード":"000","小字コード":"0004","予備コード":"00","大字名":"江丹別町","丁目名":null,"小字名":"清水","予備名":null,"地番":"249","精度区分":null,"座標値種別":"図上測量","筆界未定構成筆":null,"代表点緯度":-552.473,"代表点経度":295.19926213}},{"type":"MultiPolygon","arcs":[[[-30,-20,34]]],"properties":{"筆ID":"H000000013","version":"ver1.0","座標系":"任意座標系","測地系判別":null,"地図名":"旭川市開拓図・開中５・図郭無","地図番号":"開中5","縮尺分母":"3000","市区町村コード":"01204","市区町村名":"旭川市","大字コード":"153","丁目コード":"000","小字コード":"0004","予備コード":"00","大字名":"江丹別町","丁目名":null,"小字名":"清水","予備名":null,"地番":"250","精度区分":null,"座標値種別":"図上測量","筆界未定構成筆":null,"代表点緯度":-566.149,"代表点経度":283.770815444}},{"type":"MultiPolygon","arcs":[[[35,36,37,38,-3,39]]],"properties":{"筆ID":"H000000014","version":"ver1.0","座標系":"任意座標系","測地系判別":null,"地図名":"旭川市開拓図・開中５・図郭無","地図番号":"開中5","縮尺分母":"3000","市区町村コード":"01204","市区町村名":"旭川市","大字コード":"153","丁目コード":"000","小字コード":"0008","予備コード":"00","大字名":"江丹別町","丁目名":null,"小字名":"中園","予備名":null,"地番":"210-1","精度区分":null,"座標値種別":"図上測量","筆界未定構成筆":null,"代表点緯度":-557.848,"代表点経度":969.517477051}},{"type":"MultiPolygon","arcs":[[[40,-37]]],"properties":{"筆ID":"H000000015","version":"ver1.0","座標系":"任意座標系","測地系判別":null,"地図名":"旭川市開拓図・開中５・図郭無","地図番号":"開中5","縮尺分母":"3000","市区町村コード":"01204","市区町村名":"旭川市","大字コード":"153","丁目コード":"000","小字コード":"0008","予備コード":"00","大字名":"江丹別町","丁目名":null,"小字名":"中園","予備名":null,"地番":"210-2","精度区分":null,"座標値種別":"図上測量","筆界未定構成筆":null,"代表点緯度":-591.8715,"代表点経度":832.26856305}},{"type":"MultiPolygon","arcs":[[[-41,-36,41,42,-38]]],"properties":{"筆ID":"H000000016","version":"ver1.0","座標系":"任意座標系","測地系判別":null,"地図名":"旭川市開拓図・開中５・図郭無","地図番号":"開中5","縮尺分母":"3000","市区町村コード":"01204","市区町村名":"旭川市","大字コード":"153","丁目コード":"000","小字コード":"0008","予備コード":"00","大字名":"江丹別町","丁目名":null,"小字名":"中園","予備名":null,"地番":"211","精度区分":null,"座標値種別":"図上測量","筆界未定構成筆":null,"代表点緯度":-655.284,"代表点経度":994.65973486}},{"type":"MultiPolygon","arcs":[[[43,44,45]]],"properties":{"筆ID":"H000000017","version":"ver1.0","座標系":"任意座標系","測地系判別":null,"地図名":"旭川市開拓図・開中５・図郭無","地図番号":"開中5","縮尺分母":"3000","市区町村コード":"01204","市区町村名":"旭川市","大字コード":"153","丁目コード":"000","小字コード":"0008","予備コード":"00","大字名":"江丹別町","丁目名":null,"小字名":"中園","予備名":null,"地番":"212-1","精度区分":null,"座標値種別":"図上測量","筆界未定構成筆":null,"代表点緯度":-826.873,"代表点経度":816.971720738}},{"type":"MultiPolygon","arcs":[[[46,47,-44]]],"properties":{"筆ID":"H000000018","version":"ver1.0","座標系":"任意座標系","測地系判別":null,"地図名":"旭川市開拓図・開中５・図郭無","地図番号":"開中5","縮尺分母":"3000","市区町村コード":"01204","市区町村名":"旭川市","大字コード":"153","丁目コード":"000","小字コード":"0008","予備コード":"00","大字名":"江丹別町","丁目名":null,"小字名":"中園","予備名":null,"地番":"212-2","精度区分":null,"座標値種別":"図上測量","筆界未定構成筆":null,"代表点緯度":-913.216,"代表点経度":892.157579879}},{"type":"MultiPolygon","arcs":[[[-43,48,-47,-46,-32,-39]]],"properties":{"筆ID":"H000000019","version":"ver1.0","座標系":"任意座標系","測地系判別":null,"地図名":"旭川市開拓図・開中５・図郭無","地図番号":"開中5","縮尺分母":"3000","市区町村コード":"01204","市区町村名":"旭川市","大字コード":"153","丁目コード":"000","小字コード":"0008","予備コード":"00","大字名":"江丹別町","丁目名":null,"小字名":"中園","予備名":null,"地番":"305","精度区分":null,"座標値種別":"図上測量","筆界未定構成筆":null,"代表点緯度":-782.0415,"代表点経度":792.448988238}}]}},"arcs":[[[155439,742540],[261428,-285630],[38659,60744],[-261143,285331]],[[194383,802985],[126816,197014],[120360,-184094],[42531,-29667]],[[484090,786238],[18630,-480545],[1,-90]],[[502721,305603],[-111013,60388],[-121438,179883],[-69495,127068],[-67820,34324]],[[132955,707266],[22484,35274]],[[155439,742540],[38944,60445]],[[52155,581490],[63334,-68260],[23825,37721],[150182,-163169],[25452,40214],[-150215,162846],[21973,34259],[-62721,68035]],[[123985,693136],[68032,-33717],[68117,-124067],[122141,-182205],[116959,-62602],[3866,-3091]],[[503100,287454],[-100817,19988],[-57127,20431],[-194542,80594],[-7858,-35957]],[[142756,372510],[-55239,92629],[-25025,13548]],[[62492,478687],[-23670,81983]],[[38822,560670],[13333,20820]],[[52155,581490],[71830,111646]],[[29556,546394],[14159,-48282]],[[43715,498112],[-24867,31557]],[[18848,529669],[10708,16725]],[[14454,522823],[35248,-44820]],[[49702,478003],[9669,-32765],[71693,-128647]],[[131064,316591],[-122717,197248]],[[8347,513839],[6107,8984]],[[140912,361674],[-5661,-25787]],[[135251,335887],[-63991,113261],[-5306,19334]],[[65954,468482],[17743,-9728],[57215,-97080]],[[135251,335887],[-4187,-19296]],[[49702,478003],[1233,-1566],[15019,-7955]],[[62492,478687],[-5869,3102],[-12908,16323]],[[29556,546394],[9266,14276]],[[10918,542003],[7930,-12334]],[[142756,372510],[-1844,-10836]],[[14454,522823],[-7872,12355]],[[6582,535178],[4336,6825]],[[502721,305603],[379,-18149]],[[123985,693136],[8970,14130]],[[10918,542003],[12482,19725],[6156,-15334]],[[8347,513839],[-8347,11427],[6582,9912]],[[900475,587356],[-140780,-105440]],[[759695,481916],[-67611,153610],[-194569,-145167],[65455,-155923]],[[562970,334436],[-49532,-37339]],[[513438,297097],[-4601,5178],[-6116,3328]],[[484090,786238],[298081,-204042],[43627,53963],[34988,43127],[39689,-91930]],[[759695,481916],[-69437,-52302],[-127288,-95178]],[[900475,587356],[99524,-231597],[-24314,-17235],[-80782,-55505],[-231008,-158704]],[[663895,124315],[-150457,172782]],[[722354,35270],[-49066,-35270]],[[673288,0],[-26846,71072],[-74499,92290],[-68843,124092]],[[503100,287454],[148903,-171182],[70351,-81002]],[[722354,35270],[8390,-10123]],[[730744,25147],[-57456,-25147]],[[663895,124315],[81062,-93073],[-14213,-6095]]],"bbox":[277.34,-921.748,1160.193,-243.182],"transform":{"scale":[0.0008828538828538831,0.0006785666785666786],"translate":[277.34,-921.748]}}
