{"type":"Topology","objects":{"01204-4500-10":{"type":"GeometryCollection","geometries":[{"type":"MultiPolygon","arcs":[[[0,1,2,3,4,5]]],"properties":{"筆ID":"H000000001","version":"ver1.0","座標系":"任意座標系","測地系判別":null,"地図名":"旭川市開拓図・開央１・図郭無","地図番号":"開央1","縮尺分母":"3000","市区町村コード":"01204","市区町村名":"旭川市","大字コード":"153","丁目コード":"000","小字コード":"0006","予備コード":"00","大字名":"江丹別町","丁目名":null,"小字名":"中央","予備名":null,"地番":"255","精度区分":null,"座標値種別":"図上測量","筆界未定構成筆":null,"代表点緯度":-502.696,"代表点経度":671.171951211}},{"type":"MultiPolygon","arcs":[[[-4,6,7,8,9,10]]],"properties":{"筆ID":"H000000002","version":"ver1.0","座標系":"任意座標系","測地系判別":null,"地図名":"旭川市開拓図・開央１・図郭無","地図番号":"開央1","縮尺分母":"3000","市区町村コード":"01204","市区町村名":"旭川市","大字コード":"153","丁目コード":"000","小字コード":"0006","予備コード":"00","大字名":"江丹別町","丁目名":null,"小字名":"中央","予備名":null,"地番":"256","精度区分":null,"座標値種別":"図上測量","筆界未定構成筆":null,"代表点緯度":-806.42,"代表点経度":805.996127498}},{"type":"MultiPolygon","arcs":[[[11,12,13,14]]],"properties":{"筆ID":"H000000003","version":"ver1.0","座標系":"任意座標系","測地系判別":null,"地図名":"旭川市開拓図・開央１・図郭無","地図番号":"開央1","縮尺分母":"3000","市区町村コード":"01204","市区町村名":"旭川市","大字コード":"153","丁目コード":"000","小字コード":"0006","予備コード":"00","大字名":"江丹別町","丁目名":null,"小字名":"中央","予備名":null,"地番":"257-1","精度区分":null,"座標値種別":"図上測量","筆界未定構成筆":null,"代表点緯度":-1023.2765,"代表点経度":687.45127366}},{"type":"MultiPolygon","arcs":[[[15,16,17,18,-14]]],"properties":{"筆ID":"H000000004","version":"ver1.0","座標系":"任意座標系","測地系判別":null,"地図名":"旭川市開拓図・開央１・図郭無","地図番号":"開央1","縮尺分母":"3000","市区町村コード":"01204","市区町村名":"旭川市","大字コード":"153","丁目コード":"000","小字コード":"0006","予備コード":"00","大字名":"江丹別町","丁目名":null,"小字名":"中央","予備名":null,"地番":"257-2","精度区分":null,"座標値種別":"図上測量","筆界未定構成筆":null,"代表点緯度":-1168.6285,"代表点経度":752.444037332}},{"type":"MultiPolygon","arcs":[[[19,20]]],"properties":{"筆ID":"H000000005","version":"ver1.0","座標系":"任意座標系","測地系判別":null,"地図名":"旭川市開拓図・開央１・図郭無","地図番号":"開央1","縮尺分母":"3000","市区町村コード":"01204","市区町村名":"旭川市","大字コード":"153","丁目コード":"000","小字コード":"0006","予備コード":"00","大字名":"江丹別町","丁目名":null,"小字名":"中央","予備名":null,"地番":"263","精度区分":null,"座標値種別":"図上測量","筆界未定構成筆":null,"代表点緯度":-292.658,"代表点経度":563.321839545}},{"type":"MultiPolygon","arcs":[[[-20,21,-6,22,23,24]]],"properties":{"筆ID":"H000000006","version":"ver1.0","座標系":"任意座標系","測地系判別":null,"地図名":"旭川市開拓図・開央１・図郭無","地図番号":"開央1","縮尺分母":"3000","市区町村コード":"01204","市区町村名":"旭川市","大字コード":"153","丁目コード":"000","小字コード":"0006","予備コード":"00","大字名":"江丹別町","丁目名":null,"小字名":"中央","予備名":null,"地番":"265","精度区分":null,"座標値種別":"図上測量","筆界未定構成筆":null,"代表点緯度":-337.558,"代表点経度":554.831448476}},{"type":"MultiPolygon","arcs":[[[25,-15,-19,26,27]]],"properties":{"筆ID":"H000000007","version":"ver1.0","座標系":"任意座標系","測地系判別":null,"地図名":"旭川市開拓図・開央１・図郭無","地図番号":"開央1","縮尺分母":"3000","市区町村コード":"01204","市区町村名":"旭川市","大字コード":"153","丁目コード":"000","小字コード":"0006","予備コード":"00","大字名":"江丹別町","丁目名":null,"小字名":"中央","予備名":null,"地番":"266","精度区分":null,"座標値種別":"図上測量","筆界未定構成筆":null,"代表点緯度":-1112.589,"代表点経度":689.03524552}},{"type":"MultiPolygon","arcs":[[[-5,-11,28,29,-23]]],"properties":{"筆ID":"H000000008","version":"ver1.0","座標系":"任意座標系","測地系判別":null,"地図名":"旭川市開拓図・開央１・図郭無","地図番号":"開央1","縮尺分母":"3000","市区町村コード":"01204","市区町村名":"旭川市","大字コード":"153","丁目コード":"000","小字コード":"0006","予備コード":"00","大字名":"江丹別町","丁目名":null,"小字名":"中央","予備名":null,"地番":"271","精度区分":null,"座標値種別":"図上測量","筆界未定構成筆":null,"代表点緯度":-473.1465,"代表点経度":633.157405161}},{"type":"MultiPolygon","arcs":[[[-1,-22,-21,-25,30,31,32]]],"properties":{"筆ID":"H000000009","version":"ver1.0","座標系":"任意座標系","測地系判別":null,"地図名":"旭川市開拓図・開央１・図郭無","地図番号":"開央1","縮尺分母":"3000","市区町村コード":"01204","市区町村名":"旭川市","大字コード":"153","丁目コード":"000","小字コード":"0006","予備コード":"00","大字名":"江丹別町","丁目名":null,"小字名":"中央","予備名":null,"地番":"無地番-16","精度区分":null,"座標値種別":"図上測量","筆界未定構成筆":null,"代表点緯度":-340.2285,"代表点経度":546.030276674}},{"type":"MultiPolygon","arcs":[[[-30,33,34,-31,-24]]],"properties":{"筆ID":"H000000010","version":"ver1.0","座標系":"任意座標系","測地系判別":null,"地図名":"旭川市開拓図・開央１・図郭無","地図番号":"開央1","縮尺分母":"3000","市区町村コード":"01204","市区町村名":"旭川市","大字コード":"153","丁目コード":"000","小字コード":"0006","予備コード":"00","大字名":"江丹別町","丁目名":null,"小字名":"中央","予備名":null,"地番":"無地番-17","精度区分":null,"座標値種別":"図上測量","筆界未定構成筆":null,"代表点緯度":-536.81,"代表点経度":614.330832851}},{"type":"MultiPolygon","arcs":[[[35,-2,36]]],"properties":{"筆ID":"H000000011","version":"ver1.0","座標系":"任意座標系","測地系判別":null,"地図名":"旭川市開拓図・開央１・図郭無","地図番号":"開央1","縮尺分母":"3000","市区町村コード":"01204","市区町村名":"旭川市","大字コード":"153","丁目コード":"000","小字コード":"0006","予備コード":"00","大字名":"江丹別町","丁目名":null,"小字名":"中央","予備名":null,"地番":"無地番-18","精度区分":null,"座標値種別":"図上測量","筆界未定構成筆":null,"代表点緯度":-167.991,"代表点経度":632.103847087}},{"type":"MultiPolygon","arcs":[[[37,-27,-18,38,39,40]]],"properties":{"筆ID":"H000000012","version":"ver1.0","座標系":"任意座標系","測地系判別":null,"地図名":"旭川市開拓図・開央１・図郭無","地図番号":"開央1","縮尺分母":"3000","市区町村コード":"01204","市区町村名":"旭川市","大字コード":"153","丁目コード":"000","小字コード":"0006","予備コード":"00","大字名":"江丹別町","丁目名":null,"小字名":"中央","予備名":null,"地番":"無地番-19","精度区分":null,"座標値種別":"図上測量","筆界未定構成筆":null,"代表点緯度":-1211.989,"代表点経度":788.9618296}},{"type":"MultiPolygon","arcs":[[[-29,-10,41,42,-34]]],"properties":{"筆ID":"H000000013","version":"ver1.0","座標系":"任意座標系","測地系判別":null,"地図名":"旭川市開拓図・開央１・図郭無","地図番号":"開央1","縮尺分母":"3000","市区町村コード":"01204","市区町村名":"旭川市","大字コード":"153","丁目コード":"000","小字コード":"0006","予備コード":"00","大字名":"江丹別町","丁目名":null,"小字名":"中央","予備名":null,"地番":"無地番-20","精度区分":null,"座標値種別":"図上測量","筆界未定構成筆":null,"代表点緯度":-794.3515,"代表点経度":699.480530063}},{"type":"MultiPolygon","arcs":[[[-42,-9,43,44]]],"properties":{"筆ID":"H000000014","version":"ver1.0","座標系":"任意座標系","測地系判別":null,"地図名":"旭川市開拓図・開央１・図郭無","地図番号":"開央1","縮尺分母":"3000","市区町村コード":"01204","市区町村名":"旭川市","大字コード":"153","丁目コード":"000","小字コード":"0006","予備コード":"00","大字名":"江丹別町","丁目名":null,"小字名":"中央","予備名":null,"地番":"無地番-21","精度区分":null,"座標値種別":"図上測量","筆界未定構成筆":null,"代表点緯度":-913.542,"代表点経度":733.949843597}},{"type":"MultiPolygon","arcs":[[[45,46,-16,-13,-44]]],"properties":{"筆ID":"H000000015","version":"ver1.0","座標系":"任意座標系","測地系判別":null,"地図名":"旭川市開拓図・開央１・図郭無","地図番号":"開央1","縮尺分母":"3000","市区町村コード":"01204","市区町村名":"旭川市","大字コード":"153","丁目コード":"000","小字コード":"0006","予備コード":"00","大字名":"江丹別町","丁目名":null,"小字名":"中央","予備名":null,"地番":"無地番-22","精度区分":null,"座標値種別":"図上測量","筆界未定構成筆":null,"代表点緯度":-1003.7655,"代表点経度":765.766698149}},{"type":"MultiPolygon","arcs":[[[47,-39,-17,-47]]],"properties":{"筆ID":"H000000016","version":"ver1.0","座標系":"任意座標系","測地系判別":null,"地図名":"旭川市開拓図・開央１・図郭無","地図番号":"開央1","縮尺分母":"3000","市区町村コード":"01204","市区町村名":"旭川市","大字コード":"153","丁目コード":"000","小字コード":"0006","予備コード":"00","大字名":"江丹別町","丁目名":null,"小字名":"中央","予備名":null,"地番":"無地番-23","精度区分":null,"座標値種別":"図上測量","筆界未定構成筆":null,"代表点緯度":-1119.555,"代表点経度":831.11846742}},{"type":"MultiPolygon","arcs":[[[48,-40,-48,-46,-8]]],"properties":{"筆ID":"H000000017","version":"ver1.0","座標系":"任意座標系","測地系判別":null,"地図名":"旭川市開拓図・開央１・図郭無","地図番号":"開央1","縮尺分母":"3000","市区町村コード":"01204","市区町村名":"旭川市","大字コード":"153","丁目コード":"000","小字コード":"0006","予備コード":"00","大字名":"江丹別町","丁目名":null,"小字名":"中央","予備名":null,"地番":"無地番-24","精度区分":null,"座標値種別":"図上測量","筆界未定構成筆":null,"代表点緯度":-983.8255,"代表点経度":894.549805766}},{"type":"MultiPolygon","arcs":[[[49,50,51]]],"properties":{"筆ID":"H000000018","version":"ver1.0","座標系":"任意座標系","測地系判別":null,"地図名":"旭川市開拓図・開央１・図郭無","地図番号":"開央1","縮尺分母":"3000","市区町村コード":"01204","市区町村名":"旭川市","大字コード":"153","丁目コード":"000","小字コード":"0006","予備コード":"00","大字名":"江丹別町","丁目名":null,"小字名":"中央","予備名":null,"地番":"無地番-414","精度区分":null,"座標値種別":"図上測量","筆界未定構成筆":null,"代表点緯度":-137.224,"代表点経度":515.109323801}},{"type":"MultiPolygon","arcs":[[[52,53,-51]]],"properties":{"筆ID":"H000000019","version":"ver1.0","座標系":"任意座標系","測地系判別":null,"地図名":"旭川市開拓図・開央１・図郭無","地図番号":"開央1","縮尺分母":"3000","市区町村コード":"01204","市区町村名":"旭川市","大字コード":"153","丁目コード":"000","小字コード":"0006","予備コード":"00","大字名":"江丹別町","丁目名":null,"小字名":"中央","予備名":null,"地番":"無地番-415","精度区分":null,"座標値種別":"図上測量","筆界未定構成筆":null,"代表点緯度":-137.764,"代表点経度":492.280257314}},{"type":"MultiPolygon","arcs":[[[54,55]]],"properties":{"筆ID":"H000000020","version":"ver1.0","座標系":"任意座標系","測地系判別":null,"地図名":"旭川市開拓図・開央１・図郭無","地図番号":"開央1","縮尺分母":"3000","市区町村コード":"01204","市区町村名":"旭川市","大字コード":"153","丁目コード":"000","小字コード":"0006","予備コード":"00","大字名":"江丹別町","丁目名":null,"小字名":"中央","予備名":null,"地番":"無地番-416","精度区分":null,"座標値種別":"図上測量","筆界未定構成筆":null,"代表点緯度":-1102.7585,"代表点経度":571.096162744}},{"type":"MultiPolygon","arcs":[[[-28,-38,56,-55,57]]],"properties":{"筆ID":"H000000021","version":"ver1.0","座標系":"任意座標系","測地系判別":null,"地図名":"旭川市開拓図・開央１・図郭無","地図番号":"開央1","縮尺分母":"3000","市区町村コード":"01204","市区町村名":"旭川市","大字コード":"153","丁目コード":"000","小字コード":"0006","予備コード":"00","大字名":"江丹別町","丁目名":null,"小字名":"中央","予備名":null,"地番":"筆界未定地-1","精度区分":null,"座標値種別":"図上測量","筆界未定構成筆":[{"大字コード":"153","丁目コード":"000","小字コード":"0006","予備コード":"00","大字名":"江丹別町","小字名":"中央","地番":"258-1"},{"大字コード":"153","丁目コード":"000","小字コード":"0006","予備コード":"00","大字名":"江丹別町","小字名":"中央","地番":"258-2"}],"代表点緯度":-1137.628,"代表点経度":647.097729426}},{"type":"MultiPolygon","arcs":[[[-37,-33,58,-53,-50,59]]],"properties":{"筆ID":"H000000022","version":"ver1.0","座標系":"任意座標系","測地系判別":null,"地図名":"旭川市開拓図・開央１・図郭無","地図番号":"開央1","縮尺分母":"3000","市区町村コード":"01204","市区町村名":"旭川市","大字コード":"153","丁目コード":"000","小字コード":"0006","予備コード":"00","大字名":"江丹別町","丁目名":null,"小字名":"中央","予備名":null,"地番":"水-2","精度区分":null,"座標値種別":"図上測量","筆界未定構成筆":null,"代表点緯度":-239.888,"代表点経度":549.065688264}}]}},"arcs":[[[197322,841443],[20124,45285]],[[217446,886728],[87841,-4886]],[[305287,881842],[-22589,-59779],[29103,-45995],[3369,-6442],[43996,-52146],[217733,-129780],[105542,-69168]],[[682441,518532],[-180809,-43530]],[[501632,475002],[-103555,132217],[-133656,171253],[-91252,-8438]],[[173169,770034],[19153,40834],[23701,3942],[-18701,26633]],[[682441,518532],[55302,-35439],[64517,-51158],[11897,-10381]],[[814157,421554],[-217970,-85564]],[[596187,335990],[-28089,33425]],[[568098,369415],[-27319,31234],[-53421,70915]],[[487358,471564],[14274,3438]],[[371537,294097],[59044,10957]],[[430581,305054],[124938,-120527]],[[555519,184527],[-82343,-20210]],[[473176,164317],[-58551,50863],[-1512,17818],[-44229,51053],[2653,10046]],[[555519,184527],[7722,-6993]],[[563241,177534],[101739,-50307]],[[664980,127227],[-94477,-30181]],[[570503,97046],[-48152,24035],[-49175,43236]],[[193527,833522],[10904,-16484],[-20368,-3726]],[[184063,813312],[9464,20210]],[[193527,833522],[3795,7921]],[[173169,770034],[-3138,-6710]],[[170031,763324],[-10707,-1088]],[[159324,762236],[24739,51076]],[[359623,291864],[11914,2233]],[[570503,97046],[-9542,-3129]],[[560961,93917],[-48628,24452],[-109303,95800],[-1110,17362],[-44564,51620],[2267,8713]],[[487358,471564],[-72169,94014]],[[415189,565578],[-30800,39644],[-129201,166286],[-85157,-8184]],[[159324,762236],[33664,-95684]],[[192988,666552],[-20471,-658],[-34793,97552]],[[137724,763446],[39288,82257],[30858,46431],[9576,-5406]],[[415189,565578],[-101134,-12136]],[[314055,553442],[-121067,113110]],[[357805,971669],[86985,-14422],[-139503,-75405]],[[217446,886728],[140359,84941]],[[317201,16489],[103506,32878],[140254,44550]],[[664980,127227],[198462,62918]],[[863442,190145],[117889,37427]],[[981331,227572],[-24402,-16629],[-509179,-161576],[-155571,-49367],[-10301,5386],[35323,11103]],[[568098,369415],[-101897,-18109]],[[466201,351306],[-152146,202136]],[[596187,335990],[-165606,-30936]],[[430581,305054],[35620,46252]],[[596187,335990],[171533,-93725]],[[767720,242265],[-204479,-64731]],[[767720,242265],[95722,-52120]],[[814157,421554],[15018,-6169],[170824,-64346],[-18668,-123467]],[[16788,999999],[184523,-104164],[-13249,-5449],[-8461,4611]],[[179601,894997],[-179601,100875]],[[0,995872],[16788,4127]],[[179601,894997],[-97315,-75988]],[[82286,819009],[-82286,176863]],[[230835,268267],[41953,-142797],[-42641,-66320]],[[230147,59150],[-68311,-7828],[-94783,33840],[163782,183105]],[[317201,16489],[-67089,32878],[-19965,9783]],[[230835,268267],[128788,23597]],[[137724,763446],[-48177,-3858],[31627,39016],[-49840,-13109],[10952,33514]],[[16788,999999],[341017,-28330]]],"bbox":[463.06,-1356.547,979.013,-67.424],"transform":{"scale":[0.0005159535159535159,0.0012891242891242892],"translate":[463.06,-1356.547]}}
