{"type":"Topology","objects":{"01204-4500-120.featurecollection":{"type":"GeometryCollection","geometries":[{"type":"Polygon","arcs":[[0,1,2,3,4,5,6,7,8,9,10,11,12,13,14,15,16,17,18,19,20]],"properties":{"市区町村名":"旭川市","大字名":"神居町台場","丁目名":null,"小字名":null,"地番":"557-1","精度区分":null,"座標系":"任意座標系"}},{"type":"Polygon","arcs":[[21,22]],"properties":{"市区町村名":"旭川市","大字名":"神居町台場","丁目名":null,"小字名":null,"地番":"557-2","精度区分":null,"座標系":"任意座標系"}},{"type":"Polygon","arcs":[[23,24,-22,25]],"properties":{"市区町村名":"旭川市","大字名":"神居町台場","丁目名":null,"小字名":null,"地番":"557-3","精度区分":null,"座標系":"任意座標系"}},{"type":"Polygon","arcs":[[26,-17,27]],"properties":{"市区町村名":"旭川市","大字名":"神居町台場","丁目名":null,"小字名":null,"地番":"557-6","精度区分":null,"座標系":"任意座標系"}},{"type":"Polygon","arcs":[[-24,28,29]],"properties":{"市区町村名":"旭川市","大字名":"神居町台場","丁目名":null,"小字名":null,"地番":"557-7","精度区分":null,"座標系":"任意座標系"}},{"type":"Polygon","arcs":[[30,-29,31,32,-14]],"properties":{"市区町村名":"旭川市","大字名":"神居町台場","丁目名":null,"小字名":null,"地番":"557-8","精度区分":null,"座標系":"任意座標系"}},{"type":"Polygon","arcs":[[33,-15,-33,34]],"properties":{"市区町村名":"旭川市","大字名":"神居町台場","丁目名":null,"小字名":null,"地番":"557-9","精度区分":null,"座標系":"任意座標系"}},{"type":"Polygon","arcs":[[-16,-34,-28]],"properties":{"市区町村名":"旭川市","大字名":"神居町台場","丁目名":null,"小字名":null,"地番":"557-10","精度区分":null,"座標系":"任意座標系"}},{"type":"Polygon","arcs":[[-12,35,36,37]],"properties":{"市区町村名":"旭川市","大字名":"神居町台場","丁目名":null,"小字名":null,"地番":"557-11","精度区分":null,"座標系":"任意座標系"}},{"type":"Polygon","arcs":[[38,39,-36,-11]],"properties":{"市区町村名":"旭川市","大字名":"神居町台場","丁目名":null,"小字名":null,"地番":"557-12","精度区分":null,"座標系":"任意座標系"}},{"type":"Polygon","arcs":[[-10,40,-39]],"properties":{"市区町村名":"旭川市","大字名":"神居町台場","丁目名":null,"小字名":null,"地番":"557-13","精度区分":null,"座標系":"任意座標系"}},{"type":"Polygon","arcs":[[-19,41,42]],"properties":{"市区町村名":"旭川市","大字名":"神居町台場","丁目名":null,"小字名":null,"地番":"557-14","精度区分":null,"座標系":"任意座標系"}},{"type":"Polygon","arcs":[[-37,43,44]],"properties":{"市区町村名":"旭川市","大字名":"神居町台場","丁目名":null,"小字名":null,"地番":"557-15","精度区分":null,"座標系":"任意座標系"}},{"type":"Polygon","arcs":[[-8,45,-44,-40,46]],"properties":{"市区町村名":"旭川市","大字名":"神居町台場","丁目名":null,"小字名":null,"地番":"557-16","精度区分":null,"座標系":"任意座標系"}},{"type":"Polygon","arcs":[[-9,-47,-41]],"properties":{"市区町村名":"旭川市","大字名":"神居町台場","丁目名":null,"小字名":null,"地番":"557-17","精度区分":null,"座標系":"任意座標系"}},{"type":"Polygon","arcs":[[-43,47,-20]],"properties":{"市区町村名":"旭川市","大字名":"神居町台場","丁目名":null,"小字名":null,"地番":"557-18","精度区分":null,"座標系":"任意座標系"}},{"type":"Polygon","arcs":[[48,-6,49]],"properties":{"市区町村名":"旭川市","大字名":"神居町台場","丁目名":null,"小字名":null,"地番":"557-19","精度区分":null,"座標系":"任意座標系"}},{"type":"Polygon","arcs":[[50,-50,-5,51]],"properties":{"市区町村名":"旭川市","大字名":"神居町台場","丁目名":null,"小字名":null,"地番":"557-20","精度区分":null,"座標系":"任意座標系"}},{"type":"Polygon","arcs":[[52,-1,53,54]],"properties":{"市区町村名":"旭川市","大字名":"神居町台場","丁目名":null,"小字名":null,"地番":"557-21","精度区分":null,"座標系":"任意座標系"}},{"type":"Polygon","arcs":[[-55,55,56]],"properties":{"市区町村名":"旭川市","大字名":"神居町台場","丁目名":null,"小字名":null,"地番":"557-22","精度区分":null,"座標系":"任意座標系"}},{"type":"Polygon","arcs":[[-4,57,-52]],"properties":{"市区町村名":"旭川市","大字名":"神居町台場","丁目名":null,"小字名":null,"地番":"557-23","精度区分":null,"座標系":"任意座標系"}},{"type":"Polygon","arcs":[[-2,-53,58,59]],"properties":{"市区町村名":"旭川市","大字名":"神居町台場","丁目名":null,"小字名":null,"地番":"557-24","精度区分":null,"座標系":"任意座標系"}},{"type":"Polygon","arcs":[[-59,-57,60,61]],"properties":{"市区町村名":"旭川市","大字名":"神居町台場","丁目名":null,"小字名":null,"地番":"557-25","精度区分":null,"座標系":"任意座標系"}},{"type":"Polygon","arcs":[[62,63,64,-18,65,66,67,68,69,70,71,72]],"properties":{"市区町村名":"旭川市","大字名":"神居町台場","丁目名":null,"小字名":null,"地番":"558-1","精度区分":null,"座標系":"任意座標系"}},{"type":"Polygon","arcs":[[73,74,75,76,77,78,79]],"properties":{"市区町村名":"旭川市","大字名":"神居町台場","丁目名":null,"小字名":null,"地番":"558-2","精度区分":null,"座標系":"任意座標系"}},{"type":"Polygon","arcs":[[80,-77,81,82,-67]],"properties":{"市区町村名":"旭川市","大字名":"神居町台場","丁目名":null,"小字名":null,"地番":"558-3","精度区分":null,"座標系":"任意座標系"}},{"type":"Polygon","arcs":[[83,84,-82,-76]],"properties":{"市区町村名":"旭川市","大字名":"神居町台場","丁目名":null,"小字名":null,"地番":"558-4","精度区分":null,"座標系":"任意座標系"}},{"type":"Polygon","arcs":[[85,86,-74,87,88,89]],"properties":{"市区町村名":"旭川市","大字名":"神居町台場","丁目名":null,"小字名":null,"地番":"558-5","精度区分":null,"座標系":"任意座標系"}},{"type":"Polygon","arcs":[[-83,90,-68]],"properties":{"市区町村名":"旭川市","大字名":"神居町台場","丁目名":null,"小字名":null,"地番":"558-6","精度区分":null,"座標系":"任意座標系"}},{"type":"Polygon","arcs":[[91,-69,-91,-85]],"properties":{"市区町村名":"旭川市","大字名":"神居町台場","丁目名":null,"小字名":null,"地番":"558-7","精度区分":null,"座標系":"任意座標系"}},{"type":"Polygon","arcs":[[92,-90,93,-71]],"properties":{"市区町村名":"旭川市","大字名":"神居町台場","丁目名":null,"小字名":null,"地番":"558-8","精度区分":null,"座標系":"任意座標系"}},{"type":"Polygon","arcs":[[-42,-65,94,95]],"properties":{"市区町村名":"旭川市","大字名":"神居町台場","丁目名":null,"小字名":null,"地番":"558-9","精度区分":null,"座標系":"任意座標系"}},{"type":"Polygon","arcs":[[96,97,-95,-64]],"properties":{"市区町村名":"旭川市","大字名":"神居町台場","丁目名":null,"小字名":null,"地番":"558-10","精度区分":null,"座標系":"任意座標系"}},{"type":"Polygon","arcs":[[98,-73,99,100,101]],"properties":{"市区町村名":"旭川市","大字名":"神居町台場","丁目名":null,"小字名":null,"地番":"558-11","精度区分":null,"座標系":"任意座標系"}},{"type":"Polygon","arcs":[[-101,102,103]],"properties":{"市区町村名":"旭川市","大字名":"神居町台場","丁目名":null,"小字名":null,"地番":"558-12","精度区分":null,"座標系":"任意座標系"}},{"type":"Polygon","arcs":[[-48,-96,104,105]],"properties":{"市区町村名":"旭川市","大字名":"神居町台場","丁目名":null,"小字名":null,"地番":"558-13","精度区分":null,"座標系":"任意座標系"}},{"type":"Polygon","arcs":[[106,107,-105,-98]],"properties":{"市区町村名":"旭川市","大字名":"神居町台場","丁目名":null,"小字名":null,"地番":"558-14","精度区分":null,"座標系":"任意座標系"}},{"type":"Polygon","arcs":[[108,-102,109,110]],"properties":{"市区町村名":"旭川市","大字名":"神居町台場","丁目名":null,"小字名":null,"地番":"558-15","精度区分":null,"座標系":"任意座標系"}},{"type":"Polygon","arcs":[[111,-110,-104,112]],"properties":{"市区町村名":"旭川市","大字名":"神居町台場","丁目名":null,"小字名":null,"地番":"558-16","精度区分":null,"座標系":"任意座標系"}},{"type":"Polygon","arcs":[[113,114,115,116,117,118,-21,-106,-108,119,-111,-112]],"properties":{"市区町村名":"旭川市","大字名":"神居町台場","丁目名":null,"小字名":null,"地番":"558-17","精度区分":null,"座標系":"任意座標系"}},{"type":"Polygon","arcs":[[-119,120,-54]],"properties":{"市区町村名":"旭川市","大字名":"神居町台場","丁目名":null,"小字名":null,"地番":"558-18","精度区分":null,"座標系":"任意座標系"}},{"type":"Polygon","arcs":[[121,122,-56,-121,-118]],"properties":{"市区町村名":"旭川市","大字名":"神居町台場","丁目名":null,"小字名":null,"地番":"558-19","精度区分":null,"座標系":"任意座標系"}},{"type":"Polygon","arcs":[[123,124,125,-116]],"properties":{"市区町村名":"旭川市","大字名":"神居町台場","丁目名":null,"小字名":null,"地番":"558-20","精度区分":null,"座標系":"任意座標系"}},{"type":"Polygon","arcs":[[126,127,128,-124,-115]],"properties":{"市区町村名":"旭川市","大字名":"神居町台場","丁目名":null,"小字名":null,"地番":"558-21","精度区分":null,"座標系":"任意座標系"}},{"type":"Polygon","arcs":[[129,130,-61,-123]],"properties":{"市区町村名":"旭川市","大字名":"神居町台場","丁目名":null,"小字名":null,"地番":"558-22","精度区分":null,"座標系":"任意座標系"}},{"type":"Polygon","arcs":[[131,132,133,134,-125]],"properties":{"市区町村名":"旭川市","大字名":"神居町台場","丁目名":null,"小字名":null,"地番":"558-23","精度区分":null,"座標系":"任意座標系"}},{"type":"Polygon","arcs":[[-132,-129,135,136]],"properties":{"市区町村名":"旭川市","大字名":"神居町台場","丁目名":null,"小字名":null,"地番":"558-24","精度区分":null,"座標系":"任意座標系"}},{"type":"Polygon","arcs":[[-136,-128,137,138]],"properties":{"市区町村名":"旭川市","大字名":"神居町台場","丁目名":null,"小字名":null,"地番":"558-25","精度区分":null,"座標系":"任意座標系"}},{"type":"Polygon","arcs":[[-87,139,-84,-75]],"properties":{"市区町村名":"旭川市","大字名":"神居町台場","丁目名":null,"小字名":null,"地番":"558-26","精度区分":null,"座標系":"任意座標系"}},{"type":"Polygon","arcs":[[-70,-92,-140,-86,-93]],"properties":{"市区町村名":"旭川市","大字名":"神居町台場","丁目名":null,"小字名":null,"地番":"558-27","精度区分":null,"座標系":"任意座標系"}},{"type":"Polygon","arcs":[[-97,-63,-99,140]],"properties":{"市区町村名":"旭川市","大字名":"神居町台場","丁目名":null,"小字名":null,"地番":"558-28","精度区分":null,"座標系":"任意座標系"}},{"type":"Polygon","arcs":[[-107,-141,-109,-120]],"properties":{"市区町村名":"旭川市","大字名":"神居町台場","丁目名":null,"小字名":null,"地番":"558-29","精度区分":null,"座標系":"任意座標系"}},{"type":"Polygon","arcs":[[-122,-117,-126,-135,141]],"properties":{"市区町村名":"旭川市","大字名":"神居町台場","丁目名":null,"小字名":null,"地番":"558-30","精度区分":null,"座標系":"任意座標系"}},{"type":"Polygon","arcs":[[-130,-142,-134,142]],"properties":{"市区町村名":"旭川市","大字名":"神居町台場","丁目名":null,"小字名":null,"地番":"558-31","精度区分":null,"座標系":"任意座標系"}},{"type":"Polygon","arcs":[[143,144,145,146,147,148,149,150,151,152,-114,153,154,155,156,157,158,159,160,161,162,163,164,165,-72,166,167,168,169,170,171,172,173,174,175,176,177,178,179,-88]],"properties":{"市区町村名":"旭川市","大字名":"神居町台場","丁目名":null,"小字名":null,"地番":"559-1","精度区分":null,"座標系":"任意座標系"}},{"type":"Polygon","arcs":[[180,-179,181,182]],"properties":{"市区町村名":"旭川市","大字名":"神居町台場","丁目名":null,"小字名":null,"地番":"559-2","精度区分":null,"座標系":"任意座標系"}},{"type":"Polygon","arcs":[[-182,-178,183,184]],"properties":{"市区町村名":"旭川市","大字名":"神居町台場","丁目名":null,"小字名":null,"地番":"559-3","精度区分":null,"座標系":"任意座標系"}},{"type":"Polygon","arcs":[[-184,-177,185,186]],"properties":{"市区町村名":"旭川市","大字名":"神居町台場","丁目名":null,"小字名":null,"地番":"559-4","精度区分":null,"座標系":"任意座標系"}},{"type":"Polygon","arcs":[[-186,-176,187,188]],"properties":{"市区町村名":"旭川市","大字名":"神居町台場","丁目名":null,"小字名":null,"地番":"559-5","精度区分":null,"座標系":"任意座標系"}},{"type":"Polygon","arcs":[[-188,-175,189,190]],"properties":{"市区町村名":"旭川市","大字名":"神居町台場","丁目名":null,"小字名":null,"地番":"559-6","精度区分":null,"座標系":"任意座標系"}},{"type":"Polygon","arcs":[[191,-190,-174]],"properties":{"市区町村名":"旭川市","大字名":"神居町台場","丁目名":null,"小字名":null,"地番":"559-7","精度区分":null,"座標系":"任意座標系"}},{"type":"Polygon","arcs":[[-173,192,-192]],"properties":{"市区町村名":"旭川市","大字名":"神居町台場","丁目名":null,"小字名":null,"地番":"559-8","精度区分":null,"座標系":"任意座標系"}},{"type":"Polygon","arcs":[[-193,-172,193,-191]],"properties":{"市区町村名":"旭川市","大字名":"神居町台場","丁目名":null,"小字名":null,"地番":"559-9","精度区分":null,"座標系":"任意座標系"}},{"type":"Polygon","arcs":[[194,-189,-194,-171]],"properties":{"市区町村名":"旭川市","大字名":"神居町台場","丁目名":null,"小字名":null,"地番":"559-10","精度区分":null,"座標系":"任意座標系"}},{"type":"Polygon","arcs":[[-195,-170,195,-187]],"properties":{"市区町村名":"旭川市","大字名":"神居町台場","丁目名":null,"小字名":null,"地番":"559-11","精度区分":null,"座標系":"任意座標系"}},{"type":"Polygon","arcs":[[196,-185,-196,-169]],"properties":{"市区町村名":"旭川市","大字名":"神居町台場","丁目名":null,"小字名":null,"地番":"559-12","精度区分":null,"座標系":"任意座標系"}},{"type":"Polygon","arcs":[[-197,-168,197,-183]],"properties":{"市区町村名":"旭川市","大字名":"神居町台場","丁目名":null,"小字名":null,"地番":"559-13","精度区分":null,"座標系":"任意座標系"}},{"type":"Polygon","arcs":[[-198,-167,-94,198]],"properties":{"市区町村名":"旭川市","大字名":"神居町台場","丁目名":null,"小字名":null,"地番":"559-14","精度区分":null,"座標系":"任意座標系"}},{"type":"Polygon","arcs":[[199,-100,-166]],"properties":{"市区町村名":"旭川市","大字名":"神居町台場","丁目名":null,"小字名":null,"地番":"559-15","精度区分":null,"座標系":"任意座標系"}},{"type":"Polygon","arcs":[[-165,200,201,-103,-200]],"properties":{"市区町村名":"旭川市","大字名":"神居町台場","丁目名":null,"小字名":null,"地番":"559-16","精度区分":null,"座標系":"任意座標系"}},{"type":"Polygon","arcs":[[202,203,-201,-164]],"properties":{"市区町村名":"旭川市","大字名":"神居町台場","丁目名":null,"小字名":null,"地番":"559-17","精度区分":null,"座標系":"任意座標系"}},{"type":"Polygon","arcs":[[204,205,-203,-163]],"properties":{"市区町村名":"旭川市","大字名":"神居町台場","丁目名":null,"小字名":null,"地番":"559-18","精度区分":null,"座標系":"任意座標系"}},{"type":"Polygon","arcs":[[-205,-162,206,207]],"properties":{"市区町村名":"旭川市","大字名":"神居町台場","丁目名":null,"小字名":null,"地番":"559-19","精度区分":null,"座標系":"任意座標系"}},{"type":"Polygon","arcs":[[208,209,-207,-161]],"properties":{"市区町村名":"旭川市","大字名":"神居町台場","丁目名":null,"小字名":null,"地番":"559-20","精度区分":null,"座標系":"任意座標系"}},{"type":"Polygon","arcs":[[-160,210,-209]],"properties":{"市区町村名":"旭川市","大字名":"神居町台場","丁目名":null,"小字名":null,"地番":"559-21","精度区分":null,"座標系":"任意座標系"}},{"type":"Polygon","arcs":[[-159,211,-211]],"properties":{"市区町村名":"旭川市","大字名":"神居町台場","丁目名":null,"小字名":null,"地番":"559-22","精度区分":null,"座標系":"任意座標系"}},{"type":"Polygon","arcs":[[-212,-158,212,-210]],"properties":{"市区町村名":"旭川市","大字名":"神居町台場","丁目名":null,"小字名":null,"地番":"559-23","精度区分":null,"座標系":"任意座標系"}},{"type":"Polygon","arcs":[[213,-208,-213,-157]],"properties":{"市区町村名":"旭川市","大字名":"神居町台場","丁目名":null,"小字名":null,"地番":"559-24","精度区分":null,"座標系":"任意座標系"}},{"type":"Polygon","arcs":[[-214,-156,214,-206]],"properties":{"市区町村名":"旭川市","大字名":"神居町台場","丁目名":null,"小字名":null,"地番":"559-25","精度区分":null,"座標系":"任意座標系"}},{"type":"Polygon","arcs":[[-215,-155,215,-204]],"properties":{"市区町村名":"旭川市","大字名":"神居町台場","丁目名":null,"小字名":null,"地番":"559-26","精度区分":null,"座標系":"任意座標系"}},{"type":"Polygon","arcs":[[-202,-216,-154,-113]],"properties":{"市区町村名":"旭川市","大字名":"神居町台場","丁目名":null,"小字名":null,"地番":"559-27","精度区分":null,"座標系":"任意座標系"}},{"type":"Polygon","arcs":[[-127,-153,216,217]],"properties":{"市区町村名":"旭川市","大字名":"神居町台場","丁目名":null,"小字名":null,"地番":"559-28","精度区分":null,"座標系":"任意座標系"}},{"type":"Polygon","arcs":[[218,219,-217,-152]],"properties":{"市区町村名":"旭川市","大字名":"神居町台場","丁目名":null,"小字名":null,"地番":"559-29","精度区分":null,"座標系":"任意座標系"}},{"type":"Polygon","arcs":[[-219,-151,220,221]],"properties":{"市区町村名":"旭川市","大字名":"神居町台場","丁目名":null,"小字名":null,"地番":"559-30","精度区分":null,"座標系":"任意座標系"}},{"type":"Polygon","arcs":[[222,223,-221,-150]],"properties":{"市区町村名":"旭川市","大字名":"神居町台場","丁目名":null,"小字名":null,"地番":"559-31","精度区分":null,"座標系":"任意座標系"}},{"type":"Polygon","arcs":[[-223,-149,224,225]],"properties":{"市区町村名":"旭川市","大字名":"神居町台場","丁目名":null,"小字名":null,"地番":"559-32","精度区分":null,"座標系":"任意座標系"}},{"type":"Polygon","arcs":[[226,-225,-148]],"properties":{"市区町村名":"旭川市","大字名":"神居町台場","丁目名":null,"小字名":null,"地番":"559-33","精度区分":null,"座標系":"任意座標系"}},{"type":"Polygon","arcs":[[-147,227,228,-227]],"properties":{"市区町村名":"旭川市","大字名":"神居町台場","丁目名":null,"小字名":null,"地番":"559-34","精度区分":null,"座標系":"任意座標系"}},{"type":"Polygon","arcs":[[229,-226,-229,230]],"properties":{"市区町村名":"旭川市","大字名":"神居町台場","丁目名":null,"小字名":null,"地番":"559-35","精度区分":null,"座標系":"任意座標系"}},{"type":"Polygon","arcs":[[-230,231,232,-224]],"properties":{"市区町村名":"旭川市","大字名":"神居町台場","丁目名":null,"小字名":null,"地番":"559-36","精度区分":null,"座標系":"任意座標系"}},{"type":"Polygon","arcs":[[233,-222,-233,234]],"properties":{"市区町村名":"旭川市","大字名":"神居町台場","丁目名":null,"小字名":null,"地番":"559-37","精度区分":null,"座標系":"任意座標系"}},{"type":"Polygon","arcs":[[-220,-234,235,-138,-218]],"properties":{"市区町村名":"旭川市","大字名":"神居町台場","丁目名":null,"小字名":null,"地番":"559-38","精度区分":null,"座標系":"任意座標系"}},{"type":"Polygon","arcs":[[-199,-89,-180,-181]],"properties":{"市区町村名":"旭川市","大字名":"神居町台場","丁目名":null,"小字名":null,"地番":"559-39","精度区分":null,"座標系":"任意座標系"}},{"type":"Polygon","arcs":[[236,237,238,239,240,241,242,243,244,245,246,247,-145,248,249,250,251,252,253,254,255,256,257,258,259,260,261,262,263,264,265,266,267,268,269,270,271,272,273,274,275,276]],"properties":{"市区町村名":"旭川市","大字名":"神居町台場","丁目名":null,"小字名":null,"地番":"560-1","精度区分":null,"座標系":"任意座標系"}},{"type":"Polygon","arcs":[[277,278,-256]],"properties":{"市区町村名":"旭川市","大字名":"神居町台場","丁目名":null,"小字名":null,"地番":"560-2","精度区分":null,"座標系":"任意座標系"}},{"type":"Polygon","arcs":[[-278,-255,279,280]],"properties":{"市区町村名":"旭川市","大字名":"神居町台場","丁目名":null,"小字名":null,"地番":"560-3","精度区分":null,"座標系":"任意座標系"}},{"type":"Polygon","arcs":[[281,282,-280,-254]],"properties":{"市区町村名":"旭川市","大字名":"神居町台場","丁目名":null,"小字名":null,"地番":"560-4","精度区分":null,"座標系":"任意座標系"}},{"type":"Polygon","arcs":[[-282,-253,283,284]],"properties":{"市区町村名":"旭川市","大字名":"神居町台場","丁目名":null,"小字名":null,"地番":"560-5","精度区分":null,"座標系":"任意座標系"}},{"type":"Polygon","arcs":[[285,286,-284,-252]],"properties":{"市区町村名":"旭川市","大字名":"神居町台場","丁目名":null,"小字名":null,"地番":"560-6","精度区分":null,"座標系":"任意座標系"}},{"type":"Polygon","arcs":[[287,288,289,-286,-251]],"properties":{"市区町村名":"旭川市","大字名":"神居町台場","丁目名":null,"小字名":null,"地番":"560-7","精度区分":null,"座標系":"任意座標系"}},{"type":"Polygon","arcs":[[290,-257,-279]],"properties":{"市区町村名":"旭川市","大字名":"神居町台場","丁目名":null,"小字名":null,"地番":"560-8","精度区分":null,"座標系":"任意座標系"}},{"type":"Polygon","arcs":[[-291,-281,291,-258]],"properties":{"市区町村名":"旭川市","大字名":"神居町台場","丁目名":null,"小字名":null,"地番":"560-9","精度区分":null,"座標系":"任意座標系"}},{"type":"Polygon","arcs":[[292,-259,-292,-283]],"properties":{"市区町村名":"旭川市","大字名":"神居町台場","丁目名":null,"小字名":null,"地番":"560-10","精度区分":null,"座標系":"任意座標系"}},{"type":"Polygon","arcs":[[-293,-285,293,-260]],"properties":{"市区町村名":"旭川市","大字名":"神居町台場","丁目名":null,"小字名":null,"地番":"560-11","精度区分":null,"座標系":"任意座標系"}},{"type":"Polygon","arcs":[[294,-261,-294,-287]],"properties":{"市区町村名":"旭川市","大字名":"神居町台場","丁目名":null,"小字名":null,"地番":"560-12","精度区分":null,"座標系":"任意座標系"}},{"type":"Polygon","arcs":[[295,-262,-295,-290]],"properties":{"市区町村名":"旭川市","大字名":"神居町台場","丁目名":null,"小字名":null,"地番":"560-13","精度区分":null,"座標系":"任意座標系"}},{"type":"Polygon","arcs":[[-269,296,297]],"properties":{"市区町村名":"旭川市","大字名":"神居町台場","丁目名":null,"小字名":null,"地番":"560-14","精度区分":null,"座標系":"任意座標系"}},{"type":"Polygon","arcs":[[298,299,-297,-268]],"properties":{"市区町村名":"旭川市","大字名":"神居町台場","丁目名":null,"小字名":null,"地番":"560-15","精度区分":null,"座標系":"任意座標系"}},{"type":"Polygon","arcs":[[300,301,-299,-267]],"properties":{"市区町村名":"旭川市","大字名":"神居町台場","丁目名":null,"小字名":null,"地番":"560-16","精度区分":null,"座標系":"任意座標系"}},{"type":"Polygon","arcs":[[-301,-266,302,303]],"properties":{"市区町村名":"旭川市","大字名":"神居町台場","丁目名":null,"小字名":null,"地番":"560-17","精度区分":null,"座標系":"任意座標系"}},{"type":"Polygon","arcs":[[304,305,-303,-265]],"properties":{"市区町村名":"旭川市","大字名":"神居町台場","丁目名":null,"小字名":null,"地番":"560-18","精度区分":null,"座標系":"任意座標系"}},{"type":"Polygon","arcs":[[-264,306,307,308,-305]],"properties":{"市区町村名":"旭川市","大字名":"神居町台場","丁目名":null,"小字名":null,"地番":"560-19","精度区分":null,"座標系":"任意座標系"}},{"type":"Polygon","arcs":[[-298,309,-270]],"properties":{"市区町村名":"旭川市","大字名":"神居町台場","丁目名":null,"小字名":null,"地番":"560-20","精度区分":null,"座標系":"任意座標系"}},{"type":"Polygon","arcs":[[310,-271,-310,-300]],"properties":{"市区町村名":"旭川市","大字名":"神居町台場","丁目名":null,"小字名":null,"地番":"560-21","精度区分":null,"座標系":"任意座標系"}},{"type":"Polygon","arcs":[[-311,-302,311,-272]],"properties":{"市区町村名":"旭川市","大字名":"神居町台場","丁目名":null,"小字名":null,"地番":"560-22","精度区分":null,"座標系":"任意座標系"}},{"type":"Polygon","arcs":[[312,-273,-312,-304]],"properties":{"市区町村名":"旭川市","大字名":"神居町台場","丁目名":null,"小字名":null,"地番":"560-23","精度区分":null,"座標系":"任意座標系"}},{"type":"Polygon","arcs":[[313,-274,-313,-306]],"properties":{"市区町村名":"旭川市","大字名":"神居町台場","丁目名":null,"小字名":null,"地番":"560-24","精度区分":null,"座標系":"任意座標系"}},{"type":"Polygon","arcs":[[314,315,316,-275,-314,-309]],"properties":{"市区町村名":"旭川市","大字名":"神居町台場","丁目名":null,"小字名":null,"地番":"560-25","精度区分":null,"座標系":"任意座標系"}},{"type":"Polygon","arcs":[[317,318,-242]],"properties":{"市区町村名":"旭川市","大字名":"神居町台場","丁目名":null,"小字名":null,"地番":"560-26","精度区分":null,"座標系":"任意座標系"}},{"type":"Polygon","arcs":[[319,320,-318,-241]],"properties":{"市区町村名":"旭川市","大字名":"神居町台場","丁目名":null,"小字名":null,"地番":"560-27","精度区分":null,"座標系":"任意座標系"}},{"type":"Polygon","arcs":[[321,322,-320,-240]],"properties":{"市区町村名":"旭川市","大字名":"神居町台場","丁目名":null,"小字名":null,"地番":"560-28","精度区分":null,"座標系":"任意座標系"}},{"type":"Polygon","arcs":[[323,324,-322,-239]],"properties":{"市区町村名":"旭川市","大字名":"神居町台場","丁目名":null,"小字名":null,"地番":"560-29","精度区分":null,"座標系":"任意座標系"}},{"type":"Polygon","arcs":[[325,326,-324,-238]],"properties":{"市区町村名":"旭川市","大字名":"神居町台場","丁目名":null,"小字名":null,"地番":"560-30","精度区分":null,"座標系":"任意座標系"}},{"type":"Polygon","arcs":[[327,328,329,330,-326,-237]],"properties":{"市区町村名":"旭川市","大字名":"神居町台場","丁目名":null,"小字名":null,"地番":"560-31","精度区分":null,"座標系":"任意座標系"}},{"type":"Polygon","arcs":[[-243,-319,331]],"properties":{"市区町村名":"旭川市","大字名":"神居町台場","丁目名":null,"小字名":null,"地番":"560-32","精度区分":null,"座標系":"任意座標系"}},{"type":"Polygon","arcs":[[332,-244,-332,-321]],"properties":{"市区町村名":"旭川市","大字名":"神居町台場","丁目名":null,"小字名":null,"地番":"560-33","精度区分":null,"座標系":"任意座標系"}},{"type":"Polygon","arcs":[[333,-245,-333,-323]],"properties":{"市区町村名":"旭川市","大字名":"神居町台場","丁目名":null,"小字名":null,"地番":"560-34","精度区分":null,"座標系":"任意座標系"}},{"type":"Polygon","arcs":[[-247,334,-327,-331,335,336]],"properties":{"市区町村名":"旭川市","大字名":"神居町台場","丁目名":null,"小字名":null,"地番":"560-35","精度区分":null,"座標系":"任意座標系"}},{"type":"Polygon","arcs":[[-335,-246,-334,-325]],"properties":{"市区町村名":"旭川市","大字名":"神居町台場","丁目名":null,"小字名":null,"地番":"560-36","精度区分":null,"座標系":"任意座標系"}},{"type":"Polygon","arcs":[[337,338,339,340,-336,-330]],"properties":{"市区町村名":"旭川市","大字名":"神居町台場","丁目名":null,"小字名":null,"地番":"560-37","精度区分":null,"座標系":"任意座標系"}},{"type":"Polygon","arcs":[[341,342,343,-338,-329,344]],"properties":{"市区町村名":"旭川市","大字名":"神居町台場","丁目名":null,"小字名":null,"地番":"561-1","精度区分":null,"座標系":"任意座標系"}},{"type":"Polygon","arcs":[[345,346,-307,-263,-296,-289,347]],"properties":{"市区町村名":"旭川市","大字名":"神居町台場","丁目名":null,"小字名":null,"地番":"561-2","精度区分":null,"座標系":"任意座標系"}},{"type":"Polygon","arcs":[[-288,-250,348,349,-348]],"properties":{"市区町村名":"旭川市","大字名":"神居町台場","丁目名":null,"小字名":null,"地番":"561-3","精度区分":null,"座標系":"任意座標系"}},{"type":"Polygon","arcs":[[350,351,352,-276,-317]],"properties":{"市区町村名":"旭川市","大字名":"神居町台場","丁目名":null,"小字名":null,"地番":"561-4","精度区分":null,"座標系":"任意座標系"}},{"type":"Polygon","arcs":[[-351,-316,353,354]],"properties":{"市区町村名":"旭川市","大字名":"神居町台場","丁目名":null,"小字名":null,"地番":"561-5","精度区分":null,"座標系":"任意座標系"}},{"type":"Polygon","arcs":[[355,-354,-315,-308,-347]],"properties":{"市区町村名":"旭川市","大字名":"神居町台場","丁目名":null,"小字名":null,"地番":"561-6","精度区分":null,"座標系":"任意座標系"}},{"type":"Polygon","arcs":[[356,-339,-344]],"properties":{"市区町村名":"旭川市","大字名":"神居町台場","丁目名":null,"小字名":null,"地番":"561-7","精度区分":null,"座標系":"任意座標系"}},{"type":"Polygon","arcs":[[-343,357,358,-340,-357]],"properties":{"市区町村名":"旭川市","大字名":"神居町台場","丁目名":null,"小字名":null,"地番":"561-8","精度区分":null,"座標系":"任意座標系"}},{"type":"Polygon","arcs":[[-277,-353,359,-345,-328]],"properties":{"市区町村名":"旭川市","大字名":"神居町台場","丁目名":null,"小字名":null,"地番":"561-9","精度区分":null,"座標系":"任意座標系"}},{"type":"Polygon","arcs":[[360,361,362,363,364,365,366,367,368,369,370,371,372,373,374,375,376,377,378,379,380,381,382,383,384,385,386,387,388,389,390,391,392]],"properties":{"市区町村名":"旭川市","大字名":"神居町台場","丁目名":null,"小字名":null,"地番":"562-1","精度区分":null,"座標系":"任意座標系"}},{"type":"Polygon","arcs":[[393,394,395,396]],"properties":{"市区町村名":"旭川市","大字名":"神居町台場","丁目名":null,"小字名":null,"地番":"562-2","精度区分":null,"座標系":"任意座標系"}},{"type":"Polygon","arcs":[[-396,397,398,399]],"properties":{"市区町村名":"旭川市","大字名":"神居町台場","丁目名":null,"小字名":null,"地番":"562-3","精度区分":null,"座標系":"任意座標系"}},{"type":"Polygon","arcs":[[-399,400,401,402]],"properties":{"市区町村名":"旭川市","大字名":"神居町台場","丁目名":null,"小字名":null,"地番":"562-4","精度区分":null,"座標系":"任意座標系"}},{"type":"Polygon","arcs":[[403,404,-402,405]],"properties":{"市区町村名":"旭川市","大字名":"神居町台場","丁目名":null,"小字名":null,"地番":"562-5","精度区分":null,"座標系":"任意座標系"}},{"type":"Polygon","arcs":[[406,407,-404,408]],"properties":{"市区町村名":"旭川市","大字名":"神居町台場","丁目名":null,"小字名":null,"地番":"562-6","精度区分":null,"座標系":"任意座標系"}},{"type":"Polygon","arcs":[[-79,409,410,-407,411]],"properties":{"市区町村名":"旭川市","大字名":"神居町台場","丁目名":null,"小字名":null,"地番":"562-7","精度区分":null,"座標系":"任意座標系"}},{"type":"Polygon","arcs":[[-370,412,413]],"properties":{"市区町村名":"旭川市","大字名":"神居町台場","丁目名":null,"小字名":null,"地番":"562-8","精度区分":null,"座標系":"任意座標系"}},{"type":"Polygon","arcs":[[-414,-397,414,-371]],"properties":{"市区町村名":"旭川市","大字名":"神居町台場","丁目名":null,"小字名":null,"地番":"562-9","精度区分":null,"座標系":"任意座標系"}},{"type":"Polygon","arcs":[[-415,-400,415,-372]],"properties":{"市区町村名":"旭川市","大字名":"神居町台場","丁目名":null,"小字名":null,"地番":"562-10","精度区分":null,"座標系":"任意座標系"}},{"type":"Polygon","arcs":[[-416,-403,416,-373]],"properties":{"市区町村名":"旭川市","大字名":"神居町台場","丁目名":null,"小字名":null,"地番":"562-11","精度区分":null,"座標系":"任意座標系"}},{"type":"Polygon","arcs":[[417,-374,-417,-405]],"properties":{"市区町村名":"旭川市","大字名":"神居町台場","丁目名":null,"小字名":null,"地番":"562-12","精度区分":null,"座標系":"任意座標系"}},{"type":"Polygon","arcs":[[418,-375,-418,-408]],"properties":{"市区町村名":"旭川市","大字名":"神居町台場","丁目名":null,"小字名":null,"地番":"562-13","精度区分":null,"座標系":"任意座標系"}},{"type":"Polygon","arcs":[[419,-376,-419,-411]],"properties":{"市区町村名":"旭川市","大字名":"神居町台場","丁目名":null,"小字名":null,"地番":"562-14","精度区分":null,"座標系":"任意座標系"}},{"type":"Polygon","arcs":[[420,421,-384]],"properties":{"市区町村名":"旭川市","大字名":"神居町台場","丁目名":null,"小字名":null,"地番":"562-15","精度区分":null,"座標系":"任意座標系"}},{"type":"Polygon","arcs":[[-421,-383,422,423]],"properties":{"市区町村名":"旭川市","大字名":"神居町台場","丁目名":null,"小字名":null,"地番":"562-16","精度区分":null,"座標系":"任意座標系"}},{"type":"Polygon","arcs":[[424,425,-423,-382]],"properties":{"市区町村名":"旭川市","大字名":"神居町台場","丁目名":null,"小字名":null,"地番":"562-17","精度区分":null,"座標系":"任意座標系"}},{"type":"Polygon","arcs":[[426,-425,-381,427]],"properties":{"市区町村名":"旭川市","大字名":"神居町台場","丁目名":null,"小字名":null,"地番":"562-18","精度区分":null,"座標系":"任意座標系"}},{"type":"Polygon","arcs":[[428,429,-428,-380]],"properties":{"市区町村名":"旭川市","大字名":"神居町台場","丁目名":null,"小字名":null,"地番":"562-19","精度区分":null,"座標系":"任意座標系"}},{"type":"Polygon","arcs":[[430,431,-429,-379]],"properties":{"市区町村名":"旭川市","大字名":"神居町台場","丁目名":null,"小字名":null,"地番":"562-20","精度区分":null,"座標系":"任意座標系"}},{"type":"Polygon","arcs":[[432,433,-431,-378]],"properties":{"市区町村名":"旭川市","大字名":"神居町台場","丁目名":null,"小字名":null,"地番":"562-21","精度区分":null,"座標系":"任意座標系"}},{"type":"Polygon","arcs":[[-385,-422,434]],"properties":{"市区町村名":"旭川市","大字名":"神居町台場","丁目名":null,"小字名":null,"地番":"562-22","精度区分":null,"座標系":"任意座標系"}},{"type":"Polygon","arcs":[[-435,-424,435,-386]],"properties":{"市区町村名":"旭川市","大字名":"神居町台場","丁目名":null,"小字名":null,"地番":"562-23","精度区分":null,"座標系":"任意座標系"}},{"type":"Polygon","arcs":[[436,-387,-436,-426]],"properties":{"市区町村名":"旭川市","大字名":"神居町台場","丁目名":null,"小字名":null,"地番":"562-24","精度区分":null,"座標系":"任意座標系"}},{"type":"Polygon","arcs":[[437,-388,-437,-427]],"properties":{"市区町村名":"旭川市","大字名":"神居町台場","丁目名":null,"小字名":null,"地番":"562-25","精度区分":null,"座標系":"任意座標系"}},{"type":"Polygon","arcs":[[-438,-430,438,-389]],"properties":{"市区町村名":"旭川市","大字名":"神居町台場","丁目名":null,"小字名":null,"地番":"562-26","精度区分":null,"座標系":"任意座標系"}},{"type":"Polygon","arcs":[[439,440,-390,-439,-432]],"properties":{"市区町村名":"旭川市","大字名":"神居町台場","丁目名":null,"小字名":null,"地番":"562-27","精度区分":null,"座標系":"任意座標系"}},{"type":"Polygon","arcs":[[441,-440,-434]],"properties":{"市区町村名":"旭川市","大字名":"神居町台場","丁目名":null,"小字名":null,"地番":"562-28","精度区分":null,"座標系":"任意座標系"}},{"type":"Polygon","arcs":[[-364,442,443]],"properties":{"市区町村名":"旭川市","大字名":"神居町台場","丁目名":null,"小字名":null,"地番":"562-29","精度区分":null,"座標系":"任意座標系"}},{"type":"Polygon","arcs":[[444,445,-443,-363]],"properties":{"市区町村名":"旭川市","大字名":"神居町台場","丁目名":null,"小字名":null,"地番":"562-30","精度区分":null,"座標系":"任意座標系"}},{"type":"Polygon","arcs":[[-445,-362,446,447]],"properties":{"市区町村名":"旭川市","大字名":"神居町台場","丁目名":null,"小字名":null,"地番":"562-31","精度区分":null,"座標系":"任意座標系"}},{"type":"Polygon","arcs":[[448,449,-447,-361]],"properties":{"市区町村名":"旭川市","大字名":"神居町台場","丁目名":null,"小字名":null,"地番":"562-32","精度区分":null,"座標系":"任意座標系"}},{"type":"Polygon","arcs":[[450,451,-449,-393]],"properties":{"市区町村名":"旭川市","大字名":"神居町台場","丁目名":null,"小字名":null,"地番":"562-33","精度区分":null,"座標系":"任意座標系"}},{"type":"Polygon","arcs":[[452,453,-451,-392]],"properties":{"市区町村名":"旭川市","大字名":"神居町台場","丁目名":null,"小字名":null,"地番":"562-34","精度区分":null,"座標系":"任意座標系"}},{"type":"Polygon","arcs":[[-365,-444,454,455]],"properties":{"市区町村名":"旭川市","大字名":"神居町台場","丁目名":null,"小字名":null,"地番":"562-35","精度区分":null,"座標系":"任意座標系"}},{"type":"Polygon","arcs":[[456,457,-455,-446]],"properties":{"市区町村名":"旭川市","大字名":"神居町台場","丁目名":null,"小字名":null,"地番":"562-36","精度区分":null,"座標系":"任意座標系"}},{"type":"Polygon","arcs":[[-457,-448,458,459]],"properties":{"市区町村名":"旭川市","大字名":"神居町台場","丁目名":null,"小字名":null,"地番":"562-37","精度区分":null,"座標系":"任意座標系"}},{"type":"Polygon","arcs":[[460,461,-459,-450]],"properties":{"市区町村名":"旭川市","大字名":"神居町台場","丁目名":null,"小字名":null,"地番":"562-38","精度区分":null,"座標系":"任意座標系"}},{"type":"Polygon","arcs":[[462,463,-461,-452]],"properties":{"市区町村名":"旭川市","大字名":"神居町台場","丁目名":null,"小字名":null,"地番":"562-39","精度区分":null,"座標系":"任意座標系"}},{"type":"Polygon","arcs":[[464,-463,-454,465]],"properties":{"市区町村名":"旭川市","大字名":"神居町台場","丁目名":null,"小字名":null,"地番":"562-40","精度区分":null,"座標系":"任意座標系"}},{"type":"Polygon","arcs":[[-369,466,-394,-413]],"properties":{"市区町村名":"旭川市","大字名":"神居町台場","丁目名":null,"小字名":null,"地番":"562-41","精度区分":null,"座標系":"任意座標系"}},{"type":"Polygon","arcs":[[467,-367,468,469,470,471,472,473,474,475,476,477,478,479,480,481,482,483,484,485,486,487,488,489]],"properties":{"市区町村名":"旭川市","大字名":"神居町台場","丁目名":null,"小字名":null,"地番":"563-1","精度区分":null,"座標系":"任意座標系"}},{"type":"Polygon","arcs":[[490,491,492,-470]],"properties":{"市区町村名":"旭川市","大字名":"神居町台場","丁目名":null,"小字名":null,"地番":"563-2","精度区分":null,"座標系":"任意座標系"}},{"type":"Polygon","arcs":[[493,494,495,496,-492]],"properties":{"市区町村名":"旭川市","大字名":"神居町台場","丁目名":null,"小字名":null,"地番":"563-3","精度区分":null,"座標系":"任意座標系"}},{"type":"Polygon","arcs":[[497,-495,498]],"properties":{"市区町村名":"旭川市","大字名":"神居町台場","丁目名":null,"小字名":null,"地番":"563-4","精度区分":null,"座標系":"任意座標系"}},{"type":"Polygon","arcs":[[499,-473,500,-498]],"properties":{"市区町村名":"旭川市","大字名":"神居町台場","丁目名":null,"小字名":null,"地番":"563-5","精度区分":null,"座標系":"任意座標系"}},{"type":"Polygon","arcs":[[-501,-472,501,-496]],"properties":{"市区町村名":"旭川市","大字名":"神居町台場","丁目名":null,"小字名":null,"地番":"563-6","精度区分":null,"座標系":"任意座標系"}},{"type":"Polygon","arcs":[[-493,-497,-502,-471]],"properties":{"市区町村名":"旭川市","大字名":"神居町台場","丁目名":null,"小字名":null,"地番":"563-7","精度区分":null,"座標系":"任意座標系"}},{"type":"Polygon","arcs":[[-479,502,503]],"properties":{"市区町村名":"旭川市","大字名":"神居町台場","丁目名":null,"小字名":null,"地番":"563-8","精度区分":null,"座標系":"任意座標系"}},{"type":"Polygon","arcs":[[504,505,506,-477]],"properties":{"市区町村名":"旭川市","大字名":"神居町台場","丁目名":null,"小字名":null,"地番":"563-9","精度区分":null,"座標系":"任意座標系"}},{"type":"Polygon","arcs":[[-505,-476,507,508]],"properties":{"市区町村名":"旭川市","大字名":"神居町台場","丁目名":null,"小字名":null,"地番":"563-10","精度区分":null,"座標系":"任意座標系"}},{"type":"Polygon","arcs":[[-475,509,510,-508]],"properties":{"市区町村名":"旭川市","大字名":"神居町台場","丁目名":null,"小字名":null,"地番":"563-11","精度区分":null,"座標系":"任意座標系"}},{"type":"Polygon","arcs":[[511,-483,512,-511]],"properties":{"市区町村名":"旭川市","大字名":"神居町台場","丁目名":null,"小字名":null,"地番":"563-12","精度区分":null,"座標系":"任意座標系"}},{"type":"Polygon","arcs":[[513,-509,-513,-482]],"properties":{"市区町村名":"旭川市","大字名":"神居町台場","丁目名":null,"小字名":null,"地番":"563-13","精度区分":null,"座標系":"任意座標系"}},{"type":"Polygon","arcs":[[-514,-481,514,-506]],"properties":{"市区町村名":"旭川市","大字名":"神居町台場","丁目名":null,"小字名":null,"地番":"563-14","精度区分":null,"座標系":"任意座標系"}},{"type":"Polygon","arcs":[[515,-515,-480,-504]],"properties":{"市区町村名":"旭川市","大字名":"神居町台場","丁目名":null,"小字名":null,"地番":"563-15","精度区分":null,"座標系":"任意座標系"}},{"type":"Polygon","arcs":[[516,517,-489]],"properties":{"市区町村名":"旭川市","大字名":"神居町台場","丁目名":null,"小字名":null,"地番":"563-16","精度区分":null,"座標系":"任意座標系"}},{"type":"Polygon","arcs":[[518,519,-517,-488]],"properties":{"市区町村名":"旭川市","大字名":"神居町台場","丁目名":null,"小字名":null,"地番":"563-17","精度区分":null,"座標系":"任意座標系"}},{"type":"Polygon","arcs":[[-519,-487,520,521]],"properties":{"市区町村名":"旭川市","大字名":"神居町台場","丁目名":null,"小字名":null,"地番":"563-18","精度区分":null,"座標系":"任意座標系"}},{"type":"Polygon","arcs":[[522,523,-521,-486]],"properties":{"市区町村名":"旭川市","大字名":"神居町台場","丁目名":null,"小字名":null,"地番":"563-19","精度区分":null,"座標系":"任意座標系"}},{"type":"Polygon","arcs":[[524,525,-523,-485]],"properties":{"市区町村名":"旭川市","大字名":"神居町台場","丁目名":null,"小字名":null,"地番":"563-20","精度区分":null,"座標系":"任意座標系"}},{"type":"Polygon","arcs":[[526,527,528]],"properties":{"市区町村名":"旭川市","大字名":"神居町台場","丁目名":null,"小字名":null,"地番":"563-21","精度区分":null,"座標系":"任意座標系"}},{"type":"Polygon","arcs":[[529,-528,530,531,-526]],"properties":{"市区町村名":"旭川市","大字名":"神居町台場","丁目名":null,"小字名":null,"地番":"563-22","精度区分":null,"座標系":"任意座標系"}},{"type":"Polygon","arcs":[[-532,532,533,-524]],"properties":{"市区町村名":"旭川市","大字名":"神居町台場","丁目名":null,"小字名":null,"地番":"563-23","精度区分":null,"座標系":"任意座標系"}},{"type":"Polygon","arcs":[[534,-522,-534,535]],"properties":{"市区町村名":"旭川市","大字名":"神居町台場","丁目名":null,"小字名":null,"地番":"563-24","精度区分":null,"座標系":"任意座標系"}},{"type":"Polygon","arcs":[[-535,536,537,-520]],"properties":{"市区町村名":"旭川市","大字名":"神居町台場","丁目名":null,"小字名":null,"地番":"563-25","精度区分":null,"座標系":"任意座標系"}},{"type":"Polygon","arcs":[[-538,538,-490,-518]],"properties":{"市区町村名":"旭川市","大字名":"神居町台場","丁目名":null,"小字名":null,"地番":"563-26","精度区分":null,"座標系":"任意座標系"}},{"type":"Polygon","arcs":[[-503,-478,-507,-516]],"properties":{"市区町村名":"旭川市","大字名":"神居町台場","丁目名":null,"小字名":null,"地番":"563-27","精度区分":null,"座標系":"任意座標系"}},{"type":"Polygon","arcs":[[539,540,541]],"properties":{"市区町村名":"旭川市","大字名":"神居町台場","丁目名":null,"小字名":null,"地番":"564-1","精度区分":null,"座標系":"任意座標系"}},{"type":"Polygon","arcs":[[542,543,544]],"properties":{"市区町村名":"旭川市","大字名":"神居町台場","丁目名":null,"小字名":null,"地番":"564-2","精度区分":null,"座標系":"任意座標系"}},{"type":"Polygon","arcs":[[545,-542,546,-544]],"properties":{"市区町村名":"旭川市","大字名":"神居町台場","丁目名":null,"小字名":null,"地番":"564-3","精度区分":null,"座標系":"任意座標系"}},{"type":"Polygon","arcs":[[547,548,549]],"properties":{"市区町村名":"旭川市","大字名":"神居町台場","丁目名":null,"小字名":null,"地番":"565","精度区分":null,"座標系":"任意座標系"}},{"type":"Polygon","arcs":[[550,551,552,553,554,555]],"properties":{"市区町村名":"旭川市","大字名":"神居町台場","丁目名":null,"小字名":null,"地番":"566-1","精度区分":null,"座標系":"任意座標系"}},{"type":"Polygon","arcs":[[556,557,-556]],"properties":{"市区町村名":"旭川市","大字名":"神居町台場","丁目名":null,"小字名":null,"地番":"566-2","精度区分":null,"座標系":"任意座標系"}},{"type":"Polygon","arcs":[[-552,558]],"properties":{"市区町村名":"旭川市","大字名":"神居町台場","丁目名":null,"小字名":null,"地番":"566-3","精度区分":null,"座標系":"任意座標系"}},{"type":"Polygon","arcs":[[559,-550,560,-554]],"properties":{"市区町村名":"旭川市","大字名":"神居町台場","丁目名":null,"小字名":null,"地番":"607","精度区分":null,"座標系":"任意座標系"}},{"type":"Polygon","arcs":[[-406,-401,-398,-395,-467,-368,-468,-539,-537,-536,-533,-531,-527,561,-349,-249,-144,-80,-412,-409]],"properties":{"市区町村名":"旭川市","大字名":"神居町台場","丁目名":null,"小字名":null,"地番":"673","精度区分":null,"座標系":"任意座標系"}},{"type":"Polygon","arcs":[[-559,-551,-558,562,-358,-342,-360,-352,-355,-356,-346,-350,-562,-529,-530,-525,-484,-512,-510,-474,-500,-499,-494,-491,-469,-366,-456,-458,-460,-462,-464,-465,563,-540,-546,-543,564,-548,-560,-553]],"properties":{"市区町村名":"旭川市","大字名":"神居町台場","丁目名":null,"小字名":null,"地番":"道-1","精度区分":null,"座標系":"任意座標系"}}]}},"arcs":[[[129615,740460],[-9200,27447],[-5779,2982],[-59050,-18994]],[[55586,751895],[-44664,-14390]],[[10922,737505],[-3560,10489],[-521,1004],[-3233,9611]],[[3608,758609],[44700,14635]],[[48308,773244],[58481,18731],[790,200],[2855,5292],[-8667,24921]],[[101767,822388],[-4457,13032]],[[97310,835420],[14525,9828]],[[111835,845248],[6240,-17581]],[[118075,827667],[6621,-18970],[2007,-6266],[4535,-2195],[17112,5407],[37758,12086]],[[186108,817729],[31659,10072],[2734,1218],[20097,6404],[2382,4730],[-8431,25291]],[[234549,865444],[-6423,19231],[-612,817],[-2573,7877]],[[224941,893369],[-7402,22279]],[[217539,915648],[14496,9915]],[[232035,925563],[8769,-26920]],[[240804,898643],[2556,-7713],[398,-543],[6488,-19903]],[[250246,870484],[8188,-24311],[5770,-3216],[68408,22410]],[[332612,865367],[26166,8481]],[[358778,873848],[-107001,-62223]],[[251777,811625],[-4160,2365],[-33252,-10684],[-1916,-917],[-18826,-5923]],[[193623,796466],[-54518,-17395],[-2317,-5696],[2757,-8187],[5330,-16037]],[[144875,749151],[-15260,-8691]],[[342339,993856],[-15040,-4793]],[[327299,989063],[16298,10936],[-62,-1303],[-1196,-4840]],[[303840,950015],[-6472,19299]],[[297368,969314],[29931,19749]],[[342339,993856],[-8551,-33489],[19,-746],[-29967,-9606]],[[322874,893825],[16252,5095],[2585,-3202],[9772,-12536],[7295,-9334]],[[332612,865367],[-9738,28458]],[[303840,950015],[-68087,-21990]],[[235753,928025],[4448,3105],[57167,38184]],[[232035,925563],[3718,2462]],[[303840,950015],[9349,-27966]],[[313189,922049],[-72385,-23406]],[[322874,893825],[-72628,-23341]],[[313189,922049],[1249,-3657],[752,-1424],[7684,-23143]],[[224941,893369],[-58422,-19060]],[[166519,874309],[-1993,5957]],[[164526,880266],[53013,35382]],[[234549,865444],[-58387,-19087]],[[176162,846357],[-9643,27952]],[[186108,817729],[-9946,28628]],[[251777,811625],[-52804,-30976]],[[198973,780649],[-3887,11257],[-1463,4560]],[[166519,874309],[-21069,-6642]],[[145450,867667],[19076,12599]],[[111835,845248],[33615,22419]],[[176162,846357],[-58087,-18690]],[[198973,780649],[-54098,-31498]],[[56257,807696],[41053,27724]],[[101767,822388],[-3084,-1012],[-38883,-12761],[-3543,-919]],[[40329,796869],[15928,10827]],[[48308,773244],[-1564,4496],[-6415,19129]],[[67312,716771],[-11726,35124]],[[129615,740460],[-14491,-8473]],[[115124,731987],[-47812,-15216]],[[115124,731987],[-44258,-25711]],[[70866,706276],[-3554,10495]],[[3608,758609],[-3608,10582],[15035,10209],[924,796],[24370,16673]],[[67312,716771],[-44332,-14410]],[[22980,702361],[-12058,35144]],[[70866,706276],[-40904,-23955]],[[29962,682321],[-3551,10503],[-463,617],[-2968,8920]],[[275668,744397],[-1771,5032]],[[273897,749429],[-4862,15065],[-862,1718],[-4769,14003]],[[263404,780215],[-5254,15721],[-4860,14855],[-1513,834]],[[358778,873848],[4326,-5419],[1641,-1830],[8881,-11572]],[[373626,855027],[-12884,-4338],[-20268,-6571]],[[340474,844118],[-14705,-4719],[-53563,-17019],[-3272,-5507],[8036,-23878],[2565,-7323]],[[279535,785672],[4025,-12231],[1029,-2499],[840,-2360],[4774,-13943]],[[290203,754639],[1618,-4999]],[[291821,749640],[3005,-8761],[5341,-15688]],[[300167,725191],[-15359,-8080]],[[284808,717111],[-9140,27286]],[[409778,782989],[-1483,4277]],[[408295,787266],[-1744,5213]],[[406551,792479],[-5860,17486],[-843,1468],[-3766,11594]],[[396082,823027],[-1973,6023]],[[394109,829050],[9956,-12772],[2452,-3120],[8687,-10796],[8315,-10648]],[[423519,791714],[431,-1361]],[[423950,790353],[-14172,-7364]],[[373626,855027],[20483,-25977]],[[396082,823027],[-43767,-13935]],[[352315,809092],[-11841,35026]],[[406551,792479],[-43630,-14256]],[[362921,778223],[-5826,17178],[-462,736],[-4318,12955]],[[345589,766829],[19054,6168]],[[364643,772997],[43652,14269]],[[409778,782989],[-16901,-9221]],[[392877,773768],[-42155,-21985]],[[350722,751783],[-5133,15046]],[[352315,809092],[-72780,-23420]],[[362921,778223],[-72718,-23584]],[[291821,749640],[53768,17189]],[[350722,751783],[-50555,-26592]],[[263404,780215],[-57870,-18643]],[[205534,761572],[-6561,19077]],[[273897,749429],[-57711,-18836]],[[216186,730593],[-5141,15211],[-902,1948],[-4609,13820]],[[217750,725655],[57918,18742]],[[284808,717111],[-47223,-25201]],[[237585,691910],[-7638,-2458]],[[229947,689452],[-12197,36203]],[[237585,691910],[-7179,-3797]],[[230406,688113],[-459,1339]],[[205534,761572],[-58472,-18948]],[[147062,742624],[-2187,6527]],[[216186,730593],[-58489,-18849]],[[157697,711744],[-5573,16652],[-783,1503],[-4279,12725]],[[159402,706732],[58348,18923]],[[229947,689452],[-57968,-19055]],[[171979,670397],[-12577,36335]],[[175770,659181],[-3791,11216]],[[230406,688113],[-31135,-16506],[-14803,-7597],[-1869,-1237],[-6829,-3592]],[[175770,659181],[-15610,-8077]],[[160160,651104],[-4594,14020]],[[155566,665124],[-564,1344],[-5186,14956],[-6793,20029]],[[143023,701453],[-1629,4892]],[[141394,706345],[-5888,17540],[-496,881],[-4211,12217]],[[130799,736983],[-1184,3477]],[[157697,711744],[1705,-5012]],[[130799,736983],[-15675,-4996]],[[141394,706345],[-63679,-20372]],[[77715,685973],[-6398,19477],[-451,826]],[[155566,665124],[-57526,-18314]],[[98040,646810],[-1003,3158],[-527,966],[-10784,32128]],[[85726,683062],[57297,18391]],[[160160,651104],[-54064,-28394]],[[106096,622710],[-862,2549]],[[105234,625259],[-7194,21551]],[[77715,685973],[-44092,-14300]],[[33623,671673],[-3661,10648]],[[98040,646810],[-50115,-16391]],[[47925,630419],[-2097,6113],[-783,1430],[-6576,19348],[-324,1056],[-2802,8396]],[[35343,666762],[44016,14201]],[[79359,680963],[6367,2099]],[[105234,625259],[-50040,-16106]],[[55194,609153],[-7269,21266]],[[106096,622710],[-46936,-24726]],[[59160,597984],[-3966,11169]],[[364643,772997],[-1722,5226]],[[217750,725655],[-1564,4938]],[[79359,680963],[-1644,5010]],[[35343,666762],[-1720,4911]],[[409778,782989],[6807,-19963],[5155,-15222],[589,-924],[8484,-25643],[12941,-38109],[766,-1627],[7360,-22525],[14147,-41358],[687,-1633],[11430,-33385]],[[478144,582600],[-39086,-14934],[-67058,-25782],[-24573,-9712],[-238087,-91101]],[[109340,441071],[-2776,21107]],[[106564,462178],[37578,12097],[595,346],[10682,3415]],[[155419,478036],[15855,5068],[33189,10585],[4781,1501],[2382,5786],[-7774,22866]],[[203852,523842],[-7830,23579],[-505,502],[-1429,4154]],[[194088,552077],[-9499,28279]],[[184589,580356],[-7159,21186],[-2075,5790],[-645,1434]],[[174710,608766],[-9662,28570]],[[165048,637336],[-4888,13768]],[[175770,659181],[5643,-16368]],[[181413,642813],[9622,-28633]],[[191035,614180],[573,-1943],[620,-1001],[8492,-25461]],[[200720,585775],[9460,-28274]],[[210180,557501],[1694,-5034],[622,-999],[7597,-22240]],[[220093,529228],[7607,-23135],[4857,-3215],[26385,8425],[28254,9164]],[[287196,520467],[4713,1457],[49816,15960],[2390,5712],[-7754,23064]],[[336361,566660],[-4679,13622],[-473,1001],[-4527,13496]],[[326682,594779],[-9609,28260]],[[317073,623039],[-6463,19233],[-702,1144],[-2753,8272]],[[307155,651688],[-9682,28233]],[[297473,679921],[-1055,3380],[-6798,20772],[-854,1284],[-894,2694]],[[287872,708051],[-3064,9060]],[[300167,725191],[3972,-11619]],[[304139,713572],[924,-2755],[505,-925],[8382,-24410]],[[313950,685482],[9457,-28583]],[[323407,656899],[2804,-8133],[468,-853],[2644,-7572],[767,-2505],[3207,-9148]],[[333297,628688],[9753,-28463]],[[343050,600225],[4822,-14516],[468,-818],[4338,-12741]],[[352678,572150],[6235,-18693],[1440,-4393],[5347,-2801],[49529,15699]],[[415229,561962],[18820,5916],[21354,6820],[3118,5754],[-7969,23126]],[[450552,603578],[-9623,28235]],[[440929,631813],[-9622,28468]],[[431307,660281],[-9572,28142]],[[421735,688423],[-9660,28674]],[[412075,717097],[-9809,28337]],[[402266,745434],[-9389,28334]],[[357704,731024],[44562,14410]],[[412075,717097],[-44605,-14470]],[[367470,702627],[-8078,23851],[-468,716],[-1220,3830]],[[421735,688423],[-44721,-14366]],[[377014,674057],[-9544,28570]],[[431307,660281],[-44647,-14198]],[[386660,646083],[-5686,16956],[-507,787],[-3453,10231]],[[440929,631813],[-44652,-14289]],[[396277,617524],[-9617,28559]],[[450552,603578],[-44667,-14182]],[[405885,589396],[-3049,9309],[-632,1224],[-5927,17595]],[[415229,561962],[-1029,2892],[-8315,24542]],[[352678,572150],[53207,17246]],[[343050,600225],[53227,17299]],[[333297,628688],[53363,17395]],[[323407,656899],[53607,17158]],[[313950,685482],[53520,17145]],[[304139,713572],[53565,17452]],[[350722,751783],[3492,-10435],[3490,-10324]],[[287872,708051],[-16593,-5059],[-33694,-11082]],[[297473,679921],[-57949,-18462]],[[239524,661459],[-9118,26654]],[[307155,651688],[-57932,-18909]],[[249223,632779],[-862,2502],[-8837,26178]],[[317073,623039],[-58261,-18459]],[[258812,604580],[-7297,22031],[-502,818],[-1790,5350]],[[326682,594779],[-58278,-18665]],[[268404,576114],[-9592,28466]],[[336361,566660],[-58374,-18803]],[[277987,547857],[-5775,17176],[-448,872],[-3360,10209]],[[287196,520467],[-9209,27390]],[[220093,529228],[57894,18629]],[[210180,557501],[58224,18613]],[[200720,585775],[58092,18805]],[[191035,614180],[58188,18599]],[[181413,642813],[58111,18646]],[[165048,637336],[-57593,-18629]],[[107455,618707],[-1359,4003]],[[174710,608766],[-57373,-18530]],[[117337,590236],[-1162,2826],[-8720,25645]],[[184589,580356],[-57753,-18276]],[[126836,562080],[-9499,28156]],[[194088,552077],[-57449,-18621]],[[136639,533456],[-530,965],[-9273,27659]],[[203852,523842],[-57678,-18372]],[[146174,505470],[-9535,27986]],[[155419,478036],[-392,1474],[-8853,25960]],[[106564,462178],[-1122,2972],[-8447,24446]],[[96995,489596],[49179,15874]],[[87214,517573],[49425,15883]],[[96995,489596],[-9781,27977]],[[87214,517573],[-1821,5081],[-366,620],[-7901,22745]],[[77126,546019],[49710,16061]],[[67439,574174],[49898,16062]],[[77126,546019],[-9687,28155]],[[67439,574174],[-1993,5995],[-415,667],[-5871,17148]],[[282554,292118],[-14125,41399]],[[268429,333517],[-9538,28386]],[[258891,361903],[-795,1860],[-9039,26559]],[[249057,390322],[-9510,28111]],[[239547,418433],[-9603,28021]],[[229944,446454],[-8555,25209],[-5054,2398],[-49793,-16103]],[[166542,457958],[-54580,-17639],[4586,-30265]],[[116548,410054],[1034,-5888],[3701,-23823]],[[121283,380343],[4507,-29799]],[[125790,350544],[4704,-29985]],[[130494,320559],[2579,-19159]],[[133073,301400],[-5826,9844],[-891,1816],[-3514,28241],[-381,1344],[-1894,13647],[-5962,46373],[-380,1347],[-1798,13765],[-3087,23294]],[[478144,582600],[5936,-17655],[4727,-14144],[752,-1078],[16780,-49745],[5854,-17126],[1198,-2640],[22337,-65376],[871,-2241],[7667,-22243],[1841,-5581]],[[546107,384771],[-18536,-6513]],[[527571,378258],[-6367,18552]],[[521204,396810],[-3966,11754],[-724,1325],[-6266,18523]],[[510248,428412],[-10739,31536]],[[499509,459948],[-5913,17241],[-787,1629],[-4419,12778]],[[488390,491596],[-10694,31807]],[[477696,523403],[-7244,21505],[-558,1070],[-1976,5855],[-4783,2411],[-46460,-15035]],[[416675,539209],[-7619,-2420],[-25240,-8168],[-10689,-3199],[-1818,-3550],[-493,-1558],[9361,-28117]],[[380177,492197],[10784,-31967]],[[390961,460230],[941,-2804],[612,-1117],[9521,-27903]],[[402035,428406],[10629,-31420]],[[412664,396986],[1734,-5328],[617,-1397],[8357,-24981]],[[423372,365280],[7444,-21222]],[[430816,344058],[-16872,-5940]],[[413944,338118],[-12921,38647]],[[401023,376765],[-9704,28142]],[[391319,404907],[-9600,28411]],[[381719,433318],[-9843,28185]],[[371876,461503],[-9482,28104]],[[362394,489607],[-8648,26147],[-4718,1640],[-2142,-1026],[-52511,-17021]],[[294375,499347],[-53647,-17280],[-2917,-5155],[8374,-24831]],[[246185,452081],[9732,-28177]],[[255917,423904],[9502,-28331]],[[265419,395573],[9668,-28238]],[[275087,367335],[9555,-28303]],[[284642,339032],[14130,-41312]],[[298772,297720],[-15503,-5355]],[[283269,292365],[-715,-247]],[[477696,523403],[-50096,-16149]],[[427600,507254],[-7824,23658],[-1074,2236],[-2027,6061]],[[488390,491596],[-50085,-16092]],[[438305,475504],[-10705,31750]],[[499509,459948],[-50194,-16358]],[[449315,443590],[-7560,22413],[-608,1045],[-2842,8456]],[[510248,428412],[-50307,-16163]],[[459941,412249],[-10626,31341]],[[521204,396810],[-50417,-16371]],[[470787,380439],[-6065,18435],[-680,1042],[-4101,12333]],[[527571,378258],[-37936,-13480]],[[489635,364778],[-12046,-4253]],[[477589,360525],[-6802,19914]],[[427600,507254],[-47423,-15057]],[[438305,475504],[-47344,-15274]],[[449315,443590],[-47280,-15184]],[[459941,412249],[-47277,-15263]],[[470787,380439],[-47415,-15159]],[[477589,360525],[-46773,-16467]],[[362394,489607],[-58388,-18657]],[[304006,470950],[-9631,28397]],[[371876,461503],[-58210,-18783]],[[313666,442720],[-9660,28230]],[[381719,433318],[-53552,-17258],[-4732,-1660]],[[323435,414400],[-8969,26202],[-800,2118]],[[391319,404907],[-58304,-18720]],[[333015,386187],[-9580,28213]],[[401023,376765],[-58354,-18731]],[[342669,358034],[-9654,28153]],[[413944,338118],[-13391,-4673]],[[400553,333445],[-44213,-15438]],[[356340,318007],[-13671,40027]],[[304006,470950],[-57821,-18869]],[[313666,442720],[-57749,-18816]],[[323435,414400],[-58016,-18827]],[[333015,386187],[-57928,-18852]],[[342669,358034],[-58027,-19002]],[[356340,318007],[-10232,-3583]],[[346108,314424],[-34971,-12243]],[[311137,302181],[-12365,-4461]],[[229944,446454],[-53735,-17074]],[[176209,429380],[-9667,28578]],[[239547,418433],[-53608,-17126]],[[185939,401307],[-9730,28073]],[[249057,390322],[-53475,-17203]],[[195582,373119],[-9643,28188]],[[258891,361903],[-53520,-17230]],[[205371,344673],[-9789,28446]],[[268429,333517],[-53463,-17134]],[[214966,316383],[-9595,28290]],[[282554,292118],[-8882,-3136]],[[273672,288982],[-43900,-15604]],[[229772,273378],[-12444,36047]],[[217328,309425],[-2362,6958]],[[176209,429380],[-59661,-19326]],[[185939,401307],[-64656,-20964]],[[195582,373119],[-69792,-22575]],[[130494,320559],[74877,24114]],[[217328,309425],[-72698,-23651],[-1678,-617]],[[142952,285157],[-9879,16243]],[[229772,273378],[-1128,-403]],[[228644,272975],[-29257,-10327]],[[199387,262648],[-35126,-12045]],[[164261,250603],[-15499,25577],[-3682,5860],[-2128,3117]],[[333638,124999],[-32002,9668],[-15790,4840],[-1274,1130],[-9446,7556],[-58190,44736],[-20339,15864]],[[196597,208793],[20060,6969]],[[216657,215762],[29164,10017],[-2046,4979],[-14860,40876],[-271,1341]],[[273672,288982],[13797,-37893],[46169,-126090]],[[567528,132442],[-7943,-390],[-19530,-762],[-14237,-1405],[-30816,-2494],[-27033,-2403]],[[467969,124988],[-40276,125064],[-778,1577],[-20057,62240],[-6305,19576]],[[489635,364778],[491,-1638],[9034,-27664],[1104,-2653],[23249,-69099],[563,-821],[10297,-31184],[3661,-10703],[29494,-88574]],[[546107,384771],[13974,-41100],[852,-1783],[18250,-53787],[5601,-16714],[671,-1081],[21943,-65426],[1181,-2952]],[[608579,201928],[-2334,-9921],[17433,-50615],[2201,-6330],[-35393,-1679],[-22958,-941]],[[311137,302181],[69818,-191112]],[[380955,111069],[-34737,10267]],[[346218,121336],[-62949,171029]],[[346108,314424],[1522,-4160],[603,-1223],[70920,-193612]],[[419153,115429],[-18493,-3707],[-13315,-2546],[-6390,1893]],[[467969,124988],[-22654,-4467],[-26162,-5092]],[[216657,215762],[-3608,9841],[-555,837],[-13107,36208]],[[196597,208793],[-7718,6148],[-4755,7040]],[[184124,221981],[-1494,1948],[-6984,10218],[-4411,6324],[-4595,6609],[-2379,3523]],[[346218,121336],[-12580,3663]],[[712564,762735],[9746,-28322]],[[722310,734413],[9499,-28139]],[[731809,706274],[10074,-28825]],[[741883,677449],[8464,-25349],[4786,-2266],[51632,12464]],[[806765,662298],[52404,12388],[916,3687],[640,823]],[[860725,679196],[4690,-13946],[1401,-4219]],[[866816,661031],[-368637,-89836]],[[498179,571195],[-6289,18240]],[[491890,589435],[4820,-2634],[54825,13274]],[[551535,600075],[53126,13005],[1567,4225],[-8388,25069]],[[597840,642374],[-9775,28866]],[[588065,671240],[-9496,28051]],[[578569,699291],[-8332,24874],[-1291,3611]],[[568946,727776],[-9420,28410]],[[559526,756186],[-9516,28257]],[[550010,784443],[-5358,15817]],[[544652,800260],[15198,1117]],[[559850,801377],[1308,-4335],[631,-1158],[2608,-7808]],[[564397,788076],[5586,-16764],[3845,-11523]],[[573828,759789],[5000,-14808],[4572,-13652]],[[583400,731329],[510,-1614],[840,-1413],[2052,-6768],[5930,-17422],[440,-1142]],[[593172,702970],[4211,-12909],[5220,-15224]],[[602603,674837],[4659,-14690],[697,-1155],[4357,-13024]],[[612316,645968],[8335,-24622],[4769,-3177],[37282,9046],[15945,3794]],[[678647,631009],[54084,13046],[2015,4994],[-8264,24671]],[[726482,673720],[-6517,18948],[-1451,4518],[-634,1156],[-1517,4236]],[[716363,702578],[-9428,28125]],[[706935,730703],[-9708,28400]],[[697227,759103],[-3410,10187],[-784,1803],[-5516,16503]],[[687517,787596],[-7745,22736]],[[679772,810332],[16232,1142]],[[696004,811474],[6931,-20303]],[[702935,791171],[9629,-28436]],[[541735,628688],[-58261,-14028]],[[483474,614660],[-2055,6000],[-589,1007],[-7320,21856]],[[473510,643523],[58182,14163]],[[531692,657686],[6503,-18994],[372,-678],[3168,-9326]],[[473510,643523],[-9502,28252]],[[464008,671775],[58171,13943]],[[522179,685718],[5356,-15672],[4157,-12360]],[[464008,671775],[-5042,15202],[-547,851],[-4109,12335]],[[454310,700163],[57945,13957]],[[512255,714120],[2788,-8162],[580,-1015],[6556,-19225]],[[444706,728637],[57875,13883]],[[502581,742520],[9674,-28400]],[[454310,700163],[-9604,28474]],[[435250,756622],[57714,14064]],[[492964,770686],[9617,-28166]],[[444706,728637],[-7804,23741],[-463,362],[-1189,3882]],[[423519,791714],[15587,1018],[31320,2099],[13995,933]],[[484421,795764],[7793,-23478],[750,-1600]],[[435250,756622],[-5000,14767],[-6300,18964]],[[551535,600075],[-4059,11627],[-5070,14500],[-671,2486]],[[541735,628688],[56105,13686]],[[531692,657686],[56373,13554]],[[522179,685718],[56390,13573]],[[512255,714120],[56691,13656]],[[502581,742520],[56945,13666]],[[492964,770686],[57046,13757]],[[484421,795764],[22383,1769],[36535,2651],[1313,76]],[[612316,645968],[56584,13803]],[[668900,659771],[9747,-28762]],[[602603,674837],[56508,13784]],[[659111,688621],[3512,-10470],[485,-848],[5792,-17532]],[[593172,702970],[56381,13932]],[[649553,716902],[9558,-28281]],[[639995,745187],[9558,-28285]],[[583400,731329],[1209,376],[1646,578],[53740,12904]],[[573828,759789],[56356,13913]],[[630184,773702],[8326,-24737],[766,-1254],[719,-2524]],[[564397,788076],[56378,13905]],[[620775,801981],[9409,-28279]],[[559850,801377],[28344,2143],[11004,691],[925,450],[19260,1320]],[[619383,805981],[1392,-4000]],[[668900,659771],[57582,13949]],[[659111,688621],[57252,13957]],[[649553,716902],[57382,13801]],[[639995,745187],[57232,13916]],[[630184,773702],[57333,13894]],[[620775,801981],[23397,5827]],[[644172,807808],[35600,2524]],[[619383,805981],[24789,1827]],[[741883,677449],[55183,13726]],[[797066,691175],[9699,-28877]],[[731809,706274],[55420,13688]],[[787229,719962],[9837,-28787]],[[722310,734413],[55251,13405]],[[777561,747818],[8808,-25683],[860,-2173]],[[712564,762735],[55352,13521]],[[767916,776256],[9645,-28438]],[[702935,791171],[55138,13509]],[[758073,804680],[9843,-28424]],[[696004,811474],[31479,2154],[27033,1890]],[[754516,815518],[3557,-10838]],[[797066,691175],[55389,13334]],[[852455,704509],[8270,-25313]],[[787229,719962],[55617,13699]],[[842846,733661],[9609,-29152]],[[777561,747818],[55902,13930]],[[833463,761748],[5677,-17414],[789,-1770],[2917,-8903]],[[767916,776256],[56251,13880]],[[824167,790136],[9296,-28388]],[[758073,804680],[56801,13886]],[[814874,818566],[9293,-28430]],[[814294,819954],[580,-1388]],[[754516,815518],[29226,2093],[30552,2343]],[[491890,589435],[-8416,25225]],[[502812,557715],[-4633,13480]],[[866816,661031],[2472,-12849]],[[869288,648182],[-7207,4922],[-46716,-11773]],[[815365,641331],[-50671,-12459],[-4030,-5932],[14896,-44093]],[[775560,578847],[8760,-25952],[575,-1364],[3577,-10374]],[[788472,541157],[19722,-58149],[7329,-2447]],[[815523,480561],[-22394,-18087]],[[793129,462474],[2646,7724],[-9146,27360]],[[786629,497558],[-1297,4181],[-11694,34345]],[[773638,536084],[-3484,11027],[-871,1742],[-8338,25053]],[[760945,573906],[-6615,19362],[-2052,5992]],[[752278,599260],[-6238,18119],[-8052,4941],[-51917,-12741]],[[686071,609579],[-33181,-8196],[-17357,-4406],[-4202,-7334],[17811,-52760]],[[649142,536883],[6158,-18504],[494,-793],[6271,-18325]],[[662065,499261],[12985,-38329]],[[675050,460932],[5376,-15625],[541,-1138],[10730,-31788],[4989,-14484],[485,-2019],[7357,-3998]],[[704528,391880],[-2072,-1734],[-19091,-15148]],[[683365,374998],[2202,8061],[-11458,34694]],[[674109,417753],[-7568,22424],[-521,1001],[-4930,14830]],[[661090,456008],[-13053,38202]],[[648037,494210],[-12887,37904]],[[635150,532114],[-18369,54615],[-7748,3789],[-51187,-12508]],[[557846,578010],[-4326,-1322],[-46522,-11318],[-4186,-7655]],[[869288,648182],[5818,-30987]],[[875106,617195],[-46640,-15274]],[[828466,601921],[-13101,39410]],[[875106,617195],[2894,-15760],[2069,-10829],[-2334,-19850]],[[877735,570756],[-34674,-11304]],[[843061,559452],[-2966,8810],[-620,1317],[-9383,27434]],[[830092,597013],[-1626,4908]],[[858013,514571],[-14952,44881]],[[877735,570756],[-5504,-45213],[-14218,-10972]],[[858013,514571],[-42490,-34010]],[[788472,541157],[54589,18295]],[[775560,578847],[54532,18166]],[[752278,599260],[-56714,-17038]],[[695564,582222],[-7878,23271],[-1615,4086]],[[773638,536084],[-56032,-18613]],[[717606,517471],[-4769,14594],[-530,886],[-7526,22388]],[[704781,555339],[56164,18567]],[[786629,497558],[-55727,-18251]],[[730902,479307],[-13296,38164]],[[793129,462474],[-44287,-35157]],[[748842,427317],[-10090,29654],[-474,779],[-7376,21557]],[[748842,427317],[-27205,-21678],[-17109,-13759]],[[675050,460932],[55852,18375]],[[662065,499261],[55541,18210]],[[649142,536883],[55639,18456]],[[695564,582222],[9217,-26883]],[[635150,532114],[-55533,-18369]],[[579617,513745],[-18493,54904],[-707,1243],[-2571,8118]],[[648037,494210],[-55271,-18209]],[[592766,476001],[-7757,22761],[-563,1216],[-4829,13767]],[[661090,456008],[-55333,-18199]],[[605757,437809],[-12991,38192]],[[674109,417753],[-55310,-17757]],[[618799,399996],[-9341,27884],[-530,861],[-3171,9068]],[[683365,374998],[-20294,-16434],[-15663,-12542],[-4417,-16445]],[[642991,329577],[-1085,2724],[-7571,22551],[-648,1133],[-14888,44011]],[[615710,227488],[-609,1103],[-6469,18931]],[[608632,247522],[12631,415]],[[621263,247937],[-5553,-20449]],[[642991,329577],[-13704,-50714],[-107,-1646],[-7917,-29280]],[[608632,247522],[-8456,25327],[-507,812],[-11641,34219],[-12388,36650],[-724,1476],[-12126,35895]],[[562790,381901],[56009,18095]],[[562790,381901],[-11297,33462],[-719,1240],[-924,2963]],[[549850,419566],[55907,18243]],[[537022,457561],[55744,18440]],[[549850,419566],[-10339,30669],[-2489,7326]],[[537022,457561],[-9575,27933],[-597,993],[-2889,8692]],[[523961,495179],[55656,18566]],[[523961,495179],[-19584,58391],[-595,1163],[-970,2982]],[[860209,729924],[-29827,91095]],[[830382,821019],[41849,2900],[24423,-92664]],[[896654,731255],[-31346,-5422],[-5099,4091]],[[943049,553987],[-5113,-2220],[-1661,-1043],[-43835,-20964],[-5059,-2269],[4089,40683],[1430,14865],[191,4231],[992,10269],[-11429,62024],[-609,4101],[-2929,8369],[-8830,27082]],[[870286,699115],[2145,5874],[29866,4890]],[[902297,709879],[7458,-28304],[454,-798],[12292,-47833],[8932,-34343],[361,-595],[9048,-34836],[2207,-9183]],[[870286,699115],[-10077,30809]],[[896654,731255],[5643,-21376]],[[744442,404635],[65474,51910],[52773,42127],[37798,18146],[45408,21988]],[[945895,538806],[3338,-16608],[1674,-8442],[437,-1355],[14637,-73404],[2602,-13172],[327,-969],[15189,-77355],[1373,-6601]],[[985472,340900],[-133073,35039],[-107957,28696]],[[776589,50006],[-24672,5800]],[[751917,55806],[-3388,4376],[-5378,6571],[-13157,10651],[-19984,16446],[-28871,23543],[-10283,8489],[-992,661],[-10000,8226],[-990,557],[-6063,5106],[-5916,4571]],[[646895,145003],[-8120,7182],[-14776,38231],[-1319,3580],[19381,73549],[17713,67426],[1344,3537]],[[661118,338508],[12523,-2802],[24674,-5745],[1466,33],[97088,-22010],[19956,-4417],[68247,-15603],[1328,33],[113599,-25755]],[[999999,262242],[-631,-845],[-3324,-11351],[-1209,-4368]],[[994835,245678],[-2630,321],[-56155,10997],[-72360,13853],[-22357,4349],[-13752,-47224],[-1424,-4785],[-132,-1251],[-24717,-85896],[-254,-1528],[-24045,-82950],[-420,-1558]],[[994835,245678],[-62,-1418],[-15559,-53872],[-5792,-21354],[-1454,-11844],[-928,-7049],[-789,-6508],[-11511,-84727],[-358,-3668],[-6283,-45328],[-2398,-447]],[[949701,9463],[-1148,505],[-17050,4255],[-94875,22026],[-825,-22],[-59214,13779]],[[751917,55806],[-6037,1408],[-29590,26432],[-47094,41652],[-851,496],[-8166,7394],[-955,497],[-9905,8774],[-2424,2544]],[[661118,338508],[46352,36660],[1212,1164],[35760,28303]],[[985472,340900],[338,-3408],[826,-2859],[1595,-9215],[1911,-10004],[5711,-30597],[4146,-22575]],[[615710,227488],[-7131,-25560]],[[949701,9463],[-12281,-2590],[-27893,-5866],[-4930,-1007],[-6167,1657],[-14392,3460],[-51508,11992],[-1508,160],[-24539,5701],[-69947,16223],[-6359,5312],[-83411,71593],[-13631,-818],[-28359,-1489],[-59577,-2664],[-24339,-2053],[-48827,-4063],[-14941,-2607],[-1694,-430],[-46736,-8517],[-24376,-4510],[-15172,4562],[-34441,9987],[-47779,14078],[-10319,3070],[-8862,7054],[-19335,14948],[-46725,36650],[-29607,23406],[3143,4711],[8935,14568]],[[814294,819954],[16088,1065]],[[943049,553987],[2846,-15181]]],"bbox":[50.245,22.34,405.027,386.816],"transform":{"scale":[0.00035478235478235475,0.0003644763644763645],"translate":[50.245,22.34]}}