{"type":"Topology","objects":{"01204-4500-28":{"type":"GeometryCollection","geometries":[{"type":"MultiPolygon","arcs":[[[0,1,2,3,4,5]]],"properties":{"筆ID":"H000000001","version":"ver1.0","座標系":"任意座標系","測地系判別":null,"地図名":"旭川市開拓図・開富１・図郭無","地図番号":"開富1","縮尺分母":"3000","市区町村コード":"01204","市区町村名":"旭川市","大字コード":"153","丁目コード":"000","小字コード":"0007","予備コード":"00","大字名":"江丹別町","丁目名":null,"小字名":"富原","予備名":null,"地番":"491","精度区分":null,"座標値種別":"図上測量","筆界未定構成筆":null,"代表点緯度":374.708,"代表点経度":702.587203814}},{"type":"MultiPolygon","arcs":[[[6,7,8,9,10,11]]],"properties":{"筆ID":"H000000002","version":"ver1.0","座標系":"任意座標系","測地系判別":null,"地図名":"旭川市開拓図・開富１・図郭無","地図番号":"開富1","縮尺分母":"3000","市区町村コード":"01204","市区町村名":"旭川市","大字コード":"153","丁目コード":"000","小字コード":"0007","予備コード":"00","大字名":"江丹別町","丁目名":null,"小字名":"富原","予備名":null,"地番":"492","精度区分":null,"座標値種別":"図上測量","筆界未定構成筆":null,"代表点緯度":368.129,"代表点経度":1023.210957849}},{"type":"MultiPolygon","arcs":[[[-11,12,13]]],"properties":{"筆ID":"H000000003","version":"ver1.0","座標系":"任意座標系","測地系判別":null,"地図名":"旭川市開拓図・開富１・図郭無","地図番号":"開富1","縮尺分母":"3000","市区町村コード":"01204","市区町村名":"旭川市","大字コード":"153","丁目コード":"000","小字コード":"0007","予備コード":"00","大字名":"江丹別町","丁目名":null,"小字名":"富原","予備名":null,"地番":"493","精度区分":null,"座標値種別":"図上測量","筆界未定構成筆":null,"代表点緯度":220.6465,"代表点経度":852.260894319}},{"type":"MultiPolygon","arcs":[[[14,15,16,17,-10]]],"properties":{"筆ID":"H000000004","version":"ver1.0","座標系":"任意座標系","測地系判別":null,"地図名":"旭川市開拓図・開富１・図郭無","地図番号":"開富1","縮尺分母":"3000","市区町村コード":"01204","市区町村名":"旭川市","大字コード":"153","丁目コード":"000","小字コード":"0007","予備コード":"00","大字名":"江丹別町","丁目名":null,"小字名":"富原","予備名":null,"地番":"494","精度区分":null,"座標値種別":"図上測量","筆界未定構成筆":null,"代表点緯度":133.82,"代表点経度":1165.729844786}},{"type":"MultiPolygon","arcs":[[[-18,18,19,20,-13]]],"properties":{"筆ID":"H000000005","version":"ver1.0","座標系":"任意座標系","測地系判別":null,"地図名":"旭川市開拓図・開富１・図郭無","地図番号":"開富1","縮尺分母":"3000","市区町村コード":"01204","市区町村名":"旭川市","大字コード":"153","丁目コード":"000","小字コード":"0007","予備コード":"00","大字名":"江丹別町","丁目名":null,"小字名":"富原","予備名":null,"地番":"495-1","精度区分":null,"座標値種別":"図上測量","筆界未定構成筆":null,"代表点緯度":15.826,"代表点経度":1029.037112836}},{"type":"MultiPolygon","arcs":[[[21,22]]],"properties":{"筆ID":"H000000006","version":"ver1.0","座標系":"任意座標系","測地系判別":null,"地図名":"旭川市開拓図・開富１・図郭無","地図番号":"開富1","縮尺分母":"3000","市区町村コード":"01204","市区町村名":"旭川市","大字コード":"153","丁目コード":"000","小字コード":"0007","予備コード":"00","大字名":"江丹別町","丁目名":null,"小字名":"富原","予備名":null,"地番":"495-2","精度区分":null,"座標値種別":"図上測量","筆界未定構成筆":null,"代表点緯度":-128.7375,"代表点経度":1036.938767164}},{"type":"MultiPolygon","arcs":[[[23,-23,24,-20]]],"properties":{"筆ID":"H000000007","version":"ver1.0","座標系":"任意座標系","測地系判別":null,"地図名":"旭川市開拓図・開富１・図郭無","地図番号":"開富1","縮尺分母":"3000","市区町村コード":"01204","市区町村名":"旭川市","大字コード":"153","丁目コード":"000","小字コード":"0007","予備コード":"00","大字名":"江丹別町","丁目名":null,"小字名":"富原","予備名":null,"地番":"495-3","精度区分":null,"座標値種別":"図上測量","筆界未定構成筆":null,"代表点緯度":-122.6925,"代表点経度":1043.144285905}},{"type":"MultiPolygon","arcs":[[[25,26,27,28]]],"properties":{"筆ID":"H000000008","version":"ver1.0","座標系":"任意座標系","測地系判別":null,"地図名":"旭川市開拓図・開富１・図郭無","地図番号":"開富1","縮尺分母":"3000","市区町村コード":"01204","市区町村名":"旭川市","大字コード":"153","丁目コード":"000","小字コード":"0007","予備コード":"00","大字名":"江丹別町","丁目名":null,"小字名":"富原","予備名":null,"地番":"496","精度区分":null,"座標値種別":"図上測量","筆界未定構成筆":null,"代表点緯度":-79.247,"代表点経度":1246.028883023}},{"type":"MultiPolygon","arcs":[[[29,30,31,32,33,34]]],"properties":{"筆ID":"H000000009","version":"ver1.0","座標系":"任意座標系","測地系判別":null,"地図名":"旭川市開拓図・開富１・図郭無","地図番号":"開富1","縮尺分母":"3000","市区町村コード":"01204","市区町村名":"旭川市","大字コード":"153","丁目コード":"000","小字コード":"0007","予備コード":"00","大字名":"江丹別町","丁目名":null,"小字名":"富原","予備名":null,"地番":"497","精度区分":null,"座標値種別":"図上測量","筆界未定構成筆":null,"代表点緯度":513.5115,"代表点経度":346.098648946}},{"type":"MultiPolygon","arcs":[[[-34,35,36,37,38,39,40]]],"properties":{"筆ID":"H000000010","version":"ver1.0","座標系":"任意座標系","測地系判別":null,"地図名":"旭川市開拓図・開富１・図郭無","地図番号":"開富1","縮尺分母":"3000","市区町村コード":"01204","市区町村名":"旭川市","大字コード":"153","丁目コード":"000","小字コード":"0007","予備コード":"00","大字名":"江丹別町","丁目名":null,"小字名":"富原","予備名":null,"地番":"498","精度区分":null,"座標値種別":"図上測量","筆界未定構成筆":null,"代表点緯度":410.733,"代表点経度":196.433262409}},{"type":"MultiPolygon","arcs":[[[41,42,-32]]],"properties":{"筆ID":"H000000011","version":"ver1.0","座標系":"任意座標系","測地系判別":null,"地図名":"旭川市開拓図・開富１・図郭無","地図番号":"開富1","縮尺分母":"3000","市区町村コード":"01204","市区町村名":"旭川市","大字コード":"153","丁目コード":"000","小字コード":"0007","予備コード":"00","大字名":"江丹別町","丁目名":null,"小字名":"富原","予備名":null,"地番":"499","精度区分":null,"座標値種別":"図上測量","筆界未定構成筆":null,"代表点緯度":356.9585,"代表点経度":353.96749876}},{"type":"MultiPolygon","arcs":[[[-40,43,44,45,46,47]]],"properties":{"筆ID":"H000000012","version":"ver1.0","座標系":"任意座標系","測地系判別":null,"地図名":"旭川市開拓図・開富１・図郭無","地図番号":"開富1","縮尺分母":"3000","市区町村コード":"01204","市区町村名":"旭川市","大字コード":"153","丁目コード":"000","小字コード":"0007","予備コード":"00","大字名":"江丹別町","丁目名":null,"小字名":"富原","予備名":null,"地番":"500","精度区分":null,"座標値種別":"図上測量","筆界未定構成筆":null,"代表点緯度":276.1705,"代表点経度":95.105030503}},{"type":"MultiPolygon","arcs":[[[48,49,50,-31]]],"properties":{"筆ID":"H000000013","version":"ver1.0","座標系":"任意座標系","測地系判別":null,"地図名":"旭川市開拓図・開富１・図郭無","地図番号":"開富1","縮尺分母":"3000","市区町村コード":"01204","市区町村名":"旭川市","大字コード":"153","丁目コード":"000","小字コード":"0007","予備コード":"00","大字名":"江丹別町","丁目名":null,"小字名":"富原","予備名":null,"地番":"501","精度区分":null,"座標値種別":"図上測量","筆界未定構成筆":null,"代表点緯度":325.866,"代表点経度":507.662885141}},{"type":"MultiPolygon","arcs":[[[51,52,53,-39]]],"properties":{"筆ID":"H000000014","version":"ver1.0","座標系":"任意座標系","測地系判別":null,"地図名":"旭川市開拓図・開富１・図郭無","地図番号":"開富1","縮尺分母":"3000","市区町村コード":"01204","市区町村名":"旭川市","大字コード":"153","丁目コード":"000","小字コード":"0007","予備コード":"00","大字名":"江丹別町","丁目名":null,"小字名":"富原","予備名":null,"地番":"502-1","精度区分":null,"座標値種別":"図上測量","筆界未定構成筆":null,"代表点緯度":208.097,"代表点経度":306.386247829}},{"type":"MultiPolygon","arcs":[[[54,55,-37]]],"properties":{"筆ID":"H000000015","version":"ver1.0","座標系":"任意座標系","測地系判別":null,"地図名":"旭川市開拓図・開富１・図郭無","地図番号":"開富1","縮尺分母":"3000","市区町村コード":"01204","市区町村名":"旭川市","大字コード":"153","丁目コード":"000","小字コード":"0007","予備コード":"00","大字名":"江丹別町","丁目名":null,"小字名":"富原","予備名":null,"地番":"502-2","精度区分":null,"座標値種別":"図上測量","筆界未定構成筆":null,"代表点緯度":309.5045,"代表点経度":355.399907535}},{"type":"MultiPolygon","arcs":[[[-56,56,-52,-38]]],"properties":{"筆ID":"H000000016","version":"ver1.0","座標系":"任意座標系","測地系判別":null,"地図名":"旭川市開拓図・開富１・図郭無","地図番号":"開富1","縮尺分母":"3000","市区町村コード":"01204","市区町村名":"旭川市","大字コード":"153","丁目コード":"000","小字コード":"0007","予備コード":"00","大字名":"江丹別町","丁目名":null,"小字名":"富原","予備名":null,"地番":"502-3","精度区分":null,"座標値種別":"図上測量","筆界未定構成筆":null,"代表点緯度":283.9365,"代表点経度":351.814204118}},{"type":"MultiPolygon","arcs":[[[-51,57,58,59,-42]]],"properties":{"筆ID":"H000000017","version":"ver1.0","座標系":"任意座標系","測地系判別":null,"地図名":"旭川市開拓図・開富１・図郭無","地図番号":"開富1","縮尺分母":"3000","市区町村コード":"01204","市区町村名":"旭川市","大字コード":"153","丁目コード":"000","小字コード":"0007","予備コード":"00","大字名":"江丹別町","丁目名":null,"小字名":"富原","予備名":null,"地番":"503-1","精度区分":null,"座標値種別":"図上測量","筆界未定構成筆":null,"代表点緯度":185.2195,"代表点経度":443.636155713}},{"type":"MultiPolygon","arcs":[[[60,61]]],"properties":{"筆ID":"H000000018","version":"ver1.0","座標系":"任意座標系","測地系判別":null,"地図名":"旭川市開拓図・開富１・図郭無","地図番号":"開富1","縮尺分母":"3000","市区町村コード":"01204","市区町村名":"旭川市","大字コード":"153","丁目コード":"000","小字コード":"0007","予備コード":"00","大字名":"江丹別町","丁目名":null,"小字名":"富原","予備名":null,"地番":"503-2","精度区分":null,"座標値種別":"図上測量","筆界未定構成筆":null,"代表点緯度":179.02,"代表点経度":370.837781681}},{"type":"MultiPolygon","arcs":[[[62,63,64]]],"properties":{"筆ID":"H000000019","version":"ver1.0","座標系":"任意座標系","測地系判別":null,"地図名":"旭川市開拓図・開富１・図郭無","地図番号":"開富1","縮尺分母":"3000","市区町村コード":"01204","市区町村名":"旭川市","大字コード":"153","丁目コード":"000","小字コード":"0007","予備コード":"00","大字名":"江丹別町","丁目名":null,"小字名":"富原","予備名":null,"地番":"503-3","精度区分":null,"座標値種別":"図上測量","筆界未定構成筆":null,"代表点緯度":110.5985,"代表点経度":380.249653025}},{"type":"MultiPolygon","arcs":[[[-59,65,66,-63,67,-61,68]]],"properties":{"筆ID":"H000000020","version":"ver1.0","座標系":"任意座標系","測地系判別":null,"地図名":"旭川市開拓図・開富１・図郭無","地図番号":"開富1","縮尺分母":"3000","市区町村コード":"01204","市区町村名":"旭川市","大字コード":"153","丁目コード":"000","小字コード":"0007","予備コード":"00","大字名":"江丹別町","丁目名":null,"小字名":"富原","予備名":null,"地番":"503-4","精度区分":null,"座標値種別":"図上測量","筆界未定構成筆":null,"代表点緯度":88.482,"代表点経度":394.916840111}},{"type":"MultiPolygon","arcs":[[[-54,69,-44]]],"properties":{"筆ID":"H000000021","version":"ver1.0","座標系":"任意座標系","測地系判別":null,"地図名":"旭川市開拓図・開富１・図郭無","地図番号":"開富1","縮尺分母":"3000","市区町村コード":"01204","市区町村名":"旭川市","大字コード":"153","丁目コード":"000","小字コード":"0007","予備コード":"00","大字名":"江丹別町","丁目名":null,"小字名":"富原","予備名":null,"地番":"504","精度区分":null,"座標値種別":"図上測量","筆界未定構成筆":null,"代表点緯度":115.4565,"代表点経度":294.420535236}},{"type":"MultiPolygon","arcs":[[[70,71,72,-46]]],"properties":{"筆ID":"H000000022","version":"ver1.0","座標系":"任意座標系","測地系判別":null,"地図名":"旭川市開拓図・開富１・図郭無","地図番号":"開富1","縮尺分母":"3000","市区町村コード":"01204","市区町村名":"旭川市","大字コード":"153","丁目コード":"000","小字コード":"0007","予備コード":"00","大字名":"江丹別町","丁目名":null,"小字名":"富原","予備名":null,"地番":"505","精度区分":null,"座標値種別":"図上測量","筆界未定構成筆":null,"代表点緯度":56.235,"代表点経度":243.131795919}},{"type":"MultiPolygon","arcs":[[[-67,73,74,75,-64]]],"properties":{"筆ID":"H000000023","version":"ver1.0","座標系":"任意座標系","測地系判別":null,"地図名":"旭川市開拓図・開富１・図郭無","地図番号":"開富1","縮尺分母":"3000","市区町村コード":"01204","市区町村名":"旭川市","大字コード":"153","丁目コード":"000","小字コード":"0007","予備コード":"00","大字名":"江丹別町","丁目名":null,"小字名":"富原","予備名":null,"地番":"506","精度区分":null,"座標値種別":"図上測量","筆界未定構成筆":null,"代表点緯度":52.2525,"代表点経度":381.248617174}},{"type":"MultiPolygon","arcs":[[[76,77,78,79,80,81]]],"properties":{"筆ID":"H000000024","version":"ver1.0","座標系":"任意座標系","測地系判別":null,"地図名":"旭川市開拓図・開富１・図郭無","地図番号":"開富1","縮尺分母":"3000","市区町村コード":"01204","市区町村名":"旭川市","大字コード":"153","丁目コード":"000","小字コード":"0007","予備コード":"00","大字名":"江丹別町","丁目名":null,"小字名":"富原","予備名":null,"地番":"507-1","精度区分":null,"座標値種別":"図上測量","筆界未定構成筆":null,"代表点緯度":114.9465,"代表点経度":689.732708307}},{"type":"MultiPolygon","arcs":[[[82,-80]]],"properties":{"筆ID":"H000000025","version":"ver1.0","座標系":"任意座標系","測地系判別":null,"地図名":"旭川市開拓図・開富１・図郭無","地図番号":"開富1","縮尺分母":"3000","市区町村コード":"01204","市区町村名":"旭川市","大字コード":"153","丁目コード":"000","小字コード":"0007","予備コード":"00","大字名":"江丹別町","丁目名":null,"小字名":"富原","予備名":null,"地番":"507-2","精度区分":null,"座標値種別":"図上測量","筆界未定構成筆":null,"代表点緯度":54.3645,"代表点経度":679.228322127}},{"type":"MultiPolygon","arcs":[[[-81,83,84,85]]],"properties":{"筆ID":"H000000026","version":"ver1.0","座標系":"任意座標系","測地系判別":null,"地図名":"旭川市開拓図・開富１・図郭無","地図番号":"開富1","縮尺分母":"3000","市区町村コード":"01204","市区町村名":"旭川市","大字コード":"153","丁目コード":"000","小字コード":"0007","予備コード":"00","大字名":"江丹別町","丁目名":null,"小字名":"富原","予備名":null,"地番":"508-1","精度区分":null,"座標値種別":"図上測量","筆界未定構成筆":null,"代表点緯度":14.04,"代表点経度":532.490192304}},{"type":"MultiPolygon","arcs":[[[-79,86,87,88]]],"properties":{"筆ID":"H000000027","version":"ver1.0","座標系":"任意座標系","測地系判別":null,"地図名":"旭川市開拓図・開富１・図郭無","地図番号":"開富1","縮尺分母":"3000","市区町村コード":"01204","市区町村名":"旭川市","大字コード":"153","丁目コード":"000","小字コード":"0007","予備コード":"00","大字名":"江丹別町","丁目名":null,"小字名":"富原","予備名":null,"地番":"508-2","精度区分":null,"座標値種別":"図上測量","筆界未定構成筆":null,"代表点緯度":-25.5095,"代表点経度":655.82512961}},{"type":"MultiPolygon","arcs":[[[-83,-89,89,90,-84]]],"properties":{"筆ID":"H000000028","version":"ver1.0","座標系":"任意座標系","測地系判別":null,"地図名":"旭川市開拓図・開富１・図郭無","地図番号":"開富1","縮尺分母":"3000","市区町村コード":"01204","市区町村名":"旭川市","大字コード":"153","丁目コード":"000","小字コード":"0007","予備コード":"00","大字名":"江丹別町","丁目名":null,"小字名":"富原","予備名":null,"地番":"508-3","精度区分":null,"座標値種別":"図上測量","筆界未定構成筆":null,"代表点緯度":-25.9355,"代表点経度":614.004621251}},{"type":"MultiPolygon","arcs":[[[-88,91,92,93,-90]]],"properties":{"筆ID":"H000000029","version":"ver1.0","座標系":"任意座標系","測地系判別":null,"地図名":"旭川市開拓図・開富１・図郭無","地図番号":"開富1","縮尺分母":"3000","市区町村コード":"01204","市区町村名":"旭川市","大字コード":"153","丁目コード":"000","小字コード":"0007","予備コード":"00","大字名":"江丹別町","丁目名":null,"小字名":"富原","予備名":null,"地番":"508-4","精度区分":null,"座標値種別":"図上測量","筆界未定構成筆":null,"代表点緯度":-98.7555,"代表点経度":619.773138131}},{"type":"MultiPolygon","arcs":[[[94,95,96,97]]],"properties":{"筆ID":"H000000030","version":"ver1.0","座標系":"任意座標系","測地系判別":null,"地図名":"旭川市開拓図・開富１・図郭無","地図番号":"開富1","縮尺分母":"3000","市区町村コード":"01204","市区町村名":"旭川市","大字コード":"153","丁目コード":"000","小字コード":"0007","予備コード":"00","大字名":"江丹別町","丁目名":null,"小字名":"富原","予備名":null,"地番":"509","精度区分":null,"座標値種別":"図上測量","筆界未定構成筆":null,"代表点緯度":-153.6295,"代表点経度":595.288947214}},{"type":"MultiPolygon","arcs":[[[98,99,100,101,102,103]]],"properties":{"筆ID":"H000000031","version":"ver1.0","座標系":"任意座標系","測地系判別":null,"地図名":"旭川市開拓図・開富１・図郭無","地図番号":"開富1","縮尺分母":"3000","市区町村コード":"01204","市区町村名":"旭川市","大字コード":"153","丁目コード":"000","小字コード":"0007","予備コード":"00","大字名":"江丹別町","丁目名":null,"小字名":"富原","予備名":null,"地番":"510-1","精度区分":null,"座標値種別":"図上測量","筆界未定構成筆":null,"代表点緯度":-79.5105,"代表点経度":396.661028664}},{"type":"MultiPolygon","arcs":[[[104,105,106,-85]]],"properties":{"筆ID":"H000000032","version":"ver1.0","座標系":"任意座標系","測地系判別":null,"地図名":"旭川市開拓図・開富１・図郭無","地図番号":"開富1","縮尺分母":"3000","市区町村コード":"01204","市区町村名":"旭川市","大字コード":"153","丁目コード":"000","小字コード":"0007","予備コード":"00","大字名":"江丹別町","丁目名":null,"小字名":"富原","予備名":null,"地番":"510-2","精度区分":null,"座標値種別":"図上測量","筆界未定構成筆":null,"代表点緯度":-51.2665,"代表点経度":452.624584175}},{"type":"MultiPolygon","arcs":[[[-94,107,108]]],"properties":{"筆ID":"H000000033","version":"ver1.0","座標系":"任意座標系","測地系判別":null,"地図名":"旭川市開拓図・開富１・図郭無","地図番号":"開富1","縮尺分母":"3000","市区町村コード":"01204","市区町村名":"旭川市","大字コード":"153","丁目コード":"000","小字コード":"0007","予備コード":"00","大字名":"江丹別町","丁目名":null,"小字名":"富原","予備名":null,"地番":"510-3","精度区分":null,"座標値種別":"図上測量","筆界未定構成筆":null,"代表点緯度":-118.6655,"代表点経度":530.361350996}},{"type":"MultiPolygon","arcs":[[[-105,-91,-109,109,110]]],"properties":{"筆ID":"H000000034","version":"ver1.0","座標系":"任意座標系","測地系判別":null,"地図名":"旭川市開拓図・開富１・図郭無","地図番号":"開富1","縮尺分母":"3000","市区町村コード":"01204","市区町村名":"旭川市","大字コード":"153","丁目コード":"000","小字コード":"0007","予備コード":"00","大字名":"江丹別町","丁目名":null,"小字名":"富原","予備名":null,"地番":"510-4","精度区分":null,"座標値種別":"図上測量","筆界未定構成筆":null,"代表点緯度":-120.4595,"代表点経度":519.543171094}},{"type":"MultiPolygon","arcs":[[[-107,111,112,113,-100,114]]],"properties":{"筆ID":"H000000035","version":"ver1.0","座標系":"任意座標系","測地系判別":null,"地図名":"旭川市開拓図・開富１・図郭無","地図番号":"開富1","縮尺分母":"3000","市区町村コード":"01204","市区町村名":"旭川市","大字コード":"153","丁目コード":"000","小字コード":"0007","予備コード":"00","大字名":"江丹別町","丁目名":null,"小字名":"富原","予備名":null,"地番":"510-5","精度区分":null,"座標値種別":"図上測量","筆界未定構成筆":null,"代表点緯度":-60.354,"代表点経度":427.832131377}},{"type":"MultiPolygon","arcs":[[[-111,115,-112,-106]]],"properties":{"筆ID":"H000000036","version":"ver1.0","座標系":"任意座標系","測地系判別":null,"地図名":"旭川市開拓図・開富１・図郭無","地図番号":"開富1","縮尺分母":"3000","市区町村コード":"01204","市区町村名":"旭川市","大字コード":"153","丁目コード":"000","小字コード":"0007","予備コード":"00","大字名":"江丹別町","丁目名":null,"小字名":"富原","予備名":null,"地番":"510-7","精度区分":null,"座標値種別":"図上測量","筆界未定構成筆":null,"代表点緯度":-126.8935,"代表点経度":488.4422675}},{"type":"MultiPolygon","arcs":[[[116,117,118]]],"properties":{"筆ID":"H000000037","version":"ver1.0","座標系":"任意座標系","測地系判別":null,"地図名":"旭川市開拓図・開富１・図郭無","地図番号":"開富1","縮尺分母":"3000","市区町村コード":"01204","市区町村名":"旭川市","大字コード":"153","丁目コード":"000","小字コード":"0007","予備コード":"00","大字名":"江丹別町","丁目名":null,"小字名":"富原","予備名":null,"地番":"511","精度区分":null,"座標値種別":"図上測量","筆界未定構成筆":null,"代表点緯度":-65.0615,"代表点経度":341.143390252}},{"type":"MultiPolygon","arcs":[[[119,-97,120,121]]],"properties":{"筆ID":"H000000038","version":"ver1.0","座標系":"任意座標系","測地系判別":null,"地図名":"旭川市開拓図・開富１・図郭無","地図番号":"開富1","縮尺分母":"3000","市区町村コード":"01204","市区町村名":"旭川市","大字コード":"153","丁目コード":"000","小字コード":"0007","予備コード":"00","大字名":"江丹別町","丁目名":null,"小字名":"富原","予備名":null,"地番":"512-1","精度区分":null,"座標値種別":"図上測量","筆界未定構成筆":null,"代表点緯度":-169.6585,"代表点経度":509.066210883}},{"type":"MultiPolygon","arcs":[[[122,123,124,125]]],"properties":{"筆ID":"H000000039","version":"ver1.0","座標系":"任意座標系","測地系判別":null,"地図名":"旭川市開拓図・開富１・図郭無","地図番号":"開富1","縮尺分母":"3000","市区町村コード":"01204","市区町村名":"旭川市","大字コード":"153","丁目コード":"000","小字コード":"0007","予備コード":"00","大字名":"江丹別町","丁目名":null,"小字名":"富原","予備名":null,"地番":"512-2","精度区分":null,"座標値種別":"図上測量","筆界未定構成筆":null,"代表点緯度":-185.1525,"代表点経度":386.152840096}},{"type":"MultiPolygon","arcs":[[[126,127,-122,128,-123]]],"properties":{"筆ID":"H000000040","version":"ver1.0","座標系":"任意座標系","測地系判別":null,"地図名":"旭川市開拓図・開富１・図郭無","地図番号":"開富1","縮尺分母":"3000","市区町村コード":"01204","市区町村名":"旭川市","大字コード":"153","丁目コード":"000","小字コード":"0007","予備コード":"00","大字名":"江丹別町","丁目名":null,"小字名":"富原","予備名":null,"地番":"512-3","精度区分":null,"座標値種別":"図上測量","筆界未定構成筆":null,"代表点緯度":-178.304,"代表点経度":429.802922135}},{"type":"MultiPolygon","arcs":[[[129,130,131,132]]],"properties":{"筆ID":"H000000041","version":"ver1.0","座標系":"任意座標系","測地系判別":null,"地図名":"旭川市開拓図・開富１・図郭無","地図番号":"開富1","縮尺分母":"3000","市区町村コード":"01204","市区町村名":"旭川市","大字コード":"153","丁目コード":"000","小字コード":"0007","予備コード":"00","大字名":"江丹別町","丁目名":null,"小字名":"富原","予備名":null,"地番":"513-1","精度区分":null,"座標値種別":"図上測量","筆界未定構成筆":null,"代表点緯度":-272.5385,"代表点経度":458.339923411}},{"type":"MultiPolygon","arcs":[[[133,134,135]]],"properties":{"筆ID":"H000000042","version":"ver1.0","座標系":"任意座標系","測地系判別":null,"地図名":"旭川市開拓図・開富１・図郭無","地図番号":"開富1","縮尺分母":"3000","市区町村コード":"01204","市区町村名":"旭川市","大字コード":"153","丁目コード":"000","小字コード":"0007","予備コード":"00","大字名":"江丹別町","丁目名":null,"小字名":"富原","予備名":null,"地番":"513-2","精度区分":null,"座標値種別":"図上測量","筆界未定構成筆":null,"代表点緯度":-215.2045,"代表点経度":391.640340865}},{"type":"MultiPolygon","arcs":[[[136,-133,137,-134]]],"properties":{"筆ID":"H000000043","version":"ver1.0","座標系":"任意座標系","測地系判別":null,"地図名":"旭川市開拓図・開富１・図郭無","地図番号":"開富1","縮尺分母":"3000","市区町村コード":"01204","市区町村名":"旭川市","大字コード":"153","丁目コード":"000","小字コード":"0007","予備コード":"00","大字名":"江丹別町","丁目名":null,"小字名":"富原","予備名":null,"地番":"513-3","精度区分":null,"座標値種別":"図上測量","筆界未定構成筆":null,"代表点緯度":-215.2395,"代表点経度":413.76992589}},{"type":"MultiPolygon","arcs":[[[138,139,140,141,142,143,144,145,146,147,148]]],"properties":{"筆ID":"H000000044","version":"ver1.0","座標系":"任意座標系","測地系判別":null,"地図名":"旭川市開拓図・開富１・図郭無","地図番号":"開富1","縮尺分母":"3000","市区町村コード":"01204","市区町村名":"旭川市","大字コード":"153","丁目コード":"000","小字コード":"0007","予備コード":"00","大字名":"江丹別町","丁目名":null,"小字名":"富原","予備名":null,"地番":"514-1","精度区分":null,"座標値種別":"図上測量","筆界未定構成筆":null,"代表点緯度":-198.3675,"代表点経度":894.36367011}},{"type":"MultiPolygon","arcs":[[[149,-140,150,-149,151,152]]],"properties":{"筆ID":"H000000045","version":"ver1.0","座標系":"任意座標系","測地系判別":null,"地図名":"旭川市開拓図・開富１・図郭無","地図番号":"開富1","縮尺分母":"3000","市区町村コード":"01204","市区町村名":"旭川市","大字コード":"153","丁目コード":"000","小字コード":"0007","予備コード":"00","大字名":"江丹別町","丁目名":null,"小字名":"富原","予備名":null,"地番":"514-2","精度区分":null,"座標値種別":"図上測量","筆界未定構成筆":null,"代表点緯度":-143.003,"代表点経度":879.734849592}},{"type":"MultiPolygon","arcs":[[[-139,-151]]],"properties":{"筆ID":"H000000046","version":"ver1.0","座標系":"任意座標系","測地系判別":null,"地図名":"旭川市開拓図・開富１・図郭無","地図番号":"開富1","縮尺分母":"3000","市区町村コード":"01204","市区町村名":"旭川市","大字コード":"153","丁目コード":"000","小字コード":"0007","予備コード":"00","大字名":"江丹別町","丁目名":null,"小字名":"富原","予備名":null,"地番":"514-3","精度区分":null,"座標値種別":"図上測量","筆界未定構成筆":null,"代表点緯度":-150.1745,"代表点経度":845.017541966}},{"type":"MultiPolygon","arcs":[[[-153,153,154]]],"properties":{"筆ID":"H000000047","version":"ver1.0","座標系":"任意座標系","測地系判別":null,"地図名":"旭川市開拓図・開富１・図郭無","地図番号":"開富1","縮尺分母":"3000","市区町村コード":"01204","市区町村名":"旭川市","大字コード":"153","丁目コード":"000","小字コード":"0007","予備コード":"00","大字名":"江丹別町","丁目名":null,"小字名":"富原","予備名":null,"地番":"514-4","精度区分":null,"座標値種別":"図上測量","筆界未定構成筆":null,"代表点緯度":-142.0275,"代表点経度":797.070064726}},{"type":"MultiPolygon","arcs":[[[155,-141,-150,-155,156,157,158]]],"properties":{"筆ID":"H000000048","version":"ver1.0","座標系":"任意座標系","測地系判別":null,"地図名":"旭川市開拓図・開富１・図郭無","地図番号":"開富1","縮尺分母":"3000","市区町村コード":"01204","市区町村名":"旭川市","大字コード":"153","丁目コード":"000","小字コード":"0007","予備コード":"00","大字名":"江丹別町","丁目名":null,"小字名":"富原","予備名":null,"地番":"514-5","精度区分":null,"座標値種別":"図上測量","筆界未定構成筆":null,"代表点緯度":-114.994,"代表点経度":990.56250037}},{"type":"MultiPolygon","arcs":[[[159,-159,160,-78]]],"properties":{"筆ID":"H000000049","version":"ver1.0","座標系":"任意座標系","測地系判別":null,"地図名":"旭川市開拓図・開富１・図郭無","地図番号":"開富1","縮尺分母":"3000","市区町村コード":"01204","市区町村名":"旭川市","大字コード":"153","丁目コード":"000","小字コード":"0007","予備コード":"00","大字名":"江丹別町","丁目名":null,"小字名":"富原","予備名":null,"地番":"514-6","精度区分":null,"座標値種別":"図上測量","筆界未定構成筆":null,"代表点緯度":-7.7085,"代表点経度":854.781931019}},{"type":"MultiPolygon","arcs":[[[-161,161,-87]]],"properties":{"筆ID":"H000000050","version":"ver1.0","座標系":"任意座標系","測地系判別":null,"地図名":"旭川市開拓図・開富１・図郭無","地図番号":"開富1","縮尺分母":"3000","市区町村コード":"01204","市区町村名":"旭川市","大字コード":"153","丁目コード":"000","小字コード":"0007","予備コード":"00","大字名":"江丹別町","丁目名":null,"小字名":"富原","予備名":null,"地番":"515-1","精度区分":null,"座標値種別":"図上測量","筆界未定構成筆":null,"代表点緯度":-84.5275,"代表点経度":738.431883642}},{"type":"MultiPolygon","arcs":[[[-162,-158,162,-92]]],"properties":{"筆ID":"H000000051","version":"ver1.0","座標系":"任意座標系","測地系判別":null,"地図名":"旭川市開拓図・開富１・図郭無","地図番号":"開富1","縮尺分母":"3000","市区町村コード":"01204","市区町村名":"旭川市","大字コード":"153","丁目コード":"000","小字コード":"0007","予備コード":"00","大字名":"江丹別町","丁目名":null,"小字名":"富原","予備名":null,"地番":"515-2","精度区分":null,"座標値種別":"図上測量","筆界未定構成筆":null,"代表点緯度":-112.2975,"代表点経度":763.080568104}},{"type":"MultiPolygon","arcs":[[[163,164,-95]]],"properties":{"筆ID":"H000000052","version":"ver1.0","座標系":"任意座標系","測地系判別":null,"地図名":"旭川市開拓図・開富１・図郭無","地図番号":"開富1","縮尺分母":"3000","市区町村コード":"01204","市区町村名":"旭川市","大字コード":"153","丁目コード":"000","小字コード":"0007","予備コード":"00","大字名":"江丹別町","丁目名":null,"小字名":"富原","予備名":null,"地番":"516","精度区分":null,"座標値種別":"図上測量","筆界未定構成筆":null,"代表点緯度":-138.0505,"代表点経度":756.887983087}},{"type":"MultiPolygon","arcs":[[[165,166,167,168]]],"properties":{"筆ID":"H000000053","version":"ver1.0","座標系":"任意座標系","測地系判別":null,"地図名":"旭川市開拓図・開富１・図郭無","地図番号":"開富1","縮尺分母":"3000","市区町村コード":"01204","市区町村名":"旭川市","大字コード":"153","丁目コード":"000","小字コード":"0007","予備コード":"00","大字名":"江丹別町","丁目名":null,"小字名":"富原","予備名":null,"地番":"517","精度区分":null,"座標値種別":"図上測量","筆界未定構成筆":null,"代表点緯度":-278.334,"代表点経度":749.168318591}},{"type":"MultiPolygon","arcs":[[[169,170,-147]]],"properties":{"筆ID":"H000000054","version":"ver1.0","座標系":"任意座標系","測地系判別":null,"地図名":"旭川市開拓図・開富１・図郭無","地図番号":"開富1","縮尺分母":"3000","市区町村コード":"01204","市区町村名":"旭川市","大字コード":"153","丁目コード":"000","小字コード":"0007","予備コード":"00","大字名":"江丹別町","丁目名":null,"小字名":"富原","予備名":null,"地番":"518","精度区分":null,"座標値種別":"図上測量","筆界未定構成筆":null,"代表点緯度":-165.223,"代表点経度":810.722872816}},{"type":"MultiPolygon","arcs":[[[-145,171,172,173]]],"properties":{"筆ID":"H000000055","version":"ver1.0","座標系":"任意座標系","測地系判別":null,"地図名":"旭川市開拓図・開富１・図郭無","地図番号":"開富1","縮尺分母":"3000","市区町村コード":"01204","市区町村名":"旭川市","大字コード":"153","丁目コード":"000","小字コード":"0007","予備コード":"00","大字名":"江丹別町","丁目名":null,"小字名":"富原","予備名":null,"地番":"519","精度区分":null,"座標値種別":"図上測量","筆界未定構成筆":null,"代表点緯度":-253.6295,"代表点経度":856.691227358}},{"type":"MultiPolygon","arcs":[[[-168,174,-131]]],"properties":{"筆ID":"H000000056","version":"ver1.0","座標系":"任意座標系","測地系判別":null,"地図名":"旭川市開拓図・開富１・図郭無","地図番号":"開富1","縮尺分母":"3000","市区町村コード":"01204","市区町村名":"旭川市","大字コード":"153","丁目コード":"000","小字コード":"0007","予備コード":"00","大字名":"江丹別町","丁目名":null,"小字名":"富原","予備名":null,"地番":"520","精度区分":null,"座標値種別":"図上測量","筆界未定構成筆":null,"代表点緯度":-345.6015,"代表点経度":610.30201364}},{"type":"MultiPolygon","arcs":[[[175,176,177,178,179,180]]],"properties":{"筆ID":"H000000057","version":"ver1.0","座標系":"任意座標系","測地系判別":null,"地図名":"旭川市開拓図・開富１・図郭無","地図番号":"開富1","縮尺分母":"3000","市区町村コード":"01204","市区町村名":"旭川市","大字コード":"153","丁目コード":"000","小字コード":"0007","予備コード":"00","大字名":"江丹別町","丁目名":null,"小字名":"富原","予備名":null,"地番":"586","精度区分":null,"座標値種別":"図上測量","筆界未定構成筆":null,"代表点緯度":-428.666,"代表点経度":862.070760788}},{"type":"MultiPolygon","arcs":[[[181,182,183,184,185]]],"properties":{"筆ID":"H000000058","version":"ver1.0","座標系":"任意座標系","測地系判別":null,"地図名":"旭川市開拓図・開富１・図郭無","地図番号":"開富1","縮尺分母":"3000","市区町村コード":"01204","市区町村名":"旭川市","大字コード":"153","丁目コード":"000","小字コード":"0007","予備コード":"00","大字名":"江丹別町","丁目名":null,"小字名":"富原","予備名":null,"地番":"587-1","精度区分":null,"座標値種別":"図上測量","筆界未定構成筆":null,"代表点緯度":-423.903,"代表点経度":953.556592858}},{"type":"MultiPolygon","arcs":[[[186,187,-183,188]]],"properties":{"筆ID":"H000000059","version":"ver1.0","座標系":"任意座標系","測地系判別":null,"地図名":"旭川市開拓図・開富１・図郭無","地図番号":"開富1","縮尺分母":"3000","市区町村コード":"01204","市区町村名":"旭川市","大字コード":"153","丁目コード":"000","小字コード":"0007","予備コード":"00","大字名":"江丹別町","丁目名":null,"小字名":"富原","予備名":null,"地番":"587-2","精度区分":null,"座標値種別":"図上測量","筆界未定構成筆":null,"代表点緯度":-400.194,"代表点経度":975.024314098}},{"type":"MultiPolygon","arcs":[[[-187,189]]],"properties":{"筆ID":"H000000060","version":"ver1.0","座標系":"任意座標系","測地系判別":null,"地図名":"旭川市開拓図・開富１・図郭無","地図番号":"開富1","縮尺分母":"3000","市区町村コード":"01204","市区町村名":"旭川市","大字コード":"153","丁目コード":"000","小字コード":"0007","予備コード":"00","大字名":"江丹別町","丁目名":null,"小字名":"富原","予備名":null,"地番":"587-3","精度区分":null,"座標値種別":"図上測量","筆界未定構成筆":null,"代表点緯度":-400.194,"代表点経度":999.770894202}},{"type":"MultiPolygon","arcs":[[[-185,190,-178,191]]],"properties":{"筆ID":"H000000061","version":"ver1.0","座標系":"任意座標系","測地系判別":null,"地図名":"旭川市開拓図・開富１・図郭無","地図番号":"開富1","縮尺分母":"3000","市区町村コード":"01204","市区町村名":"旭川市","大字コード":"153","丁目コード":"000","小字コード":"0007","予備コード":"00","大字名":"江丹別町","丁目名":null,"小字名":"富原","予備名":null,"地番":"616","精度区分":null,"座標値種別":"図上測量","筆界未定構成筆":null,"代表点緯度":-423.99,"代表点経度":927.117210641}},{"type":"MultiPolygon","arcs":[[[-70,-53,-57,-55,-36,-33,-43,-60,-69,-62,-68,-65,-76,192,-104,193,194,195,-117,196,-71,-45]]],"properties":{"筆ID":"H000000062","version":"ver1.0","座標系":"任意座標系","測地系判別":null,"地図名":"旭川市開拓図・開富１・図郭無","地図番号":"開富1","縮尺分母":"3000","市区町村コード":"01204","市区町村名":"旭川市","大字コード":"153","丁目コード":"000","小字コード":"0007","予備コード":"00","大字名":"江丹別町","丁目名":null,"小字名":"富原","予備名":null,"地番":"617","精度区分":null,"座標値種別":"図上測量","筆界未定構成筆":null,"代表点緯度":112.5935,"代表点経度":255.579663309}},{"type":"MultiPolygon","arcs":[[[-124,-129,-121,-96,-165,197,-170,-146,-174,198,-169,-130,-137,-136,199,200,201,202]]],"properties":{"筆ID":"H000000063","version":"ver1.0","座標系":"任意座標系","測地系判別":null,"地図名":"旭川市開拓図・開富１・図郭無","地図番号":"開富1","縮尺分母":"3000","市区町村コード":"01204","市区町村名":"旭川市","大字コード":"153","丁目コード":"000","小字コード":"0007","予備コード":"00","大字名":"江丹別町","丁目名":null,"小字名":"富原","予備名":null,"地番":"618","精度区分":null,"座標値種別":"図上測量","筆界未定構成筆":null,"代表点緯度":-172.4415,"代表点経度":808.678285965}},{"type":"MultiPolygon","arcs":[[[-113,-116,-110,-108,-93,-163,-157,-154,-152,-148,-171,-198,-164,-98,-120,-128,203,204]]],"properties":{"筆ID":"H000000064","version":"ver1.0","座標系":"任意座標系","測地系判別":null,"地図名":"旭川市開拓図・開富１・図郭無","地図番号":"開富1","縮尺分母":"3000","市区町村コード":"01204","市区町村名":"旭川市","大字コード":"153","丁目コード":"000","小字コード":"0007","予備コード":"00","大字名":"江丹別町","丁目名":null,"小字名":"富原","予備名":null,"地番":"619","精度区分":null,"座標値種別":"図上測量","筆界未定構成筆":null,"代表点緯度":-127.2605,"代表点経度":538.332854741}},{"type":"MultiPolygon","arcs":[[[-173,205,-166,-199]]],"properties":{"筆ID":"H000000065","version":"ver1.0","座標系":"任意座標系","測地系判別":null,"地図名":"旭川市開拓図・開富１・図郭無","地図番号":"開富1","縮尺分母":"3000","市区町村コード":"01204","市区町村名":"旭川市","大字コード":"153","丁目コード":"000","小字コード":"0007","予備コード":"00","大字名":"江丹別町","丁目名":null,"小字名":"富原","予備名":null,"地番":"620","精度区分":null,"座標値種別":"図上測量","筆界未定構成筆":null,"代表点緯度":-274.5895,"代表点経度":830.932012653}},{"type":"MultiPolygon","arcs":[[[-103,206,207,-194]]],"properties":{"筆ID":"H000000066","version":"ver1.0","座標系":"任意座標系","測地系判別":null,"地図名":"旭川市開拓図・開富１・図郭無","地図番号":"開富1","縮尺分母":"3000","市区町村コード":"01204","市区町村名":"旭川市","大字コード":"153","丁目コード":"000","小字コード":"0007","予備コード":"00","大字名":"江丹別町","丁目名":null,"小字名":"富原","予備名":null,"地番":"626","精度区分":null,"座標値種別":"図上測量","筆界未定構成筆":null,"代表点緯度":-158.8945,"代表点経度":327.142647385}},{"type":"MultiPolygon","arcs":[[[-47,-73,208,-118,-196,209,210,211]]],"properties":{"筆ID":"H000000067","version":"ver1.0","座標系":"任意座標系","測地系判別":null,"地図名":"旭川市開拓図・開富１・図郭無","地図番号":"開富1","縮尺分母":"3000","市区町村コード":"01204","市区町村名":"旭川市","大字コード":"153","丁目コード":"000","小字コード":"0007","予備コード":"00","大字名":"江丹別町","丁目名":null,"小字名":"富原","予備名":null,"地番":"627","精度区分":null,"座標値種別":"図上測量","筆界未定構成筆":null,"代表点緯度":16.1555,"代表点経度":172.062725052}},{"type":"MultiPolygon","arcs":[[[212,-35,-41,-48,-212,213]]],"properties":{"筆ID":"H000000068","version":"ver1.0","座標系":"任意座標系","測地系判別":null,"地図名":"旭川市開拓図・開富１・図郭無","地図番号":"開富1","縮尺分母":"3000","市区町村コード":"01204","市区町村名":"旭川市","大字コード":"153","丁目コード":"000","小字コード":"0007","予備コード":"00","大字名":"江丹別町","丁目名":null,"小字名":"富原","予備名":null,"地番":"628","精度区分":null,"座標値種別":"図上測量","筆界未定構成筆":null,"代表点緯度":498.408,"代表点経度":111.754261855}},{"type":"MultiPolygon","arcs":[[[214,-5,215,-30,-213]]],"properties":{"筆ID":"H000000069","version":"ver1.0","座標系":"任意座標系","測地系判別":null,"地図名":"旭川市開拓図・開富１・図郭無","地図番号":"開富1","縮尺分母":"3000","市区町村コード":"01204","市区町村名":"旭川市","大字コード":"153","丁目コード":"000","小字コード":"0007","予備コード":"00","大字名":"江丹別町","丁目名":null,"小字名":"富原","予備名":null,"地番":"629","精度区分":null,"座標値種別":"図上測量","筆界未定構成筆":null,"代表点緯度":577.154,"代表点経度":418.396470616}},{"type":"MultiPolygon","arcs":[[[-7,216,217]]],"properties":{"筆ID":"H000000070","version":"ver1.0","座標系":"任意座標系","測地系判別":null,"地図名":"旭川市開拓図・開富１・図郭無","地図番号":"開富1","縮尺分母":"3000","市区町村コード":"01204","市区町村名":"旭川市","大字コード":"153","丁目コード":"000","小字コード":"0007","予備コード":"00","大字名":"江丹別町","丁目名":null,"小字名":"富原","予備名":null,"地番":"630","精度区分":null,"座標値種別":"図上測量","筆界未定構成筆":null,"代表点緯度":534.566,"代表点経度":999.011003631}},{"type":"MultiPolygon","arcs":[[[-125,-203,218,219,220,221]]],"properties":{"筆ID":"H000000071","version":"ver1.0","座標系":"任意座標系","測地系判別":null,"地図名":"旭川市開拓図・開富１・図郭無","地図番号":"開富1","縮尺分母":"3000","市区町村コード":"01204","市区町村名":"旭川市","大字コード":"153","丁目コード":"000","小字コード":"0007","予備コード":"00","大字名":"江丹別町","丁目名":null,"小字名":"富原","予備名":null,"地番":"631","精度区分":null,"座標値種別":"図上測量","筆界未定構成筆":null,"代表点緯度":-185.229,"代表点経度":345.631030082}},{"type":"MultiPolygon","arcs":[[[-135,-138,-132,-175,222,223,224,-200]]],"properties":{"筆ID":"H000000072","version":"ver1.0","座標系":"任意座標系","測地系判別":null,"地図名":"旭川市開拓図・開富１・図郭無","地図番号":"開富1","縮尺分母":"3000","市区町村コード":"01204","市区町村名":"旭川市","大字コード":"153","丁目コード":"000","小字コード":"0007","予備コード":"00","大字名":"江丹別町","丁目名":null,"小字名":"富原","予備名":null,"地番":"632","精度区分":null,"座標値種別":"図上測量","筆界未定構成筆":null,"代表点緯度":-346.7825,"代表点経度":484.979766499}},{"type":"MultiPolygon","arcs":[[[225,226,227,-144]]],"properties":{"筆ID":"H000000073","version":"ver1.0","座標系":"任意座標系","測地系判別":null,"地図名":"旭川市開拓図・開富１・図郭無","地図番号":"開富1","縮尺分母":"3000","市区町村コード":"01204","市区町村名":"旭川市","大字コード":"153","丁目コード":"000","小字コード":"0007","予備コード":"00","大字名":"江丹別町","丁目名":null,"小字名":"富原","予備名":null,"地番":"633","精度区分":null,"座標値種別":"図上測量","筆界未定構成筆":null,"代表点緯度":-201.4675,"代表点経度":991.823262114}},{"type":"MultiPolygon","arcs":[[[228,-28,229,230]]],"properties":{"筆ID":"H000000074","version":"ver1.0","座標系":"任意座標系","測地系判別":null,"地図名":"旭川市開拓図・開富１・図郭無","地図番号":"開富1","縮尺分母":"3000","市区町村コード":"01204","市区町村名":"旭川市","大字コード":"153","丁目コード":"000","小字コード":"0007","予備コード":"00","大字名":"江丹別町","丁目名":null,"小字名":"富原","予備名":null,"地番":"634","精度区分":null,"座標値種別":"図上測量","筆界未定構成筆":null,"代表点緯度":-210.979,"代表点経度":1097.790357415}},{"type":"MultiPolygon","arcs":[[[-66,231,-115,232,-74]]],"properties":{"筆ID":"H000000075","version":"ver1.0","座標系":"任意座標系","測地系判別":null,"地図名":"旭川市開拓図・開富１・図郭無","地図番号":"開富1","縮尺分母":"3000","市区町村コード":"01204","市区町村名":"旭川市","大字コード":"153","丁目コード":"000","小字コード":"0007","予備コード":"00","大字名":"江丹別町","丁目名":null,"小字名":"富原","予備名":null,"地番":"635","精度区分":null,"座標値種別":"図上測量","筆界未定構成筆":null,"代表点緯度":24.738,"代表点経度":409.006926326}},{"type":"MultiPolygon","arcs":[[[233,-176,234,-206]]],"properties":{"筆ID":"H000000076","version":"ver1.0","座標系":"任意座標系","測地系判別":null,"地図名":"旭川市開拓図・開富１・図郭無","地図番号":"開富1","縮尺分母":"3000","市区町村コード":"01204","市区町村名":"旭川市","大字コード":"153","丁目コード":"000","小字コード":"0007","予備コード":"00","大字名":"江丹別町","丁目名":null,"小字名":"富原","予備名":null,"地番":"636","精度区分":null,"座標値種別":"図上測量","筆界未定構成筆":null,"代表点緯度":-317.423,"代表点経度":857.558314608}},{"type":"MultiPolygon","arcs":[[[-25,235,-156,236]]],"properties":{"筆ID":"H000000077","version":"ver1.0","座標系":"任意座標系","測地系判別":null,"地図名":"旭川市開拓図・開富１・図郭無","地図番号":"開富1","縮尺分母":"3000","市区町村コード":"01204","市区町村名":"旭川市","大字コード":"153","丁目コード":"000","小字コード":"0007","予備コード":"00","大字名":"江丹別町","丁目名":null,"小字名":"富原","予備名":null,"地番":"637","精度区分":null,"座標値種別":"図上測量","筆界未定構成筆":null,"代表点緯度":-115.0835,"代表点経度":1014.616051655}},{"type":"MultiPolygon","arcs":[[[-24,-231,237,-226,-143,238]]],"properties":{"筆ID":"H000000078","version":"ver1.0","座標系":"任意座標系","測地系判別":null,"地図名":"旭川市開拓図・開富１・図郭無","地図番号":"開富1","縮尺分母":"3000","市区町村コード":"01204","市区町村名":"旭川市","大字コード":"153","丁目コード":"000","小字コード":"0007","予備コード":"00","大字名":"江丹別町","丁目名":null,"小字名":"富原","予備名":null,"地番":"638","精度区分":null,"座標値種別":"図上測量","筆界未定構成筆":null,"代表点緯度":-149.1315,"代表点経度":1045.345873073}},{"type":"MultiPolygon","arcs":[[[-197,-119,-209,-72]]],"properties":{"筆ID":"H000000079","version":"ver1.0","座標系":"任意座標系","測地系判別":null,"地図名":"旭川市開拓図・開富１・図郭無","地図番号":"開富1","縮尺分母":"3000","市区町村コード":"01204","市区町村名":"旭川市","大字コード":"153","丁目コード":"000","小字コード":"0007","予備コード":"00","大字名":"江丹別町","丁目名":null,"小字名":"富原","予備名":null,"地番":"639","精度区分":null,"座標値種別":"図上測量","筆界未定構成筆":null,"代表点緯度":-46.6025,"代表点経度":326.403024359}},{"type":"MultiPolygon","arcs":[[[-233,-99,-193,-75]]],"properties":{"筆ID":"H000000080","version":"ver1.0","座標系":"任意座標系","測地系判別":null,"地図名":"旭川市開拓図・開富１・図郭無","地図番号":"開富1","縮尺分母":"3000","市区町村コード":"01204","市区町村名":"旭川市","大字コード":"153","丁目コード":"000","小字コード":"0007","予備コード":"00","大字名":"江丹別町","丁目名":null,"小字名":"富原","予備名":null,"地番":"640","精度区分":null,"座標値種別":"図上測量","筆界未定構成筆":null,"代表点緯度":13.571,"代表点経度":396.173529976}},{"type":"MultiPolygon","arcs":[[[-50,239,-82,-86,-232,-58]]],"properties":{"筆ID":"H000000081","version":"ver1.0","座標系":"任意座標系","測地系判別":null,"地図名":"旭川市開拓図・開富１・図郭無","地図番号":"開富1","縮尺分母":"3000","市区町村コード":"01204","市区町村名":"旭川市","大字コード":"153","丁目コード":"000","小字コード":"0007","予備コード":"00","大字名":"江丹別町","丁目名":null,"小字名":"富原","予備名":null,"地番":"641","精度区分":null,"座標値種別":"図上測量","筆界未定構成筆":null,"代表点緯度":142.981,"代表点経度":546.507917354}},{"type":"MultiPolygon","arcs":[[[-4,240,-49,-216]]],"properties":{"筆ID":"H000000082","version":"ver1.0","座標系":"任意座標系","測地系判別":null,"地図名":"旭川市開拓図・開富１・図郭無","地図番号":"開富1","縮尺分母":"3000","市区町村コード":"01204","市区町村名":"旭川市","大字コード":"153","丁目コード":"000","小字コード":"0007","予備コード":"00","大字名":"江丹別町","丁目名":null,"小字名":"富原","予備名":null,"地番":"642","精度区分":null,"座標値種別":"図上測量","筆界未定構成筆":null,"代表点緯度":384.8955,"代表点経度":583.350629604}},{"type":"MultiPolygon","arcs":[[[-3,-217,-12,-14,-21,-237,-160,-77,-240,-241]]],"properties":{"筆ID":"H000000083","version":"ver1.0","座標系":"任意座標系","測地系判別":null,"地図名":"旭川市開拓図・開富１・図郭無","地図番号":"開富1","縮尺分母":"3000","市区町村コード":"01204","市区町村名":"旭川市","大字コード":"153","丁目コード":"000","小字コード":"0007","予備コード":"00","大字名":"江丹別町","丁目名":null,"小字名":"富原","予備名":null,"地番":"643","精度区分":null,"座標値種別":"図上測量","筆界未定構成筆":null,"代表点緯度":157.979,"代表点経度":779.340750634}},{"type":"MultiPolygon","arcs":[[[-235,-181,-223,-167]]],"properties":{"筆ID":"H000000084","version":"ver1.0","座標系":"任意座標系","測地系判別":null,"地図名":"旭川市開拓図・開富１・図郭無","地図番号":"開富1","縮尺分母":"3000","市区町村コード":"01204","市区町村名":"旭川市","大字コード":"153","丁目コード":"000","小字コード":"0007","予備コード":"00","大字名":"江丹別町","丁目名":null,"小字名":"富原","予備名":null,"地番":"644","精度区分":null,"座標値種別":"図上測量","筆界未定構成筆":null,"代表点緯度":-357.4835,"代表点経度":811.289746675}},{"type":"MultiPolygon","arcs":[[[-228,-186,-192,-177,-234,-172]]],"properties":{"筆ID":"H000000085","version":"ver1.0","座標系":"任意座標系","測地系判別":null,"地図名":"旭川市開拓図・開富１・図郭無","地図番号":"開富1","縮尺分母":"3000","市区町村コード":"01204","市区町村名":"旭川市","大字コード":"153","丁目コード":"000","小字コード":"0007","予備コード":"00","大字名":"江丹別町","丁目名":null,"小字名":"富原","予備名":null,"地番":"645","精度区分":null,"座標値種別":"図上測量","筆界未定構成筆":null,"代表点緯度":-301.0965,"代表点経度":876.611704449}},{"type":"MultiPolygon","arcs":[[[-22,-239,-142,-236]]],"properties":{"筆ID":"H000000086","version":"ver1.0","座標系":"任意座標系","測地系判別":null,"地図名":"旭川市開拓図・開富１・図郭無","地図番号":"開富1","縮尺分母":"3000","市区町村コード":"01204","市区町村名":"旭川市","大字コード":"153","丁目コード":"000","小字コード":"0007","予備コード":"00","大字名":"江丹別町","丁目名":null,"小字名":"富原","予備名":null,"地番":"646","精度区分":null,"座標値種別":"図上測量","筆界未定構成筆":null,"代表点緯度":-143.7295,"代表点経度":1035.303980781}},{"type":"MultiPolygon","arcs":[[[-17,241,-29,-229,-19]]],"properties":{"筆ID":"H000000087","version":"ver1.0","座標系":"任意座標系","測地系判別":null,"地図名":"旭川市開拓図・開富１・図郭無","地図番号":"開富1","縮尺分母":"3000","市区町村コード":"01204","市区町村名":"旭川市","大字コード":"153","丁目コード":"000","小字コード":"0007","予備コード":"00","大字名":"江丹別町","丁目名":null,"小字名":"富原","予備名":null,"地番":"647","精度区分":null,"座標値種別":"図上測量","筆界未定構成筆":null,"代表点緯度":-85.3545,"代表点経度":1127.449674744}},{"type":"MultiPolygon","arcs":[[[242,243,244]]],"properties":{"筆ID":"H000000088","version":"ver1.0","座標系":"任意座標系","測地系判別":null,"地図名":"旭川市開拓図・開富１・図郭無","地図番号":"開富1","縮尺分母":"3000","市区町村コード":"01204","市区町村名":"旭川市","大字コード":"153","丁目コード":"000","小字コード":"0007","予備コード":"00","大字名":"江丹別町","丁目名":null,"小字名":"富原","予備名":null,"地番":"無地番-18","精度区分":null,"座標値種別":"図上測量","筆界未定構成筆":null,"代表点緯度":-305.192,"代表点経度":-35.939439556}},{"type":"MultiPolygon","arcs":[[[245,246,247,248,249,-243,250,251]]],"properties":{"筆ID":"H000000089","version":"ver1.0","座標系":"任意座標系","測地系判別":null,"地図名":"旭川市開拓図・開富１・図郭無","地図番号":"開富1","縮尺分母":"3000","市区町村コード":"01204","市区町村名":"旭川市","大字コード":"153","丁目コード":"000","小字コード":"0007","予備コード":"00","大字名":"江丹別町","丁目名":null,"小字名":"富原","予備名":null,"地番":"無地番-19","精度区分":null,"座標値種別":"図上測量","筆界未定構成筆":null,"代表点緯度":-220.469,"代表点経度":116.886110358}},{"type":"MultiPolygon","arcs":[[[252,-6,-215,253]]],"properties":{"筆ID":"H000000090","version":"ver1.0","座標系":"任意座標系","測地系判別":null,"地図名":"旭川市開拓図・開富１・図郭無","地図番号":"開富1","縮尺分母":"3000","市区町村コード":"01204","市区町村名":"旭川市","大字コード":"153","丁目コード":"000","小字コード":"0007","予備コード":"00","大字名":"江丹別町","丁目名":null,"小字名":"富原","予備名":null,"地番":"無地番-22","精度区分":null,"座標値種別":"図上測量","筆界未定構成筆":null,"代表点緯度":641.4345,"代表点経度":565.745692193}},{"type":"MultiPolygon","arcs":[[[254,255]]],"properties":{"筆ID":"H000000091","version":"ver1.0","座標系":"任意座標系","測地系判別":null,"地図名":"旭川市開拓図・開富１・図郭無","地図番号":"開富1","縮尺分母":"3000","市区町村コード":"01204","市区町村名":"旭川市","大字コード":"153","丁目コード":"000","小字コード":"0007","予備コード":"00","大字名":"江丹別町","丁目名":null,"小字名":"富原","予備名":null,"地番":"無地番-23","精度区分":null,"座標値種別":"図上測量","筆界未定構成筆":null,"代表点緯度":-199.748,"代表点経度":340.548480591}},{"type":"MultiPolygon","arcs":[[[-180,256,-224]]],"properties":{"筆ID":"H000000092","version":"ver1.0","座標系":"任意座標系","測地系判別":null,"地図名":"旭川市開拓図・開富１・図郭無","地図番号":"開富1","縮尺分母":"3000","市区町村コード":"01204","市区町村名":"旭川市","大字コード":"153","丁目コード":"000","小字コード":"0007","予備コード":"00","大字名":"江丹別町","丁目名":null,"小字名":"富原","予備名":null,"地番":"無地番-26","精度区分":null,"座標値種別":"図上測量","筆界未定構成筆":null,"代表点緯度":-459.7015,"代表点経度":764.89616373}},{"type":"MultiPolygon","arcs":[[[257,258,-15,-9]]],"properties":{"筆ID":"H000000093","version":"ver1.0","座標系":"任意座標系","測地系判別":null,"地図名":"旭川市開拓図・開富１・図郭無","地図番号":"開富1","縮尺分母":"3000","市区町村コード":"01204","市区町村名":"旭川市","大字コード":"153","丁目コード":"000","小字コード":"0007","予備コード":"00","大字名":"江丹別町","丁目名":null,"小字名":"富原","予備名":null,"地番":"無地番-27","精度区分":null,"座標値種別":"図上測量","筆界未定構成筆":null,"代表点緯度":159.458,"代表点経度":1284.921375469}},{"type":"MultiPolygon","arcs":[[[259,-252,260]]],"properties":{"筆ID":"H000000094","version":"ver1.0","座標系":"任意座標系","測地系判別":null,"地図名":"旭川市開拓図・開富１・図郭無","地図番号":"開富1","縮尺分母":"3000","市区町村コード":"01204","市区町村名":"旭川市","大字コード":"153","丁目コード":"000","小字コード":"0007","予備コード":"00","大字名":"江丹別町","丁目名":null,"小字名":"富原","予備名":null,"地番":"無地番-426","精度区分":null,"座標値種別":"図上測量","筆界未定構成筆":null,"代表点緯度":-230.066,"代表点経度":-62.568287823}},{"type":"MultiPolygon","arcs":[[[261,-246,-260,262]]],"properties":{"筆ID":"H000000095","version":"ver1.0","座標系":"任意座標系","測地系判別":null,"地図名":"旭川市開拓図・開富１・図郭無","地図番号":"開富1","縮尺分母":"3000","市区町村コード":"01204","市区町村名":"旭川市","大字コード":"153","丁目コード":"000","小字コード":"0007","予備コード":"00","大字名":"江丹別町","丁目名":null,"小字名":"富原","予備名":null,"地番":"無地番-427","精度区分":null,"座標値種別":"図上測量","筆界未定構成筆":null,"代表点緯度":-238.3145,"代表点経度":-37.631743371}},{"type":"MultiPolygon","arcs":[[[-210,-195,-208,-247,-262,263]]],"properties":{"筆ID":"H000000096","version":"ver1.0","座標系":"任意座標系","測地系判別":null,"地図名":"旭川市開拓図・開富１・図郭無","地図番号":"開富1","縮尺分母":"3000","市区町村コード":"01204","市区町村名":"旭川市","大字コード":"153","丁目コード":"000","小字コード":"0007","予備コード":"00","大字名":"江丹別町","丁目名":null,"小字名":"富原","予備名":null,"地番":"無地番-428","精度区分":null,"座標値種別":"図上測量","筆界未定構成筆":null,"代表点緯度":-175.5345,"代表点経度":122.429077239}},{"type":"MultiPolygon","arcs":[[[-250,264,265,-244]]],"properties":{"筆ID":"H000000097","version":"ver1.0","座標系":"任意座標系","測地系判別":null,"地図名":"旭川市開拓図・開富１・図郭無","地図番号":"開富1","縮尺分母":"3000","市区町村コード":"01204","市区町村名":"旭川市","大字コード":"153","丁目コード":"000","小字コード":"0007","予備コード":"00","大字名":"江丹別町","丁目名":null,"小字名":"富原","予備名":null,"地番":"無地番-431","精度区分":null,"座標値種別":"図上測量","筆界未定構成筆":null,"代表点緯度":-299.0015,"代表点経度":-22.920612459}},{"type":"MultiPolygon","arcs":[[[-249,-221,266,-265]]],"properties":{"筆ID":"H000000098","version":"ver1.0","座標系":"任意座標系","測地系判別":null,"地図名":"旭川市開拓図・開富１・図郭無","地図番号":"開富1","縮尺分母":"3000","市区町村コード":"01204","市区町村名":"旭川市","大字コード":"153","丁目コード":"000","小字コード":"0007","予備コード":"00","大字名":"江丹別町","丁目名":null,"小字名":"富原","予備名":null,"地番":"無地番-432","精度区分":null,"座標値種別":"図上測量","筆界未定構成筆":null,"代表点緯度":-274.6435,"代表点経度":54.836751468}},{"type":"MultiPolygon","arcs":[[[-219,-202,267,-255,268]]],"properties":{"筆ID":"H000000099","version":"ver1.0","座標系":"任意座標系","測地系判別":null,"地図名":"旭川市開拓図・開富１・図郭無","地図番号":"開富1","縮尺分母":"3000","市区町村コード":"01204","市区町村名":"旭川市","大字コード":"153","丁目コード":"000","小字コード":"0007","予備コード":"00","大字名":"江丹別町","丁目名":null,"小字名":"富原","予備名":null,"地番":"無地番-435","精度区分":null,"座標値種別":"図上測量","筆界未定構成筆":null,"代表点緯度":-194.521,"代表点経度":342.552617423}},{"type":"MultiPolygon","arcs":[[[-1,-253,269]]],"properties":{"筆ID":"H000000100","version":"ver1.0","座標系":"任意座標系","測地系判別":null,"地図名":"旭川市開拓図・開富１・図郭無","地図番号":"開富1","縮尺分母":"3000","市区町村コード":"01204","市区町村名":"旭川市","大字コード":"153","丁目コード":"000","小字コード":"0007","予備コード":"00","大字名":"江丹別町","丁目名":null,"小字名":"富原","予備名":null,"地番":"無地番-436","精度区分":null,"座標値種別":"図上測量","筆界未定構成筆":null,"代表点緯度":677.5945,"代表点経度":729.882507726}},{"type":"MultiPolygon","arcs":[[[270,-26,-242,-16,-259]]],"properties":{"筆ID":"H000000101","version":"ver1.0","座標系":"任意座標系","測地系判別":null,"地図名":"旭川市開拓図・開富１・図郭無","地図番号":"開富1","縮尺分母":"3000","市区町村コード":"01204","市区町村名":"旭川市","大字コード":"153","丁目コード":"000","小字コード":"0007","予備コード":"00","大字名":"江丹別町","丁目名":null,"小字名":"富原","予備名":null,"地番":"無地番-438","精度区分":null,"座標値種別":"図上測量","筆界未定構成筆":null,"代表点緯度":159.458,"代表点経度":1270.034432111}},{"type":"MultiPolygon","arcs":[[[-204,-127,-126,271,-102,272]]],"properties":{"筆ID":"H000000102","version":"ver1.0","座標系":"任意座標系","測地系判別":null,"地図名":"旭川市開拓図・開富１・図郭無","地図番号":"開富1","縮尺分母":"3000","市区町村コード":"01204","市区町村名":"旭川市","大字コード":"153","丁目コード":"000","小字コード":"0007","予備コード":"00","大字名":"江丹別町","丁目名":null,"小字名":"富原","予備名":null,"地番":"589","精度区分":null,"座標値種別":"図上測量","筆界未定構成筆":null,"代表点緯度":-159.704,"代表点経度":383.902839334}},{"type":"MultiPolygon","arcs":[[[-272,-222,-248,-207]]],"properties":{"筆ID":"H000000103","version":"ver1.0","座標系":"任意座標系","測地系判別":null,"地図名":"旭川市開拓図・開富１・図郭無","地図番号":"開富1","縮尺分母":"3000","市区町村コード":"01204","市区町村名":"旭川市","大字コード":"153","丁目コード":"000","小字コード":"0007","予備コード":"00","大字名":"江丹別町","丁目名":null,"小字名":"富原","予備名":null,"地番":"無地番","精度区分":null,"座標値種別":"図上測量","筆界未定構成筆":null,"代表点緯度":-170.5315,"代表点経度":333.076342674}},{"type":"MultiPolygon","arcs":[[[-114,-205,-273,-101]]],"properties":{"筆ID":"H000000104","version":"ver1.0","座標系":"任意座標系","測地系判別":null,"地図名":"旭川市開拓図・開富１・図郭無","地図番号":"開富1","縮尺分母":"3000","市区町村コード":"01204","市区町村名":"旭川市","大字コード":"153","丁目コード":"000","小字コード":"0007","予備コード":"00","大字名":"江丹別町","丁目名":null,"小字名":"富原","予備名":null,"地番":"510-6","精度区分":null,"座標値種別":"図上測量","筆界未定構成筆":null,"代表点緯度":-142.907,"代表点経度":433.759877037}}]}},"arcs":[[[584375,869980],[7011,3117]],[[591386,873097],[29392,12500],[56661,-74712]],[[677439,810885],[-174660,-173586]],[[502779,637299],[-112586,149764]],[[390193,787063],[-332,443]],[[389861,787506],[115846,49170],[78668,33304]],[[682327,804263],[43454,43130]],[[725781,847393],[113029,-150280],[-43147,-42838]],[[795663,654275],[-459,-455]],[[795204,653820],[-87278,-86167]],[[707926,567653],[-112831,149969]],[[595095,717622],[87232,86641]],[[707926,567653],[-87299,-86154]],[[620627,481499],[-112925,149775],[87393,86348]],[[795204,653820],[39040,-51804]],[[834244,602016],[73718,-97793]],[[907962,504223],[-87233,-86503]],[[820729,417720],[-112803,149933]],[[820729,417720],[-85511,-84276]],[[735218,333444],[619,7905],[-2307,10624],[-7455,8535],[-8606,1133],[-5476,-1642]],[[711993,359999],[-91366,121500]],[[727477,339521],[-7983,10582]],[[719494,350103],[2858,687],[4606,-4365],[510,-5167],[9,-1737]],[[735218,333444],[-1836,-1864],[-5898,7933],[-7,8]],[[719494,350103],[-7501,9896]],[[912981,497908],[55978,-74130]],[[968959,423778],[-88280,-87455],[-86061,-85742]],[[794618,250581],[-56325,74969]],[[738293,325550],[174688,172358]],[[271984,933090],[112933,-151385]],[[384917,781705],[-87408,-86377]],[[297509,695328],[-14183,18717]],[[283326,714045],[-385,37290],[-2112,-33863]],[[280829,717472],[-96386,128293]],[[184443,845765],[87541,87325]],[[280829,717472],[-913,-16059],[6700,-16892]],[[286616,684521],[-3217,-3171]],[[283399,681350],[-3359,-3249]],[[280040,678101],[-69706,-68426]],[[210334,609675],[-112699,149929]],[[97635,759604],[86808,86161]],[[297509,695328],[-7844,-7739]],[[289665,687589],[-6225,15472],[-114,10984]],[[210334,609675],[-43484,-43016]],[[166850,566659],[-57133,51007],[-44827,20909],[-6487,3025],[6487,-3634],[43680,-24472],[55613,-49391]],[[164183,564103],[-41407,-40685]],[[122776,523418],[-57886,77299],[-54392,72634]],[[10498,673351],[54392,53840],[32745,32413]],[[384917,781705],[93195,-124141],[18934,-25740]],[[497046,631824],[-86844,-85943]],[[410202,545881],[-54673,73002],[-58020,76445]],[[280040,678101],[15157,-77759]],[[295197,600342],[-2603,-20120],[10031,-34061],[-6754,-50060]],[[295871,496101],[-85537,113574]],[[286616,684521],[14787,-36920],[-4482,-34163]],[[296921,613438],[-13522,67912]],[[296921,613438],[-1724,-13096]],[[410202,545881],[-84071,-82817]],[[326131,463064],[-26975,138143]],[[299156,601207],[6115,47182],[-15606,39200]],[[297572,588632],[5675,-30865]],[[303247,557767],[-6633,22482],[958,8383]],[[305937,542471],[15125,-79709]],[[321062,462762],[-20364,26997]],[[300698,489759],[-1184,5667],[6423,47045]],[[326131,463064],[-3061,-3147]],[[323070,459917],[-2008,2845]],[[305937,542471],[577,4225],[-3267,11071]],[[297572,588632],[1584,12575]],[[295871,496101],[-138,-1017],[5640,-26998],[-37004,31529],[-73592,45775],[-23927,21269]],[[164183,564103],[25727,-22902],[71064,-44606],[41842,-34842],[3670,-18100]],[[306486,443653],[-70649,-69936]],[[235837,373717],[-113061,149701]],[[323070,459917],[-1188,-1155]],[[321882,458762],[-12182,-12053]],[[309700,446709],[-9002,43050]],[[502189,625729],[112776,-150200]],[[614965,475529],[-86782,-86277]],[[528183,389252],[-45068,60229]],[[483115,449481],[31552,52597],[-3628,2781],[-31027,-51326]],[[480012,453533],[-64826,85867]],[[415186,539400],[87003,86329]],[[483115,449481],[-3103,4052]],[[480012,453533],[-51773,-64904],[-28699,-30693]],[[399540,357936],[-64210,85172],[-7399,10389]],[[327931,453497],[87255,85903]],[[528183,389252],[-8653,-8335]],[[519530,380917],[-13269,-109],[-99841,-23015]],[[406420,357793],[25677,27267],[51018,64421]],[[406420,357793],[-3847,-4019]],[[402573,353774],[-3033,4162]],[[519530,380917],[-7016,-7057]],[[512514,373860],[-1445,-99],[-104534,-25115]],[[406535,348646],[-3962,5128]],[[502588,363971],[-55443,-54644]],[[447145,309327],[-9356,-2197]],[[437789,307130],[-26033,34802]],[[411756,341932],[90832,22039]],[[311634,437288],[12128,11922]],[[323762,449210],[21921,-112837]],[[345683,336373],[-15026,-5926]],[[330657,330447],[-53094,-12623]],[[277563,317824],[-5853,7907]],[[271710,325731],[5289,20845],[39683,66564],[-5048,24148]],[[399540,357936],[-3161,-3288]],[[396379,354648],[-14712,-3190],[-15188,-4900],[-16521,-8021]],[[349958,338537],[-22027,114960]],[[406535,348646],[-11140,-2625]],[[395395,346021],[7178,7753]],[[395395,346021],[-9089,-2198]],[[386306,343823],[10073,10825]],[[349958,338537],[629,-3257]],[[350587,335280],[-4518,-1080]],[[346069,334200],[-386,2173]],[[323762,449210],[4169,4287]],[[386306,343823],[-35719,-8543]],[[308544,434152],[4196,-20510],[-38831,-64756],[-4918,-19123]],[[268991,329763],[-28052,37453]],[[240939,367216],[67605,66936]],[[355491,328308],[56265,13624]],[[437789,307130],[-55200,-12893],[-43462,188]],[[339127,294425],[7705,26249],[8659,7634]],[[339777,324546],[-11306,-30066]],[[328471,294480],[-33328,8]],[[295143,294488],[-11986,16156]],[[283157,310644],[56620,13902]],[[339777,324546],[591,145]],[[340368,324691],[15123,3617]],[[339127,294425],[-10656,55]],[[336544,290075],[45705,-424],[58644,13580]],[[440893,303231],[-87264,-86584]],[[353629,216647],[-33204,43969]],[[320425,260616],[9975,7625],[6144,21834]],[[325589,290126],[-7056,-19095],[-3751,-2731]],[[314782,268300],[-16383,21922]],[[298399,290222],[27190,-96]],[[325589,290126],[10955,-51]],[[320425,260616],[-5643,7684]],[[590041,328695],[3924,-1508],[18576,432],[9552,2098]],[[622093,329717],[20501,655],[21445,3685],[-426,3673]],[[663613,337730],[47000,10344]],[[710613,348074],[16448,-21813]],[[727061,326261],[0,-325]],[[727061,325936],[-60133,-59720],[-26311,-26130]],[[640617,240086],[-45192,59699]],[[595425,299785],[31258,-19765],[19556,2106],[55196,38359],[-56504,-34476],[-18015,-1897],[-38123,24428]],[[588793,308540],[-8648,11682]],[[580145,320222],[-187,6813],[-1396,1278]],[[578562,328313],[11479,382]],[[574849,332752],[65539,2731],[23004,4151],[221,-1904]],[[622093,329717],[-32052,-1022]],[[578562,328313],[-4801,4393]],[[573761,332706],[1088,46]],[[573761,332706],[-3166,2897]],[[570595,335603],[567,-119],[3687,-2732]],[[703452,357559],[7161,-9485]],[[570595,335603],[-6666,6099]],[[563929,341702],[-21129,28335]],[[542800,370037],[22866,-19803],[14580,-8703],[14337,-4146],[16712,820],[92157,19354]],[[614965,475529],[88487,-117970]],[[542800,370037],[-45,61],[-14572,19154]],[[542800,370037],[-1782,1543],[-17545,9215],[-3943,122]],[[563929,341702],[-33215,30438],[-18200,1720]],[[502588,363971],[6649,1678],[18950,-1418],[45029,-40480],[-31,-5034]],[[573185,318717],[-13941,8899],[-47526,18823],[-61695,-36436],[-2878,-676]],[[573446,313729],[1134,-36696],[2004,-14739],[29745,-55806]],[[606329,206488],[-53086,-52783]],[[553243,153705],[-112350,149526]],[[440893,303231],[8391,2112],[63135,36948],[45797,-18866],[15230,-9696]],[[588793,308540],[-8477,5532]],[[580316,314072],[-171,6150]],[[640617,240086],[-28436,-28119]],[[612181,211967],[-28846,52878],[-1770,12085],[-1057,32261]],[[580508,309191],[14917,-9406]],[[553243,153705],[-87531,-86669],[-112083,149611]],[[610140,199260],[6006,5836]],[[616146,205096],[18353,18411]],[[634499,223507],[11653,-25501],[3333,-28563],[6350,-15167],[-5329,-52905],[11533,-28071],[16171,-15438],[9620,-16893],[10382,-11854]],[[698212,29115],[-28988,-29115]],[[669224,0],[-111223,147434]],[[558001,147434],[52139,51826]],[[645153,234177],[8060,-10731]],[[653213,223446],[42,-4291],[819,-5388],[48345,-126420],[1046,201],[8419,-16570],[12886,-15131]],[[724770,55847],[-23145,-23194]],[[701625,32653],[-10934,12847],[-8544,16085],[-16955,15235],[-9823,24308],[5409,53518],[-6816,16442],[-2918,28783],[-12241,27850]],[[638803,227721],[6350,6456]],[[672115,198143],[40146,-106224],[909,405],[7995,-14667],[10625,-12309],[1359,-1126]],[[733149,64222],[-8379,-8375]],[[653213,223446],[18902,-25303]],[[672115,198143],[83456,-111064],[-22422,-22857]],[[701625,32653],[-3413,-3538]],[[634499,223507],[4304,4214]],[[309700,446709],[1934,-9421]],[[271710,325731],[-2351,-9148]],[[269359,316583],[-2789,3676]],[[266570,320259],[2421,9504]],[[308544,434152],[-2058,9501]],[[573185,318717],[7131,-4645]],[[580508,309191],[-7062,4538]],[[298399,290222],[-9486,80]],[[288913,290302],[-1666,2212]],[[287247,292514],[-1426,1893]],[[285821,294407],[9322,81]],[[340368,324691],[-234,8058]],[[340134,332749],[5935,1451]],[[612181,211967],[-5852,-5479]],[[277563,317824],[-7660,-1935],[-30,-6]],[[269873,315883],[-514,700]],[[235837,373717],[5102,-6501]],[[266570,320259],[-42237,56024]],[[224333,376283],[-159443,212080],[-59760,79490]],[[5130,667853],[5368,5498]],[[272564,944676],[-580,-11586]],[[5130,667853],[-5130,6613],[64890,64330],[207674,205880]],[[272564,944676],[117297,-157170]],[[390193,787063],[-5276,-5358]],[[682327,804263],[-4888,6622]],[[677439,810885],[43244,43408],[2565,-3383],[2533,-3517]],[[285821,294407],[-4676,6254]],[[281145,300661],[-2807,3699]],[[278338,304360],[-3303,4469]],[[275035,308829],[8122,1815]],[[553243,153705],[4758,-6271]],[[558001,147434],[-92709,-91476]],[[465292,55958],[-119294,158960],[-57085,75384]],[[727061,325936],[-7,-10894]],[[727054,315042],[-81901,-80865]],[[645153,234177],[-4536,5909]],[[735218,333444],[3075,-7894]],[[794618,250581],[-5847,-6047],[-54287,72226]],[[734484,316760],[734,16684]],[[326131,463064],[1800,-9567]],[[323762,449210],[-1880,9552]],[[612181,211967],[3965,-6871]],[[610140,199260],[-3811,7228]],[[719494,350103],[-8881,-2029]],[[703452,357559],[8541,2440]],[[734484,316760],[-2424,3225],[-5006,-4943]],[[727061,326261],[417,13224],[-1,36]],[[497046,631824],[5143,-6095]],[[502779,637299],[-5733,-5475]],[[907962,504223],[5019,-6315]],[[36371,229428],[12645,8944]],[[49016,238372],[-3717,-38319],[916,-34631]],[[46215,165422],[-15164,2028],[5320,61978]],[[46879,245595],[3038,2260]],[[49917,247855],[11735,8544],[3238,1029],[144408,45895],[60575,12560]],[[269873,315883],[5162,-7054]],[[275035,308829],[-62218,-12803],[-147811,-46379],[-116,-80],[-11888,-8291]],[[53002,241276],[-3986,-2904]],[[36371,229428],[-4436,5068]],[[31935,234496],[14944,11099]],[[468082,994471],[116293,-124491]],[[272564,944676],[195518,49795]],[[279117,297016],[5877,-7366]],[[284994,289650],[-2034,-2584],[-5452,7059],[1609,2891]],[[669224,0],[-203932,55958]],[[795663,654275],[204336,-218190],[-2985,-6547]],[[997014,429538],[-73102,77838],[-89668,94640]],[[24491,293307],[5376,-13820],[17012,-33892]],[[31935,234496],[-23145,25428],[14453,33084],[1248,299]],[[28293,293777],[5338,-13924],[16286,-31998]],[[24491,293307],[3802,470]],[[28293,293777],[4531,680],[25526,33352],[6540,2915],[29122,12978],[86273,14112],[44048,18469]],[[53002,241276],[-3198,-41108],[888,-35347]],[[50692,164821],[-4477,601]],[[278338,304360],[-4219,-5872],[-10567,-2011],[-12476,-25334],[-7517,-947],[-15451,9006],[-8376,404],[-11897,-7906],[-29348,1604],[-8553,-2788],[-5027,-23732],[-7897,-9083],[-23942,-1220],[-13211,-17293],[-9643,-5626],[-15216,1905],[-14084,-12265],[806,-16171],[-13448,-11857],[-3382,-2320],[-12199,-8365],[-1999,332]],[[287247,292514],[-2253,-2864]],[[279117,297016],[2028,3645]],[[468082,994471],[4732,5528],[118572,-126902]],[[997014,429538],[-28055,-5760]],[[283157,310644],[-5594,7180]],[[330657,330447],[2298,546],[7179,1756]]],"bbox":[-100.044,-598.699,1466.66,768.097],"transform":{"scale":[0.0015667055667055669,0.0013667973667973665],"translate":[-100.044,-598.699]}}
