{"type":"Topology","objects":{"01204-4500-31.featurecollection":{"type":"GeometryCollection","geometries":[{"type":"Polygon","arcs":[[0,1,2,3]],"properties":{"市区町村名":"旭川市","大字名":"江丹別町","丁目名":null,"小字名":"芳野","地番":"412","精度区分":null,"座標系":"任意座標系"}},{"type":"Polygon","arcs":[[4,5]],"properties":{"市区町村名":"旭川市","大字名":"江丹別町","丁目名":null,"小字名":"芳野","地番":"413","精度区分":null,"座標系":"任意座標系"}},{"type":"Polygon","arcs":[[6,7,8]],"properties":{"市区町村名":"旭川市","大字名":"江丹別町","丁目名":null,"小字名":"芳野","地番":"無地番-10","精度区分":null,"座標系":"任意座標系"}},{"type":"Polygon","arcs":[[9]],"properties":{"市区町村名":"旭川市","大字名":"江丹別町","丁目名":null,"小字名":"芳野","地番":"無地番-12","精度区分":null,"座標系":"任意座標系"}},{"type":"Polygon","arcs":[[10,11]],"properties":{"市区町村名":"旭川市","大字名":"江丹別町","丁目名":null,"小字名":"芳野","地番":"無地番-489","精度区分":null,"座標系":"任意座標系"}},{"type":"Polygon","arcs":[[-8,12,13,14,15,-11,16,-1,17]],"properties":{"市区町村名":"旭川市","大字名":"江丹別町","丁目名":null,"小字名":"芳野","地番":"無地番-490","精度区分":null,"座標系":"任意座標系"}},{"type":"Polygon","arcs":[[18,-13,-7]],"properties":{"市区町村名":"旭川市","大字名":"江丹別町","丁目名":null,"小字名":"芳野","地番":"無地番-492","精度区分":null,"座標系":"任意座標系"}},{"type":"Polygon","arcs":[[19,-6,20,-3]],"properties":{"市区町村名":"旭川市","大字名":"江丹別町","丁目名":null,"小字名":"芳野","地番":"456","精度区分":null,"座標系":"任意座標系"}}]}},"arcs":[[[327816,863352],[120726,-214311],[103527,-183400],[16176,-30034]],[[568245,435607],[-104281,-16112]],[[463964,419495],[-107007,72416],[16683,28344],[-63966,35709],[-16287,42362],[-50874,34253],[-178861,66895]],[[63652,699474],[-63652,113423],[327816,50455]],[[449270,417238],[-208137,-32314],[-171177,303016]],[[69956,687940],[162671,-60048],[46401,-31215],[15415,-41598],[63636,-36164],[-18345,-28560],[109536,-73117]],[[999999,593764],[-419921,-155182]],[[580078,438582],[-34835,64842],[-277842,496575]],[[267401,999999],[732598,-406235]],[[819680,19851],[-28226,48359],[85333,-28695],[-57107,-19664]],[[569018,434176],[192426,-337997],[-104291,-14370],[-23271,11158],[-27690,47417],[-137800,-9132]],[[468392,131252],[-317455,-7003],[13310,161777],[404771,148150]],[[580078,438582],[199418,-349270],[121059,-41269],[14257,4550],[52256,48524]],[[967068,101117],[26674,-12577],[-54262,-49249],[-111736,-39291],[-286104,6793],[-14220,16471],[279999,-6889],[12261,3476]],[[819680,19851],[57107,19664],[-85333,28695],[28226,-48359]],[[819680,19851],[-12261,-3476],[-32741,57591],[-21074,7020],[-102809,-13543],[-35783,15876],[-28302,43183],[-108044,-7454],[-10274,12204]],[[569018,434176],[-773,1431]],[[327816,863352],[-72768,133753],[12353,2894]],[[999999,593764],[-32931,-492647]],[[463964,419495],[-14694,-2257]],[[69956,687940],[-6304,11534]]],"bbox":[988.124,-1151.878,1411.346,-340.767],"transform":{"scale":[0.00042322242322242315,0.000811111811111811],"translate":[988.124,-1151.878]}}