{"type":"Topology","objects":{"01204-4500-118":{"type":"GeometryCollection","geometries":[{"type":"MultiPolygon","arcs":[[[0,1,2,3]]],"properties":{"筆ID":"H000000001","version":"ver1.0","座標系":"任意座標系","測地系判別":null,"地図名":"神居町雨粉・図郭座標無","地図番号":"字J3-1","縮尺分母":"1000","市区町村コード":"01204","市区町村名":"旭川市","大字コード":"647","丁目コード":"000","小字コード":"0000","予備コード":"00","大字名":"神居町雨紛","丁目名":null,"小字名":null,"予備名":null,"地番":"121-1","精度区分":null,"座標値種別":"図上測量","筆界未定構成筆":null,"代表点緯度":343.148,"代表点経度":230.184392238}},{"type":"MultiPolygon","arcs":[[[-3,4,5,6,7]]],"properties":{"筆ID":"H000000002","version":"ver1.0","座標系":"任意座標系","測地系判別":null,"地図名":"神居町雨粉・図郭座標無","地図番号":"字J3-1","縮尺分母":"1000","市区町村コード":"01204","市区町村名":"旭川市","大字コード":"647","丁目コード":"000","小字コード":"0000","予備コード":"00","大字名":"神居町雨紛","丁目名":null,"小字名":null,"予備名":null,"地番":"121-119","精度区分":null,"座標値種別":"図上測量","筆界未定構成筆":null,"代表点緯度":294.351,"代表点経度":152.104196594}},{"type":"MultiPolygon","arcs":[[[8,9,10,11,12,13]]],"properties":{"筆ID":"H000000003","version":"ver1.0","座標系":"任意座標系","測地系判別":null,"地図名":"神居町雨粉・図郭座標無","地図番号":"字J3-1","縮尺分母":"1000","市区町村コード":"01204","市区町村名":"旭川市","大字コード":"647","丁目コード":"000","小字コード":"0000","予備コード":"00","大字名":"神居町雨紛","丁目名":null,"小字名":null,"予備名":null,"地番":"121-120","精度区分":null,"座標値種別":"図上測量","筆界未定構成筆":null,"代表点緯度":228.509,"代表点経度":78.988628849}},{"type":"MultiPolygon","arcs":[[[14,-6,15,16]]],"properties":{"筆ID":"H000000004","version":"ver1.0","座標系":"任意座標系","測地系判別":null,"地図名":"神居町雨粉・図郭座標無","地図番号":"字J3-1","縮尺分母":"1000","市区町村コード":"01204","市区町村名":"旭川市","大字コード":"647","丁目コード":"000","小字コード":"0000","予備コード":"00","大字名":"神居町雨紛","丁目名":null,"小字名":null,"予備名":null,"地番":"121-121","精度区分":null,"座標値種別":"図上測量","筆界未定構成筆":null,"代表点緯度":267.148,"代表点経度":118.794682524}},{"type":"MultiPolygon","arcs":[[[17,18,19,20,21,22,23,-11]]],"properties":{"筆ID":"H000000005","version":"ver1.0","座標系":"任意座標系","測地系判別":null,"地図名":"神居町雨粉・図郭座標無","地図番号":"字J3-1","縮尺分母":"1000","市区町村コード":"01204","市区町村名":"旭川市","大字コード":"647","丁目コード":"000","小字コード":"0000","予備コード":"00","大字名":"神居町雨紛","丁目名":null,"小字名":null,"予備名":null,"地番":"121-122","精度区分":null,"座標値種別":"図上測量","筆界未定構成筆":null,"代表点緯度":244.606,"代表点経度":110.595703724}},{"type":"MultiPolygon","arcs":[[[-22,24]]],"properties":{"筆ID":"H000000006","version":"ver1.0","座標系":"任意座標系","測地系判別":null,"地図名":"神居町雨粉・図郭座標無","地図番号":"字J3-1","縮尺分母":"1000","市区町村コード":"01204","市区町村名":"旭川市","大字コード":"647","丁目コード":"000","小字コード":"0000","予備コード":"00","大字名":"神居町雨紛","丁目名":null,"小字名":null,"予備名":null,"地番":"121-123","精度区分":null,"座標値種別":"図上測量","筆界未定構成筆":null,"代表点緯度":244.257,"代表点経度":90.814465748}},{"type":"MultiPolygon","arcs":[[[25,26,27,28]]],"properties":{"筆ID":"H000000007","version":"ver1.0","座標系":"任意座標系","測地系判別":null,"地図名":"神居町雨粉・図郭座標無","地図番号":"字J3-1","縮尺分母":"1000","市区町村コード":"01204","市区町村名":"旭川市","大字コード":"647","丁目コード":"000","小字コード":"0000","予備コード":"00","大字名":"神居町雨紛","丁目名":null,"小字名":null,"予備名":null,"地番":"121-124","精度区分":null,"座標値種別":"図上測量","筆界未定構成筆":null,"代表点緯度":258.5005,"代表点経度":163.902335156}},{"type":"MultiPolygon","arcs":[[[-12,-26,29]]],"properties":{"筆ID":"H000000008","version":"ver1.0","座標系":"任意座標系","測地系判別":null,"地図名":"神居町雨粉・図郭座標無","地図番号":"字J3-1","縮尺分母":"1000","市区町村コード":"01204","市区町村名":"旭川市","大字コード":"647","丁目コード":"000","小字コード":"0000","予備コード":"00","大字名":"神居町雨紛","丁目名":null,"小字名":null,"予備名":null,"地番":"121-125","精度区分":null,"座標値種別":"図上測量","筆界未定構成筆":null,"代表点緯度":245.5235,"代表点経度":143.294934248}},{"type":"MultiPolygon","arcs":[[[30,31,-27,-24]]],"properties":{"筆ID":"H000000009","version":"ver1.0","座標系":"任意座標系","測地系判別":null,"地図名":"神居町雨粉・図郭座標無","地図番号":"字J3-1","縮尺分母":"1000","市区町村コード":"01204","市区町村名":"旭川市","大字コード":"647","丁目コード":"000","小字コード":"0000","予備コード":"00","大字名":"神居町雨紛","丁目名":null,"小字名":null,"予備名":null,"地番":"121-126","精度区分":null,"座標値種別":"図上測量","筆界未定構成筆":null,"代表点緯度":253.155,"代表点経度":143.724040312}},{"type":"MultiPolygon","arcs":[[[32,33,-10]]],"properties":{"筆ID":"H000000010","version":"ver1.0","座標系":"任意座標系","測地系判別":null,"地図名":"神居町雨粉・図郭座標無","地図番号":"字J3-1","縮尺分母":"1000","市区町村コード":"01204","市区町村名":"旭川市","大字コード":"647","丁目コード":"000","小字コード":"0000","予備コード":"00","大字名":"神居町雨紛","丁目名":null,"小字名":null,"予備名":null,"地番":"121-127","精度区分":null,"座標値種別":"図上測量","筆界未定構成筆":null,"代表点緯度":224.4855,"代表点経度":31.299843483}},{"type":"MultiPolygon","arcs":[[[-34,34,35,-18]]],"properties":{"筆ID":"H000000011","version":"ver1.0","座標系":"任意座標系","測地系判別":null,"地図名":"神居町雨粉・図郭座標無","地図番号":"字J3-1","縮尺分母":"1000","市区町村コード":"01204","市区町村名":"旭川市","大字コード":"647","丁目コード":"000","小字コード":"0000","予備コード":"00","大字名":"神居町雨紛","丁目名":null,"小字名":null,"予備名":null,"地番":"121-128","精度区分":null,"座標値種別":"図上測量","筆界未定構成筆":null,"代表点緯度":236.9375,"代表点経度":50.660745993}},{"type":"MultiPolygon","arcs":[[[-9,36,37,38,-33]]],"properties":{"筆ID":"H000000012","version":"ver1.0","座標系":"任意座標系","測地系判別":null,"地図名":"神居町雨粉・図郭座標無","地図番号":"字J3-1","縮尺分母":"1000","市区町村コード":"01204","市区町村名":"旭川市","大字コード":"647","丁目コード":"000","小字コード":"0000","予備コード":"00","大字名":"神居町雨紛","丁目名":null,"小字名":null,"予備名":null,"地番":"121-129","精度区分":null,"座標値種別":"図上測量","筆界未定構成筆":null,"代表点緯度":204.9805,"代表点経度":36.333548375}},{"type":"MultiPolygon","arcs":[[[39,40,41,42]]],"properties":{"筆ID":"H000000013","version":"ver1.0","座標系":"任意座標系","測地系判別":null,"地図名":"神居町雨粉・図郭座標無","地図番号":"字J3-1","縮尺分母":"1000","市区町村コード":"01204","市区町村名":"旭川市","大字コード":"647","丁目コード":"000","小字コード":"0000","予備コード":"00","大字名":"神居町雨紛","丁目名":null,"小字名":null,"予備名":null,"地番":"121-130","精度区分":null,"座標値種別":"図上測量","筆界未定構成筆":null,"代表点緯度":235.386,"代表点経度":18.667483555}},{"type":"MultiPolygon","arcs":[[[43,44]]],"properties":{"筆ID":"H000000014","version":"ver1.0","座標系":"任意座標系","測地系判別":null,"地図名":"神居町雨粉・図郭座標無","地図番号":"字J3-1","縮尺分母":"1000","市区町村コード":"01204","市区町村名":"旭川市","大字コード":"647","丁目コード":"000","小字コード":"0000","予備コード":"00","大字名":"神居町雨紛","丁目名":null,"小字名":null,"予備名":null,"地番":"121-131","精度区分":null,"座標値種別":"図上測量","筆界未定構成筆":null,"代表点緯度":246.136,"代表点経度":71.235125054}},{"type":"MultiPolygon","arcs":[[[-44,45,-20,46]]],"properties":{"筆ID":"H000000015","version":"ver1.0","座標系":"任意座標系","測地系判別":null,"地図名":"神居町雨粉・図郭座標無","地図番号":"字J3-1","縮尺分母":"1000","市区町村コード":"01204","市区町村名":"旭川市","大字コード":"647","丁目コード":"000","小字コード":"0000","予備コード":"00","大字名":"神居町雨紛","丁目名":null,"小字名":null,"予備名":null,"地番":"121-132","精度区分":null,"座標値種別":"図上測量","筆界未定構成筆":null,"代表点緯度":243.897,"代表点経度":75.760681884}},{"type":"MultiPolygon","arcs":[[[47,48,-37,-14]]],"properties":{"筆ID":"H000000016","version":"ver1.0","座標系":"任意座標系","測地系判別":null,"地図名":"神居町雨粉・図郭座標無","地図番号":"字J3-1","縮尺分母":"1000","市区町村コード":"01204","市区町村名":"旭川市","大字コード":"647","丁目コード":"000","小字コード":"0000","予備コード":"00","大字名":"神居町雨紛","丁目名":null,"小字名":null,"予備名":null,"地番":"121-133","精度区分":null,"座標値種別":"図上測量","筆界未定構成筆":null,"代表点緯度":202.1895,"代表点経度":55.349954219}},{"type":"MultiPolygon","arcs":[[[-19,49,-47]]],"properties":{"筆ID":"H000000017","version":"ver1.0","座標系":"任意座標系","測地系判別":null,"地図名":"神居町雨粉・図郭座標無","地図番号":"字J3-1","縮尺分母":"1000","市区町村コード":"01204","市区町村名":"旭川市","大字コード":"647","丁目コード":"000","小字コード":"0000","予備コード":"00","大字名":"神居町雨紛","丁目名":null,"小字名":null,"予備名":null,"地番":"121-134","精度区分":null,"座標値種別":"図上測量","筆界未定構成筆":null,"代表点緯度":243.897,"代表点経度":69.480018343}},{"type":"MultiPolygon","arcs":[[[-23,50,-21,-46,51,-17,52]]],"properties":{"筆ID":"H000000018","version":"ver1.0","座標系":"任意座標系","測地系判別":null,"地図名":"神居町雨粉・図郭座標無","地図番号":"字J3-1","縮尺分母":"1000","市区町村コード":"01204","市区町村名":"旭川市","大字コード":"647","丁目コード":"000","小字コード":"0000","予備コード":"00","大字名":"神居町雨紛","丁目名":null,"小字名":null,"予備名":null,"地番":"121-135","精度区分":null,"座標値種別":"図上測量","筆界未定構成筆":null,"代表点緯度":255.7065,"代表点経度":113.12774919}},{"type":"MultiPolygon","arcs":[[[-51,-25]]],"properties":{"筆ID":"H000000019","version":"ver1.0","座標系":"任意座標系","測地系判別":null,"地図名":"神居町雨粉・図郭座標無","地図番号":"字J3-1","縮尺分母":"1000","市区町村コード":"01204","市区町村名":"旭川市","大字コード":"647","丁目コード":"000","小字コード":"0000","予備コード":"00","大字名":"神居町雨紛","丁目名":null,"小字名":null,"予備名":null,"地番":"121-136","精度区分":null,"座標値種別":"図上測量","筆界未定構成筆":null,"代表点緯度":249.9445,"代表点経度":89.77578596}},{"type":"MultiPolygon","arcs":[[[53,54,55]]],"properties":{"筆ID":"H000000020","version":"ver1.0","座標系":"任意座標系","測地系判別":null,"地図名":"神居町雨粉・図郭座標無","地図番号":"字J3-1","縮尺分母":"1000","市区町村コード":"01204","市区町村名":"旭川市","大字コード":"647","丁目コード":"000","小字コード":"0000","予備コード":"00","大字名":"神居町雨紛","丁目名":null,"小字名":null,"予備名":null,"地番":"121-137","精度区分":null,"座標値種別":"図上測量","筆界未定構成筆":null,"代表点緯度":248.92,"代表点経度":26.726553873}},{"type":"MultiPolygon","arcs":[[[56,57,-54,58,59]]],"properties":{"筆ID":"H000000021","version":"ver1.0","座標系":"任意座標系","測地系判別":null,"地図名":"神居町雨粉・図郭座標無","地図番号":"字J3-1","縮尺分母":"1000","市区町村コード":"01204","市区町村名":"旭川市","大字コード":"647","丁目コード":"000","小字コード":"0000","予備コード":"00","大字名":"神居町雨紛","丁目名":null,"小字名":null,"予備名":null,"地番":"121-138","精度区分":null,"座標値種別":"図上測量","筆界未定構成筆":null,"代表点緯度":245.4065,"代表点経度":17.017546446}},{"type":"MultiPolygon","arcs":[[[-39,60,-40,-35]]],"properties":{"筆ID":"H000000022","version":"ver1.0","座標系":"任意座標系","測地系判別":null,"地図名":"神居町雨粉・図郭座標無","地図番号":"字J3-1","縮尺分母":"1000","市区町村コード":"01204","市区町村名":"旭川市","大字コード":"647","丁目コード":"000","小字コード":"0000","予備コード":"00","大字名":"神居町雨紛","丁目名":null,"小字名":null,"予備名":null,"地番":"121-139","精度区分":null,"座標値種別":"図上測量","筆界未定構成筆":null,"代表点緯度":229.228,"代表点経度":22.257341057}},{"type":"MultiPolygon","arcs":[[[-28,61,62,63]]],"properties":{"筆ID":"H000000023","version":"ver1.0","座標系":"任意座標系","測地系判別":null,"地図名":"神居町雨粉・図郭座標無","地図番号":"字J3-1","縮尺分母":"1000","市区町村コード":"01204","市区町村名":"旭川市","大字コード":"647","丁目コード":"000","小字コード":"0000","予備コード":"00","大字名":"神居町雨紛","丁目名":null,"小字名":null,"予備名":null,"地番":"121-140","精度区分":null,"座標値種別":"図上測量","筆界未定構成筆":null,"代表点緯度":272.851,"代表点経度":190.838624973}},{"type":"MultiPolygon","arcs":[[[-63,64,-2,65]]],"properties":{"筆ID":"H000000024","version":"ver1.0","座標系":"任意座標系","測地系判別":null,"地図名":"神居町雨粉・図郭座標無","地図番号":"字J3-1","縮尺分母":"1000","市区町村コード":"01204","市区町村名":"旭川市","大字コード":"647","丁目コード":"000","小字コード":"0000","予備コード":"00","大字名":"神居町雨紛","丁目名":null,"小字名":null,"予備名":null,"地番":"121-141","精度区分":null,"座標値種別":"図上測量","筆界未定構成筆":null,"代表点緯度":293.5225,"代表点経度":220.125426088}},{"type":"MultiPolygon","arcs":[[[-62,-32,66]]],"properties":{"筆ID":"H000000025","version":"ver1.0","座標系":"任意座標系","測地系判別":null,"地図名":"神居町雨粉・図郭座標無","地図番号":"字J3-1","縮尺分母":"1000","市区町村コード":"01204","市区町村名":"旭川市","大字コード":"647","丁目コード":"000","小字コード":"0000","予備コード":"00","大字名":"神居町雨紛","丁目名":null,"小字名":null,"予備名":null,"地番":"121-142","精度区分":null,"座標値種別":"図上測量","筆界未定構成筆":null,"代表点緯度":265.8525,"代表点経度":162.606817751}},{"type":"MultiPolygon","arcs":[[[67,-16,-5,-65,-67]]],"properties":{"筆ID":"H000000026","version":"ver1.0","座標系":"任意座標系","測地系判別":null,"地図名":"神居町雨粉・図郭座標無","地図番号":"字J3-1","縮尺分母":"1000","市区町村コード":"01204","市区町村名":"旭川市","大字コード":"647","丁目コード":"000","小字コード":"0000","予備コード":"00","大字名":"神居町雨紛","丁目名":null,"小字名":null,"予備名":null,"地番":"121-143","精度区分":null,"座標値種別":"図上測量","筆界未定構成筆":null,"代表点緯度":282.2925,"代表点経度":176.584504346}},{"type":"MultiPolygon","arcs":[[[-15,68,69,-59,-56,-7]]],"properties":{"筆ID":"H000000027","version":"ver1.0","座標系":"任意座標系","測地系判別":null,"地図名":"神居町雨粉・図郭座標無","地図番号":"字J3-1","縮尺分母":"1000","市区町村コード":"01204","市区町村名":"旭川市","大字コード":"647","丁目コード":"000","小字コード":"0000","予備コード":"00","大字名":"神居町雨紛","丁目名":null,"小字名":null,"予備名":null,"地番":"121-144","精度区分":null,"座標値種別":"図上測量","筆界未定構成筆":null,"代表点緯度":262.605,"代表点経度":89.340273176}},{"type":"MultiPolygon","arcs":[[[-53,-68,-31]]],"properties":{"筆ID":"H000000028","version":"ver1.0","座標系":"任意座標系","測地系判別":null,"地図名":"神居町雨粉・図郭座標無","地図番号":"字J3-1","縮尺分母":"1000","市区町村コード":"01204","市区町村名":"旭川市","大字コード":"647","丁目コード":"000","小字コード":"0000","予備コード":"00","大字名":"神居町雨紛","丁目名":null,"小字名":null,"予備名":null,"地番":"121-145","精度区分":null,"座標値種別":"図上測量","筆界未定構成筆":null,"代表点緯度":262.0635,"代表点経度":144.035731099}},{"type":"MultiPolygon","arcs":[[[-50,-36,-43,-69,-52,-45]]],"properties":{"筆ID":"H000000029","version":"ver1.0","座標系":"任意座標系","測地系判別":null,"地図名":"神居町雨粉・図郭座標無","地図番号":"字J3-1","縮尺分母":"1000","市区町村コード":"01204","市区町村名":"旭川市","大字コード":"647","丁目コード":"000","小字コード":"0000","予備コード":"00","大字名":"神居町雨紛","丁目名":null,"小字名":null,"予備名":null,"地番":"121-146","精度区分":null,"座標値種別":"図上測量","筆界未定構成筆":null,"代表点緯度":241.131,"代表点経度":43.031347794}},{"type":"MultiPolygon","arcs":[[[70,-57,71,-41,-61,-38,-49,72]]],"properties":{"筆ID":"H000000030","version":"ver1.0","座標系":"任意座標系","測地系判別":null,"地図名":"神居町雨粉・図郭座標無","地図番号":"字J3-1","縮尺分母":"1000","市区町村コード":"01204","市区町村名":"旭川市","大字コード":"647","丁目コード":"000","小字コード":"0000","予備コード":"00","大字名":"神居町雨紛","丁目名":null,"小字名":null,"予備名":null,"地番":"道-294","精度区分":null,"座標値種別":"図上測量","筆界未定構成筆":null,"代表点緯度":211.1035,"代表点経度":14.727447176}},{"type":"MultiPolygon","arcs":[[[-60,-70,-42,-72]]],"properties":{"筆ID":"H000000031","version":"ver1.0","座標系":"任意座標系","測地系判別":null,"地図名":"神居町雨粉・図郭座標無","地図番号":"字J3-1","縮尺分母":"1000","市区町村コード":"01204","市区町村名":"旭川市","大字コード":"647","丁目コード":"000","小字コード":"0000","予備コード":"00","大字名":"神居町雨紛","丁目名":null,"小字名":null,"予備名":null,"地番":"121-98","精度区分":null,"座標値種別":"図上測量","筆界未定構成筆":null,"代表点緯度":241.2715,"代表点経度":15.226499109}},{"type":"MultiPolygon","arcs":[[[-8,-55,-58,-71,73,-4]]],"properties":{"筆ID":"H000000032","version":"ver1.0","座標系":"任意座標系","測地系判別":null,"地図名":"神居町雨粉・図郭座標無","地図番号":"字J3-1","縮尺分母":"1000","市区町村コード":"01204","市区町村名":"旭川市","大字コード":"647","丁目コード":"000","小字コード":"0000","予備コード":"00","大字名":"神居町雨紛","丁目名":null,"小字名":null,"予備名":null,"地番":"121-2","精度区分":null,"座標値種別":"図上測量","筆界未定構成筆":null,"代表点緯度":321.731,"代表点経度":125.015764316}}]}},"arcs":[[[873716,961881],[126283,-276323],[-74022,-54612]],[[925977,630946],[-150846,-50631]],[[775131,580315],[-76683,169779]],[[698448,750094],[4110,2928],[29440,21340],[29009,21244],[28851,20936],[23444,17046],[6244,4470],[29475,21628],[35316,25999],[-6851,47706],[-3770,28490]],[[775131,580315],[-267870,-89958]],[[507261,490357],[-1525,2888],[-9206,-6769]],[[496530,486476],[-285845,-95742]],[[210685,390734],[4842,3769],[26566,19329],[27852,20483],[18101,13422],[5100,3749],[29537,21985],[5695,4189],[24173,17940],[28638,21356],[29439,21148],[28632,21051],[24205,18184],[5122,3621],[29993,22129],[4795,3525],[25132,18308],[28629,21208],[28672,20915],[29342,21733],[24711,17799],[4484,3445],[28883,21640],[4735,3389],[20485,15043]],[[224623,241510],[-15344,33243]],[[209279,274753],[57003,42192]],[[266282,316945],[291954,62502]],[[558236,379447],[6223,-13534]],[[564459,365913],[-198935,-146761]],[[365524,219152],[-33710,72968],[-34785,-25654],[-9530,21244],[-62876,-46200]],[[373111,395716],[123419,90760]],[[507261,490357],[26748,-58249]],[[534009,432108],[-160898,-36392]],[[266282,316945],[58043,42692]],[[324325,359637],[13611,3777]],[[337936,363414],[3132,-24332],[34514,7658],[-3858,27857]],[[371724,374597],[11559,3757]],[[383283,378354],[4282,-28963],[34197,7470],[-4471,32074]],[[417291,388935],[118970,38111]],[[536261,427046],[21975,-47599]],[[383283,378354],[34008,10581]],[[593408,386853],[-35172,-7406]],[[558236,379447],[112926,83013]],[[671162,462460],[36505,8091]],[[707667,470551],[-114259,-83698]],[[593408,386853],[-28949,-20940]],[[536261,427046],[60266,18700]],[[596527,445746],[74635,16714]],[[209279,274753],[-12284,27328]],[[196995,302081],[69287,14864]],[[196995,302081],[-6783,14828]],[[190212,316909],[134113,42728]],[[224623,241510],[28349,-62431],[-11191,-8302]],[[241781,170777],[-58495,128084]],[[183286,298861],[13709,3220]],[[190212,316909],[-13143,-4166]],[[177069,312743],[-15721,34502]],[[161348,347245],[13269,3292]],[[174617,350537],[15595,-33628]],[[362276,387462],[-25057,-18545]],[[337219,368917],[-1654,12432],[26711,6113]],[[362276,387462],[7694,1890],[1754,-14755]],[[337936,363414],[-717,5503]],[[365524,219152],[-109288,-80265]],[[256236,138887],[-14455,31890]],[[324325,359637],[12894,9280]],[[417291,388935],[-1651,10951],[-34319,-8047],[1962,-13485]],[[362276,387462],[10835,8254]],[[534009,432108],[2252,-5062]],[[187845,373876],[-3607,7958]],[[184238,381834],[26447,8900]],[[210685,390734],[-22840,-16858]],[[153632,364103],[-3078,6444]],[[150554,370547],[33684,11287]],[[187845,373876],[-7949,-5744]],[[179896,368132],[-26264,-4029]],[[183286,298861],[-6217,13882]],[[671162,462460],[16945,12461]],[[688107,474921],[45170,14426]],[[733277,489347],[-25610,-18796]],[[688107,474921],[101116,74622],[-14092,30772]],[[925977,630946],[-192700,-141599]],[[596527,445746],[91580,29175]],[[596527,445746],[-62518,-13638]],[[373111,395716],[-198494,-45179]],[[174617,350537],[-4638,10225],[9917,7370]],[[113659,452115],[11102,-24148],[16505,-36416],[9288,-21004]],[[153632,364103],[7716,-16858]],[[256236,138887],[38869,-85220],[-74101,-53667],[-221004,485567],[74167,53518],[39492,-86970]],[[113659,452115],[742672,547884],[7509,-16285],[9876,-21833]]],"bbox":[-37.218,152.476,280.821,402.147],"transform":{"scale":[0.0003180393180393181,0.0002496712496712497],"translate":[-37.218,152.476]}}
