{"type":"Topology","objects":{"01204-4500-32":{"type":"GeometryCollection","geometries":[{"type":"MultiPolygon","arcs":[[[0,1,2,3,4]]],"properties":{"筆ID":"H000000001","version":"ver1.0","座標系":"任意座標系","測地系判別":null,"地図名":"旭川市開拓図・開芳２・図郭無","地図番号":"開芳2","縮尺分母":"3000","市区町村コード":"01204","市区町村名":"旭川市","大字コード":"153","丁目コード":"000","小字コード":"0010","予備コード":"00","大字名":"江丹別町","丁目名":null,"小字名":"芳野","予備名":null,"地番":"298W2","精度区分":null,"座標値種別":"図上測量","筆界未定構成筆":null,"代表点緯度":-541.223,"代表点経度":914.373397432}},{"type":"MultiPolygon","arcs":[[[5,6,7,8]]],"properties":{"筆ID":"H000000002","version":"ver1.0","座標系":"任意座標系","測地系判別":null,"地図名":"旭川市開拓図・開芳２・図郭無","地図番号":"開芳2","縮尺分母":"3000","市区町村コード":"01204","市区町村名":"旭川市","大字コード":"153","丁目コード":"000","小字コード":"0010","予備コード":"00","大字名":"江丹別町","丁目名":null,"小字名":"芳野","予備名":null,"地番":"442","精度区分":null,"座標値種別":"図上測量","筆界未定構成筆":null,"代表点緯度":-327.8975,"代表点経度":704.508002118}},{"type":"MultiPolygon","arcs":[[[9,-4,10,11,12,13]]],"properties":{"筆ID":"H000000003","version":"ver1.0","座標系":"任意座標系","測地系判別":null,"地図名":"旭川市開拓図・開芳２・図郭無","地図番号":"開芳2","縮尺分母":"3000","市区町村コード":"01204","市区町村名":"旭川市","大字コード":"153","丁目コード":"000","小字コード":"0010","予備コード":"00","大字名":"江丹別町","丁目名":null,"小字名":"芳野","予備名":null,"地番":"443-1","精度区分":null,"座標値種別":"図上測量","筆界未定構成筆":null,"代表点緯度":-590.84,"代表点経度":746.277871829}},{"type":"MultiPolygon","arcs":[[[14,-11,-3]]],"properties":{"筆ID":"H000000004","version":"ver1.0","座標系":"任意座標系","測地系判別":null,"地図名":"旭川市開拓図・開芳２・図郭無","地図番号":"開芳2","縮尺分母":"3000","市区町村コード":"01204","市区町村名":"旭川市","大字コード":"153","丁目コード":"000","小字コード":"0010","予備コード":"00","大字名":"江丹別町","丁目名":null,"小字名":"芳野","予備名":null,"地番":"443-2","精度区分":null,"座標値種別":"図上測量","筆界未定構成筆":null,"代表点緯度":-630.116,"代表点経度":807.695707771}},{"type":"MultiPolygon","arcs":[[[15,-14,16,17]]],"properties":{"筆ID":"H000000005","version":"ver1.0","座標系":"任意座標系","測地系判別":null,"地図名":"旭川市開拓図・開芳２・図郭無","地図番号":"開芳2","縮尺分母":"3000","市区町村コード":"01204","市区町村名":"旭川市","大字コード":"153","丁目コード":"000","小字コード":"0010","予備コード":"00","大字名":"江丹別町","丁目名":null,"小字名":"芳野","予備名":null,"地番":"443-3","精度区分":null,"座標値種別":"図上測量","筆界未定構成筆":null,"代表点緯度":-472.239,"代表点経度":729.935338697}},{"type":"MultiPolygon","arcs":[[[18,19,20,21,22,23,24,25,26,27,28]]],"properties":{"筆ID":"H000000006","version":"ver1.0","座標系":"任意座標系","測地系判別":null,"地図名":"旭川市開拓図・開芳２・図郭無","地図番号":"開芳2","縮尺分母":"3000","市区町村コード":"01204","市区町村名":"旭川市","大字コード":"153","丁目コード":"000","小字コード":"0010","予備コード":"00","大字名":"江丹別町","丁目名":null,"小字名":"芳野","予備名":null,"地番":"444-1","精度区分":null,"座標値種別":"図上測量","筆界未定構成筆":null,"代表点緯度":-730.8205,"代表点経度":921.046553581}},{"type":"MultiPolygon","arcs":[[[-23,29,30,31]]],"properties":{"筆ID":"H000000007","version":"ver1.0","座標系":"任意座標系","測地系判別":null,"地図名":"旭川市開拓図・開芳２・図郭無","地図番号":"開芳2","縮尺分母":"3000","市区町村コード":"01204","市区町村名":"旭川市","大字コード":"153","丁目コード":"000","小字コード":"0010","予備コード":"00","大字名":"江丹別町","丁目名":null,"小字名":"芳野","予備名":null,"地番":"444-2","精度区分":null,"座標値種別":"図上測量","筆界未定構成筆":null,"代表点緯度":-817.523,"代表点経度":778.787108305}},{"type":"MultiPolygon","arcs":[[[-32,32,-24]]],"properties":{"筆ID":"H000000008","version":"ver1.0","座標系":"任意座標系","測地系判別":null,"地図名":"旭川市開拓図・開芳２・図郭無","地図番号":"開芳2","縮尺分母":"3000","市区町村コード":"01204","市区町村名":"旭川市","大字コード":"153","丁目コード":"000","小字コード":"0010","予備コード":"00","大字名":"江丹別町","丁目名":null,"小字名":"芳野","予備名":null,"地番":"444-3","精度区分":null,"座標値種別":"図上測量","筆界未定構成筆":null,"代表点緯度":-753.0055,"代表点経度":758.141403292}},{"type":"MultiPolygon","arcs":[[[-31,33,34]]],"properties":{"筆ID":"H000000009","version":"ver1.0","座標系":"任意座標系","測地系判別":null,"地図名":"旭川市開拓図・開芳２・図郭無","地図番号":"開芳2","縮尺分母":"3000","市区町村コード":"01204","市区町村名":"旭川市","大字コード":"153","丁目コード":"000","小字コード":"0010","予備コード":"00","大字名":"江丹別町","丁目名":null,"小字名":"芳野","予備名":null,"地番":"444-4","精度区分":null,"座標値種別":"図上測量","筆界未定構成筆":null,"代表点緯度":-819.4045,"代表点経度":725.588782464}},{"type":"MultiPolygon","arcs":[[[35,-25,-33,-35,36,-27]]],"properties":{"筆ID":"H000000010","version":"ver1.0","座標系":"任意座標系","測地系判別":null,"地図名":"旭川市開拓図・開芳２・図郭無","地図番号":"開芳2","縮尺分母":"3000","市区町村コード":"01204","市区町村名":"旭川市","大字コード":"153","丁目コード":"000","小字コード":"0010","予備コード":"00","大字名":"江丹別町","丁目名":null,"小字名":"芳野","予備名":null,"地番":"444-5","精度区分":null,"座標値種別":"図上測量","筆界未定構成筆":null,"代表点緯度":-824.0515,"代表点経度":693.59535817}},{"type":"MultiPolygon","arcs":[[[-36,-26]]],"properties":{"筆ID":"H000000011","version":"ver1.0","座標系":"任意座標系","測地系判別":null,"地図名":"旭川市開拓図・開芳２・図郭無","地図番号":"開芳2","縮尺分母":"3000","市区町村コード":"01204","市区町村名":"旭川市","大字コード":"153","丁目コード":"000","小字コード":"0010","予備コード":"00","大字名":"江丹別町","丁目名":null,"小字名":"芳野","予備名":null,"地番":"444-6","精度区分":null,"座標値種別":"図上測量","筆界未定構成筆":null,"代表点緯度":-797.6095,"代表点経度":705.453065059}},{"type":"MultiPolygon","arcs":[[[37,38,39,40,41,42,43,-20]]],"properties":{"筆ID":"H000000012","version":"ver1.0","座標系":"任意座標系","測地系判別":null,"地図名":"旭川市開拓図・開芳２・図郭無","地図番号":"開芳2","縮尺分母":"3000","市区町村コード":"01204","市区町村名":"旭川市","大字コード":"153","丁目コード":"000","小字コード":"0010","予備コード":"00","大字名":"江丹別町","丁目名":null,"小字名":"芳野","予備名":null,"地番":"446-1","精度区分":null,"座標値種別":"図上測量","筆界未定構成筆":null,"代表点緯度":-852.0915,"代表点経度":979.154904353}},{"type":"MultiPolygon","arcs":[[[-21,-44,44,45,46]]],"properties":{"筆ID":"H000000013","version":"ver1.0","座標系":"任意座標系","測地系判別":null,"地図名":"旭川市開拓図・開芳２・図郭無","地図番号":"開芳2","縮尺分母":"3000","市区町村コード":"01204","市区町村名":"旭川市","大字コード":"153","丁目コード":"000","小字コード":"0010","予備コード":"00","大字名":"江丹別町","丁目名":null,"小字名":"芳野","予備名":null,"地番":"446-3","精度区分":null,"座標値種別":"図上測量","筆界未定構成筆":null,"代表点緯度":-925.955,"代表点経度":833.284841217}},{"type":"MultiPolygon","arcs":[[[47,48,49,-38,-19,50]]],"properties":{"筆ID":"H000000014","version":"ver1.0","座標系":"任意座標系","測地系判別":null,"地図名":"旭川市開拓図・開芳２・図郭無","地図番号":"開芳2","縮尺分母":"3000","市区町村コード":"01204","市区町村名":"旭川市","大字コード":"153","丁目コード":"000","小字コード":"0010","予備コード":"00","大字名":"江丹別町","丁目名":null,"小字名":"芳野","予備名":null,"地番":"474","精度区分":null,"座標値種別":"図上測量","筆界未定構成筆":null,"代表点緯度":-633.5945,"代表点経度":1032.386662578}},{"type":"MultiPolygon","arcs":[[[-13,51,52,53,54]]],"properties":{"筆ID":"H000000015","version":"ver1.0","座標系":"任意座標系","測地系判別":null,"地図名":"旭川市開拓図・開芳２・図郭無","地図番号":"開芳2","縮尺分母":"3000","市区町村コード":"01204","市区町村名":"旭川市","大字コード":"153","丁目コード":"000","小字コード":"0010","予備コード":"00","大字名":"江丹別町","丁目名":null,"小字名":"芳野","予備名":null,"地番":"483-1","精度区分":null,"座標値種別":"図上測量","筆界未定構成筆":null,"代表点緯度":-650.291,"代表点経度":716.875499182}},{"type":"MultiPolygon","arcs":[[[-17,-55,55,56]]],"properties":{"筆ID":"H000000016","version":"ver1.0","座標系":"任意座標系","測地系判別":null,"地図名":"旭川市開拓図・開芳２・図郭無","地図番号":"開芳2","縮尺分母":"3000","市区町村コード":"01204","市区町村名":"旭川市","大字コード":"153","丁目コード":"000","小字コード":"0010","予備コード":"00","大字名":"江丹別町","丁目名":null,"小字名":"芳野","予備名":null,"地番":"483-2","精度区分":null,"座標値種別":"図上測量","筆界未定構成筆":null,"代表点緯度":-500.515,"代表点経度":673.086642025}},{"type":"MultiPolygon","arcs":[[[57,58,59,60]]],"properties":{"筆ID":"H000000017","version":"ver1.0","座標系":"任意座標系","測地系判別":null,"地図名":"旭川市開拓図・開芳２・図郭無","地図番号":"開芳2","縮尺分母":"3000","市区町村コード":"01204","市区町村名":"旭川市","大字コード":"153","丁目コード":"000","小字コード":"0010","予備コード":"00","大字名":"江丹別町","丁目名":null,"小字名":"芳野","予備名":null,"地番":"無地番-1","精度区分":null,"座標値種別":"図上測量","筆界未定構成筆":null,"代表点緯度":-947.823,"代表点経度":780.42536106}},{"type":"MultiPolygon","arcs":[[[61,-46,62,63,64,-58,65]]],"properties":{"筆ID":"H000000018","version":"ver1.0","座標系":"任意座標系","測地系判別":null,"地図名":"旭川市開拓図・開芳２・図郭無","地図番号":"開芳2","縮尺分母":"3000","市区町村コード":"01204","市区町村名":"旭川市","大字コード":"153","丁目コード":"000","小字コード":"0010","予備コード":"00","大字名":"江丹別町","丁目名":null,"小字名":"芳野","予備名":null,"地番":"無地番-2","精度区分":null,"座標値種別":"図上測量","筆界未定構成筆":null,"代表点緯度":-935.185,"代表点経度":803.828250533}},{"type":"MultiPolygon","arcs":[[[66,67,-9,68,69,70]]],"properties":{"筆ID":"H000000019","version":"ver1.0","座標系":"任意座標系","測地系判別":null,"地図名":"旭川市開拓図・開芳２・図郭無","地図番号":"開芳2","縮尺分母":"3000","市区町村コード":"01204","市区町村名":"旭川市","大字コード":"153","丁目コード":"000","小字コード":"0010","予備コード":"00","大字名":"江丹別町","丁目名":null,"小字名":"芳野","予備名":null,"地番":"無地番-26","精度区分":null,"座標値種別":"図上測量","筆界未定構成筆":null,"代表点緯度":-189.9665,"代表点経度":635.946365789}},{"type":"MultiPolygon","arcs":[[[71,72,73,-70]]],"properties":{"筆ID":"H000000020","version":"ver1.0","座標系":"任意座標系","測地系判別":null,"地図名":"旭川市開拓図・開芳２・図郭無","地図番号":"開芳2","縮尺分母":"3000","市区町村コード":"01204","市区町村名":"旭川市","大字コード":"153","丁目コード":"000","小字コード":"0010","予備コード":"00","大字名":"江丹別町","丁目名":null,"小字名":"芳野","予備名":null,"地番":"無地番-27","精度区分":null,"座標値種別":"図上測量","筆界未定構成筆":null,"代表点緯度":-258.8215,"代表点経度":517.719497437}},{"type":"MultiPolygon","arcs":[[[74,75,76,77]]],"properties":{"筆ID":"H000000021","version":"ver1.0","座標系":"任意座標系","測地系判別":null,"地図名":"旭川市開拓図・開芳２・図郭無","地図番号":"開芳2","縮尺分母":"3000","市区町村コード":"01204","市区町村名":"旭川市","大字コード":"153","丁目コード":"000","小字コード":"0010","予備コード":"00","大字名":"江丹別町","丁目名":null,"小字名":"芳野","予備名":null,"地番":"無地番-28","精度区分":null,"座標値種別":"図上測量","筆界未定構成筆":null,"代表点緯度":-85.4445,"代表点経度":718.773211057}},{"type":"MultiPolygon","arcs":[[[-67,78,-77]]],"properties":{"筆ID":"H000000022","version":"ver1.0","座標系":"任意座標系","測地系判別":null,"地図名":"旭川市開拓図・開芳２・図郭無","地図番号":"開芳2","縮尺分母":"3000","市区町村コード":"01204","市区町村名":"旭川市","大字コード":"153","丁目コード":"000","小字コード":"0010","予備コード":"00","大字名":"江丹別町","丁目名":null,"小字名":"芳野","予備名":null,"地番":"無地番-29","精度区分":null,"座標値種別":"図上測量","筆界未定構成筆":null,"代表点緯度":-116.118,"代表点経度":683.98095626}},{"type":"MultiPolygon","arcs":[[[-73,79,80,81,82]]],"properties":{"筆ID":"H000000023","version":"ver1.0","座標系":"任意座標系","測地系判別":null,"地図名":"旭川市開拓図・開芳２・図郭無","地図番号":"開芳2","縮尺分母":"3000","市区町村コード":"01204","市区町村名":"旭川市","大字コード":"153","丁目コード":"000","小字コード":"0010","予備コード":"00","大字名":"江丹別町","丁目名":null,"小字名":"芳野","予備名":null,"地番":"無地番-32","精度区分":null,"座標値種別":"図上測量","筆界未定構成筆":null,"代表点緯度":-428.348,"代表点経度":518.893215217}},{"type":"MultiPolygon","arcs":[[[83,-68,-76]]],"properties":{"筆ID":"H000000024","version":"ver1.0","座標系":"任意座標系","測地系判別":null,"地図名":"旭川市開拓図・開芳２・図郭無","地図番号":"開芳2","縮尺分母":"3000","市区町村コード":"01204","市区町村名":"旭川市","大字コード":"153","丁目コード":"000","小字コード":"0010","予備コード":"00","大字名":"江丹別町","丁目名":null,"小字名":"芳野","予備名":null,"地番":"無地番-33","精度区分":null,"座標値種別":"図上測量","筆界未定構成筆":null,"代表点緯度":-169.2765,"代表点経度":739.094301629}},{"type":"MultiPolygon","arcs":[[[-8,84,85,86,-18,-57,87,-80,-72,-69]]],"properties":{"筆ID":"H000000025","version":"ver1.0","座標系":"任意座標系","測地系判別":null,"地図名":"旭川市開拓図・開芳２・図郭無","地図番号":"開芳2","縮尺分母":"3000","市区町村コード":"01204","市区町村名":"旭川市","大字コード":"153","丁目コード":"000","小字コード":"0010","予備コード":"00","大字名":"江丹別町","丁目名":null,"小字名":"芳野","予備名":null,"地番":"無地番-34","精度区分":null,"座標値種別":"図上測量","筆界未定構成筆":null,"代表点緯度":-385.6365,"代表点経度":796.094625315}},{"type":"MultiPolygon","arcs":[[[88,89,-85,-7,90]]],"properties":{"筆ID":"H000000026","version":"ver1.0","座標系":"任意座標系","測地系判別":null,"地図名":"旭川市開拓図・開芳２・図郭無","地図番号":"開芳2","縮尺分母":"3000","市区町村コード":"01204","市区町村名":"旭川市","大字コード":"153","丁目コード":"000","小字コード":"0010","予備コード":"00","大字名":"江丹別町","丁目名":null,"小字名":"芳野","予備名":null,"地番":"無地番-35","精度区分":null,"座標値種別":"図上測量","筆界未定構成筆":null,"代表点緯度":-276.313,"代表点経度":894.258392045}},{"type":"MultiPolygon","arcs":[[[91,92]]],"properties":{"筆ID":"H000000027","version":"ver1.0","座標系":"任意座標系","測地系判別":null,"地図名":"旭川市開拓図・開芳２・図郭無","地図番号":"開芳2","縮尺分母":"3000","市区町村コード":"01204","市区町村名":"旭川市","大字コード":"153","丁目コード":"000","小字コード":"0010","予備コード":"00","大字名":"江丹別町","丁目名":null,"小字名":"芳野","予備名":null,"地番":"無地番-39","精度区分":null,"座標値種別":"図上測量","筆界未定構成筆":null,"代表点緯度":-753.213,"代表点経度":543.028059396}},{"type":"MultiPolygon","arcs":[[[93,94,95,96]]],"properties":{"筆ID":"H000000028","version":"ver1.0","座標系":"任意座標系","測地系判別":null,"地図名":"旭川市開拓図・開芳２・図郭無","地図番号":"開芳2","縮尺分母":"3000","市区町村コード":"01204","市区町村名":"旭川市","大字コード":"153","丁目コード":"000","小字コード":"0010","予備コード":"00","大字名":"江丹別町","丁目名":null,"小字名":"芳野","予備名":null,"地番":"無地番-41","精度区分":null,"座標値種別":"図上測量","筆界未定構成筆":null,"代表点緯度":-986.9155,"代表点経度":695.507803063}},{"type":"MultiPolygon","arcs":[[[97,-49,98,99]]],"properties":{"筆ID":"H000000029","version":"ver1.0","座標系":"任意座標系","測地系判別":null,"地図名":"旭川市開拓図・開芳２・図郭無","地図番号":"開芳2","縮尺分母":"3000","市区町村コード":"01204","市区町村名":"旭川市","大字コード":"153","丁目コード":"000","小字コード":"0010","予備コード":"00","大字名":"江丹別町","丁目名":null,"小字名":"芳野","予備名":null,"地番":"無地番-42","精度区分":null,"座標値種別":"図上測量","筆界未定構成筆":null,"代表点緯度":-623.2425,"代表点経度":1157.387842191}},{"type":"MultiPolygon","arcs":[[[100,101,-39,-50,-98,102]]],"properties":{"筆ID":"H000000030","version":"ver1.0","座標系":"任意座標系","測地系判別":null,"地図名":"旭川市開拓図・開芳２・図郭無","地図番号":"開芳2","縮尺分母":"3000","市区町村コード":"01204","市区町村名":"旭川市","大字コード":"153","丁目コード":"000","小字コード":"0010","予備コード":"00","大字名":"江丹別町","丁目名":null,"小字名":"芳野","予備名":null,"地番":"無地番-44","精度区分":null,"座標値種別":"図上測量","筆界未定構成筆":null,"代表点緯度":-635.3725,"代表点経度":1255.057027651}},{"type":"MultiPolygon","arcs":[[[-65,103,104,-59]]],"properties":{"筆ID":"H000000031","version":"ver1.0","座標系":"任意座標系","測地系判別":null,"地図名":"旭川市開拓図・開芳２・図郭無","地図番号":"開芳2","縮尺分母":"3000","市区町村コード":"01204","市区町村名":"旭川市","大字コード":"153","丁目コード":"000","小字コード":"0010","予備コード":"00","大字名":"江丹別町","丁目名":null,"小字名":"芳野","予備名":null,"地番":"無地番-45","精度区分":null,"座標値種別":"図上測量","筆界未定構成筆":null,"代表点緯度":-1039.4475,"代表点経度":877.174297328}},{"type":"MultiPolygon","arcs":[[[-41,105,106,107,108]]],"properties":{"筆ID":"H000000032","version":"ver1.0","座標系":"任意座標系","測地系判別":null,"地図名":"旭川市開拓図・開芳２・図郭無","地図番号":"開芳2","縮尺分母":"3000","市区町村コード":"01204","市区町村名":"旭川市","大字コード":"153","丁目コード":"000","小字コード":"0010","予備コード":"00","大字名":"江丹別町","丁目名":null,"小字名":"芳野","予備名":null,"地番":"無地番-48","精度区分":null,"座標値種別":"図上測量","筆界未定構成筆":null,"代表点緯度":-921.2405,"代表点経度":1135.335524508}},{"type":"MultiPolygon","arcs":[[[-91,-6,-84,-75,109]]],"properties":{"筆ID":"H000000033","version":"ver1.0","座標系":"任意座標系","測地系判別":null,"地図名":"旭川市開拓図・開芳２・図郭無","地図番号":"開芳2","縮尺分母":"3000","市区町村コード":"01204","市区町村名":"旭川市","大字コード":"153","丁目コード":"000","小字コード":"0010","予備コード":"00","大字名":"江丹別町","丁目名":null,"小字名":"芳野","予備名":null,"地番":"無地番-494","精度区分":null,"座標値種別":"図上測量","筆界未定構成筆":null,"代表点緯度":-140.204,"代表点経度":832.623510956}},{"type":"MultiPolygon","arcs":[[[-81,-88,-56,-54,110,111]]],"properties":{"筆ID":"H000000034","version":"ver1.0","座標系":"任意座標系","測地系判別":null,"地図名":"旭川市開拓図・開芳２・図郭無","地図番号":"開芳2","縮尺分母":"3000","市区町村コード":"01204","市区町村名":"旭川市","大字コード":"153","丁目コード":"000","小字コード":"0010","予備コード":"00","大字名":"江丹別町","丁目名":null,"小字名":"芳野","予備名":null,"地番":"無地番-496","精度区分":null,"座標値種別":"図上測量","筆界未定構成筆":null,"代表点緯度":-579.383,"代表点経度":574.214132781}},{"type":"MultiPolygon","arcs":[[[112,113,114,-1,115,-86,-90]]],"properties":{"筆ID":"H000000035","version":"ver1.0","座標系":"任意座標系","測地系判別":null,"地図名":"旭川市開拓図・開芳２・図郭無","地図番号":"開芳2","縮尺分母":"3000","市区町村コード":"01204","市区町村名":"旭川市","大字コード":"153","丁目コード":"000","小字コード":"0010","予備コード":"00","大字名":"江丹別町","丁目名":null,"小字名":"芳野","予備名":null,"地番":"無地番-497","精度区分":null,"座標値種別":"図上測量","筆界未定構成筆":null,"代表点緯度":-395.1585,"代表点経度":1053.121859563}},{"type":"MultiPolygon","arcs":[[[-53,116,-93,117,-111]]],"properties":{"筆ID":"H000000036","version":"ver1.0","座標系":"任意座標系","測地系判別":null,"地図名":"旭川市開拓図・開芳２・図郭無","地図番号":"開芳2","縮尺分母":"3000","市区町村コード":"01204","市区町村名":"旭川市","大字コード":"153","丁目コード":"000","小字コード":"0010","予備コード":"00","大字名":"江丹別町","丁目名":null,"小字名":"芳野","予備名":null,"地番":"無地番-498","精度区分":null,"座標値種別":"図上測量","筆界未定構成筆":null,"代表点緯度":-647.7625,"代表点経度":656.265822264}},{"type":"MultiPolygon","arcs":[[[-99,-48,118,-114,119]]],"properties":{"筆ID":"H000000037","version":"ver1.0","座標系":"任意座標系","測地系判別":null,"地図名":"旭川市開拓図・開芳２・図郭無","地図番号":"開芳2","縮尺分母":"3000","市区町村コード":"01204","市区町村名":"旭川市","大字コード":"153","丁目コード":"000","小字コード":"0010","予備コード":"00","大字名":"江丹別町","丁目名":null,"小字名":"芳野","予備名":null,"地番":"無地番-500","精度区分":null,"座標値種別":"図上測量","筆界未定構成筆":null,"代表点緯度":-518.1025,"代表点経度":1115.436913725}},{"type":"MultiPolygon","arcs":[[[-60,-105,120,-94,121]]],"properties":{"筆ID":"H000000038","version":"ver1.0","座標系":"任意座標系","測地系判別":null,"地図名":"旭川市開拓図・開芳２・図郭無","地図番号":"開芳2","縮尺分母":"3000","市区町村コード":"01204","市区町村名":"旭川市","大字コード":"153","丁目コード":"000","小字コード":"0010","予備コード":"00","大字名":"江丹別町","丁目名":null,"小字名":"芳野","予備名":null,"地番":"無地番-503","精度区分":null,"座標値種別":"図上測量","筆界未定構成筆":null,"代表点緯度":-1004.9875,"代表点経度":788.872428538}},{"type":"MultiPolygon","arcs":[[[-43,122,-108,123,-63,-45]]],"properties":{"筆ID":"H000000039","version":"ver1.0","座標系":"任意座標系","測地系判別":null,"地図名":"旭川市開拓図・開芳２・図郭無","地図番号":"開芳2","縮尺分母":"3000","市区町村コード":"01204","市区町村名":"旭川市","大字コード":"153","丁目コード":"000","小字コード":"0010","予備コード":"00","大字名":"江丹別町","丁目名":null,"小字名":"芳野","予備名":null,"地番":"無地番-508","精度区分":null,"座標値種別":"図上測量","筆界未定構成筆":null,"代表点緯度":-928.9805,"代表点経度":1028.959522554}},{"type":"MultiPolygon","arcs":[[[-109,-123,-42]]],"properties":{"筆ID":"H000000040","version":"ver1.0","座標系":"任意座標系","測地系判別":null,"地図名":"旭川市開拓図・開芳２・図郭無","地図番号":"開芳2","縮尺分母":"3000","市区町村コード":"01204","市区町村名":"旭川市","大字コード":"153","丁目コード":"000","小字コード":"0010","予備コード":"00","大字名":"江丹別町","丁目名":null,"小字名":"芳野","予備名":null,"地番":"無地番-509","精度区分":null,"座標値種別":"図上測量","筆界未定構成筆":null,"代表点緯度":-835.315,"代表点経度":1144.384935674}},{"type":"MultiPolygon","arcs":[[[-102,124,125,-106,-40]]],"properties":{"筆ID":"H000000041","version":"ver1.0","座標系":"任意座標系","測地系判別":null,"地図名":"旭川市開拓図・開芳２・図郭無","地図番号":"開芳2","縮尺分母":"3000","市区町村コード":"01204","市区町村名":"旭川市","大字コード":"153","丁目コード":"000","小字コード":"0010","予備コード":"00","大字名":"江丹別町","丁目名":null,"小字名":"芳野","予備名":null,"地番":"無地番-514","精度区分":null,"座標値種別":"図上測量","筆界未定構成筆":null,"代表点緯度":-921.2405,"代表点経度":1203.684390175}},{"type":"MultiPolygon","arcs":[[[126,-125,-101]]],"properties":{"筆ID":"H000000042","version":"ver1.0","座標系":"任意座標系","測地系判別":null,"地図名":"旭川市開拓図・開芳２・図郭無","地図番号":"開芳2","縮尺分母":"3000","市区町村コード":"01204","市区町村名":"旭川市","大字コード":"153","丁目コード":"000","小字コード":"0010","予備コード":"00","大字名":"江丹別町","丁目名":null,"小字名":"芳野","予備名":null,"地番":"無地番-515","精度区分":null,"座標値種別":"図上測量","筆界未定構成筆":null,"代表点緯度":-768.861,"代表点経度":1291.727567801}},{"type":"MultiPolygon","arcs":[[[-82,-112,-118,-92,-117,-52,-12,-15,-2,-115,-119,-51,-29,127,128,129,130,131,132,-96,133]]],"properties":{"筆ID":"H000000043","version":"ver1.0","座標系":"任意座標系","測地系判別":null,"地図名":"旭川市開拓図・開芳２・図郭無","地図番号":"開芳2","縮尺分母":"3000","市区町村コード":"01204","市区町村名":"旭川市","大字コード":"153","丁目コード":"000","小字コード":"0010","予備コード":"00","大字名":"江丹別町","丁目名":null,"小字名":"芳野","予備名":null,"地番":"無地番-31","精度区分":null,"座標値種別":"図上測量","筆界未定構成筆":null,"代表点緯度":-753.213,"代表点経度":641.728131105}},{"type":"MultiPolygon","arcs":[[[134,135,136,137,-131]]],"properties":{"筆ID":"H000000044","version":"ver1.0","座標系":"任意座標系","測地系判別":null,"地図名":"旭川市開拓図・開芳２・図郭無","地図番号":"開芳2","縮尺分母":"3000","市区町村コード":"01204","市区町村名":"旭川市","大字コード":"153","丁目コード":"000","小字コード":"0010","予備コード":"00","大字名":"江丹別町","丁目名":null,"小字名":"芳野","予備名":null,"地番":"445-2","精度区分":null,"座標値種別":"図上測量","筆界未定構成筆":null,"代表点緯度":-848.311,"代表点経度":566.936211471}},{"type":"MultiPolygon","arcs":[[[138,139,140,-66,-61,-122,141,-132,-138]]],"properties":{"筆ID":"H000000045","version":"ver1.0","座標系":"任意座標系","測地系判別":null,"地図名":"旭川市開拓図・開芳２・図郭無","地図番号":"開芳2","縮尺分母":"3000","市区町村コード":"01204","市区町村名":"旭川市","大字コード":"153","丁目コード":"000","小字コード":"0010","予備コード":"00","大字名":"江丹別町","丁目名":null,"小字名":"芳野","予備名":null,"地番":"481","精度区分":null,"座標値種別":"図上測量","筆界未定構成筆":null,"代表点緯度":-936.8625,"代表点経度":660.741304838}},{"type":"MultiPolygon","arcs":[[[142,143,-129,144]]],"properties":{"筆ID":"H000000046","version":"ver1.0","座標系":"任意座標系","測地系判別":null,"地図名":"旭川市開拓図・開芳２・図郭無","地図番号":"開芳2","縮尺分母":"3000","市区町村コード":"01204","市区町村名":"旭川市","大字コード":"153","丁目コード":"000","小字コード":"0010","予備コード":"00","大字名":"江丹別町","丁目名":null,"小字名":"芳野","予備名":null,"地番":"445-1","精度区分":null,"座標値種別":"図上測量","筆界未定構成筆":null,"代表点緯度":-835.2,"代表点経度":612.351348565}},{"type":"MultiPolygon","arcs":[[[145,146,147,-143]]],"properties":{"筆ID":"H000000047","version":"ver1.0","座標系":"任意座標系","測地系判別":null,"地図名":"旭川市開拓図・開芳２・図郭無","地図番号":"開芳2","縮尺分母":"3000","市区町村コード":"01204","市区町村名":"旭川市","大字コード":"153","丁目コード":"000","小字コード":"0010","予備コード":"00","大字名":"江丹別町","丁目名":null,"小字名":"芳野","予備名":null,"地番":"445-3","精度区分":null,"座標値種別":"図上測量","筆界未定構成筆":null,"代表点緯度":-868.423,"代表点経度":628.774620549}},{"type":"MultiPolygon","arcs":[[[-140,148,-147,149]]],"properties":{"筆ID":"H000000048","version":"ver1.0","座標系":"任意座標系","測地系判別":null,"地図名":"旭川市開拓図・開芳２・図郭無","地図番号":"開芳2","縮尺分母":"3000","市区町村コード":"01204","市区町村名":"旭川市","大字コード":"153","丁目コード":"000","小字コード":"0010","予備コード":"00","大字名":"江丹別町","丁目名":null,"小字名":"芳野","予備名":null,"地番":"445-4","精度区分":null,"座標値種別":"図上測量","筆界未定構成筆":null,"代表点緯度":-901.9605,"代表点経度":658.055078122}},{"type":"MultiPolygon","arcs":[[[150,-135,-130,-144]]],"properties":{"筆ID":"H000000049","version":"ver1.0","座標系":"任意座標系","測地系判別":null,"地図名":"旭川市開拓図・開芳２・図郭無","地図番号":"開芳2","縮尺分母":"3000","市区町村コード":"01204","市区町村名":"旭川市","大字コード":"153","丁目コード":"000","小字コード":"0010","予備コード":"00","大字名":"江丹別町","丁目名":null,"小字名":"芳野","予備名":null,"地番":"445-5","精度区分":null,"座標値種別":"図上測量","筆界未定構成筆":null,"代表点緯度":-827.9205,"代表点経度":560.452320661}},{"type":"MultiPolygon","arcs":[[[-148,151,-136,-151]]],"properties":{"筆ID":"H000000050","version":"ver1.0","座標系":"任意座標系","測地系判別":null,"地図名":"旭川市開拓図・開芳２・図郭無","地図番号":"開芳2","縮尺分母":"3000","市区町村コード":"01204","市区町村名":"旭川市","大字コード":"153","丁目コード":"000","小字コード":"0010","予備コード":"00","大字名":"江丹別町","丁目名":null,"小字名":"芳野","予備名":null,"地番":"445-6","精度区分":null,"座標値種別":"図上測量","筆界未定構成筆":null,"代表点緯度":-895.673,"代表点経度":587.39208903}},{"type":"MultiPolygon","arcs":[[[-139,-137,-152,-149]]],"properties":{"筆ID":"H000000051","version":"ver1.0","座標系":"任意座標系","測地系判別":null,"地図名":"旭川市開拓図・開芳２・図郭無","地図番号":"開芳2","縮尺分母":"3000","市区町村コード":"01204","市区町村名":"旭川市","大字コード":"153","丁目コード":"000","小字コード":"0010","予備コード":"00","大字名":"江丹別町","丁目名":null,"小字名":"芳野","予備名":null,"地番":"445-7","精度区分":null,"座標値種別":"図上測量","筆界未定構成筆":null,"代表点緯度":-931.567,"代表点経度":601.891420602}},{"type":"MultiPolygon","arcs":[[[-28,-37,-34,-30,-22,-47,-62,-141,-150,-146,-145,-128]]],"properties":{"筆ID":"H000000052","version":"ver1.0","座標系":"任意座標系","測地系判別":null,"地図名":"旭川市開拓図・開芳２・図郭無","地図番号":"開芳2","縮尺分母":"3000","市区町村コード":"01204","市区町村名":"旭川市","大字コード":"153","丁目コード":"000","小字コード":"0010","予備コード":"00","大字名":"江丹別町","丁目名":null,"小字名":"芳野","予備名":null,"地番":"467","精度区分":null,"座標値種別":"図上測量","筆界未定構成筆":null,"代表点緯度":-833.2765,"代表点経度":662.274458461}},{"type":"MultiPolygon","arcs":[[[-97,-133,-142]]],"properties":{"筆ID":"H000000053","version":"ver1.0","座標系":"任意座標系","測地系判別":null,"地図名":"旭川市開拓図・開芳２・図郭無","地図番号":"開芳2","縮尺分母":"3000","市区町村コード":"01204","市区町村名":"旭川市","大字コード":"153","丁目コード":"000","小字コード":"0010","予備コード":"00","大字名":"江丹別町","丁目名":null,"小字名":"芳野","予備名":null,"地番":"無地番-522","精度区分":null,"座標値種別":"図上測量","筆界未定構成筆":null,"代表点緯度":-939.3045,"代表点経度":664.877234029}},{"type":"MultiPolygon","arcs":[[[-116,-5,-10,-16,-87]]],"properties":{"筆ID":"H000000054","version":"ver1.0","座標系":"任意座標系","測地系判別":null,"地図名":"旭川市開拓図・開芳２・図郭無","地図番号":"開芳2","縮尺分母":"3000","市区町村コード":"01204","市区町村名":"旭川市","大字コード":"153","丁目コード":"000","小字コード":"0010","予備コード":"00","大字名":"江丹別町","丁目名":null,"小字名":"芳野","予備名":null,"地番":"無地番-523","精度区分":null,"座標値種別":"図上測量","筆界未定構成筆":null,"代表点緯度":-421.188,"代表点経度":874.710248675}}]}},"arcs":[[[613247,625414],[42174,-109807]],[[655421,515607],[-179291,-86439]],[[476130,429168],[-27855,90647]],[[448275,519815],[-6192,20554]],[[442083,540369],[171164,85045]],[[382595,847604],[14564,-30702]],[[397159,816902],[58915,-124279]],[[456074,692623],[-100697,-48682],[-57956,-27885],[-74371,154790]],[[223050,770846],[159545,76758]],[[430113,579327],[11970,-38958]],[[448275,519815],[-24554,-26524],[-1212,-20198],[-6375,-16095],[-6643,-21862],[-9749,-16063],[-959,-27060]],[[398783,392013],[-27457,-13378]],[[371326,378635],[-46439,150154]],[[324887,528789],[105226,50538]],[[476130,429168],[-77347,-37155]],[[404656,661692],[25457,-82365]],[[324887,528789],[-25209,82481]],[[299678,611270],[104978,50422]],[[635064,498307],[70446,-154743]],[[705510,343564],[-214250,-101188]],[[491260,242376],[-77267,-36894]],[[413993,205482],[-12015,17262]],[[401978,222744],[56356,27167],[-35633,69105]],[[422701,319016],[-20445,39175],[-35340,-17392],[6886,-44935]],[[373802,295864],[-18415,-11769]],[[355387,284095],[-13710,17320],[-15680,-10018],[13245,-17574]],[[339242,273823],[-35164,-22142]],[[304078,251681],[-9050,8299],[-18297,33715],[-43101,10933]],[[233630,304628],[191145,92180],[210289,101499]],[[401978,222744],[-721,1034],[-17689,8785]],[[383568,232563],[-8537,55373]],[[375031,287936],[47670,31080]],[[375031,287936],[-1229,7928]],[[383568,232563],[-72818,13791]],[[310750,246354],[64281,41582]],[[339242,273823],[16145,10272]],[[310750,246354],[-855,161],[-5817,5166]],[[705510,343564],[112935,2476]],[[818445,346040],[18593,-60192]],[[837038,285848],[-23141,-10988]],[[813897,274860],[-1641,-768]],[[812256,274092],[-93795,-43972]],[[718461,230120],[-216947,-101748]],[[501514,128372],[-10254,114004]],[[501514,128372],[-31360,-14624]],[[470154,113748],[-58241,90740]],[[411913,204488],[2080,994]],[[641785,501463],[51862,-114211]],[[693647,387252],[17056,-37554],[66345,2136]],[[777048,351834],[39278,1204],[2119,-6998]],[[635064,498307],[6721,3156]],[[371326,378635],[-7964,-3789]],[[363362,374846],[-30571,100513]],[[332791,475359],[-16537,53910]],[[316254,529269],[8633,-480]],[[316254,529269],[-23683,78604]],[[292571,607873],[7107,3397]],[[405739,201662],[58619,-90697]],[[464358,110965],[-37154,-17173]],[[427204,93792],[-65674,86761]],[[361530,180553],[44209,21109]],[[409550,203407],[2363,1081]],[[470154,113748],[1097,-1710],[126751,-84367]],[[598002,27671],[-5528,-3158]],[[592474,24513],[-128116,86452]],[[405739,201662],[3811,1745]],[[288489,948099],[25317,-55817],[36681,23452]],[[350487,915734],[32108,-68130]],[[223050,770846],[-7420,-3716]],[[215630,767130],[-55110,109490]],[[160520,876620],[127969,71479]],[[215630,767130],[1800,-3883]],[[217430,763247],[-114155,-59671]],[[103275,703576],[7341,123350],[49904,49694]],[[376834,999999],[2563,-65947]],[[379397,934052],[-28910,-18318]],[[350487,915734],[-33824,72035]],[[316663,987769],[60171,12230]],[[288489,948099],[28174,39670]],[[217430,763247],[73028,-150897]],[[290458,612350],[-201216,-98229]],[[89242,514121],[-67313,147100]],[[21929,661221],[81346,42355]],[[379397,934052],[3198,-86448]],[[456074,692623],[110646,52630]],[[566720,745253],[1804,-4441]],[[568524,740812],[-163868,-79120]],[[292571,607873],[-2113,4477]],[[601037,884247],[113800,-68511]],[[714837,815736],[-148117,-70483]],[[397159,816902],[203878,67345]],[[233784,312611],[-51770,-24841],[-25090,59042]],[[156924,346812],[76860,-34201]],[[352700,176422],[64948,-86764]],[[417648,89658],[-126245,-58985]],[[291403,30673],[-41297,97284]],[[250106,127957],[102553,48445],[41,20]],[[878937,517877],[-101889,-166043]],[[693647,387252],[139301,207490]],[[832948,594742],[45989,-76865]],[[997014,364320],[-154692,-94186]],[[842322,270134],[-5284,15714]],[[878937,517877],[118077,-153557]],[[592474,24513],[-31413,-18182]],[[561061,6331],[-133857,87461]],[[813897,274860],[16368,-21033],[-63371,-57691],[46624,-50501],[-49293,-28852]],[[764225,116783],[-2187,5618]],[[762038,122401],[-30819,76367]],[[731219,198768],[17350,23489],[63687,51835]],[[376834,999999],[224203,-115752]],[[332791,475359],[-191478,-91944]],[[141313,383415],[-55008,129270],[2937,1436]],[[714837,815736],[89262,-104835]],[[804099,710901],[-146025,-201751]],[[658074,509150],[-2653,6457]],[[613247,625414],[-44723,115398]],[[363362,374846],[-129578,-62235]],[[156924,346812],[-15611,36603]],[[641785,501463],[16289,7687]],[[804099,710901],[28849,-116159]],[[561061,6331],[-4854,-6331],[-138559,89658]],[[352700,176422],[8830,4131]],[[718461,230120],[12758,-31352]],[[762038,122401],[-164036,-94730]],[[842322,270134],[1813,-5467]],[[844135,264667],[63730,-177301],[-116559,-38202],[-27081,67619]],[[997014,364320],[2985,-4613],[-155864,-95040]],[[233630,304628],[-7912,-3814]],[[225718,300814],[-37680,-18009]],[[188038,282805],[-1470,-702]],[[186568,282103],[-1629,-779],[62067,-146534]],[[247006,134790],[1619,-3570]],[[248625,131220],[1481,-3263]],[[291403,30673],[5903,-13622],[-13277,-5725],[-112138,263823],[-38957,-18947],[-4760,5960],[41235,19675],[-60597,142860],[-36057,85273],[-72755,159211],[14604,7881],[7325,-15841]],[[186568,282103],[35295,-83784]],[[221863,198319],[2931,-6994]],[[224794,191325],[23639,-55965]],[[248433,135360],[-1427,-570]],[[248433,135360],[956,457]],[[249389,135817],[155119,74255]],[[404508,210072],[5042,-6665]],[[352700,176422],[-2419,3229],[-101656,-48431]],[[300827,248045],[-78195,-49242]],[[222632,198803],[-15369,37285],[-19225,46717]],[[225718,300814],[47956,-11756],[17941,-32674],[9212,-8339]],[[300827,248045],[6051,-5226]],[[306878,242819],[-81347,-51032]],[[225531,191787],[-2899,7016]],[[249389,135817],[-21617,50616],[-2241,5354]],[[306878,242819],[2354,-2167],[74043,-14039],[14308,-6958],[6925,-9583]],[[222632,198803],[-769,-484]],[[225531,191787],[-737,-462]]],"bbox":[361.496,-1102.027,1371.283,-44.091],"transform":{"scale":[0.0010097880097880098,0.001057937057937058],"translate":[361.496,-1102.027]}}
