{"type":"Topology","objects":{"01204-4500-30.featurecollection":{"type":"GeometryCollection","geometries":[{"type":"Polygon","arcs":[[0,1,2]],"properties":{"市区町村名":"旭川市","大字名":"江丹別町","丁目名":null,"小字名":"富原","地番":"524","精度区分":null,"座標系":"任意座標系"}},{"type":"Polygon","arcs":[[3,4,5,6,7,8,9]],"properties":{"市区町村名":"旭川市","大字名":"江丹別町","丁目名":null,"小字名":"富原","地番":"527-2","精度区分":null,"座標系":"任意座標系"}},{"type":"Polygon","arcs":[[-5,10]],"properties":{"市区町村名":"旭川市","大字名":"江丹別町","丁目名":null,"小字名":"富原","地番":"527-3","精度区分":null,"座標系":"任意座標系"}},{"type":"Polygon","arcs":[[11,12,13,14]],"properties":{"市区町村名":"旭川市","大字名":"江丹別町","丁目名":null,"小字名":"富原","地番":"528","精度区分":null,"座標系":"任意座標系"}},{"type":"Polygon","arcs":[[15,16,17,18]],"properties":{"市区町村名":"旭川市","大字名":"江丹別町","丁目名":null,"小字名":"富原","地番":"529","精度区分":null,"座標系":"任意座標系"}},{"type":"Polygon","arcs":[[19,20,21,22]],"properties":{"市区町村名":"旭川市","大字名":"江丹別町","丁目名":null,"小字名":"富原","地番":"530-1","精度区分":null,"座標系":"任意座標系"}},{"type":"Polygon","arcs":[[23,24,25,26,27,28]],"properties":{"市区町村名":"旭川市","大字名":"江丹別町","丁目名":null,"小字名":"富原","地番":"531-2","精度区分":null,"座標系":"任意座標系"}},{"type":"Polygon","arcs":[[29,-29,30,31]],"properties":{"市区町村名":"旭川市","大字名":"江丹別町","丁目名":null,"小字名":"富原","地番":"531-3","精度区分":null,"座標系":"任意座標系"}},{"type":"Polygon","arcs":[[32,-27,33]],"properties":{"市区町村名":"旭川市","大字名":"江丹別町","丁目名":null,"小字名":"富原","地番":"531-4","精度区分":null,"座標系":"任意座標系"}},{"type":"Polygon","arcs":[[34,35,36]],"properties":{"市区町村名":"旭川市","大字名":"江丹別町","丁目名":null,"小字名":"富原","地番":"531-5","精度区分":null,"座標系":"任意座標系"}},{"type":"Polygon","arcs":[[-32,37,-33,38,39,40,41]],"properties":{"市区町村名":"旭川市","大字名":"江丹別町","丁目名":null,"小字名":"富原","地番":"531-6","精度区分":null,"座標系":"任意座標系"}},{"type":"Polygon","arcs":[[-28,-38,-31]],"properties":{"市区町村名":"旭川市","大字名":"江丹別町","丁目名":null,"小字名":"富原","地番":"531-7","精度区分":null,"座標系":"任意座標系"}},{"type":"Polygon","arcs":[[42,43]],"properties":{"市区町村名":"旭川市","大字名":"江丹別町","丁目名":null,"小字名":"富原","地番":"532","精度区分":null,"座標系":"任意座標系"}},{"type":"Polygon","arcs":[[44,45,46]],"properties":{"市区町村名":"旭川市","大字名":"江丹別町","丁目名":null,"小字名":"富原","地番":"533","精度区分":null,"座標系":"任意座標系"}},{"type":"Polygon","arcs":[[47,48,-24,-30]],"properties":{"市区町村名":"旭川市","大字名":"江丹別町","丁目名":null,"小字名":"富原","地番":"534-1","精度区分":null,"座標系":"任意座標系"}},{"type":"Polygon","arcs":[[-48,-42]],"properties":{"市区町村名":"旭川市","大字名":"江丹別町","丁目名":null,"小字名":"富原","地番":"534-2","精度区分":null,"座標系":"任意座標系"}},{"type":"Polygon","arcs":[[-10,49,50,51,52,53]],"properties":{"市区町村名":"旭川市","大字名":"江丹別町","丁目名":null,"小字名":"富原","地番":"588-2","精度区分":null,"座標系":"任意座標系"}},{"type":"Polygon","arcs":[[54,-52]],"properties":{"市区町村名":"旭川市","大字名":"江丹別町","丁目名":null,"小字名":"富原","地番":"588-3","精度区分":null,"座標系":"任意座標系"}},{"type":"Polygon","arcs":[[55,56,57,-50]],"properties":{"市区町村名":"旭川市","大字名":"江丹別町","丁目名":null,"小字名":"富原","地番":"588-4","精度区分":null,"座標系":"任意座標系"}},{"type":"Polygon","arcs":[[58,-7,59]],"properties":{"市区町村名":"旭川市","大字名":"江丹別町","丁目名":null,"小字名":"富原","地番":"588-5","精度区分":null,"座標系":"任意座標系"}},{"type":"Polygon","arcs":[[-46,60,61,62,63]],"properties":{"市区町村名":"旭川市","大字名":"江丹別町","丁目名":null,"小字名":"富原","地番":"603","精度区分":null,"座標系":"任意座標系"}},{"type":"Polygon","arcs":[[64,65,66,-20]],"properties":{"市区町村名":"旭川市","大字名":"江丹別町","丁目名":null,"小字名":"富原","地番":"612","精度区分":null,"座標系":"任意座標系"}},{"type":"Polygon","arcs":[[67,-19,68,-13]],"properties":{"市区町村名":"旭川市","大字名":"江丹別町","丁目名":null,"小字名":"富原","地番":"613","精度区分":null,"座標系":"任意座標系"}},{"type":"Polygon","arcs":[[69,-23,70,-17]],"properties":{"市区町村名":"旭川市","大字名":"江丹別町","丁目名":null,"小字名":"富原","地番":"614","精度区分":null,"座標系":"任意座標系"}},{"type":"Polygon","arcs":[[-15,71]],"properties":{"市区町村名":"旭川市","大字名":"江丹別町","丁目名":null,"小字名":"富原","地番":"無地番-12","精度区分":null,"座標系":"任意座標系"}},{"type":"Polygon","arcs":[[72,73,74]],"properties":{"市区町村名":"旭川市","大字名":"江丹別町","丁目名":null,"小字名":"富原","地番":"無地番-13","精度区分":null,"座標系":"任意座標系"}},{"type":"Polygon","arcs":[[-40,75,-37,76]],"properties":{"市区町村名":"旭川市","大字名":"江丹別町","丁目名":null,"小字名":"富原","地番":"無地番-14","精度区分":null,"座標系":"任意座標系"}},{"type":"Polygon","arcs":[[77,78]],"properties":{"市区町村名":"旭川市","大字名":"江丹別町","丁目名":null,"小字名":"富原","地番":"無地番-16","精度区分":null,"座標系":"任意座標系"}},{"type":"Polygon","arcs":[[79,80,81,82,83]],"properties":{"市区町村名":"旭川市","大字名":"江丹別町","丁目名":null,"小字名":"富原","地番":"無地番-21","精度区分":null,"座標系":"任意座標系"}},{"type":"Polygon","arcs":[[84,85,86,87]],"properties":{"市区町村名":"旭川市","大字名":"江丹別町","丁目名":null,"小字名":"富原","地番":"無地番-429","精度区分":null,"座標系":"任意座標系"}},{"type":"Polygon","arcs":[[88,89,90]],"properties":{"市区町村名":"旭川市","大字名":"江丹別町","丁目名":null,"小字名":"富原","地番":"無地番-430","精度区分":null,"座標系":"任意座標系"}},{"type":"Polygon","arcs":[[91,92]],"properties":{"市区町村名":"旭川市","大字名":"江丹別町","丁目名":null,"小字名":"富原","地番":"無地番-433","精度区分":null,"座標系":"任意座標系"}},{"type":"Polygon","arcs":[[-45,93,-79,94,95,96,-61]],"properties":{"市区町村名":"旭川市","大字名":"江丹別町","丁目名":null,"小字名":"富原","地番":"無地番-504","精度区分":null,"座標系":"任意座標系"}},{"type":"Polygon","arcs":[[97,98,99,100,101]],"properties":{"市区町村名":"旭川市","大字名":"江丹別町","丁目名":null,"小字名":"富原","地番":"無地番-506","精度区分":null,"座標系":"任意座標系"}},{"type":"Polygon","arcs":[[-36,102,-74,103,104,-99,105,106,107,108,109,-62,-97,-44,110,-95,111,-25,-49,-41,-77]],"properties":{"市区町村名":"旭川市","大字名":"江丹別町","丁目名":null,"小字名":"富原","地番":"531-1","精度区分":null,"座標系":"任意座標系"}},{"type":"Polygon","arcs":[[-67,112,113,114,-104,-73,115,-21]],"properties":{"市区町村名":"旭川市","大字名":"江丹別町","丁目名":null,"小字名":"富原","地番":"530-2","精度区分":null,"座標系":"任意座標系"}},{"type":"Polygon","arcs":[[116,117,118,-56,-9]],"properties":{"市区町村名":"旭川市","大字名":"江丹別町","丁目名":null,"小字名":"富原","地番":"527-1","精度区分":null,"座標系":"任意座標系"}},{"type":"Polygon","arcs":[[119,-53,-55,-51,-58,120,121,122,123,-102,124]],"properties":{"市区町村名":"旭川市","大字名":"江丹別町","丁目名":null,"小字名":"富原","地番":"無地番-15","精度区分":null,"座標系":"任意座標系"}},{"type":"Polygon","arcs":[[125,126,127,-60,-6,-11,-4,-54,-120,128]],"properties":{"市区町村名":"旭川市","大字名":"江丹別町","丁目名":null,"小字名":"富原","地番":"588-1","精度区分":null,"座標系":"任意座標系"}},{"type":"Polygon","arcs":[[129,130,131,132,133,-126,134]],"properties":{"市区町村名":"旭川市","大字名":"江丹別町","丁目名":null,"小字名":"富原","地番":"526","精度区分":null,"座標系":"任意座標系"}},{"type":"Polygon","arcs":[[135,136,137,138,-83,139,-86]],"properties":{"市区町村名":"旭川市","大字名":"江丹別町","丁目名":null,"小字名":"富原","地番":"523","精度区分":null,"座標系":"任意座標系"}},{"type":"Polygon","arcs":[[140,-84,141,142,-89]],"properties":{"市区町村名":"旭川市","大字名":"江丹別町","丁目名":null,"小字名":"富原","地番":"無地番-20","精度区分":null,"座標系":"任意座標系"}},{"type":"Polygon","arcs":[[-143,143,-138,144,145]],"properties":{"市区町村名":"旭川市","大字名":"江丹別町","丁目名":null,"小字名":"富原","地番":"590","精度区分":null,"座標系":"任意座標系"}},{"type":"Polygon","arcs":[[146,147,-136,-85,148,149,-131,150,-1]],"properties":{"市区町村名":"旭川市","大字名":"江丹別町","丁目名":null,"小字名":"富原","地番":"591","精度区分":null,"座標系":"任意座標系"}},{"type":"Polygon","arcs":[[151,152,153,154,-127,-134,155]],"properties":{"市区町村名":"旭川市","大字名":"江丹別町","丁目名":null,"小字名":"富原","地番":"593","精度区分":null,"座標系":"任意座標系"}},{"type":"Polygon","arcs":[[156,-156,-133]],"properties":{"市区町村名":"旭川市","大字名":"江丹別町","丁目名":null,"小字名":"富原","地番":"594","精度区分":null,"座標系":"任意座標系"}},{"type":"Polygon","arcs":[[-155,157,-117,-8,-59,-128]],"properties":{"市区町村名":"旭川市","大字名":"江丹別町","丁目名":null,"小字名":"富原","地番":"595","精度区分":null,"座標系":"任意座標系"}},{"type":"Polygon","arcs":[[-154,158,159,-118,-158]],"properties":{"市区町村名":"旭川市","大字名":"江丹別町","丁目名":null,"小字名":"富原","地番":"596","精度区分":null,"座標系":"任意座標系"}},{"type":"Polygon","arcs":[[160,-114,161,162]],"properties":{"市区町村名":"旭川市","大字名":"江丹別町","丁目名":null,"小字名":"富原","地番":"598","精度区分":null,"座標系":"任意座標系"}},{"type":"Polygon","arcs":[[163,-106,-98,-124]],"properties":{"市区町村名":"旭川市","大字名":"江丹別町","丁目名":null,"小字名":"富原","地番":"600","精度区分":null,"座標系":"任意座標系"}},{"type":"Polygon","arcs":[[-123,164,-107,-164]],"properties":{"市区町村名":"旭川市","大字名":"江丹別町","丁目名":null,"小字名":"富原","地番":"597","精度区分":null,"座標系":"任意座標系"}},{"type":"Polygon","arcs":[[165,-162,-113,-66]],"properties":{"市区町村名":"旭川市","大字名":"江丹別町","丁目名":null,"小字名":"富原","地番":"無地番-505","精度区分":null,"座標系":"任意座標系"}},{"type":"Polygon","arcs":[[-132,-150,166,-152,-157]],"properties":{"市区町村名":"旭川市","大字名":"江丹別町","丁目名":null,"小字名":"富原","地番":"無地番-501","精度区分":null,"座標系":"任意座標系"}},{"type":"Polygon","arcs":[[-142,-139,-144]],"properties":{"市区町村名":"旭川市","大字名":"江丹別町","丁目名":null,"小字名":"富原","地番":"無地番-500","精度区分":null,"座標系":"任意座標系"}},{"type":"Polygon","arcs":[[-90,-146,167,-147,-3,168,169]],"properties":{"市区町村名":"旭川市","大字名":"江丹別町","丁目名":null,"小字名":"富原","地番":"筆界未定地-65","精度区分":null,"座標系":"任意座標系"}},{"type":"Polygon","arcs":[[-169,-2,-151,-130,170]],"properties":{"市区町村名":"旭川市","大字名":"江丹別町","丁目名":null,"小字名":"富原","地番":"無地番-17","精度区分":null,"座標系":"任意座標系"}},{"type":"Polygon","arcs":[[-149,-88,171,172,-159,-153,-167]],"properties":{"市区町村名":"旭川市","大字名":"江丹別町","丁目名":null,"小字名":"富原","地番":"筆界未定地-66","精度区分":null,"座標系":"任意座標系"}},{"type":"Polygon","arcs":[[-160,-173,173,-63,-110,174,175,-121,-57,-119]],"properties":{"市区町村名":"旭川市","大字名":"江丹別町","丁目名":null,"小字名":"富原","地番":"無地番-502","精度区分":null,"座標系":"任意座標系"}},{"type":"Polygon","arcs":[[-81,176,-92,177]],"properties":{"市区町村名":"旭川市","大字名":"江丹別町","丁目名":null,"小字名":"富原","地番":"521","精度区分":null,"座標系":"任意座標系"}},{"type":"Polygon","arcs":[[-145,-137,-148,-168]],"properties":{"市区町村名":"旭川市","大字名":"江丹別町","丁目名":null,"小字名":"富原","地番":"592","精度区分":null,"座標系":"任意座標系"}},{"type":"Polygon","arcs":[[-100,-105,-115,-161]],"properties":{"市区町村名":"旭川市","大字名":"江丹別町","丁目名":null,"小字名":"富原","地番":"599","精度区分":null,"座標系":"任意座標系"}},{"type":"Polygon","arcs":[[-96,-111,-43]],"properties":{"市区町村名":"旭川市","大字名":"江丹別町","丁目名":null,"小字名":"富原","地番":"601","精度区分":null,"座標系":"任意座標系"}},{"type":"Polygon","arcs":[[-176,178,-108,-165,-122]],"properties":{"市区町村名":"旭川市","大字名":"江丹別町","丁目名":null,"小字名":"富原","地番":"602","精度区分":null,"座標系":"任意座標系"}},{"type":"Polygon","arcs":[[-175,-109,-179]],"properties":{"市区町村名":"旭川市","大字名":"江丹別町","丁目名":null,"小字名":"富原","地番":"無地番-503","精度区分":null,"座標系":"任意座標系"}}]}},"arcs":[[[681066,650317],[-15050,-6518]],[[666016,643799],[-7836,18901]],[[658180,662700],[14771,5393],[8115,-17776]],[[428360,481574],[1213,1399]],[[429573,482973],[1633,-260],[5125,-7019],[8606,-7321],[7537,-4017],[9661,-10066],[14568,-1703],[10874,9217]],[[487577,461804],[2751,-2952]],[[490328,458852],[9913,-10909]],[[500241,447943],[-3131,-8073]],[[497110,439870],[-4301,-3646],[947,-2082],[-7582,-12163],[2184,-2740],[-7917,-12353]],[[480441,406886],[-60502,64783],[8421,9905]],[[429573,482973],[18300,21262],[39704,-42431]],[[28177,986480],[20808,-45490],[16737,-19415],[4922,-28609],[10203,-7963],[10262,-26722],[4184,-55821],[39877,-27216],[2169,-6620]],[[137339,768624],[-42313,24913],[-15682,45893],[-21024,42180],[-20028,11639],[-19921,-4584]],[[18371,888665],[-1432,4364],[-16626,104989]],[[313,998018],[27864,-11538]],[[139359,762463],[2200,-5822],[19289,770],[11115,-12169],[26704,-9196],[5814,-20619]],[[204481,715427],[-22615,-1038],[-32618,-16665],[-31210,-20988]],[[118038,676736],[-33197,37483],[-14237,35258],[-23895,66479],[-26711,68522]],[[19998,884478],[18107,4085],[17522,-10316],[20958,-42127],[15055,-45425],[47719,-28232]],[[205781,710923],[-5046,-2787],[16344,-41451],[-9636,-36513],[9477,-8374]],[[216920,621798],[-17873,-30195]],[[199047,591603],[-46694,41926],[-26041,33773],[-5548,6344]],[[120764,673646],[31885,21150],[29809,15081],[23323,1046]],[[351881,113407],[14164,8322],[-1023,1578],[-14587,21246],[-13413,-9709]],[[337022,134844],[-10728,10641],[6916,9950],[-3741,5820],[7949,3673],[17712,-1148],[15153,17348],[31631,12879],[17088,-472],[4801,-14309],[-12988,-5787],[6269,-14223],[-23234,-23215],[-3453,721],[-21197,-6200],[7109,-993],[4012,-24837]],[[380321,104692],[-3940,-202],[-6281,-3847]],[[370100,100643],[-21673,-2898]],[[348427,97745],[-1248,876]],[[347179,98621],[-1263,6531],[7366,2077],[-1401,6178]],[[338468,103302],[13413,10105]],[[347179,98621],[196,-1017]],[[347375,97604],[-8907,5698]],[[358168,89896],[-9741,7849]],[[370100,100643],[-6883,-4219],[-5049,-6528]],[[194436,2902],[-10762,6350]],[[183674,9252],[13244,7398]],[[196918,16650],[-2813,-5803],[331,-7945]],[[347375,97604],[1052,141]],[[358168,89896],[-13361,-17277],[-2198,-2842],[-18989,-11830],[-27778,-4243],[-12658,-9919],[-8206,-16351],[-14924,-6982],[-18484,97],[-18216,-12253],[-24676,-8130]],[[198678,166],[-58,9587],[5004,9702]],[[203624,19455],[39217,20979],[19055,-1705],[31183,19650],[35562,45496]],[[328641,103875],[3582,-5277],[6245,4704]],[[489722,325699],[-25229,-61903]],[[464493,263796],[-50434,19323],[25036,61767],[50627,-19187]],[[458566,228255],[132,327],[39437,97853],[-2251,5084]],[[495884,331519],[-13584,33062]],[[482300,364581],[23755,-14353],[7652,-1370],[-10902,-14973],[-2198,-37870],[-42041,-67760]],[[338468,103302],[-6575,4434],[-3252,-3861]],[[328641,103875],[-11443,16855],[19824,14114]],[[480441,406886],[-2875,-4492],[-3799,2593],[-3879,-5278]],[[469888,399709],[-11500,22985],[-12605,5140]],[[445783,427834],[-1751,10303],[-5633,6420],[-8360,-1280],[-5120,875]],[[424919,444152],[-8979,12964],[-1066,22658],[-3736,7072]],[[411138,486846],[14364,-4575],[2858,-697]],[[445783,427834],[-13326,5433],[-7538,10885]],[[480441,406886],[3022,-3361]],[[483463,403525],[-6579,-17545]],[[476884,385980],[-5121,9893],[-1875,3836]],[[533978,491782],[-33737,-43839]],[[490328,458852],[31825,41763],[11825,-8833]],[[495884,331519],[-12498,9645]],[[483386,341164],[-3750,9152]],[[479636,350316],[-141,21093]],[[479495,371409],[2805,-6828]],[[205781,710923],[17501,-44408],[-8886,-34298],[9984,-9031]],[[224380,623186],[-1501,-6623]],[[222879,616563],[-5959,5235]],[[137339,768624],[2020,-6161]],[[19998,884478],[-1627,4187]],[[204481,715427],[1300,-4504]],[[120764,673646],[-2726,3090]],[[313,998018],[-313,1981],[28177,-13519]],[[243000,545673],[52108,-56766]],[[295108,488907],[25483,-37226],[48342,-71442],[-17429,-74811],[-15072,-43932]],[[336432,261496],[-75458,11589],[-95716,39450],[77742,233138]],[[198678,166],[-4064,-166],[-178,2902]],[[196918,16650],[6478,13367],[39712,22558],[6343,8614],[16366,11430],[5112,3571],[16442,42772],[42886,33391],[-39159,-36058],[-16685,-42895],[-1088,-781],[-22251,-15984],[-4006,-6769],[-39414,-22597],[-4030,-7814]],[[414014,107033],[-5857,-31960],[-7540,536],[5979,30981]],[[406596,106590],[7418,443]],[[947574,667301],[52425,-81257],[-7114,-5177],[-39713,60774],[-3599,5536]],[[949573,647177],[-5668,8721]],[[943905,655898],[-3003,4340]],[[940902,660238],[-4287,6741]],[[936615,666979],[10959,322]],[[662295,634103],[5557,2407]],[[667852,636510],[-9951,-36566],[-3748,-37526]],[[654153,562418],[-4946,636]],[[649207,563054],[3404,35376],[9684,35673]],[[942750,674692],[-10895,-409]],[[931855,674283],[-43980,67875]],[[887875,742158],[10188,2044],[44687,-69510]],[[940708,653617],[5865,-8639]],[[946573,644978],[-2737,-2286],[-5788,8809],[2660,2116]],[[458566,228255],[-38692,-96075],[-5860,-25147]],[[406596,106590],[5106,25650]],[[411702,132240],[83441,190461],[-5421,2998]],[[489722,325699],[-6336,15465]],[[414645,439691],[-8317,1786]],[[406328,441477],[-7959,10983],[-71,22080],[-9341,20793],[4741,23449],[-19214,-4922]],[[374484,513860],[-678,5962]],[[373806,519822],[23792,5897]],[[397598,525719],[3219,-5894],[-6244,-23251],[9556,-20756],[1162,-23065],[9354,-13062]],[[183674,9252],[-14633,8634],[-9235,8268],[16087,22345],[18179,24120],[142360,188877]],[[295108,488907],[75592,26041]],[[370700,514948],[2209,-1492],[1575,404]],[[406328,441477],[15749,-21730],[22086,-9245],[1978,-3809]],[[446141,406693],[1552,-2991]],[[447693,403702],[23455,-45171]],[[471148,358531],[3025,5376]],[[474173,363907],[5463,-13591]],[[464493,263796],[-14320,-36151],[-38471,-95405]],[[406596,106590],[-26275,-1898]],[[222879,616563],[9496,2016]],[[232375,618579],[17953,3813],[55264,-31708],[23379,-1563],[29474,-65900],[9401,-6346]],[[367846,516875],[2854,-1927]],[[243000,545673],[-36353,39491],[-7600,6439]],[[497110,439870],[-653,-1738]],[[496457,438132],[-12294,-32743]],[[484163,405389],[-700,-1864]],[[408391,527836],[3836,-7217],[-6125,-24239],[5036,-9534]],[[476884,385980],[-5249,-14352]],[[471635,371628],[-19557,36539]],[[452078,408167],[-1513,2827]],[[450565,410994],[-2049,3827],[-22847,9477],[-11024,15393]],[[397598,525719],[4476,14049],[6317,-11932]],[[529574,579242],[45746,-33556]],[[575320,545686],[-35046,-45695]],[[540274,499991],[-6296,-8209]],[[408391,527836],[92084,31598],[29099,19808]],[[642789,692984],[4407,-15802],[14722,-35167]],[[661918,642015],[-1431,-617]],[[660487,641398],[-4178,-1801]],[[656309,639597],[-13227,-5701],[-12276,-15981]],[[630806,617915],[-55486,-72229]],[[529574,579242],[54939,37418],[58276,76324]],[[667852,636510],[14702,6240],[15170,1832]],[[697724,644582],[77969,9412]],[[775693,653994],[90644,10942],[58266,1694]],[[924603,666630],[12012,349]],[[940902,660238],[-6293,-4453],[-13233,-375],[-19261,-21984],[-7849,174],[-14726,10325],[-11963,3541],[-13165,-6818],[-35583,6817],[-9925,-1807],[-9337,-22267],[-10661,-7692],[-28782,2758],[-16866,-14235],[-11921,-4012],[-17996,4211],[-18284,-10904],[-723,-12860],[-16864,-10442],[-20139,-8603],[-3178,806]],[[942750,674692],[26253,938],[1532,-7233],[-22961,-1096]],[[936615,666979],[-3841,5894]],[[932774,672873],[-919,1410]],[[932774,672873],[-8171,-6243]],[[775693,653994],[-2558,7031]],[[773135,661025],[95740,11135],[62980,2123]],[[681066,650317],[42746,4971]],[[723812,655288],[-26088,-10706]],[[662295,634103],[-4543,-1957]],[[657752,632146],[2735,9252]],[[661918,642015],[4098,1784]],[[655821,635620],[122,-4254]],[[655943,631366],[-8006,-3449],[-105186,-136082]],[[542751,491835],[-1138,3746]],[[541613,495581],[-1339,4410]],[[630806,617915],[25015,17705]],[[656309,639597],[-488,-3977]],[[541613,495581],[-45156,-57449]],[[542751,491835],[-35890,-46431],[-17595,-47544]],[[489266,397860],[-5103,7529]],[[373806,519822],[-5960,-2947]],[[232375,618579],[5128,7249]],[[237503,625828],[15096,3041],[55924,-32719],[24354,-1152],[30311,-68753],[10618,-6423]],[[450565,410994],[-4424,-4301]],[[452078,408167],[-4385,-4465]],[[224380,623186],[13123,2642]],[[657752,632146],[-1809,-780]],[[773135,661025],[-49323,-5737]],[[658180,662700],[-7920,18785],[-3075,11042]],[[647185,692527],[5892,-135],[35618,29501],[43158,8842],[101863,915],[54159,10508]],[[642789,692984],[4396,-457]],[[649207,563054],[-17126,4226],[-14757,-10576],[-2853,-42794],[-26906,-20137],[-10116,-12999],[2005,-15795],[-4326,-5691],[-42741,-31202],[-16321,-69070],[-5743,1216],[-28633,17158]],[[481690,377390],[7576,20470]],[[481690,377390],[-2195,-5981]],[[474173,363907],[-1578,4798]],[[472595,368705],[-960,2923]],[[949573,647177],[-3000,-2199]],[[940708,653617],[3197,2281]],[[472595,368705],[-1447,-10174]]],"bbox":[155.149,-1388.137,1489.507,-24.696],"transform":{"scale":[0.0013343593343593347,0.0013634423634423635],"translate":[155.149,-1388.137]}}