{"type":"Topology","objects":{"01204-4500-43.featurecollection":{"type":"GeometryCollection","geometries":[{"type":"Polygon","arcs":[[0,1,2,3]],"properties":{"市区町村名":"旭川市","大字名":"江丹別町","丁目名":null,"小字名":"西里","地番":"514-1","精度区分":null,"座標系":"任意座標系"}},{"type":"Polygon","arcs":[[-3,4,5,6,7]],"properties":{"市区町村名":"旭川市","大字名":"江丹別町","丁目名":null,"小字名":"西里","地番":"514-2","精度区分":null,"座標系":"任意座標系"}},{"type":"Polygon","arcs":[[-7,8,9]],"properties":{"市区町村名":"旭川市","大字名":"江丹別町","丁目名":null,"小字名":"西里","地番":"514-3","精度区分":null,"座標系":"任意座標系"}},{"type":"Polygon","arcs":[[10,11,12,13,14,15]],"properties":{"市区町村名":"旭川市","大字名":"江丹別町","丁目名":null,"小字名":"西里","地番":"515-1","精度区分":null,"座標系":"任意座標系"}},{"type":"Polygon","arcs":[[16,-14]],"properties":{"市区町村名":"旭川市","大字名":"江丹別町","丁目名":null,"小字名":"西里","地番":"515-2","精度区分":null,"座標系":"任意座標系"}},{"type":"Polygon","arcs":[[17,18,19,-11,20]],"properties":{"市区町村名":"旭川市","大字名":"江丹別町","丁目名":null,"小字名":"西里","地番":"638","精度区分":null,"座標系":"任意座標系"}},{"type":"Polygon","arcs":[[21,22,-4,23,24]],"properties":{"市区町村名":"旭川市","大字名":"江丹別町","丁目名":null,"小字名":"西里","地番":"639-1","精度区分":null,"座標系":"任意座標系"}},{"type":"Polygon","arcs":[[-24,-8,25,26]],"properties":{"市区町村名":"旭川市","大字名":"江丹別町","丁目名":null,"小字名":"西里","地番":"639-2","精度区分":null,"座標系":"任意座標系"}},{"type":"Polygon","arcs":[[-26,-10,27,28]],"properties":{"市区町村名":"旭川市","大字名":"江丹別町","丁目名":null,"小字名":"西里","地番":"639-3","精度区分":null,"座標系":"任意座標系"}},{"type":"Polygon","arcs":[[29,-25,-27,-29,30]],"properties":{"市区町村名":"旭川市","大字名":"江丹別町","丁目名":null,"小字名":"西里","地番":"無地番-7","精度区分":null,"座標系":"任意座標系"}},{"type":"Polygon","arcs":[[-5,-2,31,-15,-17,-13,32]],"properties":{"市区町村名":"旭川市","大字名":"江丹別町","丁目名":null,"小字名":"西里","地番":"無地番-453","精度区分":null,"座標系":"任意座標系"}},{"type":"Polygon","arcs":[[33,-22,-30,34]],"properties":{"市区町村名":"旭川市","大字名":"江丹別町","丁目名":null,"小字名":"西里","地番":"無地番-457","精度区分":null,"座標系":"任意座標系"}},{"type":"Polygon","arcs":[[-23,-34,35,36,-21,-16,-32,-1]],"properties":{"市区町村名":"旭川市","大字名":"江丹別町","丁目名":null,"小字名":"西里","地番":"無地番-460","精度区分":null,"座標系":"任意座標系"}},{"type":"Polygon","arcs":[[37,38,-18,-37]],"properties":{"市区町村名":"旭川市","大字名":"江丹別町","丁目名":null,"小字名":"西里","地番":"無地番-461","精度区分":null,"座標系":"任意座標系"}},{"type":"Polygon","arcs":[[39,-19,-39]],"properties":{"市区町村名":"旭川市","大字名":"江丹別町","丁目名":null,"小字名":"西里","地番":"無地番-467","精度区分":null,"座標系":"任意座標系"}}]}},"arcs":[[[585895,632859],[-12455,16734],[-116088,35886],[-64807,-15505],[-14141,31585],[-48522,37579]],[[329882,739138],[297691,177238]],[[627573,916376],[44827,-63631],[111132,-83892]],[[783532,768853],[-197637,-135994]],[[627573,916376],[4508,2848]],[[632081,919224],[40690,-33910]],[[672771,885314],[13197,-20428],[113006,-85302]],[[798974,779584],[-15442,-10731]],[[672771,885314],[64303,-53592],[19507,8666],[88248,-29168]],[[844829,811220],[-45855,-31636]],[[577905,627388],[-342571,-236963]],[[235334,390425],[-76147,137808],[-43498,83333]],[[115689,611566],[41041,24315]],[[156730,635881],[42926,-44760],[37089,21842],[38832,-40100],[113629,68594],[-81731,84496]],[[307475,725953],[13613,8292]],[[321088,734245],[46705,-35439],[19014,-39409],[70138,16768],[109896,-33442],[11064,-15335]],[[156730,635881],[150745,90072]],[[585520,616673],[-96201,-66829]],[[489319,549844],[-247454,-171222]],[[241865,378622],[-6531,11803]],[[577905,627388],[7615,-10715]],[[690695,688609],[-96981,-66581]],[[593714,622028],[-7819,10831]],[[783532,768853],[11126,-8515]],[[794658,760338],[-103963,-71729]],[[798974,779584],[11231,-8621]],[[810205,770963],[-15547,-10625]],[[844829,811220],[14651,-6404]],[[859480,804816],[-49275,-33853]],[[870083,587709],[-179388,100900]],[[859480,804816],[140519,-100461],[-129916,-116646]],[[329882,739138],[-8794,-4893]],[[115689,611566],[-115689,218067],[614327,170366],[17754,-80775]],[[681348,502643],[-87634,119385]],[[870083,587709],[-188735,-85066]],[[681348,502643],[-10413,-2303]],[[670935,500340],[-85415,116333]],[[670935,500340],[-107308,-39046]],[[563627,461294],[-74308,88550]],[[563627,461294],[-139565,-224624],[-147047,-236670],[31526,236670],[2483,18631],[-69159,123321]]],"bbox":[93.65,-1375.144,645.974,-667.286],"transform":{"scale":[0.0005523245523245524,0.000707858707858708],"translate":[93.65,-1375.144]}}