{"type":"Topology","objects":{"01439-4500-10.featurecollection":{"type":"GeometryCollection","geometries":[{"type":"Polygon","arcs":[[0,1,2,3]],"properties":{"市区町村名":"雨竜郡幌加内町","大字名":"字共栄","丁目名":null,"小字名":null,"地番":"7049","精度区分":null,"座標系":"任意座標系"}},{"type":"Polygon","arcs":[[4,5,-1]],"properties":{"市区町村名":"雨竜郡幌加内町","大字名":"字共栄","丁目名":null,"小字名":null,"地番":"7050","精度区分":null,"座標系":"任意座標系"}},{"type":"Polygon","arcs":[[6,7,8]],"properties":{"市区町村名":"雨竜郡幌加内町","大字名":"字共栄","丁目名":null,"小字名":null,"地番":"7051","精度区分":null,"座標系":"任意座標系"}},{"type":"Polygon","arcs":[[9,10,11]],"properties":{"市区町村名":"雨竜郡幌加内町","大字名":"字共栄","丁目名":null,"小字名":null,"地番":"7052","精度区分":null,"座標系":"任意座標系"}},{"type":"Polygon","arcs":[[-3,12,13]],"properties":{"市区町村名":"雨竜郡幌加内町","大字名":"字共栄","丁目名":null,"小字名":null,"地番":"7053","精度区分":null,"座標系":"任意座標系"}},{"type":"Polygon","arcs":[[14,15,-8,16,17,18]],"properties":{"市区町村名":"雨竜郡幌加内町","大字名":"字共栄","丁目名":null,"小字名":null,"地番":"7054","精度区分":null,"座標系":"任意座標系"}},{"type":"Polygon","arcs":[[19,20,21]],"properties":{"市区町村名":"雨竜郡幌加内町","大字名":"字共栄","丁目名":null,"小字名":null,"地番":"7055","精度区分":null,"座標系":"任意座標系"}},{"type":"Polygon","arcs":[[-11,22,23,24]],"properties":{"市区町村名":"雨竜郡幌加内町","大字名":"字共栄","丁目名":null,"小字名":null,"地番":"7056","精度区分":null,"座標系":"任意座標系"}},{"type":"Polygon","arcs":[[-21,25,26]],"properties":{"市区町村名":"雨竜郡幌加内町","大字名":"字共栄","丁目名":null,"小字名":null,"地番":"7057","精度区分":null,"座標系":"任意座標系"}},{"type":"Polygon","arcs":[[27,-18,28,29,30]],"properties":{"市区町村名":"雨竜郡幌加内町","大字名":"字共栄","丁目名":null,"小字名":null,"地番":"7058","精度区分":null,"座標系":"任意座標系"}},{"type":"Polygon","arcs":[[31,32,33,34]],"properties":{"市区町村名":"雨竜郡幌加内町","大字名":"字共栄","丁目名":null,"小字名":null,"地番":"7059","精度区分":null,"座標系":"任意座標系"}},{"type":"Polygon","arcs":[[-24,35,36,37]],"properties":{"市区町村名":"雨竜郡幌加内町","大字名":"字共栄","丁目名":null,"小字名":null,"地番":"7060","精度区分":null,"座標系":"任意座標系"}},{"type":"Polygon","arcs":[[38,-30,39,40,41,42]],"properties":{"市区町村名":"雨竜郡幌加内町","大字名":"字共栄","丁目名":null,"小字名":null,"地番":"7061","精度区分":null,"座標系":"任意座標系"}},{"type":"Polygon","arcs":[[-34,43,44]],"properties":{"市区町村名":"雨竜郡幌加内町","大字名":"字共栄","丁目名":null,"小字名":null,"地番":"7062","精度区分":null,"座標系":"任意座標系"}},{"type":"Polygon","arcs":[[-37,45,46]],"properties":{"市区町村名":"雨竜郡幌加内町","大字名":"字共栄","丁目名":null,"小字名":null,"地番":"7063","精度区分":null,"座標系":"任意座標系"}},{"type":"Polygon","arcs":[[-7,47,48,-12,-25,49,-17]],"properties":{"市区町村名":"雨竜郡幌加内町","大字名":"字共栄","丁目名":null,"小字名":null,"地番":"9255","精度区分":null,"座標系":"任意座標系"}},{"type":"Polygon","arcs":[[-29,-50,-38,-47,50,-40]],"properties":{"市区町村名":"雨竜郡幌加内町","大字名":"字共栄","丁目名":null,"小字名":null,"地番":"9256","精度区分":null,"座標系":"任意座標系"}},{"type":"Polygon","arcs":[[-13,-2,-6,51,-48,-9,-16,52]],"properties":{"市区町村名":"雨竜郡幌加内町","大字名":"字共栄","丁目名":null,"小字名":null,"地番":"9313","精度区分":null,"座標系":"任意座標系"}},{"type":"Polygon","arcs":[[53,-26,-20,54,-19,-28,55,-32]],"properties":{"市区町村名":"雨竜郡幌加内町","大字名":"字共栄","丁目名":null,"小字名":null,"地番":"9314","精度区分":null,"座標系":"任意座標系"}},{"type":"Polygon","arcs":[[-44,-33,-56,-31,-39,56]],"properties":{"市区町村名":"雨竜郡幌加内町","大字名":"字共栄","丁目名":null,"小字名":null,"地番":"9315","精度区分":null,"座標系":"任意座標系"}},{"type":"Polygon","arcs":[[-42,57]],"properties":{"市区町村名":"雨竜郡幌加内町","大字名":"字共栄","丁目名":null,"小字名":null,"地番":"9316","精度区分":null,"座標系":"任意座標系"}}]}},"arcs":[[[998728,931613],[-105402,-19622],[-172059,-65014],[3863,-16321]],[[725130,830656],[-14171,-21561],[-579,-8961],[17272,-41836],[-19504,-21489],[-50228,-1765],[-42299,-12054],[-28616,-27554],[19277,-28888],[-6235,-37302]],[[600047,629246],[-64885,68959]],[[535162,698205],[36778,11561],[82741,78968],[64050,74141],[75597,35543],[35906,25135],[8522,32833],[-49899,43613],[104943,-801],[106199,-1296],[-1271,-66289]],[[998728,931613],[380,-21151],[-18123,-2609],[-36807,-65152]],[[944178,842701],[-60844,13379],[-102330,-39944],[-55874,14520]],[[811417,806699],[-24323,-64294],[-152290,-149699]],[[634804,592706],[-19715,20852]],[[615089,613558],[10035,54426],[-19420,24493],[22907,18005],[35364,13382],[73580,-14934],[25520,31411],[-33040,42075],[403,23218],[80979,1065]],[[934961,826241],[-35021,-25471],[-21457,-34275],[-68339,-26902],[-13164,-51196],[-58109,-61494],[15598,-37954],[-76271,-42796]],[[678198,546153],[-36612,39228]],[[641586,585381],[155789,152465],[23115,63404],[77336,35330],[37135,-10339]],[[600047,629246],[-1828,-10945],[-54671,-11166],[-19745,15129],[-26513,74762]],[[497290,697026],[37872,1179]],[[425460,694790],[47794,1488]],[[473254,696278],[44090,-93828],[30356,-11044],[65852,13811],[1537,8341]],[[634804,592706],[-72498,-71263],[-23814,-87207],[-44590,-26532]],[[493902,407704],[-20201,18472]],[[473701,426176],[39537,12677],[9727,15548],[-42988,22897],[-4780,24577],[59221,27791],[8248,21071],[-85979,59945],[-45448,52155],[14221,31953]],[[403529,694108],[-13970,-33897],[51439,-56806],[79658,-56441],[-1556,-6150],[-64711,-31266],[4073,-36620],[40130,-20315],[-4129,-6798],[-30702,-10047]],[[463761,435768],[-79595,73223]],[[384166,508991],[20989,51734],[-48851,131913],[47225,1470]],[[678198,546153],[-95402,-53654],[17335,-61401],[-71707,-54964]],[[528424,376134],[-27185,24860]],[[501239,400994],[47311,29070],[23982,87735],[69054,67582]],[[463761,435768],[-17053,-5582],[-49463,-30930],[-49719,36920],[-23820,-10066],[-3302,-41007],[-17767,-13019],[-53753,-2776]],[[248884,369308],[19816,11198],[-6901,95227],[122367,33258]],[[238110,299647],[49910,34138],[-5401,14558],[-15765,1518],[-711,9942],[47301,2606],[23784,18755],[-742,34136],[9803,4001],[19757,-19012],[36656,-14845],[53472,35113],[17527,5619]],[[493902,407704],[-159963,-96808],[-25506,-52287]],[[308433,258609],[-112984,31925]],[[195449,290534],[42661,9113]],[[244137,366625],[2401,-24955],[22190,-6820],[-40017,-25005]],[[228711,309845],[-48714,-9889],[-4234,-3870]],[[175763,296086],[-37270,10840]],[[138493,306926],[105644,59699]],[[528424,376134],[-113877,-59462],[-70674,-67737]],[[343873,248935],[-24787,6720]],[[319086,255655],[23765,48998],[158388,96341]],[[27854,93938],[87495,-17019],[41256,1326],[54314,17922],[19744,27433],[-29128,46475],[-96814,67832],[4420,8373],[79548,6261],[5207,12461],[-10644,16550],[9013,8301],[3184,681]],[[308433,258609],[-122849,-256840]],[[185584,1769],[-74182,28001]],[[111402,29770],[-8429,15394],[-61781,17741],[-26119,20884]],[[15073,83789],[12781,10149]],[[175763,296086],[-9663,-8832],[10303,-19278],[-5203,-4801],[-80760,-6471],[-9757,-21730],[108203,-73532],[22397,-37880],[-15848,-21029],[-40298,-12404],[-40766,1156],[-72073,14123]],[[42298,105408],[30032,23847],[-14478,116705],[34481,34332],[46160,26634]],[[343873,248935],[-33645,-60553],[-19231,-86230],[-87889,-89132]],[[203108,13020],[115978,242635]],[[811417,806699],[85650,38963],[46235,-13354]],[[943302,832308],[-8341,-6067]],[[501239,400994],[-7337,6710]],[[203108,13020],[-12839,-13020],[-4685,1769]],[[944178,842701],[10299,-2266],[-11175,-8127]],[[473254,696278],[24036,748]],[[244137,366625],[4747,2683]],[[403529,694108],[21931,682]],[[238110,299647],[-9399,10198]],[[27854,93938],[14444,11470]],[[111402,29770],[-111402,42050],[15073,11969]]],"bbox":[34.306,51.502,966.543,1307.101],"transform":{"scale":[0.0009322379322379323,0.0012556002556002557],"translate":[34.306,51.502]}}