{"type":"Topology","objects":{"01439-4500-14":{"type":"GeometryCollection","geometries":[{"type":"MultiPolygon","arcs":[[[0,1]]],"properties":{"筆ID":"H000000001","version":"ver1.0","座標系":"任意座標系","測地系判別":null,"地図名":"幌加内町開拓図Ｅ２５００・図郭有","地図番号":"E3","縮尺分母":"2500","市区町村コード":"01439","市区町村名":"雨竜郡幌加内町","大字コード":"034","丁目コード":"000","小字コード":"0000","予備コード":"00","大字名":"字蕗の台","丁目名":null,"小字名":null,"予備名":null,"地番":"6726","精度区分":null,"座標値種別":"図上測量","筆界未定構成筆":null,"代表点緯度":-12755.4065,"代表点経度":-10521.323563612}},{"type":"MultiPolygon","arcs":[[[2,3,-2,4,5,6,7,8,9]]],"properties":{"筆ID":"H000000002","version":"ver1.0","座標系":"任意座標系","測地系判別":null,"地図名":"幌加内町開拓図Ｅ２５００・図郭有","地図番号":"E4","縮尺分母":"2500","市区町村コード":"01439","市区町村名":"雨竜郡幌加内町","大字コード":"034","丁目コード":"000","小字コード":"0000","予備コード":"00","大字名":"字蕗の台","丁目名":null,"小字名":null,"予備名":null,"地番":"6727","精度区分":null,"座標値種別":"図上測量","筆界未定構成筆":null,"代表点緯度":-12785.66,"代表点経度":-10588.672806174}},{"type":"MultiPolygon","arcs":[[[-4,10,-5,-1]]],"properties":{"筆ID":"H000000003","version":"ver1.0","座標系":"任意座標系","測地系判別":null,"地図名":"幌加内町開拓図Ｅ２５００・図郭有","地図番号":"E3","縮尺分母":"2500","市区町村コード":"01439","市区町村名":"雨竜郡幌加内町","大字コード":"034","丁目コード":"000","小字コード":"0000","予備コード":"00","大字名":"字蕗の台","丁目名":null,"小字名":null,"予備名":null,"地番":"6728","精度区分":null,"座標値種別":"図上測量","筆界未定構成筆":null,"代表点緯度":-12734.7255,"代表点経度":-10446.378636609}},{"type":"MultiPolygon","arcs":[[[11,-7]]],"properties":{"筆ID":"H000000004","version":"ver1.0","座標系":"任意座標系","測地系判別":null,"地図名":"幌加内町開拓図Ｅ２５００・図郭有","地図番号":"E3","縮尺分母":"2500","市区町村コード":"01439","市区町村名":"雨竜郡幌加内町","大字コード":"034","丁目コード":"000","小字コード":"0000","予備コード":"00","大字名":"字蕗の台","丁目名":null,"小字名":null,"予備名":null,"地番":"6729","精度区分":null,"座標値種別":"図上測量","筆界未定構成筆":null,"代表点緯度":-12857.0755,"代表点経度":-10448.614507771}},{"type":"MultiPolygon","arcs":[[[12,13,14]]],"properties":{"筆ID":"H000000005","version":"ver1.0","座標系":"任意座標系","測地系判別":null,"地図名":"幌加内町開拓図Ｅ２５００・図郭有","地図番号":"E3","縮尺分母":"2500","市区町村コード":"01439","市区町村名":"雨竜郡幌加内町","大字コード":"034","丁目コード":"000","小字コード":"0000","予備コード":"00","大字名":"字蕗の台","丁目名":null,"小字名":null,"予備名":null,"地番":"6730","精度区分":null,"座標値種別":"図上測量","筆界未定構成筆":null,"代表点緯度":-12360.9065,"代表点経度":-11024.357286708}},{"type":"MultiPolygon","arcs":[[[15,16,17,-13,18]]],"properties":{"筆ID":"H000000006","version":"ver1.0","座標系":"任意座標系","測地系判別":null,"地図名":"幌加内町開拓図Ｅ２５００・図郭有","地図番号":"E3","縮尺分母":"2500","市区町村コード":"01439","市区町村名":"雨竜郡幌加内町","大字コード":"034","丁目コード":"000","小字コード":"0000","予備コード":"00","大字名":"字蕗の台","丁目名":null,"小字名":null,"予備名":null,"地番":"6732","精度区分":null,"座標値種別":"図上測量","筆界未定構成筆":null,"代表点緯度":-12372.7595,"代表点経度":-10933.959475167}},{"type":"MultiPolygon","arcs":[[[19,20,21]]],"properties":{"筆ID":"H000000007","version":"ver1.0","座標系":"任意座標系","測地系判別":null,"地図名":"幌加内町開拓図Ｅ２５００・図郭有","地図番号":"E3","縮尺分母":"2500","市区町村コード":"01439","市区町村名":"雨竜郡幌加内町","大字コード":"034","丁目コード":"000","小字コード":"0000","予備コード":"00","大字名":"字蕗の台","丁目名":null,"小字名":null,"予備名":null,"地番":"6733","精度区分":null,"座標値種別":"図上測量","筆界未定構成筆":null,"代表点緯度":-12274.3035,"代表点経度":-10895.955784979}},{"type":"MultiPolygon","arcs":[[[-21,22,-16,23,24]]],"properties":{"筆ID":"H000000008","version":"ver1.0","座標系":"任意座標系","測地系判別":null,"地図名":"幌加内町開拓図Ｅ２５００・図郭有","地図番号":"E3","縮尺分母":"2500","市区町村コード":"01439","市区町村名":"雨竜郡幌加内町","大字コード":"034","丁目コード":"000","小字コード":"0000","予備コード":"00","大字名":"字蕗の台","丁目名":null,"小字名":null,"予備名":null,"地番":"6734","精度区分":null,"座標値種別":"図上測量","筆界未定構成筆":null,"代表点緯度":-12293.9495,"代表点経度":-10984.545020913}},{"type":"MultiPolygon","arcs":[[[25,26,27,28]]],"properties":{"筆ID":"H000000009","version":"ver1.0","座標系":"任意座標系","測地系判別":null,"地図名":"幌加内町開拓図Ｅ２５００・図郭有","地図番号":"E3","縮尺分母":"2500","市区町村コード":"01439","市区町村名":"雨竜郡幌加内町","大字コード":"034","丁目コード":"000","小字コード":"0000","予備コード":"00","大字名":"字蕗の台","丁目名":null,"小字名":null,"予備名":null,"地番":"6735","精度区分":null,"座標値種別":"図上測量","筆界未定構成筆":null,"代表点緯度":-12480.632,"代表点経度":-10966.639311865}},{"type":"MultiPolygon","arcs":[[[29,30,31]]],"properties":{"筆ID":"H000000010","version":"ver1.0","座標系":"任意座標系","測地系判別":null,"地図名":"幌加内町開拓図Ｅ２５００・図郭有","地図番号":"E3","縮尺分母":"2500","市区町村コード":"01439","市区町村名":"雨竜郡幌加内町","大字コード":"034","丁目コード":"000","小字コード":"0000","予備コード":"00","大字名":"字蕗の台","丁目名":null,"小字名":null,"予備名":null,"地番":"6736","精度区分":null,"座標値種別":"図上測量","筆界未定構成筆":null,"代表点緯度":-12161.107,"代表点経度":-10921.83966048}},{"type":"MultiPolygon","arcs":[[[32,33]]],"properties":{"筆ID":"H000000011","version":"ver1.0","座標系":"任意座標系","測地系判別":null,"地図名":"幌加内町開拓図Ｅ２５００・図郭有","地図番号":"E3","縮尺分母":"2500","市区町村コード":"01439","市区町村名":"雨竜郡幌加内町","大字コード":"034","丁目コード":"000","小字コード":"0000","予備コード":"00","大字名":"字蕗の台","丁目名":null,"小字名":null,"予備名":null,"地番":"6741","精度区分":null,"座標値種別":"図上測量","筆界未定構成筆":null,"代表点緯度":-12658.7815,"代表点経度":-11157.17043672}},{"type":"MultiPolygon","arcs":[[[-33,34,35,36,37,38]]],"properties":{"筆ID":"H000000012","version":"ver1.0","座標系":"任意座標系","測地系判別":null,"地図名":"幌加内町開拓図Ｅ２５００・図郭有","地図番号":"E7","縮尺分母":"2500","市区町村コード":"01439","市区町村名":"雨竜郡幌加内町","大字コード":"034","丁目コード":"000","小字コード":"0000","予備コード":"00","大字名":"字蕗の台","丁目名":null,"小字名":null,"予備名":null,"地番":"6742-1","精度区分":null,"座標値種別":"図上測量","筆界未定構成筆":null,"代表点緯度":-12719.1215,"代表点経度":-11227.407814181}},{"type":"MultiPolygon","arcs":[[[39,-35,-34,-39,40,41]]],"properties":{"筆ID":"H000000013","version":"ver1.0","座標系":"任意座標系","測地系判別":null,"地図名":"幌加内町開拓図Ｅ２５００・図郭有","地図番号":"E7","縮尺分母":"2500","市区町村コード":"01439","市区町村名":"雨竜郡幌加内町","大字コード":"034","丁目コード":"000","小字コード":"0000","予備コード":"00","大字名":"字蕗の台","丁目名":null,"小字名":null,"予備名":null,"地番":"6742-2","精度区分":null,"座標値種別":"図上測量","筆界未定構成筆":null,"代表点緯度":-12583.3,"代表点経度":-11210.374981209}},{"type":"MultiPolygon","arcs":[[[42,43]]],"properties":{"筆ID":"H000000014","version":"ver1.0","座標系":"任意座標系","測地系判別":null,"地図名":"幌加内町開拓図Ｅ２５００・図郭有","地図番号":"E7","縮尺分母":"2500","市区町村コード":"01439","市区町村名":"雨竜郡幌加内町","大字コード":"034","丁目コード":"000","小字コード":"0000","予備コード":"00","大字名":"字蕗の台","丁目名":null,"小字名":null,"予備名":null,"地番":"6744","精度区分":null,"座標値種別":"図上測量","筆界未定構成筆":null,"代表点緯度":-12313.129,"代表点経度":-11284.701475593}},{"type":"MultiPolygon","arcs":[[[44,45,-44,46,47,48]]],"properties":{"筆ID":"H000000015","version":"ver1.0","座標系":"任意座標系","測地系判別":null,"地図名":"幌加内町開拓図Ｅ２５００・図郭有","地図番号":"E7","縮尺分母":"2500","市区町村コード":"01439","市区町村名":"雨竜郡幌加内町","大字コード":"034","丁目コード":"000","小字コード":"0000","予備コード":"00","大字名":"字蕗の台","丁目名":null,"小字名":null,"予備名":null,"地番":"6745","精度区分":null,"座標値種別":"図上測量","筆界未定構成筆":null,"代表点緯度":-12274.871,"代表点経度":-11308.363921306}},{"type":"MultiPolygon","arcs":[[[49,50,51]]],"properties":{"筆ID":"H000000016","version":"ver1.0","座標系":"任意座標系","測地系判別":null,"地図名":"幌加内町開拓図Ｅ２５００・図郭有","地図番号":"E7","縮尺分母":"2500","市区町村コード":"01439","市区町村名":"雨竜郡幌加内町","大字コード":"034","丁目コード":"000","小字コード":"0000","予備コード":"00","大字名":"字蕗の台","丁目名":null,"小字名":null,"予備名":null,"地番":"6746","精度区分":null,"座標値種別":"図上測量","筆界未定構成筆":null,"代表点緯度":-12365.526,"代表点経度":-11356.42913764}},{"type":"MultiPolygon","arcs":[[[-51,52,53,54]]],"properties":{"筆ID":"H000000017","version":"ver1.0","座標系":"任意座標系","測地系判別":null,"地図名":"幌加内町開拓図Ｅ２５００・図郭有","地図番号":"E7","縮尺分母":"2500","市区町村コード":"01439","市区町村名":"雨竜郡幌加内町","大字コード":"034","丁目コード":"000","小字コード":"0000","予備コード":"00","大字名":"字蕗の台","丁目名":null,"小字名":null,"予備名":null,"地番":"6747","精度区分":null,"座標値種別":"図上測量","筆界未定構成筆":null,"代表点緯度":-12419.162,"代表点経度":-11366.195204186}},{"type":"MultiPolygon","arcs":[[[55,56,57,58]]],"properties":{"筆ID":"H000000018","version":"ver1.0","座標系":"任意座標系","測地系判別":null,"地図名":"幌加内町開拓図Ｅ２５００・図郭有","地図番号":"E7","縮尺分母":"2500","市区町村コード":"01439","市区町村名":"雨竜郡幌加内町","大字コード":"034","丁目コード":"000","小字コード":"0000","予備コード":"00","大字名":"字蕗の台","丁目名":null,"小字名":null,"予備名":null,"地番":"6748","精度区分":null,"座標値種別":"図上測量","筆界未定構成筆":null,"代表点緯度":-12128.74,"代表点経度":-11287.628429805}},{"type":"MultiPolygon","arcs":[[[59,-56,60]]],"properties":{"筆ID":"H000000019","version":"ver1.0","座標系":"任意座標系","測地系判別":null,"地図名":"幌加内町開拓図Ｅ２５００・図郭有","地図番号":"E7","縮尺分母":"2500","市区町村コード":"01439","市区町村名":"雨竜郡幌加内町","大字コード":"034","丁目コード":"000","小字コード":"0000","予備コード":"00","大字名":"字蕗の台","丁目名":null,"小字名":null,"予備名":null,"地番":"6749","精度区分":null,"座標値種別":"図上測量","筆界未定構成筆":null,"代表点緯度":-12193.54,"代表点経度":-11221.666293966}},{"type":"MultiPolygon","arcs":[[[61]]],"properties":{"筆ID":"H000000020","version":"ver1.0","座標系":"任意座標系","測地系判別":null,"地図名":"幌加内町開拓図Ｅ２５００・図郭有","地図番号":"E7","縮尺分母":"2500","市区町村コード":"01439","市区町村名":"雨竜郡幌加内町","大字コード":"034","丁目コード":"000","小字コード":"0000","予備コード":"00","大字名":"字蕗の台","丁目名":null,"小字名":null,"予備名":null,"地番":"6752","精度区分":null,"座標値種別":"図上測量","筆界未定構成筆":null,"代表点緯度":-12345.098,"代表点経度":-11459.833826182}},{"type":"MultiPolygon","arcs":[[[62,63,64,-62,65]]],"properties":{"筆ID":"H000000021","version":"ver1.0","座標系":"任意座標系","測地系判別":null,"地図名":"幌加内町開拓図Ｅ２５００・図郭有","地図番号":"E7","縮尺分母":"2500","市区町村コード":"01439","市区町村名":"雨竜郡幌加内町","大字コード":"034","丁目コード":"000","小字コード":"0000","予備コード":"00","大字名":"字蕗の台","丁目名":null,"小字名":null,"予備名":null,"地番":"6753","精度区分":null,"座標値種別":"図上測量","筆界未定構成筆":null,"代表点緯度":-12420.524,"代表点経度":-11455.367159363}},{"type":"MultiPolygon","arcs":[[[66,-66,-65,67,68,69]]],"properties":{"筆ID":"H000000022","version":"ver1.0","座標系":"任意座標系","測地系判別":null,"地図名":"幌加内町開拓図Ｅ２５００・図郭有","地図番号":"E7","縮尺分母":"2500","市区町村コード":"01439","市区町村名":"雨竜郡幌加内町","大字コード":"034","丁目コード":"000","小字コード":"0000","予備コード":"00","大字名":"字蕗の台","丁目名":null,"小字名":null,"予備名":null,"地番":"6754","精度区分":null,"座標値種別":"図上測量","筆界未定構成筆":null,"代表点緯度":-12411.4635,"代表点経度":-11546.838546309}},{"type":"MultiPolygon","arcs":[[[-48,70,71]]],"properties":{"筆ID":"H000000023","version":"ver1.0","座標系":"任意座標系","測地系判別":null,"地図名":"幌加内町開拓図Ｅ２５００・図郭有","地図番号":"E7","縮尺分母":"2500","市区町村コード":"01439","市区町村名":"雨竜郡幌加内町","大字コード":"034","丁目コード":"000","小字コード":"0000","予備コード":"00","大字名":"字蕗の台","丁目名":null,"小字名":null,"予備名":null,"地番":"6755","精度区分":null,"座標値種別":"図上測量","筆界未定構成筆":null,"代表点緯度":-12280.3015,"代表点経度":-11454.553004032}},{"type":"MultiPolygon","arcs":[[[72,73,74]]],"properties":{"筆ID":"H000000024","version":"ver1.0","座標系":"任意座標系","測地系判別":null,"地図名":"幌加内町開拓図Ｅ２５００・図郭有","地図番号":"E7","縮尺分母":"2500","市区町村コード":"01439","市区町村名":"雨竜郡幌加内町","大字コード":"034","丁目コード":"000","小字コード":"0000","予備コード":"00","大字名":"字蕗の台","丁目名":null,"小字名":null,"予備名":null,"地番":"6756","精度区分":null,"座標値種別":"図上測量","筆界未定構成筆":null,"代表点緯度":-12240.948,"代表点経度":-11566.79016163}},{"type":"MultiPolygon","arcs":[[[75,-58,76,77]]],"properties":{"筆ID":"H000000025","version":"ver1.0","座標系":"任意座標系","測地系判別":null,"地図名":"幌加内町開拓図Ｅ２５００・図郭有","地図番号":"E7","縮尺分母":"2500","市区町村コード":"01439","市区町村名":"雨竜郡幌加内町","大字コード":"034","丁目コード":"000","小字コード":"0000","予備コード":"00","大字名":"字蕗の台","丁目名":null,"小字名":null,"予備名":null,"地番":"6757","精度区分":null,"座標値種別":"図上測量","筆界未定構成筆":null,"代表点緯度":-12129.3795,"代表点経度":-11439.366808849}},{"type":"MultiPolygon","arcs":[[[78,79,80,81]]],"properties":{"筆ID":"H000000026","version":"ver1.0","座標系":"任意座標系","測地系判別":null,"地図名":"幌加内町開拓図Ｅ２５００・図郭有","地図番号":"E7","縮尺分母":"2500","市区町村コード":"01439","市区町村名":"雨竜郡幌加内町","大字コード":"034","丁目コード":"000","小字コード":"0000","予備コード":"00","大字名":"字蕗の台","丁目名":null,"小字名":null,"予備名":null,"地番":"6758","精度区分":null,"座標値種別":"図上測量","筆界未定構成筆":null,"代表点緯度":-12126.349,"代表点経度":-11536.044529958}},{"type":"MultiPolygon","arcs":[[[82,83]]],"properties":{"筆ID":"H000000027","version":"ver1.0","座標系":"任意座標系","測地系判別":null,"地図名":"幌加内町開拓図Ｅ２５００・図郭有","地図番号":"E7","縮尺分母":"2500","市区町村コード":"01439","市区町村名":"雨竜郡幌加内町","大字コード":"034","丁目コード":"000","小字コード":"0000","予備コード":"00","大字名":"字蕗の台","丁目名":null,"小字名":null,"予備名":null,"地番":"6760","精度区分":null,"座標値種別":"図上測量","筆界未定構成筆":null,"代表点緯度":-12527.4035,"代表点経度":-11474.961785249}},{"type":"MultiPolygon","arcs":[[[84,85,-84,86,87]]],"properties":{"筆ID":"H000000028","version":"ver1.0","座標系":"任意座標系","測地系判別":null,"地図名":"幌加内町開拓図Ｅ２５００・図郭有","地図番号":"E7","縮尺分母":"2500","市区町村コード":"01439","市区町村名":"雨竜郡幌加内町","大字コード":"034","丁目コード":"000","小字コード":"0000","予備コード":"00","大字名":"字蕗の台","丁目名":null,"小字名":null,"予備名":null,"地番":"6761","精度区分":null,"座標値種別":"図上測量","筆界未定構成筆":null,"代表点緯度":-12531.7005,"代表点経度":-11546.611475369}},{"type":"MultiPolygon","arcs":[[[-87,-83,-86,88,-41,-38,89,90,91]]],"properties":{"筆ID":"H000000029","version":"ver1.0","座標系":"任意座標系","測地系判別":null,"地図名":"幌加内町開拓図Ｅ２５００・図郭有","地図番号":"E7","縮尺分母":"2500","市区町村コード":"01439","市区町村名":"雨竜郡幌加内町","大字コード":"034","丁目コード":"000","小字コード":"0000","予備コード":"00","大字名":"字蕗の台","丁目名":null,"小字名":null,"予備名":null,"地番":"6762","精度区分":null,"座標値種別":"図上測量","筆界未定構成筆":null,"代表点緯度":-12618.082,"代表点経度":-11496.21396979}},{"type":"MultiPolygon","arcs":[[[92,93,94,-69]]],"properties":{"筆ID":"H000000030","version":"ver1.0","座標系":"任意座標系","測地系判別":null,"地図名":"幌加内町開拓図Ｅ２５００・図郭有","地図番号":"E7","縮尺分母":"2500","市区町村コード":"01439","市区町村名":"雨竜郡幌加内町","大字コード":"034","丁目コード":"000","小字コード":"0000","予備コード":"00","大字名":"字蕗の台","丁目名":null,"小字名":null,"予備名":null,"地番":"6763","精度区分":null,"座標値種別":"図上測量","筆界未定構成筆":null,"代表点緯度":-12490.8535,"代表点経度":-11578.863057197}},{"type":"MultiPolygon","arcs":[[[95,96,97,-70,-95,98,99]]],"properties":{"筆ID":"H000000031","version":"ver1.0","座標系":"任意座標系","測地系判別":null,"地図名":"幌加内町開拓図Ｅ２５００・図郭有","地図番号":"E7","縮尺分母":"2500","市区町村コード":"01439","市区町村名":"雨竜郡幌加内町","大字コード":"034","丁目コード":"000","小字コード":"0000","予備コード":"00","大字名":"字蕗の台","丁目名":null,"小字名":null,"予備名":null,"地番":"6765","精度区分":null,"座標値種別":"図上測量","筆界未定構成筆":null,"代表点緯度":-12348.145,"代表点経度":-11691.995290133}},{"type":"MultiPolygon","arcs":[[[100,-74,101,102]]],"properties":{"筆ID":"H000000032","version":"ver1.0","座標系":"任意座標系","測地系判別":null,"地図名":"幌加内町開拓図Ｅ２５００・図郭有","地図番号":"E7","縮尺分母":"2500","市区町村コード":"01439","市区町村名":"雨竜郡幌加内町","大字コード":"034","丁目コード":"000","小字コード":"0000","予備コード":"00","大字名":"字蕗の台","丁目名":null,"小字名":null,"予備名":null,"地番":"6766","精度区分":null,"座標値種別":"図上測量","筆界未定構成筆":null,"代表点緯度":-12197.9395,"代表点経度":-11695.327466391}},{"type":"MultiPolygon","arcs":[[[103,104,105,106]]],"properties":{"筆ID":"H000000033","version":"ver1.0","座標系":"任意座標系","測地系判別":null,"地図名":"幌加内町開拓図Ｅ２５００・図郭有","地図番号":"E7","縮尺分母":"2500","市区町村コード":"01439","市区町村名":"雨竜郡幌加内町","大字コード":"034","丁目コード":"000","小字コード":"0000","予備コード":"00","大字名":"字蕗の台","丁目名":null,"小字名":null,"予備名":null,"地番":"6767","精度区分":null,"座標値種別":"図上測量","筆界未定構成筆":null,"代表点緯度":-12674.26,"代表点経度":-11819.180087243}},{"type":"MultiPolygon","arcs":[[[107,108,109]]],"properties":{"筆ID":"H000000034","version":"ver1.0","座標系":"任意座標系","測地系判別":null,"地図名":"幌加内町開拓図Ｅ２５００・図郭有","地図番号":"E7","縮尺分母":"2500","市区町村コード":"01439","市区町村名":"雨竜郡幌加内町","大字コード":"034","丁目コード":"000","小字コード":"0000","予備コード":"00","大字名":"字蕗の台","丁目名":null,"小字名":null,"予備名":null,"地番":"6768","精度区分":null,"座標値種別":"図上測量","筆界未定構成筆":null,"代表点緯度":-12186.965,"代表点経度":-11866.603365769}},{"type":"MultiPolygon","arcs":[[[-110,110,111]]],"properties":{"筆ID":"H000000035","version":"ver1.0","座標系":"任意座標系","測地系判別":null,"地図名":"幌加内町開拓図Ｅ２５００・図郭有","地図番号":"E7","縮尺分母":"2500","市区町村コード":"01439","市区町村名":"雨竜郡幌加内町","大字コード":"034","丁目コード":"000","小字コード":"0000","予備コード":"00","大字名":"字蕗の台","丁目名":null,"小字名":null,"予備名":null,"地番":"6769","精度区分":null,"座標値種別":"図上測量","筆界未定構成筆":null,"代表点緯度":-12271.596,"代表点経度":-11855.580803969}},{"type":"MultiPolygon","arcs":[[[112,-97,-111,-109]]],"properties":{"筆ID":"H000000036","version":"ver1.0","座標系":"任意座標系","測地系判別":null,"地図名":"幌加内町開拓図Ｅ２５００・図郭有","地図番号":"E7","縮尺分母":"2500","市区町村コード":"01439","市区町村名":"雨竜郡幌加内町","大字コード":"034","丁目コード":"000","小字コード":"0000","予備コード":"00","大字名":"字蕗の台","丁目名":null,"小字名":null,"予備名":null,"地番":"6770","精度区分":null,"座標値種別":"図上測量","筆界未定構成筆":null,"代表点緯度":-12218.444,"代表点経度":-11784.937826696}},{"type":"MultiPolygon","arcs":[[[113,-108,-112,-96,114,115]]],"properties":{"筆ID":"H000000037","version":"ver1.0","座標系":"任意座標系","測地系判別":null,"地図名":"幌加内町開拓図Ｅ２５００・図郭有","地図番号":"E7","縮尺分母":"2500","市区町村コード":"01439","市区町村名":"雨竜郡幌加内町","大字コード":"034","丁目コード":"000","小字コード":"0000","予備コード":"00","大字名":"字蕗の台","丁目名":null,"小字名":null,"予備名":null,"地番":"6771","精度区分":null,"座標値種別":"図上測量","筆界未定構成筆":null,"代表点緯度":-12271.596,"代表点経度":-11939.689673576}},{"type":"MultiPolygon","arcs":[[[116,-103,117,118,119]]],"properties":{"筆ID":"H000000038","version":"ver1.0","座標系":"任意座標系","測地系判別":null,"地図名":"幌加内町開拓図Ｅ２５００・図郭有","地図番号":"E7","縮尺分母":"2500","市区町村コード":"01439","市区町村名":"雨竜郡幌加内町","大字コード":"034","丁目コード":"000","小字コード":"0000","予備コード":"00","大字名":"字蕗の台","丁目名":null,"小字名":null,"予備名":null,"地番":"6772","精度区分":null,"座標値種別":"図上測量","筆界未定構成筆":null,"代表点緯度":-12112.499,"代表点経度":-11838.215796471}},{"type":"MultiPolygon","arcs":[[[120,121]]],"properties":{"筆ID":"H000000039","version":"ver1.0","座標系":"任意座標系","測地系判別":null,"地図名":"幌加内町開拓図Ｅ２５００・図郭有","地図番号":"E7","縮尺分母":"2500","市区町村コード":"01439","市区町村名":"雨竜郡幌加内町","大字コード":"034","丁目コード":"000","小字コード":"0000","予備コード":"00","大字名":"字蕗の台","丁目名":null,"小字名":null,"予備名":null,"地番":"6773","精度区分":null,"座標値種別":"図上測量","筆界未定構成筆":null,"代表点緯度":-12028.254,"代表点経度":-11784.830651077}},{"type":"MultiPolygon","arcs":[[[122,123]]],"properties":{"筆ID":"H000000040","version":"ver1.0","座標系":"任意座標系","測地系判別":null,"地図名":"幌加内町開拓図Ｅ２５００・図郭有","地図番号":"E7","縮尺分母":"2500","市区町村コード":"01439","市区町村名":"雨竜郡幌加内町","大字コード":"034","丁目コード":"000","小字コード":"0000","予備コード":"00","大字名":"字蕗の台","丁目名":null,"小字名":null,"予備名":null,"地番":"6776","精度区分":null,"座標値種別":"図上測量","筆界未定構成筆":null,"代表点緯度":-12660.353,"代表点経度":-12027.978745881}},{"type":"MultiPolygon","arcs":[[[124,125,126,127]]],"properties":{"筆ID":"H000000041","version":"ver1.0","座標系":"任意座標系","測地系判別":null,"地図名":"幌加内町開拓図Ｅ２５００・図郭有","地図番号":"E7","縮尺分母":"2500","市区町村コード":"01439","市区町村名":"雨竜郡幌加内町","大字コード":"034","丁目コード":"000","小字コード":"0000","予備コード":"00","大字名":"字蕗の台","丁目名":null,"小字名":null,"予備名":null,"地番":"6777","精度区分":null,"座標値種別":"図上測量","筆界未定構成筆":null,"代表点緯度":-12756.9365,"代表点経度":-12143.16785583}},{"type":"MultiPolygon","arcs":[[[128,-106,129,-126]]],"properties":{"筆ID":"H000000042","version":"ver1.0","座標系":"任意座標系","測地系判別":null,"地図名":"幌加内町開拓図Ｅ２５００・図郭有","地図番号":"E7","縮尺分母":"2500","市区町村コード":"01439","市区町村名":"雨竜郡幌加内町","大字コード":"034","丁目コード":"000","小字コード":"0000","予備コード":"00","大字名":"字蕗の台","丁目名":null,"小字名":null,"予備名":null,"地番":"6778","精度区分":null,"座標値種別":"図上測量","筆界未定構成筆":null,"代表点緯度":-12698.922,"代表点経度":-11963.954886408}},{"type":"MultiPolygon","arcs":[[[-115,-100,130,-124,131,132,133]]],"properties":{"筆ID":"H000000043","version":"ver1.0","座標系":"任意座標系","測地系判別":null,"地図名":"幌加内町開拓図Ｅ２５００・図郭有","地図番号":"E7","縮尺分母":"2500","市区町村コード":"01439","市区町村名":"雨竜郡幌加内町","大字コード":"034","丁目コード":"000","小字コード":"0000","予備コード":"00","大字名":"字蕗の台","丁目名":null,"小字名":null,"予備名":null,"地番":"6779","精度区分":null,"座標値種別":"図上測量","筆界未定構成筆":null,"代表点緯度":-12511.868,"代表点経度":-12038.593989809}},{"type":"MultiPolygon","arcs":[[[134,135,136,137]]],"properties":{"筆ID":"H000000044","version":"ver1.0","座標系":"任意座標系","測地系判別":null,"地図名":"幌加内町開拓図Ｅ２５００・図郭有","地図番号":"E3","縮尺分母":"2500","市区町村コード":"01439","市区町村名":"雨竜郡幌加内町","大字コード":"034","丁目コード":"000","小字コード":"0000","予備コード":"00","大字名":"字蕗の台","丁目名":null,"小字名":null,"予備名":null,"地番":"6780-1","精度区分":null,"座標値種別":"図上測量","筆界未定構成筆":null,"代表点緯度":-12097.4225,"代表点経度":-10713.082124187}},{"type":"MultiPolygon","arcs":[[[138,139,140,141,-137]]],"properties":{"筆ID":"H000000045","version":"ver1.0","座標系":"任意座標系","測地系判別":null,"地図名":"幌加内町開拓図Ｅ２５００・図郭有","地図番号":"E3","縮尺分母":"2500","市区町村コード":"01439","市区町村名":"雨竜郡幌加内町","大字コード":"034","丁目コード":"000","小字コード":"0000","予備コード":"00","大字名":"字蕗の台","丁目名":null,"小字名":null,"予備名":null,"地番":"6780-2","精度区分":null,"座標値種別":"図上測量","筆界未定構成筆":null,"代表点緯度":-12079.1675,"代表点経度":-10753.741906452}},{"type":"MultiPolygon","arcs":[[[-140,142,143,144]]],"properties":{"筆ID":"H000000046","version":"ver1.0","座標系":"任意座標系","測地系判別":null,"地図名":"幌加内町開拓図Ｅ２５００・図郭有","地図番号":"E3","縮尺分母":"2500","市区町村コード":"01439","市区町村名":"雨竜郡幌加内町","大字コード":"034","丁目コード":"000","小字コード":"0000","予備コード":"00","大字名":"字蕗の台","丁目名":null,"小字名":null,"予備名":null,"地番":"6780-3","精度区分":null,"座標値種別":"図上測量","筆界未定構成筆":null,"代表点緯度":-12353.402,"代表点経度":-10634.076042358}},{"type":"MultiPolygon","arcs":[[[145,146]]],"properties":{"筆ID":"H000000047","version":"ver1.0","座標系":"任意座標系","測地系判別":null,"地図名":"幌加内町開拓図Ｅ２５００・図郭有","地図番号":"E3","縮尺分母":"2500","市区町村コード":"01439","市区町村名":"雨竜郡幌加内町","大字コード":"034","丁目コード":"000","小字コード":"0000","予備コード":"00","大字名":"字蕗の台","丁目名":null,"小字名":null,"予備名":null,"地番":"6781","精度区分":null,"座標値種別":"図上測量","筆界未定構成筆":null,"代表点緯度":-12373.9435,"代表点経度":-10730.695878821}},{"type":"MultiPolygon","arcs":[[[147,148,149,-30,150]]],"properties":{"筆ID":"H000000048","version":"ver1.0","座標系":"任意座標系","測地系判別":null,"地図名":"幌加内町開拓図Ｅ２５００・図郭有","地図番号":"E3","縮尺分母":"2500","市区町村コード":"01439","市区町村名":"雨竜郡幌加内町","大字コード":"034","丁目コード":"000","小字コード":"0000","予備コード":"00","大字名":"字蕗の台","丁目名":null,"小字名":null,"予備名":null,"地番":"6782-1","精度区分":null,"座標値種別":"図上測量","筆界未定構成筆":null,"代表点緯度":-12231.514,"代表点経度":-10758.255445791}},{"type":"MultiPolygon","arcs":[[[151,-148,152]]],"properties":{"筆ID":"H000000049","version":"ver1.0","座標系":"任意座標系","測地系判別":null,"地図名":"幌加内町開拓図Ｅ２５００・図郭有","地図番号":"E3","縮尺分母":"2500","市区町村コード":"01439","市区町村名":"雨竜郡幌加内町","大字コード":"034","丁目コード":"000","小字コード":"0000","予備コード":"00","大字名":"字蕗の台","丁目名":null,"小字名":null,"予備名":null,"地番":"6782-2","精度区分":null,"座標値種別":"図上測量","筆界未定構成筆":null,"代表点緯度":-12199.4745,"代表点経度":-10737.281688909}},{"type":"MultiPolygon","arcs":[[[153,154,155,156]]],"properties":{"筆ID":"H000000050","version":"ver1.0","座標系":"任意座標系","測地系判別":null,"地図名":"幌加内町開拓図Ｅ２５００・図郭有","地図番号":"E3","縮尺分母":"2500","市区町村コード":"01439","市区町村名":"雨竜郡幌加内町","大字コード":"034","丁目コード":"000","小字コード":"0000","予備コード":"00","大字名":"字蕗の台","丁目名":null,"小字名":null,"予備名":null,"地番":"6783-1","精度区分":null,"座標値種別":"図上測量","筆界未定構成筆":null,"代表点緯度":-12054.225,"代表点経度":-10914.618597809}},{"type":"MultiPolygon","arcs":[[[157,158,-156,159]]],"properties":{"筆ID":"H000000051","version":"ver1.0","座標系":"任意座標系","測地系判別":null,"地図名":"幌加内町開拓図Ｅ２５００・図郭有","地図番号":"E3","縮尺分母":"2500","市区町村コード":"01439","市区町村名":"雨竜郡幌加内町","大字コード":"034","丁目コード":"000","小字コード":"0000","予備コード":"00","大字名":"字蕗の台","丁目名":null,"小字名":null,"予備名":null,"地番":"6783-2","精度区分":null,"座標値種別":"図上測量","筆界未定構成筆":null,"代表点緯度":-12069.767,"代表点経度":-10775.727778225}},{"type":"MultiPolygon","arcs":[[[160,-82,161,162]]],"properties":{"筆ID":"H000000052","version":"ver1.0","座標系":"任意座標系","測地系判別":null,"地図名":"幌加内町開拓図Ｅ２５００・図郭有","地図番号":"E7","縮尺分母":"2500","市区町村コード":"01439","市区町村名":"雨竜郡幌加内町","大字コード":"034","丁目コード":"000","小字コード":"0000","予備コード":"00","大字名":"字蕗の台","丁目名":null,"小字名":null,"予備名":null,"地番":"6788","精度区分":null,"座標値種別":"図上測量","筆界未定構成筆":null,"代表点緯度":-12004.9915,"代表点経度":-11464.866115282}},{"type":"MultiPolygon","arcs":[[[163,164,165]]],"properties":{"筆ID":"H000000053","version":"ver1.0","座標系":"任意座標系","測地系判別":null,"地図名":"幌加内町開拓図Ｅ２５００・図郭有","地図番号":"E7","縮尺分母":"2500","市区町村コード":"01439","市区町村名":"雨竜郡幌加内町","大字コード":"034","丁目コード":"000","小字コード":"0000","予備コード":"00","大字名":"字蕗の台","丁目名":null,"小字名":null,"予備名":null,"地番":"6789","精度区分":null,"座標値種別":"図上測量","筆界未定構成筆":null,"代表点緯度":-12008.0825,"代表点経度":-11345.8499536}},{"type":"MultiPolygon","arcs":[[[166,167,168]]],"properties":{"筆ID":"H000000054","version":"ver1.0","座標系":"任意座標系","測地系判別":null,"地図名":"幌加内町開拓図Ｅ２５００・図郭有","地図番号":"E6","縮尺分母":"2500","市区町村コード":"01439","市区町村名":"雨竜郡幌加内町","大字コード":"034","丁目コード":"000","小字コード":"0000","予備コード":"00","大字名":"字蕗の台","丁目名":null,"小字名":null,"予備名":null,"地番":"6790","精度区分":null,"座標値種別":"図上測量","筆界未定構成筆":null,"代表点緯度":-11843.4845,"代表点経度":-11244.521114487}},{"type":"MultiPolygon","arcs":[[[169,170,171,172]]],"properties":{"筆ID":"H000000055","version":"ver1.0","座標系":"任意座標系","測地系判別":null,"地図名":"幌加内町開拓図Ｅ２５００・図郭有","地図番号":"E6","縮尺分母":"2500","市区町村コード":"01439","市区町村名":"雨竜郡幌加内町","大字コード":"034","丁目コード":"000","小字コード":"0000","予備コード":"00","大字名":"字蕗の台","丁目名":null,"小字名":null,"予備名":null,"地番":"6791","精度区分":null,"座標値種別":"図上測量","筆界未定構成筆":null,"代表点緯度":-11812.1,"代表点経度":-11403.614559745}},{"type":"MultiPolygon","arcs":[[[173,174,175,-135,176,177,178]]],"properties":{"筆ID":"H000000056","version":"ver1.0","座標系":"任意座標系","測地系判別":null,"地図名":"幌加内町開拓図Ｅ２５００・図郭有","地図番号":"E2","縮尺分母":"2500","市区町村コード":"01439","市区町村名":"雨竜郡幌加内町","大字コード":"034","丁目コード":"000","小字コード":"0000","予備コード":"00","大字名":"字蕗の台","丁目名":null,"小字名":null,"予備名":null,"地番":"6798","精度区分":null,"座標値種別":"図上測量","筆界未定構成筆":null,"代表点緯度":-11641.2515,"代表点経度":-10612.506044974}},{"type":"MultiPolygon","arcs":[[[179,180,181,182]]],"properties":{"筆ID":"H000000057","version":"ver1.0","座標系":"任意座標系","測地系判別":null,"地図名":"幌加内町開拓図Ｅ２５００・図郭有","地図番号":"E2","縮尺分母":"2500","市区町村コード":"01439","市区町村名":"雨竜郡幌加内町","大字コード":"034","丁目コード":"000","小字コード":"0000","予備コード":"00","大字名":"字蕗の台","丁目名":null,"小字名":null,"予備名":null,"地番":"6799-1","精度区分":null,"座標値種別":"図上測量","筆界未定構成筆":null,"代表点緯度":-11562.08,"代表点経度":-10832.33709469}},{"type":"MultiPolygon","arcs":[[[183,184,185,-182]]],"properties":{"筆ID":"H000000058","version":"ver1.0","座標系":"任意座標系","測地系判別":null,"地図名":"幌加内町開拓図Ｅ２５００・図郭有","地図番号":"E2","縮尺分母":"2500","市区町村コード":"01439","市区町村名":"雨竜郡幌加内町","大字コード":"034","丁目コード":"000","小字コード":"0000","予備コード":"00","大字名":"字蕗の台","丁目名":null,"小字名":null,"予備名":null,"地番":"6799-2","精度区分":null,"座標値種別":"図上測量","筆界未定構成筆":null,"代表点緯度":-11570.4755,"代表点経度":-10894.060731068}},{"type":"MultiPolygon","arcs":[[[186,-185,187]]],"properties":{"筆ID":"H000000059","version":"ver1.0","座標系":"任意座標系","測地系判別":null,"地図名":"幌加内町開拓図Ｅ２５００・図郭有","地図番号":"E2","縮尺分母":"2500","市区町村コード":"01439","市区町村名":"雨竜郡幌加内町","大字コード":"034","丁目コード":"000","小字コード":"0000","予備コード":"00","大字名":"字蕗の台","丁目名":null,"小字名":null,"予備名":null,"地番":"6799-3","精度区分":null,"座標値種別":"図上測量","筆界未定構成筆":null,"代表点緯度":-11559.613,"代表点経度":-10948.495625503}},{"type":"MultiPolygon","arcs":[[[188]]],"properties":{"筆ID":"H000000060","version":"ver1.0","座標系":"任意座標系","測地系判別":null,"地図名":"幌加内町開拓図Ｅ２５００・図郭有","地図番号":"E2","縮尺分母":"2500","市区町村コード":"01439","市区町村名":"雨竜郡幌加内町","大字コード":"034","丁目コード":"000","小字コード":"0000","予備コード":"00","大字名":"字蕗の台","丁目名":null,"小字名":null,"予備名":null,"地番":"6803","精度区分":null,"座標値種別":"図上測量","筆界未定構成筆":null,"代表点緯度":-11327.091,"代表点経度":-11195.472554368}},{"type":"MultiPolygon","arcs":[[[189,190,191,192,193,-189]]],"properties":{"筆ID":"H000000061","version":"ver1.0","座標系":"任意座標系","測地系判別":null,"地図名":"幌加内町開拓図Ｅ２５００・図郭有","地図番号":"E6","縮尺分母":"2500","市区町村コード":"01439","市区町村名":"雨竜郡幌加内町","大字コード":"034","丁目コード":"000","小字コード":"0000","予備コード":"00","大字名":"字蕗の台","丁目名":null,"小字名":null,"予備名":null,"地番":"6804","精度区分":null,"座標値種別":"図上測量","筆界未定構成筆":null,"代表点緯度":-11327.091,"代表点経度":-11124.430134329}},{"type":"MultiPolygon","arcs":[[[194,195,-193,196]]],"properties":{"筆ID":"H000000062","version":"ver1.0","座標系":"任意座標系","測地系判別":null,"地図名":"幌加内町開拓図Ｅ２５００・図郭有","地図番号":"E6","縮尺分母":"2500","市区町村コード":"01439","市区町村名":"雨竜郡幌加内町","大字コード":"034","丁目コード":"000","小字コード":"0000","予備コード":"00","大字名":"字蕗の台","丁目名":null,"小字名":null,"予備名":null,"地番":"6805","精度区分":null,"座標値種別":"図上測量","筆界未定構成筆":null,"代表点緯度":-11372.93,"代表点経度":-11130.225999274}},{"type":"MultiPolygon","arcs":[[[197,-191,198]]],"properties":{"筆ID":"H000000063","version":"ver1.0","座標系":"任意座標系","測地系判別":null,"地図名":"幌加内町開拓図Ｅ２５００・図郭有","地図番号":"E2","縮尺分母":"2500","市区町村コード":"01439","市区町村名":"雨竜郡幌加内町","大字コード":"034","丁目コード":"000","小字コード":"0000","予備コード":"00","大字名":"字蕗の台","丁目名":null,"小字名":null,"予備名":null,"地番":"6806","精度区分":null,"座標値種別":"図上測量","筆界未定構成筆":null,"代表点緯度":-11257.0345,"代表点経度":-11150.464602143}},{"type":"MultiPolygon","arcs":[[[199,200,201,202]]],"properties":{"筆ID":"H000000064","version":"ver1.0","座標系":"任意座標系","測地系判別":null,"地図名":"幌加内町開拓図Ｅ２５００・図郭有","地図番号":"E2","縮尺分母":"2500","市区町村コード":"01439","市区町村名":"雨竜郡幌加内町","大字コード":"034","丁目コード":"000","小字コード":"0000","予備コード":"00","大字名":"字蕗の台","丁目名":null,"小字名":null,"予備名":null,"地番":"6807","精度区分":null,"座標値種別":"図上測量","筆界未定構成筆":null,"代表点緯度":-11174.2595,"代表点経度":-11109.742088609}},{"type":"MultiPolygon","arcs":[[[203,204,205,206,207,208]]],"properties":{"筆ID":"H000000065","version":"ver1.0","座標系":"任意座標系","測地系判別":null,"地図名":"幌加内町開拓図Ｅ２５００・図郭有","地図番号":"E2","縮尺分母":"2500","市区町村コード":"01439","市区町村名":"雨竜郡幌加内町","大字コード":"034","丁目コード":"000","小字コード":"0000","予備コード":"00","大字名":"字蕗の台","丁目名":null,"小字名":null,"予備名":null,"地番":"6808-1","精度区分":null,"座標値種別":"図上測量","筆界未定構成筆":null,"代表点緯度":-11080.025,"代表点経度":-11141.66319543}},{"type":"MultiPolygon","arcs":[[[209,210,-206,211]]],"properties":{"筆ID":"H000000066","version":"ver1.0","座標系":"任意座標系","測地系判別":null,"地図名":"幌加内町開拓図Ｅ２５００・図郭有","地図番号":"E2","縮尺分母":"2500","市区町村コード":"01439","市区町村名":"雨竜郡幌加内町","大字コード":"034","丁目コード":"000","小字コード":"0000","予備コード":"00","大字名":"字蕗の台","丁目名":null,"小字名":null,"予備名":null,"地番":"6808-2","精度区分":null,"座標値種別":"図上測量","筆界未定構成筆":null,"代表点緯度":-11019.5785,"代表点経度":-11048.137259401}},{"type":"MultiPolygon","arcs":[[[212,213,-205,214]]],"properties":{"筆ID":"H000000067","version":"ver1.0","座標系":"任意座標系","測地系判別":null,"地図名":"幌加内町開拓図Ｅ２５００・図郭有","地図番号":"E1","縮尺分母":"2500","市区町村コード":"01439","市区町村名":"雨竜郡幌加内町","大字コード":"034","丁目コード":"000","小字コード":"0000","予備コード":"00","大字名":"字蕗の台","丁目名":null,"小字名":null,"予備名":null,"地番":"6809-1","精度区分":null,"座標値種別":"図上測量","筆界未定構成筆":null,"代表点緯度":-10949.8995,"代表点経度":-11164.875978187}},{"type":"MultiPolygon","arcs":[[[215,216,-212,-214,217]]],"properties":{"筆ID":"H000000068","version":"ver1.0","座標系":"任意座標系","測地系判別":null,"地図名":"幌加内町開拓図Ｅ２５００・図郭有","地図番号":"E1","縮尺分母":"2500","市区町村コード":"01439","市区町村名":"雨竜郡幌加内町","大字コード":"034","丁目コード":"000","小字コード":"0000","予備コード":"00","大字名":"字蕗の台","丁目名":null,"小字名":null,"予備名":null,"地番":"6809-2","精度区分":null,"座標値種別":"図上測量","筆界未定構成筆":null,"代表点緯度":-10970.48,"代表点経度":-11072.992747251}},{"type":"MultiPolygon","arcs":[[[-216,218,219]]],"properties":{"筆ID":"H000000069","version":"ver1.0","座標系":"任意座標系","測地系判別":null,"地図名":"幌加内町開拓図Ｅ２５００・図郭有","地図番号":"E1","縮尺分母":"2500","市区町村コード":"01439","市区町村名":"雨竜郡幌加内町","大字コード":"034","丁目コード":"000","小字コード":"0000","予備コード":"00","大字名":"字蕗の台","丁目名":null,"小字名":null,"予備名":null,"地番":"6809-3","精度区分":null,"座標値種別":"図上測量","筆界未定構成筆":null,"代表点緯度":-10952.3295,"代表点経度":-11064.923420006}},{"type":"MultiPolygon","arcs":[[[220,221,222,-207]]],"properties":{"筆ID":"H000000070","version":"ver1.0","座標系":"任意座標系","測地系判別":null,"地図名":"幌加内町開拓図Ｅ２５００・図郭有","地図番号":"E2","縮尺分母":"2500","市区町村コード":"01439","市区町村名":"雨竜郡幌加内町","大字コード":"034","丁目コード":"000","小字コード":"0000","予備コード":"00","大字名":"字蕗の台","丁目名":null,"小字名":null,"予備名":null,"地番":"6810-1","精度区分":null,"座標値種別":"図上測量","筆界未定構成筆":null,"代表点緯度":-11088.148,"代表点経度":-11041.6314778}},{"type":"MultiPolygon","arcs":[[[-221,-211,223]]],"properties":{"筆ID":"H000000071","version":"ver1.0","座標系":"任意座標系","測地系判別":null,"地図名":"幌加内町開拓図Ｅ２５００・図郭有","地図番号":"E2","縮尺分母":"2500","市区町村コード":"01439","市区町村名":"雨竜郡幌加内町","大字コード":"034","丁目コード":"000","小字コード":"0000","予備コード":"00","大字名":"字蕗の台","丁目名":null,"小字名":null,"予備名":null,"地番":"6810-2","精度区分":null,"座標値種別":"図上測量","筆界未定構成筆":null,"代表点緯度":-11068.6215,"代表点経度":-11030.704824014}},{"type":"MultiPolygon","arcs":[[[224,225,226,-201]]],"properties":{"筆ID":"H000000072","version":"ver1.0","座標系":"任意座標系","測地系判別":null,"地図名":"幌加内町開拓図Ｅ２５００・図郭有","地図番号":"E2","縮尺分母":"2500","市区町村コード":"01439","市区町村名":"雨竜郡幌加内町","大字コード":"034","丁目コード":"000","小字コード":"0000","予備コード":"00","大字名":"字蕗の台","丁目名":null,"小字名":null,"予備名":null,"地番":"6811","精度区分":null,"座標値種別":"図上測量","筆界未定構成筆":null,"代表点緯度":-11189.7075,"代表点経度":-11054.121506456}},{"type":"MultiPolygon","arcs":[[[227,228,229,230,231]]],"properties":{"筆ID":"H000000073","version":"ver1.0","座標系":"任意座標系","測地系判別":null,"地図名":"幌加内町開拓図Ｅ２５００・図郭有","地図番号":"E2","縮尺分母":"2500","市区町村コード":"01439","市区町村名":"雨竜郡幌加内町","大字コード":"034","丁目コード":"000","小字コード":"0000","予備コード":"00","大字名":"字蕗の台","丁目名":null,"小字名":null,"予備名":null,"地番":"6812-1","精度区分":null,"座標値種別":"図上測量","筆界未定構成筆":null,"代表点緯度":-11133.2455,"代表点経度":-10945.541187251}},{"type":"MultiPolygon","arcs":[[[232,233,234,-229]]],"properties":{"筆ID":"H000000074","version":"ver1.0","座標系":"任意座標系","測地系判別":null,"地図名":"幌加内町開拓図Ｅ２５００・図郭有","地図番号":"E2","縮尺分母":"2500","市区町村コード":"01439","市区町村名":"雨竜郡幌加内町","大字コード":"034","丁目コード":"000","小字コード":"0000","予備コード":"00","大字名":"字蕗の台","丁目名":null,"小字名":null,"予備名":null,"地番":"6812-2","精度区分":null,"座標値種別":"図上測量","筆界未定構成筆":null,"代表点緯度":-11114.1425,"代表点経度":-11006.0540738}},{"type":"MultiPolygon","arcs":[[[-234,235,236]]],"properties":{"筆ID":"H000000075","version":"ver1.0","座標系":"任意座標系","測地系判別":null,"地図名":"幌加内町開拓図Ｅ２５００・図郭有","地図番号":"E2","縮尺分母":"2500","市区町村コード":"01439","市区町村名":"雨竜郡幌加内町","大字コード":"034","丁目コード":"000","小字コード":"0000","予備コード":"00","大字名":"字蕗の台","丁目名":null,"小字名":null,"予備名":null,"地番":"6812-3","精度区分":null,"座標値種別":"図上測量","筆界未定構成筆":null,"代表点緯度":-11165.2515,"代表点経度":-11017.475002872}},{"type":"MultiPolygon","arcs":[[[-192,-198,237,238,239,-187,240,-197]]],"properties":{"筆ID":"H000000076","version":"ver1.0","座標系":"任意座標系","測地系判別":null,"地図名":"幌加内町開拓図Ｅ２５００・図郭有","地図番号":"E2","縮尺分母":"2500","市区町村コード":"01439","市区町村名":"雨竜郡幌加内町","大字コード":"034","丁目コード":"000","小字コード":"0000","予備コード":"00","大字名":"字蕗の台","丁目名":null,"小字名":null,"予備名":null,"地番":"6813-1","精度区分":null,"座標値種別":"図上測量","筆界未定構成筆":null,"代表点緯度":-11330.3755,"代表点経度":-11026.500018349}},{"type":"MultiPolygon","arcs":[[[241,-186,-240,242]]],"properties":{"筆ID":"H000000077","version":"ver1.0","座標系":"任意座標系","測地系判別":null,"地図名":"幌加内町開拓図Ｅ２５００・図郭有","地図番号":"E2","縮尺分母":"2500","市区町村コード":"01439","市区町村名":"雨竜郡幌加内町","大字コード":"034","丁目コード":"000","小字コード":"0000","予備コード":"00","大字名":"字蕗の台","丁目名":null,"小字名":null,"予備名":null,"地番":"6813-2","精度区分":null,"座標値種別":"図上測量","筆界未定構成筆":null,"代表点緯度":-11341.7205,"代表点経度":-10960.187578347}},{"type":"MultiPolygon","arcs":[[[-183,-242,243]]],"properties":{"筆ID":"H000000078","version":"ver1.0","座標系":"任意座標系","測地系判別":null,"地図名":"幌加内町開拓図Ｅ２５００・図郭有","地図番号":"E2","縮尺分母":"2500","市区町村コード":"01439","市区町村名":"雨竜郡幌加内町","大字コード":"034","丁目コード":"000","小字コード":"0000","予備コード":"00","大字名":"字蕗の台","丁目名":null,"小字名":null,"予備名":null,"地番":"6813-3","精度区分":null,"座標値種別":"図上測量","筆界未定構成筆":null,"代表点緯度":-11398.7885,"代表点経度":-10920.01687792}},{"type":"MultiPolygon","arcs":[[[244,-179,245,246,247]]],"properties":{"筆ID":"H000000079","version":"ver1.0","座標系":"任意座標系","測地系判別":null,"地図名":"幌加内町開拓図Ｅ２５００・図郭有","地図番号":"E2","縮尺分母":"2500","市区町村コード":"01439","市区町村名":"雨竜郡幌加内町","大字コード":"034","丁目コード":"000","小字コード":"0000","予備コード":"00","大字名":"字蕗の台","丁目名":null,"小字名":null,"予備名":null,"地番":"6814-1","精度区分":null,"座標値種別":"図上測量","筆界未定構成筆":null,"代表点緯度":-11303.6245,"代表点経度":-10923.829190039}},{"type":"MultiPolygon","arcs":[[[248,249,250,-247]]],"properties":{"筆ID":"H000000080","version":"ver1.0","座標系":"任意座標系","測地系判別":null,"地図名":"幌加内町開拓図Ｅ２５００・図郭有","地図番号":"E2","縮尺分母":"2500","市区町村コード":"01439","市区町村名":"雨竜郡幌加内町","大字コード":"034","丁目コード":"000","小字コード":"0000","予備コード":"00","大字名":"字蕗の台","丁目名":null,"小字名":null,"予備名":null,"地番":"6814-2","精度区分":null,"座標値種別":"図上測量","筆界未定構成筆":null,"代表点緯度":-11318.6195,"代表点経度":-10950.457232723}},{"type":"MultiPolygon","arcs":[[[-250,251,252]]],"properties":{"筆ID":"H000000081","version":"ver1.0","座標系":"任意座標系","測地系判別":null,"地図名":"幌加内町開拓図Ｅ２５００・図郭有","地図番号":"E2","縮尺分母":"2500","市区町村コード":"01439","市区町村名":"雨竜郡幌加内町","大字コード":"034","丁目コード":"000","小字コード":"0000","予備コード":"00","大字名":"字蕗の台","丁目名":null,"小字名":null,"予備名":null,"地番":"6814-3","精度区分":null,"座標値種別":"図上測量","筆界未定構成筆":null,"代表点緯度":-11261.1265,"代表点経度":-10990.948007518}},{"type":"MultiPolygon","arcs":[[[253,254,255]]],"properties":{"筆ID":"H000000082","version":"ver1.0","座標系":"任意座標系","測地系判別":null,"地図名":"幌加内町開拓図Ｅ２５００・図郭有","地図番号":"E6","縮尺分母":"2500","市区町村コード":"01439","市区町村名":"雨竜郡幌加内町","大字コード":"034","丁目コード":"000","小字コード":"0000","予備コード":"00","大字名":"字蕗の台","丁目名":null,"小字名":null,"予備名":null,"地番":"6815","精度区分":null,"座標値種別":"図上測量","筆界未定構成筆":null,"代表点緯度":-11412.9555,"代表点経度":-11246.95940884}},{"type":"MultiPolygon","arcs":[[[256,257]]],"properties":{"筆ID":"H000000083","version":"ver1.0","座標系":"任意座標系","測地系判別":null,"地図名":"幌加内町開拓図Ｅ２５００・図郭有","地図番号":"E6","縮尺分母":"2500","市区町村コード":"01439","市区町村名":"雨竜郡幌加内町","大字コード":"034","丁目コード":"000","小字コード":"0000","予備コード":"00","大字名":"字蕗の台","丁目名":null,"小字名":null,"予備名":null,"地番":"6816","精度区分":null,"座標値種別":"図上測量","筆界未定構成筆":null,"代表点緯度":-11386.3,"代表点経度":-11472.489363011}},{"type":"MultiPolygon","arcs":[[[258,-257,259,260,261]]],"properties":{"筆ID":"H000000084","version":"ver1.0","座標系":"任意座標系","測地系判別":null,"地図名":"幌加内町開拓図Ｅ２５００・図郭有","地図番号":"E6","縮尺分母":"2500","市区町村コード":"01439","市区町村名":"雨竜郡幌加内町","大字コード":"034","丁目コード":"000","小字コード":"0000","予備コード":"00","大字名":"字蕗の台","丁目名":null,"小字名":null,"予備名":null,"地番":"6817","精度区分":null,"座標値種別":"図上測量","筆界未定構成筆":null,"代表点緯度":-11396.651,"代表点経度":-11389.224353504}},{"type":"MultiPolygon","arcs":[[[262,263,264,-170,265,266]]],"properties":{"筆ID":"H000000085","version":"ver1.0","座標系":"任意座標系","測地系判別":null,"地図名":"幌加内町開拓図Ｅ２５００・図郭有","地図番号":"E6","縮尺分母":"2500","市区町村コード":"01439","市区町村名":"雨竜郡幌加内町","大字コード":"034","丁目コード":"000","小字コード":"0000","予備コード":"00","大字名":"字蕗の台","丁目名":null,"小字名":null,"予備名":null,"地番":"6818","精度区分":null,"座標値種別":"図上測量","筆界未定構成筆":null,"代表点緯度":-11565.626,"代表点経度":-11446.139155563}},{"type":"MultiPolygon","arcs":[[[267,-209,268,269,270,271,272]]],"properties":{"筆ID":"H000000086","version":"ver1.0","座標系":"任意座標系","測地系判別":null,"地図名":"幌加内町開拓図Ｅ２５００・図郭有","地図番号":"E6","縮尺分母":"2500","市区町村コード":"01439","市区町村名":"雨竜郡幌加内町","大字コード":"034","丁目コード":"000","小字コード":"0000","予備コード":"00","大字名":"字蕗の台","丁目名":null,"小字名":null,"予備名":null,"地番":"6819","精度区分":null,"座標値種別":"図上測量","筆界未定構成筆":null,"代表点緯度":-11235.877,"代表点経度":-11446.358325553}},{"type":"MultiPolygon","arcs":[[[-203,273,274,275]]],"properties":{"筆ID":"H000000087","version":"ver1.0","座標系":"任意座標系","測地系判別":null,"地図名":"幌加内町開拓図Ｅ２５００・図郭有","地図番号":"E6","縮尺分母":"2500","市区町村コード":"01439","市区町村名":"雨竜郡幌加内町","大字コード":"034","丁目コード":"000","小字コード":"0000","予備コード":"00","大字名":"字蕗の台","丁目名":null,"小字名":null,"予備名":null,"地番":"6820","精度区分":null,"座標値種別":"図上測量","筆界未定構成筆":null,"代表点緯度":-11253.6005,"代表点経度":-11320.281617135}},{"type":"MultiPolygon","arcs":[[[276,277]]],"properties":{"筆ID":"H000000088","version":"ver1.0","座標系":"任意座標系","測地系判別":null,"地図名":"幌加内町開拓図Ｅ２５００・図郭有","地図番号":"E6","縮尺分母":"2500","市区町村コード":"01439","市区町村名":"雨竜郡幌加内町","大字コード":"034","丁目コード":"000","小字コード":"0000","予備コード":"00","大字名":"字蕗の台","丁目名":null,"小字名":null,"予備名":null,"地番":"6821","精度区分":null,"座標値種別":"図上測量","筆界未定構成筆":null,"代表点緯度":-11368.892,"代表点経度":-11604.730616673}},{"type":"MultiPolygon","arcs":[[[-277,278,-262,279,280]]],"properties":{"筆ID":"H000000089","version":"ver1.0","座標系":"任意座標系","測地系判別":null,"地図名":"幌加内町開拓図Ｅ２５００・図郭有","地図番号":"E6","縮尺分母":"2500","市区町村コード":"01439","市区町村名":"雨竜郡幌加内町","大字コード":"034","丁目コード":"000","小字コード":"0000","予備コード":"00","大字名":"字蕗の台","丁目名":null,"小字名":null,"予備名":null,"地番":"6822","精度区分":null,"座標値種別":"図上測量","筆界未定構成筆":null,"代表点緯度":-11377.3185,"代表点経度":-11654.882883832}},{"type":"MultiPolygon","arcs":[[[-267,281,282,283,284]]],"properties":{"筆ID":"H000000090","version":"ver1.0","座標系":"任意座標系","測地系判別":null,"地図名":"幌加内町開拓図Ｅ２５００・図郭有","地図番号":"E6","縮尺分母":"2500","市区町村コード":"01439","市区町村名":"雨竜郡幌加内町","大字コード":"034","丁目コード":"000","小字コード":"0000","予備コード":"00","大字名":"字蕗の台","丁目名":null,"小字名":null,"予備名":null,"地番":"6823","精度区分":null,"座標値種別":"図上測量","筆界未定構成筆":null,"代表点緯度":-11550.25,"代表点経度":-11721.891188346}},{"type":"MultiPolygon","arcs":[[[285,286]]],"properties":{"筆ID":"H000000091","version":"ver1.0","座標系":"任意座標系","測地系判別":null,"地図名":"幌加内町開拓図Ｅ２５００・図郭有","地図番号":"E5","縮尺分母":"2500","市区町村コード":"01439","市区町村名":"雨竜郡幌加内町","大字コード":"034","丁目コード":"000","小字コード":"0000","予備コード":"00","大字名":"字蕗の台","丁目名":null,"小字名":null,"予備名":null,"地番":"6843-1","精度区分":null,"座標値種別":"図上測量","筆界未定構成筆":null,"代表点緯度":-10174.2745,"代表点経度":-11214.339722395}},{"type":"MultiPolygon","arcs":[[[-286,287,288,289]]],"properties":{"筆ID":"H000000092","version":"ver1.0","座標系":"任意座標系","測地系判別":null,"地図名":"幌加内町開拓図Ｅ２５００・図郭有","地図番号":"E5","縮尺分母":"2500","市区町村コード":"01439","市区町村名":"雨竜郡幌加内町","大字コード":"034","丁目コード":"000","小字コード":"0000","予備コード":"00","大字名":"字蕗の台","丁目名":null,"小字名":null,"予備名":null,"地番":"6843-2","精度区分":null,"座標値種別":"図上測量","筆界未定構成筆":null,"代表点緯度":-10356.7075,"代表点経度":-11258.600758892}},{"type":"MultiPolygon","arcs":[[[290,291,292,293]]],"properties":{"筆ID":"H000000093","version":"ver1.0","座標系":"任意座標系","測地系判別":null,"地図名":"幌加内町開拓図Ｅ２５００・図郭有","地図番号":"E3","縮尺分母":"2500","市区町村コード":"01439","市区町村名":"雨竜郡幌加内町","大字コード":"034","丁目コード":"000","小字コード":"0000","予備コード":"00","大字名":"字蕗の台","丁目名":null,"小字名":null,"予備名":null,"地番":"8932-1","精度区分":null,"座標値種別":"図上測量","筆界未定構成筆":null,"代表点緯度":-12585.129,"代表点経度":-10598.05449954}},{"type":"MultiPolygon","arcs":[[[294,-291,295]]],"properties":{"筆ID":"H000000094","version":"ver1.0","座標系":"任意座標系","測地系判別":null,"地図名":"幌加内町開拓図Ｅ２５００・図郭有","地図番号":"E3","縮尺分母":"2500","市区町村コード":"01439","市区町村名":"雨竜郡幌加内町","大字コード":"034","丁目コード":"000","小字コード":"0000","予備コード":"00","大字名":"字蕗の台","丁目名":null,"小字名":null,"予備名":null,"地番":"8932-2","精度区分":null,"座標値種別":"図上測量","筆界未定構成筆":null,"代表点緯度":-12556.125,"代表点経度":-10540.000952238}},{"type":"MultiPolygon","arcs":[[[-294,296,297,298,299]]],"properties":{"筆ID":"H000000095","version":"ver1.0","座標系":"任意座標系","測地系判別":null,"地図名":"幌加内町開拓図Ｅ２５００・図郭有","地図番号":"E3","縮尺分母":"2500","市区町村コード":"01439","市区町村名":"雨竜郡幌加内町","大字コード":"034","丁目コード":"000","小字コード":"0000","予備コード":"00","大字名":"字蕗の台","丁目名":null,"小字名":null,"予備名":null,"地番":"8932-3","精度区分":null,"座標値種別":"図上測量","筆界未定構成筆":null,"代表点緯度":-12566.173,"代表点経度":-10612.623060402}},{"type":"MultiPolygon","arcs":[[[300,-296,-300,301]]],"properties":{"筆ID":"H000000096","version":"ver1.0","座標系":"任意座標系","測地系判別":null,"地図名":"幌加内町開拓図Ｅ２５００・図郭有","地図番号":"E3","縮尺分母":"2500","市区町村コード":"01439","市区町村名":"雨竜郡幌加内町","大字コード":"034","丁目コード":"000","小字コード":"0000","予備コード":"00","大字名":"字蕗の台","丁目名":null,"小字名":null,"予備名":null,"地番":"8932-4","精度区分":null,"座標値種別":"図上測量","筆界未定構成筆":null,"代表点緯度":-12544.035,"代表点経度":-10543.969035089}},{"type":"MultiPolygon","arcs":[[[302,303,304,305]]],"properties":{"筆ID":"H000000097","version":"ver1.0","座標系":"任意座標系","測地系判別":null,"地図名":"幌加内町開拓図Ｅ２５００・図郭有","地図番号":"E3","縮尺分母":"2500","市区町村コード":"01439","市区町村名":"雨竜郡幌加内町","大字コード":"034","丁目コード":"000","小字コード":"0000","予備コード":"00","大字名":"字蕗の台","丁目名":null,"小字名":null,"予備名":null,"地番":"8933-1","精度区分":null,"座標値種別":"図上測量","筆界未定構成筆":null,"代表点緯度":-12531.4445,"代表点経度":-10635.177682402}},{"type":"MultiPolygon","arcs":[[[306,307,-305]]],"properties":{"筆ID":"H000000098","version":"ver1.0","座標系":"任意座標系","測地系判別":null,"地図名":"幌加内町開拓図Ｅ２５００・図郭有","地図番号":"E3","縮尺分母":"2500","市区町村コード":"01439","市区町村名":"雨竜郡幌加内町","大字コード":"034","丁目コード":"000","小字コード":"0000","予備コード":"00","大字名":"字蕗の台","丁目名":null,"小字名":null,"予備名":null,"地番":"8933-2","精度区分":null,"座標値種別":"図上測量","筆界未定構成筆":null,"代表点緯度":-12548.0485,"代表点経度":-10610.643736711}},{"type":"MultiPolygon","arcs":[[[308,309,310,311,312,313]]],"properties":{"筆ID":"H000000099","version":"ver1.0","座標系":"任意座標系","測地系判別":null,"地図名":"幌加内町開拓図Ｅ２５００・図郭有","地図番号":"E3","縮尺分母":"2500","市区町村コード":"01439","市区町村名":"雨竜郡幌加内町","大字コード":"034","丁目コード":"000","小字コード":"0000","予備コード":"00","大字名":"字蕗の台","丁目名":null,"小字名":null,"予備名":null,"地番":"8934-1","精度区分":null,"座標値種別":"図上測量","筆界未定構成筆":null,"代表点緯度":-12454.8965,"代表点経度":-10559.322126676}},{"type":"MultiPolygon","arcs":[[[314,315,316,317,-312]]],"properties":{"筆ID":"H000000100","version":"ver1.0","座標系":"任意座標系","測地系判別":null,"地図名":"幌加内町開拓図Ｅ２５００・図郭有","地図番号":"E3","縮尺分母":"2500","市区町村コード":"01439","市区町村名":"雨竜郡幌加内町","大字コード":"034","丁目コード":"000","小字コード":"0000","予備コード":"00","大字名":"字蕗の台","丁目名":null,"小字名":null,"予備名":null,"地番":"8934-2","精度区分":null,"座標値種別":"図上測量","筆界未定構成筆":null,"代表点緯度":-12511.638,"代表点経度":-10534.679543634}},{"type":"MultiPolygon","arcs":[[[318,-315,-311]]],"properties":{"筆ID":"H000000101","version":"ver1.0","座標系":"任意座標系","測地系判別":null,"地図名":"幌加内町開拓図Ｅ２５００・図郭有","地図番号":"E3","縮尺分母":"2500","市区町村コード":"01439","市区町村名":"雨竜郡幌加内町","大字コード":"034","丁目コード":"000","小字コード":"0000","予備コード":"00","大字名":"字蕗の台","丁目名":null,"小字名":null,"予備名":null,"地番":"8934-3","精度区分":null,"座標値種別":"図上測量","筆界未定構成筆":null,"代表点緯度":-12498.876,"代表点経度":-10521.909131078}},{"type":"MultiPolygon","arcs":[[[319,-317,320]]],"properties":{"筆ID":"H000000102","version":"ver1.0","座標系":"任意座標系","測地系判別":null,"地図名":"幌加内町開拓図Ｅ２５００・図郭有","地図番号":"E3","縮尺分母":"2500","市区町村コード":"01439","市区町村名":"雨竜郡幌加内町","大字コード":"034","丁目コード":"000","小字コード":"0000","予備コード":"00","大字名":"字蕗の台","丁目名":null,"小字名":null,"予備名":null,"地番":"8934-4","精度区分":null,"座標値種別":"図上測量","筆界未定構成筆":null,"代表点緯度":-12525.3905,"代表点経度":-10521.765624765}},{"type":"MultiPolygon","arcs":[[[-23,-20,321,322,-306,323,324,-17]]],"properties":{"筆ID":"H000000103","version":"ver1.0","座標系":"任意座標系","測地系判別":null,"地図名":"幌加内町開拓図Ｅ２５００・図郭有","地図番号":"E3","縮尺分母":"2500","市区町村コード":"01439","市区町村名":"雨竜郡幌加内町","大字コード":"034","丁目コード":"000","小字コード":"0000","予備コード":"00","大字名":"字蕗の台","丁目名":null,"小字名":null,"予備名":null,"地番":"8940-1","精度区分":null,"座標値種別":"図上測量","筆界未定構成筆":null,"代表点緯度":-12383.4065,"代表点経度":-10813.681582086}},{"type":"MultiPolygon","arcs":[[[-308,325,-324]]],"properties":{"筆ID":"H000000104","version":"ver1.0","座標系":"任意座標系","測地系判別":null,"地図名":"幌加内町開拓図Ｅ２５００・図郭有","地図番号":"E3","縮尺分母":"2500","市区町村コード":"01439","市区町村名":"雨竜郡幌加内町","大字コード":"034","丁目コード":"000","小字コード":"0000","予備コード":"00","大字名":"字蕗の台","丁目名":null,"小字名":null,"予備名":null,"地番":"8940-2","精度区分":null,"座標値種別":"図上測量","筆界未定構成筆":null,"代表点緯度":-12572.3125,"代表点経度":-10684.270310284}},{"type":"MultiPolygon","arcs":[[[326,-26,327,328,329,330]]],"properties":{"筆ID":"H000000105","version":"ver1.0","座標系":"任意座標系","測地系判別":null,"地図名":"幌加内町開拓図Ｅ２５００・図郭有","地図番号":"E3","縮尺分母":"2500","市区町村コード":"01439","市区町村名":"雨竜郡幌加内町","大字コード":"034","丁目コード":"000","小字コード":"0000","予備コード":"00","大字名":"字蕗の台","丁目名":null,"小字名":null,"予備名":null,"地番":"8941-1","精度区分":null,"座標値種別":"図上測量","筆界未定構成筆":null,"代表点緯度":-12654.5585,"代表点経度":-10842.216850956}},{"type":"MultiPolygon","arcs":[[[-329,331,-298,332,333,334,335,336,337]]],"properties":{"筆ID":"H000000106","version":"ver1.0","座標系":"任意座標系","測地系判別":null,"地図名":"幌加内町開拓図Ｅ２５００・図郭有","地図番号":"E3","縮尺分母":"2500","市区町村コード":"01439","市区町村名":"雨竜郡幌加内町","大字コード":"034","丁目コード":"000","小字コード":"0000","予備コード":"00","大字名":"字蕗の台","丁目名":null,"小字名":null,"予備名":null,"地番":"8941-2","精度区分":null,"座標値種別":"図上測量","筆界未定構成筆":null,"代表点緯度":-12677.9455,"代表点経度":-10786.376569807}},{"type":"MultiPolygon","arcs":[[[338,-334,339,-336]]],"properties":{"筆ID":"H000000107","version":"ver1.0","座標系":"任意座標系","測地系判別":null,"地図名":"幌加内町開拓図Ｅ２５００・図郭有","地図番号":"E3","縮尺分母":"2500","市区町村コード":"01439","市区町村名":"雨竜郡幌加内町","大字コード":"034","丁目コード":"000","小字コード":"0000","予備コード":"00","大字名":"字蕗の台","丁目名":null,"小字名":null,"予備名":null,"地番":"8941-3","精度区分":null,"座標値種別":"図上測量","筆界未定構成筆":null,"代表点緯度":-12695.45,"代表点経度":-10757.860529767}},{"type":"MultiPolygon","arcs":[[[-338,-330]]],"properties":{"筆ID":"H000000108","version":"ver1.0","座標系":"任意座標系","測地系判別":null,"地図名":"幌加内町開拓図Ｅ２５００・図郭有","地図番号":"E3","縮尺分母":"2500","市区町村コード":"01439","市区町村名":"雨竜郡幌加内町","大字コード":"034","丁目コード":"000","小字コード":"0000","予備コード":"00","大字名":"字蕗の台","丁目名":null,"小字名":null,"予備名":null,"地番":"8941-4","精度区分":null,"座標値種別":"図上測量","筆界未定構成筆":null,"代表点緯度":-12654.5585,"代表点経度":-10784.014639293}},{"type":"MultiPolygon","arcs":[[[-339,-335]]],"properties":{"筆ID":"H000000109","version":"ver1.0","座標系":"任意座標系","測地系判別":null,"地図名":"幌加内町開拓図Ｅ２５００・図郭有","地図番号":"E3","縮尺分母":"2500","市区町村コード":"01439","市区町村名":"雨竜郡幌加内町","大字コード":"034","丁目コード":"000","小字コード":"0000","予備コード":"00","大字名":"字蕗の台","丁目名":null,"小字名":null,"予備名":null,"地番":"8941-5","精度区分":null,"座標値種別":"図上測量","筆界未定構成筆":null,"代表点緯度":-12689.509,"代表点経度":-10777.847188685}},{"type":"MultiPolygon","arcs":[[[-18,-325,340,-328,-29,341,-14]]],"properties":{"筆ID":"H000000110","version":"ver1.0","座標系":"任意座標系","測地系判別":null,"地図名":"幌加内町開拓図Ｅ２５００・図郭有","地図番号":"E3","縮尺分母":"2500","市区町村コード":"01439","市区町村名":"雨竜郡幌加内町","大字コード":"034","丁目コード":"000","小字コード":"0000","予備コード":"00","大字名":"字蕗の台","丁目名":null,"小字名":null,"予備名":null,"地番":"8942-1","精度区分":null,"座標値種別":"図上測量","筆界未定構成筆":null,"代表点緯度":-12484.2355,"代表点経度":-10818.758508744}},{"type":"MultiPolygon","arcs":[[[-326,-307,-304,342,-320,343,-302,-299,-332,-341]]],"properties":{"筆ID":"H000000111","version":"ver1.0","座標系":"任意座標系","測地系判別":null,"地図名":"幌加内町開拓図Ｅ２５００・図郭有","地図番号":"E3","縮尺分母":"2500","市区町村コード":"01439","市区町村名":"雨竜郡幌加内町","大字コード":"034","丁目コード":"000","小字コード":"0000","予備コード":"00","大字名":"字蕗の台","丁目名":null,"小字名":null,"予備名":null,"地番":"8942-2","精度区分":null,"座標値種別":"図上測量","筆界未定構成筆":null,"代表点緯度":-12559.705,"代表点経度":-10626.096069448}},{"type":"MultiPolygon","arcs":[[[344,-313,-318,-343,-303,-323]]],"properties":{"筆ID":"H000000112","version":"ver1.0","座標系":"任意座標系","測地系判別":null,"地図名":"幌加内町開拓図Ｅ２５００・図郭有","地図番号":"E3","縮尺分母":"2500","市区町村コード":"01439","市区町村名":"雨竜郡幌加内町","大字コード":"034","丁目コード":"000","小字コード":"0000","予備コード":"00","大字名":"字蕗の台","丁目名":null,"小字名":null,"予備名":null,"地番":"8942-3","精度区分":null,"座標値種別":"図上測量","筆界未定構成筆":null,"代表点緯度":-12483.8585,"代表点経度":-10648.791480718}},{"type":"MultiPolygon","arcs":[[[-73,345,-71,-47,-43,-46,346,-342,347,-53,-50,348,-63,-67,349]]],"properties":{"筆ID":"H000000113","version":"ver1.0","座標系":"任意座標系","測地系判別":null,"地図名":"幌加内町開拓図Ｅ２５００・図郭有","地図番号":"E7","縮尺分母":"2500","市区町村コード":"01439","市区町村名":"雨竜郡幌加内町","大字コード":"034","丁目コード":"000","小字コード":"0000","予備コード":"00","大字名":"字蕗の台","丁目名":null,"小字名":null,"予備名":null,"地番":"8943","精度区分":null,"座標値種別":"図上測量","筆界未定構成筆":null,"代表点緯度":-12306.545,"代表点経度":-11454.834509086}},{"type":"MultiPolygon","arcs":[[[-68,-64,-349,-52,-55,350,-27,-327,351,-42,-89,-85,352,-93]]],"properties":{"筆ID":"H000000114","version":"ver1.0","座標系":"任意座標系","測地系判別":null,"地図名":"幌加内町開拓図Ｅ２５００・図郭有","地図番号":"E7","縮尺分母":"2500","市区町村コード":"01439","市区町村名":"雨竜郡幌加内町","大字コード":"034","丁目コード":"000","小字コード":"0000","予備コード":"00","大字名":"字蕗の台","丁目名":null,"小字名":null,"予備名":null,"地番":"8944","精度区分":null,"座標値種別":"図上測量","筆界未定構成筆":null,"代表点緯度":-12434.912,"代表点経度":-11424.555877652}},{"type":"MultiPolygon","arcs":[[[353,354,-24,-19,-15,-347,-45]]],"properties":{"筆ID":"H000000115","version":"ver1.0","座標系":"任意座標系","測地系判別":null,"地図名":"幌加内町開拓図Ｅ２５００・図郭有","地図番号":"E3","縮尺分母":"2500","市区町村コード":"01439","市区町村名":"雨竜郡幌加内町","大字コード":"034","丁目コード":"000","小字コード":"0000","予備コード":"00","大字名":"字蕗の台","丁目名":null,"小字名":null,"予備名":null,"地番":"8945","精度区分":null,"座標値種別":"図上測量","筆界未定構成筆":null,"代表点緯度":-12279.5125,"代表点経度":-11122.42853829}},{"type":"MultiPolygon","arcs":[[[-28,-351,-54,-348]]],"properties":{"筆ID":"H000000116","version":"ver1.0","座標系":"任意座標系","測地系判別":null,"地図名":"幌加内町開拓図Ｅ２５００・図郭有","地図番号":"E3","縮尺分母":"2500","市区町村コード":"01439","市区町村名":"雨竜郡幌加内町","大字コード":"034","丁目コード":"000","小字コード":"0000","予備コード":"00","大字名":"字蕗の台","丁目名":null,"小字名":null,"予備名":null,"地番":"8946","精度区分":null,"座標値種別":"図上測量","筆界未定構成筆":null,"代表点緯度":-12442.0845,"代表点経度":-11145.907569819}},{"type":"MultiPolygon","arcs":[[[-132,-123,-131,-99,-94,-353,-88,355,-107,-129,-125,356]]],"properties":{"筆ID":"H000000117","version":"ver1.0","座標系":"任意座標系","測地系判別":null,"地図名":"幌加内町開拓図Ｅ２５００・図郭有","地図番号":"E7","縮尺分母":"2500","市区町村コード":"01439","市区町村名":"雨竜郡幌加内町","大字コード":"034","丁目コード":"000","小字コード":"0000","予備コード":"00","大字名":"字蕗の台","丁目名":null,"小字名":null,"予備名":null,"地番":"8947","精度区分":null,"座標値種別":"図上測量","筆界未定構成筆":null,"代表点緯度":-12635.553,"代表点経度":-11944.971446587}},{"type":"MultiPolygon","arcs":[[[-356,-92,357,-104]]],"properties":{"筆ID":"H000000118","version":"ver1.0","座標系":"任意座標系","測地系判別":null,"地図名":"幌加内町開拓図Ｅ２５００・図郭有","地図番号":"E7","縮尺分母":"2500","市区町村コード":"01439","市区町村名":"雨竜郡幌加内町","大字コード":"034","丁目コード":"000","小字コード":"0000","予備コード":"00","大字名":"字蕗の台","丁目名":null,"小字名":null,"予備名":null,"地番":"8948","精度区分":null,"座標値種別":"図上測量","筆界未定構成筆":null,"代表点緯度":-12670.054,"代表点経度":-11681.744657737}},{"type":"MultiPolygon","arcs":[[[358,-118,-102,-350,-98,-113,-114,359,360]]],"properties":{"筆ID":"H000000119","version":"ver1.0","座標系":"任意座標系","測地系判別":null,"地図名":"幌加内町開拓図Ｅ２５００・図郭有","地図番号":"E7","縮尺分母":"2500","市区町村コード":"01439","市区町村名":"雨竜郡幌加内町","大字コード":"034","丁目コード":"000","小字コード":"0000","予備コード":"00","大字名":"字蕗の台","丁目名":null,"小字名":null,"予備名":null,"地番":"8949","精度区分":null,"座標値種別":"図上測量","筆界未定構成筆":null,"代表点緯度":-12139.6345,"代表点経度":-11882.437521435}},{"type":"MultiPolygon","arcs":[[[-119,-359,361]]],"properties":{"筆ID":"H000000120","version":"ver1.0","座標系":"任意座標系","測地系判別":null,"地図名":"幌加内町開拓図Ｅ２５００・図郭有","地図番号":"E7","縮尺分母":"2500","市区町村コード":"01439","市区町村名":"雨竜郡幌加内町","大字コード":"034","丁目コード":"000","小字コード":"0000","予備コード":"00","大字名":"字蕗の台","丁目名":null,"小字名":null,"予備名":null,"地番":"8950","精度区分":null,"座標値種別":"図上測量","筆界未定構成筆":null,"代表点緯度":-12033.209,"代表点経度":-11991.796013073}},{"type":"MultiPolygon","arcs":[[[-360,-116,-134,362,363]]],"properties":{"筆ID":"H000000121","version":"ver1.0","座標系":"任意座標系","測地系判別":null,"地図名":"幌加内町開拓図Ｅ２５００・図郭有","地図番号":"E7","縮尺分母":"2500","市区町村コード":"01439","市区町村名":"雨竜郡幌加内町","大字コード":"034","丁目コード":"000","小字コード":"0000","予備コード":"00","大字名":"字蕗の台","丁目名":null,"小字名":null,"予備名":null,"地番":"8951","精度区分":null,"座標値種別":"図上測量","筆界未定構成筆":null,"代表点緯度":-12245.9635,"代表点経度":-12047.398790691}},{"type":"MultiPolygon","arcs":[[[-168,364,365,366,-154,367,-164,368]]],"properties":{"筆ID":"H000000122","version":"ver1.0","座標系":"任意座標系","測地系判別":null,"地図名":"幌加内町開拓図Ｅ２５００・図郭有","地図番号":"E6","縮尺分母":"2500","市区町村コード":"01439","市区町村名":"雨竜郡幌加内町","大字コード":"034","丁目コード":"000","小字コード":"0000","予備コード":"00","大字名":"字蕗の台","丁目名":null,"小字名":null,"予備名":null,"地番":"8952-1","精度区分":null,"座標値種別":"図上測量","筆界未定構成筆":null,"代表点緯度":-11928.029,"代表点経度":-11336.186381932}},{"type":"MultiPolygon","arcs":[[[369,-149,370,-145,371,-146]]],"properties":{"筆ID":"H000000123","version":"ver1.0","座標系":"任意座標系","測地系判別":null,"地図名":"幌加内町開拓図Ｅ２５００・図郭有","地図番号":"E3","縮尺分母":"2500","市区町村コード":"01439","市区町村名":"雨竜郡幌加内町","大字コード":"034","丁目コード":"000","小字コード":"0000","予備コード":"00","大字名":"字蕗の台","丁目名":null,"小字名":null,"予備名":null,"地番":"8952-2","精度区分":null,"座標値種別":"図上測量","筆界未定構成筆":null,"代表点緯度":-12333.6955,"代表点経度":-10701.556524637}},{"type":"MultiPolygon","arcs":[[[372,373,374,375]]],"properties":{"筆ID":"H000000124","version":"ver1.0","座標系":"任意座標系","測地系判別":null,"地図名":"幌加内町開拓図Ｅ２５００・図郭有","地図番号":"E2","縮尺分母":"2500","市区町村コード":"01439","市区町村名":"雨竜郡幌加内町","大字コード":"034","丁目コード":"000","小字コード":"0000","予備コード":"00","大字名":"字蕗の台","丁目名":null,"小字名":null,"予備名":null,"地番":"8952-3","精度区分":null,"座標値種別":"図上測量","筆界未定構成筆":null,"代表点緯度":-11800.855,"代表点経度":-10804.91981335}},{"type":"MultiPolygon","arcs":[[[-375,376,-141,-371,-152,377,-158,378,-366,379]]],"properties":{"筆ID":"H000000125","version":"ver1.0","座標系":"任意座標系","測地系判別":null,"地図名":"幌加内町開拓図Ｅ２５００・図郭有","地図番号":"E3","縮尺分母":"2500","市区町村コード":"01439","市区町村名":"雨竜郡幌加内町","大字コード":"034","丁目コード":"000","小字コード":"0000","予備コード":"00","大字名":"字蕗の台","丁目名":null,"小字名":null,"予備名":null,"地番":"8952-4","精度区分":null,"座標値種別":"図上測量","筆界未定構成筆":null,"代表点緯度":-12068.347,"代表点経度":-10765.973532474}},{"type":"MultiPolygon","arcs":[[[380,-155,-367]]],"properties":{"筆ID":"H000000126","version":"ver1.0","座標系":"任意座標系","測地系判別":null,"地図名":"幌加内町開拓図Ｅ２５００・図郭有","地図番号":"E3","縮尺分母":"2500","市区町村コード":"01439","市区町村名":"雨竜郡幌加内町","大字コード":"034","丁目コード":"000","小字コード":"0000","予備コード":"00","大字名":"字蕗の台","丁目名":null,"小字名":null,"予備名":null,"地番":"8954-1","精度区分":null,"座標値種別":"図上測量","筆界未定構成筆":null,"代表点緯度":-11922.0735,"代表点経度":-10837.654734643}},{"type":"MultiPolygon","arcs":[[[-160,-381,-379]]],"properties":{"筆ID":"H000000127","version":"ver1.0","座標系":"任意座標系","測地系判別":null,"地図名":"幌加内町開拓図Ｅ２５００・図郭有","地図番号":"E2","縮尺分母":"2500","市区町村コード":"01439","市区町村名":"雨竜郡幌加内町","大字コード":"034","丁目コード":"000","小字コード":"0000","予備コード":"00","大字名":"字蕗の台","丁目名":null,"小字名":null,"予備名":null,"地番":"8954-2","精度区分":null,"座標値種別":"図上測量","筆界未定構成筆":null,"代表点緯度":-11919.377,"代表点経度":-10811.492655825}},{"type":"MultiPolygon","arcs":[[[-138,381,-374,-177]]],"properties":{"筆ID":"H000000128","version":"ver1.0","座標系":"任意座標系","測地系判別":null,"地図名":"幌加内町開拓図Ｅ２５００・図郭有","地図番号":"E2","縮尺分母":"2500","市区町村コード":"01439","市区町村名":"雨竜郡幌加内町","大字コード":"034","丁目コード":"000","小字コード":"0000","予備コード":"00","大字名":"字蕗の台","丁目名":null,"小字名":null,"予備名":null,"地番":"8955-1","精度区分":null,"座標値種別":"図上測量","筆界未定構成筆":null,"代表点緯度":-11800.855,"代表点経度":-10787.699416324}},{"type":"MultiPolygon","arcs":[[[-377,-382,-142]]],"properties":{"筆ID":"H000000129","version":"ver1.0","座標系":"任意座標系","測地系判別":null,"地図名":"幌加内町開拓図Ｅ２５００・図郭有","地図番号":"E2","縮尺分母":"2500","市区町村コード":"01439","市区町村名":"雨竜郡幌加内町","大字コード":"034","丁目コード":"000","小字コード":"0000","予備コード":"00","大字名":"字蕗の台","丁目名":null,"小字名":null,"予備名":null,"地番":"8955-2","精度区分":null,"座標値種別":"図上測量","筆界未定構成筆":null,"代表点緯度":-11912.07,"代表点経度":-10792.175602886}},{"type":"MultiPolygon","arcs":[[[-195,-241,-188,382,-365,-167,383]]],"properties":{"筆ID":"H000000130","version":"ver1.0","座標系":"任意座標系","測地系判別":null,"地図名":"幌加内町開拓図Ｅ２５００・図郭有","地図番号":"E6","縮尺分母":"2500","市区町村コード":"01439","市区町村名":"雨竜郡幌加内町","大字コード":"034","丁目コード":"000","小字コード":"0000","予備コード":"00","大字名":"字蕗の台","丁目名":null,"小字名":null,"予備名":null,"地番":"8956-1","精度区分":null,"座標値種別":"図上測量","筆界未定構成筆":null,"代表点緯度":-11631.217,"代表点経度":-11152.393710552}},{"type":"MultiPolygon","arcs":[[[384,-380,-383,-184]]],"properties":{"筆ID":"H000000131","version":"ver1.0","座標系":"任意座標系","測地系判別":null,"地図名":"幌加内町開拓図Ｅ２５００・図郭有","地図番号":"E2","縮尺分母":"2500","市区町村コード":"01439","市区町村名":"雨竜郡幌加内町","大字コード":"034","丁目コード":"000","小字コード":"0000","予備コード":"00","大字名":"字蕗の台","丁目名":null,"小字名":null,"予備名":null,"地番":"8956-2","精度区分":null,"座標値種別":"図上測量","筆界未定構成筆":null,"代表点緯度":-11783.4045,"代表点経度":-10839.563320727}},{"type":"MultiPolygon","arcs":[[[-376,-385,-181,385]]],"properties":{"筆ID":"H000000132","version":"ver1.0","座標系":"任意座標系","測地系判別":null,"地図名":"幌加内町開拓図Ｅ２５００・図郭有","地図番号":"E2","縮尺分母":"2500","市区町村コード":"01439","市区町村名":"雨竜郡幌加内町","大字コード":"034","丁目コード":"000","小字コード":"0000","予備コード":"00","大字名":"字蕗の台","丁目名":null,"小字名":null,"予備名":null,"地番":"8956-3","精度区分":null,"座標値種別":"図上測量","筆界未定構成筆":null,"代表点緯度":-11800.497,"代表点経度":-10814.49009039}},{"type":"MultiPolygon","arcs":[[[-265,386,-256,387,-196,-384,-169,388,-171]]],"properties":{"筆ID":"H000000133","version":"ver1.0","座標系":"任意座標系","測地系判別":null,"地図名":"幌加内町開拓図Ｅ２５００・図郭有","地図番号":"E6","縮尺分母":"2500","市区町村コード":"01439","市区町村名":"雨竜郡幌加内町","大字コード":"034","丁目コード":"000","小字コード":"0000","予備コード":"00","大字名":"字蕗の台","丁目名":null,"小字名":null,"予備名":null,"地番":"8957","精度区分":null,"座標値種別":"図上測量","筆界未定構成筆":null,"代表点緯度":-11661.633,"代表点経度":-11318.112117311}},{"type":"MultiPolygon","arcs":[[[389,-254,-387,-264]]],"properties":{"筆ID":"H000000134","version":"ver1.0","座標系":"任意座標系","測地系判別":null,"地図名":"幌加内町開拓図Ｅ２５００・図郭有","地図番号":"E6","縮尺分母":"2500","市区町村コード":"01439","市区町村名":"雨竜郡幌加内町","大字コード":"034","丁目コード":"000","小字コード":"0000","予備コード":"00","大字名":"字蕗の台","丁目名":null,"小字名":null,"予備名":null,"地番":"8958","精度区分":null,"座標値種別":"図上測量","筆界未定構成筆":null,"代表点緯度":-11521.8295,"代表点経度":-11294.531226277}},{"type":"MultiPolygon","arcs":[[[-178,-373,-386,-180,-244,390,-246]]],"properties":{"筆ID":"H000000135","version":"ver1.0","座標系":"任意座標系","測地系判別":null,"地図名":"幌加内町開拓図Ｅ２５００・図郭有","地図番号":"E2","縮尺分母":"2500","市区町村コード":"01439","市区町村名":"雨竜郡幌加内町","大字コード":"034","丁目コード":"000","小字コード":"0000","予備コード":"00","大字名":"字蕗の台","丁目名":null,"小字名":null,"予備名":null,"地番":"8959-1","精度区分":null,"座標値種別":"図上測量","筆界未定構成筆":null,"代表点緯度":-11541.614,"代表点経度":-10823.243397556}},{"type":"MultiPolygon","arcs":[[[-243,391,-249,-391]]],"properties":{"筆ID":"H000000136","version":"ver1.0","座標系":"任意座標系","測地系判別":null,"地図名":"幌加内町開拓図Ｅ２５００・図郭有","地図番号":"E2","縮尺分母":"2500","市区町村コード":"01439","市区町村名":"雨竜郡幌加内町","大字コード":"034","丁目コード":"000","小字コード":"0000","予備コード":"00","大字名":"字蕗の台","丁目名":null,"小字名":null,"予備名":null,"地番":"8959-2","精度区分":null,"座標値種別":"図上測量","筆界未定構成筆":null,"代表点緯度":-11330.023,"代表点経度":-10955.353850467}},{"type":"MultiPolygon","arcs":[[[-392,-239,392,-252]]],"properties":{"筆ID":"H000000137","version":"ver1.0","座標系":"任意座標系","測地系判別":null,"地図名":"幌加内町開拓図Ｅ２５００・図郭有","地図番号":"E2","縮尺分母":"2500","市区町村コード":"01439","市区町村名":"雨竜郡幌加内町","大字コード":"034","丁目コード":"000","小字コード":"0000","予備コード":"00","大字名":"字蕗の台","丁目名":null,"小字名":null,"予備名":null,"地番":"8959-3","精度区分":null,"座標値種別":"図上測量","筆界未定構成筆":null,"代表点緯度":-11261.2065,"代表点経度":-10997.97548472}},{"type":"MultiPolygon","arcs":[[[393,-175]]],"properties":{"筆ID":"H000000138","version":"ver1.0","座標系":"任意座標系","測地系判別":null,"地図名":"幌加内町開拓図Ｅ２５００・図郭有","地図番号":"E2","縮尺分母":"2500","市区町村コード":"01439","市区町村名":"雨竜郡幌加内町","大字コード":"034","丁目コード":"000","小字コード":"0000","予備コード":"00","大字名":"字蕗の台","丁目名":null,"小字名":null,"予備名":null,"地番":"8960","精度区分":null,"座標値種別":"図上測量","筆界未定構成筆":null,"代表点緯度":-11750.2795,"代表点経度":-10498.867855446}},{"type":"MultiPolygon","arcs":[[[-161,394,-389,-369,-166,395,-78,396,-79]]],"properties":{"筆ID":"H000000139","version":"ver1.0","座標系":"任意座標系","測地系判別":null,"地図名":"幌加内町開拓図Ｅ２５００・図郭有","地図番号":"E7","縮尺分母":"2500","市区町村コード":"01439","市区町村名":"雨竜郡幌加内町","大字コード":"034","丁目コード":"000","小字コード":"0000","予備コード":"00","大字名":"字蕗の台","丁目名":null,"小字名":null,"予備名":null,"地番":"8961","精度区分":null,"座標値種別":"図上測量","筆界未定構成筆":null,"代表点緯度":-12063.465,"代表点経度":-11443.727221488}},{"type":"MultiPolygon","arcs":[[[397,-172,-395,-163,398,399]]],"properties":{"筆ID":"H000000140","version":"ver1.0","座標系":"任意座標系","測地系判別":null,"地図名":"幌加内町開拓図Ｅ２５００・図郭有","地図番号":"E6","縮尺分母":"2500","市区町村コード":"01439","市区町村名":"雨竜郡幌加内町","大字コード":"034","丁目コード":"000","小字コード":"0000","予備コード":"00","大字名":"字蕗の台","丁目名":null,"小字名":null,"予備名":null,"地番":"8962","精度区分":null,"座標値種別":"図上測量","筆界未定構成筆":null,"代表点緯度":-11888.066,"代表点経度":-11647.359848357}},{"type":"MultiPolygon","arcs":[[[-162,-81,400,401,-122,402,403,-399]]],"properties":{"筆ID":"H000000141","version":"ver1.0","座標系":"任意座標系","測地系判別":null,"地図名":"幌加内町開拓図Ｅ２５００・図郭有","地図番号":"E7","縮尺分母":"2500","市区町村コード":"01439","市区町村名":"雨竜郡幌加内町","大字コード":"034","丁目コード":"000","小字コード":"0000","予備コード":"00","大字名":"字蕗の台","丁目名":null,"小字名":null,"予備名":null,"地番":"8963","精度区分":null,"座標値種別":"図上測量","筆界未定構成筆":null,"代表点緯度":-12030.2395,"代表点経度":-11647.157447231}},{"type":"MultiPolygon","arcs":[[[-282,-266,-173,-398,404]]],"properties":{"筆ID":"H000000142","version":"ver1.0","座標系":"任意座標系","測地系判別":null,"地図名":"幌加内町開拓図Ｅ２５００・図郭有","地図番号":"E6","縮尺分母":"2500","市区町村コード":"01439","市区町村名":"雨竜郡幌加内町","大字コード":"034","丁目コード":"000","小字コード":"0000","予備コード":"00","大字名":"字蕗の台","丁目名":null,"小字名":null,"予備名":null,"地番":"8964","精度区分":null,"座標値種別":"図上測量","筆界未定構成筆":null,"代表点緯度":-11753.4825,"代表点経度":-11600.77083725}},{"type":"MultiPolygon","arcs":[[[405,-283,-405,-400,-404,406,407]]],"properties":{"筆ID":"H000000143","version":"ver1.0","座標系":"任意座標系","測地系判別":null,"地図名":"幌加内町開拓図Ｅ２５００・図郭有","地図番号":"E7","縮尺分母":"2500","市区町村コード":"01439","市区町村名":"雨竜郡幌加内町","大字コード":"034","丁目コード":"000","小字コード":"0000","予備コード":"00","大字名":"字蕗の台","丁目名":null,"小字名":null,"予備名":null,"地番":"8965","精度区分":null,"座標値種別":"図上測量","筆界未定構成筆":null,"代表点緯度":-11773.754,"代表点経度":-12015.767633052}},{"type":"MultiPolygon","arcs":[[[408,-284,-406,409]]],"properties":{"筆ID":"H000000144","version":"ver1.0","座標系":"任意座標系","測地系判別":null,"地図名":"幌加内町開拓図Ｅ２５００・図郭有","地図番号":"E6","縮尺分母":"2500","市区町村コード":"01439","市区町村名":"雨竜郡幌加内町","大字コード":"034","丁目コード":"000","小字コード":"0000","予備コード":"00","大字名":"字蕗の台","丁目名":null,"小字名":null,"予備名":null,"地番":"8966","精度区分":null,"座標値種別":"図上測量","筆界未定構成筆":null,"代表点緯度":-11510.666,"代表点経度":-12054.425115437}},{"type":"MultiPolygon","arcs":[[[-237,410,-393,411,-226,412,-222,413]]],"properties":{"筆ID":"H000000145","version":"ver1.0","座標系":"任意座標系","測地系判別":null,"地図名":"幌加内町開拓図Ｅ２５００・図郭有","地図番号":"E2","縮尺分母":"2500","市区町村コード":"01439","市区町村名":"雨竜郡幌加内町","大字コード":"034","丁目コード":"000","小字コード":"0000","予備コード":"00","大字名":"字蕗の台","丁目名":null,"小字名":null,"予備名":null,"地番":"8967-1","精度区分":null,"座標値種別":"図上測量","筆界未定構成筆":null,"代表点緯度":-11165.2515,"代表点経度":-11024.98152786}},{"type":"MultiPolygon","arcs":[[[-235,-414,-224,-210,-217,414]]],"properties":{"筆ID":"H000000146","version":"ver1.0","座標系":"任意座標系","測地系判別":null,"地図名":"幌加内町開拓図Ｅ２５００・図郭有","地図番号":"E2","縮尺分母":"2500","市区町村コード":"01439","市区町村名":"雨竜郡幌加内町","大字コード":"034","丁目コード":"000","小字コード":"0000","予備コード":"00","大字名":"字蕗の台","丁目名":null,"小字名":null,"予備名":null,"地番":"8967-2","精度区分":null,"座標値種別":"図上測量","筆界未定構成筆":null,"代表点緯度":-11032.1765,"代表点経度":-11026.57551013}},{"type":"MultiPolygon","arcs":[[[-230,-415,-220,415]]],"properties":{"筆ID":"H000000147","version":"ver1.0","座標系":"任意座標系","測地系判別":null,"地図名":"幌加内町開拓図Ｅ２５００・図郭有","地図番号":"E1","縮尺分母":"2500","市区町村コード":"01439","市区町村名":"雨竜郡幌加内町","大字コード":"034","丁目コード":"000","小字コード":"0000","予備コード":"00","大字名":"字蕗の台","丁目名":null,"小字名":null,"予備名":null,"地番":"8967-3","精度区分":null,"座標値種別":"図上測量","筆界未定構成筆":null,"代表点緯度":-10972.43,"代表点経度":-11047.671700949}},{"type":"MultiPolygon","arcs":[[[-208,-223,-413,-225,-200,-276,416,-269]]],"properties":{"筆ID":"H000000148","version":"ver1.0","座標系":"任意座標系","測地系判別":null,"地図名":"幌加内町開拓図Ｅ２５００・図郭有","地図番号":"E6","縮尺分母":"2500","市区町村コード":"01439","市区町村名":"雨竜郡幌加内町","大字コード":"034","丁目コード":"000","小字コード":"0000","予備コード":"00","大字名":"字蕗の台","丁目名":null,"小字名":null,"予備名":null,"地番":"8968","精度区分":null,"座標値種別":"図上測量","筆界未定構成筆":null,"代表点緯度":-11262.286,"代表点経度":-11368.037107261}},{"type":"MultiPolygon","arcs":[[[417,-270,-417,-275,418,-388,419,-260,-258,-259,420,-272]]],"properties":{"筆ID":"H000000149","version":"ver1.0","座標系":"任意座標系","測地系判別":null,"地図名":"幌加内町開拓図Ｅ２５００・図郭有","地図番号":"E6","縮尺分母":"2500","市区町村コード":"01439","市区町村名":"雨竜郡幌加内町","大字コード":"034","丁目コード":"000","小字コード":"0000","予備コード":"00","大字名":"字蕗の台","丁目名":null,"小字名":null,"予備名":null,"地番":"8969","精度区分":null,"座標値種別":"図上測量","筆界未定構成筆":null,"代表点緯度":-11368.689,"代表点経度":-11383.6796408}},{"type":"MultiPolygon","arcs":[[[-418,-271]]],"properties":{"筆ID":"H000000150","version":"ver1.0","座標系":"任意座標系","測地系判別":null,"地図名":"幌加内町開拓図Ｅ２５００・図郭有","地図番号":"E6","縮尺分母":"2500","市区町村コード":"01439","市区町村名":"雨竜郡幌加内町","大字コード":"034","丁目コード":"000","小字コード":"0000","予備コード":"00","大字名":"字蕗の台","丁目名":null,"小字名":null,"予備名":null,"地番":"8970","精度区分":null,"座標値種別":"図上測量","筆界未定構成筆":null,"代表点緯度":-11329.6155,"代表点経度":-11479.696451617}},{"type":"MultiPolygon","arcs":[[[421,-215,-204,-268,422]]],"properties":{"筆ID":"H000000151","version":"ver1.0","座標系":"任意座標系","測地系判別":null,"地図名":"幌加内町開拓図Ｅ２５００・図郭有","地図番号":"E6","縮尺分母":"2500","市区町村コード":"01439","市区町村名":"雨竜郡幌加内町","大字コード":"034","丁目コード":"000","小字コード":"0000","予備コード":"00","大字名":"字蕗の台","丁目名":null,"小字名":null,"予備名":null,"地番":"8971","精度区分":null,"座標値種別":"図上測量","筆界未定構成筆":null,"代表点緯度":-11039.027,"代表点経度":-11345.108231621}},{"type":"MultiPolygon","arcs":[[[-289,423,-231,-416,-219,424,425]]],"properties":{"筆ID":"H000000152","version":"ver1.0","座標系":"任意座標系","測地系判別":null,"地図名":"幌加内町開拓図Ｅ２５００・図郭有","地図番号":"E5","縮尺分母":"2500","市区町村コード":"01439","市区町村名":"雨竜郡幌加内町","大字コード":"034","丁目コード":"000","小字コード":"0000","予備コード":"00","大字名":"字蕗の台","丁目名":null,"小字名":null,"予備名":null,"地番":"8972-1","精度区分":null,"座標値種別":"図上測量","筆界未定構成筆":null,"代表点緯度":-10735.892,"代表点経度":-11076.943735481}},{"type":"MultiPolygon","arcs":[[[-218,426,427,-425]]],"properties":{"筆ID":"H000000153","version":"ver1.0","座標系":"任意座標系","測地系判別":null,"地図名":"幌加内町開拓図Ｅ２５００・図郭有","地図番号":"E5","縮尺分母":"2500","市区町村コード":"01439","市区町村名":"雨竜郡幌加内町","大字コード":"034","丁目コード":"000","小字コード":"0000","予備コード":"00","大字名":"字蕗の台","丁目名":null,"小字名":null,"予備名":null,"地番":"8972-2","精度区分":null,"座標値種別":"図上測量","筆界未定構成筆":null,"代表点緯度":-10799.049,"代表点経度":-11260.40683029}},{"type":"MultiPolygon","arcs":[[[-427,-213,-422,428]]],"properties":{"筆ID":"H000000154","version":"ver1.0","座標系":"任意座標系","測地系判別":null,"地図名":"幌加内町開拓図Ｅ２５００・図郭有","地図番号":"E5","縮尺分母":"2500","市区町村コード":"01439","市区町村名":"雨竜郡幌加内町","大字コード":"034","丁目コード":"000","小字コード":"0000","予備コード":"00","大字名":"字蕗の台","丁目名":null,"小字名":null,"予備名":null,"地番":"8972-3","精度区分":null,"座標値種別":"図上測量","筆界未定構成筆":null,"代表点緯度":-10801.309,"代表点経度":-11331.449407964}},{"type":"MultiPolygon","arcs":[[[-150,-370,-147,-372,-144,429,-314,-345,-322,-22,-25,-355,430,431,-31]]],"properties":{"筆ID":"H000000155","version":"ver1.0","座標系":"任意座標系","測地系判別":null,"地図名":"幌加内町開拓図Ｅ２５００・図郭有","地図番号":"E3","縮尺分母":"2500","市区町村コード":"01439","市区町村名":"雨竜郡幌加内町","大字コード":"034","丁目コード":"000","小字コード":"0000","予備コード":"00","大字名":"字蕗の台","丁目名":null,"小字名":null,"予備名":null,"地番":"9330","精度区分":null,"座標値種別":"図上測量","筆界未定構成筆":null,"代表点緯度":-12331.5015,"代表点経度":-10735.998933902}},{"type":"MultiPolygon","arcs":[[[432,-401,-80,-397,-77,-57,-60,433,-431,-354,-49,-72,-346,-75,-101,-117]]],"properties":{"筆ID":"H000000156","version":"ver1.0","座標系":"任意座標系","測地系判別":null,"地図名":"幌加内町開拓図Ｅ２５００・図郭有","地図番号":"E7","縮尺分母":"2500","市区町村コード":"01439","市区町村名":"雨竜郡幌加内町","大字コード":"034","丁目コード":"000","小字コード":"0000","予備コード":"00","大字名":"字蕗の台","丁目名":null,"小字名":null,"予備名":null,"地番":"9331","精度区分":null,"座標値種別":"図上測量","筆界未定構成筆":null,"代表点緯度":-12158.438,"代表点経度":-11669.922450388}},{"type":"MultiPolygon","arcs":[[[-403,-121,-402,-433,-120,-362,-361,-364,434,-407]]],"properties":{"筆ID":"H000000157","version":"ver1.0","座標系":"任意座標系","測地系判別":null,"地図名":"幌加内町開拓図Ｅ２５００・図郭有","地図番号":"E7","縮尺分母":"2500","市区町村コード":"01439","市区町村名":"雨竜郡幌加内町","大字コード":"034","丁目コード":"000","小字コード":"0000","予備コード":"00","大字名":"字蕗の台","丁目名":null,"小字名":null,"予備名":null,"地番":"9332","精度区分":null,"座標値種別":"図上測量","筆界未定構成筆":null,"代表点緯度":-11990.966,"代表点経度":-12082.070505638}},{"type":"MultiPolygon","arcs":[[[435,-9,436]]],"properties":{"筆ID":"H000000158","version":"ver1.0","座標系":"任意座標系","測地系判別":null,"地図名":"幌加内町開拓図Ｅ２５００・図郭有","地図番号":"E4","縮尺分母":"2500","市区町村コード":"01439","市区町村名":"雨竜郡幌加内町","大字コード":"034","丁目コード":"000","小字コード":"0000","予備コード":"00","大字名":"字蕗の台","丁目名":null,"小字名":null,"予備名":null,"地番":"9333","精度区分":null,"座標値種別":"図上測量","筆界未定構成筆":null,"代表点緯度":-13104.768,"代表点経度":-10717.532135884}},{"type":"MultiPolygon","arcs":[[[-90,-37,437,438]]],"properties":{"筆ID":"H000000159","version":"ver1.0","座標系":"任意座標系","測地系判別":null,"地図名":"幌加内町開拓図Ｅ２５００・図郭有","地図番号":"E7","縮尺分母":"2500","市区町村コード":"01439","市区町村名":"雨竜郡幌加内町","大字コード":"034","丁目コード":"000","小字コード":"0000","予備コード":"00","大字名":"字蕗の台","丁目名":null,"小字名":null,"予備名":null,"地番":"9334","精度区分":null,"座標値種別":"図上測量","筆界未定構成筆":null,"代表点緯度":-12828.0475,"代表点経度":-11308.675880418}},{"type":"MultiPolygon","arcs":[[[-105,-358,-91,-439,439,-127,-130]]],"properties":{"筆ID":"H000000160","version":"ver1.0","座標系":"任意座標系","測地系判別":null,"地図名":"幌加内町開拓図Ｅ２５００・図郭有","地図番号":"E7","縮尺分母":"2500","市区町村コード":"01439","市区町村名":"雨竜郡幌加内町","大字コード":"034","丁目コード":"000","小字コード":"0000","予備コード":"00","大字名":"字蕗の台","丁目名":null,"小字名":null,"予備名":null,"地番":"9335","精度区分":null,"座標値種別":"図上測量","筆界未定構成筆":null,"代表点緯度":-12794.5265,"代表点経度":-11538.7202688}},{"type":"MultiPolygon","arcs":[[[-280,-261,-420,-255,-390,-263,-285,-409,440]]],"properties":{"筆ID":"H000000161","version":"ver1.0","座標系":"任意座標系","測地系判別":null,"地図名":"幌加内町開拓図Ｅ２５００・図郭有","地図番号":"E6","縮尺分母":"2500","市区町村コード":"01439","市区町村名":"雨竜郡幌加内町","大字コード":"034","丁目コード":"000","小字コード":"0000","予備コード":"00","大字名":"字蕗の台","丁目名":null,"小字名":null,"予備名":null,"地番":"9351","精度区分":null,"座標値種別":"図上測量","筆界未定構成筆":null,"代表点緯度":-11445.307,"代表点経度":-11725.652269424}},{"type":"MultiPolygon","arcs":[[[-202,-227,-412,-238,-199,-190,-194,-419,-274]]],"properties":{"筆ID":"H000000162","version":"ver1.0","座標系":"任意座標系","測地系判別":null,"地図名":"幌加内町開拓図Ｅ２５００・図郭有","地図番号":"E6","縮尺分母":"2500","市区町村コード":"01439","市区町村名":"雨竜郡幌加内町","大字コード":"034","丁目コード":"000","小字コード":"0000","予備コード":"00","大字名":"字蕗の台","丁目名":null,"小字名":null,"予備名":null,"地番":"9352","精度区分":null,"座標値種別":"図上測量","筆界未定構成筆":null,"代表点緯度":-11264.3165,"代表点経度":-11256.546244233}},{"type":"MultiPolygon","arcs":[[[441,-248,442,-228]]],"properties":{"筆ID":"H000000163","version":"ver1.0","座標系":"任意座標系","測地系判別":null,"地図名":"幌加内町開拓図Ｅ２５００・図郭有","地図番号":"E2","縮尺分母":"2500","市区町村コード":"01439","市区町村名":"雨竜郡幌加内町","大字コード":"034","丁目コード":"000","小字コード":"0000","予備コード":"00","大字名":"字蕗の台","丁目名":null,"小字名":null,"予備名":null,"地番":"9353-1","精度区分":null,"座標値種別":"図上測量","筆界未定構成筆":null,"代表点緯度":-11219.2015,"代表点経度":-10946.136865421}},{"type":"MultiPolygon","arcs":[[[-251,443,-233,-443]]],"properties":{"筆ID":"H000000164","version":"ver1.0","座標系":"任意座標系","測地系判別":null,"地図名":"幌加内町開拓図Ｅ２５００・図郭有","地図番号":"E2","縮尺分母":"2500","市区町村コード":"01439","市区町村名":"雨竜郡幌加内町","大字コード":"034","丁目コード":"000","小字コード":"0000","予備コード":"00","大字名":"字蕗の台","丁目名":null,"小字名":null,"予備名":null,"地番":"9353-2","精度区分":null,"座標値種別":"図上測量","筆界未定構成筆":null,"代表点緯度":-11220.4045,"代表点経度":-10983.221686833}},{"type":"MultiPolygon","arcs":[[[-444,-253,-411,-236]]],"properties":{"筆ID":"H000000165","version":"ver1.0","座標系":"任意座標系","測地系判別":null,"地図名":"幌加内町開拓図Ｅ２５００・図郭有","地図番号":"E2","縮尺分母":"2500","市区町村コード":"01439","市区町村名":"雨竜郡幌加内町","大字コード":"034","丁目コード":"000","小字コード":"0000","予備コード":"00","大字名":"字蕗の台","丁目名":null,"小字名":null,"予備名":null,"地番":"9353-3","精度区分":null,"座標値種別":"図上測量","筆界未定構成筆":null,"代表点緯度":-11223.001,"代表点経度":-11000.015763768}},{"type":"MultiPolygon","arcs":[[[-292,-295,-301,-344,-321,-316,-319,-310,444,-10,-436,445]]],"properties":{"筆ID":"H000000166","version":"ver1.0","座標系":"任意座標系","測地系判別":null,"地図名":"幌加内町開拓図Ｅ２５００・図郭有","地図番号":"E4","縮尺分母":"2500","市区町村コード":"01439","市区町村名":"雨竜郡幌加内町","大字コード":"034","丁目コード":"000","小字コード":"0000","予備コード":"00","大字名":"字蕗の台","丁目名":null,"小字名":null,"予備名":null,"地番":"道-1","精度区分":null,"座標値種別":"図上測量","筆界未定構成筆":null,"代表点緯度":-12718.651,"代表点経度":-10591.64302593}},{"type":"MultiPolygon","arcs":[[[-378,-153,446,-159]]],"properties":{"筆ID":"H000000167","version":"ver1.0","座標系":"任意座標系","測地系判別":null,"地図名":"幌加内町開拓図Ｅ２５００・図郭有","地図番号":"E3","縮尺分母":"2500","市区町村コード":"01439","市区町村名":"雨竜郡幌加内町","大字コード":"034","丁目コード":"000","小字コード":"0000","予備コード":"00","大字名":"字蕗の台","丁目名":null,"小字名":null,"予備名":null,"地番":"8953-2","精度区分":null,"座標値種別":"図上測量","筆界未定構成筆":null,"代表点緯度":-12148.213,"代表点経度":-10753.899243393}},{"type":"MultiPolygon","arcs":[[[-447,-151,-32,-432,-434,-61,-59,-76,-396,-165,-368,-157]]],"properties":{"筆ID":"H000000168","version":"ver1.0","座標系":"任意座標系","測地系判別":null,"地図名":"幌加内町開拓図Ｅ２５００・図郭有","地図番号":"E7","縮尺分母":"2500","市区町村コード":"01439","市区町村名":"雨竜郡幌加内町","大字コード":"034","丁目コード":"000","小字コード":"0000","予備コード":"00","大字名":"字蕗の台","丁目名":null,"小字名":null,"予備名":null,"地番":"8953-1","精度区分":null,"座標値種別":"図上測量","筆界未定構成筆":null,"代表点緯度":-12080.5085,"代表点経度":-11159.962078627}}]}},"arcs":[[[908208,160199],[15951,-6342],[-15072,-14791],[-15648,6429]],[[893439,145495],[14769,14704]],[[983765,259339],[9728,-2790],[6506,-9213],[-20109,-39123],[-14771,-35680]],[[965119,172533],[-3523,13129],[-23016,4298],[-30372,-29761]],[[893439,145495],[-11043,-10866],[41180,-16332],[3061,6516],[20969,23079],[-4066,1805],[-8449,475],[-9918,8467],[1119,13381],[4475,1604],[-234,-13931],[8890,-6211],[13026,-1074],[3996,-1548]],[[956445,150860],[-709,-1784],[435,-1979]],[[956171,147097],[-26704,-34791],[-5827,-21049],[13794,-2611],[24697,33783]],[[962131,122429],[963,-38448],[-17115,-33564],[-24635,-15698],[-53259,-23598]],[[868085,11121],[-26839,29869],[-155,23587],[-33419,16482]],[[807672,81059],[6175,6034],[11717,17095],[15574,16175],[26112,26099],[29910,28365],[12865,9600],[73740,74912]],[[965119,172533],[-8674,-21673]],[[956171,147097],[5960,-24668]],[[644577,281707],[17392,-1617],[-2785,-12111]],[[659184,267979],[-17259,2013]],[[641925,269992],[2652,11715]],[[646868,291858],[18289,-1790],[13836,-5341],[24314,-6205],[33693,-3952]],[[737000,274570],[-4611,-20043]],[[732389,254527],[-911,558],[-25662,7616],[-46632,5278]],[[644577,281707],[2291,10151]],[[746129,315726],[-6226,-27796]],[[739903,287930],[-33588,2814],[-17383,10035],[5755,3566]],[[694687,304345],[14739,3481],[16800,-3176],[7926,12441],[11977,-1365]],[[739903,287930],[-2903,-13360]],[[646868,291858],[5862,26076]],[[652730,317934],[6509,3865],[35448,-17454]],[[731716,251719],[-8210,-37742]],[[723506,213977],[-92537,8293]],[[630969,222270],[10304,45545]],[[641273,267815],[62797,-7156],[25648,-7605],[1998,-1335]],[[752646,345126],[-4821,-21366]],[[747825,323760],[-21526,2501],[-7459,-10808],[-24248,-1384],[-38639,17872]],[[655953,331941],[4581,20856],[92112,-7671]],[[599092,185008],[-2663,-11602],[-27300,2349],[2748,11583]],[[571877,187338],[27215,-2330]],[[599092,185008],[26054,-2250]],[[625146,182758],[-2253,-11132],[-9271,-41487],[-5060,-16196]],[[608562,113943],[-27930,23957],[-51193,4626],[-24652,8262],[-31284,-324]],[[473503,150464],[6997,30460]],[[480500,180924],[75169,-7883],[4262,15372],[11946,-1075]],[[630428,220324],[-5282,-37566]],[[480500,180924],[11513,51470]],[[492013,232394],[138415,-12070]],[[531827,283222],[-28255,2505]],[[503572,285727],[2618,11585],[28291,-2591],[-2654,-11499]],[[557044,310282],[-6763,-28645]],[[550281,281637],[-18454,1585]],[[503572,285727],[-47624,4619]],[[455948,290346],[4458,19564]],[[460406,309910],[11317,-2459],[35677,4862],[12360,7228],[32179,-9346],[5105,87]],[[457905,287708],[54080,-5302]],[[511985,282406],[-5271,-26073],[-4915,391],[-10512,8016],[-4039,-1606],[6670,-5617],[-42156,4009]],[[451762,261526],[6143,26182]],[[511985,282406],[37839,-3113]],[[549824,279293],[-11550,-48619]],[[538274,230674],[-91973,8167],[5461,22685]],[[563124,337095],[-40407,-4220]],[[522717,332875],[-24051,-13531],[-17700,-1507],[-17970,3483]],[[462996,321320],[10633,47141]],[[473629,368461],[94935,-7917],[-5440,-23449]],[[559970,323579],[-37253,9296]],[[563124,337095],[-3154,-13516]],[[418327,272334],[4072,17088],[18535,-1627],[-4219,-17125],[-18388,1664]],[[413240,293835],[37001,-5297]],[[450241,288538],[1938,-10491],[-9276,-38987],[-27465,2461]],[[415438,241521],[2889,30813]],[[418327,272334],[-10335,916],[5248,20585]],[[362796,301056],[50444,-7221]],[[415438,241521],[-3714,-1207]],[[411724,240314],[-61463,5302]],[[350261,245616],[12535,55440]],[[455948,290346],[-4839,451],[-33088,4717],[-23454,10283],[-7674,13405]],[[386893,319202],[10402,552],[38466,-4490],[24645,-5354]],[[382995,319034],[2621,-10920],[7156,-8906],[-29475,4201]],[[363297,303409],[3463,14800]],[[366760,318209],[16235,825]],[[449794,370375],[23835,-1914]],[[462996,321320],[-38552,7451],[-41482,-2471]],[[382962,326300],[53231,42450],[13601,1625]],[[437645,371496],[-3371,-645],[-55275,-43912]],[[378999,326939],[-10008,1369]],[[368991,328308],[11000,47852]],[[379991,376160],[57654,-4664]],[[433231,230035],[-3790,-17403],[-18917,1595]],[[410524,214227],[3801,17492],[18906,-1684]],[[416437,238897],[25729,-2278]],[[442166,236619],[-1782,-7225],[-7153,641]],[[410524,214227],[-1820,-8520],[-56779,2679],[-8593,6936]],[[343332,215322],[30622,10888],[42483,12687]],[[442166,236619],[49847,-4225]],[[473503,150464],[-43524,-12667]],[[429979,137797],[-7868,4390],[-30086,-3697],[-28793,3533],[-8434,7965],[-24905,3279]],[[329893,153267],[13289,59895],[150,2160]],[[411724,240314],[-2392,-747]],[[409332,239567],[-38565,-11642],[-26545,-9304]],[[344222,218621],[6039,26995]],[[212805,257137],[45657,-3961],[13877,61595]],[[272339,314771],[2732,12130]],[[275071,326901],[23544,-5025],[33012,-16004],[31169,-4816]],[[344222,218621],[-3209,-1086],[-10096,-6429],[-42131,-11802],[-31898,11303],[-43253,-7547],[-13865,-6060]],[[199770,197000],[13035,60137]],[[280289,350439],[25879,-5092],[9046,-11931],[24553,-10318],[26993,-4889]],[[363297,303409],[-30653,4631],[-32649,16302],[-24310,4974]],[[275685,329316],[4604,21123]],[[302549,200332],[-12405,-57653]],[[290144,142679],[-12105,861],[-29659,4420],[-21139,9076],[-29156,-3521],[-7720,352]],[[190365,153867],[8707,40023]],[[199072,193890],[16696,7266],[40783,7047],[32027,-11781],[13971,3910]],[[209233,337132],[27666,-2354]],[[236899,334778],[-1959,-8923]],[[234940,325855],[-589,-2680],[-27344,2434],[2226,11523]],[[234940,325855],[37399,-11084]],[[272339,314771],[-24020,-27896],[-62699,5199],[15049,24736],[-1549,21151],[10113,-829]],[[236899,334778],[38172,-7877]],[[187811,354006],[49088,-19228]],[[212805,257137],[-45460,3859]],[[167345,260996],[20466,93010]],[[278892,362353],[-2378,-11191],[3775,-723]],[[275685,329316],[-35777,7393],[-51410,20090]],[[188498,356799],[2926,13921]],[[191424,370720],[8235,-1364],[11424,8357],[25094,-9299],[14544,670],[28171,-6731]],[[284334,368869],[-38343,8553],[-20490,11704]],[[225501,389126],[62470,-5044],[-3637,-15213]],[[150695,178013],[-17086,-4412]],[[133609,173601],[-5200,8151],[17065,4097],[5221,-7836]],[[44511,148127],[102098,26369]],[[146609,174496],[8921,-13740],[-40030,-10502]],[[115500,150254],[-64719,-25491]],[[50781,124763],[-2243,1477],[-7619,5777],[3592,16110]],[[146609,174496],[19831,5051],[32632,14343]],[[190365,153867],[-14052,737],[-9890,-3279],[-8041,-16192],[-19656,-2469],[-23226,17590]],[[199770,197000],[-35083,-15363],[-13992,-3624]],[[133609,173601],[-88448,-22649]],[[45161,150952],[26026,118178]],[[71187,269130],[96158,-8134]],[[775200,432771],[10870,-873]],[[786070,431898],[-3466,-16520],[25805,-31752],[45168,-61222]],[[853577,322404],[-7104,-2087],[-14248,-2557],[-12483,1347],[-9402,5650],[-5064,9160],[-33874,81783]],[[771402,415700],[3798,17071]],[[853577,322404],[6338,-8538]],[[859915,313866],[-7671,-1994],[-18392,-3455],[-17069,1948]],[[816783,310365],[-14435,25348],[-29435,57719],[789,13808],[-2438,7831]],[[771264,415071],[138,629]],[[859915,313866],[36904,-50142]],[[896819,263724],[-63290,-12229],[-11294,6660],[-14345,2983]],[[807890,261138],[14322,29990],[1227,7952],[-6656,11285]],[[813057,279746],[-8439,-17930]],[[804618,261816],[-9776,2056],[17,17268],[8794,-3216],[9404,1822]],[[785571,342325],[4574,-10414],[6242,-11140],[15852,-9388]],[[812239,311383],[7390,-12882],[-1148,-7211],[-998,-2162]],[[817483,289128],[-9776,10682],[-17437,768],[-9583,10970],[-21988,10949],[-10874,1263]],[[752646,345126],[32925,-2801]],[[795142,341511],[17097,-30128]],[[785571,342325],[9571,-814]],[[648784,397547],[67092,-5671],[1847,1082]],[[717723,392958],[46902,-3981],[1495,2388]],[[766120,391365],[19141,-47610]],[[785261,343755],[-147346,12266],[10869,41526]],[[767956,400221],[1348,-7136],[25076,-50147]],[[794380,342938],[-9119,817]],[[766120,391365],[1836,8856]],[[481620,411770],[-3400,-15420],[-13767,-16411],[-1547,-5561],[-15549,-678],[-9712,-2204]],[[379991,376160],[9847,43173]],[[389838,419333],[91782,-7563]],[[485480,411379],[20417,-1669]],[[505897,409710],[-9915,-41961],[-40393,3329]],[[455589,371078],[10537,1224],[1818,6370],[14157,16980],[3379,15727]],[[498989,473396],[93866,-8283],[-12578,-59712]],[[580277,405401],[-94248,8423]],[[486029,413824],[12960,59572]],[[438725,504869],[61513,-5179]],[[500238,499690],[-961,-4865],[-3544,-2087],[447,-13157],[-14100,-65463]],[[482080,414118],[-61583,5185]],[[420497,419303],[18228,85566]],[[735776,567832],[22032,-24870],[8602,-613],[28453,-10574],[49752,10605],[42026,-3882],[40408,-13298],[11572,-15841],[-5456,-22630]],[[933165,486729],[-46319,10070]],[[886846,496799],[-28950,-4660],[-32202,-17314],[-39624,-42927]],[[775200,432771],[9503,43642],[-11248,1030]],[[773455,477443],[14728,20666],[-4698,25929],[-11025,12139],[-6674,2347],[-13257,-1116],[-15057,6907],[-9902,9805],[-8531,15135]],[[719039,569255],[16737,-1423]],[[714938,569626],[9073,-16304],[10526,-10557],[17422,-7957],[13222,1178],[4529,-1491],[10071,-11203],[4495,-25058],[-13917,-19401]],[[770359,478833],[-25028,2091]],[[745331,480924],[-37444,89257]],[[707887,570181],[7051,-555]],[[745331,480924],[-16355,1346]],[[728976,482270],[-37351,89336]],[[691625,571606],[16262,-1425]],[[682138,572390],[9487,-784]],[[728976,482270],[-66561,5479],[19723,84641]],[[549112,608358],[18154,1311],[3104,92],[7308,532],[2385,-11514],[-12312,-807],[-16297,-1266],[-2342,11652]],[[549112,608358],[-5459,11354]],[[543653,619712],[47364,4628],[33838,-10616]],[[624855,613724],[-4623,-20986]],[[620232,592738],[-87741,-7472]],[[532491,585266],[-177,233],[16798,22859]],[[616952,577849],[-70089,6138]],[[546863,583987],[-14372,1279]],[[620232,592738],[-3280,-14889]],[[628054,628245],[-3199,-14521]],[[543653,619712],[13286,20693],[30741,-4883],[19813,-8199],[20561,922]],[[538767,658249],[33214,6918],[60689,-15703]],[[632670,649464],[-1715,-7592]],[[630955,641872],[-30912,5948],[-9230,6987],[-14158,3235],[-27805,-1553],[-10869,-1225]],[[537981,655264],[786,2985]],[[542297,673477],[9219,43266]],[[551516,716743],[75709,-6611]],[[627225,710132],[3929,-3928],[5981,-7017],[4749,-8500]],[[641884,690687],[-8673,-38818]],[[633211,651869],[-61271,15748],[-17719,-3554],[-14869,-3143]],[[539352,660920],[2945,12557]],[[641840,708855],[2881,-5461]],[[644721,703394],[-2837,-12707]],[[627225,710132],[14615,-1277]],[[554716,730948],[46645,-4094]],[[601361,726854],[12009,-6842],[9504,-6238],[4351,-3642]],[[551516,716743],[3200,14205]],[[627484,724600],[5676,-3608]],[[633160,720992],[8680,-12137]],[[601361,726854],[26123,-2254]],[[627484,724600],[3194,-270]],[[630678,724330],[2482,-3338]],[[641884,690687],[9936,-22373]],[[651820,668314],[-3144,-20420]],[[648676,647894],[-15465,3975]],[[644721,703394],[8019,-12899],[1116,-9579],[-2036,-12602]],[[632670,649464],[17297,-4475]],[[649967,644989],[1654,-3200]],[[651621,641789],[-15213,-966],[-5453,1049]],[[707858,642503],[-29144,-1442],[-4193,251]],[[674521,641312],[-458,1038],[4206,748],[-20885,49169],[-6314,10836],[-7129,9112]],[[643941,712215],[-8606,11723]],[[635335,723938],[100323,-8714]],[[735658,715224],[-12789,-27983],[-15011,-44738]],[[674521,641312],[-11368,464]],[[663153,641776],[-8575,19830]],[[654578,661606],[3345,19267],[-1085,10307],[-12897,21035]],[[663153,641776],[-7391,333]],[[655762,642109],[-3403,6281],[2219,13216]],[[628054,628245],[30278,1207]],[[658332,629452],[17067,-17140]],[[675399,612312],[16226,-40706]],[[682138,572390],[-65186,5459]],[[701930,585528],[5957,-15347]],[[675399,612312],[26531,-26784]],[[701930,585528],[9438,-9487],[3570,-6415]],[[707420,629090],[22460,-54485],[5896,-6773]],[[719039,569255],[-4208,7622],[-15808,16085]],[[699023,592962],[-14831,36392]],[[684192,629354],[23228,-264]],[[699023,592962],[-26579,26597]],[[672444,619559],[-3971,9943]],[[668473,629502],[15719,-148]],[[672444,619559],[-9885,10007]],[[662559,629566],[5914,-64]],[[546999,571057],[-19566,-10880]],[[527433,560177],[4595,22813]],[[532028,582990],[12761,-1482],[2210,-10451]],[[434220,592537],[-3675,-17106],[-18464,1538],[3664,17312]],[[415745,594281],[18475,-1744]],[[380740,597197],[35005,-2916]],[[434220,592537],[67197,-6579]],[[501417,585958],[-5218,-11978],[-13441,-6686],[-68108,790],[-40834,-3374]],[[373816,564710],[6924,32487]],[[369541,544819],[41428,3811],[53517,-11607],[17350,2435],[33161,15256]],[[514997,554714],[-5720,-23794]],[[509277,530920],[-4055,-6307],[-4984,-24923]],[[438725,504869],[-76313,6250]],[[362412,511119],[7129,33700]],[[390439,642622],[151858,30855]],[[539352,660920],[-25140,-5130],[-66700,-52454],[-17412,-8071]],[[430100,595265],[-4314,373]],[[425786,595638],[-10760,14244],[-413,4651],[6475,261],[-1006,7693],[-15735,-711],[934,-7629],[7584,290],[432,-4810],[10437,-13721]],[[423734,595906],[-42502,3523]],[[381232,599429],[9207,43193]],[[537981,655264],[-18358,-1885],[-7990,-4539],[-1859,-5068],[6361,-9518],[6214,-14662],[-1228,-9969],[-18346,-21461]],[[502775,588162],[-67328,6582]],[[435447,594744],[14509,6673],[66440,52138],[22371,4694]],[[366808,598405],[-3708,-17794],[-18682,1554],[3744,17805]],[[348162,599970],[18646,-1565]],[[366808,598405],[13932,-1208]],[[373816,564710],[-27869,3808],[-40807,24745],[-28552,2993],[-18289,-4037],[-9046,-350],[-13916,-8524]],[[235337,583345],[5411,25150],[24193,-2590],[21250,-815],[61971,-5120]],[[362412,511119],[-67835,5602]],[[294577,516721],[-72149,5942]],[[222428,522663],[6323,28583]],[[228751,551246],[28955,2986],[19428,4543],[70096,-16133],[22311,2177]],[[608513,939486],[-100344,30663]],[[508169,970149],[4092,19030],[16978,4362],[31062,6458],[40956,-30323],[22101,-2433],[37851,29282],[25768,700],[3796,-11836],[-82260,-45903]],[[608513,939486],[-6900,-3825],[-30422,-22426],[-4096,-2593],[-11158,-8069],[-20703,-15181],[-14159,-19697],[-6933,-13901]],[[514142,853794],[-10239,1010],[416,1490],[-3899,408],[-503,-1606],[-16404,1402]],[[483513,856498],[24656,113651]],[[891072,213688],[13595,-3452]],[[904667,210236],[-9659,-9840]],[[895008,200396],[-45536,-4465],[-17137,5709]],[[832335,201640],[17027,4294],[41710,7754]],[[903415,214919],[-1096,-1106],[4394,-1493],[-2046,-2084]],[[891072,213688],[12343,1231]],[[832335,201640],[-3025,905]],[[829310,202545],[-693,2135]],[[828617,204680],[54525,10982]],[[883142,215662],[7930,-1974]],[[906551,218030],[-3136,-3111]],[[883142,215662],[12600,2523],[10809,-155]],[[846100,234038],[9830,-9744],[30763,-4630]],[[886693,219664],[-8115,-1323]],[[878578,218341],[-33992,-5540],[-17688,-3648]],[[826898,209153],[-4900,12878],[24102,12007]],[[878578,218341],[-51274,-10270]],[[827304,208071],[-406,1082]],[[902620,255481],[23711,-1978],[39846,9669]],[[966177,263172],[-14169,-14557],[-11101,4315],[-13259,-13515],[-5932,2316],[-5481,-5809]],[[916235,235922],[-8635,1842],[-7315,-7678]],[[900285,230086],[-8126,-8217]],[[892159,221869],[-1383,37],[-31054,4672],[-9816,11323],[-24211,3712]],[[825695,241613],[76925,13868]],[[900285,230086],[12483,-5889]],[[912768,224197],[-341,-338]],[[912427,223859],[-13342,-2175]],[[899085,221684],[-6926,185]],[[916235,235922],[-3431,-3614],[5813,-2313],[-1712,-1541],[-4137,-4257]],[[909866,221318],[-10781,366]],[[912427,223859],[-2561,-2541]],[[746129,315726],[7689,-820],[4734,-12829],[14749,1560],[9659,-9576],[727,-32849],[17048,-8133]],[[800735,253079],[-1429,-2764],[6891,-8798],[39903,-7479]],[[826898,209153],[-484,-88],[-3469,-1578]],[[822945,207487],[-46863,16654],[-33522,23417],[-10171,6969]],[[827304,208071],[158,-421],[-3102,-673],[-1415,510]],[[722987,211667],[519,2310]],[[731716,251719],[42469,-29584],[45445,-16135]],[[819630,206000],[-12922,-5883]],[[806708,200117],[-66772,-36786],[-11681,-6410],[-12542,-12068],[-2633,-5745]],[[713080,139108],[-5339,1718],[15246,70841]],[[819630,206000],[4489,-1645],[3866,888],[632,-563]],[[829310,202545],[-2544,-3164]],[[826766,199381],[-13520,-6464]],[[813246,192917],[-71640,-44600],[-4456,-3776]],[[737150,144541],[-6126,-4974],[-5437,-4596]],[[725587,134971],[-12507,4137]],[[713080,139108],[9924,10193],[9430,6366],[74274,44450]],[[737150,144541],[76096,48376]],[[826766,199381],[-65017,-76764],[-36162,12354]],[[822945,207487],[-3315,-1487]],[[641273,267815],[652,2177]],[[886693,219664],[12392,2020]],[[909866,221318],[-3315,-3288]],[[800735,253079],[3097,-1399],[5130,-7341],[16733,-2726]],[[382995,319034],[3898,168]],[[550281,281637],[25342,-2174],[56787,-8373],[9515,-1098]],[[641273,267815],[-26377,3527],[-38149,5707],[-26923,2244]],[[457905,287708],[-7664,830]],[[362796,301056],[501,2353]],[[538274,230674],[92695,-8404]],[[722987,211667],[-92559,8657]],[[416437,238897],[-7105,670]],[[557044,310282],[35701,838],[6729,7485],[39816,-8650]],[[639290,309955],[13440,7979]],[[343332,215322],[-10249,-6407],[-30534,-8583]],[[44511,148127],[650,2825]],[[329893,153267],[-21877,-11398],[-17872,810]],[[112084,387979],[32727,-6992],[8970,-3619],[14412,-11119],[20305,-9450]],[[187811,354006],[-1910,722],[-20343,9585],[-14939,11572],[-7131,2871],[-34560,7365]],[[108928,386121],[3156,1858]],[[112084,387979],[3819,2386],[29661,-1328],[6804,8943],[3895,-777],[3261,-5809],[-1026,-8022],[12360,-6320],[13664,-5174],[6902,-1158]],[[71187,269130],[24615,109263]],[[95802,378393],[13126,7728]],[[580277,405401],[134058,-11074],[9791,5660],[21885,32473],[2902,272]],[[748913,432732],[932,-2251]],[[749845,430481],[-1153,-100],[-21331,-31774],[-9638,-5649]],[[648784,397547],[-142887,12163]],[[485480,411379],[549,2445]],[[813057,279746],[3561,7884],[865,1498]],[[812239,311383],[4544,-1018]],[[807890,261138],[-3272,678]],[[769616,477772],[3839,-329]],[[773455,477443],[-9539,-13836],[4019,-21184],[-2259,-10187],[4059,-12589]],[[769735,419647],[-6955,16550]],[[762780,436197],[1319,6158],[-4194,21548],[9711,13869]],[[769735,419647],[1529,-4576]],[[795142,341511],[-762,1427]],[[767956,400221],[-5915,31311],[-12196,-1051]],[[748913,432732],[13242,1239],[625,2226]],[[749845,430481],[16275,-39116]],[[771402,415700],[-1667,3947]],[[728976,482270],[19937,-49538]],[[498989,473396],[11416,52701],[14244,22585],[13615,5534],[10366,6145],[4939,7239],[92,11131],[-6798,5256]],[[745331,480924],[17449,-44727]],[[770359,478833],[-743,-1061]],[[509277,530920],[13704,21528],[24018,18609]],[[532028,582990],[463,2276]],[[486029,413824],[-3949,294]],[[514997,554714],[12436,5463]],[[701930,585528],[-2907,7434]],[[675399,612312],[-2955,7247]],[[658332,629452],[4227,114]],[[933165,486729],[-7347,-28238],[-9412,260],[-9027,20672],[-20533,17376]],[[481620,411770],[460,2348]],[[455589,371078],[-5795,-703]],[[382962,326300],[-3963,639]],[[276700,431269],[143797,-11966]],[[389838,419333],[-186101,15745]],[[203737,435078],[509,2453],[72454,-6262]],[[368991,328308],[-23060,3058],[-53084,35604]],[[292847,366970],[-8513,1899]],[[225501,389126],[-3342,2140],[-17893,2543],[-2580,-8274],[-8074,1629]],[[193612,387164],[10125,47914]],[[276700,431269],[17877,85452]],[[22381,539258],[200047,-16595]],[[193612,387164],[-19672,3995],[-8741,12045],[-19082,2412],[-3359,-8753],[-15172,1544],[-7112,6568],[-19509,-4045],[-73561,14833],[-9976,8183],[-17428,-1088]],[[0,422858],[3280,15096],[212,13443],[994,1524],[7966,17413],[6462,37996],[1850,26468],[1617,4460]],[[203284,555635],[25467,-4389]],[[22381,539258],[4488,11948],[-266,21992],[5304,5961],[48024,-21042],[106586,344],[16767,-2826]],[[655762,642109],[6797,-12543]],[[658332,629452],[-6711,12337]],[[649967,644989],[-1291,2905]],[[651820,668314],[2758,-6708]],[[633160,720992],[1115,-660],[9666,-8117]],[[630678,724330],[4657,-392]],[[435447,594744],[-5347,521]],[[423734,595906],[2052,-268]],[[502775,588162],[29716,-2896]],[[532028,582990],[-30611,2968]],[[380740,597197],[492,2232]],[[461423,738912],[93293,-7964]],[[390439,642622],[57672,77612],[13312,18678]],[[514142,853794],[-12917,-26488],[5222,-4628],[32795,-4125],[26799,-16941],[33601,-528],[53804,25104],[10003,32437],[30144,13779],[9535,-3122],[8226,-37609],[32269,-37637],[-375,-15749],[-25561,-18965],[-612,-12287],[25257,-16524],[-6674,-15287]],[[627484,724600],[-4287,2729],[-52646,29293],[-4715,2237],[-45516,25023],[1063,699],[-7572,4265],[-1200,-718],[-29706,16420],[-4395,2700]],[[478510,807248],[8812,32199],[-4881,12007],[1072,5044]],[[601361,726854],[-30471,16890],[-4093,1934],[-91442,49949]],[[475355,795627],[3155,11621]],[[461423,738912],[13932,56715]],[[896819,263724],[5801,-8243]],[[639290,309955],[-2937,11541]],[[636353,321496],[19600,10445]],[[278892,362353],[13955,4617]],[[559970,323579],[38685,4932],[13020,-4391],[24678,-2624]],[[95802,378393],[-16335,3005],[-5783,16500],[-36291,8599],[-15034,1868],[-7364,6597],[-14995,7896]],[[794806,68558],[12866,12501]],[[868085,11121],[-46149,-11121],[1559,6324],[7593,7401],[-2846,12853],[-15776,5152],[-29390,-3699],[-11695,8290],[16528,15697],[30793,6545],[-23896,9995]],[[608562,113943],[-3493,-11028],[-12133,6347],[-18034,14208],[-20318,-14679],[-33118,-10020],[-14560,-1294],[-37750,3793],[-18325,5576],[-20577,9033],[-13585,13835]],[[416669,129714],[13310,8083]],[[416669,129714],[-19011,1942],[-42951,135],[-6409,6811],[-38462,-3605],[-24239,1661],[-34890,3579],[-23137,8977],[-19507,-2481],[-13305,-7339],[-28406,-11127],[-30469,-5174],[-24371,13599],[-31211,-10147],[-17709,-9052],[-11811,7270]],[[203284,555635],[29321,15107],[2732,12603]],[[707858,642503],[-438,-13413]],[[684192,629354],[-2093,5292],[-4325,-724],[-3253,7390]],[[668473,629502],[-1237,2871],[4279,623],[-3287,7972],[-4436,-671],[-639,1479]],[[966177,263172],[4347,4362],[19989,-1311],[-6748,-6884]],[[794806,68558],[-17687,1984],[16280,20238],[-1512,483],[11757,12036],[1531,-558],[6515,7107],[29381,29798],[13409,13627],[16593,16167],[-4260,1634],[28195,29322]],[[785571,342325],[-310,1430]]],"bbox":[-12301.256,-13226.41,-10342.638,-10079.598],"transform":{"scale":[0.0019586199586199573,0.0031468151468151467],"translate":[-12301.256,-13226.41]}}
