{"type":"Topology","objects":{"01104-4316-30":{"type":"GeometryCollection","geometries":[{"type":"MultiPolygon","arcs":[[[0,1,2,3,4]]],"properties":{"筆ID":"H000000001","version":"ver1.0","座標系":"任意座標系","測地系判別":null,"地図名":"H14SS033305","地図番号":"N-1","縮尺分母":"500","市区町村コード":"01104","市区町村名":"札幌市白石区","大字コード":"067","丁目コード":"000","小字コード":"0000","予備コード":"00","大字名":"川下","丁目名":null,"小字名":null,"予備名":null,"地番":"1","精度区分":null,"座標値種別":"図上測量","筆界未定構成筆":null,"代表点緯度":109.8325,"代表点経度":87.348511132}},{"type":"MultiPolygon","arcs":[[[5,6,-5]]],"properties":{"筆ID":"H000000002","version":"ver1.0","座標系":"任意座標系","測地系判別":null,"地図名":"H14SS033305","地図番号":"N-1","縮尺分母":"500","市区町村コード":"01104","市区町村名":"札幌市白石区","大字コード":"067","丁目コード":"000","小字コード":"0000","予備コード":"00","大字名":"川下","丁目名":null,"小字名":null,"予備名":null,"地番":"2","精度区分":null,"座標値種別":"図上測量","筆界未定構成筆":null,"代表点緯度":152.1085,"代表点経度":77.51332149}},{"type":"MultiPolygon","arcs":[[[-7,7,8,-1]]],"properties":{"筆ID":"H000000003","version":"ver1.0","座標系":"任意座標系","測地系判別":null,"地図名":"H14SS033305","地図番号":"N-1","縮尺分母":"500","市区町村コード":"01104","市区町村名":"札幌市白石区","大字コード":"067","丁目コード":"000","小字コード":"0000","予備コード":"00","大字名":"川下","丁目名":null,"小字名":null,"予備名":null,"地番":"3","精度区分":null,"座標値種別":"図上測量","筆界未定構成筆":null,"代表点緯度":63.3795,"代表点経度":142.859201758}},{"type":"MultiPolygon","arcs":[[[-2,-9,9,10]]],"properties":{"筆ID":"H000000004","version":"ver1.0","座標系":"任意座標系","測地系判別":null,"地図名":"H14SS033305","地図番号":"N-1","縮尺分母":"500","市区町村コード":"01104","市区町村名":"札幌市白石区","大字コード":"067","丁目コード":"000","小字コード":"0000","予備コード":"00","大字名":"川下","丁目名":null,"小字名":null,"予備名":null,"地番":"4","精度区分":null,"座標値種別":"図上測量","筆界未定構成筆":null,"代表点緯度":52.7145,"代表点経度":150.768674436}},{"type":"MultiPolygon","arcs":[[[-3,-11,11]]],"properties":{"筆ID":"H000000005","version":"ver1.0","座標系":"任意座標系","測地系判別":null,"地図名":"H14SS033305","地図番号":"N-1","縮尺分母":"500","市区町村コード":"01104","市区町村名":"札幌市白石区","大字コード":"067","丁目コード":"000","小字コード":"0000","予備コード":"00","大字名":"川下","丁目名":null,"小字名":null,"予備名":null,"地番":"5","精度区分":null,"座標値種別":"図上測量","筆界未定構成筆":null,"代表点緯度":45.8145,"代表点経度":155.861572219}}]}},"arcs":[[[814637,181616],[65934,-50917]],[[880571,130699],[49483,-38518]],[[930054,92181],[26412,-20830]],[[956466,71351],[43533,-71351],[-190950,147627],[-229287,178592],[-156526,122655],[-107473,83818],[-71528,56043],[-2189,1103],[-242046,162711],[28161,17644]],[[28161,770193],[239199,-161101],[13526,-10886],[137192,-106630],[248431,-194044],[148128,-115916]],[[28161,770193],[23996,15180],[57923,36626],[31841,20276],[21984,13957],[24830,15748],[17997,11482],[8839,5646],[19506,12438],[10729,6797],[56567,36110],[87476,55546],[8226,-13111],[21886,-35695],[127892,-210022],[44846,-73467],[52568,-86956],[32129,-53066],[24978,-41202],[46158,-74786],[51629,-84916],[67596,-111039]],[[867757,215739],[-53120,-34123]],[[867757,215739],[40497,-66025]],[[908254,149714],[-27683,-19015]],[[908254,149714],[31240,-50965]],[[939494,98749],[-9440,-6568]],[[939494,98749],[16972,-27398]]],"bbox":[1.534,28.696,164.561,238.055],"transform":{"scale":[0.00016302716302716305,0.00020935920935920936],"translate":[1.534,28.696]}}
