{"type":"Topology","objects":{"01517-4503-2.featurecollection":{"type":"GeometryCollection","geometries":[{"type":"Polygon","arcs":[[0,1,2,3,4,5,6,7]],"properties":{"市区町村名":"礼文郡礼文町","大字名":"大字香深村","丁目名":null,"小字名":"字ワウシ","地番":"長狭物不明-1","精度区分":null,"座標系":"任意座標系"}},{"type":"Polygon","arcs":[[8,-5,9,10,11,-11,12,13,-1,14,15,16,-7]],"properties":{"市区町村名":"礼文郡礼文町","大字名":"大字香深村","丁目名":null,"小字名":"字ワウシ","地番":"583-1","精度区分":null,"座標系":"任意座標系"}},{"type":"Polygon","arcs":[[-4,17,18,-13,-10]],"properties":{"市区町村名":"礼文郡礼文町","大字名":"大字香深村","丁目名":null,"小字名":"字ワウシ","地番":"583-2","精度区分":null,"座標系":"任意座標系"}},{"type":"Polygon","arcs":[[19,-16]],"properties":{"市区町村名":"礼文郡礼文町","大字名":"大字香深村","丁目名":null,"小字名":"字ワウシ","地番":"水-1","精度区分":null,"座標系":"任意座標系"}},{"type":"Polygon","arcs":[[-18,-3,20]],"properties":{"市区町村名":"礼文郡礼文町","大字名":"大字香深村","丁目名":null,"小字名":"字ワウシ","地番":"583-3","精度区分":null,"座標系":"任意座標系"}},{"type":"Polygon","arcs":[[-19,-21,-2,-14]],"properties":{"市区町村名":"礼文郡礼文町","大字名":"大字香深村","丁目名":null,"小字名":"字ワウシ","地番":"長狭物不明-2","精度区分":null,"座標系":"任意座標系"}},{"type":"Polygon","arcs":[[-9,-6]],"properties":{"市区町村名":"礼文郡礼文町","大字名":"大字香深村","丁目名":null,"小字名":"字ワウシ","地番":"583-4","精度区分":null,"座標系":"任意座標系"}},{"type":"Polygon","arcs":[[-12]],"properties":{"市区町村名":"礼文郡礼文町","大字名":"大字香深村","丁目名":null,"小字名":"字ワウシ","地番":"583-5","精度区分":null,"座標系":"任意座標系"}}]}},"arcs":[[[907366,921681],[-151529,68155],[-172820,-12562],[-278174,-197266],[-54037,-38085]],[[250806,741923],[-18112,-12766]],[[232694,729157],[-48707,-34327],[-64346,-99727]],[[119641,595103],[-48661,-75413],[-919,-2259]],[[70061,517431],[-58916,-144684],[357439,-146510],[143714,-58288]],[[512298,167949],[61587,-24978]],[[573885,142971],[203518,-81350],[-1518,-50004],[34323,5316],[85931,26203]],[[896139,43136],[-5399,-14747],[-81787,-23359],[-40415,-5030],[1488,58107],[-198726,78624],[-571300,230380],[63274,155871],[117272,178802],[116694,81975],[285163,202505],[175838,13735],[144538,-65811],[4587,-12507]],[[573885,142971],[48453,207348],[-77942,-15857],[-32098,-166513]],[[70061,517431],[27152,-30647],[37863,-24485]],[[135076,462299],[-26635,-43434]],[[108441,418865],[-16364,6120],[-3069,-29803],[11319,-4443],[8114,28126]],[[135076,462299],[16688,39342],[2926,50457]],[[154690,552098],[13959,25362],[39906,80500],[42251,83963]],[[907366,921681],[25007,-68186],[-65460,-19289],[-1853,-547],[479,-14218]],[[865539,819441],[-85601,-7321],[-93845,5006],[-46630,-51861],[-86997,-30663],[-75953,-73876],[-110302,-58993],[-86586,-93102],[90238,78071],[115301,64625],[70345,65999],[93086,34313],[44665,50018],[83323,-5100],[89380,7103]],[[865963,803660],[5046,-239031],[-3942,-103660],[40966,18041],[18060,11105],[23566,14494],[5485,-36190],[44855,-141531],[-61537,-166554],[-42323,-117198]],[[119641,595103],[28498,-34966]],[[148139,560137],[6551,-8039]],[[865539,819441],[424,-15781]],[[232694,729157],[-68411,-139801],[-16144,-29219]]],"bbox":[1224.182,992.869,1898.918,1483.088],"transform":{"scale":[0.0006747366747366746,0.0004902194902194902],"translate":[1224.182,992.869]}}