{"type":"Topology","objects":{"01230-4302-19.featurecollection":{"type":"GeometryCollection","geometries":[{"type":"Polygon","arcs":[[0,1,2,3,4,5]],"properties":{"市区町村名":"登別市","大字名":"鉱山町","丁目名":null,"小字名":null,"地番":"長狭物不明-1","精度区分":null,"座標系":"任意座標系"}},{"type":"Polygon","arcs":[[6,-5,7,8]],"properties":{"市区町村名":"登別市","大字名":"鉱山町","丁目名":null,"小字名":null,"地番":"無地番-1","精度区分":null,"座標系":"任意座標系"}},{"type":"Polygon","arcs":[[9,-3,10,-1,11]],"properties":{"市区町村名":"登別市","大字名":"鉱山町","丁目名":null,"小字名":null,"地番":"無地番-2","精度区分":null,"座標系":"任意座標系"}},{"type":"Polygon","arcs":[[12,13]],"properties":{"市区町村名":"登別市","大字名":"来馬町","丁目名":null,"小字名":null,"地番":"442-3","精度区分":null,"座標系":"任意座標系"}},{"type":"Polygon","arcs":[[14,15,16,17,18,19]],"properties":{"市区町村名":"登別市","大字名":"来馬町","丁目名":null,"小字名":null,"地番":"448-2","精度区分":null,"座標系":"任意座標系"}},{"type":"Polygon","arcs":[[20,21,22,23,24,25,26,27,28,29,30,31,32,33,34,35,-6,36,37,38,39,40,41,42,43,44,45,46,47,48,49]],"properties":{"市区町村名":"登別市","大字名":"来馬町","丁目名":null,"小字名":null,"地番":"440-2","精度区分":null,"座標系":"任意座標系"}},{"type":"Polygon","arcs":[[-21,50,51]],"properties":{"市区町村名":"登別市","大字名":"来馬町","丁目名":null,"小字名":null,"地番":"439-2","精度区分":null,"座標系":"任意座標系"}},{"type":"Polygon","arcs":[[52,53,-22,-52]],"properties":{"市区町村名":"登別市","大字名":"来馬町","丁目名":null,"小字名":null,"地番":"439-1","精度区分":null,"座標系":"任意座標系"}},{"type":"Polygon","arcs":[[54,55,-27,56]],"properties":{"市区町村名":"登別市","大字名":"来馬町","丁目名":null,"小字名":null,"地番":"441-1","精度区分":null,"座標系":"任意座標系"}},{"type":"Polygon","arcs":[[57,58,-30,59]],"properties":{"市区町村名":"登別市","大字名":"来馬町","丁目名":null,"小字名":null,"地番":"443-3","精度区分":null,"座標系":"任意座標系"}},{"type":"Polygon","arcs":[[60,61,-31,-59]],"properties":{"市区町村名":"登別市","大字名":"来馬町","丁目名":null,"小字名":null,"地番":"443-1","精度区分":null,"座標系":"任意座標系"}},{"type":"Polygon","arcs":[[62,63,64,65,-32,-62]],"properties":{"市区町村名":"登別市","大字名":"来馬町","丁目名":null,"小字名":null,"地番":"451-1","精度区分":null,"座標系":"任意座標系"}},{"type":"Polygon","arcs":[[-66,66,-64,67,68,-33]],"properties":{"市区町村名":"登別市","大字名":"来馬町","丁目名":null,"小字名":null,"地番":"454-1","精度区分":null,"座標系":"任意座標系"}},{"type":"Polygon","arcs":[[69,70,-35,71]],"properties":{"市区町村名":"登別市","大字名":"来馬町","丁目名":null,"小字名":null,"地番":"457","精度区分":null,"座標系":"任意座標系"}},{"type":"Polygon","arcs":[[-71,72,-12,-36]],"properties":{"市区町村名":"登別市","大字名":"来馬町","丁目名":null,"小字名":null,"地番":"459","精度区分":null,"座標系":"任意座標系"}},{"type":"Polygon","arcs":[[73,-9,74,75]],"properties":{"市区町村名":"登別市","大字名":"来馬町","丁目名":null,"小字名":null,"地番":"460-2","精度区分":null,"座標系":"任意座標系"}},{"type":"Polygon","arcs":[[76,-38,77,-76,78]],"properties":{"市区町村名":"登別市","大字名":"来馬町","丁目名":null,"小字名":null,"地番":"458","精度区分":null,"座標系":"任意座標系"}},{"type":"Polygon","arcs":[[79,-39,-77,80]],"properties":{"市区町村名":"登別市","大字名":"来馬町","丁目名":null,"小字名":null,"地番":"455","精度区分":null,"座標系":"任意座標系"}},{"type":"Polygon","arcs":[[81,-40,-80,82]],"properties":{"市区町村名":"登別市","大字名":"来馬町","丁目名":null,"小字名":null,"地番":"452-3","精度区分":null,"座標系":"任意座標系"}},{"type":"Polygon","arcs":[[-41,-82,83,84]],"properties":{"市区町村名":"登別市","大字名":"来馬町","丁目名":null,"小字名":null,"地番":"452-1","精度区分":null,"座標系":"任意座標系"}},{"type":"Polygon","arcs":[[-85,85,86,-42]],"properties":{"市区町村名":"登別市","大字名":"来馬町","丁目名":null,"小字名":null,"地番":"452-2","精度区分":null,"座標系":"任意座標系"}},{"type":"Polygon","arcs":[[-19,87,-43,-87,88]],"properties":{"市区町村名":"登別市","大字名":"来馬町","丁目名":null,"小字名":null,"地番":"448-1","精度区分":null,"座標系":"任意座標系"}},{"type":"Polygon","arcs":[[89,90,-15]],"properties":{"市区町村名":"登別市","大字名":"来馬町","丁目名":null,"小字名":null,"地番":"448-3","精度区分":null,"座標系":"任意座標系"}},{"type":"Polygon","arcs":[[91,92,93,94,95,96,97,-46]],"properties":{"市区町村名":"登別市","大字名":"来馬町","丁目名":null,"小字名":null,"地番":"444-1","精度区分":null,"座標系":"任意座標系"}},{"type":"Polygon","arcs":[[98,-96]],"properties":{"市区町村名":"登別市","大字名":"来馬町","丁目名":null,"小字名":null,"地番":"444-6","精度区分":null,"座標系":"任意座標系"}},{"type":"Polygon","arcs":[[99,100,101]],"properties":{"市区町村名":"登別市","大字名":"来馬町","丁目名":null,"小字名":null,"地番":"442-2","精度区分":null,"座標系":"任意座標系"}},{"type":"Polygon","arcs":[[102,-48,103,-100,104,-13,105]],"properties":{"市区町村名":"登別市","大字名":"来馬町","丁目名":null,"小字名":null,"地番":"442-1","精度区分":null,"座標系":"任意座標系"}},{"type":"Polygon","arcs":[[106,107]],"properties":{"市区町村名":"登別市","大字名":"来馬町","丁目名":null,"小字名":null,"地番":"440-4","精度区分":null,"座標系":"任意座標系"}},{"type":"Polygon","arcs":[[108,109]],"properties":{"市区町村名":"登別市","大字名":"来馬町","丁目名":null,"小字名":null,"地番":"440-3","精度区分":null,"座標系":"任意座標系"}},{"type":"Polygon","arcs":[[-37,-7,-74,-78]],"properties":{"市区町村名":"登別市","大字名":"来馬町","丁目名":null,"小字名":null,"地番":"460","精度区分":null,"座標系":"任意座標系"}},{"type":"Polygon","arcs":[[110,-49,-103,111,-107,112,-109]],"properties":{"市区町村名":"登別市","大字名":"来馬町","丁目名":null,"小字名":null,"地番":"440-1","精度区分":null,"座標系":"任意座標系"}},{"type":"Polygon","arcs":[[113,114,-24,115]],"properties":{"市区町村名":"登別市","大字名":"来馬町","丁目名":null,"小字名":null,"地番":"441-4","精度区分":null,"座標系":"任意座標系"}},{"type":"Polygon","arcs":[[116,117,-57,-26]],"properties":{"市区町村名":"登別市","大字名":"来馬町","丁目名":null,"小字名":null,"地番":"441-3","精度区分":null,"座標系":"任意座標系"}},{"type":"Polygon","arcs":[[-69,118,-72,-34]],"properties":{"市区町村名":"登別市","大字名":"来馬町","丁目名":null,"小字名":null,"地番":"454-2","精度区分":null,"座標系":"任意座標系"}},{"type":"Polygon","arcs":[[-65,119]],"properties":{"市区町村名":"登別市","大字名":"来馬町","丁目名":null,"小字名":null,"地番":"453-1","精度区分":null,"座標系":"任意座標系"}},{"type":"Polygon","arcs":[[-120,-67]],"properties":{"市区町村名":"登別市","大字名":"来馬町","丁目名":null,"小字名":null,"地番":"456","精度区分":null,"座標系":"任意座標系"}},{"type":"Polygon","arcs":[[120,121,-60,-29]],"properties":{"市区町村名":"登別市","大字名":"来馬町","丁目名":null,"小字名":null,"地番":"443-4","精度区分":null,"座標系":"任意座標系"}},{"type":"Polygon","arcs":[[122,-121,-28,-56]],"properties":{"市区町村名":"登別市","大字名":"来馬町","丁目名":null,"小字名":null,"地番":"443-2","精度区分":null,"座標系":"任意座標系"}},{"type":"Polygon","arcs":[[-115,123,-117,-25]],"properties":{"市区町村名":"登別市","大字名":"来馬町","丁目名":null,"小字名":null,"地番":"441-2","精度区分":null,"座標系":"任意座標系"}},{"type":"Polygon","arcs":[[-54,124,-116,-23]],"properties":{"市区町村名":"登別市","大字名":"来馬町","丁目名":null,"小字名":null,"地番":"439-3","精度区分":null,"座標系":"任意座標系"}},{"type":"Polygon","arcs":[[-104,-47,-98,125,126]],"properties":{"市区町村名":"登別市","大字名":"来馬町","丁目名":null,"小字名":null,"地番":"444-2","精度区分":null,"座標系":"任意座標系"}},{"type":"Polygon","arcs":[[-127,127,-101]],"properties":{"市区町村名":"登別市","大字名":"来馬町","丁目名":null,"小字名":null,"地番":"444-5","精度区分":null,"座標系":"任意座標系"}},{"type":"Polygon","arcs":[[-45,128,129,-92]],"properties":{"市区町村名":"登別市","大字名":"来馬町","丁目名":null,"小字名":null,"地番":"446-1","精度区分":null,"座標系":"任意座標系"}},{"type":"Polygon","arcs":[[-129,-44,-88,-18]],"properties":{"市区町村名":"登別市","大字名":"来馬町","丁目名":null,"小字名":null,"地番":"450","精度区分":null,"座標系":"任意座標系"}},{"type":"Polygon","arcs":[[-91,130,131]],"properties":{"市区町村名":"登別市","大字名":"来馬町","丁目名":null,"小字名":null,"地番":"444-7","精度区分":null,"座標系":"任意座標系"}},{"type":"Polygon","arcs":[[132,-16,-132,133,-94]],"properties":{"市区町村名":"登別市","大字名":"来馬町","丁目名":null,"小字名":null,"地番":"444-4","精度区分":null,"座標系":"任意座標系"}},{"type":"Polygon","arcs":[[-93,-130,-17,-133]],"properties":{"市区町村名":"登別市","大字名":"来馬町","丁目名":null,"小字名":null,"地番":"444-3","精度区分":null,"座標系":"任意座標系"}}]}},"arcs":[[[539359,871626],[30998,14208],[-4179,36683]],[[566178,922517],[-2347,14644]],[[563831,937161],[-2699,18005],[-68261,41936]],[[492871,997102],[5678,2897]],[[498549,999999],[69926,-43542],[508,-3255],[34084,616],[-127,-2710],[-33529,-1266],[9230,-65944],[-29686,-13515]],[[548955,870383],[-9596,1243]],[[602958,862904],[-54003,7479]],[[498549,999999],[355550,-109384],[145900,-45750],[-22984,-20011],[-4252,-15506]],[[972763,809348],[-205156,30038],[-164649,23518]],[[341570,899844],[-30083,27140],[181384,70118]],[[563831,937161],[-58691,-1683],[3115,-14000],[57923,1039]],[[539359,871626],[-197789,28218]],[[598573,189272],[-965,20612]],[[597608,209884],[15035,-15837],[-14070,-4775]],[[616807,400163],[2065,-5787]],[[618872,394376],[-90904,256]],[[527968,394632],[-85119,185]],[[442849,394817],[-10495,15446]],[[432354,410263],[164145,-25]],[[596499,410238],[11025,-6865],[9283,-3210]],[[617959,69915],[-127677,18327]],[[490282,88242],[-122430,20157],[-78969,7673],[-4633,44944],[3871,7361]],[[288121,168377],[4183,7955]],[[292304,176332],[2949,5611],[15292,9534]],[[310545,191477],[67767,42248]],[[378312,233725],[37307,23259]],[[415619,256984],[-7064,32149]],[[408555,289133],[-6251,25968]],[[402304,315101],[-1610,7029]],[[400694,322130],[-5131,22393]],[[395563,344523],[-47478,193633]],[[348085,538156],[-20252,83895]],[[327833,622051],[-7632,29826],[29407,31757]],[[349608,683634],[13771,14756]],[[363379,698390],[73038,77178]],[[436417,775568],[10960,11666],[46619,21762],[-4214,39908],[49577,22722]],[[548955,870383],[-50557,-23302],[4609,-39651],[-50691,-22552],[-8508,-9076]],[[443808,775802],[-72674,-77527]],[[371134,698275],[-44094,-46623],[6871,-29087]],[[333911,622565],[4274,-18820]],[[338185,603745],[14729,-58378]],[[352914,545367],[6252,-26880]],[[359166,518487],[26008,-101763]],[[385174,416724],[5524,-21730]],[[390698,394994],[7070,-28785]],[[397768,366209],[10524,-41148]],[[408292,325061],[8592,-35780]],[[416884,289281],[7860,-33445],[-119531,-73956],[-3044,-5610]],[[302169,176270],[-9153,-16067],[4207,-40138],[70454,-7361],[122232,-19886],[132821,-19459]],[[622730,73359],[-4771,-3444]],[[617959,69915],[-3156,-12043],[-95985,-832],[-101520,-32393]],[[417298,24647],[72984,63595]],[[417298,24647],[-77245,-24647],[-126688,26986],[-139655,38200],[-59987,-5164],[91068,99296],[2165,7706]],[[106956,167024],[181165,1353]],[[136575,253202],[2193,6479],[-2821,27708]],[[135947,287389],[272608,1744]],[[415619,256984],[-279044,-3782]],[[133427,318074],[-269,13529],[3770,9711]],[[136928,341314],[258635,3209]],[[400694,322130],[-267267,-4056]],[[136928,341314],[45326,116764],[-3601,46203],[-12442,32186]],[[166211,536467],[181874,1689]],[[166211,536467],[-33068,85754]],[[133143,622221],[53504,191]],[[186647,622412],[1135,-10655],[95473,10441]],[[283255,622198],[44578,-147]],[[283255,622198],[29029,2971],[-53976,34730],[-44214,5797],[-29792,-21261],[2345,-22023]],[[133143,622221],[-53104,39265],[-5972,22607]],[[74067,684093],[275541,-459]],[[70294,698380],[-7301,27644],[-19999,46542]],[[42994,772566],[393423,3002]],[[363379,698390],[-293085,-10]],[[42994,772566],[-42994,100059],[341570,27219]],[[607514,777033],[-4556,85871]],[[972763,809348],[-15283,-29683]],[[957480,779665],[-349966,-2632]],[[822722,698191],[-451588,84]],[[443808,775802],[163706,1231]],[[957480,779665],[-4577,-8888],[-99985,-37697],[-30196,-34889]],[[741424,622449],[-407513,116]],[[822722,698191],[-22451,-25940],[5825,-24241],[-47164,-14050],[-17508,-11511]],[[714785,604933],[-376600,-1188]],[[741424,622449],[-26639,-17516]],[[714785,604933],[2800,-14645],[-43082,-14287],[-37407,-29458]],[[637096,546543],[-284182,-1176]],[[637096,546543],[-10656,-8614],[4184,-17439]],[[630624,520490],[-271458,-2003]],[[432354,410263],[-4196,6176],[-42984,285]],[[630624,520490],[-32366,-9696],[9029,-30656],[-43965,-22724],[14918,-35808],[18259,-11368]],[[616807,400163],[17353,-5999]],[[634160,394164],[-15288,212]],[[397768,366209],[64541,-34],[-3044,4481]],[[459265,370656],[73835,507]],[[533100,371163],[91346,626]],[[624446,371789],[-7157,-17015],[18050,-7920]],[[635339,346854],[5231,-16732]],[[640570,330122],[-11668,-2506]],[[628902,327616],[-220610,-2555]],[[635339,346854],[28533,-12278],[-23302,-4454]],[[598157,254565],[11323,28138],[6707,7697]],[[616187,290400],[25588,144]],[[641775,290544],[3492,-10269],[-47110,-25710]],[[587745,177772],[-285576,-1502]],[[416884,289281],[199303,1119]],[[598157,254565],[-16572,-27805],[16023,-16876]],[[598573,189272],[-7426,-2521],[-3402,-8979]],[[602817,147256],[-37579,-2315],[3299,20112],[14254,-359]],[[582791,164694],[-3379,-8920],[23405,-8518]],[[625693,75496],[-31575,4656],[-18495,22866],[2765,18575],[28994,24002]],[[607382,145595],[25842,-9405],[7660,-49732],[-15191,-10962]],[[625693,75496],[-2963,-2137]],[[587745,177772],[-4954,-13078]],[[602817,147256],[4565,-1661]],[[109800,175295],[4840,13727]],[[114640,189022],[195905,2455]],[[292304,176332],[-182504,-1037]],[[378312,233725],[-247788,1604]],[[130524,235329],[6051,17873]],[[74067,684093],[-3773,14287]],[[186647,622412],[96608,-214]],[[402304,315101],[-268335,-3820]],[[133969,311281],[-542,6793]],[[135947,287389],[-1978,23892]],[[114640,189022],[15884,46307]],[[106956,167024],[2844,8271]],[[628902,327616],[5725,-16057]],[[634627,311559],[-18440,-21159]],[[634627,311559],[7148,-21015]],[[390698,394994],[52151,-177]],[[442849,394817],[16416,-24161]],[[634160,394164],[-8944,-20031]],[[625216,374133],[-6344,20243]],[[533100,371163],[-5132,23469]],[[625216,374133],[-770,-2344]]],"bbox":[8728.114,1987.398,9613.607,3865.866],"transform":{"scale":[0.0008854938854938858,0.0018784698784698785],"translate":[8728.114,1987.398]}}