{"type":"Topology","objects":{"01230-4302-20.featurecollection":{"type":"GeometryCollection","geometries":[{"type":"Polygon","arcs":[[0,1,2,3,4,5]],"properties":{"市区町村名":"登別市","大字名":"上鷲別町","丁目名":null,"小字名":null,"地番":"234","精度区分":null,"座標系":"任意座標系"}},{"type":"Polygon","arcs":[[6,7,8,9,10,11,12,13,14,15]],"properties":{"市区町村名":"登別市","大字名":"上鷲別町","丁目名":null,"小字名":null,"地番":"233","精度区分":null,"座標系":"任意座標系"}},{"type":"Polygon","arcs":[[16,17,18,19,-8]],"properties":{"市区町村名":"登別市","大字名":"上鷲別町","丁目名":null,"小字名":null,"地番":"長狭物不明-2","精度区分":null,"座標系":"任意座標系"}},{"type":"Polygon","arcs":[[20,21,22,23,-13]],"properties":{"市区町村名":"登別市","大字名":"上鷲別町","丁目名":null,"小字名":null,"地番":"213-1","精度区分":null,"座標系":"任意座標系"}},{"type":"Polygon","arcs":[[24,25,-15]],"properties":{"市区町村名":"登別市","大字名":"上鷲別町","丁目名":null,"小字名":null,"地番":"213-3","精度区分":null,"座標系":"任意座標系"}},{"type":"Polygon","arcs":[[-11,26,27,28]],"properties":{"市区町村名":"登別市","大字名":"上鷲別町","丁目名":null,"小字名":null,"地番":"209","精度区分":null,"座標系":"任意座標系"}},{"type":"Polygon","arcs":[[29,30,31]],"properties":{"市区町村名":"登別市","大字名":"上鷲別町","丁目名":null,"小字名":null,"地番":"235","精度区分":null,"座標系":"任意座標系"}},{"type":"Polygon","arcs":[[32,33,34,35,-30,36]],"properties":{"市区町村名":"登別市","大字名":"上鷲別町","丁目名":null,"小字名":null,"地番":"207-4","精度区分":null,"座標系":"任意座標系"}},{"type":"Polygon","arcs":[[37,-18]],"properties":{"市区町村名":"登別市","大字名":"上鷲別町","丁目名":null,"小字名":null,"地番":"204-2","精度区分":null,"座標系":"任意座標系"}},{"type":"Polygon","arcs":[[38,-9,-20,39]],"properties":{"市区町村名":"登別市","大字名":"上鷲別町","丁目名":null,"小字名":null,"地番":"205","精度区分":null,"座標系":"任意座標系"}},{"type":"Polygon","arcs":[[40,-34]],"properties":{"市区町村名":"登別市","大字名":"上鷲別町","丁目名":null,"小字名":null,"地番":"240-3","精度区分":null,"座標系":"任意座標系"}},{"type":"Polygon","arcs":[[41,42,-35]],"properties":{"市区町村名":"登別市","大字名":"上鷲別町","丁目名":null,"小字名":null,"地番":"207-3","精度区分":null,"座標系":"任意座標系"}},{"type":"Polygon","arcs":[[43,44,-42,-41,45]],"properties":{"市区町村名":"登別市","大字名":"上鷲別町","丁目名":null,"小字名":null,"地番":"240-2","精度区分":null,"座標系":"任意座標系"}},{"type":"Polygon","arcs":[[46,-46,-33,47]],"properties":{"市区町村名":"登別市","大字名":"上鷲別町","丁目名":null,"小字名":null,"地番":"207-2","精度区分":null,"座標系":"任意座標系"}},{"type":"Polygon","arcs":[[48,-47,49,50]],"properties":{"市区町村名":"登別市","大字名":"上鷲別町","丁目名":null,"小字名":null,"地番":"207-5","精度区分":null,"座標系":"任意座標系"}},{"type":"Polygon","arcs":[[51,-44,-49,52]],"properties":{"市区町村名":"登別市","大字名":"上鷲別町","丁目名":null,"小字名":null,"地番":"240-4","精度区分":null,"座標系":"任意座標系"}},{"type":"Polygon","arcs":[[53,-4,54]],"properties":{"市区町村名":"登別市","大字名":"上鷲別町","丁目名":null,"小字名":null,"地番":"208","精度区分":null,"座標系":"任意座標系"}},{"type":"Polygon","arcs":[[-55,-3,55,56,57]],"properties":{"市区町村名":"登別市","大字名":"上鷲別町","丁目名":null,"小字名":null,"地番":"210","精度区分":null,"座標系":"任意座標系"}},{"type":"Polygon","arcs":[[58,59,-56,-2]],"properties":{"市区町村名":"登別市","大字名":"上鷲別町","丁目名":null,"小字名":null,"地番":"212-1","精度区分":null,"座標系":"任意座標系"}},{"type":"Polygon","arcs":[[-60,60,-57]],"properties":{"市区町村名":"登別市","大字名":"上鷲別町","丁目名":null,"小字名":null,"地番":"212-2","精度区分":null,"座標系":"任意座標系"}},{"type":"Polygon","arcs":[[-12,-29,61,-21]],"properties":{"市区町村名":"登別市","大字名":"上鷲別町","丁目名":null,"小字名":null,"地番":"211","精度区分":null,"座標系":"任意座標系"}},{"type":"Polygon","arcs":[[62,63,-23]],"properties":{"市区町村名":"登別市","大字名":"上鷲別町","丁目名":null,"小字名":null,"地番":"213-2","精度区分":null,"座標系":"任意座標系"}},{"type":"Polygon","arcs":[[-25,-14,-24,-64]],"properties":{"市区町村名":"登別市","大字名":"上鷲別町","丁目名":null,"小字名":null,"地番":"215-2","精度区分":null,"座標系":"任意座標系"}},{"type":"Polygon","arcs":[[64,-16,-26,-63,-22,-62,-28,65,-50,-48,-37,-32,66,-5,-54,-58,-61,-59,-1]],"properties":{"市区町村名":"登別市","大字名":"上鷲別町","丁目名":null,"小字名":null,"地番":"長狭物不明-1","精度区分":null,"座標系":"任意座標系"}},{"type":"Polygon","arcs":[[-39,67,68,-51,-66,-27,-10]],"properties":{"市区町村名":"登別市","大字名":"上鷲別町","丁目名":null,"小字名":null,"地番":"207-1","精度区分":null,"座標系":"任意座標系"}},{"type":"Polygon","arcs":[[69,-53,-69]],"properties":{"市区町村名":"登別市","大字名":"上鷲別町","丁目名":null,"小字名":null,"地番":"240-1","精度区分":null,"座標系":"任意座標系"}}]}},"arcs":[[[326964,507],[-2695,15491]],[[324269,15998],[633605,46872],[-150149,238101]],[[807725,300971],[-80764,127378]],[[726961,428349],[-89259,141363]],[[637702,569712],[33881,2306]],[[671583,572018],[328416,-522246],[-673035,-49265]],[[305606,0],[-159976,63172],[-63804,367271],[10081,173750],[-91907,160934],[24712,7478]],[[24712,772605],[4956,1500]],[[29668,774105],[58741,-100536]],[[88409,673569],[39210,-67107],[-5621,-59338]],[[121998,547124],[-6212,-108534],[8006,-51518]],[[123792,387072],[20508,-131943]],[[144300,255129],[28246,-181735]],[[172546,73394],[62817,-24628]],[[235363,48766],[66314,-25999]],[[301677,22767],[3929,-22767]],[[24712,772605],[-1361,9751]],[[23351,782356],[147744,47809]],[[171095,830165],[1478,-12282]],[[172573,817883],[-142905,-43778]],[[144300,255129],[115430,7160]],[[259730,262289],[1311,-7485]],[[261041,254804],[-60319,-122684]],[[200722,132120],[-28176,-58726]],[[235363,48766],[46171,89020]],[[281534,137786],[20143,-115019]],[[121998,547124],[86263,5411]],[[208261,552535],[27926,-157478]],[[236187,395057],[-112395,-7985]],[[629507,581609],[-10528,15839],[43055,2470]],[[662034,599918],[5129,-15710]],[[667163,584208],[-37656,-2599]],[[513905,573631],[19539,67321]],[[533444,640952],[36660,6647],[-19299,33354]],[[550805,680953],[36112,72015]],[[586917,752968],[48700,-72136],[26417,-80914]],[[629507,581609],[-115602,-7978]],[[23351,782356],[-23108,165578],[154590,52065],[16262,-169834]],[[188064,689155],[-99655,-15586]],[[172573,817883],[15491,-128728]],[[533444,640952],[17361,40001]],[[550805,680953],[-34995,60482]],[[515810,741435],[71107,11533]],[[450482,625912],[51533,113323]],[[502015,739235],[13795,2200]],[[533444,640952],[-82962,-15040]],[[432857,568037],[17625,57875]],[[513905,573631],[-81048,-5594]],[[439228,623872],[11254,2040]],[[432857,568037],[-8123,-561]],[[424734,567476],[14494,56396]],[[481364,735941],[20651,3294]],[[439228,623872],[42136,112069]],[[256949,396115],[-26692,145855],[407445,27742]],[[726961,428349],[-470012,-32234]],[[807725,300971],[-462018,-32388]],[[345707,268583],[-64588,-4528]],[[281119,264055],[-24170,132060]],[[324269,15998],[-27261,156715]],[[297008,172713],[48699,95870]],[[297008,172713],[-15889,91342]],[[236187,395057],[23543,-132768]],[[261041,254804],[20493,-117018]],[[281534,137786],[-80812,-5666]],[[326964,507],[-21358,-507]],[[208261,552535],[216473,14941]],[[667163,584208],[4420,-12190]],[[188064,689155],[92871,14814]],[[280935,703969],[66440,-96749],[91853,16652]],[[280935,703969],[200429,31972]]],"bbox":[1434.947,247.026,1994.143,1312.881],"transform":{"scale":[0.0005591965591965594,0.0010658560658560658],"translate":[1434.947,247.026]}}