{"type":"Topology","objects":{"01106-4307-54.featurecollection":{"type":"GeometryCollection","geometries":[{"type":"Polygon","arcs":[[0,1,2,3,4,5,6,7,8]],"properties":{"市区町村名":"札幌市南区","大字名":"簾舞","丁目名":null,"小字名":null,"地番":"514","精度区分":null,"座標系":"任意座標系"}},{"type":"Polygon","arcs":[[9,10,11,12]],"properties":{"市区町村名":"札幌市南区","大字名":"簾舞","丁目名":null,"小字名":null,"地番":"515","精度区分":null,"座標系":"任意座標系"}},{"type":"Polygon","arcs":[[13,14,15,16,17,18,19]],"properties":{"市区町村名":"札幌市南区","大字名":"簾舞","丁目名":null,"小字名":null,"地番":"516","精度区分":null,"座標系":"任意座標系"}},{"type":"Polygon","arcs":[[-2,20]],"properties":{"市区町村名":"札幌市南区","大字名":"簾舞","丁目名":null,"小字名":null,"地番":"517","精度区分":null,"座標系":"任意座標系"}},{"type":"Polygon","arcs":[[-16,21]],"properties":{"市区町村名":"札幌市南区","大字名":"簾舞","丁目名":null,"小字名":null,"地番":"522","精度区分":null,"座標系":"任意座標系"}},{"type":"Polygon","arcs":[[22,23,24,25,26,27,28]],"properties":{"市区町村名":"札幌市南区","大字名":"簾舞","丁目名":null,"小字名":null,"地番":"523","精度区分":null,"座標系":"任意座標系"}},{"type":"Polygon","arcs":[[29,30,31]],"properties":{"市区町村名":"札幌市南区","大字名":"簾舞","丁目名":null,"小字名":null,"地番":"525","精度区分":null,"座標系":"任意座標系"}},{"type":"Polygon","arcs":[[32,33,34,35]],"properties":{"市区町村名":"札幌市南区","大字名":"簾舞","丁目名":null,"小字名":null,"地番":"526","精度区分":null,"座標系":"任意座標系"}},{"type":"Polygon","arcs":[[-25,36,37]],"properties":{"市区町村名":"札幌市南区","大字名":"簾舞","丁目名":null,"小字名":null,"地番":"527","精度区分":null,"座標系":"任意座標系"}},{"type":"Polygon","arcs":[[38,39,40,41]],"properties":{"市区町村名":"札幌市南区","大字名":"簾舞","丁目名":null,"小字名":null,"地番":"529","精度区分":null,"座標系":"任意座標系"}},{"type":"Polygon","arcs":[[42,43,44,45]],"properties":{"市区町村名":"札幌市南区","大字名":"簾舞","丁目名":null,"小字名":null,"地番":"530","精度区分":null,"座標系":"任意座標系"}},{"type":"Polygon","arcs":[[46,47,48]],"properties":{"市区町村名":"札幌市南区","大字名":"簾舞","丁目名":null,"小字名":null,"地番":"532","精度区分":null,"座標系":"任意座標系"}},{"type":"Polygon","arcs":[[49,-49,50]],"properties":{"市区町村名":"札幌市南区","大字名":"簾舞","丁目名":null,"小字名":null,"地番":"533","精度区分":null,"座標系":"任意座標系"}},{"type":"Polygon","arcs":[[-28,51,52,53]],"properties":{"市区町村名":"札幌市南区","大字名":"簾舞","丁目名":null,"小字名":null,"地番":"534","精度区分":null,"座標系":"任意座標系"}},{"type":"Polygon","arcs":[[-35,54,55,56,-30,57]],"properties":{"市区町村名":"札幌市南区","大字名":"簾舞","丁目名":null,"小字名":null,"地番":"656","精度区分":null,"座標系":"任意座標系"}},{"type":"Polygon","arcs":[[58,-52,-27,59]],"properties":{"市区町村名":"札幌市南区","大字名":"簾舞","丁目名":null,"小字名":null,"地番":"659","精度区分":null,"座標系":"任意座標系"}},{"type":"Polygon","arcs":[[60,61,62,63]],"properties":{"市区町村名":"札幌市南区","大字名":"簾舞","丁目名":null,"小字名":null,"地番":"無地番-6","精度区分":null,"座標系":"任意座標系"}},{"type":"Polygon","arcs":[[-63,64,65,66,67,68,-41,69,-46]],"properties":{"市区町村名":"札幌市南区","大字名":"簾舞","丁目名":null,"小字名":null,"地番":"無地番-7","精度区分":null,"座標系":"任意座標系"}},{"type":"Polygon","arcs":[[70,71]],"properties":{"市区町村名":"札幌市南区","大字名":"簾舞","丁目名":null,"小字名":null,"地番":"無地番-9","精度区分":null,"座標系":"任意座標系"}},{"type":"Polygon","arcs":[[72,73]],"properties":{"市区町村名":"札幌市南区","大字名":"簾舞","丁目名":null,"小字名":null,"地番":"無地番-10","精度区分":null,"座標系":"任意座標系"}},{"type":"Polygon","arcs":[[74,75,-61,76,-23]],"properties":{"市区町村名":"札幌市南区","大字名":"簾舞","丁目名":null,"小字名":null,"地番":"無地番-291","精度区分":null,"座標系":"任意座標系"}},{"type":"Polygon","arcs":[[-70,77]],"properties":{"市区町村名":"札幌市南区","大字名":"簾舞","丁目名":null,"小字名":null,"地番":"無地番-292","精度区分":null,"座標系":"任意座標系"}},{"type":"Polygon","arcs":[[-12,78,79,80,81,-18,82,-8,-74,83,-71]],"properties":{"市区町村名":"札幌市南区","大字名":"簾舞","丁目名":null,"小字名":null,"地番":"無地番-294","精度区分":null,"座標系":"任意座標系"}},{"type":"Polygon","arcs":[[84,-31,-57,85]],"properties":{"市区町村名":"札幌市南区","大字名":"簾舞","丁目名":null,"小字名":null,"地番":"無地番-298","精度区分":null,"座標系":"任意座標系"}},{"type":"Polygon","arcs":[[86,87]],"properties":{"市区町村名":"札幌市南区","大字名":"豊滝","丁目名":null,"小字名":null,"地番":"234W1","精度区分":null,"座標系":"任意座標系"}},{"type":"Polygon","arcs":[[88,89,90,91,92]],"properties":{"市区町村名":"札幌市南区","大字名":"豊滝","丁目名":null,"小字名":null,"地番":"235W2","精度区分":null,"座標系":"任意座標系"}},{"type":"Polygon","arcs":[[93,-88,-91]],"properties":{"市区町村名":"札幌市南区","大字名":"豊滝","丁目名":null,"小字名":null,"地番":"236W1","精度区分":null,"座標系":"任意座標系"}},{"type":"Polygon","arcs":[[94,-92,95]],"properties":{"市区町村名":"札幌市南区","大字名":"豊滝","丁目名":null,"小字名":null,"地番":"399","精度区分":null,"座標系":"任意座標系"}},{"type":"Polygon","arcs":[[-95,96,97,-93]],"properties":{"市区町村名":"札幌市南区","大字名":"豊滝","丁目名":null,"小字名":null,"地番":"704","精度区分":null,"座標系":"任意座標系"}},{"type":"Polygon","arcs":[[-89,-98,98]],"properties":{"市区町村名":"札幌市南区","大字名":"豊滝","丁目名":null,"小字名":null,"地番":"707","精度区分":null,"座標系":"任意座標系"}},{"type":"Polygon","arcs":[[99,-97]],"properties":{"市区町村名":"札幌市南区","大字名":"豊滝","丁目名":null,"小字名":null,"地番":"無地番-13","精度区分":null,"座標系":"任意座標系"}},{"type":"Polygon","arcs":[[100,101]],"properties":{"市区町村名":"札幌市南区","大字名":"簾舞","丁目名":null,"小字名":null,"地番":"724","精度区分":null,"座標系":"任意座標系"}},{"type":"Polygon","arcs":[[102,-102,103,104]],"properties":{"市区町村名":"札幌市南区","大字名":"簾舞","丁目名":null,"小字名":null,"地番":"721","精度区分":null,"座標系":"任意座標系"}},{"type":"Polygon","arcs":[[-29,105]],"properties":{"市区町村名":"札幌市南区","大字名":"簾舞","丁目名":null,"小字名":null,"地番":"723","精度区分":null,"座標系":"任意座標系"}},{"type":"Polygon","arcs":[[106,-53,107]],"properties":{"市区町村名":"札幌市南区","大字名":"簾舞","丁目名":null,"小字名":null,"地番":"722","精度区分":null,"座標系":"任意座標系"}},{"type":"Polygon","arcs":[[108,-14,109]],"properties":{"市区町村名":"札幌市南区","大字名":"簾舞","丁目名":null,"小字名":null,"地番":"720","精度区分":null,"座標系":"任意座標系"}},{"type":"Polygon","arcs":[[110,-42,111,-68]],"properties":{"市区町村名":"札幌市南区","大字名":"簾舞","丁目名":null,"小字名":null,"地番":"726","精度区分":null,"座標系":"任意座標系"}},{"type":"Polygon","arcs":[[-43,112,-40,113]],"properties":{"市区町村名":"札幌市南区","大字名":"簾舞","丁目名":null,"小字名":null,"地番":"727","精度区分":null,"座標系":"任意座標系"}},{"type":"Polygon","arcs":[[114,-4]],"properties":{"市区町村名":"札幌市南区","大字名":"簾舞","丁目名":null,"小字名":null,"地番":"729","精度区分":null,"座標系":"任意座標系"}},{"type":"Polygon","arcs":[[115,-10,116,-6]],"properties":{"市区町村名":"札幌市南区","大字名":"簾舞","丁目名":null,"小字名":null,"地番":"730","精度区分":null,"座標系":"任意座標系"}},{"type":"Polygon","arcs":[[-117,-13,-72,-84,-73,-7]],"properties":{"市区町村名":"札幌市南区","大字名":"簾舞","丁目名":null,"小字名":null,"地番":"731","精度区分":null,"座標系":"任意座標系"}},{"type":"Polygon","arcs":[[117,-55,-34,118]],"properties":{"市区町村名":"札幌市南区","大字名":"簾舞","丁目名":null,"小字名":null,"地番":"732","精度区分":null,"座標系":"任意座標系"}},{"type":"Polygon","arcs":[[119,-82]],"properties":{"市区町村名":"札幌市南区","大字名":"簾舞","丁目名":null,"小字名":null,"地番":"無地番-297","精度区分":null,"座標系":"任意座標系"}},{"type":"Polygon","arcs":[[120,-80]],"properties":{"市区町村名":"札幌市南区","大字名":"簾舞","丁目名":null,"小字名":null,"地番":"無地番-297-1","精度区分":null,"座標系":"任意座標系"}},{"type":"Polygon","arcs":[[121,-19,-120,-81,-121,-79,-11,-116,-5,-115,-3,-21,-1]],"properties":{"市区町村名":"札幌市南区","大字名":"簾舞","丁目名":null,"小字名":null,"地番":"728","精度区分":null,"座標系":"任意座標系"}},{"type":"Polygon","arcs":[[-45,122,-47,-50,123,-37,-24,-77,-64]],"properties":{"市区町村名":"札幌市南区","大字名":"簾舞","丁目名":null,"小字名":null,"地番":"658","精度区分":null,"座標系":"任意座標系"}},{"type":"Polygon","arcs":[[-119,-33,124,125]],"properties":{"市区町村名":"札幌市南区","大字名":"簾舞","丁目名":null,"小字名":null,"地番":"657","精度区分":null,"座標系":"任意座標系"}},{"type":"Polygon","arcs":[[-60,-26,-38,-124,-51,-48,-123,-44,-114,-39,-111,-67,126,-17,-22,-15,-109,-125,-36,-58,-32,-85,127,128]],"properties":{"市区町村名":"札幌市南区","大字名":"簾舞","丁目名":null,"小字名":null,"地番":"725","精度区分":null,"座標系":"任意座標系"}},{"type":"Polygon","arcs":[[129,-108,-59,-129,130,-105]],"properties":{"市区町村名":"札幌市南区","大字名":"簾舞","丁目名":null,"小字名":null,"地番":"524","精度区分":null,"座標系":"任意座標系"}},{"type":"Polygon","arcs":[[-76,131,-65,-62]],"properties":{"市区町村名":"札幌市南区","大字名":"簾舞","丁目名":null,"小字名":null,"地番":"無地番-3","精度区分":null,"座標系":"任意座標系"}}]}},"arcs":[[[848788,322509],[-11285,-2089],[-9279,-7821],[-16134,-4098]],[[812090,308501],[-12375,4419],[-19024,-4751],[12509,-4441]],[[793200,303728],[-19606,-3206],[-7928,-3964],[-25228,-6281],[-10598,-4045],[-3288,-4413]],[[726552,281819],[-18307,-412],[-25958,6557],[-18163,2476],[-24939,5581],[23315,-6647],[16034,-2116],[28203,-7025],[17358,339]],[[724095,280572],[-31500,-13551]],[[692595,267021],[-39003,-2011],[-45496,-9734],[-37545,103],[-17442,-2906],[21165,1687],[31116,-148]],[[605390,254012],[-3170,-4305],[-26349,-12870],[-23304,-6574],[-10834,-596]],[[541733,229667],[-68840,11294]],[[472893,240961],[16601,5121],[32062,15367],[-4579,4297],[15255,10146],[14212,3588],[7289,6862],[7319,3987],[12979,3552],[-13340,13922],[3348,10594],[13366,6932],[33695,-1795],[73848,9573],[31168,9944],[22420,8409],[36136,3590],[15614,-2538],[14447,-6062],[47275,-12393],[-3220,-11548]],[[609993,254326],[46600,9667],[36280,1709]],[[692873,265702],[-16961,-14816],[4815,-9775],[-19065,-14280],[-27856,-4512],[-10805,-5937]],[[623001,216382],[-63540,10380]],[[559461,226762],[-1905,3170],[20731,6001],[27587,13432],[4119,4961]],[[849111,312122],[-4734,-1115],[12195,-17794],[-1372,-19153],[22036,-17608],[27050,-19034],[-49152,-14043],[7266,-11174],[19332,-5071],[18985,-5065]],[[900717,202065],[-54998,-2644],[-3059,-3173]],[[842660,196248],[-41405,-9472]],[[801255,186776],[-10301,319],[-20886,-7273],[-10371,-9158],[-22563,-1869],[-17973,-8636],[-8350,-1304],[-34665,1577],[-14459,-1372],[-14979,-7748],[-19802,-2945],[-25315,1243],[-16061,-3173]],[[585530,146437],[-72925,29063]],[[512605,175500],[52989,6546],[16740,6862],[17984,17813],[22870,7408],[3277,1679],[9930,5660],[28420,4601],[19836,14748],[-4769,10185],[18892,16583],[31287,13531],[3393,4706],[8254,3137],[25028,6234],[9079,4509],[20634,3138],[34879,8761],[8803,8011],[8223,1473]],[[848354,321085],[0,-132],[-162,-629],[-598,-2178],[-596,-2830],[2113,-3194]],[[812090,308501],[-18890,-4773]],[[842660,196248],[-5609,-6658],[-16916,-4151],[-3952,837],[-14928,500]],[[752358,71994],[-105801,28513]],[[646557,100507],[1943,1338],[-16666,4469],[44376,30857],[-5387,19330],[5421,693],[36339,-1786],[14364,2250],[17400,8392],[20244,1631],[82331,20369],[7553,8677],[54685,2609]],[[909160,199336],[-11402,-5861],[24412,-4611],[8749,4629]],[[930919,193493],[15042,455]],[[945961,193948],[-44805,-23675]],[[901156,170273],[-19785,-10451],[11222,-1980]],[[892593,157842],[-15472,-3574],[-750,-4085],[27983,-11765],[-12524,-2249],[2474,-3962],[7735,-3929],[-10144,-12384],[7558,-4635],[-2441,-1584],[-11374,216],[-11638,-3754],[-5854,-4241],[-21896,-4706],[-16956,-5940],[-19092,-10739],[-15076,1700],[-10871,-965],[-15115,-6313],[-4916,-756],[-203,-683],[-11663,-1500]],[[954492,194856],[2352,1478],[14755,-1256]],[[971599,195078],[4256,-2012]],[[975855,193066],[-21363,1790]],[[915543,199926],[24374,-2107]],[[939917,197819],[11628,-1036]],[[951545,196783],[-2761,-1448]],[[948784,195335],[-14902,-382],[-18339,4973]],[[909160,199336],[230,117]],[[909390,199453],[21529,-5960]],[[627781,146831],[14945,2208]],[[642726,149039],[7160,-11150],[-11242,-6005],[-7437,-9244],[-28110,-10597]],[[603097,112043],[-29052,7559]],[[574045,119602],[5221,2402],[30374,5020],[10599,5451],[7542,14356]],[[605944,111319],[29040,10865],[8013,9761],[10559,6119],[-6547,11629]],[[647009,149693],[3458,538],[14438,7206]],[[664905,157437],[5629,-20108],[-44551,-31287]],[[625983,106042],[-19916,5244],[-123,33]],[[797188,177691],[-33276,-8344]],[[763912,169347],[10829,9570],[9989,3652]],[[784730,182569],[12458,-4878]],[[820837,183540],[-23649,-5849]],[[784730,182569],[7878,2925],[21491,-830],[6738,-1124]],[[901156,170273],[4634,-839]],[[905790,169434],[-5944,-2281]],[[899846,167153],[12180,-5702],[-5834,-3422],[-13599,-187]],[[951545,196783],[2626,1383]],[[954171,198166],[13318,-1118]],[[967489,197048],[4110,-1970]],[[954492,194856],[-5708,479]],[[951907,193430],[-46117,-23996]],[[945961,193948],[5946,-518]],[[630122,105087],[-27622,-8372],[-92345,-27838]],[[510155,68877],[-4121,1046]],[[506034,69923],[32196,9634],[87753,26485]],[[625983,106042],[4139,-955]],[[506034,69923],[-204844,54464]],[[301190,124387],[26628,-725],[66121,2643],[47052,7384],[26652,-2693],[10331,3413],[32442,5934],[16111,1240],[21429,-1674],[12735,1192],[8697,3783],[17531,34]],[[586919,144918],[14440,3049],[22378,-1000]],[[623737,146967],[-7133,-13940],[-10458,-5450],[-30239,-5011]],[[575907,122566],[-25740,-11687],[-13809,-5088],[17393,4508],[20294,9303]],[[603097,112043],[-10554,-4144],[-39898,-13414],[39084,11585],[14215,5249]],[[559461,226762],[-4978,-5381],[-17538,-4744],[13529,5203],[4629,5636]],[[555103,227476],[4358,-714]],[[541733,229667],[6047,-991]],[[547780,228676],[-83853,-4422],[-23613,-3864],[22986,5108],[78433,4169]],[[752358,71994],[-29138,-3595],[-22486,-11154],[-370,-3654],[10972,-7237],[-7906,-2963],[-34376,-5613],[-17221,-7672],[-26939,-2694],[-17464,-4671],[-17813,-1354],[-50279,-9831],[-35754,-4160],[-10594,65],[-45424,-6366],[-12123,-1095],[-50986,9312]],[[384457,9312],[196011,40824],[-70313,18741]],[[630122,105087],[16435,-4580]],[[603097,112043],[60,-15],[2787,-709]],[[623001,216382],[-3498,-1524],[-23184,-7339],[-4772,-3773]],[[591547,203746],[-61940,-11352],[-13867,-4034],[-19227,-3966],[22288,3132],[12772,3772],[58832,10834]],[[590405,202132],[-12112,-12602],[-15438,-6515],[-51586,-6543]],[[511269,176472],[-28994,-7855],[-72132,-8882],[-47298,-4205],[-12532,-4635],[-77870,149],[78807,-1373],[12448,4595],[44902,4164],[75954,9331],[28051,7739]],[[585530,146437],[-18597,0],[-8871,-3869],[-11087,-986],[-20303,1715],[-19278,-1436],[-19574,-3714],[-16490,-2979],[-15488,-1159],[-15438,1543],[-50223,-7852],[-61676,-2382],[-29723,876],[-2526,-643],[-53496,12513],[-42759,-4550],[-106989,2530],[62072,26411],[48450,6164],[26355,10938],[29172,3542],[35994,9466],[24828,3177],[3508,2186],[66009,17339],[63724,19978],[19769,5716]],[[547780,228676],[7323,-1200]],[[977925,192071],[-2070,995]],[[967489,197048],[-7085,3376],[238,2837],[4675,409],[0,-2704],[15468,-7346],[19214,-1557],[-1085,-1629],[-20989,1637]],[[79130,999999],[115382,-8558],[-41482,-13256]],[[153030,978185],[-73900,21814]],[[110255,977386],[-19935,-417]],[[90320,976969],[-90320,-1753],[20748,16322]],[[20748,991538],[132282,-13353]],[[153030,978185],[-38271,-714]],[[114759,977471],[-4504,-85]],[[20748,991538],[58382,8461]],[[129842,937025],[-12667,15366],[-2416,25080]],[[153030,978185],[18942,-10641],[-12676,-9614],[-24378,-4928],[5913,-14493],[-10989,-1484]],[[129842,937025],[-4785,-643]],[[125057,936382],[-12837,15848],[-1965,25156]],[[125057,936382],[-17735,-2361],[-20169,24061],[3167,18887]],[[129842,937025],[4869,-5809],[-5213,-241],[-4441,5407]],[[997897,183197],[485,-263],[-805,116]],[[997577,183050],[320,147]],[[989365,186557],[8532,-3360]],[[997577,183050],[-17190,2373],[-17863,-2373],[2644,-3791],[9051,-245],[10173,-2569],[721,-1614],[-3925,-1713],[-4737,738]],[[976451,173856],[2383,637],[-22046,7058],[5644,3391],[26933,1615]],[[892593,157842],[1427,-1769],[-10013,-5596],[26133,-11296],[-9111,-4464],[9812,-9622],[-12315,-7828],[2803,-2171],[10113,-1009],[-2503,-4129],[-28151,-3456],[-10714,-10576],[-27435,-1254],[-5507,-4312],[-27779,-11818],[-15019,2202],[-13518,-4006],[-2703,-4617],[-16020,-2783],[-3305,30],[-6430,2626]],[[971408,173858],[-6579,-3449],[-12716,-1070],[-13316,1009],[-3705,2079],[-5107,-1070],[-8310,1009],[-14819,-4311],[6909,-3762],[-2788,-2351],[-11131,5211]],[[905790,169434],[11058,4135],[20686,1389],[17434,-1844],[8589,1337],[7851,-593]],[[906277,202359],[-5560,-294]],[[849111,312122],[12314,-18677],[-1081,-19197],[21981,-17795],[28084,-19470],[-49461,-14069],[6148,-9964],[39181,-10591]],[[623737,146967],[4044,-136]],[[574045,119602],[-2957,775],[4819,2189]],[[605944,111319],[-2847,724]],[[642726,149039],[4283,654]],[[726552,281819],[-2457,-1247]],[[692595,267021],[278,-1319]],[[609993,254326],[-4603,-314]],[[942785,199220],[11386,-1054]],[[939917,197819],[2868,1401]],[[511269,176472],[1336,-972]],[[591547,203746],[-1142,-1614]],[[848788,322509],[-144,-322],[-130,-517],[-160,-585]],[[664905,157437],[10694,1307],[36552,-1628],[11240,1793],[17727,8540],[22794,1898]],[[820837,183540],[21059,5203],[7944,9236],[55032,2727],[4518,-1253]],[[915543,199926],[-9266,2433]],[[906277,202359],[634,25],[35874,-3164]],[[586919,144918],[-1389,1519]],[[977925,192071],[2131,-1004]],[[980056,191067],[-28149,2363]],[[976451,173856],[-1108,-295],[-3935,297]],[[980056,191067],[9309,-4510]],[[384457,9312],[-45133,5401],[-4912,8396],[17947,16892],[-18852,27574],[-13027,2110],[-31761,5448],[-11414,1832],[-47235,7629],[4533,4346],[-1898,2769],[6191,1426],[14085,1047],[3163,2158],[-6377,4185],[2118,2297],[20843,5091],[23970,8509],[-1143,6788],[5635,1177]]],"bbox":[331.654,-3704.096,1798.541,1102.243],"transform":{"scale":[0.0014668884668884669,0.004806343806343806],"translate":[331.654,-3704.096]}}