{"type":"Topology","objects":{"01691-4625-14":{"type":"GeometryCollection","geometries":[{"type":"MultiPolygon","arcs":[[[0,1,2,3]]],"properties":{"筆ID":"H000000001","version":"ver1.0","座標系":"任意座標系","測地系判別":null,"地図名":"H22462501691129","地図番号":"開D-45","縮尺分母":"2500","市区町村コード":"01691","市区町村名":"野付郡別海町","大字コード":"056","丁目コード":"000","小字コード":"0000","予備コード":"00","大字名":"矢臼別","丁目名":null,"小字名":null,"予備名":null,"地番":"1-1","精度区分":null,"座標値種別":"図上測量","筆界未定構成筆":null,"代表点緯度":470.1265,"代表点経度":2339.33216014}},{"type":"MultiPolygon","arcs":[[[4,5,6,7,8,-1,9]]],"properties":{"筆ID":"H000000002","version":"ver1.0","座標系":"任意座標系","測地系判別":null,"地図名":"H22462501691129","地図番号":"開D-45","縮尺分母":"2500","市区町村コード":"01691","市区町村名":"野付郡別海町","大字コード":"000","丁目コード":"000","小字コード":"0000","予備コード":"00","大字名":null,"丁目名":null,"小字名":null,"予備名":null,"地番":"地区外-1003272","精度区分":null,"座標値種別":"図上測量","筆界未定構成筆":null,"代表点緯度":475.524,"代表点経度":1730.1755}},{"type":"MultiPolygon","arcs":[[[-2,-9,10]]],"properties":{"筆ID":"H000000003","version":"ver1.0","座標系":"任意座標系","測地系判別":null,"地図名":"H22462501691129","地図番号":"開D-45","縮尺分母":"2500","市区町村コード":"01691","市区町村名":"野付郡別海町","大字コード":"056","丁目コード":"000","小字コード":"0000","予備コード":"00","大字名":"矢臼別","丁目名":null,"小字名":null,"予備名":null,"地番":"1-2","精度区分":null,"座標値種別":"図上測量","筆界未定構成筆":null,"代表点緯度":571.0495,"代表点経度":2375.365040618}},{"type":"MultiPolygon","arcs":[[[-3,-11,-8,11,12,13]]],"properties":{"筆ID":"H000000004","version":"ver1.0","座標系":"任意座標系","測地系判別":null,"地図名":"H22462501691129","地図番号":"開D-45","縮尺分母":"2500","市区町村コード":"01691","市区町村名":"野付郡別海町","大字コード":"056","丁目コード":"000","小字コード":"0000","予備コード":"00","大字名":"矢臼別","丁目名":null,"小字名":null,"予備名":null,"地番":"長狭物不明-3015","精度区分":null,"座標値種別":"図上測量","筆界未定構成筆":null,"代表点緯度":422.145,"代表点経度":2516.617983307}},{"type":"MultiPolygon","arcs":[[[-12,-7,14,15,16,17]]],"properties":{"筆ID":"H000000005","version":"ver1.0","座標系":"任意座標系","測地系判別":null,"地図名":"H22462501691129","地図番号":"開D-45","縮尺分母":"2500","市区町村コード":"01691","市区町村名":"野付郡別海町","大字コード":"056","丁目コード":"000","小字コード":"0000","予備コード":"00","大字名":"矢臼別","丁目名":null,"小字名":null,"予備名":null,"地番":"2-1","精度区分":null,"座標値種別":"図上測量","筆界未定構成筆":null,"代表点緯度":782.429,"代表点経度":2790.020672157}},{"type":"MultiPolygon","arcs":[[[-13,-18,18,19]]],"properties":{"筆ID":"H000000006","version":"ver1.0","座標系":"任意座標系","測地系判別":null,"地図名":"H22462501691129","地図番号":"開D-45","縮尺分母":"2500","市区町村コード":"01691","市区町村名":"野付郡別海町","大字コード":"056","丁目コード":"000","小字コード":"0000","予備コード":"00","大字名":"矢臼別","丁目名":null,"小字名":null,"予備名":null,"地番":"2-2","精度区分":null,"座標値種別":"図上測量","筆界未定構成筆":null,"代表点緯度":400.347,"代表点経度":2792.934183608}},{"type":"MultiPolygon","arcs":[[[20,21,22,23]]],"properties":{"筆ID":"H000000007","version":"ver1.0","座標系":"任意座標系","測地系判別":null,"地図名":"H22462501691129","地図番号":"開D-42","縮尺分母":"2500","市区町村コード":"01691","市区町村名":"野付郡別海町","大字コード":"056","丁目コード":"000","小字コード":"0000","予備コード":"00","大字名":"矢臼別","丁目名":null,"小字名":null,"予備名":null,"地番":"3-1","精度区分":null,"座標値種別":"図上測量","筆界未定構成筆":null,"代表点緯度":770.645,"代表点経度":3125.757340382}},{"type":"MultiPolygon","arcs":[[[-23,24,25,26,27,28,29,30,31,32,33]]],"properties":{"筆ID":"H000000008","version":"ver1.0","座標系":"任意座標系","測地系判別":null,"地図名":"H22462501691129","地図番号":"開D-42","縮尺分母":"2500","市区町村コード":"01691","市区町村名":"野付郡別海町","大字コード":"056","丁目コード":"000","小字コード":"0000","予備コード":"00","大字名":"矢臼別","丁目名":null,"小字名":null,"予備名":null,"地番":"3-4","精度区分":null,"座標値種別":"図上測量","筆界未定構成筆":null,"代表点緯度":939.7175,"代表点経度":3340.11463811}},{"type":"MultiPolygon","arcs":[[[34,35]]],"properties":{"筆ID":"H000000009","version":"ver1.0","座標系":"任意座標系","測地系判別":null,"地図名":"H22462501691129","地図番号":"開D-42","縮尺分母":"2500","市区町村コード":"01691","市区町村名":"野付郡別海町","大字コード":"056","丁目コード":"000","小字コード":"0000","予備コード":"00","大字名":"矢臼別","丁目名":null,"小字名":null,"予備名":null,"地番":"9-2","精度区分":null,"座標値種別":"図上測量","筆界未定構成筆":null,"代表点緯度":384.291,"代表点経度":3206.163442259}},{"type":"MultiPolygon","arcs":[[[36,-10,-4,-14,-20,37,-35,38,39,40,41,42,43]]],"properties":{"筆ID":"H000000010","version":"ver1.0","座標系":"任意座標系","測地系判別":null,"地図名":"H22462501691129","地図番号":"開D-42","縮尺分母":"2500","市区町村コード":"01691","市区町村名":"野付郡別海町","大字コード":"000","丁目コード":"000","小字コード":"0000","予備コード":"00","大字名":null,"丁目名":null,"小字名":null,"予備名":null,"地番":"地区外-1003282","精度区分":null,"座標値種別":"図上測量","筆界未定構成筆":null,"代表点緯度":329.853,"代表点経度":3515.594062359}},{"type":"MultiPolygon","arcs":[[[44,45,-43,46]]],"properties":{"筆ID":"H000000011","version":"ver1.0","座標系":"任意座標系","測地系判別":null,"地図名":"H22462501691129","地図番号":"開D-42","縮尺分母":"2500","市区町村コード":"01691","市区町村名":"野付郡別海町","大字コード":"056","丁目コード":"000","小字コード":"0000","予備コード":"00","大字名":"矢臼別","丁目名":null,"小字名":null,"予備名":null,"地番":"7-1","精度区分":null,"座標値種別":"図上測量","筆界未定構成筆":null,"代表点緯度":796.912,"代表点経度":3787.206473352}},{"type":"MultiPolygon","arcs":[[[47,48,-41]]],"properties":{"筆ID":"H000000012","version":"ver1.0","座標系":"任意座標系","測地系判別":null,"地図名":"H22462501691129","地図番号":"開D-42","縮尺分母":"2500","市区町村コード":"01691","市区町村名":"野付郡別海町","大字コード":"056","丁目コード":"000","小字コード":"0000","予備コード":"00","大字名":"矢臼別","丁目名":null,"小字名":null,"予備名":null,"地番":"8-2","精度区分":null,"座標値種別":"図上測量","筆界未定構成筆":null,"代表点緯度":634.2955,"代表点経度":3556.011211163}},{"type":"MultiPolygon","arcs":[[[-48,-40,49]]],"properties":{"筆ID":"H000000013","version":"ver1.0","座標系":"任意座標系","測地系判別":null,"地図名":"H22462501691129","地図番号":"開D-42","縮尺分母":"2500","市区町村コード":"01691","市区町村名":"野付郡別海町","大字コード":"056","丁目コード":"000","小字コード":"0000","予備コード":"00","大字名":"矢臼別","丁目名":null,"小字名":null,"予備名":null,"地番":"8-1","精度区分":null,"座標値種別":"図上測量","筆界未定構成筆":null,"代表点緯度":477.486,"代表点経度":3332.977207772}},{"type":"MultiPolygon","arcs":[[[50,51,52,53,54,55,56,57,58,59,60]]],"properties":{"筆ID":"H000000014","version":"ver1.0","座標系":"任意座標系","測地系判別":null,"地図名":"H22462501691129","地図番号":"開D-41","縮尺分母":"2500","市区町村コード":"01691","市区町村名":"野付郡別海町","大字コード":"056","丁目コード":"000","小字コード":"0000","予備コード":"00","大字名":"矢臼別","丁目名":null,"小字名":null,"予備名":null,"地番":"水-3006","精度区分":null,"座標値種別":"図上測量","筆界未定構成筆":null,"代表点緯度":1268.1515,"代表点経度":4038.374527514}},{"type":"MultiPolygon","arcs":[[[61,-57,62]]],"properties":{"筆ID":"H000000015","version":"ver1.0","座標系":"任意座標系","測地系判別":null,"地図名":"H22462501691129","地図番号":"開D-41","縮尺分母":"2500","市区町村コード":"01691","市区町村名":"野付郡別海町","大字コード":"056","丁目コード":"000","小字コード":"0000","予備コード":"00","大字名":"矢臼別","丁目名":null,"小字名":null,"予備名":null,"地番":"4-2","精度区分":null,"座標値種別":"図上測量","筆界未定構成筆":null,"代表点緯度":1177.4415,"代表点経度":3851.575221828}},{"type":"MultiPolygon","arcs":[[[63,-31]]],"properties":{"筆ID":"H000000016","version":"ver1.0","座標系":"任意座標系","測地系判別":null,"地図名":"H22462501691129","地図番号":"開D-41","縮尺分母":"2500","市区町村コード":"01691","市区町村名":"野付郡別海町","大字コード":"056","丁目コード":"000","小字コード":"0000","予備コード":"00","大字名":"矢臼別","丁目名":null,"小字名":null,"予備名":null,"地番":"3-5","精度区分":null,"座標値種別":"図上測量","筆界未定構成筆":null,"代表点緯度":1211.728,"代表点経度":3262.314672978}},{"type":"MultiPolygon","arcs":[[[64,65]]],"properties":{"筆ID":"H000000017","version":"ver1.0","座標系":"任意座標系","測地系判別":null,"地図名":"H22462501691129","地図番号":"開D-41","縮尺分母":"2500","市区町村コード":"01691","市区町村名":"野付郡別海町","大字コード":"056","丁目コード":"000","小字コード":"0000","予備コード":"00","大字名":"矢臼別","丁目名":null,"小字名":null,"予備名":null,"地番":"3-3","精度区分":null,"座標値種別":"図上測量","筆界未定構成筆":null,"代表点緯度":1197.4805,"代表点経度":3178.94322569}},{"type":"MultiPolygon","arcs":[[[66,67,68]]],"properties":{"筆ID":"H000000018","version":"ver1.0","座標系":"任意座標系","測地系判別":null,"地図名":"H22462501691129","地図番号":"開D-41","縮尺分母":"2500","市区町村コード":"01691","市区町村名":"野付郡別海町","大字コード":"056","丁目コード":"000","小字コード":"0000","予備コード":"00","大字名":"矢臼別","丁目名":null,"小字名":null,"予備名":null,"地番":"3-2","精度区分":null,"座標値種別":"図上測量","筆界未定構成筆":null,"代表点緯度":1096.176,"代表点経度":3040.149058505}},{"type":"MultiPolygon","arcs":[[[-22,69,-69,70,-25]]],"properties":{"筆ID":"H000000019","version":"ver1.0","座標系":"任意座標系","測地系判別":null,"地図名":"H22462501691129","地図番号":"開D-41","縮尺分母":"2500","市区町村コード":"01691","市区町村名":"野付郡別海町","大字コード":"056","丁目コード":"000","小字コード":"0000","予備コード":"00","大字名":"矢臼別","丁目名":null,"小字名":null,"予備名":null,"地番":"長狭物不明-3021","精度区分":null,"座標値種別":"図上測量","筆界未定構成筆":null,"代表点緯度":1095.9855,"代表点経度":3078.919666689}},{"type":"MultiPolygon","arcs":[[[71,72,-65,73]]],"properties":{"筆ID":"H000000020","version":"ver1.0","座標系":"任意座標系","測地系判別":null,"地図名":"H22462501691129","地図番号":"開D-41","縮尺分母":"2500","市区町村コード":"01691","市区町村名":"野付郡別海町","大字コード":"056","丁目コード":"000","小字コード":"0000","予備コード":"00","大字名":"矢臼別","丁目名":null,"小字名":null,"予備名":null,"地番":"3-8","精度区分":null,"座標値種別":"図上測量","筆界未定構成筆":null,"代表点緯度":1188.3665,"代表点経度":3191.309706166}},{"type":"MultiPolygon","arcs":[[[-28,74,75]]],"properties":{"筆ID":"H000000021","version":"ver1.0","座標系":"任意座標系","測地系判別":null,"地図名":"H22462501691129","地図番号":"開D-41","縮尺分母":"2500","市区町村コード":"01691","市区町村名":"野付郡別海町","大字コード":"056","丁目コード":"000","小字コード":"0000","予備コード":"00","大字名":"矢臼別","丁目名":null,"小字名":null,"予備名":null,"地番":"3-7","精度区分":null,"座標値種別":"図上測量","筆界未定構成筆":null,"代表点緯度":1182.3645,"代表点経度":3210.993739833}},{"type":"MultiPolygon","arcs":[[[76,77,-33]]],"properties":{"筆ID":"H000000022","version":"ver1.0","座標系":"任意座標系","測地系判別":null,"地図名":"H22462501691129","地図番号":"開D-41","縮尺分母":"2500","市区町村コード":"01691","市区町村名":"野付郡別海町","大字コード":"056","丁目コード":"000","小字コード":"0000","予備コード":"00","大字名":"矢臼別","丁目名":null,"小字名":null,"予備名":null,"地番":"3-6","精度区分":null,"座標値種別":"図上測量","筆界未定構成筆":null,"代表点緯度":1233.0225,"代表点経度":3296.558601122}},{"type":"MultiPolygon","arcs":[[[78,79,80,-45]]],"properties":{"筆ID":"H000000023","version":"ver1.0","座標系":"任意座標系","測地系判別":null,"地図名":"H22462501691129","地図番号":"開D-37","縮尺分母":"2500","市区町村コード":"01691","市区町村名":"野付郡別海町","大字コード":"056","丁目コード":"000","小字コード":"0000","予備コード":"00","大字名":"矢臼別","丁目名":null,"小字名":null,"予備名":null,"地番":"7-2","精度区分":null,"座標値種別":"図上測量","筆界未定構成筆":null,"代表点緯度":952.7325,"代表点経度":4008.331356641}},{"type":"MultiPolygon","arcs":[[[-44,-46,-81,81,82,83,84]]],"properties":{"筆ID":"H000000024","version":"ver1.0","座標系":"任意座標系","測地系判別":null,"地図名":"H22462501691129","地図番号":"開D-37","縮尺分母":"2500","市区町村コード":"01691","市区町村名":"野付郡別海町","大字コード":"000","丁目コード":"000","小字コード":"0000","予備コード":"00","大字名":null,"丁目名":null,"小字名":null,"予備名":null,"地番":"地区外-1003300","精度区分":null,"座標値種別":"図上測量","筆界未定構成筆":null,"代表点緯度":329.7835,"代表点経度":4375}},{"type":"MultiPolygon","arcs":[[[85,86,-51,87,-83]]],"properties":{"筆ID":"H000000025","version":"ver1.0","座標系":"任意座標系","測地系判別":null,"地図名":"H22462501691129","地図番号":"開D-37","縮尺分母":"2500","市区町村コード":"01691","市区町村名":"野付郡別海町","大字コード":"056","丁目コード":"000","小字コード":"0000","予備コード":"00","大字名":"矢臼別","丁目名":null,"小字名":null,"予備名":null,"地番":"6-1","精度区分":null,"座標値種別":"図上測量","筆界未定構成筆":null,"代表点緯度":1105.378,"代表点経度":4241.929193443}},{"type":"MultiPolygon","arcs":[[[88,89,-54,90,91,-86,-82,-80]]],"properties":{"筆ID":"H000000026","version":"ver1.0","座標系":"任意座標系","測地系判別":null,"地図名":"H22462501691129","地図番号":"開D-37","縮尺分母":"2500","市区町村コード":"01691","市区町村名":"野付郡別海町","大字コード":"056","丁目コード":"000","小字コード":"0000","予備コード":"00","大字名":"矢臼別","丁目名":null,"小字名":null,"予備名":null,"地番":"長狭物不明-3026","精度区分":null,"座標値種別":"図上測量","筆界未定構成筆":null,"代表点緯度":1096.627,"代表点経度":4101.410855296}},{"type":"MultiPolygon","arcs":[[[-88,-61,92,93,-84]]],"properties":{"筆ID":"H000000027","version":"ver1.0","座標系":"任意座標系","測地系判別":null,"地図名":"H22462501691129","地図番号":"開D-36","縮尺分母":"2500","市区町村コード":"01691","市区町村名":"野付郡別海町","大字コード":"000","丁目コード":"000","小字コード":"0000","予備コード":"00","大字名":null,"丁目名":null,"小字名":null,"予備名":null,"地番":"地区外-1003303","精度区分":null,"座標値種別":"図上測量","筆界未定構成筆":null,"代表点緯度":1715.1545,"代表点経度":4375}},{"type":"MultiPolygon","arcs":[[[-55,-90,94]]],"properties":{"筆ID":"H000000028","version":"ver1.0","座標系":"任意座標系","測地系判別":null,"地図名":"H22462501691129","地図番号":"開D-36","縮尺分母":"2500","市区町村コード":"01691","市区町村名":"野付郡別海町","大字コード":"056","丁目コード":"000","小字コード":"0000","予備コード":"00","大字名":"矢臼別","丁目名":null,"小字名":null,"予備名":null,"地番":"4-3","精度区分":null,"座標値種別":"図上測量","筆界未定構成筆":null,"代表点緯度":1198.806,"代表点経度":4048.75514591}},{"type":"MultiPolygon","arcs":[[[-91,-53,95]]],"properties":{"筆ID":"H000000029","version":"ver1.0","座標系":"任意座標系","測地系判別":null,"地図名":"H22462501691129","地図番号":"開D-36","縮尺分母":"2500","市区町村コード":"01691","市区町村名":"野付郡別海町","大字コード":"056","丁目コード":"000","小字コード":"0000","予備コード":"00","大字名":"矢臼別","丁目名":null,"小字名":null,"予備名":null,"地番":"4-4","精度区分":null,"座標値種別":"図上測量","筆界未定構成筆":null,"代表点緯度":1210.739,"代表点経度":4157.608725552}},{"type":"MultiPolygon","arcs":[[[-92,-96,-52,-87]]],"properties":{"筆ID":"H000000030","version":"ver1.0","座標系":"任意座標系","測地系判別":null,"地図名":"H22462501691129","地図番号":"開D-36","縮尺分母":"2500","市区町村コード":"01691","市区町村名":"野付郡別海町","大字コード":"056","丁目コード":"000","小字コード":"0000","予備コード":"00","大字名":"矢臼別","丁目名":null,"小字名":null,"予備名":null,"地番":"長狭物不明-3028","精度区分":null,"座標値種別":"図上測量","筆界未定構成筆":null,"代表点緯度":1194.012,"代表点経度":4184.182146184}},{"type":"MultiPolygon","arcs":[[[-79,-47,-42,-49,-50,-39,-36,-38,-19,-17,96,-24,-34,97,98,-63,-56,-95,-89]]],"properties":{"筆ID":"H000000031","version":"ver1.0","座標系":"任意座標系","測地系判別":null,"地図名":"H22462501691129","地図番号":"開D-42","縮尺分母":"2500","市区町村コード":"01691","市区町村名":"野付郡別海町","大字コード":"056","丁目コード":"000","小字コード":"0000","予備コード":"00","大字名":"矢臼別","丁目名":null,"小字名":null,"予備名":null,"地番":"長狭物不明-3012","精度区分":null,"座標値種別":"図上測量","筆界未定構成筆":null,"代表点緯度":798.63,"代表点経度":3619.173465727}},{"type":"MultiPolygon","arcs":[[[99,100,101]]],"properties":{"筆ID":"H000000032","version":"ver1.0","座標系":"任意座標系","測地系判別":null,"地図名":"H22462501691129","地図番号":"開D-41","縮尺分母":"2500","市区町村コード":"01691","市区町村名":"野付郡別海町","大字コード":"056","丁目コード":"000","小字コード":"0000","予備コード":"00","大字名":"矢臼別","丁目名":null,"小字名":null,"予備名":null,"地番":"長狭物不明-3036","精度区分":null,"座標値種別":"図上測量","筆界未定構成筆":null,"代表点緯度":1254.485,"代表点経度":3301.577428557}},{"type":"MultiPolygon","arcs":[[[-99,102,-58,-62]]],"properties":{"筆ID":"H000000033","version":"ver1.0","座標系":"任意座標系","測地系判別":null,"地図名":"H22462501691129","地図番号":"開D-42","縮尺分母":"2500","市区町村コード":"01691","市区町村名":"野付郡別海町","大字コード":"056","丁目コード":"000","小字コード":"0000","予備コード":"00","大字名":"矢臼別","丁目名":null,"小字名":null,"予備名":null,"地番":"4-1","精度区分":null,"座標値種別":"図上測量","筆界未定構成筆":null,"代表点緯度":1013.5865,"代表点経度":3634.423373834}},{"type":"MultiPolygon","arcs":[[[-6,103,104,-15]]],"properties":{"筆ID":"H000000034","version":"ver1.0","座標系":"任意座標系","測地系判別":null,"地図名":"H22462501691129","地図番号":"開D-42","縮尺分母":"2500","市区町村コード":"01691","市区町村名":"野付郡別海町","大字コード":"000","丁目コード":"000","小字コード":"0000","予備コード":"00","大字名":null,"丁目名":null,"小字名":null,"予備名":null,"地番":"地区外-1003277","精度区分":null,"座標値種別":"図上測量","筆界未定構成筆":null,"代表点緯度":775.804,"代表点経度":2567.170184896}},{"type":"MultiPolygon","arcs":[[[105,-27,106]]],"properties":{"筆ID":"H000000035","version":"ver1.0","座標系":"任意座標系","測地系判別":null,"地図名":"H22462501691129","地図番号":"開D-41","縮尺分母":"2500","市区町村コード":"01691","市区町村名":"野付郡別海町","大字コード":"056","丁目コード":"000","小字コード":"0000","予備コード":"00","大字名":"矢臼別","丁目名":null,"小字名":null,"予備名":null,"地番":"長狭物不明-3024","精度区分":null,"座標値種別":"図上測量","筆界未定構成筆":null,"代表点緯度":1175.306,"代表点経度":3197.421815285}},{"type":"MultiPolygon","arcs":[[[107,-75,-106,108,-72]]],"properties":{"筆ID":"H000000036","version":"ver1.0","座標系":"任意座標系","測地系判別":null,"地図名":"H22462501691129","地図番号":"開D-41","縮尺分母":"2500","市区町村コード":"01691","市区町村名":"野付郡別海町","大字コード":"056","丁目コード":"000","小字コード":"0000","予備コード":"00","大字名":"矢臼別","丁目名":null,"小字名":null,"予備名":null,"地番":"57","精度区分":null,"座標値種別":"図上測量","筆界未定構成筆":null,"代表点緯度":1183.205,"代表点経度":3201.453170258}},{"type":"MultiPolygon","arcs":[[[109,110,111,-101]]],"properties":{"筆ID":"H000000037","version":"ver1.0","座標系":"任意座標系","測地系判別":null,"地図名":"H22462501691129","地図番号":"開D-41","縮尺分母":"2500","市区町村コード":"01691","市区町村名":"野付郡別海町","大字コード":"056","丁目コード":"000","小字コード":"0000","予備コード":"00","大字名":"矢臼別","丁目名":null,"小字名":null,"予備名":null,"地番":"58-1","精度区分":null,"座標値種別":"図上測量","筆界未定構成筆":null,"代表点緯度":1245.1555,"代表点経度":3301.454342525}},{"type":"MultiPolygon","arcs":[[[112,-98,-78,113,-111]]],"properties":{"筆ID":"H000000038","version":"ver1.0","座標系":"任意座標系","測地系判別":null,"地図名":"H22462501691129","地図番号":"開D-41","縮尺分母":"2500","市区町村コード":"01691","市区町村名":"野付郡別海町","大字コード":"056","丁目コード":"000","小字コード":"0000","予備コード":"00","大字名":"矢臼別","丁目名":null,"小字名":null,"予備名":null,"地番":"58-2","精度区分":null,"座標値種別":"図上測量","筆界未定構成筆":null,"代表点緯度":1235.1485,"代表点経度":3305.12179105}},{"type":"MultiPolygon","arcs":[[[-103,-113,114,115]]],"properties":{"筆ID":"H000000039","version":"ver1.0","座標系":"任意座標系","測地系判別":null,"地図名":"H22462501691129","地図番号":"開D-41","縮尺分母":"2500","市区町村コード":"01691","市区町村名":"野付郡別海町","大字コード":"056","丁目コード":"000","小字コード":"0000","予備コード":"00","大字名":"矢臼別","丁目名":null,"小字名":null,"予備名":null,"地番":"59-2","精度区分":null,"座標値種別":"図上測量","筆界未定構成筆":null,"代表点緯度":1240.1865,"代表点経度":3317.783673469}},{"type":"MultiPolygon","arcs":[[[116,-115,-110,-100]]],"properties":{"筆ID":"H000000040","version":"ver1.0","座標系":"任意座標系","測地系判別":null,"地図名":"H22462501691129","地図番号":"開D-41","縮尺分母":"2500","市区町村コード":"01691","市区町村名":"野付郡別海町","大字コード":"056","丁目コード":"000","小字コード":"0000","予備コード":"00","大字名":"矢臼別","丁目名":null,"小字名":null,"予備名":null,"地番":"59-1","精度区分":null,"座標値種別":"図上測量","筆界未定構成筆":null,"代表点緯度":1253.095,"代表点経度":3314.123148629}},{"type":"MultiPolygon","arcs":[[[-59,-116,-117,-102,-112,-114,-77,117,-64,-30,118,-76,-108,-74,-66,-73,-109,119,120,121,122,123]]],"properties":{"筆ID":"H000000041","version":"ver1.0","座標系":"任意座標系","測地系判別":null,"地図名":"H22462501691129","地図番号":"開D-41","縮尺分母":"2500","市区町村コード":"01691","市区町村名":"野付郡別海町","大字コード":"056","丁目コード":"000","小字コード":"0000","予備コード":"00","大字名":"矢臼別","丁目名":null,"小字名":null,"予備名":null,"地番":"水-3003","精度区分":null,"座標値種別":"図上測量","筆界未定構成筆":null,"代表点緯度":1225.1535,"代表点経度":3254.277408224}},{"type":"MultiPolygon","arcs":[[[-123,124]]],"properties":{"筆ID":"H000000042","version":"ver1.0","座標系":"任意座標系","測地系判別":null,"地図名":"H22462501691129","地図番号":"開D-41","縮尺分母":"2500","市区町村コード":"01691","市区町村名":"野付郡別海町","大字コード":"056","丁目コード":"000","小字コード":"0000","予備コード":"00","大字名":"矢臼別","丁目名":null,"小字名":null,"予備名":null,"地番":"60","精度区分":null,"座標値種別":"図上測量","筆界未定構成筆":null,"代表点緯度":1268.836,"代表点経度":3264.934717936}},{"type":"MultiPolygon","arcs":[[[-118,-32]]],"properties":{"筆ID":"H000000043","version":"ver1.0","座標系":"任意座標系","測地系判別":null,"地図名":"H22462501691129","地図番号":"開D-41","縮尺分母":"2500","市区町村コード":"01691","市区町村名":"野付郡別海町","大字コード":"056","丁目コード":"000","小字コード":"0000","予備コード":"00","大字名":"矢臼別","丁目名":null,"小字名":null,"予備名":null,"地番":"61","精度区分":null,"座標値種別":"図上測量","筆界未定構成筆":null,"代表点緯度":1215.0125,"代表点経度":3281.798416143}},{"type":"MultiPolygon","arcs":[[[-119,-29]]],"properties":{"筆ID":"H000000044","version":"ver1.0","座標系":"任意座標系","測地系判別":null,"地図名":"H22462501691129","地図番号":"開D-41","縮尺分母":"2500","市区町村コード":"01691","市区町村名":"野付郡別海町","大字コード":"056","丁目コード":"000","小字コード":"0000","予備コード":"00","大字名":"矢臼別","丁目名":null,"小字名":null,"予備名":null,"地番":"62","精度区分":null,"座標値種別":"図上測量","筆界未定構成筆":null,"代表点緯度":1186.369,"代表点経度":3235.171636114}},{"type":"MultiPolygon","arcs":[[[125,-121,126]]],"properties":{"筆ID":"H000000045","version":"ver1.0","座標系":"任意座標系","測地系判別":null,"地図名":"H22462501691129","地図番号":"開D-41","縮尺分母":"2500","市区町村コード":"01691","市区町村名":"野付郡別海町","大字コード":"056","丁目コード":"000","小字コード":"0000","予備コード":"00","大字名":"矢臼別","丁目名":null,"小字名":null,"予備名":null,"地番":"63","精度区分":null,"座標値種別":"図上測量","筆界未定構成筆":null,"代表点緯度":1142.266,"代表点経度":3144.012643837}},{"type":"MultiPolygon","arcs":[[[-26,-71,-68,127,128,-127,-120,-107]]],"properties":{"筆ID":"H000000046","version":"ver1.0","座標系":"任意座標系","測地系判別":null,"地図名":"H22462501691129","地図番号":"開D-41","縮尺分母":"2500","市区町村コード":"01691","市区町村名":"野付郡別海町","大字コード":"056","丁目コード":"000","小字コード":"0000","予備コード":"00","大字名":"矢臼別","丁目名":null,"小字名":null,"予備名":null,"地番":"64","精度区分":null,"座標値種別":"図上測量","筆界未定構成筆":null,"代表点緯度":1131.668,"代表点経度":3077.198389954}},{"type":"MultiPolygon","arcs":[[[-128,129,130]]],"properties":{"筆ID":"H000000047","version":"ver1.0","座標系":"任意座標系","測地系判別":null,"地図名":"H22462501691129","地図番号":"開D-41","縮尺分母":"2500","市区町村コード":"01691","市区町村名":"野付郡別海町","大字コード":"056","丁目コード":"000","小字コード":"0000","予備コード":"00","大字名":"矢臼別","丁目名":null,"小字名":null,"予備名":null,"地番":"65","精度区分":null,"座標値種別":"図上測量","筆界未定構成筆":null,"代表点緯度":1123.9365,"代表点経度":3022.273432173}},{"type":"MultiPolygon","arcs":[[[-97,-16,-105,131,-130,-67,-70,-21]]],"properties":{"筆ID":"H000000048","version":"ver1.0","座標系":"任意座標系","測地系判別":null,"地図名":"H22462501691129","地図番号":"開D-42","縮尺分母":"2500","市区町村コード":"01691","市区町村名":"野付郡別海町","大字コード":"056","丁目コード":"000","小字コード":"0000","予備コード":"00","大字名":"矢臼別","丁目名":null,"小字名":null,"予備名":null,"地番":"66","精度区分":null,"座標値種別":"図上測量","筆界未定構成筆":null,"代表点緯度":1001.8085,"代表点経度":2955.806524167}},{"type":"MultiPolygon","arcs":[[[-124,-125,-122,-126,-129,-131,-132,-104,132,-93,-60]]],"properties":{"筆ID":"H000000049","version":"ver1.0","座標系":"任意座標系","測地系判別":null,"地図名":"H22462501691129","地図番号":"開D-42","縮尺分母":"2500","市区町村コード":"01691","市区町村名":"野付郡別海町","大字コード":"000","丁目コード":"000","小字コード":"0000","予備コード":"00","大字名":null,"丁目名":null,"小字名":null,"予備名":null,"地番":"地区外-1003287","精度区分":null,"座標値種別":"図上測量","筆界未定構成筆":null,"代表点緯度":1720.651,"代表点経度":3125}}]}},"arcs":[[[333333,164874],[-74530,-809],[-23400,46307],[41380,54780]],[[276783,265152],[40877,-5398]],[[317660,259754],[36366,-96949]],[[354026,162805],[-11096,2173],[-9597,-104]],[[333333,0],[-333333,0],[0,500000],[333333,0]],[[333333,500000],[0,-159747]],[[333333,340253],[-28151,-37443]],[[305182,302810],[-2367,-3197]],[[302815,299613],[-26032,-34461]],[[333333,164874],[0,-164874]],[[302815,299613],[10413,-28177],[4432,-11682]],[[305182,302810],[9248,-24893],[7017,-18578]],[[321447,259339],[36620,-97325]],[[358067,162014],[-4041,791]],[[333333,340253],[77200,102682]],[[410533,442935],[5978,-759],[4380,14167],[4818,-1473]],[[425709,454870],[81920,-217398],[-458,-601]],[[507171,236871],[-185724,22468]],[[507171,236871],[-58092,-76185]],[[449079,160686],[-33526,2790],[-46360,-3641],[-11126,2179]],[[429932,453579],[7856,-2403],[13044,27817],[8062,27152],[11643,-2067],[7998,17039],[-4637,5091]],[[473898,526208],[11891,15748]],[[485789,541956],[83721,-222488]],[[569510,319468],[-59461,-78329],[-80117,212440]],[[485789,541956],[9117,12072]],[[494906,554028],[1420,-4342],[4016,-1839],[17454,32481],[-1401,2452]],[[516395,582780],[5637,7531]],[[522032,590311],[2292,1741]],[[524324,592052],[2922,-6856],[9341,13092],[-1461,2866]],[[535126,601154],[-223,439]],[[534903,601593],[5489,5002]],[[540392,606595],[1089,-1678],[974,3499]],[[542455,608416],[5527,4890]],[[547982,613306],[14233,-38257],[66729,-177288],[-59434,-78293]],[[537202,159062],[-9858,-12999],[-15092,79166]],[[512252,225229],[24950,-66167]],[[666666,0],[-333333,0]],[[449079,160686],[4008,-1387],[56091,74082],[3074,-8152]],[[537202,159062],[2569,3387]],[[539771,162449],[59390,78308]],[[599161,240757],[59460,78402]],[[658621,319159],[2380,3138]],[[661001,322297],[5665,7486]],[[666666,329783],[0,-329783]],[[692326,474842],[27876,-74304]],[[720202,400538],[-53536,-70755]],[[661001,322297],[-28027,74076],[59352,78469]],[[599161,240757],[-27912,74379]],[[571249,315136],[59358,78233],[28014,-74210]],[[539771,162449],[-28012,74279],[59490,78408]],[[832253,548567],[-4424,26345],[-7389,-3431],[-7641,4859],[-1850,9274],[-7754,-2454],[-8602,16912],[5271,6023],[453,6990],[-1102,2818]],[[799215,615903],[-1675,4279],[-3853,-5085]],[[793687,615097],[-9375,-1756],[-1593,10347],[-11690,1188]],[[771029,624876],[-15999,-8248]],[[755030,616628],[-4988,13864],[-8152,2633],[-5087,-9174],[-3650,13613],[-2899,2313],[-7464,5188],[-1090,-3452]],[[721700,641613],[-1661,-5254]],[[720039,636359],[-1197,-3790],[-7686,2456],[-1756,8742],[-8539,5338],[-1728,813],[-1761,11459],[-9153,9322],[-6991,-12731],[-11118,17254],[8343,8943],[-105,9346],[-15340,18988],[-4916,-10622],[-14085,-2692],[-6454,-6794],[-9156,-12692],[2760,-12595],[-2534,-5035],[-6506,-918]],[[622117,661151],[-3340,-8740],[6321,-19453],[-9668,-15702],[-19397,-888],[-3051,-11726],[-7968,365],[-19979,22963],[-3065,-2640]],[[561970,625330],[-1737,5755]],[[560233,631085],[5914,4649],[14964,-17673],[20697,8509],[4213,-761],[11359,15773],[-3128,14912],[4734,12983],[7713,1290],[-2984,13645],[10053,13503],[-873,11852],[12538,7417],[16371,3466],[4862,-5496]],[[666666,715154],[14447,-16333],[763,-16843],[-6457,-6718],[5041,-8374],[6583,11818],[12381,-12431],[1509,-8926],[10209,-6253],[1327,-6928],[4856,-243],[3101,10170],[21839,-14699],[9176,-1541],[4425,-10434],[15067,4469],[16328,-944],[496,-10009],[2371,497],[8671,8345],[5036,-13497],[-775,-12547],[-3577,-4628],[4032,-8093],[9130,2711],[2297,-11764],[6892,-4450],[8511,4242],[4459,-11375],[-1237,-7016],[1686,-10802],[-3000,-3991]],[[690727,478985],[-20855,55615],[-32367,85941],[-15388,40610]],[[720039,636359],[29985,-79460],[-59297,-77914]],[[534903,601593],[-1803,3538],[4402,5915],[2890,-4451]],[[521447,598801],[-9753,-7791]],[[511694,591010],[-4379,7668],[10811,7914],[3321,-7791]],[[471016,529373],[-4228,4644],[-736,3258],[7531,22961]],[[473583,560236],[19510,-669],[219,-667]],[[493312,558900],[-22296,-29527]],[[473898,526208],[-2882,3165]],[[493312,558900],[1594,-4872]],[[522063,597355],[-7922,-10628]],[[514141,586727],[-2447,4283]],[[521447,598801],[616,-1446]],[[522032,590311],[1934,2582]],[[523966,592893],[358,-841]],[[542455,608416],[3143,11299]],[[545598,619715],[2384,-6409]],[[692326,474842],[59286,77882],[21269,-56051]],[[772881,496673],[-354,-6812],[6250,-11971]],[[778777,477890],[-58575,-77352]],[[778777,477890],[3180,4199]],[[781957,482089],[13550,17911]],[[795507,500000],[204492,0]],[[999999,500000],[0,-500000],[-333333,0]],[[781957,482089],[-5863,15630],[-596,8547],[-7792,15947],[541,6624],[-4748,11779],[850,16194],[3563,15211],[-607,1427]],[[767305,573448],[17312,23166],[14598,19289]],[[832253,548567],[-36746,-48567]],[[772881,496673],[-11929,40664],[-6982,18672],[10000,13204],[-1736,3867]],[[762234,573080],[-8621,19200],[3036,16078],[-1619,8270]],[[771029,624876],[-11365,-33476],[5831,-13700]],[[765495,577700],[1810,-4252]],[[666666,715154],[0,284845]],[[666666,999999],[333333,0],[0,-499999]],[[762234,573080],[-9813,-12894],[-17382,46338],[-13339,35089]],[[793687,615097],[-13410,-17700],[-14782,-19697]],[[425709,454870],[4223,-1291]],[[547982,613306],[2494,2126]],[[550476,615432],[80809,-214563],[59442,78116]],[[550813,628712],[-3526,-4814]],[[547287,623898],[-2149,-2946]],[[545138,620952],[-1793,4819],[5678,7641],[1790,-4700]],[[550476,615432],[4106,3394],[7388,6504]],[[333333,500000],[104106,0],[-5008,-11306]],[[432431,488694],[-14442,-3323],[-1792,-4732],[-766,-24529],[-5894,-7531],[-1920,12316],[-5588,3963],[-16376,-29307],[6046,2763],[10654,19140],[1975,-3852],[1623,-10038],[4582,-629]],[[515131,584994],[6901,5317]],[[516395,582780],[-1264,2214]],[[522063,597355],[1903,-4462]],[[515131,584994],[-990,1733]],[[547287,623898],[995,-2642]],[[548282,621256],[-2708,-1475]],[[545574,619781],[-436,1171]],[[548282,621256],[2194,-5824]],[[545598,619715],[-24,66]],[[548282,621256],[853,403],[3328,2722]],[[552463,624381],[2077,-5452],[7430,6401]],[[550813,628712],[1650,-4331]],[[542455,608416],[-2063,-1821]],[[535126,601154],[-7825,-6839],[-2977,-2263]],[[515131,584994],[-4104,-3061]],[[511027,581933],[-230,376]],[[510797,582309],[-9710,15860],[-29,2951],[18549,12986],[4973,-13257],[2806,3780],[-3119,5764],[9586,19602]],[[533853,629995],[15564,14452]],[[549417,644447],[6313,-16901],[4503,3539]],[[533853,629995],[4325,8844],[2331,2939],[8684,3269],[224,-600]],[[496994,563773],[13803,18536]],[[511027,581933],[2107,-3441],[-14762,-19863],[-1378,5144]],[[473583,560236],[8950,4928],[2368,1304]],[[484901,566468],[11711,-1270],[382,-1425]],[[473583,560236],[-5167,-4948],[-2294,-2196]],[[466122,553092],[2950,11084],[1884,-477],[-407,1337],[5957,3726],[458,-1433],[7937,-861]],[[432431,488694],[6850,9035],[9912,-4111],[14563,32828],[461,1039],[313,97],[925,2309],[-1538,1817],[-1813,6287],[4018,15097]],[[333333,500000],[0,499999],[333333,0]]],"bbox":[1250,0,5000,2000],"transform":{"scale":[0.0037500037500037497,0.002000002000002],"translate":[1250,0]}}
