{"type":"Topology","objects":{"01461-4500-2.featurecollection":{"type":"GeometryCollection","geometries":[{"type":"Polygon","arcs":[[0,1]],"properties":{"市区町村名":"空知郡中富良野町","大字名":null,"丁目名":null,"小字名":"字中富良野","地番":"4483-2","精度区分":null,"座標系":"任意座標系"}},{"type":"Polygon","arcs":[[2,3]],"properties":{"市区町村名":"空知郡中富良野町","大字名":null,"丁目名":null,"小字名":"字中富良野","地番":"4483-3","精度区分":null,"座標系":"任意座標系"}},{"type":"Polygon","arcs":[[4]],"properties":{"市区町村名":"空知郡中富良野町","大字名":null,"丁目名":null,"小字名":"字中富良野","地番":"長狭物不明-106","精度区分":null,"座標系":"任意座標系"}},{"type":"Polygon","arcs":[[5,6,7,8]],"properties":{"市区町村名":"空知郡中富良野町","大字名":null,"丁目名":null,"小字名":"字中富良野","地番":"4481-2","精度区分":null,"座標系":"任意座標系"}},{"type":"Polygon","arcs":[[-8,9]],"properties":{"市区町村名":"空知郡中富良野町","大字名":null,"丁目名":null,"小字名":"字中富良野","地番":"4481-3","精度区分":null,"座標系":"任意座標系"}},{"type":"Polygon","arcs":[[10,-6]],"properties":{"市区町村名":"空知郡中富良野町","大字名":null,"丁目名":null,"小字名":"字中富良野","地番":"4481-4","精度区分":null,"座標系":"任意座標系"}},{"type":"Polygon","arcs":[[11,-2,12,-4]],"properties":{"市区町村名":"空知郡中富良野町","大字名":null,"丁目名":null,"小字名":"字中富良野","地番":"4482-3","精度区分":null,"座標系":"任意座標系"}}]}},"arcs":[[[42204,62450],[-4139,-43557],[-8466,-18893],[-9826,15957]],[[19773,15957],[22431,46493]],[[78106,135683],[4182,-24217],[-19194,-22641],[-11819,-9284]],[[51275,79541],[26831,56142]],[[948218,999999],[11290,-66718],[13504,-79822],[26987,-160642],[-3172,-16174],[-17574,104417],[-34211,203266],[3176,15673]],[[180645,223741],[-2028,-2336]],[[178617,221405],[-69191,-79767]],[[109426,141638],[-2230,29166]],[[107196,170804],[68911,77034],[4538,-24097]],[[109426,141638],[-15002,-17294],[-4538,27107],[17310,19353]],[[180645,223741],[441,-2958],[-2022,-3117],[-447,3739]],[[51275,79541],[-9071,-17091]],[[19773,15957],[-19773,32109],[78106,87617]]],"bbox":[9720.639,1700.193,11947.426,2119.826],"transform":{"scale":[0.002226789226789227,0.0004196334196334197],"translate":[9720.639,1700.193]}}