{"type":"Topology","objects":{"01453-4500-26.featurecollection":{"type":"GeometryCollection","geometries":[{"type":"Polygon","arcs":[[0,1,2,3,4]],"properties":{"市区町村名":"上川郡東神楽町","大字名":null,"丁目名":null,"小字名":"字東神楽","地番":"535-1","精度区分":null,"座標系":"任意座標系"}},{"type":"Polygon","arcs":[[5,-5,6]],"properties":{"市区町村名":"上川郡東神楽町","大字名":null,"丁目名":null,"小字名":"字東神楽","地番":"535-2","精度区分":null,"座標系":"任意座標系"}},{"type":"Polygon","arcs":[[7,8,9,10,-2,11,-7,-4,12,13]],"properties":{"市区町村名":"上川郡東神楽町","大字名":null,"丁目名":null,"小字名":"字東神楽","地番":"535-3","精度区分":null,"座標系":"任意座標系"}},{"type":"Polygon","arcs":[[14,15,16]],"properties":{"市区町村名":"上川郡東神楽町","大字名":null,"丁目名":null,"小字名":"字東神楽","地番":"535-4","精度区分":null,"座標系":"任意座標系"}},{"type":"Polygon","arcs":[[-17,17,18]],"properties":{"市区町村名":"上川郡東神楽町","大字名":null,"丁目名":null,"小字名":"字東神楽","地番":"535-9","精度区分":null,"座標系":"任意座標系"}},{"type":"Polygon","arcs":[[19,-14,20,21,22]],"properties":{"市区町村名":"上川郡東神楽町","大字名":null,"丁目名":null,"小字名":"字東神楽","地番":"535-10","精度区分":null,"座標系":"任意座標系"}},{"type":"Polygon","arcs":[[-18,-16,23,24,-9,25]],"properties":{"市区町村名":"上川郡東神楽町","大字名":null,"丁目名":null,"小字名":"字東神楽","地番":"535-11","精度区分":null,"座標系":"任意座標系"}},{"type":"Polygon","arcs":[[-12,-1,-6]],"properties":{"市区町村名":"上川郡東神楽町","大字名":null,"丁目名":null,"小字名":"字東神楽","地番":"535-12","精度区分":null,"座標系":"任意座標系"}},{"type":"Polygon","arcs":[[26,27,28,-3]],"properties":{"市区町村名":"上川郡東神楽町","大字名":null,"丁目名":null,"小字名":"字東神楽","地番":"535-13","精度区分":null,"座標系":"任意座標系"}},{"type":"Polygon","arcs":[[-13,-29,29,-21]],"properties":{"市区町村名":"上川郡東神楽町","大字名":null,"丁目名":null,"小字名":"字東神楽","地番":"535-14","精度区分":null,"座標系":"任意座標系"}},{"type":"Polygon","arcs":[[30,31,-27,-11]],"properties":{"市区町村名":"上川郡東神楽町","大字名":null,"丁目名":null,"小字名":"字東神楽","地番":"535-15","精度区分":null,"座標系":"任意座標系"}},{"type":"Polygon","arcs":[[32,33,34]],"properties":{"市区町村名":"上川郡東神楽町","大字名":null,"丁目名":null,"小字名":"字東神楽","地番":"536-1","精度区分":null,"座標系":"任意座標系"}},{"type":"Polygon","arcs":[[-34,35,36,37,38,39,40,41,42]],"properties":{"市区町村名":"上川郡東神楽町","大字名":null,"丁目名":null,"小字名":"字東神楽","地番":"536-3","精度区分":null,"座標系":"任意座標系"}},{"type":"Polygon","arcs":[[-42,43,44,45]],"properties":{"市区町村名":"上川郡東神楽町","大字名":null,"丁目名":null,"小字名":"字東神楽","地番":"536-4","精度区分":null,"座標系":"任意座標系"}},{"type":"Polygon","arcs":[[-33,46,-36]],"properties":{"市区町村名":"上川郡東神楽町","大字名":null,"丁目名":null,"小字名":"字東神楽","地番":"536-5","精度区分":null,"座標系":"任意座標系"}},{"type":"Polygon","arcs":[[-45,47,48,49]],"properties":{"市区町村名":"上川郡東神楽町","大字名":null,"丁目名":null,"小字名":"字東神楽","地番":"537-1","精度区分":null,"座標系":"任意座標系"}},{"type":"Polygon","arcs":[[50,-48,-44,-41,51,52,53]],"properties":{"市区町村名":"上川郡東神楽町","大字名":null,"丁目名":null,"小字名":"字東神楽","地番":"537-2","精度区分":null,"座標系":"任意座標系"}},{"type":"Polygon","arcs":[[54,-49,-51,55]],"properties":{"市区町村名":"上川郡東神楽町","大字名":null,"丁目名":null,"小字名":"字東神楽","地番":"537-8","精度区分":null,"座標系":"任意座標系"}},{"type":"Polygon","arcs":[[56,57,58,59]],"properties":{"市区町村名":"上川郡東神楽町","大字名":null,"丁目名":null,"小字名":"字東神楽","地番":"539-1","精度区分":null,"座標系":"任意座標系"}},{"type":"Polygon","arcs":[[60,61,-58]],"properties":{"市区町村名":"上川郡東神楽町","大字名":null,"丁目名":null,"小字名":"字東神楽","地番":"539-2","精度区分":null,"座標系":"任意座標系"}},{"type":"Polygon","arcs":[[62,-60,63,-38]],"properties":{"市区町村名":"上川郡東神楽町","大字名":null,"丁目名":null,"小字名":"字東神楽","地番":"539-3","精度区分":null,"座標系":"任意座標系"}},{"type":"Polygon","arcs":[[-59,-62,64,65,66,-39,-64]],"properties":{"市区町村名":"上川郡東神楽町","大字名":null,"丁目名":null,"小字名":"字東神楽","地番":"539-4","精度区分":null,"座標系":"任意座標系"}},{"type":"Polygon","arcs":[[-40,-67,67,68,-52]],"properties":{"市区町村名":"上川郡東神楽町","大字名":null,"丁目名":null,"小字名":"字東神楽","地番":"539-5","精度区分":null,"座標系":"任意座標系"}},{"type":"Polygon","arcs":[[69,70,71,72,73]],"properties":{"市区町村名":"上川郡東神楽町","大字名":null,"丁目名":null,"小字名":"字東神楽","地番":"540-1","精度区分":null,"座標系":"任意座標系"}},{"type":"Polygon","arcs":[[-74,74,75]],"properties":{"市区町村名":"上川郡東神楽町","大字名":null,"丁目名":null,"小字名":"字東神楽","地番":"540-2","精度区分":null,"座標系":"任意座標系"}},{"type":"Polygon","arcs":[[76,-72,77,78]],"properties":{"市区町村名":"上川郡東神楽町","大字名":null,"丁目名":null,"小字名":"字東神楽","地番":"540-3","精度区分":null,"座標系":"任意座標系"}},{"type":"Polygon","arcs":[[-25,79,80,81,82,-31,-10]],"properties":{"市区町村名":"上川郡東神楽町","大字名":null,"丁目名":null,"小字名":"字東神楽","地番":"540-4","精度区分":null,"座標系":"任意座標系"}},{"type":"Polygon","arcs":[[83,84,-70,-76,85,86]],"properties":{"市区町村名":"上川郡東神楽町","大字名":null,"丁目名":null,"小字名":"字東神楽","地番":"540-5","精度区分":null,"座標系":"任意座標系"}},{"type":"Polygon","arcs":[[-86,-75,-73,-77,87,-81,88]],"properties":{"市区町村名":"上川郡東神楽町","大字名":null,"丁目名":null,"小字名":"字東神楽","地番":"540-6","精度区分":null,"座標系":"任意座標系"}},{"type":"Polygon","arcs":[[-71,89,90,91]],"properties":{"市区町村名":"上川郡東神楽町","大字名":null,"丁目名":null,"小字名":"字東神楽","地番":"540-12","精度区分":null,"座標系":"任意座標系"}},{"type":"Polygon","arcs":[[-92,92,-78]],"properties":{"市区町村名":"上川郡東神楽町","大字名":null,"丁目名":null,"小字名":"字東神楽","地番":"540-13","精度区分":null,"座標系":"任意座標系"}},{"type":"Polygon","arcs":[[93,94,-82]],"properties":{"市区町村名":"上川郡東神楽町","大字名":null,"丁目名":null,"小字名":"字東神楽","地番":"540-14","精度区分":null,"座標系":"任意座標系"}},{"type":"Polygon","arcs":[[-85,95,96,-90]],"properties":{"市区町村名":"上川郡東神楽町","大字名":null,"丁目名":null,"小字名":"字東神楽","地番":"540-15","精度区分":null,"座標系":"任意座標系"}},{"type":"Polygon","arcs":[[-79,97,-94,-88]],"properties":{"市区町村名":"上川郡東神楽町","大字名":null,"丁目名":null,"小字名":"字東神楽","地番":"540-16","精度区分":null,"座標系":"任意座標系"}},{"type":"Polygon","arcs":[[98,99,100,101]],"properties":{"市区町村名":"上川郡東神楽町","大字名":null,"丁目名":null,"小字名":"字東神楽","地番":"542-1","精度区分":null,"座標系":"任意座標系"}},{"type":"Polygon","arcs":[[102,103,-99,104]],"properties":{"市区町村名":"上川郡東神楽町","大字名":null,"丁目名":null,"小字名":"字東神楽","地番":"542-2","精度区分":null,"座標系":"任意座標系"}},{"type":"Polygon","arcs":[[-101,105,106,107]],"properties":{"市区町村名":"上川郡東神楽町","大字名":null,"丁目名":null,"小字名":"字東神楽","地番":"542-3","精度区分":null,"座標系":"任意座標系"}},{"type":"Polygon","arcs":[[108,-105,-102,-108,109,110]],"properties":{"市区町村名":"上川郡東神楽町","大字名":null,"丁目名":null,"小字名":"字東神楽","地番":"542-4","精度区分":null,"座標系":"任意座標系"}},{"type":"Polygon","arcs":[[111,112,113,-84]],"properties":{"市区町村名":"上川郡東神楽町","大字名":null,"丁目名":null,"小字名":"字東神楽","地番":"542-5","精度区分":null,"座標系":"任意座標系"}},{"type":"Polygon","arcs":[[-110,-107,114,-113,115]],"properties":{"市区町村名":"上川郡東神楽町","大字名":null,"丁目名":null,"小字名":"字東神楽","地番":"542-6","精度区分":null,"座標系":"任意座標系"}},{"type":"Polygon","arcs":[[116,117,118,-100]],"properties":{"市区町村名":"上川郡東神楽町","大字名":null,"丁目名":null,"小字名":"字東神楽","地番":"542-7","精度区分":null,"座標系":"任意座標系"}},{"type":"Polygon","arcs":[[119,120,-117,-104]],"properties":{"市区町村名":"上川郡東神楽町","大字名":null,"丁目名":null,"小字名":"字東神楽","地番":"542-8","精度区分":null,"座標系":"任意座標系"}},{"type":"Polygon","arcs":[[-119,121,122,-106]],"properties":{"市区町村名":"上川郡東神楽町","大字名":null,"丁目名":null,"小字名":"字東神楽","地番":"542-9","精度区分":null,"座標系":"任意座標系"}},{"type":"Polygon","arcs":[[-114,123,124,-96]],"properties":{"市区町村名":"上川郡東神楽町","大字名":null,"丁目名":null,"小字名":"字東神楽","地番":"542-10","精度区分":null,"座標系":"任意座標系"}},{"type":"Polygon","arcs":[[-123,125,-124,-115]],"properties":{"市区町村名":"上川郡東神楽町","大字名":null,"丁目名":null,"小字名":"字東神楽","地番":"542-11","精度区分":null,"座標系":"任意座標系"}},{"type":"Polygon","arcs":[[126,127,128,129]],"properties":{"市区町村名":"上川郡東神楽町","大字名":null,"丁目名":null,"小字名":"字東神楽","地番":"547-1","精度区分":null,"座標系":"任意座標系"}},{"type":"Polygon","arcs":[[130,131,-127]],"properties":{"市区町村名":"上川郡東神楽町","大字名":null,"丁目名":null,"小字名":"字東神楽","地番":"547-2","精度区分":null,"座標系":"任意座標系"}},{"type":"Polygon","arcs":[[-132,132,133,134,-128]],"properties":{"市区町村名":"上川郡東神楽町","大字名":null,"丁目名":null,"小字名":"字東神楽","地番":"547-4","精度区分":null,"座標系":"任意座標系"}},{"type":"Polygon","arcs":[[135,136,137]],"properties":{"市区町村名":"上川郡東神楽町","大字名":null,"丁目名":null,"小字名":"字東神楽","地番":"547-5","精度区分":null,"座標系":"任意座標系"}},{"type":"Polygon","arcs":[[138,139,140,141,142,143]],"properties":{"市区町村名":"上川郡東神楽町","大字名":null,"丁目名":null,"小字名":"字東神楽","地番":"547-6","精度区分":null,"座標系":"任意座標系"}},{"type":"Polygon","arcs":[[-134,144,-144,145,-136,146]],"properties":{"市区町村名":"上川郡東神楽町","大字名":null,"丁目名":null,"小字名":"字東神楽","地番":"547-7","精度区分":null,"座標系":"任意座標系"}},{"type":"Polygon","arcs":[[-146,-143,147,148,149,-137]],"properties":{"市区町村名":"上川郡東神楽町","大字名":null,"丁目名":null,"小字名":"字東神楽","地番":"547-8","精度区分":null,"座標系":"任意座標系"}},{"type":"Polygon","arcs":[[150,151,152,153]],"properties":{"市区町村名":"上川郡東神楽町","大字名":null,"丁目名":null,"小字名":"字東神楽","地番":"549-1","精度区分":null,"座標系":"任意座標系"}},{"type":"Polygon","arcs":[[154,-154,155,156]],"properties":{"市区町村名":"上川郡東神楽町","大字名":null,"丁目名":null,"小字名":"字東神楽","地番":"549-2","精度区分":null,"座標系":"任意座標系"}},{"type":"Polygon","arcs":[[157,-157,158]],"properties":{"市区町村名":"上川郡東神楽町","大字名":null,"丁目名":null,"小字名":"字東神楽","地番":"549-3","精度区分":null,"座標系":"任意座標系"}},{"type":"Polygon","arcs":[[159,160,161,162]],"properties":{"市区町村名":"上川郡東神楽町","大字名":null,"丁目名":null,"小字名":"字東神楽","地番":"549-4","精度区分":null,"座標系":"任意座標系"}},{"type":"Polygon","arcs":[[163,164,-151,-155,-158,165,166]],"properties":{"市区町村名":"上川郡東神楽町","大字名":null,"丁目名":null,"小字名":"字東神楽","地番":"549-5","精度区分":null,"座標系":"任意座標系"}},{"type":"Polygon","arcs":[[167,168,169,170,-162]],"properties":{"市区町村名":"上川郡東神楽町","大字名":null,"丁目名":null,"小字名":"字東神楽","地番":"549-6","精度区分":null,"座標系":"任意座標系"}},{"type":"Polygon","arcs":[[171,-163,-171,172,-164,173]],"properties":{"市区町村名":"上川郡東神楽町","大字名":null,"丁目名":null,"小字名":"字東神楽","地番":"549-7","精度区分":null,"座標系":"任意座標系"}},{"type":"Polygon","arcs":[[-166,-159,-156,-153,174,175,176,177]],"properties":{"市区町村名":"上川郡東神楽町","大字名":null,"丁目名":null,"小字名":"字東神楽","地番":"549-8","精度区分":null,"座標系":"任意座標系"}},{"type":"Polygon","arcs":[[-152,178,179,180,-175]],"properties":{"市区町村名":"上川郡東神楽町","大字名":null,"丁目名":null,"小字名":"字東神楽","地番":"549-9","精度区分":null,"座標系":"任意座標系"}},{"type":"Polygon","arcs":[[181,182,-179,-165]],"properties":{"市区町村名":"上川郡東神楽町","大字名":null,"丁目名":null,"小字名":"字東神楽","地番":"549-10","精度区分":null,"座標系":"任意座標系"}},{"type":"Polygon","arcs":[[183,184,185,-170]],"properties":{"市区町村名":"上川郡東神楽町","大字名":null,"丁目名":null,"小字名":"字東神楽","地番":"549-11","精度区分":null,"座標系":"任意座標系"}},{"type":"Polygon","arcs":[[-186,186,-182,-173]],"properties":{"市区町村名":"上川郡東神楽町","大字名":null,"丁目名":null,"小字名":"字東神楽","地番":"549-12","精度区分":null,"座標系":"任意座標系"}},{"type":"Polygon","arcs":[[-176,-181,187]],"properties":{"市区町村名":"上川郡東神楽町","大字名":null,"丁目名":null,"小字名":"字東神楽","地番":"549-13","精度区分":null,"座標系":"任意座標系"}},{"type":"Polygon","arcs":[[188,189,190,191,192]],"properties":{"市区町村名":"上川郡東神楽町","大字名":null,"丁目名":null,"小字名":"字東神楽","地番":"551-1","精度区分":null,"座標系":"任意座標系"}},{"type":"Polygon","arcs":[[193,194,195,196,-190]],"properties":{"市区町村名":"上川郡東神楽町","大字名":null,"丁目名":null,"小字名":"字東神楽","地番":"551-3","精度区分":null,"座標系":"任意座標系"}},{"type":"Polygon","arcs":[[-193,197,-169,198]],"properties":{"市区町村名":"上川郡東神楽町","大字名":null,"丁目名":null,"小字名":"字東神楽","地番":"551-4","精度区分":null,"座標系":"任意座標系"}},{"type":"Polygon","arcs":[[199,200,201]],"properties":{"市区町村名":"上川郡東神楽町","大字名":null,"丁目名":null,"小字名":"字東神楽","地番":"551-5","精度区分":null,"座標系":"任意座標系"}},{"type":"Polygon","arcs":[[202,203,204,205]],"properties":{"市区町村名":"上川郡東神楽町","大字名":null,"丁目名":null,"小字名":"字東神楽","地番":"551-9","精度区分":null,"座標系":"任意座標系"}},{"type":"Polygon","arcs":[[-205,206,207,-200,208,209]],"properties":{"市区町村名":"上川郡東神楽町","大字名":null,"丁目名":null,"小字名":"字東神楽","地番":"551-10","精度区分":null,"座標系":"任意座標系"}},{"type":"Polygon","arcs":[[-209,-202,210,-160,-172,211]],"properties":{"市区町村名":"上川郡東神楽町","大字名":null,"丁目名":null,"小字名":"字東神楽","地番":"551-11","精度区分":null,"座標系":"任意座標系"}},{"type":"Polygon","arcs":[[-201,-208,212,-194,-189,-199,-168,-161,-211]],"properties":{"市区町村名":"上川郡東神楽町","大字名":null,"丁目名":null,"小字名":"字東神楽","地番":"551-12","精度区分":null,"座標系":"任意座標系"}},{"type":"Polygon","arcs":[[213,214,215,-192]],"properties":{"市区町村名":"上川郡東神楽町","大字名":null,"丁目名":null,"小字名":"字東神楽","地番":"551-13","精度区分":null,"座標系":"任意座標系"}},{"type":"Polygon","arcs":[[216,217,-214,218,-196]],"properties":{"市区町村名":"上川郡東神楽町","大字名":null,"丁目名":null,"小字名":"字東神楽","地番":"551-14","精度区分":null,"座標系":"任意座標系"}},{"type":"Polygon","arcs":[[-216,219,-184,-198]],"properties":{"市区町村名":"上川郡東神楽町","大字名":null,"丁目名":null,"小字名":"字東神楽","地番":"551-15","精度区分":null,"座標系":"任意座標系"}},{"type":"Polygon","arcs":[[220,221,222,-204]],"properties":{"市区町村名":"上川郡東神楽町","大字名":null,"丁目名":null,"小字名":"字東神楽","地番":"551-16","精度区分":null,"座標系":"任意座標系"}},{"type":"Polygon","arcs":[[-223,223,224,-207]],"properties":{"市区町村名":"上川郡東神楽町","大字名":null,"丁目名":null,"小字名":"字東神楽","地番":"551-17","精度区分":null,"座標系":"任意座標系"}},{"type":"Polygon","arcs":[[-225,225,-217,-195,-213]],"properties":{"市区町村名":"上川郡東神楽町","大字名":null,"丁目名":null,"小字名":"字東神楽","地番":"551-18","精度区分":null,"座標系":"任意座標系"}},{"type":"Polygon","arcs":[[-197,-219,-191]],"properties":{"市区町村名":"上川郡東神楽町","大字名":null,"丁目名":null,"小字名":"字東神楽","地番":"551-19","精度区分":null,"座標系":"任意座標系"}},{"type":"Polygon","arcs":[[226,227,228,229,230,231]],"properties":{"市区町村名":"上川郡東神楽町","大字名":null,"丁目名":null,"小字名":"字東神楽","地番":"553-1","精度区分":null,"座標系":"任意座標系"}},{"type":"Polygon","arcs":[[232,-227,233]],"properties":{"市区町村名":"上川郡東神楽町","大字名":null,"丁目名":null,"小字名":"字東神楽","地番":"553-2","精度区分":null,"座標系":"任意座標系"}},{"type":"Polygon","arcs":[[234,235,-229]],"properties":{"市区町村名":"上川郡東神楽町","大字名":null,"丁目名":null,"小字名":"字東神楽","地番":"553-3","精度区分":null,"座標系":"任意座標系"}},{"type":"Polygon","arcs":[[236,237,238,239,-230,-236,240,241,-141]],"properties":{"市区町村名":"上川郡東神楽町","大字名":null,"丁目名":null,"小字名":"字東神楽","地番":"553-7","精度区分":null,"座標系":"任意座標系"}},{"type":"Polygon","arcs":[[242,-234,-232,243,-239]],"properties":{"市区町村名":"上川郡東神楽町","大字名":null,"丁目名":null,"小字名":"字東神楽","地番":"553-8","精度区分":null,"座標系":"任意座標系"}},{"type":"Polygon","arcs":[[-231,-240,-244]],"properties":{"市区町村名":"上川郡東神楽町","大字名":null,"丁目名":null,"小字名":"字東神楽","地番":"553-9","精度区分":null,"座標系":"任意座標系"}},{"type":"Polygon","arcs":[[244,-237,-140]],"properties":{"市区町村名":"上川郡東神楽町","大字名":null,"丁目名":null,"小字名":"字東神楽","地番":"553-10","精度区分":null,"座標系":"任意座標系"}},{"type":"Polygon","arcs":[[245,246,247,248,249]],"properties":{"市区町村名":"上川郡東神楽町","大字名":null,"丁目名":null,"小字名":"字東神楽","地番":"555-10","精度区分":null,"座標系":"任意座標系"}},{"type":"Polygon","arcs":[[250,251]],"properties":{"市区町村名":"上川郡東神楽町","大字名":null,"丁目名":null,"小字名":"字東神楽","地番":"555-11","精度区分":null,"座標系":"任意座標系"}},{"type":"Polygon","arcs":[[252,253,-249]],"properties":{"市区町村名":"上川郡東神楽町","大字名":null,"丁目名":null,"小字名":"字東神楽","地番":"555-12","精度区分":null,"座標系":"任意座標系"}},{"type":"Polygon","arcs":[[-250,-254,254,-251,255,256]],"properties":{"市区町村名":"上川郡東神楽町","大字名":null,"丁目名":null,"小字名":"字東神楽","地番":"555-13","精度区分":null,"座標系":"任意座標系"}},{"type":"Polygon","arcs":[[257,-247,258]],"properties":{"市区町村名":"上川郡東神楽町","大字名":null,"丁目名":null,"小字名":"字東神楽","地番":"555-14","精度区分":null,"座標系":"任意座標系"}},{"type":"Polygon","arcs":[[259,-257,260]],"properties":{"市区町村名":"上川郡東神楽町","大字名":null,"丁目名":null,"小字名":"字東神楽","地番":"555-19","精度区分":null,"座標系":"任意座標系"}},{"type":"Polygon","arcs":[[-259,261,262]],"properties":{"市区町村名":"上川郡東神楽町","大字名":null,"丁目名":null,"小字名":"字東神楽","地番":"555-20","精度区分":null,"座標系":"任意座標系"}},{"type":"Polygon","arcs":[[-262,-246,-260,263]],"properties":{"市区町村名":"上川郡東神楽町","大字名":null,"丁目名":null,"小字名":"字東神楽","地番":"555-22","精度区分":null,"座標系":"任意座標系"}},{"type":"Polygon","arcs":[[264,265,266,267]],"properties":{"市区町村名":"上川郡東神楽町","大字名":null,"丁目名":null,"小字名":"字東神楽","地番":"557-1","精度区分":null,"座標系":"任意座標系"}},{"type":"Polygon","arcs":[[268,269,270,-266]],"properties":{"市区町村名":"上川郡東神楽町","大字名":null,"丁目名":null,"小字名":"字東神楽","地番":"557-2","精度区分":null,"座標系":"任意座標系"}},{"type":"Polygon","arcs":[[271,-268,272,273]],"properties":{"市区町村名":"上川郡東神楽町","大字名":null,"丁目名":null,"小字名":"字東神楽","地番":"557-3","精度区分":null,"座標系":"任意座標系"}},{"type":"Polygon","arcs":[[274,275,276,-269,-265,-272,277]],"properties":{"市区町村名":"上川郡東神楽町","大字名":null,"丁目名":null,"小字名":"字東神楽","地番":"557-4","精度区分":null,"座標系":"任意座標系"}},{"type":"Polygon","arcs":[[278,279,280]],"properties":{"市区町村名":"上川郡東神楽町","大字名":null,"丁目名":null,"小字名":"字東神楽","地番":"557-5","精度区分":null,"座標系":"任意座標系"}},{"type":"Polygon","arcs":[[-273,-267,-271,281,282,-276,283,-279,284,285,286,287]],"properties":{"市区町村名":"上川郡東神楽町","大字名":null,"丁目名":null,"小字名":"字東神楽","地番":"557-7","精度区分":null,"座標系":"任意座標系"}},{"type":"Polygon","arcs":[[-277,-283,288]],"properties":{"市区町村名":"上川郡東神楽町","大字名":null,"丁目名":null,"小字名":"字東神楽","地番":"557-9","精度区分":null,"座標系":"任意座標系"}},{"type":"Polygon","arcs":[[-23,289]],"properties":{"市区町村名":"上川郡東神楽町","大字名":null,"丁目名":null,"小字名":"字東神楽","地番":"無地番-14","精度区分":null,"座標系":"任意座標系"}},{"type":"Polygon","arcs":[[290,291,-120,-103,-109,292]],"properties":{"市区町村名":"上川郡東神楽町","大字名":null,"丁目名":null,"小字名":"字東神楽","地番":"無地番-15","精度区分":null,"座標系":"任意座標系"}},{"type":"Polygon","arcs":[[293,294,295,296,-291,297]],"properties":{"市区町村名":"上川郡東神楽町","大字名":null,"丁目名":null,"小字名":"字東神楽","地番":"無地番-17","精度区分":null,"座標系":"任意座標系"}},{"type":"Polygon","arcs":[[-56,-54,298]],"properties":{"市区町村名":"上川郡東神楽町","大字名":null,"丁目名":null,"小字名":"字東神楽","地番":"無地番-108","精度区分":null,"座標系":"任意座標系"}},{"type":"Polygon","arcs":[[-129,-135,-147,-138,-150,299,-68,-66,300]],"properties":{"市区町村名":"上川郡東神楽町","大字名":null,"丁目名":null,"小字名":"字東神楽","地番":"無地番-112","精度区分":null,"座標系":"任意座標系"}},{"type":"Polygon","arcs":[[301,-174,-167,-178,302,-296]],"properties":{"市区町村名":"上川郡東神楽町","大字名":null,"丁目名":null,"小字名":"字東神楽","地番":"無地番-117","精度区分":null,"座標系":"任意座標系"}},{"type":"Polygon","arcs":[[-142,-242,303,304,-148]],"properties":{"市区町村名":"上川郡東神楽町","大字名":null,"丁目名":null,"小字名":"字東神楽","地番":"無地番-118","精度区分":null,"座標系":"任意座標系"}},{"type":"Polygon","arcs":[[-206,-210,-212,-302,-295]],"properties":{"市区町村名":"上川郡東神楽町","大字名":null,"丁目名":null,"小字名":"字東神楽","地番":"無地番-119","精度区分":null,"座標系":"任意座標系"}},{"type":"Polygon","arcs":[[305,-304,-241]],"properties":{"市区町村名":"上川郡東神楽町","大字名":null,"丁目名":null,"小字名":"字東神楽","地番":"無地番-120","精度区分":null,"座標系":"任意座標系"}},{"type":"Polygon","arcs":[[-203,-294,306,307,308,309,-285,-281,310,-278,-274,-288,311,-221]],"properties":{"市区町村名":"上川郡東神楽町","大字名":null,"丁目名":null,"小字名":"字東神楽","地番":"無地番-122","精度区分":null,"座標系":"任意座標系"}},{"type":"Polygon","arcs":[[312,-286,-310]],"properties":{"市区町村名":"上川郡東神楽町","大字名":null,"丁目名":null,"小字名":"字東神楽","地番":"無地番-124","精度区分":null,"座標系":"任意座標系"}},{"type":"Polygon","arcs":[[-308,313]],"properties":{"市区町村名":"上川郡東神楽町","大字名":null,"丁目名":null,"小字名":"字東神楽","地番":"無地番-126","精度区分":null,"座標系":"任意座標系"}},{"type":"Polygon","arcs":[[-284,-275,-311,-280]],"properties":{"市区町村名":"上川郡東神楽町","大字名":null,"丁目名":null,"小字名":"字東神楽","地番":"557-6","精度区分":null,"座標系":"任意座標系"}},{"type":"Polygon","arcs":[[-289,-282,-270]],"properties":{"市区町村名":"上川郡東神楽町","大字名":null,"丁目名":null,"小字名":"字東神楽","地番":"557-8","精度区分":null,"座標系":"任意座標系"}}]}},"arcs":[[[173286,906585],[-10970,-12027]],[[162316,894558],[-13806,-15183]],[[148510,879375],[-5135,5809]],[[143375,885184],[14596,15329],[-15802,16613]],[[142169,917126],[21102,22303],[20345,-21493],[-10330,-11351]],[[181263,898249],[-7977,8336]],[[142169,917126],[-5404,5699],[32992,34711],[33259,-35973],[-21753,-23314]],[[174441,995083],[56040,-3160]],[[230481,991923],[79673,-84863]],[[310154,907060],[-93995,-99424]],[[216159,807636],[-1176,1721],[-66552,69930],[79,88]],[[162316,894558],[13811,-14347],[10981,11918],[-5845,6120]],[[143375,885184],[-36589,38330]],[[106786,923514],[67655,71569]],[[245826,991052],[132772,-7505]],[[378598,983547],[-66541,-70340],[-69718,74173]],[[242339,987380],[3487,3672]],[[242339,987380],[-3737,4051]],[[238602,991431],[7224,-379]],[[170638,995279],[3803,-196]],[[106786,923514],[-779,-825]],[[106007,922689],[-1933,2081]],[[104074,924770],[66564,70509]],[[378598,983547],[3562,-158],[1876,-1970]],[[384036,981419],[-72217,-76352],[-1665,1993]],[[230481,991923],[8121,-492]],[[148510,879375],[-836,-912]],[[147674,878463],[-5298,5637]],[[142376,884100],[999,1084]],[[142376,884100],[-36369,38589]],[[216159,807636],[951,-1824]],[[217110,805812],[-1357,1442],[-488,-518],[-67591,71727]],[[291236,709550],[-23268,-24026]],[[267968,685524],[-11014,16318],[-6138,9092],[18052,22571]],[[268868,733505],[8923,-9555],[13445,-14400]],[[267968,685524],[-9870,-10208],[20387,-24262],[32973,37375]],[[311458,688429],[7504,-7805],[934,-617],[37233,-39835]],[[357129,640172],[-15069,-15945]],[[342060,624227],[-42310,-44895]],[[299750,579332],[-31436,55063]],[[268314,634395],[-18287,17147],[-13901,28204],[-6988,14178],[-59334,90990],[-24887,24704],[-25859,20450]],[[119058,830068],[29291,31181]],[[148349,861249],[83120,-87945],[33231,-35336],[4168,-4463]],[[119058,830068],[-2205,1720]],[[116853,831788],[29396,31389]],[[146249,863177],[2100,-1928]],[[291236,709550],[20222,-21121]],[[116853,831788],[-45743,36200],[-5783,10579]],[[65327,878567],[31812,36786]],[[97139,915353],[49110,-52176]],[[63946,881163],[1381,-2596]],[[268314,634395],[-13461,-14237]],[[254853,620158],[-19829,19074],[-13052,25497],[-9935,19407],[-57764,89065],[-21237,22416],[-80431,61585],[-5744,7119]],[[46861,864321],[16699,17521],[386,-679]],[[96685,915860],[454,-507]],[[63946,881163],[32739,34697]],[[392747,602834],[13104,-13821]],[[405851,589013],[-6888,-6946],[-2736,3062],[-9111,-9691]],[[387116,575438],[-18588,20084]],[[368528,595522],[11382,12508],[8593,-9424],[4244,4228]],[[405851,589013],[6207,-6534]],[[412058,582479],[-16103,-16650],[-8839,9609]],[[357129,640172],[21066,-22380],[1238,-988],[13314,-13970]],[[368528,595522],[-26468,28705]],[[412058,582479],[18937,-20108]],[[430995,562371],[-84007,-89258]],[[346988,473113],[-22870,63735],[-24368,42484]],[[346988,473113],[-14722,-15501]],[[332266,457612],[-25246,70235],[-52167,92311]],[[323122,757100],[-15368,-15891],[-6453,6368],[-14009,-14891]],[[287292,732686],[-699,602],[-2376,2052]],[[284217,735340],[10910,11507],[-10349,12435]],[[284778,759282],[23133,24605]],[[307911,783887],[9008,-9354],[-4791,-5175],[4126,-4602],[6868,-7656]],[[307911,783887],[35266,37481]],[[343177,821368],[13173,-14072],[7596,-8116],[-40824,-42080]],[[272932,746751],[11846,12531]],[[284217,735340],[-11379,11312]],[[272838,746652],[94,99]],[[384036,981419],[51996,-54960]],[[436032,926459],[-165838,-176081]],[[270194,750378],[-52896,55235]],[[217298,805613],[-188,199]],[[493235,865528],[-165274,-175115]],[[327961,690413],[-40669,42273]],[[343177,821368],[95944,101833]],[[439121,923201],[13208,-14078],[40906,-43595]],[[272932,746751],[-2738,3627]],[[436032,926459],[3089,-3258]],[[287292,732686],[-534,-543]],[[286758,732143],[-645,636],[-2245,2215]],[[283868,734994],[349,346]],[[283868,734994],[-11030,11658]],[[270194,750378],[-418,-467]],[[269776,749911],[-52478,55702]],[[327961,690413],[-998,-1036]],[[326963,689377],[-40205,42766]],[[272838,746652],[-3062,3259]],[[445679,620607],[-26244,-28164]],[[419435,592443],[-21438,22885]],[[397997,615328],[26278,28005]],[[424275,643333],[21404,-22726]],[[465822,599293],[-26396,-28030]],[[439426,571263],[-19991,21180]],[[445679,620607],[20143,-21314]],[[397997,615328],[-2428,2498],[-919,-86],[-9581,10250],[-129,235]],[[384940,628225],[26685,28610]],[[411625,656835],[12650,-13502]],[[599225,741029],[-133403,-141736]],[[411625,656835],[135801,144790]],[[547426,801625],[51799,-60596]],[[493235,865528],[51189,-60477]],[[544424,805051],[-162066,-173080]],[[382358,631971],[-53157,56044],[-1240,2398]],[[384940,628225],[-186,296],[-2396,3450]],[[544424,805051],[3002,-3426]],[[419435,592443],[-707,-778]],[[418728,591665],[-21508,22811]],[[397220,614476],[777,852]],[[439426,571263],[-718,-740]],[[438708,570523],[-19980,21142]],[[397220,614476],[-12616,13390]],[[384604,627866],[336,359]],[[382358,631971],[-811,-890]],[[381547,631081],[-54711,58160],[127,136]],[[384604,627866],[-3057,3215]],[[453803,537952],[-15371,-16144]],[[438432,521808],[-18458,19380]],[[419974,541188],[15359,16329]],[[435333,557517],[18470,-19565]],[[453803,537952],[22842,-24160]],[[476645,513792],[-15268,-16131],[-22945,24147]],[[476645,513792],[46434,-48962],[22423,-23643]],[[545502,441187],[-62999,-66664],[-22261,23641],[-87447,92863]],[[372795,491027],[47179,50161]],[[369723,487776],[87507,-92808],[21858,-23182]],[[479088,371786],[-20791,-2070],[-42970,-28818],[-4408,-1165],[-4828,979],[-8886,3299],[-3526,2642],[-3012,5078],[-41172,114649]],[[349495,466380],[20228,21396]],[[548511,437993],[53919,-57334],[-232,-247]],[[602198,380412],[-61242,-64821]],[[540956,315591],[-11650,-12298]],[[529306,303293],[-8157,13796]],[[521149,317089],[-10774,34490],[-22121,21078],[-1652,-170]],[[486602,372487],[61909,65506]],[[545502,441187],[3009,-3194]],[[486602,372487],[-7514,-701]],[[369723,487776],[3072,3251]],[[521149,317089],[-17498,-8602]],[[503651,308487],[-9897,32127],[-11806,11332],[-18254,-2447],[-40436,-26672],[-11584,-3437],[-11186,2062],[-9171,3586],[-3261,1275],[-7986,6101],[-6643,10759],[-1460,4077],[-37194,103481]],[[334773,450731],[14722,15649]],[[635888,419518],[-26299,-28040]],[[609589,391478],[-16587,17090]],[[593002,408568],[8914,10075],[-7344,10749],[17440,18594]],[[612012,447986],[23876,-28468]],[[654866,439803],[-18978,-20285]],[[612012,447986],[17648,18817]],[[629660,466803],[25206,-27000]],[[717411,506711],[-62545,-66908]],[[629660,466803],[-11314,12122],[62556,66994],[36509,-39208]],[[763403,433099],[-3777,-4050]],[[759626,429049],[-45094,-48090]],[[714532,380959],[-39953,42409]],[[674579,423368],[48962,52152],[39862,-42421]],[[752890,537772],[-140451,-149779]],[[612439,387993],[-2850,3485]],[[717411,506711],[32661,34780]],[[750072,541491],[2818,-3719]],[[714532,380959],[-27202,-28929]],[[687330,352030],[-21019,-22310]],[[666311,329720],[-8488,9353],[-31219,33067]],[[626604,372140],[47975,51228]],[[800955,473000],[-37552,-39901]],[[626604,372140],[-4132,4350],[-8070,9180],[-1963,2323]],[[752890,537772],[48065,-64772]],[[593002,408568],[-82,-86]],[[592920,408482],[-38138,39529]],[[554782,448011],[148090,157125]],[[702872,605136],[47200,-63645]],[[609589,391478],[-1343,-1433]],[[608246,390045],[-16321,17276]],[[591925,407321],[995,1161]],[[612439,387993],[-1123,-1197]],[[611316,386796],[-3070,3249]],[[666311,329720],[-544,-581]],[[665767,329139],[-39882,42211]],[[625885,371350],[719,790]],[[625885,371350],[-14569,15446]],[[591925,407321],[-37792,40023],[220,235],[429,432]],[[691241,347817],[20350,-21835]],[[711591,325982],[-7953,-9075],[-164,170]],[[703474,317077],[-12327,12780],[-11970,-13879]],[[679177,315978],[-2276,2336]],[[676901,318314],[3342,4557],[-6902,8266],[17900,16680]],[[711591,325982],[14560,-15705],[-19440,-21718]],[[706711,288559],[-729,-803]],[[705982,287756],[-14931,15721]],[[691051,303477],[12423,13600]],[[676901,318314],[-10590,11406]],[[687330,352030],[3911,-4213]],[[816936,368547],[-30282,-32754]],[[786654,335793],[-32766,34365],[30526,32742]],[[784414,402900],[32522,-34353]],[[900519,342142],[-122950,-129985]],[[777569,212157],[-1544,1677],[-47704,51877]],[[728321,265711],[126421,136785]],[[854742,402496],[44191,-58263],[1586,-2091]],[[728321,265711],[-2957,3868]],[[725364,269579],[61290,66214]],[[816936,368547],[34919,37717]],[[851855,406264],[2887,-3768]],[[784414,402900],[-24788,26149]],[[800955,473000],[50900,-66736]],[[725364,269579],[-18653,18980]],[[679177,315978],[-532,-616]],[[678645,315362],[-2218,2348]],[[676427,317710],[474,604]],[[705982,287756],[-648,-691]],[[705334,287065],[-26689,28297]],[[679177,315978],[11874,-12501]],[[676427,317710],[-10660,11429]],[[777569,212157],[-703,-709]],[[776866,211448],[-1548,1636],[-48352,51133]],[[726966,264217],[1355,1494]],[[726966,264217],[-3327,3497]],[[723639,267714],[1725,1865]],[[723639,267714],[-18305,19351]],[[713029,236855],[14805,-12760],[12651,9464]],[[740485,233559],[3591,-3840]],[[744076,229719],[-22952,-17152]],[[721124,212567],[-18696,-13973]],[[702428,198594],[-14883,17284]],[[687545,215878],[11055,10320],[14429,10657]],[[727413,247465],[13072,-13906]],[[713029,236855],[14384,10610]],[[744076,229719],[22226,-23577],[-123,-2754],[-18469,-19595]],[[747710,183793],[-26586,28774]],[[540956,315591],[17186,-18327],[9134,9347],[29235,-31094],[30551,32497]],[[627062,308014],[4338,-4507],[21476,23038],[71434,-75786]],[[724310,250759],[-29103,-21526],[-24561,-22970],[-65835,68729],[-3138,-3304],[68798,-71628]],[[670471,200060],[14097,-14749],[17860,13283]],[[747710,183793],[-1766,-593],[-25755,-26291]],[[720189,156909],[-11108,8613],[-10129,961],[-20345,-9904],[-24804,-2035],[-35056,10581],[-13024,5293],[-73979,128532],[-2438,4343]],[[724310,250759],[3103,-3294]],[[687545,215878],[-17074,-15818]],[[602198,380412],[17351,-18427],[-21778,-23061],[29291,-30910]],[[784527,186526],[111619,-119157]],[[896146,67369],[-9341,-9928],[10380,-10893]],[[897185,46548],[-21432,-22631]],[[875753,23917],[-63011,66564],[-59375,63074]],[[753367,153555],[31160,32971]],[[728959,146041],[19193,-12803],[13509,-10987],[98658,-114613]],[[860319,7638],[-7202,-7638],[-49690,52776],[-83307,88640],[6060,6471],[2779,-1846]],[[875753,23917],[-9850,-10399]],[[865903,13518],[-122303,129665],[9767,10372]],[[865903,13518],[-5584,-5880]],[[728959,146041],[46615,50072]],[[775574,196113],[8953,-9587]],[[906503,56353],[-9318,-9805]],[[896146,67369],[10357,-11016]],[[785255,187331],[-728,-805]],[[775574,196113],[730,755],[8951,-9537]],[[896146,67369],[1119,1250]],[[897265,68619],[10440,-11003],[-1202,-1263]],[[785255,187331],[112010,-118712]],[[811997,221650],[20609,-21429]],[[832606,200221],[-22348,-22460]],[[810258,177761],[-20331,21679]],[[789927,199440],[22070,22210]],[[832606,200221],[14789,-15385],[-21644,-23147]],[[825751,161689],[-7725,8258],[-196,-211]],[[817830,169736],[-7572,8025]],[[803794,230141],[8203,-8491]],[[789927,199440],[-7561,8111]],[[782366,207551],[21428,22590]],[[840446,269010],[108773,-115788]],[[949219,153222],[-57685,-61359]],[[891534,91863],[-65783,69826]],[[803794,230141],[36652,38869]],[[896450,328358],[5353,-6975],[27581,-35436],[64248,-81756],[-42943,-46019]],[[950689,158172],[-107166,114105]],[[843523,272277],[52927,56081]],[[817830,169736],[7737,-8221]],[[825567,161515],[65772,-69863],[195,211]],[[949219,153222],[3090,3303],[-1620,1647]],[[896450,328358],[2825,2968]],[[899275,331326],[86338,-110489]],[[985613,220837],[14386,-18415],[-27791,-29468],[-18766,-19844],[-61212,-65084],[-111167,118196]],[[781063,206222],[1303,1329]],[[825567,161515],[184,174]],[[104074,924770],[-4612,4683],[66669,70546],[4507,-4720]],[[603632,736523],[-5510,-5914]],[[598122,730609],[-155211,-165130],[-4203,5044]],[[599225,741029],[4407,-4506]],[[905981,347954],[-5462,-5812]],[[900519,342142],[-1527,2153],[-94212,132829]],[[804780,477124],[-95667,134693]],[[709113,611817],[-23641,25302],[-87350,93490]],[[603632,736523],[87303,-93609],[23411,-25048],[23615,-33299],[36845,-51599],[35721,-49819],[93938,-133047],[1516,-2148]],[[46861,864321],[-42672,-45079],[-4189,4784],[41605,44094],[17426,18470],[33539,35302],[4115,-6032]],[[334773,450731],[-49810,-52811],[-2829,6437],[50132,53255]],[[430995,562371],[4338,-4854]],[[804780,477124],[-3825,-4124]],[[702872,605136],[6241,6681]],[[720189,156909],[1259,-977]],[[721448,155932],[2075,-1609],[-12943,-13633],[-2199,1379],[-5915,3707],[-18053,-8636],[-33465,-2807],[-38598,12219],[-19267,8025],[-51811,89817],[-21356,36922],[-4247,7447],[-11458,19007],[-560,717]],[[747710,183793],[-12988,-13778],[-13274,-14083]],[[905981,347954],[4392,4658],[4047,-5240]],[[914420,347372],[-4333,-4620]],[[910087,342752],[-5637,-5998]],[[904450,336754],[-5175,-5428]],[[843523,272277],[-3077,-3267]],[[781063,206222],[-4197,5226]],[[904450,336754],[84060,-113147],[-2897,-2770]],[[914420,347372],[81634,-116410],[-2042,-1976],[-83925,113766]]],"bbox":[-113.782,-1005.567,1041.799,83.639],"transform":{"scale":[0.0011555821555821555,0.0010892070892070892],"translate":[-113.782,-1005.567]}}