{"type":"Topology","objects":{"01433-4500-4.featurecollection":{"type":"GeometryCollection","geometries":[{"type":"Polygon","arcs":[[0,1]],"properties":{"市区町村名":"雨竜郡妹背牛町","大字名":null,"丁目名":null,"小字名":"字妹背牛","地番":"481-1","精度区分":null,"座標系":"任意座標系"}},{"type":"Polygon","arcs":[[-1,2]],"properties":{"市区町村名":"雨竜郡妹背牛町","大字名":null,"丁目名":null,"小字名":"字妹背牛","地番":"481-4","精度区分":null,"座標系":"任意座標系"}}]}},"arcs":[[[866753,387034],[-457665,138664],[-161479,227910]],[[247609,753608],[630352,246391],[122038,-259161],[-133246,-353804]],[[866753,387034],[-145733,-387034],[-493634,159067],[-227386,497746],[247609,96795]]],"bbox":[57.92,117.248,90.754,152.095],"transform":{"scale":[3.283403283403284e-05,3.4847034847034845e-05],"translate":[57.92,117.248]}}