{"type":"Topology","objects":{"01484-4502-21.featurecollection":{"type":"GeometryCollection","geometries":[{"type":"Polygon","arcs":[[0,1,2]],"properties":{"市区町村名":"苫前郡羽幌町","大字名":"字上羽幌","丁目名":null,"小字名":null,"地番":"297-5","精度区分":null,"座標系":"任意座標系"}},{"type":"Polygon","arcs":[[3,4,5,6]],"properties":{"市区町村名":"苫前郡羽幌町","大字名":"字上羽幌","丁目名":null,"小字名":null,"地番":"294-3","精度区分":null,"座標系":"任意座標系"}},{"type":"Polygon","arcs":[[7,8,9,10]],"properties":{"市区町村名":"苫前郡羽幌町","大字名":"字上羽幌","丁目名":null,"小字名":null,"地番":"294-4","精度区分":null,"座標系":"任意座標系"}},{"type":"Polygon","arcs":[[11,12,13,-9]],"properties":{"市区町村名":"苫前郡羽幌町","大字名":"字上羽幌","丁目名":null,"小字名":null,"地番":"294-6","精度区分":null,"座標系":"任意座標系"}},{"type":"Polygon","arcs":[[14,15]],"properties":{"市区町村名":"苫前郡羽幌町","大字名":"字上羽幌","丁目名":null,"小字名":null,"地番":"292","精度区分":null,"座標系":"任意座標系"}},{"type":"Polygon","arcs":[[16,17,18,19,20]],"properties":{"市区町村名":"苫前郡羽幌町","大字名":"字上羽幌","丁目名":null,"小字名":null,"地番":"295-1","精度区分":null,"座標系":"任意座標系"}},{"type":"Polygon","arcs":[[21,-20,22,23,24,25,26,27]],"properties":{"市区町村名":"苫前郡羽幌町","大字名":"字上羽幌","丁目名":null,"小字名":null,"地番":"水-1","精度区分":null,"座標系":"任意座標系"}},{"type":"Polygon","arcs":[[28,29,30,31,32,33,34,35,-35,36,-33,37,38,39,40,41]],"properties":{"市区町村名":"苫前郡羽幌町","大字名":"字上羽幌","丁目名":null,"小字名":null,"地番":"301-1","精度区分":null,"座標系":"任意座標系"}},{"type":"Polygon","arcs":[[42,43,44,-38,-32]],"properties":{"市区町村名":"苫前郡羽幌町","大字名":"字上羽幌","丁目名":null,"小字名":null,"地番":"301-8","精度区分":null,"座標系":"任意座標系"}},{"type":"Polygon","arcs":[[45,-44]],"properties":{"市区町村名":"苫前郡羽幌町","大字名":"字上羽幌","丁目名":null,"小字名":null,"地番":"水-2","精度区分":null,"座標系":"任意座標系"}},{"type":"Polygon","arcs":[[46,-40,47,48]],"properties":{"市区町村名":"苫前郡羽幌町","大字名":"字上羽幌","丁目名":null,"小字名":null,"地番":"301-3","精度区分":null,"座標系":"任意座標系"}},{"type":"Polygon","arcs":[[49,50,51]],"properties":{"市区町村名":"苫前郡羽幌町","大字名":"字上羽幌","丁目名":null,"小字名":null,"地番":"302-2","精度区分":null,"座標系":"任意座標系"}},{"type":"Polygon","arcs":[[52,53,54,55,56]],"properties":{"市区町村名":"苫前郡羽幌町","大字名":"字上羽幌","丁目名":null,"小字名":null,"地番":"306","精度区分":null,"座標系":"任意座標系"}},{"type":"Polygon","arcs":[[57,58,59,60,61,62,63,-10,-14,64,65,66,67,68,-18,69,70,71,72,73,74]],"properties":{"市区町村名":"苫前郡羽幌町","大字名":"字上羽幌","丁目名":null,"小字名":null,"地番":"長狭物不明-1","精度区分":null,"座標系":"任意座標系"}},{"type":"Polygon","arcs":[[75,-59,76]],"properties":{"市区町村名":"苫前郡羽幌町","大字名":"字上羽幌","丁目名":null,"小字名":null,"地番":"308-2","精度区分":null,"座標系":"任意座標系"}},{"type":"Polygon","arcs":[[77,78,-60,-76]],"properties":{"市区町村名":"苫前郡羽幌町","大字名":"字上羽幌","丁目名":null,"小字名":null,"地番":"308-1","精度区分":null,"座標系":"任意座標系"}},{"type":"Polygon","arcs":[[79,80,81]],"properties":{"市区町村名":"苫前郡羽幌町","大字名":"字上羽幌","丁目名":null,"小字名":null,"地番":"299-2","精度区分":null,"座標系":"任意座標系"}},{"type":"Polygon","arcs":[[82,83,84,85,86,-80]],"properties":{"市区町村名":"苫前郡羽幌町","大字名":"字上羽幌","丁目名":null,"小字名":null,"地番":"298-1","精度区分":null,"座標系":"任意座標系"}},{"type":"Polygon","arcs":[[87,88,-2,89,90,91,92,93,94,95,96,97,-84]],"properties":{"市区町村名":"苫前郡羽幌町","大字名":"字上羽幌","丁目名":null,"小字名":null,"地番":"水-3","精度区分":null,"座標系":"任意座標系"}},{"type":"Polygon","arcs":[[-96,98,99]],"properties":{"市区町村名":"苫前郡羽幌町","大字名":"字上羽幌","丁目名":null,"小字名":null,"地番":"298-8","精度区分":null,"座標系":"任意座標系"}},{"type":"Polygon","arcs":[[100,101,102,103,-94]],"properties":{"市区町村名":"苫前郡羽幌町","大字名":"字上羽幌","丁目名":null,"小字名":null,"地番":"298-2","精度区分":null,"座標系":"任意座標系"}},{"type":"Polygon","arcs":[[104,105,-101,-93,106,-61,-79,107]],"properties":{"市区町村名":"苫前郡羽幌町","大字名":"字上羽幌","丁目名":null,"小字名":null,"地番":"299-1","精度区分":null,"座標系":"任意座標系"}},{"type":"Polygon","arcs":[[108,109,-62,-107,-92]],"properties":{"市区町村名":"苫前郡羽幌町","大字名":"字上羽幌","丁目名":null,"小字名":null,"地番":"297-2","精度区分":null,"座標系":"任意座標系"}},{"type":"Polygon","arcs":[[110,-90,-1,111]],"properties":{"市区町村名":"苫前郡羽幌町","大字名":"字上羽幌","丁目名":null,"小字名":null,"地番":"297-4","精度区分":null,"座標系":"任意座標系"}},{"type":"Polygon","arcs":[[112,113,114,-112,-3,-89]],"properties":{"市区町村名":"苫前郡羽幌町","大字名":"字上羽幌","丁目名":null,"小字名":null,"地番":"297-1","精度区分":null,"座標系":"任意座標系"}},{"type":"Polygon","arcs":[[-91,-111,-115,-6,-109]],"properties":{"市区町村名":"苫前郡羽幌町","大字名":"字上羽幌","丁目名":null,"小字名":null,"地番":"297-3","精度区分":null,"座標系":"任意座標系"}},{"type":"Polygon","arcs":[[115,-65,-13]],"properties":{"市区町村名":"苫前郡羽幌町","大字名":"字上羽幌","丁目名":null,"小字名":null,"地番":"294-5","精度区分":null,"座標系":"任意座標系"}},{"type":"Polygon","arcs":[[116,-11,-64,117]],"properties":{"市区町村名":"苫前郡羽幌町","大字名":"字上羽幌","丁目名":null,"小字名":null,"地番":"294-7","精度区分":null,"座標系":"任意座標系"}},{"type":"Polygon","arcs":[[118,-118,-63,-110,-5]],"properties":{"市区町村名":"苫前郡羽幌町","大字名":"字上羽幌","丁目名":null,"小字名":null,"地番":"294-2","精度区分":null,"座標系":"任意座標系"}},{"type":"Polygon","arcs":[[119,-16,120,121]],"properties":{"市区町村名":"苫前郡羽幌町","大字名":"字上羽幌","丁目名":null,"小字名":null,"地番":"水-4","精度区分":null,"座標系":"任意座標系"}},{"type":"Polygon","arcs":[[122,-122,123,124,-67]],"properties":{"市区町村名":"苫前郡羽幌町","大字名":"字上羽幌","丁目名":null,"小字名":null,"地番":"293-1","精度区分":null,"座標系":"任意座標系"}},{"type":"Polygon","arcs":[[125,126,-69]],"properties":{"市区町村名":"苫前郡羽幌町","大字名":"字上羽幌","丁目名":null,"小字名":null,"地番":"293-2","精度区分":null,"座標系":"任意座標系"}},{"type":"Polygon","arcs":[[-125,127,-126,-68]],"properties":{"市区町村名":"苫前郡羽幌町","大字名":"字上羽幌","丁目名":null,"小字名":null,"地番":"293-3","精度区分":null,"座標系":"任意座標系"}},{"type":"Polygon","arcs":[[128,129,130,-72]],"properties":{"市区町村名":"苫前郡羽幌町","大字名":"字上羽幌","丁目名":null,"小字名":null,"地番":"296-2","精度区分":null,"座標系":"任意座標系"}},{"type":"Polygon","arcs":[[131,132,133,-27,134,135,-49,136,137,138,139,140,141,142,143,-74]],"properties":{"市区町村名":"苫前郡羽幌町","大字名":"字上羽幌","丁目名":null,"小字名":null,"地番":"長狭物不明-2","精度区分":null,"座標系":"任意座標系"}},{"type":"Polygon","arcs":[[-144,144,-54,-75]],"properties":{"市区町村名":"苫前郡羽幌町","大字名":"字上羽幌","丁目名":null,"小字名":null,"地番":"307","精度区分":null,"座標系":"任意座標系"}},{"type":"Polygon","arcs":[[-21,-22,145,146]],"properties":{"市区町村名":"苫前郡羽幌町","大字名":"字上羽幌","丁目名":null,"小字名":null,"地番":"296-1","精度区分":null,"座標系":"任意座標系"}},{"type":"Polygon","arcs":[[-129,-71,147]],"properties":{"市区町村名":"苫前郡羽幌町","大字名":"字上羽幌","丁目名":null,"小字名":null,"地番":"295-2","精度区分":null,"座標系":"任意座標系"}},{"type":"Polygon","arcs":[[-146,-28,-134,148]],"properties":{"市区町村名":"苫前郡羽幌町","大字名":"字上羽幌","丁目名":null,"小字名":null,"地番":"300-1","精度区分":null,"座標系":"任意座標系"}},{"type":"Polygon","arcs":[[-132,-73,-131,149]],"properties":{"市区町村名":"苫前郡羽幌町","大字名":"字上羽幌","丁目名":null,"小字名":null,"地番":"300-2","精度区分":null,"座標系":"任意座標系"}},{"type":"Polygon","arcs":[[150,-149,-133,-150]],"properties":{"市区町村名":"苫前郡羽幌町","大字名":"字上羽幌","丁目名":null,"小字名":null,"地番":"300-3","精度区分":null,"座標系":"任意座標系"}},{"type":"Polygon","arcs":[[-130,151,-147,-151]],"properties":{"市区町村名":"苫前郡羽幌町","大字名":"字上羽幌","丁目名":null,"小字名":null,"地番":"296-3","精度区分":null,"座標系":"任意座標系"}},{"type":"Polygon","arcs":[[-148,-70,-17,-152]],"properties":{"市区町村名":"苫前郡羽幌町","大字名":"字上羽幌","丁目名":null,"小字名":null,"地番":"295-3","精度区分":null,"座標系":"任意座標系"}},{"type":"Polygon","arcs":[[152,-30,153,-24]],"properties":{"市区町村名":"苫前郡羽幌町","大字名":"字上羽幌","丁目名":null,"小字名":null,"地番":"301-9","精度区分":null,"座標系":"任意座標系"}},{"type":"Polygon","arcs":[[-154,-29,154,-25]],"properties":{"市区町村名":"苫前郡羽幌町","大字名":"字上羽幌","丁目名":null,"小字名":null,"地番":"301-5","精度区分":null,"座標系":"任意座標系"}},{"type":"Polygon","arcs":[[-155,-42,155,-135,-26]],"properties":{"市区町村名":"苫前郡羽幌町","大字名":"字上羽幌","丁目名":null,"小字名":null,"地番":"301-4","精度区分":null,"座標系":"任意座標系"}},{"type":"Polygon","arcs":[[-156,-41,-47,-136]],"properties":{"市区町村名":"苫前郡羽幌町","大字名":"字上羽幌","丁目名":null,"小字名":null,"地番":"301-2","精度区分":null,"座標系":"任意座標系"}},{"type":"Polygon","arcs":[[-37,-34]],"properties":{"市区町村名":"苫前郡羽幌町","大字名":"字上羽幌","丁目名":null,"小字名":null,"地番":"301-7","精度区分":null,"座標系":"任意座標系"}},{"type":"Polygon","arcs":[[-36]],"properties":{"市区町村名":"苫前郡羽幌町","大字名":"字上羽幌","丁目名":null,"小字名":null,"地番":"301-6","精度区分":null,"座標系":"任意座標系"}},{"type":"Polygon","arcs":[[156,157,158,-140]],"properties":{"市区町村名":"苫前郡羽幌町","大字名":"字上羽幌","丁目名":null,"小字名":null,"地番":"302-3","精度区分":null,"座標系":"任意座標系"}},{"type":"Polygon","arcs":[[159,160,161,162,-142]],"properties":{"市区町村名":"苫前郡羽幌町","大字名":"字上羽幌","丁目名":null,"小字名":null,"地番":"305-1","精度区分":null,"座標系":"任意座標系"}},{"type":"Polygon","arcs":[[163,164,-160,-141,-159,165,166,-56]],"properties":{"市区町村名":"苫前郡羽幌町","大字名":"字上羽幌","丁目名":null,"小字名":null,"地番":"水-5","精度区分":null,"座標系":"任意座標系"}},{"type":"Polygon","arcs":[[-166,-158,167,168,-52,169,170]],"properties":{"市区町村名":"苫前郡羽幌町","大字名":"字上羽幌","丁目名":null,"小字名":null,"地番":"303","精度区分":null,"座標系":"任意座標系"}},{"type":"Polygon","arcs":[[-171,171,-57,-167]],"properties":{"市区町村名":"苫前郡羽幌町","大字名":"字上羽幌","丁目名":null,"小字名":null,"地番":"長狭物不明-3","精度区分":null,"座標系":"任意座標系"}},{"type":"Polygon","arcs":[[-163,172,173,174,-164,-55,-145,-143]],"properties":{"市区町村名":"苫前郡羽幌町","大字名":"字上羽幌","丁目名":null,"小字名":null,"地番":"長狭物不明-4","精度区分":null,"座標系":"任意座標系"}},{"type":"Polygon","arcs":[[-175,175,176,-161,-165]],"properties":{"市区町村名":"苫前郡羽幌町","大字名":"字上羽幌","丁目名":null,"小字名":null,"地番":"304","精度区分":null,"座標系":"任意座標系"}},{"type":"Polygon","arcs":[[177,-138,178,-50,-169]],"properties":{"市区町村名":"苫前郡羽幌町","大字名":"字上羽幌","丁目名":null,"小字名":null,"地番":"302-1","精度区分":null,"座標系":"任意座標系"}},{"type":"Polygon","arcs":[[-139,-178,-168,-157]],"properties":{"市区町村名":"苫前郡羽幌町","大字名":"字上羽幌","丁目名":null,"小字名":null,"地番":"302-4","精度区分":null,"座標系":"任意座標系"}},{"type":"Polygon","arcs":[[-173,-162,-177,179]],"properties":{"市区町村名":"苫前郡羽幌町","大字名":"字上羽幌","丁目名":null,"小字名":null,"地番":"305-3","精度区分":null,"座標系":"任意座標系"}},{"type":"Polygon","arcs":[[-176,-174,-180]],"properties":{"市区町村名":"苫前郡羽幌町","大字名":"字上羽幌","丁目名":null,"小字名":null,"地番":"305-2","精度区分":null,"座標系":"任意座標系"}},{"type":"Polygon","arcs":[[180,181,-86]],"properties":{"市区町村名":"苫前郡羽幌町","大字名":"字上羽幌","丁目名":null,"小字名":null,"地番":"298-4","精度区分":null,"座標系":"任意座標系"}},{"type":"Polygon","arcs":[[-182,182,183,184,-106,185,-87]],"properties":{"市区町村名":"苫前郡羽幌町","大字名":"字上羽幌","丁目名":null,"小字名":null,"地番":"298-3","精度区分":null,"座標系":"任意座標系"}},{"type":"Polygon","arcs":[[186,-81,-186,-105]],"properties":{"市区町村名":"苫前郡羽幌町","大字名":"字上羽幌","丁目名":null,"小字名":null,"地番":"299-3","精度区分":null,"座標系":"任意座標系"}},{"type":"Polygon","arcs":[[-185,187,-102]],"properties":{"市区町村名":"苫前郡羽幌町","大字名":"字上羽幌","丁目名":null,"小字名":null,"地番":"298-9","精度区分":null,"座標系":"任意座標系"}},{"type":"Polygon","arcs":[[188,-97,-100,189,-184]],"properties":{"市区町村名":"苫前郡羽幌町","大字名":"字上羽幌","丁目名":null,"小字名":null,"地番":"298-7","精度区分":null,"座標系":"任意座標系"}},{"type":"Polygon","arcs":[[-85,-98,-189,-183,-181]],"properties":{"市区町村名":"苫前郡羽幌町","大字名":"字上羽幌","丁目名":null,"小字名":null,"地番":"298-6","精度区分":null,"座標系":"任意座標系"}},{"type":"Polygon","arcs":[[-190,190,-103,-188]],"properties":{"市区町村名":"苫前郡羽幌町","大字名":"字上羽幌","丁目名":null,"小字名":null,"地番":"298-10","精度区分":null,"座標系":"任意座標系"}},{"type":"Polygon","arcs":[[-191,-99,-95,-104]],"properties":{"市区町村名":"苫前郡羽幌町","大字名":"字上羽幌","丁目名":null,"小字名":null,"地番":"298-5","精度区分":null,"座標系":"任意座標系"}},{"type":"Polygon","arcs":[[-114,191,192,193,-7]],"properties":{"市区町村名":"苫前郡羽幌町","大字名":"字上羽幌","丁目名":null,"小字名":null,"地番":"294-1","精度区分":null,"座標系":"任意座標系"}},{"type":"Polygon","arcs":[[194,-193]],"properties":{"市区町村名":"苫前郡羽幌町","大字名":"字上羽幌","丁目名":null,"小字名":null,"地番":"294-8","精度区分":null,"座標系":"任意座標系"}}]}},"arcs":[[[417460,423014],[5494,2912]],[[422954,425926],[-4127,-4610]],[[418827,421316],[-1367,1698]],[[48389,436025],[-6120,16962],[-2295,11754]],[[39974,464741],[29546,5498],[33533,17263],[14070,-7472],[43331,7918],[19400,6269],[24024,2281],[55493,7209],[18963,-4587]],[[278334,499120],[-3032,-19451]],[[275302,479669],[-18969,-395],[-26190,3051],[-58783,-7566],[-42079,-8306],[-44103,-14468],[-6351,-9035],[-30438,-6925]],[[32560,502706],[-3470,17770],[-114,666]],[[28976,521142],[4929,1311],[329,11850],[4501,5282],[17989,10381],[10686,24518]],[[67410,574484],[65368,24966],[5811,-1347]],[[138589,598103],[-67633,-91480],[-18640,-14468],[-6805,-447],[-7198,4871],[-5753,6127]],[[28976,521142],[-3098,18116]],[[25878,539258],[6813,8238],[17397,13737],[4514,8361]],[[54602,569594],[12808,4890]],[[12187,593746],[-12187,48499],[31099,-8044]],[[31099,634201],[5038,-21961],[-6407,-11208],[-17543,-7286]],[[292915,591055],[-124100,8190]],[[168815,599245],[-1881,437],[-33798,8126]],[[133136,607808],[76044,89419],[55293,32489]],[[264473,729716],[8276,-3848],[38621,23745],[2930,-7359],[-16148,-21327],[12314,-14613]],[[310466,706314],[-4346,-27077],[-13205,-88182]],[[500841,660607],[-6234,748],[-12920,13909],[-21211,-755],[-16713,5135],[-30106,-11152],[-20127,14145],[-22857,2060],[-20699,6306],[-9184,23854],[-8258,3572],[-22066,-12115]],[[264473,729716],[56206,30638]],[[320679,760354],[7461,-16634],[-17250,-20844],[4820,-3518],[21644,12291],[11669,-5848],[8179,-22252],[13828,-5918],[22505,-2026],[7728,-3717],[10959,-9425],[27309,9581]],[[439531,692044],[860,302],[19271,-5719],[27153,-154],[13090,-13007],[8577,-430],[25867,7822],[7383,-3381]],[[541732,677477],[4018,-1841],[39023,-30182],[10353,-13728],[29067,19702],[11043,16815],[19436,8484],[12238,-11006]],[[666910,665721],[-638,-11515]],[[666272,654206],[-12858,12274],[-11941,-5356],[-11880,-18041],[-34496,-24399],[-16817,21205],[-33977,25456],[-11323,4541],[-24371,-10211],[-7768,932]],[[545408,700191],[-69772,27590],[-35187,-9995]],[[440449,717786],[-62019,-17619],[-25776,59231],[-8646,194],[-4795,13242]],[[339213,772834],[11830,7967]],[[351043,780801],[27106,-70952],[6471,-1110],[41395,11301],[3751,3607],[-14657,53862],[78248,34336]],[[493357,811845],[10615,-2086]],[[503972,809759],[-79303,-34314],[-1874,-6206],[11661,-42823],[4981,-2423],[33819,11260],[61506,-25288],[5021,3324],[2492,37190]],[[542275,750479],[6844,-5015]],[[549119,745464],[-3556,-36515],[2490,-4135],[30494,-12850],[6414,1974],[5500,21408],[-41342,30118]],[[542275,750479],[-24862,23933],[-13441,35347]],[[493357,811845],[-26063,48068]],[[467294,859913],[7030,953]],[[474324,860866],[121989,-144789]],[[596313,716077],[-2796,-9149]],[[593517,706928],[-5745,-18788],[-6767,-2025],[-35597,14076]],[[351043,780801],[6490,9293]],[[357533,790094],[11568,-7973],[30111,22157],[-10875,34635]],[[388337,838913],[7457,11308],[71500,9692]],[[357533,790094],[30804,48819]],[[666935,693577],[-9985,-4979],[-4903,51],[-55134,29388],[-600,-1960]],[[474324,860866],[46742,6335],[101055,88314],[14831,6816]],[[636952,962331],[29983,-268754]],[[705082,704481],[13840,295518]],[[718922,999999],[75201,-72156],[78617,-56533],[63434,-31857],[58340,-71262]],[[994514,768191],[-102407,3521],[-56848,-1499],[-130177,-65732]],[[995515,701968],[4484,-296413]],[[999999,405555],[-92355,47606],[-102437,81732],[-89891,101404]],[[715316,636297],[14322,6771]],[[729638,643068],[23164,-26379],[20954,-28640],[-15347,30255],[-23258,27763]],[[735151,646067],[69190,35806],[191174,20095]],[[999999,405555],[-5306,-6702]],[[994693,398853],[-158390,36677]],[[836303,435530],[-175289,40407]],[[661014,475937],[-181512,42966]],[[479502,518903],[-191147,44516]],[[288355,563419],[-125036,28957]],[[163319,592376],[-24730,5727]],[[54602,569594],[-33163,-12667]],[[21439,556927],[-1980,7879]],[[19459,564806],[38804,14679]],[[58263,579485],[9666,3656]],[[67929,583141],[65207,24667]],[[168815,599245],[48640,-11321]],[[217455,587924],[72465,-16866]],[[289920,571058],[190588,-44358]],[[480508,526700],[174056,-41102]],[[654564,485598],[7721,-1823]],[[662285,483775],[337714,-78220]],[[826221,302346],[10082,133184]],[[994693,398853],[-89588,-64964],[-78884,-31543]],[[826221,302346],[-106019,76098],[-70771,-42560]],[[649431,335884],[11583,140053]],[[438122,253587],[24570,159786]],[[462692,413373],[10446,-4714],[33048,-27722],[40883,-36468],[5324,-13096],[29388,-36581]],[[581781,294792],[-48349,-29368],[-95310,-11837]],[[438122,253587],[-44855,-5570],[-87512,73862]],[[305755,321879],[15484,17826],[23722,13405],[17556,17350],[24122,10067],[12883,14889],[10551,7971],[12891,13899]],[[422964,417286],[1661,-1750]],[[424625,415536],[5626,-5925],[23787,7464]],[[454038,417075],[8654,-3702]],[[305755,321879],[-5495,4545]],[[300260,326424],[18085,19208],[18329,8893],[22163,21869],[23235,8583],[16118,19777],[9256,4045],[11381,12517]],[[422954,425926],[1030,1151]],[[423984,427077],[19706,22019]],[[443690,449096],[5733,6405],[11812,6472],[9829,2755]],[[471064,464728],[108940,22120],[-21235,-9148],[-89109,-19010]],[[469660,458690],[-16296,-9456]],[[453364,449234],[-1656,-961]],[[451708,448273],[-9219,-9939]],[[442489,438334],[-15363,-16562]],[[427126,421772],[-4162,-4486]],[[451708,448273],[7387,-2599]],[[459095,445674],[-16606,-7340]],[[469660,458690],[-3542,-23033]],[[466118,435657],[-101,813]],[[466017,436470],[-1444,11627]],[[464573,448097],[-11209,1137]],[[601191,306582],[-19381,25886],[-18326,19469],[-9882,2903],[-16474,19055],[-19212,18155],[-52263,40586]],[[465653,432636],[465,3021]],[[471064,464728],[8438,54175]],[[649431,335884],[-48240,-29302]],[[443690,449096],[-37300,20921],[-30789,11265],[-58933,13881],[-16309,-1371],[-22025,5328]],[[278334,499120],[10021,64299]],[[412011,441531],[11973,-14454]],[[417460,423014],[-5975,7419],[526,11098]],[[300260,326424],[-43358,37247]],[[256902,363671],[7975,49116],[10425,66882]],[[275302,479669],[19350,402],[117359,-38540]],[[25878,539258],[-4439,17669]],[[35625,487013],[-3065,15693]],[[163319,592376],[-20679,-853],[-66311,-89895],[-22997,-18447],[-10702,-166],[-7005,3998]],[[39974,464741],[-4349,22272]],[[17353,573185],[-5166,20561]],[[31099,634201],[22077,-7194]],[[53176,627007],[4022,-22170],[-15654,-23404],[-24191,-8248]],[[19459,564806],[-2106,8379]],[[53176,627007],[25691,-6169]],[[78867,620838],[-17174,-17600],[-3066,-7205],[-1172,-5708],[808,-10840]],[[67929,583141],[40,11297],[15993,15144],[5845,8630]],[[89807,618212],[43329,-10404]],[[78867,620838],[10940,-2626]],[[289920,571058],[1822,12165]],[[291742,583223],[181219,-13849],[13427,-3944]],[[486388,565430],[-5880,-38730]],[[654564,485598],[9123,131378]],[[663687,616976],[585,8427]],[[664272,625403],[2000,28803]],[[666910,665721],[1681,13008],[-712,6390]],[[667879,685119],[-944,8458]],[[636952,962331],[5650,2595]],[[642602,964926],[30150,-264783]],[[672752,700143],[1173,-10301]],[[673925,689842],[1203,-10563],[-1221,-14752]],[[673907,664527],[-737,-8922]],[[673170,655605],[-133,-1598],[-1546,-24489]],[[671491,629518],[-569,-9003]],[[670922,620515],[-8637,-136740]],[[670922,620515],[44394,15782]],[[500841,660607],[-13335,-87814]],[[487506,572793],[-14247,4115],[-180344,14147]],[[217455,587924],[74287,-4701]],[[664272,625403],[-140856,-58857],[-10619,-1056],[-25291,7303]],[[486388,565430],[26941,-7912],[12978,1314],[137380,58144]],[[486388,565430],[1118,7363]],[[291742,583223],[1173,7832]],[[320679,760354],[18534,12480]],[[440449,717786],[-918,-25742]],[[545408,700191],[-3676,-22714]],[[593517,706928],[4323,719],[50556,-27562],[7522,-950],[11961,5984]],[[673925,689842],[3040,-1509],[8235,5534],[-758,3571],[5718,2905],[5179,620],[11532,-9168]],[[706871,691795],[1943,-13778]],[[708814,678017],[-34907,-13490]],[[673170,655605],[37479,12371]],[[710649,667976],[1136,-5998]],[[711785,661978],[-3854,-835],[-9755,-3076],[-25462,-28109]],[[672714,629958],[-1223,-440]],[[729638,643068],[-6255,7123]],[[723383,650191],[-12734,17785]],[[708814,678017],[25824,31697],[26048,5867],[24904,9229],[-19002,-16724],[-29957,-6042],[-20965,-27694],[14377,-20868]],[[730043,653482],[5108,-7415]],[[706871,691795],[-1086,7697]],[[705785,699492],[-703,4989]],[[994514,768191],[881,-58230]],[[995395,709961],[-193401,-20404],[-71951,-36075]],[[995395,709961],[120,-7993]],[[672714,629958],[14443,5198]],[[687157,635156],[27811,10011]],[[714968,645167],[8415,5024]],[[714968,645167],[-1941,10250]],[[713027,655417],[-1242,6561]],[[705785,699492],[-8210,6634],[1570,4489],[-8524,142],[-8985,-3264],[-8884,-7350]],[[642602,964926],[76320,35073]],[[713027,655417],[-7981,-1829],[-4819,-2050],[-5696,-5553],[-7374,-10829]],[[424625,415536],[5473,2742]],[[430098,418278],[23940,-1203]],[[430098,418278],[-573,674]],[[429525,418952],[36283,17417]],[[465808,436369],[310,-712]],[[465653,432636],[-2961,-19263]],[[601191,306582],[-19410,-11790]],[[465808,436369],[209,101]],[[429525,418952],[-2399,2820]],[[459095,445674],[3150,-1107],[3563,-8198]],[[459095,445674],[5478,2423]],[[256902,363671],[-46620,40047],[-74589,37683],[-76656,-20642],[-24828,-71026],[983,-54933],[17556,-62862],[32606,-42861],[40975,-87784],[-5157,-66633],[-8374,-8265]],[[112798,26395],[-14149,11055],[-12139,5976],[-9556,1992],[-28667,-2096],[-8694,6815],[-8230,843]],[[31363,50980],[9047,167169],[-1555,45303],[-8945,33608],[-1064,53702],[23587,74052],[-4044,11211]],[[112798,26395],[-26749,-26395],[-32863,2771],[-21902,46737],[79,1472]]],"bbox":[5384.032,38943.164,6578.321,39924.438],"transform":{"scale":[0.001194290194290194,0.000981274981274986],"translate":[5384.032,38943.164]}}