{"type":"Topology","objects":{"01361-4401-23.featurecollection":{"type":"GeometryCollection","geometries":[{"type":"Polygon","arcs":[[0,1,2,3,4,5,6,7,8]],"properties":{"市区町村名":"檜山郡江差町","大字名":null,"丁目名":null,"小字名":"字桧岱","地番":"309-1","精度区分":null,"座標系":"任意座標系"}},{"type":"Polygon","arcs":[[-3,9,10]],"properties":{"市区町村名":"檜山郡江差町","大字名":null,"丁目名":null,"小字名":"字桧岱","地番":"309-2","精度区分":null,"座標系":"任意座標系"}},{"type":"Polygon","arcs":[[11,-4,-11,-1]],"properties":{"市区町村名":"檜山郡江差町","大字名":null,"丁目名":null,"小字名":"字桧岱","地番":"309-3","精度区分":null,"座標系":"任意座標系"}},{"type":"Polygon","arcs":[[-2,-10]],"properties":{"市区町村名":"檜山郡江差町","大字名":null,"丁目名":null,"小字名":"字桧岱","地番":"309-4","精度区分":null,"座標系":"任意座標系"}},{"type":"Polygon","arcs":[[12,13,-8]],"properties":{"市区町村名":"檜山郡江差町","大字名":null,"丁目名":null,"小字名":"字桧岱","地番":"309-5","精度区分":null,"座標系":"任意座標系"}},{"type":"Polygon","arcs":[[14,15]],"properties":{"市区町村名":"檜山郡江差町","大字名":null,"丁目名":null,"小字名":"字桧岱","地番":"311","精度区分":null,"座標系":"任意座標系"}},{"type":"Polygon","arcs":[[16,17,18,19,20,21,22,23,24,-7,25]],"properties":{"市区町村名":"檜山郡江差町","大字名":null,"丁目名":null,"小字名":"字桧岱","地番":"312","精度区分":null,"座標系":"任意座標系"}},{"type":"Polygon","arcs":[[26,27,28,29,30]],"properties":{"市区町村名":"檜山郡江差町","大字名":null,"丁目名":null,"小字名":"字桧岱","地番":"313-1","精度区分":null,"座標系":"任意座標系"}},{"type":"Polygon","arcs":[[31,32,33,34,35,-23]],"properties":{"市区町村名":"檜山郡江差町","大字名":null,"丁目名":null,"小字名":"字桧岱","地番":"313-2","精度区分":null,"座標系":"任意座標系"}},{"type":"Polygon","arcs":[[36,-15,37,38,39]],"properties":{"市区町村名":"檜山郡江差町","大字名":null,"丁目名":null,"小字名":"字桧岱","地番":"313-3","精度区分":null,"座標系":"任意座標系"}},{"type":"Polygon","arcs":[[40,-31,41,-39,42,-24,-36]],"properties":{"市区町村名":"檜山郡江差町","大字名":null,"丁目名":null,"小字名":"字桧岱","地番":"313-4","精度区分":null,"座標系":"任意座標系"}},{"type":"Polygon","arcs":[[-35,43,-27,-41]],"properties":{"市区町村名":"檜山郡江差町","大字名":null,"丁目名":null,"小字名":"字桧岱","地番":"313-5","精度区分":null,"座標系":"任意座標系"}},{"type":"Polygon","arcs":[[-29,44]],"properties":{"市区町村名":"檜山郡江差町","大字名":null,"丁目名":null,"小字名":"字桧岱","地番":"315","精度区分":null,"座標系":"任意座標系"}},{"type":"Polygon","arcs":[[-25,-43,-38,-16,-37,45,-13]],"properties":{"市区町村名":"檜山郡江差町","大字名":null,"丁目名":null,"小字名":"字桧岱","地番":"316","精度区分":null,"座標系":"任意座標系"}},{"type":"Polygon","arcs":[[-18,46]],"properties":{"市区町村名":"檜山郡江差町","大字名":null,"丁目名":null,"小字名":"字桧岱","地番":"317","精度区分":null,"座標系":"任意座標系"}},{"type":"Polygon","arcs":[[47,-20]],"properties":{"市区町村名":"檜山郡江差町","大字名":null,"丁目名":null,"小字名":"字桧岱","地番":"318","精度区分":null,"座標系":"任意座標系"}},{"type":"Polygon","arcs":[[48,-22]],"properties":{"市区町村名":"檜山郡江差町","大字名":null,"丁目名":null,"小字名":"字桧岱","地番":"319","精度区分":null,"座標系":"任意座標系"}},{"type":"Polygon","arcs":[[49,-33]],"properties":{"市区町村名":"檜山郡江差町","大字名":null,"丁目名":null,"小字名":"字桧岱","地番":"320","精度区分":null,"座標系":"任意座標系"}},{"type":"Polygon","arcs":[[50,-26,-6]],"properties":{"市区町村名":"檜山郡江差町","大字名":null,"丁目名":null,"小字名":"字桧岱","地番":"321","精度区分":null,"座標系":"任意座標系"}},{"type":"Polygon","arcs":[[51,52]],"properties":{"市区町村名":"檜山郡江差町","大字名":null,"丁目名":null,"小字名":"字桧岱","地番":"310","精度区分":null,"座標系":"任意座標系"}},{"type":"Polygon","arcs":[[-52,53]],"properties":{"市区町村名":"檜山郡江差町","大字名":null,"丁目名":null,"小字名":"字桧岱","地番":"314","精度区分":null,"座標系":"任意座標系"}}]}},"arcs":[[[14018,492391],[30661,-13429],[47106,9965],[23110,5945],[4155,-20613],[25057,10567]],[[144107,484826],[36647,15968],[-5279,13273]],[[175475,514067],[-13738,34546],[-34695,-30981]],[[127042,517632],[-13957,-12442],[485,-4261],[-25518,-7344],[-43348,-8878],[-27778,12316]],[[16926,497023],[47529,75697],[22611,70458],[18655,74641],[-24465,56503],[23030,51947]],[[104286,826269],[3181,-24355],[12539,-17121],[8946,802],[4336,-11614],[-2479,-9951],[10287,-18267],[9868,-2247],[32612,-18370],[26418,-7545],[7338,-6343]],[[217332,711258],[-42049,-169840],[134190,13279],[55020,-13219],[108564,-67752]],[[473057,473726],[-41837,13808],[-48307,-103916]],[[382913,383618],[-26765,-2019],[-88970,15606],[-80421,3877],[-72532,22482],[-75044,28372],[4982,5592],[-5435,3610],[-8102,-6356],[-1197,4100],[-29429,19844],[6871,4491],[5752,6951],[1395,2223]],[[175475,514067],[-31368,-29241]],[[144107,484826],[-17065,32806]],[[14018,492391],[2908,4632]],[[473057,473726],[-24595,-45934],[-10490,-26320]],[[437972,401472],[-13917,-12415],[-12521,-3280],[-28621,-2159]],[[541743,578323],[5010,-61352],[-72657,-14804]],[[474096,502167],[-3654,21617],[9570,42960],[35266,11189],[26465,390]],[[108712,836384],[26105,59455],[-7381,36711],[51793,67449],[4119,-7349]],[[183348,992650],[8445,-28409],[19745,-21897]],[[211538,942344],[3867,-6901],[41297,-7171]],[[256702,928272],[25321,-26990],[6476,2066]],[[288499,903348],[68086,-63488],[18543,-9911]],[[375128,829949],[6686,-9224],[19665,-15160],[8163,-1883],[23316,-11177],[20911,-24683],[39373,-9874],[10831,1671]],[[504073,759619],[-20797,-56340],[51011,-30440],[6745,-84755]],[[541032,588084],[142,-2780]],[[541174,585304],[-26126,-264],[-40210,-12899],[-10387,-47879],[5851,-36441],[2755,-14095]],[[217332,711258],[16084,-13905],[10518,-1353],[-35844,29877],[-22765,5679],[-33051,18677],[-6810,785],[-9057,16802],[2671,11290],[-7428,14693],[-9513,-1417],[-9324,11747],[-4101,32251]],[[599634,506115],[19312,-11158],[35646,-5430],[10743,1013],[7676,10509],[4555,11059],[11102,18909],[8836,11262],[7403,5810],[7185,3653],[7292,1092],[24230,1107],[22098,-4855],[20963,-11324],[33348,-16248],[27752,-4286],[35815,-14544],[20726,-3136]],[[904316,499548],[95683,-36725],[-18237,-66384],[-19157,-36825],[-8752,-45272],[-5092,-11002]],[[948761,303340],[-159151,30805],[-5545,1146]],[[784065,335291],[-27101,5606],[-86949,38789],[-19362,2673],[-23368,9482],[-16865,23476],[-12576,1878]],[[597844,417195],[-2126,16085],[-709,17101],[941,10531],[3424,22048],[260,23155]],[[504073,759619],[50097,-27256]],[[554170,732363],[30507,-30970],[8261,-2757],[13642,-12871],[16353,-1675],[25602,-23852],[27577,1634]],[[676112,661872],[118223,-67910],[94229,-86464]],[[888564,507498],[-4656,805],[-35494,14393],[-27174,4071],[-32569,15893],[-20725,11198],[-23413,5546],[-13898,-513],[-12950,-788],[-6438,-1192],[-8472,-4027],[-8166,-6181],[-8857,-11228],[-12119,-20404],[-4740,-11179],[-5871,-8150],[-8138,-826],[-34240,5178],[-21647,12654]],[[598997,512748],[-4842,17518],[-4570,9294],[-1309,1622],[-3114,5405],[-868,2323],[772,5134],[-3970,11557],[-6987,9392],[-11081,10151],[-6052,2842],[-6569,1445],[-9375,-1347]],[[444907,402449],[8757,21707],[25734,48525],[-5302,29486]],[[541743,578323],[-332,4476]],[[541411,582799],[3196,466],[5663,286],[5113,-1139],[5742,-2784],[4050,-3186],[6200,-6660],[5141,-7247],[4441,-9138],[228,-3465],[-191,-2257],[735,-4012],[8002,-15965],[2577,-8553],[6,-35183],[-3259,-21728],[-1159,-11596],[577,-21148],[-5286,-10105]],[[583187,419385],[-40061,5982],[-37509,-14607],[-37094,-9520],[-23398,877],[-218,332]],[[598997,512748],[637,-6633]],[[597844,417195],[-14657,2190]],[[541411,582799],[-237,2505]],[[888564,507498],[3571,-3274],[12181,-4676]],[[948761,303340],[-1719,-3804],[-4952,-23883],[-22750,-17138],[-53223,-5220],[-22486,11230],[-59566,70766]],[[444907,402449],[-6935,-977]],[[183348,992650],[28190,-50306]],[[256702,928272],[6226,-1081],[25571,-23843]],[[375128,829949],[128945,-70330]],[[554170,732363],[7971,-4351],[113971,-66140]],[[104286,826269],[4426,10115]],[[613823,400046],[-29781,-16946],[-3169,-92626],[-185239,-124362]],[[395634,166112],[-39861,208953],[57564,4367],[13202,3515],[14876,12932],[28714,-587],[36227,8920],[37200,14041],[63930,-9327],[6337,-8880]],[[613823,400046],[10201,-14294],[25885,-10246],[18993,-2613],[86393,-38400],[25747,-5279],[59118,-70054],[25277,-12582],[55588,5175],[26215,19791],[4713,23291],[3845,-51599],[-39564,-63324],[-291735,-116949],[-53560,-52686],[-85507,8660],[-58109,-18937],[-31689,166112]]],"bbox":[-28066.918,-8031.258,-26799.198,-6921.018],"transform":{"scale":[0.001267721267721269,0.00111024111024111],"translate":[-28066.918,-8031.258]}}