{"type":"Topology","objects":{"01213-4323-10.featurecollection":{"type":"GeometryCollection","geometries":[{"type":"Polygon","arcs":[[0,1,2,3]],"properties":{"市区町村名":"苫小牧市","大字名":"見山町","丁目名":"４丁目","小字名":null,"地番":"7-1","精度区分":null,"座標系":"任意座標系"}},{"type":"Polygon","arcs":[[-3,4,5,6]],"properties":{"市区町村名":"苫小牧市","大字名":"見山町","丁目名":"４丁目","小字名":null,"地番":"7-2","精度区分":null,"座標系":"任意座標系"}},{"type":"Polygon","arcs":[[7,8,9,10,11,12]],"properties":{"市区町村名":"苫小牧市","大字名":"見山町","丁目名":"４丁目","小字名":null,"地番":"7-3","精度区分":null,"座標系":"任意座標系"}},{"type":"Polygon","arcs":[[13,14,-12,15,16,17]],"properties":{"市区町村名":"苫小牧市","大字名":"見山町","丁目名":"４丁目","小字名":null,"地番":"7-4","精度区分":null,"座標系":"任意座標系"}},{"type":"Polygon","arcs":[[-17,18,19]],"properties":{"市区町村名":"苫小牧市","大字名":"見山町","丁目名":"４丁目","小字名":null,"地番":"7-5","精度区分":null,"座標系":"任意座標系"}},{"type":"Polygon","arcs":[[20,21,-13,-15,22]],"properties":{"市区町村名":"苫小牧市","大字名":"見山町","丁目名":"４丁目","小字名":null,"地番":"7-6","精度区分":null,"座標系":"任意座標系"}},{"type":"Polygon","arcs":[[23,24,25]],"properties":{"市区町村名":"苫小牧市","大字名":"見山町","丁目名":"４丁目","小字名":null,"地番":"7-7","精度区分":null,"座標系":"任意座標系"}},{"type":"Polygon","arcs":[[26,27,28,29]],"properties":{"市区町村名":"苫小牧市","大字名":"見山町","丁目名":"４丁目","小字名":null,"地番":"7-8","精度区分":null,"座標系":"任意座標系"}},{"type":"Polygon","arcs":[[30,31,32,33]],"properties":{"市区町村名":"苫小牧市","大字名":"見山町","丁目名":"４丁目","小字名":null,"地番":"7-9","精度区分":null,"座標系":"任意座標系"}},{"type":"Polygon","arcs":[[-33,34,35,36]],"properties":{"市区町村名":"苫小牧市","大字名":"見山町","丁目名":"４丁目","小字名":null,"地番":"7-10","精度区分":null,"座標系":"任意座標系"}},{"type":"Polygon","arcs":[[-36,37,38]],"properties":{"市区町村名":"苫小牧市","大字名":"見山町","丁目名":"４丁目","小字名":null,"地番":"7-11","精度区分":null,"座標系":"任意座標系"}},{"type":"Polygon","arcs":[[39,40,41,-10]],"properties":{"市区町村名":"苫小牧市","大字名":"見山町","丁目名":"４丁目","小字名":null,"地番":"7-12","精度区分":null,"座標系":"任意座標系"}},{"type":"Polygon","arcs":[[42,43,44,45,-40,-9]],"properties":{"市区町村名":"苫小牧市","大字名":"見山町","丁目名":"４丁目","小字名":null,"地番":"7-13","精度区分":null,"座標系":"任意座標系"}},{"type":"Polygon","arcs":[[46,47,-45,48]],"properties":{"市区町村名":"苫小牧市","大字名":"見山町","丁目名":"４丁目","小字名":null,"地番":"7-14","精度区分":null,"座標系":"任意座標系"}},{"type":"Polygon","arcs":[[49,50,-47,51]],"properties":{"市区町村名":"苫小牧市","大字名":"見山町","丁目名":"４丁目","小字名":null,"地番":"7-15","精度区分":null,"座標系":"任意座標系"}},{"type":"Polygon","arcs":[[52,53,54,-50,55,56]],"properties":{"市区町村名":"苫小牧市","大字名":"見山町","丁目名":"４丁目","小字名":null,"地番":"7-16","精度区分":null,"座標系":"任意座標系"}},{"type":"Polygon","arcs":[[57,58,-54,59]],"properties":{"市区町村名":"苫小牧市","大字名":"見山町","丁目名":"４丁目","小字名":null,"地番":"7-17","精度区分":null,"座標系":"任意座標系"}},{"type":"Polygon","arcs":[[-48,-51,-55,-59,60,-4,-7,61,-34,-37,-39,62,-41,-46]],"properties":{"市区町村名":"苫小牧市","大字名":"見山町","丁目名":"４丁目","小字名":null,"地番":"7-18","精度区分":null,"座標系":"任意座標系"}},{"type":"Polygon","arcs":[[-29,63,-26,64,65,66,67,-43,-8,-22,68]],"properties":{"市区町村名":"苫小牧市","大字名":"見山町","丁目名":"４丁目","小字名":null,"地番":"7-19","精度区分":null,"座標系":"任意座標系"}},{"type":"Polygon","arcs":[[69,-60,-53,70]],"properties":{"市区町村名":"苫小牧市","大字名":"見山町","丁目名":"４丁目","小字名":null,"地番":"7-20","精度区分":null,"座標系":"任意座標系"}},{"type":"Polygon","arcs":[[-56,-52,71,72]],"properties":{"市区町村名":"苫小牧市","大字名":"見山町","丁目名":"４丁目","小字名":null,"地番":"7-22","精度区分":null,"座標系":"任意座標系"}},{"type":"Polygon","arcs":[[-72,-49,73,74]],"properties":{"市区町村名":"苫小牧市","大字名":"見山町","丁目名":"４丁目","小字名":null,"地番":"7-23","精度区分":null,"座標系":"任意座標系"}},{"type":"Polygon","arcs":[[75,-74,-44,-68]],"properties":{"市区町村名":"苫小牧市","大字名":"見山町","丁目名":"４丁目","小字名":null,"地番":"7-24","精度区分":null,"座標系":"任意座標系"}},{"type":"Polygon","arcs":[[76,77,78]],"properties":{"市区町村名":"苫小牧市","大字名":"見山町","丁目名":"４丁目","小字名":null,"地番":"7-25","精度区分":null,"座標系":"任意座標系"}},{"type":"Polygon","arcs":[[79,-78,80,-71,-57,-73,-75,81,-66]],"properties":{"市区町村名":"苫小牧市","大字名":"見山町","丁目名":"４丁目","小字名":null,"地番":"7-26","精度区分":null,"座標系":"任意座標系"}},{"type":"Polygon","arcs":[[-25,82,-79,-80,-65]],"properties":{"市区町村名":"苫小牧市","大字名":"見山町","丁目名":"４丁目","小字名":null,"地番":"7-27","精度区分":null,"座標系":"任意座標系"}},{"type":"Polygon","arcs":[[-82,-76,-67]],"properties":{"市区町村名":"苫小牧市","大字名":"見山町","丁目名":"４丁目","小字名":null,"地番":"7-28","精度区分":null,"座標系":"任意座標系"}},{"type":"Polygon","arcs":[[-6,83,-31,-62]],"properties":{"市区町村名":"苫小牧市","大字名":"見山町","丁目名":"４丁目","小字名":null,"地番":"7-29","精度区分":null,"座標系":"任意座標系"}},{"type":"Polygon","arcs":[[-58,-70,-81,-77,-83,-24,84,85,-1,-61]],"properties":{"市区町村名":"苫小牧市","大字名":"見山町","丁目名":"４丁目","小字名":null,"地番":"7-30","精度区分":null,"座標系":"任意座標系"}},{"type":"Polygon","arcs":[[-85,-64,-28,86]],"properties":{"市区町村名":"苫小牧市","大字名":"見山町","丁目名":"４丁目","小字名":null,"地番":"103-1","精度区分":null,"座標系":"任意座標系"}},{"type":"Polygon","arcs":[[87,88,89,90,91,92,93,94,95,96,97,98]],"properties":{"市区町村名":"苫小牧市","大字名":"啓北町","丁目名":"２丁目","小字名":null,"地番":"11-1","精度区分":null,"座標系":"任意座標系"}},{"type":"Polygon","arcs":[[99,100,101,102,103,104,105,106,-97,107,108,109,110]],"properties":{"市区町村名":"苫小牧市","大字名":"啓北町","丁目名":"２丁目","小字名":null,"地番":"11-2","精度区分":null,"座標系":"任意座標系"}},{"type":"Polygon","arcs":[[111,112,-110,113,114]],"properties":{"市区町村名":"苫小牧市","大字名":"啓北町","丁目名":"２丁目","小字名":null,"地番":"11-3","精度区分":null,"座標系":"任意座標系"}},{"type":"Polygon","arcs":[[115,-100,116,117]],"properties":{"市区町村名":"苫小牧市","大字名":"啓北町","丁目名":"２丁目","小字名":null,"地番":"11-4","精度区分":null,"座標系":"任意座標系"}},{"type":"Polygon","arcs":[[118,-103,119,120]],"properties":{"市区町村名":"苫小牧市","大字名":"啓北町","丁目名":"２丁目","小字名":null,"地番":"11-9","精度区分":null,"座標系":"任意座標系"}},{"type":"Polygon","arcs":[[121,122,123,-104,-119,124]],"properties":{"市区町村名":"苫小牧市","大字名":"啓北町","丁目名":"２丁目","小字名":null,"地番":"11-10","精度区分":null,"座標系":"任意座標系"}},{"type":"Polygon","arcs":[[125,-123,126]],"properties":{"市区町村名":"苫小牧市","大字名":"啓北町","丁目名":"２丁目","小字名":null,"地番":"11-11","精度区分":null,"座標系":"任意座標系"}},{"type":"Polygon","arcs":[[127,-120,-102,128,129]],"properties":{"市区町村名":"苫小牧市","大字名":"啓北町","丁目名":"２丁目","小字名":null,"地番":"11-12","精度区分":null,"座標系":"任意座標系"}},{"type":"Polygon","arcs":[[130,131,132,133,134]],"properties":{"市区町村名":"苫小牧市","大字名":"啓北町","丁目名":"２丁目","小字名":null,"地番":"11-13","精度区分":null,"座標系":"任意座標系"}},{"type":"Polygon","arcs":[[-115,135,136]],"properties":{"市区町村名":"苫小牧市","大字名":"啓北町","丁目名":"２丁目","小字名":null,"地番":"11-14","精度区分":null,"座標系":"任意座標系"}},{"type":"Polygon","arcs":[[137,138,-95,139]],"properties":{"市区町村名":"苫小牧市","大字名":"啓北町","丁目名":"２丁目","小字名":null,"地番":"11-16","精度区分":null,"座標系":"任意座標系"}},{"type":"Polygon","arcs":[[140,-98,-107,141,142]],"properties":{"市区町村名":"苫小牧市","大字名":"啓北町","丁目名":"２丁目","小字名":null,"地番":"11-17","精度区分":null,"座標系":"任意座標系"}},{"type":"Polygon","arcs":[[-142,-106,143,144]],"properties":{"市区町村名":"苫小牧市","大字名":"啓北町","丁目名":"２丁目","小字名":null,"地番":"11-18","精度区分":null,"座標系":"任意座標系"}},{"type":"Polygon","arcs":[[145,-140,-94,146]],"properties":{"市区町村名":"苫小牧市","大字名":"啓北町","丁目名":"２丁目","小字名":null,"地番":"11-19","精度区分":null,"座標系":"任意座標系"}},{"type":"Polygon","arcs":[[-133,147,148,-89,149]],"properties":{"市区町村名":"苫小牧市","大字名":"啓北町","丁目名":"２丁目","小字名":null,"地番":"11-20","精度区分":null,"座標系":"任意座標系"}},{"type":"Polygon","arcs":[[150,151,-92,152]],"properties":{"市区町村名":"苫小牧市","大字名":"啓北町","丁目名":"２丁目","小字名":null,"地番":"11-21","精度区分":null,"座標系":"任意座標系"}},{"type":"Polygon","arcs":[[153,-153,-91,154]],"properties":{"市区町村名":"苫小牧市","大字名":"啓北町","丁目名":"２丁目","小字名":null,"地番":"11-22","精度区分":null,"座標系":"任意座標系"}},{"type":"Polygon","arcs":[[155,-155,-90,-149]],"properties":{"市区町村名":"苫小牧市","大字名":"啓北町","丁目名":"２丁目","小字名":null,"地番":"11-23","精度区分":null,"座標系":"任意座標系"}},{"type":"Polygon","arcs":[[-117,-111,-113,156]],"properties":{"市区町村名":"苫小牧市","大字名":"啓北町","丁目名":"２丁目","小字名":null,"地番":"11-24","精度区分":null,"座標系":"任意座標系"}},{"type":"Polygon","arcs":[[-129,-101,-116,157]],"properties":{"市区町村名":"苫小牧市","大字名":"啓北町","丁目名":"２丁目","小字名":null,"地番":"11-25","精度区分":null,"座標系":"任意座標系"}},{"type":"Polygon","arcs":[[158,-99,-141,159]],"properties":{"市区町村名":"苫小牧市","大字名":"啓北町","丁目名":"２丁目","小字名":null,"地番":"11-26","精度区分":null,"座標系":"任意座標系"}},{"type":"Polygon","arcs":[[-96,-139,160,161,162,163,164,-108]],"properties":{"市区町村名":"苫小牧市","大字名":"啓北町","丁目名":"２丁目","小字名":null,"地番":"11-27","精度区分":null,"座標系":"任意座標系"}},{"type":"Polygon","arcs":[[-125,-121,-128,165]],"properties":{"市区町村名":"苫小牧市","大字名":"啓北町","丁目名":"２丁目","小字名":null,"地番":"11-28","精度区分":null,"座標系":"任意座標系"}},{"type":"Polygon","arcs":[[166,167,-131,168]],"properties":{"市区町村名":"苫小牧市","大字名":"啓北町","丁目名":"２丁目","小字名":null,"地番":"11-29","精度区分":null,"座標系":"任意座標系"}},{"type":"Polygon","arcs":[[169,-134,-150,-88,-159]],"properties":{"市区町村名":"苫小牧市","大字名":"啓北町","丁目名":"２丁目","小字名":null,"地番":"11-30","精度区分":null,"座標系":"任意座標系"}},{"type":"Polygon","arcs":[[-144,-105,-124,-126,170]],"properties":{"市区町村名":"苫小牧市","大字名":"啓北町","丁目名":"２丁目","小字名":null,"地番":"11-31","精度区分":null,"座標系":"任意座標系"}},{"type":"Polygon","arcs":[[171,-147,-93,-152]],"properties":{"市区町村名":"苫小牧市","大字名":"啓北町","丁目名":"２丁目","小字名":null,"地番":"11-32","精度区分":null,"座標系":"任意座標系"}},{"type":"Polygon","arcs":[[172,-164,173,174]],"properties":{"市区町村名":"苫小牧市","大字名":"啓北町","丁目名":"２丁目","小字名":null,"地番":"12-1","精度区分":null,"座標系":"任意座標系"}},{"type":"Polygon","arcs":[[175,176,177,178,179]],"properties":{"市区町村名":"苫小牧市","大字名":"啓北町","丁目名":"２丁目","小字名":null,"地番":"12-3","精度区分":null,"座標系":"任意座標系"}},{"type":"Polygon","arcs":[[180,181,182,-179]],"properties":{"市区町村名":"苫小牧市","大字名":"啓北町","丁目名":"２丁目","小字名":null,"地番":"12-5","精度区分":null,"座標系":"任意座標系"}},{"type":"Polygon","arcs":[[183,184,-182]],"properties":{"市区町村名":"苫小牧市","大字名":"啓北町","丁目名":"２丁目","小字名":null,"地番":"12-6","精度区分":null,"座標系":"任意座標系"}},{"type":"Polygon","arcs":[[185,186,187]],"properties":{"市区町村名":"苫小牧市","大字名":"啓北町","丁目名":"２丁目","小字名":null,"地番":"12-7","精度区分":null,"座標系":"任意座標系"}},{"type":"Polygon","arcs":[[188,189,190,-187]],"properties":{"市区町村名":"苫小牧市","大字名":"啓北町","丁目名":"２丁目","小字名":null,"地番":"12-8","精度区分":null,"座標系":"任意座標系"}},{"type":"Polygon","arcs":[[191,192,193,-190]],"properties":{"市区町村名":"苫小牧市","大字名":"啓北町","丁目名":"２丁目","小字名":null,"地番":"12-9","精度区分":null,"座標系":"任意座標系"}},{"type":"Polygon","arcs":[[194,195,196,-193]],"properties":{"市区町村名":"苫小牧市","大字名":"啓北町","丁目名":"２丁目","小字名":null,"地番":"12-10","精度区分":null,"座標系":"任意座標系"}},{"type":"Polygon","arcs":[[197,198,199,-196]],"properties":{"市区町村名":"苫小牧市","大字名":"啓北町","丁目名":"２丁目","小字名":null,"地番":"12-11","精度区分":null,"座標系":"任意座標系"}},{"type":"Polygon","arcs":[[200,201,202,-199]],"properties":{"市区町村名":"苫小牧市","大字名":"啓北町","丁目名":"２丁目","小字名":null,"地番":"12-12","精度区分":null,"座標系":"任意座標系"}},{"type":"Polygon","arcs":[[203,204,205,-202]],"properties":{"市区町村名":"苫小牧市","大字名":"啓北町","丁目名":"２丁目","小字名":null,"地番":"12-13","精度区分":null,"座標系":"任意座標系"}},{"type":"Polygon","arcs":[[206,-175,207,208,-205]],"properties":{"市区町村名":"苫小牧市","大字名":"啓北町","丁目名":"２丁目","小字名":null,"地番":"12-14","精度区分":null,"座標系":"任意座標系"}},{"type":"Polygon","arcs":[[-176,209,210,211]],"properties":{"市区町村名":"苫小牧市","大字名":"啓北町","丁目名":"２丁目","小字名":null,"地番":"12-16","精度区分":null,"座標系":"任意座標系"}},{"type":"Polygon","arcs":[[212,213,-167,214]],"properties":{"市区町村名":"苫小牧市","大字名":"啓北町","丁目名":"２丁目","小字名":null,"地番":"12-18","精度区分":null,"座標系":"任意座標系"}},{"type":"Polygon","arcs":[[215,216,217]],"properties":{"市区町村名":"苫小牧市","大字名":"啓北町","丁目名":"２丁目","小字名":null,"地番":"12-19","精度区分":null,"座標系":"任意座標系"}},{"type":"Polygon","arcs":[[218,219,220]],"properties":{"市区町村名":"苫小牧市","大字名":"啓北町","丁目名":"２丁目","小字名":null,"地番":"12-20","精度区分":null,"座標系":"任意座標系"}},{"type":"Polygon","arcs":[[221,222,-213,223]],"properties":{"市区町村名":"苫小牧市","大字名":"啓北町","丁目名":"２丁目","小字名":null,"地番":"12-22","精度区分":null,"座標系":"任意座標系"}},{"type":"Polygon","arcs":[[224,225,-222,226]],"properties":{"市区町村名":"苫小牧市","大字名":"啓北町","丁目名":"２丁目","小字名":null,"地番":"12-23","精度区分":null,"座標系":"任意座標系"}},{"type":"Polygon","arcs":[[-217,227,-225,228]],"properties":{"市区町村名":"苫小牧市","大字名":"啓北町","丁目名":"２丁目","小字名":null,"地番":"12-24","精度区分":null,"座標系":"任意座標系"}},{"type":"Polygon","arcs":[[229,230,-219,231]],"properties":{"市区町村名":"苫小牧市","大字名":"啓北町","丁目名":"２丁目","小字名":null,"地番":"12-25","精度区分":null,"座標系":"任意座標系"}},{"type":"Polygon","arcs":[[-161,-138,232]],"properties":{"市区町村名":"苫小牧市","大字名":"啓北町","丁目名":"２丁目","小字名":null,"地番":"12-26","精度区分":null,"座標系":"任意座標系"}},{"type":"Polygon","arcs":[[-174,-163,233,-208]],"properties":{"市区町村名":"苫小牧市","大字名":"啓北町","丁目名":"２丁目","小字名":null,"地番":"12-27","精度区分":null,"座標系":"任意座標系"}},{"type":"Polygon","arcs":[[234,235,236,237]],"properties":{"市区町村名":"苫小牧市","大字名":"啓北町","丁目名":"２丁目","小字名":null,"地番":"15","精度区分":null,"座標系":"任意座標系"}},{"type":"Polygon","arcs":[[238,-235,239]],"properties":{"市区町村名":"苫小牧市","大字名":"啓北町","丁目名":"２丁目","小字名":null,"地番":"16","精度区分":null,"座標系":"任意座標系"}},{"type":"Polygon","arcs":[[-239,240,241,-137,-236]],"properties":{"市区町村名":"苫小牧市","大字名":"啓北町","丁目名":"２丁目","小字名":null,"地番":"102-2","精度区分":null,"座標系":"任意座標系"}},{"type":"Polygon","arcs":[[-109,242,243,-114]],"properties":{"市区町村名":"苫小牧市","大字名":"啓北町","丁目名":"２丁目","小字名":null,"地番":"103-1","精度区分":null,"座標系":"任意座標系"}},{"type":"Polygon","arcs":[[-136,-244,244,-237]],"properties":{"市区町村名":"苫小牧市","大字名":"啓北町","丁目名":"２丁目","小字名":null,"地番":"103-2","精度区分":null,"座標系":"任意座標系"}},{"type":"Polygon","arcs":[[245,-18,246,247,248]],"properties":{"市区町村名":"苫小牧市","大字名":"松風町","丁目名":null,"小字名":null,"地番":"2-3","精度区分":null,"座標系":"任意座標系"}},{"type":"Polygon","arcs":[[249,-247,-20,250,251,252]],"properties":{"市区町村名":"苫小牧市","大字名":"松風町","丁目名":null,"小字名":null,"地番":"2-4","精度区分":null,"座標系":"任意座標系"}},{"type":"Polygon","arcs":[[253,254,255,256]],"properties":{"市区町村名":"苫小牧市","大字名":"松風町","丁目名":null,"小字名":null,"地番":"2-13","精度区分":null,"座標系":"任意座標系"}},{"type":"Polygon","arcs":[[257,258,259]],"properties":{"市区町村名":"苫小牧市","大字名":"松風町","丁目名":null,"小字名":null,"地番":"2-15","精度区分":null,"座標系":"任意座標系"}},{"type":"Polygon","arcs":[[260,261,262,263]],"properties":{"市区町村名":"苫小牧市","大字名":"松風町","丁目名":null,"小字名":null,"地番":"2-16","精度区分":null,"座標系":"任意座標系"}},{"type":"Polygon","arcs":[[-263,264,-255]],"properties":{"市区町村名":"苫小牧市","大字名":"松風町","丁目名":null,"小字名":null,"地番":"2-17","精度区分":null,"座標系":"任意座標系"}},{"type":"Polygon","arcs":[[265,266,-259]],"properties":{"市区町村名":"苫小牧市","大字名":"松風町","丁目名":null,"小字名":null,"地番":"2-18","精度区分":null,"座標系":"任意座標系"}},{"type":"Polygon","arcs":[[267,-252,268,269,270]],"properties":{"市区町村名":"苫小牧市","大字名":"松風町","丁目名":null,"小字名":null,"地番":"2-21","精度区分":null,"座標系":"任意座標系"}},{"type":"Polygon","arcs":[[271,-270,272,273,274]],"properties":{"市区町村名":"苫小牧市","大字名":"松風町","丁目名":null,"小字名":null,"地番":"2-22","精度区分":null,"座標系":"任意座標系"}},{"type":"Polygon","arcs":[[-274,275,276,277]],"properties":{"市区町村名":"苫小牧市","大字名":"松風町","丁目名":null,"小字名":null,"地番":"2-23","精度区分":null,"座標系":"任意座標系"}},{"type":"Polygon","arcs":[[278,-275,-278,279]],"properties":{"市区町村名":"苫小牧市","大字名":"松風町","丁目名":null,"小字名":null,"地番":"2-26","精度区分":null,"座標系":"任意座標系"}},{"type":"Polygon","arcs":[[280,-271,-272,-279,281]],"properties":{"市区町村名":"苫小牧市","大字名":"松風町","丁目名":null,"小字名":null,"地番":"2-27","精度区分":null,"座標系":"任意座標系"}},{"type":"Polygon","arcs":[[282,-253,-268,-281,283]],"properties":{"市区町村名":"苫小牧市","大字名":"松風町","丁目名":null,"小字名":null,"地番":"2-28","精度区分":null,"座標系":"任意座標系"}},{"type":"Polygon","arcs":[[284,-248,-250,-283]],"properties":{"市区町村名":"苫小牧市","大字名":"松風町","丁目名":null,"小字名":null,"地番":"2-29","精度区分":null,"座標系":"任意座標系"}},{"type":"Polygon","arcs":[[-264,-254,285]],"properties":{"市区町村名":"苫小牧市","大字名":"松風町","丁目名":null,"小字名":null,"地番":"2-36","精度区分":null,"座標系":"任意座標系"}},{"type":"Polygon","arcs":[[286,-14,-246,287]],"properties":{"市区町村名":"苫小牧市","大字名":"松風町","丁目名":null,"小字名":null,"地番":"2-39","精度区分":null,"座標系":"任意座標系"}},{"type":"Polygon","arcs":[[288,289,290,291]],"properties":{"市区町村名":"苫小牧市","大字名":"松風町","丁目名":null,"小字名":null,"地番":"2-20","精度区分":null,"座標系":"任意座標系"}},{"type":"Polygon","arcs":[[292,-23,-287,293,-289]],"properties":{"市区町村名":"苫小牧市","大字名":"松風町","丁目名":null,"小字名":null,"地番":"2-40","精度区分":null,"座標系":"任意座標系"}},{"type":"Polygon","arcs":[[294,-290,-294,-288,-249,-285,-284,-282,-280,-277,295,296]],"properties":{"市区町村名":"苫小牧市","大字名":"松風町","丁目名":null,"小字名":null,"地番":"2-11","精度区分":null,"座標系":"任意座標系"}},{"type":"Polygon","arcs":[[-297,297,298,299]],"properties":{"市区町村名":"苫小牧市","大字名":"松風町","丁目名":null,"小字名":null,"地番":"2-12","精度区分":null,"座標系":"任意座標系"}},{"type":"Polygon","arcs":[[300,-299,301,302]],"properties":{"市区町村名":"苫小牧市","大字名":"松風町","丁目名":null,"小字名":null,"地番":"2-41","精度区分":null,"座標系":"任意座標系"}},{"type":"Polygon","arcs":[[-291,-295,-300,-301,303]],"properties":{"市区町村名":"苫小牧市","大字名":"松風町","丁目名":null,"小字名":null,"地番":"2-32","精度区分":null,"座標系":"任意座標系"}},{"type":"Polygon","arcs":[[-211,304,305,306]],"properties":{"市区町村名":"苫小牧市","大字名":"啓北町","丁目名":"２丁目","小字名":null,"地番":"12-28","精度区分":null,"座標系":"任意座標系"}},{"type":"Polygon","arcs":[[-306,307,-230,308]],"properties":{"市区町村名":"苫小牧市","大字名":"啓北町","丁目名":"２丁目","小字名":null,"地番":"12-21","精度区分":null,"座標系":"任意座標系"}},{"type":"Polygon","arcs":[[309,-177,-212,-307,-309,-232,-221,310,-218,-229,-227,-224,-215,-169,-135,-170,-160,-143,-145,-171,-127,-122,-166,-130,-158,-118,-157,-112,-242]],"properties":{"市区町村名":"苫小牧市","大字名":"啓北町","丁目名":"２丁目","小字名":null,"地番":"102-1","精度区分":null,"座標系":"任意座標系"}},{"type":"Polygon","arcs":[[-168,-214,-223,-226,-228,-216,-311,-220,-231,-308,-305,-210,-180,-183,-185,311,-188,-191,-194,-197,-200,-203,-206,-209,-234,-162,-233,-146,-172,-151,-154,-156,-148,-132]],"properties":{"市区町村名":"苫小牧市","大字名":"啓北町","丁目名":"２丁目","小字名":null,"地番":"12-2","精度区分":null,"座標系":"任意座標系"}},{"type":"Polygon","arcs":[[-30,-69,-21,-293,-292,-304,-303,312,-256,-265,-262,313,-260,-267,314,315]],"properties":{"市区町村名":"苫小牧市","大字名":"松風町","丁目名":null,"小字名":null,"地番":"2-9X(4/4)","精度区分":null,"座標系":"任意座標系"}},{"type":"Polygon","arcs":[[316,-27,-316]],"properties":{"市区町村名":"苫小牧市","大字名":"見山町","丁目名":"４丁目","小字名":null,"地番":"421","精度区分":null,"座標系":"任意座標系"}}]}},"arcs":[[[532290,754913],[4385,-1542],[7332,-14061]],[[544007,739310],[-1627,-3420],[-17596,-7486]],[[524784,728404],[-9857,19106]],[[514927,747510],[17363,7403]],[[524784,728404],[-17132,-7291],[-4189,1345]],[[503463,722458],[-7142,14053]],[[496321,736511],[1536,3719],[17070,7280]],[[426094,739574],[6078,2593]],[[432172,742167],[-14659,-29930]],[[417513,712237],[-18203,-37176]],[[399310,675061],[-28445,-12077]],[[370865,662984],[-22263,43540]],[[348602,706524],[77492,33050]],[[289224,650852],[18728,38437]],[[307952,689289],[40650,17235]],[[370865,662984],[-90181,-38280]],[[280684,624704],[-2099,4142]],[[278585,628846],[10639,22006]],[[280684,624704],[-5160,-2191]],[[275524,622513],[3061,6333]],[[355162,787104],[14356,29749],[7818,16204]],[[377336,833057],[48758,-93483]],[[307952,689289],[47210,97815]],[[485073,853430],[13291,-25732]],[[498364,827698],[-31541,-13272]],[[466823,814426],[18250,39004]],[[421767,925154],[12332,23278],[1059,1633]],[[435158,950065],[13746,-26614]],[[448904,923451],[-35330,-15165]],[[413574,908286],[8193,16868]],[[490370,733986],[7178,-13909]],[[497548,720077],[-1405,-3781],[-17383,-7410]],[[478760,708886],[-9754,18928]],[[469006,727814],[17570,7485],[3794,-1313]],[[478760,708886],[-20182,-8597]],[[458578,700289],[-9828,18896]],[[448750,719185],[20256,8629]],[[458578,700289],[-16881,-7193],[-5026,1708]],[[436671,694804],[-6906,13257],[1471,3659],[17514,7465]],[[417513,712237],[2517,1075]],[[420030,713312],[10836,-20956]],[[430866,692356],[-1210,-4415],[-30346,-12880]],[[432172,742167],[1248,532]],[[433420,742699],[11231,4790]],[[444651,747489],[9956,-19401]],[[454607,728088],[-34577,-14776]],[[464186,755820],[10032,-19355]],[[474218,736465],[-19611,-8377]],[[444651,747489],[19535,8331]],[[483614,764108],[9981,-19365]],[[493595,744743],[-19377,-8278]],[[464186,755820],[19428,8288]],[[500570,777416],[2512,-4879]],[[503082,772537],[10029,-19452]],[[513111,753085],[-19516,-8342]],[[483614,764108],[-2564,4969]],[[481050,769077],[19520,8339]],[[522538,780905],[8730,-16903],[-1624,-3853]],[[529644,760149],[-16533,-7064]],[[503082,772537],[19456,8368]],[[529644,760149],[2646,-5236]],[[496321,736511],[-5951,-2525]],[[436671,694804],[-5805,-2448]],[[448904,923451],[36169,-70021]],[[466823,814426],[-11826,-25482]],[[454997,788944],[-15056,-32272]],[[439941,756672],[-3013,-6444]],[[436928,750228],[-3508,-7529]],[[377336,833057],[36238,75229]],[[520041,785735],[2497,-4830]],[[500570,777416],[19471,8319]],[[464186,755820],[-2570,4955]],[[461616,760775],[19434,8302]],[[444651,747489],[-2543,4952]],[[442108,752441],[19508,8334]],[[436928,750228],[5180,2213]],[[506865,811246],[9950,-19259]],[[516815,791987],[-33101,-14107],[-9828,19186]],[[473886,797066],[32979,14180]],[[454997,788944],[18889,8122]],[[516815,791987],[3226,-6252]],[[442108,752441],[-2167,4231]],[[498364,827698],[8501,-16452]],[[503463,722458],[-5915,-2381]],[[485073,853430],[7086,12619]],[[492159,866049],[5537,-10732],[2995,-5806],[5690,-11027],[8583,-16639],[8989,-17426],[9040,-17522],[9149,-17733],[12913,-25119],[-11048,-4735]],[[435158,950065],[7598,11740],[49403,-95756]],[[538545,302140],[11564,-21816]],[[550109,280324],[7907,-14914]],[[558016,265410],[3443,-6490]],[[561459,258920],[9047,-17067]],[[570506,241853],[5454,-10288]],[[575960,231565],[5587,-10533]],[[581547,221032],[24265,-45804]],[[605812,175228],[38908,-73308]],[[644720,101920],[-13049,-4431]],[[631671,97489],[-93954,178132]],[[537717,275621],[-11245,21332]],[[526472,296953],[12073,5187]],[[321724,181363],[27400,11958]],[[349124,193321],[36763,16044]],[[385887,209365],[31285,13653]],[[417172,223018],[10965,4784]],[[428137,227802],[34489,15052]],[[462626,242854],[14366,6270]],[[476992,249124],[14719,6423]],[[491711,255547],[46006,20074]],[[631671,97489],[-2250,-4038],[-241511,-84830]],[[387910,8621],[-4949,1194],[-19223,20010]],[[363738,29825],[-73072,137984]],[[290666,167809],[31058,13554]],[[265935,186375],[12103,5283]],[[278038,191658],[12628,-23849]],[[363738,29825],[-63829,66444]],[[299909,96269],[-22988,57905],[-10986,32201]],[[336712,217273],[12412,-23952]],[[321724,181363],[-12316,23991]],[[309408,205354],[27304,11919]],[[416548,249016],[11589,-21214]],[[417172,223018],[-11233,21222]],[[405939,244240],[10609,4776]],[[418233,252861],[17895,7816]],[[436128,260677],[3663,-6937],[13831,6024]],[[453622,259764],[9004,-16910]],[[416548,249016],[1685,3845]],[[449931,266700],[3691,-6936]],[[436128,260677],[13803,6023]],[[401347,245490],[4592,-1250]],[[385887,209365],[-12394,23964]],[[373493,233329],[27854,12161]],[[569772,319021],[12702,-24640]],[[582474,294381],[-6953,-3020]],[[575521,291361],[-2753,-1194]],[[572768,290167],[-12889,24532]],[[559879,314699],[9893,4322]],[[299909,96269],[-56836,59159],[-5065,7106],[-3873,6970]],[[234135,169504],[1740,3748],[30060,13123]],[[629957,185541],[38904,-75542],[3780,-1415]],[[672641,108584],[-23632,-8266],[-4289,1602]],[[605812,175228],[24145,10313]],[[522551,298406],[3921,-1453]],[[491711,255547],[-12525,23925]],[[479186,279472],[43365,18934]],[[476992,249124],[-12525,23923]],[[464467,273047],[14719,6425]],[[606375,231384],[23582,-45843]],[[581547,221032],[24828,10352]],[[575521,291361],[7678,-14924]],[[583199,276437],[-25183,-11027]],[[550109,280324],[22659,9843]],[[595587,252355],[5187,-10082]],[[600774,242273],[-24814,-10708]],[[570506,241853],[25081,10502]],[[586629,269772],[8958,-17417]],[[561459,258920],[25170,10852]],[[583199,276437],[3430,-6665]],[[278038,191658],[31370,13696]],[[336712,217273],[36781,16056]],[[540185,306102],[-1640,-3962]],[[522551,298406],[17634,7696]],[[672641,108584],[4251,1489]],[[676892,110073],[286722,100452]],[[963614,210525],[15738,5539]],[[979352,216064],[15473,5443]],[[994825,221507],[5174,-10014],[-26206,-9234],[-25563,-9041],[-5756,-2036],[-23629,-8355],[-24026,-8495],[-5802,-2053],[-25261,-8882],[-17222,-6054],[-8178,-2874],[-5696,-2003],[-16617,-5844],[-15010,-5278],[-16949,-5958],[-1307,-2597],[-8924,-3078],[-2790,1087],[-26877,-9428],[-13015,-4565],[-12168,-4267],[-5788,-2031],[-17235,-6046],[-13907,-4876],[-5227,-1835],[-14647,-5137],[-5772,-2025],[-16446,-5767],[-9569,-3357],[-11408,-4001],[-14679,-5149],[-5992,-1986],[-25349,-8896],[-25259,-8868],[-5755,-2019],[-14096,-4950],[-11201,-3928],[-12163,-4270],[-12463,-4376],[-5580,-1958],[-23975,-8416],[-22961,-8059],[-5665,-1988],[-35895,-12600],[-10061,8621]],[[401347,245490],[16886,7371]],[[579814,323403],[12977,-24541]],[[592791,298862],[-10317,-4481]],[[569772,319021],[10042,4382]],[[540185,306102],[19694,8597]],[[449931,266700],[14536,6347]],[[600774,242273],[5601,-10889]],[[982930,251690],[13603,-26514],[-1708,-3669]],[[979352,216064],[-14452,27973]],[[964900,244037],[18030,7653]],[[837736,405268],[-12941,25085]],[[824795,430353],[15702,6822],[35319,15347],[4668,-1203]],[[880484,451319],[11755,-22907],[8269,-16114]],[[900508,412298],[-33262,-14171]],[[867246,398127],[-8389,16257],[-5361,-2250],[-15760,-6866]],[[900508,412298],[3172,-6178]],[[903680,406120],[-33376,-13915]],[[870304,392205],[-3058,5922]],[[903680,406120],[4772,-9299]],[[908452,396821],[-1546,-3949],[-30387,-12714],[-6215,12047]],[[918492,377255],[6869,-13386]],[[925361,363869],[-33246,-14155]],[[892115,349714],[-8217,15993],[30481,12962],[4113,-1414]],[[925361,363869],[8096,-15776]],[[933457,348093],[-33258,-14125]],[[900199,333968],[-8084,15746]],[[933457,348093],[8260,-16097]],[[941717,331996],[-33259,-14100]],[[908458,317896],[-8259,16072]],[[941717,331996],[8303,-16183]],[[950020,315813],[-33288,-14024]],[[916732,301789],[-8274,16107]],[[950020,315813],[8184,-15944]],[[958204,299869],[-33221,-14145]],[[924983,285724],[-8251,16065]],[[958204,299869],[8277,-16127]],[[966481,283742],[-33259,-14052]],[[933222,269690],[-8239,16034]],[[966481,283742],[8084,-15760]],[[974565,267982],[-33219,-14106]],[[941346,253876],[-8124,15814]],[[974565,267982],[8365,-16292]],[[964900,244037],[-15189,-6448]],[[949711,237589],[-8365,16287]],[[837736,405268],[-18603,-8104]],[[819133,397164],[-12975,25092]],[[806158,422256],[18637,8097]],[[598095,331385],[12971,-24584]],[[611066,306801],[-18275,-7939]],[[579814,323403],[18281,7982]],[[666169,361319],[13176,-24861],[-3446,-1498]],[[675899,334960],[-13053,24905]],[[662846,359865],[3323,1454]],[[779051,410479],[13175,-25051]],[[792226,385428],[-40994,-17909],[-13341,25074]],[[737891,392593],[41160,17886]],[[632006,346385],[12972,-24852]],[[644978,321533],[-33912,-14732]],[[598095,331385],[33911,15000]],[[647272,353060],[13131,-24832]],[[660403,328228],[-15425,-6695]],[[632006,346385],[15266,6675]],[[675899,334960],[-15496,-6732]],[[647272,353060],[15574,6805]],[[785360,413222],[13280,-24995]],[[798640,388227],[-6414,-2799]],[[779051,410479],[6309,2743]],[[629957,185541],[6942,2969],[39993,-78437]],[[963614,210525],[-13903,27064]],[[221988,166857],[11117,4853]],[[233105,171710],[1030,-2206]],[[234135,169504],[15068,-32405],[-18284,15057]],[[230919,152156],[-6954,10389],[-1977,4312]],[[211551,217657],[21554,-45947]],[[221988,166857],[-21159,46102],[10722,4698]],[[211551,217657],[3898,1707],[34306,15032]],[[249755,234396],[16180,-48021]],[[387910,8621],[-15227,-5364],[-46013,47886]],[[326670,51143],[-26761,45126]],[[326670,51143],[-92752,96524],[-2999,4489]],[[276469,675921],[12755,-25069]],[[278585,628846],[-8796,17390]],[[269789,646236],[-11168,22083]],[[258621,668319],[17848,7602]],[[253457,639280],[16332,6956]],[[275524,622513],[-11448,-4858]],[[264076,617655],[-10910,21501]],[[253166,639156],[291,124]],[[1505,888250],[35320,11947]],[[36825,900197],[3248,-34520]],[[40073,865677],[16495,-182834]],[[56568,682843],[-21355,-8897],[-20883,73241],[-12825,141063]],[[247912,971010],[51572,9297]],[[299484,980307],[8649,-20238]],[[308133,960069],[-7865,-6377],[-47361,-15956],[-4995,33274]],[[35018,916518],[105039,35057],[70098,12631]],[[210155,964206],[763,-5119]],[[210918,959087],[-174093,-58890]],[[36825,900197],[-1807,16321]],[[210918,959087],[5039,-33784],[-175884,-59626]],[[299484,980307],[43256,7766]],[[342740,988073],[-34607,-28004]],[[236979,632263],[16187,6893]],[[264076,617655],[-16520,-7012]],[[247556,610643],[-11026,21428]],[[236530,632071],[449,192]],[[220679,625319],[15851,6752]],[[247556,610643],[-16253,-6900]],[[231303,603743],[-10880,21466]],[[220423,625209],[256,110]],[[231303,603743],[-13098,-5559]],[[218205,598184],[-4780,1546],[-9439,18480]],[[203986,618210],[16437,6999]],[[209502,647408],[11177,-22089]],[[203986,618210],[-9864,19316],[1508,3977],[13872,5905]],[[225759,654329],[11220,-22066]],[[209502,647408],[16257,6921]],[[242326,661381],[11131,-22101]],[[225759,654329],[16567,7052]],[[242326,661381],[16295,6938]],[[1505,888250],[-1505,16582],[35018,11686]],[[289752,681573],[18200,7716]],[[276469,675921],[13283,5652]],[[210373,737963],[33072,-65942]],[[243445,672021],[-52776,-22082]],[[190669,649939],[-4429,1868],[-33461,66608]],[[152779,718415],[57594,19548]],[[210373,737963],[144789,49141]],[[289752,681573],[-12450,4613],[-33857,-14165]],[[177042,644125],[13627,5814]],[[218205,598184],[-17712,-7517]],[[200493,590667],[1763,4181],[-25214,49277]],[[200493,590667],[-75096,-31877],[-58028,115710]],[[67369,674500],[73707,28772],[6887,-2249]],[[147963,701023],[29079,-56898]],[[140623,715381],[7340,-14358]],[[67369,674500],[-5327,10622]],[[62042,685122],[78581,30259]],[[140623,715381],[11463,4418],[693,-1384]],[[819133,397164],[-2803,-1222]],[[816330,395942],[-13011,25081]],[[803319,421023],[2839,1233]],[[816330,395942],[-17690,-7715]],[[785360,413222],[17959,7801]],[[249755,234396],[57786,25316],[15338,6699],[21615,9440],[20034,8749],[19858,8672],[19738,8620],[19754,8629],[20091,8775],[19899,8690],[19851,8670],[19898,8688],[22324,9751],[16901,7236],[23287,10176],[21091,9219],[20093,8785],[19715,8619],[19740,8628],[19885,8691],[19807,8660],[19855,8679],[19699,8611],[23216,10148],[23273,10174],[13475,5890],[19282,8427],[47737,20868],[2989,1307],[23170,-45306],[1328,-2588]],[[737891,392593],[-71722,-31274]],[[908452,396821],[10040,-19566]],[[62042,685122],[-5474,-2279]],[[210155,964206],[37757,6804]],[[342740,988073],[66623,11926],[25121,-48636]],[[434484,951363],[-12717,-26209]],[[434484,951363],[674,-1298]]],"bbox":[-1601.965,-177.478,-944.97,541.036],"transform":{"scale":[0.0006569956569956568,0.0007185147185147185],"translate":[-1601.965,-177.478]}}