{"type":"Topology","objects":{"01213-4323-27":{"type":"GeometryCollection","geometries":[{"type":"MultiPolygon","arcs":[[[0,1,2]]],"properties":{"筆ID":"H000000001","version":"ver1.0","座標系":"任意座標系","測地系判別":null,"地図名":"苫区Ｍ（１０００）図無Ｈ１３","地図番号":"区M-12","縮尺分母":"1000","市区町村コード":"01213","市区町村名":"苫小牧市","大字コード":"083","丁目コード":"005","小字コード":"0000","予備コード":"00","大字名":"新明町","丁目名":"５丁目","小字名":null,"予備名":null,"地番":"78","精度区分":null,"座標値種別":null,"筆界未定構成筆":null,"代表点緯度":203.94,"代表点経度":44.21104445}},{"type":"MultiPolygon","arcs":[[[3,-1,4,5]]],"properties":{"筆ID":"H000000002","version":"ver1.0","座標系":"任意座標系","測地系判別":null,"地図名":"苫区Ｍ（１０００）図無Ｈ１３","地図番号":"区M-12","縮尺分母":"1000","市区町村コード":"01213","市区町村名":"苫小牧市","大字コード":"083","丁目コード":"005","小字コード":"0000","予備コード":"00","大字名":"新明町","丁目名":"５丁目","小字名":null,"予備名":null,"地番":"126","精度区分":null,"座標値種別":null,"筆界未定構成筆":null,"代表点緯度":74.602,"代表点経度":118.282369971}},{"type":"MultiPolygon","arcs":[[[-5,-3,6,7]]],"properties":{"筆ID":"H000000003","version":"ver1.0","座標系":"任意座標系","測地系判別":null,"地図名":"苫区Ｍ（１０００）図無Ｈ１３","地図番号":"区M-12","縮尺分母":"1000","市区町村コード":"01213","市区町村名":"苫小牧市","大字コード":"083","丁目コード":"005","小字コード":"0000","予備コード":"00","大字名":"新明町","丁目名":"５丁目","小字名":null,"予備名":null,"地番":"127","精度区分":null,"座標値種別":null,"筆界未定構成筆":null,"代表点緯度":244.7895,"代表点経度":19.842443648}},{"type":"MultiPolygon","arcs":[[[-7,-2,-4,8]]],"properties":{"筆ID":"H000000004","version":"ver1.0","座標系":"任意座標系","測地系判別":null,"地図名":"苫区Ｍ（１０００）図無Ｈ１３","地図番号":"区M-12","縮尺分母":"1000","市区町村コード":"01213","市区町村名":"苫小牧市","大字コード":"083","丁目コード":"005","小字コード":"0000","予備コード":"00","大字名":"新明町","丁目名":"５丁目","小字名":null,"予備名":null,"地番":"131","精度区分":null,"座標値種別":null,"筆界未定構成筆":null,"代表点緯度":72.1175,"代表点経度":89.570997577}}]}},"arcs":[[[198141,939660],[8962,-1916],[182286,-217306]],[[389389,720438],[-71480,76374],[-90994,82277],[-63659,49487]],[[163256,928576],[34885,11084]],[[862463,6282],[-183753,298547],[-125493,203895],[-48213,71938],[-50285,63510],[-65330,76266]],[[198141,939660],[-19439,23109]],[[178702,962769],[123091,37230],[15520,-18814],[-2979,-5625],[21446,-25530],[23839,-28373],[24118,-28706],[45746,-54452],[26693,-31769],[47157,-56128],[34890,-41527],[31301,-37257],[8966,-1931],[15278,-19065],[-3384,-4844],[30119,-38028],[5935,-8919],[25589,-38422],[15250,-22900],[10167,-16889],[8929,-2667],[9929,-15998],[-4264,-4617],[25901,-41522],[81167,-129955],[7877,-2199],[12187,-19033],[507,-795],[-3784,-5066],[24030,-38984],[15790,-25608],[19943,-32352],[4962,-8052],[24802,-40236],[17406,-28227],[19896,-32274],[26260,-42600],[8118,-2240],[10828,-17000],[-4464,-4412],[16535,-26983],[-137536,6282]],[[163256,928576],[-27307,21235]],[[135949,949811],[42753,12958]],[[862463,6282],[-144654,6893],[-2495,4065],[-15176,24756],[-22438,36608],[-9063,14782],[-3976,6491],[-20320,33145],[-8886,14495],[-21982,35865],[-74533,121447],[-77643,126520],[-28145,46631],[-49145,73417],[-11610,15345],[-35840,45106],[-55251,65698],[-76470,82140],[-87438,79501],[-41594,31991],[-19751,15191],[-35547,27341],[-3771,2902],[-16735,11073],[75804,22356],[43386,12796],[16759,-13026]]],"bbox":[-16.284,-116.609,198.532,265.93],"transform":{"scale":[0.00021481621481621484,0.00038253938253938254],"translate":[-16.284,-116.609]}}
