{"type":"Topology","objects":{"01213-4323-9":{"type":"GeometryCollection","geometries":[{"type":"MultiPolygon","arcs":[[[0,1,2,3]]],"properties":{"筆ID":"H000000001","version":"ver1.0","座標系":"任意座標系","測地系判別":null,"地図名":"苫区Ｂ（６００）図無Ｈ１３","地図番号":"区B-40","縮尺分母":"600","市区町村コード":"01213","市区町村名":"苫小牧市","大字コード":"071","丁目コード":"002","小字コード":"0000","予備コード":"00","大字名":"有明町","丁目名":"２丁目","小字名":null,"予備名":null,"地番":"7-1","精度区分":null,"座標値種別":null,"筆界未定構成筆":null,"代表点緯度":-203.115,"代表点経度":-624.546299842}},{"type":"MultiPolygon","arcs":[[[4,-3,5,6,7]]],"properties":{"筆ID":"H000000002","version":"ver1.0","座標系":"任意座標系","測地系判別":null,"地図名":"苫区Ｂ（６００）図無Ｈ１３","地図番号":"区B-40","縮尺分母":"600","市区町村コード":"01213","市区町村名":"苫小牧市","大字コード":"071","丁目コード":"002","小字コード":"0000","予備コード":"00","大字名":"有明町","丁目名":"２丁目","小字名":null,"予備名":null,"地番":"7-2","精度区分":null,"座標値種別":null,"筆界未定構成筆":null,"代表点緯度":-209.146,"代表点経度":-650.348380181}},{"type":"MultiPolygon","arcs":[[[-7,8,9,10]]],"properties":{"筆ID":"H000000003","version":"ver1.0","座標系":"任意座標系","測地系判別":null,"地図名":"苫区Ｂ（６００）図無Ｈ１３","地図番号":"区B-40","縮尺分母":"600","市区町村コード":"01213","市区町村名":"苫小牧市","大字コード":"071","丁目コード":"002","小字コード":"0000","予備コード":"00","大字名":"有明町","丁目名":"２丁目","小字名":null,"予備名":null,"地番":"7-3","精度区分":null,"座標値種別":null,"筆界未定構成筆":null,"代表点緯度":-212.052,"代表点経度":-662.149852785}},{"type":"MultiPolygon","arcs":[[[-10,11,12,13,14]]],"properties":{"筆ID":"H000000004","version":"ver1.0","座標系":"任意座標系","測地系判別":null,"地図名":"苫区Ｂ（６００）図無Ｈ１３","地図番号":"区B-40","縮尺分母":"600","市区町村コード":"01213","市区町村名":"苫小牧市","大字コード":"071","丁目コード":"002","小字コード":"0000","予備コード":"00","大字名":"有明町","丁目名":"２丁目","小字名":null,"予備名":null,"地番":"7-4","精度区分":null,"座標値種別":null,"筆界未定構成筆":null,"代表点緯度":-210.158,"代表点経度":-672.639933812}},{"type":"MultiPolygon","arcs":[[[15,16,17,18,19]]],"properties":{"筆ID":"H000000005","version":"ver1.0","座標系":"任意座標系","測地系判別":null,"地図名":"苫区Ｂ（６００）図無Ｈ１３","地図番号":"区B-40","縮尺分母":"600","市区町村コード":"01213","市区町村名":"苫小牧市","大字コード":"071","丁目コード":"002","小字コード":"0000","予備コード":"00","大字名":"有明町","丁目名":"２丁目","小字名":null,"予備名":null,"地番":"7-6","精度区分":null,"座標値種別":null,"筆界未定構成筆":null,"代表点緯度":-222.858,"代表点経度":-678.082643927}},{"type":"MultiPolygon","arcs":[[[-19,20,21,22]]],"properties":{"筆ID":"H000000006","version":"ver1.0","座標系":"任意座標系","測地系判別":null,"地図名":"苫区Ｂ（６００）図無Ｈ１３","地図番号":"区B-40","縮尺分母":"600","市区町村コード":"01213","市区町村名":"苫小牧市","大字コード":"071","丁目コード":"002","小字コード":"0000","予備コード":"00","大字名":"有明町","丁目名":"２丁目","小字名":null,"予備名":null,"地番":"7-7","精度区分":null,"座標値種別":null,"筆界未定構成筆":null,"代表点緯度":-224.2425,"代表点経度":-683.476105306}},{"type":"MultiPolygon","arcs":[[[23,-20,-23,24,25]]],"properties":{"筆ID":"H000000007","version":"ver1.0","座標系":"任意座標系","測地系判別":null,"地図名":"苫区Ｂ（６００）図無Ｈ１３","地図番号":"区B-40","縮尺分母":"600","市区町村コード":"01213","市区町村名":"苫小牧市","大字コード":"071","丁目コード":"002","小字コード":"0000","予備コード":"00","大字名":"有明町","丁目名":"２丁目","小字名":null,"予備名":null,"地番":"7-8","精度区分":null,"座標値種別":null,"筆界未定構成筆":null,"代表点緯度":-212.574,"代表点経度":-683.533466503}},{"type":"MultiPolygon","arcs":[[[-25,-22,26,27,28]]],"properties":{"筆ID":"H000000008","version":"ver1.0","座標系":"任意座標系","測地系判別":null,"地図名":"苫区Ｂ（６００）図無Ｈ１３","地図番号":"区B-40","縮尺分母":"600","市区町村コード":"01213","市区町村名":"苫小牧市","大字コード":"071","丁目コード":"002","小字コード":"0000","予備コード":"00","大字名":"有明町","丁目名":"２丁目","小字名":null,"予備名":null,"地番":"7-9","精度区分":null,"座標値種別":null,"筆界未定構成筆":null,"代表点緯度":-215.2945,"代表点経度":-692.182066086}},{"type":"MultiPolygon","arcs":[[[-28,29,30,31]]],"properties":{"筆ID":"H000000009","version":"ver1.0","座標系":"任意座標系","測地系判別":null,"地図名":"苫区Ｂ（６００）図無Ｈ１３","地図番号":"区B-40","縮尺分母":"600","市区町村コード":"01213","市区町村名":"苫小牧市","大字コード":"071","丁目コード":"002","小字コード":"0000","予備コード":"00","大字名":"有明町","丁目名":"２丁目","小字名":null,"予備名":null,"地番":"7-10","精度区分":null,"座標値種別":null,"筆界未定構成筆":null,"代表点緯度":-222.648,"代表点経度":-703.610219069}},{"type":"MultiPolygon","arcs":[[[-31,32,33,34]]],"properties":{"筆ID":"H000000010","version":"ver1.0","座標系":"任意座標系","測地系判別":null,"地図名":"苫区Ｂ（６００）図無Ｈ１３","地図番号":"区B-40","縮尺分母":"600","市区町村コード":"01213","市区町村名":"苫小牧市","大字コード":"071","丁目コード":"002","小字コード":"0000","予備コード":"00","大字名":"有明町","丁目名":"２丁目","小字名":null,"予備名":null,"地番":"7-11","精度区分":null,"座標値種別":null,"筆界未定構成筆":null,"代表点緯度":-226.427,"代表点経度":-718.275014893}},{"type":"MultiPolygon","arcs":[[[35,-34,36,37,38]]],"properties":{"筆ID":"H000000011","version":"ver1.0","座標系":"任意座標系","測地系判別":null,"地図名":"苫区Ｂ（６００）図無Ｈ１３","地図番号":"区B-40","縮尺分母":"600","市区町村コード":"01213","市区町村名":"苫小牧市","大字コード":"071","丁目コード":"002","小字コード":"0000","予備コード":"00","大字名":"有明町","丁目名":"２丁目","小字名":null,"予備名":null,"地番":"7-12","精度区分":null,"座標値種別":null,"筆界未定構成筆":null,"代表点緯度":-228.8935,"代表点経度":-727.918165458}},{"type":"MultiPolygon","arcs":[[[-38,39,40,41]]],"properties":{"筆ID":"H000000012","version":"ver1.0","座標系":"任意座標系","測地系判別":null,"地図名":"苫区Ｂ（６００）図無Ｈ１３","地図番号":"区B-40","縮尺分母":"600","市区町村コード":"01213","市区町村名":"苫小牧市","大字コード":"071","丁目コード":"002","小字コード":"0000","予備コード":"00","大字名":"有明町","丁目名":"２丁目","小字名":null,"予備名":null,"地番":"7-14","精度区分":null,"座標値種別":null,"筆界未定構成筆":null,"代表点緯度":-230.1905,"代表点経度":-732.945356929}},{"type":"MultiPolygon","arcs":[[[-41,42,43,44,45]]],"properties":{"筆ID":"H000000013","version":"ver1.0","座標系":"任意座標系","測地系判別":null,"地図名":"苫区Ｂ（６００）図無Ｈ１３","地図番号":"区B-40","縮尺分母":"600","市区町村コード":"01213","市区町村名":"苫小牧市","大字コード":"071","丁目コード":"002","小字コード":"0000","予備コード":"00","大字名":"有明町","丁目名":"２丁目","小字名":null,"予備名":null,"地番":"7-15","精度区分":null,"座標値種別":null,"筆界未定構成筆":null,"代表点緯度":-228.296,"代表点経度":-742.495967111}},{"type":"MultiPolygon","arcs":[[[-45,46,47,48,49]]],"properties":{"筆ID":"H000000014","version":"ver1.0","座標系":"任意座標系","測地系判別":null,"地図名":"苫区Ｂ（６００）図無Ｈ１３","地図番号":"区B-40","縮尺分母":"600","市区町村コード":"01213","市区町村名":"苫小牧市","大字コード":"071","丁目コード":"002","小字コード":"0000","予備コード":"00","大字名":"有明町","丁目名":"２丁目","小字名":null,"予備名":null,"地番":"7-16","精度区分":null,"座標値種別":null,"筆界未定構成筆":null,"代表点緯度":-234.6705,"代表点経度":-757.937467885}},{"type":"MultiPolygon","arcs":[[[50,51,-49,52,53,54]]],"properties":{"筆ID":"H000000015","version":"ver1.0","座標系":"任意座標系","測地系判別":null,"地図名":"苫区Ｂ（６００）図無Ｈ１３","地図番号":"区B-40","縮尺分母":"600","市区町村コード":"01213","市区町村名":"苫小牧市","大字コード":"071","丁目コード":"002","小字コード":"0000","予備コード":"00","大字名":"有明町","丁目名":"２丁目","小字名":null,"予備名":null,"地番":"7-17","精度区分":null,"座標値種別":null,"筆界未定構成筆":null,"代表点緯度":-240.434,"代表点経度":-772.996528216}},{"type":"MultiPolygon","arcs":[[[55,56,57,58,59,60]]],"properties":{"筆ID":"H000000016","version":"ver1.0","座標系":"任意座標系","測地系判別":null,"地図名":"苫区Ｂ（６００）図無Ｈ１３","地図番号":"区B-40","縮尺分母":"600","市区町村コード":"01213","市区町村名":"苫小牧市","大字コード":"071","丁目コード":"002","小字コード":"0000","予備コード":"00","大字名":"有明町","丁目名":"２丁目","小字名":null,"予備名":null,"地番":"7-18","精度区分":null,"座標値種別":null,"筆界未定構成筆":null,"代表点緯度":-242.278,"代表点経度":-797.191691394}},{"type":"MultiPolygon","arcs":[[[61,62,63,64,65,66]]],"properties":{"筆ID":"H000000017","version":"ver1.0","座標系":"任意座標系","測地系判別":null,"地図名":"苫区Ｂ（６００）図無Ｈ１３","地図番号":"区B-40","縮尺分母":"600","市区町村コード":"01213","市区町村名":"苫小牧市","大字コード":"071","丁目コード":"002","小字コード":"0000","予備コード":"00","大字名":"有明町","丁目名":"２丁目","小字名":null,"予備名":null,"地番":"7-19","精度区分":null,"座標値種別":null,"筆界未定構成筆":null,"代表点緯度":-250.6525,"代表点経度":-821.388235246}},{"type":"MultiPolygon","arcs":[[[-66,67,68,69,70,71]]],"properties":{"筆ID":"H000000018","version":"ver1.0","座標系":"任意座標系","測地系判別":null,"地図名":"苫区Ｂ（６００）図無Ｈ１３","地図番号":"区B-40","縮尺分母":"600","市区町村コード":"01213","市区町村名":"苫小牧市","大字コード":"071","丁目コード":"002","小字コード":"0000","予備コード":"00","大字名":"有明町","丁目名":"２丁目","小字名":null,"予備名":null,"地番":"7-20","精度区分":null,"座標値種別":null,"筆界未定構成筆":null,"代表点緯度":-252.759,"代表点経度":-831.187368106}},{"type":"MultiPolygon","arcs":[[[72,73,-70]]],"properties":{"筆ID":"H000000019","version":"ver1.0","座標系":"任意座標系","測地系判別":null,"地図名":"苫区Ｂ（６００）図無Ｈ１３","地図番号":"区B-40","縮尺分母":"600","市区町村コード":"01213","市区町村名":"苫小牧市","大字コード":"071","丁目コード":"002","小字コード":"0000","予備コード":"00","大字名":"有明町","丁目名":"２丁目","小字名":null,"予備名":null,"地番":"7-21","精度区分":null,"座標値種別":null,"筆界未定構成筆":null,"代表点緯度":-260.77,"代表点経度":-830.247209808}},{"type":"MultiPolygon","arcs":[[[-74,74,75,76]]],"properties":{"筆ID":"H000000020","version":"ver1.0","座標系":"任意座標系","測地系判別":null,"地図名":"苫区Ｂ（６００）図無Ｈ１３","地図番号":"区B-40","縮尺分母":"600","市区町村コード":"01213","市区町村名":"苫小牧市","大字コード":"071","丁目コード":"002","小字コード":"0000","予備コード":"00","大字名":"有明町","丁目名":"２丁目","小字名":null,"予備名":null,"地番":"7-22","精度区分":null,"座標値種別":null,"筆界未定構成筆":null,"代表点緯度":-264.3655,"代表点経度":-844.236832934}},{"type":"MultiPolygon","arcs":[[[-71,-77,77,78]]],"properties":{"筆ID":"H000000021","version":"ver1.0","座標系":"任意座標系","測地系判別":null,"地図名":"苫区Ｂ（６００）図無Ｈ１３","地図番号":"区B-40","縮尺分母":"600","市区町村コード":"01213","市区町村名":"苫小牧市","大字コード":"071","丁目コード":"002","小字コード":"0000","予備コード":"00","大字名":"有明町","丁目名":"２丁目","小字名":null,"予備名":null,"地番":"7-23","精度区分":null,"座標値種別":null,"筆界未定構成筆":null,"代表点緯度":-253.6655,"代表点経度":-846.908796972}},{"type":"MultiPolygon","arcs":[[[79,80,81,82]]],"properties":{"筆ID":"H000000022","version":"ver1.0","座標系":"任意座標系","測地系判別":null,"地図名":"苫区Ｂ（６００）図無Ｈ１３","地図番号":"区B-40","縮尺分母":"600","市区町村コード":"01213","市区町村名":"苫小牧市","大字コード":"071","丁目コード":"002","小字コード":"0000","予備コード":"00","大字名":"有明町","丁目名":"２丁目","小字名":null,"予備名":null,"地番":"7-24","精度区分":null,"座標値種別":null,"筆界未定構成筆":null,"代表点緯度":-225.9765,"代表点経度":-842.894770442}},{"type":"MultiPolygon","arcs":[[[83,84,-62,85,-81,86]]],"properties":{"筆ID":"H000000023","version":"ver1.0","座標系":"任意座標系","測地系判別":null,"地図名":"苫区Ｂ（６００）図無Ｈ１３","地図番号":"区B-40","縮尺分母":"600","市区町村コード":"01213","市区町村名":"苫小牧市","大字コード":"071","丁目コード":"002","小字コード":"0000","予備コード":"00","大字名":"有明町","丁目名":"２丁目","小字名":null,"予備名":null,"地番":"7-26","精度区分":null,"座標値種別":null,"筆界未定構成筆":null,"代表点緯度":-220.732,"代表点経度":-821.011870468}},{"type":"MultiPolygon","arcs":[[[87,-61,88,-84,89]]],"properties":{"筆ID":"H000000024","version":"ver1.0","座標系":"任意座標系","測地系判別":null,"地図名":"苫区Ｂ（６００）図無Ｈ１３","地図番号":"区B-40","縮尺分母":"600","市区町村コード":"01213","市区町村名":"苫小牧市","大字コード":"071","丁目コード":"002","小字コード":"0000","予備コード":"00","大字名":"有明町","丁目名":"２丁目","小字名":null,"予備名":null,"地番":"7-27","精度区分":null,"座標値種別":null,"筆界未定構成筆":null,"代表点緯度":-222.5785,"代表点経度":-808.064856033}},{"type":"MultiPolygon","arcs":[[[90,-55,91,-56,-88,92]]],"properties":{"筆ID":"H000000025","version":"ver1.0","座標系":"任意座標系","測地系判別":null,"地図名":"苫区Ｂ（６００）図無Ｈ１３","地図番号":"区B-40","縮尺分母":"600","市区町村コード":"01213","市区町村名":"苫小牧市","大字コード":"071","丁目コード":"002","小字コード":"0000","予備コード":"00","大字名":"有明町","丁目名":"２丁目","小字名":null,"予備名":null,"地番":"7-28","精度区分":null,"座標値種別":null,"筆界未定構成筆":null,"代表点緯度":-218.633,"代表点経度":-792.523070318}},{"type":"MultiPolygon","arcs":[[[93,-51,-91,94]]],"properties":{"筆ID":"H000000026","version":"ver1.0","座標系":"任意座標系","測地系判別":null,"地図名":"苫区Ｂ（６００）図無Ｈ１３","地図番号":"区B-40","縮尺分母":"600","市区町村コード":"01213","市区町村名":"苫小牧市","大字コード":"071","丁目コード":"002","小字コード":"0000","予備コード":"00","大字名":"有明町","丁目名":"２丁目","小字名":null,"予備名":null,"地番":"7-29","精度区分":null,"座標値種別":null,"筆界未定構成筆":null,"代表点緯度":-214.689,"代表点経度":-777.034789374}},{"type":"MultiPolygon","arcs":[[[95,-39,-42,-46,-50,-52,-94,96]]],"properties":{"筆ID":"H000000027","version":"ver1.0","座標系":"任意座標系","測地系判別":null,"地図名":"苫区Ｂ（６００）図無Ｈ１３","地図番号":"区B-40","縮尺分母":"600","市区町村コード":"01213","市区町村名":"苫小牧市","大字コード":"071","丁目コード":"002","小字コード":"0000","予備コード":"00","大字名":"有明町","丁目名":"２丁目","小字名":null,"予備名":null,"地番":"7-30","精度区分":null,"座標値種別":null,"筆界未定構成筆":null,"代表点緯度":-208.198,"代表点経度":-751.555367747}},{"type":"MultiPolygon","arcs":[[[97,98,-26,-29,-32,-35,-36,-96,99]]],"properties":{"筆ID":"H000000028","version":"ver1.0","座標系":"任意座標系","測地系判別":null,"地図名":"苫区Ｂ（６００）図無Ｈ１３","地図番号":"区B-40","縮尺分母":"600","市区町村コード":"01213","市区町村名":"苫小牧市","大字コード":"071","丁目コード":"002","小字コード":"0000","予備コード":"00","大字名":"有明町","丁目名":"２丁目","小字名":null,"予備名":null,"地番":"7-31","精度区分":null,"座標値種別":null,"筆界未定構成筆":null,"代表点緯度":-197.061,"代表点経度":-707.832593106}},{"type":"MultiPolygon","arcs":[[[100,-11,-15,-98,101]]],"properties":{"筆ID":"H000000029","version":"ver1.0","座標系":"任意座標系","測地系判別":null,"地図名":"苫区Ｂ（６００）図無Ｈ１３","地図番号":"区B-40","縮尺分母":"600","市区町村コード":"01213","市区町村名":"苫小牧市","大字コード":"071","丁目コード":"002","小字コード":"0000","予備コード":"00","大字名":"有明町","丁目名":"２丁目","小字名":null,"予備名":null,"地番":"7-32","精度区分":null,"座標値種別":null,"筆界未定構成筆":null,"代表点緯度":-188.0565,"代表点経度":-672.446193223}},{"type":"MultiPolygon","arcs":[[[102,103,104,105]]],"properties":{"筆ID":"H000000030","version":"ver1.0","座標系":"任意座標系","測地系判別":null,"地図名":"苫区Ｂ（６００）図無Ｈ１３","地図番号":"区B-40","縮尺分母":"600","市区町村コード":"01213","市区町村名":"苫小牧市","大字コード":"071","丁目コード":"002","小字コード":"0000","予備コード":"00","大字名":"有明町","丁目名":"２丁目","小字名":null,"予備名":null,"地番":"7-33","精度区分":null,"座標値種別":null,"筆界未定構成筆":null,"代表点緯度":-177.7165,"代表点経度":-649.655467368}},{"type":"MultiPolygon","arcs":[[[106,107,108]]],"properties":{"筆ID":"H000000031","version":"ver1.0","座標系":"任意座標系","測地系判別":null,"地図名":"苫区Ｂ（６００）図無Ｈ１３","地図番号":"区B-40","縮尺分母":"600","市区町村コード":"01213","市区町村名":"苫小牧市","大字コード":"071","丁目コード":"002","小字コード":"0000","予備コード":"00","大字名":"有明町","丁目名":"２丁目","小字名":null,"予備名":null,"地番":"7-34","精度区分":null,"座標値種別":null,"筆界未定構成筆":null,"代表点緯度":-170.549,"代表点経度":-621.588406631}},{"type":"MultiPolygon","arcs":[[[109,110,111,-107]]],"properties":{"筆ID":"H000000032","version":"ver1.0","座標系":"任意座標系","測地系判別":null,"地図名":"苫区Ｂ（６００）図無Ｈ１３","地図番号":"区B-40","縮尺分母":"600","市区町村コード":"01213","市区町村名":"苫小牧市","大字コード":"071","丁目コード":"002","小字コード":"0000","予備コード":"00","大字名":"有明町","丁目名":"２丁目","小字名":null,"予備名":null,"地番":"7-35","精度区分":null,"座標値種別":null,"筆界未定構成筆":null,"代表点緯度":-181.184,"代表点経度":-618.851147409}},{"type":"MultiPolygon","arcs":[[[-108,112,-103,113]]],"properties":{"筆ID":"H000000033","version":"ver1.0","座標系":"任意座標系","測地系判別":null,"地図名":"苫区Ｂ（６００）図無Ｈ１３","地図番号":"区B-40","縮尺分母":"600","市区町村コード":"01213","市区町村名":"苫小牧市","大字コード":"071","丁目コード":"002","小字コード":"0000","予備コード":"00","大字名":"有明町","丁目名":"２丁目","小字名":null,"予備名":null,"地番":"7-36","精度区分":null,"座標値種別":null,"筆界未定構成筆":null,"代表点緯度":-175.0745,"代表点経度":-639.226847218}},{"type":"MultiPolygon","arcs":[[[-112,114,-113]]],"properties":{"筆ID":"H000000034","version":"ver1.0","座標系":"任意座標系","測地系判別":null,"地図名":"苫区Ｂ（６００）図無Ｈ１３","地図番号":"区B-40","縮尺分母":"600","市区町村コード":"01213","市区町村名":"苫小牧市","大字コード":"071","丁目コード":"002","小字コード":"0000","予備コード":"00","大字名":"有明町","丁目名":"２丁目","小字名":null,"予備名":null,"地番":"7-37","精度区分":null,"座標値種別":null,"筆界未定構成筆":null,"代表点緯度":-185.691,"代表点経度":-636.449631445}},{"type":"MultiPolygon","arcs":[[[115,-17,-13]]],"properties":{"筆ID":"H000000035","version":"ver1.0","座標系":"任意座標系","測地系判別":null,"地図名":"苫区Ｂ（６００）図無Ｈ１３","地図番号":"区B-40","縮尺分母":"600","市区町村コード":"01213","市区町村名":"苫小牧市","大字コード":"071","丁目コード":"002","小字コード":"0000","予備コード":"00","大字名":"有明町","丁目名":"２丁目","小字名":null,"予備名":null,"地番":"7-38","精度区分":null,"座標値種別":null,"筆界未定構成筆":null,"代表点緯度":-220.63,"代表点経度":-671.442303279}},{"type":"MultiPolygon","arcs":[[[-14,-16,-24,-99]]],"properties":{"筆ID":"H000000036","version":"ver1.0","座標系":"任意座標系","測地系判別":null,"地図名":"苫区Ｂ（６００）図無Ｈ１３","地図番号":"区B-40","縮尺分母":"600","市区町村コード":"01213","市区町村名":"苫小牧市","大字コード":"071","丁目コード":"002","小字コード":"0000","予備コード":"00","大字名":"有明町","丁目名":"２丁目","小字名":null,"予備名":null,"地番":"7-39","精度区分":null,"座標値種別":null,"筆界未定構成筆":null,"代表点緯度":-211.202,"代表点経度":-678.203652718}},{"type":"MultiPolygon","arcs":[[[-44,116,-47]]],"properties":{"筆ID":"H000000037","version":"ver1.0","座標系":"任意座標系","測地系判別":null,"地図名":"苫区Ｂ（６００）図無Ｈ１３","地図番号":"区B-40","縮尺分母":"600","市区町村コード":"01213","市区町村名":"苫小牧市","大字コード":"071","丁目コード":"002","小字コード":"0000","予備コード":"00","大字名":"有明町","丁目名":"２丁目","小字名":null,"予備名":null,"地番":"7-40","精度区分":null,"座標値種別":null,"筆界未定構成筆":null,"代表点緯度":-240.272,"代表点経度":-751.666046655}},{"type":"MultiPolygon","arcs":[[[-89,-60,117,118,-63,-85]]],"properties":{"筆ID":"H000000038","version":"ver1.0","座標系":"任意座標系","測地系判別":null,"地図名":"苫区Ｂ（６００）図無Ｈ１３","地図番号":"区B-40","縮尺分母":"600","市区町村コード":"01213","市区町村名":"苫小牧市","大字コード":"071","丁目コード":"002","小字コード":"0000","予備コード":"00","大字名":"有明町","丁目名":"２丁目","小字名":null,"予備名":null,"地番":"7-41","精度区分":null,"座標値種別":null,"筆界未定構成筆":null,"代表点緯度":-249.349,"代表点経度":-812.346498013}},{"type":"MultiPolygon","arcs":[[[-59,119,-118]]],"properties":{"筆ID":"H000000039","version":"ver1.0","座標系":"任意座標系","測地系判別":null,"地図名":"苫区Ｂ（６００）図無Ｈ１３","地図番号":"区B-40","縮尺分母":"600","市区町村コード":"01213","市区町村名":"苫小牧市","大字コード":"071","丁目コード":"002","小字コード":"0000","予備コード":"00","大字名":"有明町","丁目名":"２丁目","小字名":null,"予備名":null,"地番":"7-42","精度区分":null,"座標値種別":null,"筆界未定構成筆":null,"代表点緯度":-254.583,"代表点経度":-806.293378936}},{"type":"MultiPolygon","arcs":[[[120,-68,-65]]],"properties":{"筆ID":"H000000040","version":"ver1.0","座標系":"任意座標系","測地系判別":null,"地図名":"苫区Ｂ（６００）図無Ｈ１３","地図番号":"区B-40","縮尺分母":"600","市区町村コード":"01213","市区町村名":"苫小牧市","大字コード":"071","丁目コード":"002","小字コード":"0000","予備コード":"00","大字名":"有明町","丁目名":"２丁目","小字名":null,"予備名":null,"地番":"7-43","精度区分":null,"座標値種別":null,"筆界未定構成筆":null,"代表点緯度":-256.8675,"代表点経度":-818.084035162}},{"type":"MultiPolygon","arcs":[[[-54,121,-57,-92]]],"properties":{"筆ID":"H000000041","version":"ver1.0","座標系":"任意座標系","測地系判別":null,"地図名":"苫区Ｂ（６００）図無Ｈ１３","地図番号":"区B-40","縮尺分母":"600","市区町村コード":"01213","市区町村名":"苫小牧市","大字コード":"071","丁目コード":"002","小字コード":"0000","予備コード":"00","大字名":"有明町","丁目名":"２丁目","小字名":null,"予備名":null,"地番":"7-44","精度区分":null,"座標値種別":null,"筆界未定構成筆":null,"代表点緯度":-243.8345,"代表点経度":-786.252594799}},{"type":"MultiPolygon","arcs":[[[122,123,124]]],"properties":{"筆ID":"H000000042","version":"ver1.0","座標系":"任意座標系","測地系判別":null,"地図名":"苫区Ｂ（６００）図無Ｈ１３","地図番号":"区B-40","縮尺分母":"600","市区町村コード":"01213","市区町村名":"苫小牧市","大字コード":"071","丁目コード":"002","小字コード":"0000","予備コード":"00","大字名":"有明町","丁目名":"２丁目","小字名":null,"予備名":null,"地番":"7-45","精度区分":null,"座標値種別":null,"筆界未定構成筆":null,"代表点緯度":-192.7265,"代表点経度":-647.746626579}},{"type":"MultiPolygon","arcs":[[[125,-124,-8,-101,126]]],"properties":{"筆ID":"H000000043","version":"ver1.0","座標系":"任意座標系","測地系判別":null,"地図名":"苫区Ｂ（６００）図無Ｈ１３","地図番号":"区B-40","縮尺分母":"600","市区町村コード":"01213","市区町村名":"苫小牧市","大字コード":"071","丁目コード":"002","小字コード":"0000","予備コード":"00","大字名":"有明町","丁目名":"２丁目","小字名":null,"予備名":null,"地番":"7-46","精度区分":null,"座標値種別":null,"筆界未定構成筆":null,"代表点緯度":-179.8175,"代表点経度":-657.869400235}},{"type":"MultiPolygon","arcs":[[[-105,-125,-126,127]]],"properties":{"筆ID":"H000000044","version":"ver1.0","座標系":"任意座標系","測地系判別":null,"地図名":"苫区Ｂ（６００）図無Ｈ１３","地図番号":"区B-40","縮尺分母":"600","市区町村コード":"01213","市区町村名":"苫小牧市","大字コード":"071","丁目コード":"002","小字コード":"0000","予備コード":"00","大字名":"有明町","丁目名":"２丁目","小字名":null,"予備名":null,"地番":"7-47","精度区分":null,"座標値種別":null,"筆界未定構成筆":null,"代表点緯度":-178.1855,"代表点経度":-651.462558109}},{"type":"MultiPolygon","arcs":[[[-115,-111,128,-4,-5,-123,-104]]],"properties":{"筆ID":"H000000045","version":"ver1.0","座標系":"任意座標系","測地系判別":null,"地図名":"苫区Ｂ（６００）図無Ｈ１３","地図番号":"区B-40","縮尺分母":"600","市区町村コード":"01213","市区町村名":"苫小牧市","大字コード":"071","丁目コード":"002","小字コード":"0000","予備コード":"00","大字名":"有明町","丁目名":"２丁目","小字名":null,"予備名":null,"地番":"7-48","精度区分":null,"座標値種別":null,"筆界未定構成筆":null,"代表点緯度":-189.497,"代表点経度":-627.852048859}},{"type":"MultiPolygon","arcs":[[[-82,-86,-67,-72,-79,129]]],"properties":{"筆ID":"H000000046","version":"ver1.0","座標系":"任意座標系","測地系判別":null,"地図名":"苫区Ｂ（６００）図無Ｈ１３","地図番号":"区B-40","縮尺分母":"600","市区町村コード":"01213","市区町村名":"苫小牧市","大字コード":"071","丁目コード":"002","小字コード":"0000","予備コード":"00","大字名":"有明町","丁目名":"２丁目","小字名":null,"予備名":null,"地番":"7-49","精度区分":null,"座標値種別":null,"筆界未定構成筆":null,"代表点緯度":-239.862,"代表点経度":-839.369071711}},{"type":"MultiPolygon","arcs":[[[130,-75,-73,-69,-121,-64,-119,-120,-58,-122,-53,-48,-117,-43,-40,-37,-33,-30,-27,-21,-18,-116,-12,-9,-6,-2,131]]],"properties":{"筆ID":"H000000047","version":"ver1.0","座標系":"任意座標系","測地系判別":null,"地図名":"苫区Ｂ（６００）図無Ｈ１３","地図番号":"区B-57","縮尺分母":"600","市区町村コード":"01213","市区町村名":"苫小牧市","大字コード":"071","丁目コード":"002","小字コード":"0000","予備コード":"00","大字名":"有明町","丁目名":"２丁目","小字名":null,"予備名":null,"地番":"104-1","精度区分":null,"座標値種別":null,"筆界未定構成筆":null,"代表点緯度":-222.508,"代表点経度":-643.630244688}},{"type":"MultiPolygon","arcs":[[[-83,-130,-78,-76,-131,132]]],"properties":{"筆ID":"H000000048","version":"ver1.0","座標系":"任意座標系","測地系判別":null,"地図名":"苫区Ｂ（６００）図無Ｈ１３","地図番号":"区B-40","縮尺分母":"600","市区町村コード":"01213","市区町村名":"苫小牧市","大字コード":"071","丁目コード":"002","小字コード":"0000","予備コード":"00","大字名":"有明町","丁目名":"２丁目","小字名":null,"予備名":null,"地番":"104-2","精度区分":null,"座標値種別":null,"筆界未定構成筆":null,"代表点緯度":-246.892,"代表点経度":-860.743337222}}]}},"arcs":[[[611133,735229],[8957,-125570]],[[620090,609659],[-3527,-21237],[-84796,-77973]],[[531767,510449],[-10300,143690]],[[521467,654139],[89666,81090]],[[519467,682088],[2000,-27949]],[[531767,510449],[-28630,-26328]],[[503137,484121],[-12390,171853]],[[490747,655974],[28720,26114]],[[503137,484121],[-25519,-23457]],[[477618,460664],[-12499,172000]],[[465119,632664],[25628,23310]],[[477618,460664],[-6516,-6005]],[[471102,454659],[-5785,76665],[-10865,-10306]],[[454452,521018],[-6992,95599]],[[447460,616617],[17659,16047]],[[446861,513822],[7591,7196]],[[454452,521018],[5606,-76508]],[[460058,444510],[-20274,-18646]],[[439784,425864],[-4915,68654]],[[434869,494518],[12568,11334],[-576,7970]],[[439784,425864],[-4661,-4294]],[[435123,421570],[-4827,68819]],[[430296,490389],[4573,4129]],[[439901,609749],[6960,-95927]],[[430296,490389],[-7289,103988]],[[423007,594377],[16894,15372]],[[435123,421570],[-23170,-21294]],[[411953,400276],[-12399,172782]],[[399554,573058],[23453,21319]],[[411953,400276],[-34620,-31839]],[[377333,368437],[-11718,173769]],[[365615,542206],[33939,30852]],[[377333,368437],[-33097,-30432]],[[344236,338005],[-11987,173875]],[[332249,511880],[33366,30326]],[[327664,507719],[4585,4161]],[[344236,338005],[-11287,-10388]],[[332949,327617],[-11860,174122]],[[321089,501739],[6575,5980]],[[332949,327617],[-11844,-10882]],[[321105,316735],[-12054,174057]],[[309051,490792],[12038,10947]],[[321105,316735],[-27368,-25168]],[[293737,291567],[-6414,92144]],[[287323,383711],[-5718,82151]],[[281605,465862],[27446,24930]],[[287323,383711],[-25225,-22709],[6440,-92605]],[[268538,268397],[-8651,-7954]],[[259887,260443],[-11966,174797]],[[247921,435240],[33684,30622]],[[210322,401074],[35601,32349]],[[245923,433423],[1998,1817]],[[259887,260443],[-50061,-46026]],[[209826,214417],[-12270,175043]],[[197556,389460],[12766,11614]],[[174690,368676],[11969,10873]],[[186659,379549],[12245,-175183]],[[198904,204366],[-35187,-32357]],[[163717,172009],[-6638,99522]],[[157079,271531],[-5100,76508]],[[151979,348039],[22711,20637]],[[120448,319383],[9278,8431]],[[129726,327814],[12120,-175915]],[[141846,151899],[-4658,-4277]],[[137188,147622],[-5958,89257],[-3875,8052],[-14890,-12979]],[[112465,231952],[-5287,75365]],[[107178,307317],[13270,12066]],[[112465,231952],[7059,-100575]],[[119524,131377],[-4492,-4129]],[[115032,127248],[-6248,87958],[-29985,-27076]],[[78799,188130],[-6027,87916]],[[72772,276046],[29812,27101],[4594,4170]],[[115032,127248],[-30162,-27734]],[[84870,99514],[-6071,88616]],[[84870,99514],[-29471,-27101],[-5940,12592]],[[49459,85005],[-5117,71713]],[[44342,156718],[34457,31412]],[[44342,156718],[-6238,87399]],[[38104,244117],[34668,31929]],[[24174,486498],[61442,55872],[17869,16261]],[[103485,558631],[10157,-143262]],[[113642,415369],[-82372,-75440]],[[31270,339929],[-9448,132431],[2352,14138]],[[121446,574949],[17122,-239099]],[[138568,335850],[-8842,-8036]],[[120448,319383],[-6806,95986]],[[103485,558631],[17961,16318]],[[157192,607455],[17498,-238779]],[[151979,348039],[-13411,-12189]],[[121446,574949],[35746,32506]],[[192957,639984],[17365,-238910]],[[197556,389460],[-10897,-9911]],[[157192,607455],[35765,32529]],[[228690,672465],[17233,-239042]],[[192957,639984],[35733,32481]],[[310399,746769],[17265,-239050]],[[228690,672465],[81709,74304]],[[430008,855536],[17452,-238919]],[[447460,616617],[-7559,-6868]],[[310399,746769],[119609,108767]],[[473521,895098],[17226,-239124]],[[430008,855536],[43513,39562]],[[510510,928730],[12454,-169097]],[[522964,759633],[-7766,-7049]],[[515198,752584],[-12125,169385]],[[503073,921969],[7437,6761]],[[604090,833986],[-40684,-37653]],[[563406,796333],[-12447,169187]],[[550959,965520],[37921,34479],[3963,-8398],[11247,-157615]],[[604090,833986],[408,-5757]],[[604498,828229],[-40682,-37440]],[[563816,790789],[-410,5544]],[[563406,796333],[-40442,-36700]],[[510510,928730],[40449,36790]],[[563816,790789],[-40453,-36577],[-399,5421]],[[471102,454659],[-11044,-10149]],[[293737,291567],[-25199,-23170]],[[157079,271531],[-14887,-13423],[-1864,-12963],[6133,-88994]],[[146461,156151],[-4615,-4252]],[[163717,172009],[-17256,-15858]],[[137188,147622],[-17664,-16245]],[[209826,214417],[-10922,-10051]],[[515198,752584],[4999,-69838],[-730,-658]],[[519467,682088],[-4999,69854]],[[514468,751942],[730,642]],[[502345,921303],[12123,-169361]],[[473521,895098],[28824,26205]],[[502345,921303],[728,666]],[[604498,828229],[6635,-93000]],[[38104,244117],[-6834,95812]],[[31597,68769],[17862,16236]],[[620090,609659],[17853,16384],[5942,-12601],[159620,146240],[33749,30926],[36270,33221],[5751,5272],[34956,32028],[28883,26459],[28174,25810],[24161,22134],[4550,-63768],[-373377,-341427],[-579969,-530337],[-18583,47549],[3527,21220]],[[31597,68769],[-6718,94159],[-9747,136625],[-11169,156562],[-3963,8398],[24174,21985]]],"bbox":[-872.297,-279.942,-438.243,-158.361],"transform":{"scale":[0.0004340544340544341,0.0001215811215811216],"translate":[-872.297,-279.942]}}
