{"type":"Topology","objects":{"01213-4323-32":{"type":"GeometryCollection","geometries":[{"type":"MultiPolygon","arcs":[[[0,1,2]]],"properties":{"筆ID":"H000000001","version":"ver1.0","座標系":"任意座標系","測地系判別":null,"地図名":"苫区Ｔ（２０００）図無Ｈ１３","地図番号":"区T-28","縮尺分母":"2000","市区町村コード":"01213","市区町村名":"苫小牧市","大字コード":"000","丁目コード":"000","小字コード":"0010","予備コード":"00","大字名":null,"丁目名":null,"小字名":"字沼ノ端","予備名":null,"地番":"604-1","精度区分":null,"座標値種別":null,"筆界未定構成筆":null,"代表点緯度":-11.417,"代表点経度":-1330.974948849}},{"type":"MultiPolygon","arcs":[[[3,4,5]]],"properties":{"筆ID":"H000000002","version":"ver1.0","座標系":"任意座標系","測地系判別":null,"地図名":"苫区Ｔ（２０００）図無Ｈ１３","地図番号":"区T-28","縮尺分母":"2000","市区町村コード":"01213","市区町村名":"苫小牧市","大字コード":"000","丁目コード":"000","小字コード":"0010","予備コード":"00","大字名":null,"丁目名":null,"小字名":"字沼ノ端","予備名":null,"地番":"604-2","精度区分":null,"座標値種別":null,"筆界未定構成筆":null,"代表点緯度":-128.5135,"代表点経度":-1871.90510326}},{"type":"MultiPolygon","arcs":[[[-2,6,-5,7]]],"properties":{"筆ID":"H000000003","version":"ver1.0","座標系":"任意座標系","測地系判別":null,"地図名":"苫区Ｔ（２０００）図無Ｈ１３","地図番号":"区T-28","縮尺分母":"2000","市区町村コード":"01213","市区町村名":"苫小牧市","大字コード":"000","丁目コード":"000","小字コード":"0010","予備コード":"00","大字名":null,"丁目名":null,"小字名":"字沼ノ端","予備名":null,"地番":"604-3","精度区分":null,"座標値種別":null,"筆界未定構成筆":null,"代表点緯度":-63.1475,"代表点経度":-1731.052901877}},{"type":"MultiPolygon","arcs":[[[-3,-8,-4,8]]],"properties":{"筆ID":"H000000004","version":"ver1.0","座標系":"任意座標系","測地系判別":null,"地図名":"苫区Ｔ（２０００）図無Ｈ１３","地図番号":"区T-28","縮尺分母":"2000","市区町村コード":"01213","市区町村名":"苫小牧市","大字コード":"000","丁目コード":"000","小字コード":"0010","予備コード":"00","大字名":null,"丁目名":null,"小字名":"字沼ノ端","予備名":null,"地番":"700","精度区分":null,"座標値種別":null,"筆界未定構成筆":null,"代表点緯度":-54.1525,"代表点経度":-1745.671291817}},{"type":"MultiPolygon","arcs":[[[9,10,11,12]]],"properties":{"筆ID":"H000000005","version":"ver1.0","座標系":"任意座標系","測地系判別":null,"地図名":"苫区Ｔ（２０００）図無Ｈ１３","地図番号":"区T-22","縮尺分母":"2000","市区町村コード":"01213","市区町村名":"苫小牧市","大字コード":"612","丁目コード":"006","小字コード":"0000","予備コード":"00","大字名":"沼ノ端中央","丁目名":"６丁目","小字名":null,"予備名":null,"地番":"618-2","精度区分":null,"座標値種別":null,"筆界未定構成筆":null,"代表点緯度":530.051,"代表点経度":-589.541916552}},{"type":"MultiPolygon","arcs":[[[-12,13,14,15]]],"properties":{"筆ID":"H000000006","version":"ver1.0","座標系":"任意座標系","測地系判別":null,"地図名":"苫区Ｔ（２０００）図無Ｈ１３","地図番号":"区T-22","縮尺分母":"2000","市区町村コード":"01213","市区町村名":"苫小牧市","大字コード":"612","丁目コード":"006","小字コード":"0000","予備コード":"00","大字名":"沼ノ端中央","丁目名":"６丁目","小字名":null,"予備名":null,"地番":"618-3","精度区分":null,"座標値種別":null,"筆界未定構成筆":null,"代表点緯度":505.9225,"代表点経度":-639.194558574}},{"type":"MultiPolygon","arcs":[[[-15,16,17,18]]],"properties":{"筆ID":"H000000007","version":"ver1.0","座標系":"任意座標系","測地系判別":null,"地図名":"苫区Ｔ（２０００）図無Ｈ１３","地図番号":"区T-22","縮尺分母":"2000","市区町村コード":"01213","市区町村名":"苫小牧市","大字コード":"612","丁目コード":"006","小字コード":"0000","予備コード":"00","大字名":"沼ノ端中央","丁目名":"６丁目","小字名":null,"予備名":null,"地番":"618-4","精度区分":null,"座標値種別":null,"筆界未定構成筆":null,"代表点緯度":489.918,"代表点経度":-674.222179578}},{"type":"MultiPolygon","arcs":[[[-18,19,20,21]]],"properties":{"筆ID":"H000000008","version":"ver1.0","座標系":"任意座標系","測地系判別":null,"地図名":"苫区Ｔ（２０００）図無Ｈ１３","地図番号":"区T-22","縮尺分母":"2000","市区町村コード":"01213","市区町村名":"苫小牧市","大字コード":"612","丁目コード":"006","小字コード":"0000","予備コード":"00","大字名":"沼ノ端中央","丁目名":"６丁目","小字名":null,"予備名":null,"地番":"618-5","精度区分":null,"座標値種別":null,"筆界未定構成筆":null,"代表点緯度":483.0955,"代表点経度":-689.113431665}},{"type":"MultiPolygon","arcs":[[[-21,22,23,24]]],"properties":{"筆ID":"H000000009","version":"ver1.0","座標系":"任意座標系","測地系判別":null,"地図名":"苫区Ｔ（２０００）図無Ｈ１３","地図番号":"区T-22","縮尺分母":"2000","市区町村コード":"01213","市区町村名":"苫小牧市","大字コード":"612","丁目コード":"006","小字コード":"0000","予備コード":"00","大字名":"沼ノ端中央","丁目名":"６丁目","小字名":null,"予備名":null,"地番":"618-6","精度区分":null,"座標値種別":null,"筆界未定構成筆":null,"代表点緯度":454.5605,"代表点経度":-751.52770707}},{"type":"MultiPolygon","arcs":[[[-24,25,26,27]]],"properties":{"筆ID":"H000000010","version":"ver1.0","座標系":"任意座標系","測地系判別":null,"地図名":"苫区Ｔ（２０００）図無Ｈ１３","地図番号":"区T-22","縮尺分母":"2000","市区町村コード":"01213","市区町村名":"苫小牧市","大字コード":"612","丁目コード":"006","小字コード":"0000","予備コード":"00","大字名":"沼ノ端中央","丁目名":"６丁目","小字名":null,"予備名":null,"地番":"618-7","精度区分":null,"座標値種別":null,"筆界未定構成筆":null,"代表点緯度":404.6675,"代表点経度":-860.721178104}},{"type":"MultiPolygon","arcs":[[[-27,28,29,30]]],"properties":{"筆ID":"H000000011","version":"ver1.0","座標系":"任意座標系","測地系判別":null,"地図名":"苫区Ｔ（２０００）図無Ｈ１３","地図番号":"区T-22","縮尺分母":"2000","市区町村コード":"01213","市区町村名":"苫小牧市","大字コード":"612","丁目コード":"006","小字コード":"0000","予備コード":"00","大字名":"沼ノ端中央","丁目名":"６丁目","小字名":null,"予備名":null,"地番":"618-8","精度区分":null,"座標値種別":null,"筆界未定構成筆":null,"代表点緯度":376.7015,"代表点経度":-921.815255942}},{"type":"MultiPolygon","arcs":[[[-30,31,32,33]]],"properties":{"筆ID":"H000000012","version":"ver1.0","座標系":"任意座標系","測地系判別":null,"地図名":"苫区Ｔ（２０００）図無Ｈ１３","地図番号":"区T-22","縮尺分母":"2000","市区町村コード":"01213","市区町村名":"苫小牧市","大字コード":"612","丁目コード":"006","小字コード":"0000","予備コード":"00","大字名":"沼ノ端中央","丁目名":"６丁目","小字名":null,"予備名":null,"地番":"618-9","精度区分":null,"座標値種別":null,"筆界未定構成筆":null,"代表点緯度":348.0265,"代表点経度":-984.600595992}},{"type":"MultiPolygon","arcs":[[[-33,34]]],"properties":{"筆ID":"H000000013","version":"ver1.0","座標系":"任意座標系","測地系判別":null,"地図名":"苫区Ｔ（２０００）図無Ｈ１３","地図番号":"区T-22","縮尺分母":"2000","市区町村コード":"01213","市区町村名":"苫小牧市","大字コード":"612","丁目コード":"006","小字コード":"0000","予備コード":"00","大字名":"沼ノ端中央","丁目名":"６丁目","小字名":null,"予備名":null,"地番":"618-10","精度区分":null,"座標値種別":null,"筆界未定構成筆":null,"代表点緯度":324.4115,"代表点経度":-1086.88538114}},{"type":"MultiPolygon","arcs":[[[-10,35]]],"properties":{"筆ID":"H000000014","version":"ver1.0","座標系":"任意座標系","測地系判別":null,"地図名":"苫区Ｔ（２０００）図無Ｈ１３","地図番号":"区T-22","縮尺分母":"2000","市区町村コード":"01213","市区町村名":"苫小牧市","大字コード":"612","丁目コード":"006","小字コード":"0000","予備コード":"00","大字名":"沼ノ端中央","丁目名":"６丁目","小字名":null,"予備名":null,"地番":"618-1","精度区分":null,"座標値種別":null,"筆界未定構成筆":null,"代表点緯度":581.6035,"代表点経度":-540.110566295}}]}},"arcs":[[[542288,166112],[-14504,-12358],[-65446,17661],[-2715,732],[-41152,11106],[-49402,13329],[-11126,3003],[-4050,1089]],[[353893,200674],[1272,15405]],[[355165,216079],[187123,-49967]],[[4990,14380],[60472,52458]],[[65462,66838],[3450,-14363]],[[68912,52475],[-60415,-52475],[-3507,14380]],[[353893,200674],[-25272,6795],[-29291,4001],[-20844,-1808],[-20747,-5591],[-20417,-9536],[-27658,-19806],[-140752,-122254]],[[65462,66838],[140549,121923],[28956,20620],[20911,9926],[21049,5992],[22705,1668],[30457,-4192],[25076,-6696]],[[4990,14380],[-4990,20456],[78237,67944],[30281,26298],[8583,7453],[34717,30149],[99063,86029],[59215,-1883],[252773,-67178],[-20581,-17536]],[[975924,989269],[6126,-24645]],[[982050,964624],[-18399,-15813],[16773,-68291],[-585,-4350],[-30229,-25845]],[[949610,850325],[-23627,96247]],[[925983,946572],[49941,42697]],[[949610,850325],[-40190,-34363]],[[909420,815962],[-23550,96313]],[[885870,912275],[40113,34297]],[[909420,815962],[-9936,-8496]],[[899484,807466],[-23456,96395]],[[876028,903861],[9842,8414]],[[899484,807466],[-11399,-9745]],[[888085,797721],[-23448,96400]],[[864637,894121],[11391,9740]],[[888085,797721],[-77726,-66456]],[[810359,731265],[-23532,96332]],[[786827,827597],[77810,66524]],[[810359,731265],[-78493,-67112]],[[731866,664153],[-23287,96544]],[[708579,760697],[78248,66900]],[[731866,664153],[-8794,-7518]],[[723072,656635],[-23424,96426]],[[699648,753061],[8931,7636]],[[723072,656635],[-72520,-62006],[-9765,-1113]],[[640787,593516],[-21992,90418]],[[618795,683934],[80853,69127]],[[640787,593516],[-139100,-15854],[-16582,-9821],[-10647,-7312],[144337,123405]],[[975924,989269],[320,273],[1223,-4710],[17688,15167],[4844,-19947],[-1368,-1178],[-16581,-14250]]],"bbox":[-1923.641,-153.526,-524.044,594.741],"transform":{"scale":[0.0013995983995983997,0.0007482677482677483],"translate":[-1923.641,-153.526]}}
