{"type":"Topology","objects":{"01610-4329-3.featurecollection":{"type":"GeometryCollection","geometries":[{"type":"Polygon","arcs":[[0,1,2,3,4,5,6]],"properties":{"市区町村名":"日高郡新ひだか町","大字名":"静内御園","丁目名":null,"小字名":null,"地番":"587-4","精度区分":null,"座標系":"任意座標系"}},{"type":"Polygon","arcs":[[7,8]],"properties":{"市区町村名":"日高郡新ひだか町","大字名":"静内御園","丁目名":null,"小字名":null,"地番":"587-3","精度区分":null,"座標系":"任意座標系"}},{"type":"Polygon","arcs":[[9,-7,10,11,12,13,-8]],"properties":{"市区町村名":"日高郡新ひだか町","大字名":"静内御園","丁目名":null,"小字名":null,"地番":"587-2","精度区分":null,"座標系":"任意座標系"}},{"type":"Polygon","arcs":[[-5,14,15,-15,-4,16]],"properties":{"市区町村名":"日高郡新ひだか町","大字名":"静内御園","丁目名":null,"小字名":null,"地番":"587-5","精度区分":null,"座標系":"任意座標系"}},{"type":"Polygon","arcs":[[-6,-17,-3,17,-11]],"properties":{"市区町村名":"日高郡新ひだか町","大字名":"静内御園","丁目名":null,"小字名":null,"地番":"587-7","精度区分":null,"座標系":"任意座標系"}},{"type":"Polygon","arcs":[[-12,-18,-2,18,19]],"properties":{"市区町村名":"日高郡新ひだか町","大字名":"静内御園","丁目名":null,"小字名":null,"地番":"587-8","精度区分":null,"座標系":"任意座標系"}},{"type":"Polygon","arcs":[[-16]],"properties":{"市区町村名":"日高郡新ひだか町","大字名":"静内御園","丁目名":null,"小字名":null,"地番":"587-6","精度区分":null,"座標系":"任意座標系"}},{"type":"Polygon","arcs":[[-20,20,21,22,23,-13]],"properties":{"市区町村名":"日高郡新ひだか町","大字名":"静内御園","丁目名":null,"小字名":null,"地番":"587-1","精度区分":null,"座標系":"任意座標系"}},{"type":"Polygon","arcs":[[24]],"properties":{"市区町村名":"日高郡新ひだか町","大字名":"静内御園","丁目名":null,"小字名":null,"地番":"591","精度区分":null,"座標系":"任意座標系"}},{"type":"Polygon","arcs":[[25,-23]],"properties":{"市区町村名":"日高郡新ひだか町","大字名":"静内御園","丁目名":null,"小字名":null,"地番":"588-2","精度区分":null,"座標系":"任意座標系"}},{"type":"Polygon","arcs":[[26,-22]],"properties":{"市区町村名":"日高郡新ひだか町","大字名":"静内御園","丁目名":null,"小字名":null,"地番":"588-3","精度区分":null,"座標系":"任意座標系"}}]}},"arcs":[[[125906,88912],[-51791,56918],[-5524,6072],[-9656,10395],[2149,1779],[-229,179],[6277,6477],[6983,-6134],[5959,-5233],[11647,2864],[20272,-4871],[4398,13946],[-1388,8024],[890,10125],[24980,9651],[6880,-5320],[1191,16051],[6382,4925],[-4335,9473],[14244,7480],[-9300,4164],[8571,6269],[-2325,1700],[-9187,-6699],[-644,338],[-7158,6278],[-4669,11591],[-7459,5922],[-1559,1238],[-6456,5061],[-6854,6169],[-5644,5024],[-9055,6882],[-37,2999],[-12217,7769],[2500,4090],[-6145,1705],[-6845,4404],[-3849,5028],[-2788,926],[-6728,2236],[-7800,3638],[-9459,-1505],[-7448,-3705],[-16009,-2984],[-8020,1853],[-2811,6828],[1158,7597],[2361,16418],[-2961,7974],[-9229,25082],[-6225,9198],[-944,3987],[3863,5996],[1947,10292],[6672,13021],[3180,10002],[11907,13642],[6350,5979],[4898,5759],[10440,2943],[11046,-1416],[13812,-5564],[471,-190],[424,-3608],[4630,-7214],[13073,-3010],[9442,332],[13726,-246],[9206,-886],[12679,2067],[26973,-1299],[13406,-4075],[20109,2717],[-3957,8977],[-5007,14410],[-10741,19194],[-2149,8845],[-2414,9936],[3877,2865],[-445,9479],[19867,4134],[20351,11103],[17200,17419],[1506,6673],[4719,9335],[20497,13492],[2757,894],[3127,3077],[939,8087],[18933,3763],[7704,-2931],[15862,1123],[3952,-2287],[14612,-21],[8045,5883],[7221,7235],[5344,853],[6141,4366],[8613,4844],[-2899,6278],[255,11559],[8614,2932],[6027,8087],[8727,11476],[4037,3680],[7306,-1892],[9751,-374],[8812,4220],[8472,6445],[9921,5717],[10234,9542],[5970,687],[11286,11413],[2360,6362],[11797,561],[8092,-338],[6350,-265],[15578,2745],[5174,3305],[10291,1019],[8258,11176],[18278,-3827],[16262,-6149],[11556,-3414],[4821,-6268],[10331,6660],[8265,6268],[10408,3246],[9643,2575],[-1290,-4286],[1434,-9009],[4070,-5638],[2528,-6753],[-1344,-6071],[7064,-6936],[6347,-10175],[2923,-4459],[3675,-5481],[6258,-5966],[3478,-7002],[2690,-2806],[1004,-1547],[6203,-6386],[3945,-2307],[13089,-2557],[9592,-4695],[11834,3987],[5181,-7094],[4375,-4235],[9808,1744],[1865,-2439],[4769,-6058],[4662,-2295],[4662,-1377],[-42297,-28742],[38944,-43454]],[[734254,526567],[-1143,-1837],[-2636,-3703],[-1804,-1724],[-14080,-10145],[-4808,-3442],[-3223,-3179],[-8094,-8551],[47699,-50544],[400,-1015],[0,-1153],[-694,-839],[-163477,-81615],[-10993,-6663]],[[571401,352157],[-12727,13274]],[[558674,365431],[-8492,8987]],[[550182,374418],[4353,2202],[-7471,7469],[7740,3931],[2150,432],[2258,-707],[3064,-2831],[70148,34987],[-21232,22721],[-3484,-1907],[-3729,-1292],[-4465,-3588],[-5691,-1148],[-2404,-3732],[-5181,-1684],[-5957,-2778],[10333,-11672],[345,-534],[-556,-1423],[-26595,-11825],[3362,-3525],[-11854,-5970],[-8946,10304],[-56,-3290],[-6807,-4857],[332,-3987],[-5590,-749],[-19426,668],[-2075,-829],[-10211,-9451],[8274,-8843],[3431,-2024],[166,-2752],[-2629,-2834],[-4289,-2894],[-48730,-27198],[14749,-14125],[83997,46107]],[[557506,364790],[12545,-13045]],[[570051,351745],[-117008,-69242],[-327137,-193591]],[[127762,86873],[442345,261870],[1997,0],[64528,-68734],[4318,-4141],[9321,-8311],[5274,-22],[1379,561],[2989,-1256],[4752,1491],[-674,2477],[5625,2904],[2836,-247],[2560,1200],[1180,2076],[8145,2891],[2336,44],[1498,-1446],[-839,-1708],[-10422,-5760],[-1781,-4336]],[[675129,266426],[-3097,-826],[-13043,-4324],[-353,-117],[-8058,-8904],[2971,-4842],[-9890,-5333],[-17726,-9457],[-7878,-3683],[-1992,-952],[-1516,-816],[-14832,-10533],[-10091,-453],[-19948,-10064],[-20814,-12188],[-6644,-4912],[-1626,-1078],[-15462,-10066],[-30736,-21151],[-9756,-8003],[-1068,-859],[-4704,-3782],[-5491,-3835],[-11130,-6574],[-3471,-2667],[-10156,-9471],[-3992,-2914],[-2153,-2561],[-2956,-1029],[-1077,-995],[-344,-2111],[-3360,-5525],[-2272,-3165],[-5963,-5987],[-5519,-6932],[-18202,-26621],[-5370,-10700],[-2682,-1343],[-9014,-14958],[-3344,-5549],[1098,-1998],[-9947,-16151],[-2477,-2447],[-613,-3133],[-4632,-7417],[-6967,2204],[-15684,171],[-11692,3713],[-36562,30607],[-57798,48385],[-58064,-37356],[-9534,-6595],[-41736,45744]],[[127762,86873],[-1856,2039]],[[570051,351745],[998,590],[234,-250]],[[571283,352085],[1180,-1263]],[[572463,350822],[64366,-68852],[3230,-3165],[6966,-6296],[3171,-1930],[3124,-727],[3356,33],[2685,711],[8794,4435],[5694,2657],[9743,3503],[3657,153],[3194,-1963],[324,-3318],[-2302,-1423]],[[688465,274640],[-9924,-5397],[-1073,-2335],[-394,-1797],[-1265,-2997],[-800,-838],[-3361,-3524],[-722,548],[1523,2976],[341,665],[1086,1243],[1253,3242]],[[550182,374418],[-7678,5757]],[[542504,380175],[-2352,16],[-11177,-6293],[11482,-11328],[12657,6787],[-10610,10818]],[[558674,365431],[-1168,-641]],[[571401,352157],[-118,-72]],[[734254,526567],[1392,-423]],[[735646,526144],[-2521,-3903],[-3577,-3839],[-17807,-12709],[-3966,-3782],[-3694,-4151],[-3227,-3412],[-77,-1024],[19595,-20074],[29743,-32044],[-166559,-83586],[-11093,-6798]],[[735646,526144],[86217,29642],[64941,35605],[-10780,45159],[1152,8450],[1435,2043],[9439,248],[4974,-317],[12752,-815],[9005,-7648],[8307,-8436],[4889,-4652],[5550,-677],[8194,-1725],[9118,-2182],[6739,152],[6381,-7593],[4738,-1947],[5324,-2057],[1510,-621],[5947,-249],[3275,-2209],[-4231,-4282],[-866,-6667],[-659,-5886],[965,-577]],[[979962,588903],[445,-4402],[1353,-6236]],[[981760,578265],[743,-2731],[2478,-2726]],[[984981,572808],[-478,-3883],[26,-4028],[-2340,-7343],[3214,-1503],[420,-3935],[-980,-4001],[1650,-9564],[612,-8883],[474,-5493],[2703,-1518],[2897,-15886],[1010,-5440],[-964,-2283],[-1883,-269],[3472,-10602],[577,-2321],[3023,-12158],[1585,-6378],[-1217,-2207],[871,-6768],[-2847,-3829],[-8481,-5603],[-18604,4775],[-2521,-12784],[-5756,-2303],[-1140,-6134],[-1463,-2701],[-10431,-1958],[-7220,-5461],[-18766,-11500],[-12515,-4162],[-6638,-1835],[-10247,-4258],[-6019,-2501],[-16178,-7579],[-240,-1275],[-476,-1373],[-8495,-5936],[-5078,-1157],[-5543,-7664],[-5837,-5249],[-4238,-7359],[-3447,-3518],[-4129,-4016],[-7294,-4173],[-6742,-9879],[-9334,-7232],[-9644,-6381],[-4167,-1008],[-17421,-8512],[2501,-2488],[-13136,-319],[-14931,-6952],[-10774,-7514],[-6423,-3718],[-2809,-1907],[-7486,-5635],[-4801,-4022],[-8634,7994],[-7454,-4481],[3083,-3643],[-18472,-8595],[-941,140]],[[891693,956024],[-5995,2350],[-5140,1773],[-5634,-314],[-2283,1655],[-503,2250],[-5517,947],[-3371,-1118],[-3488,1135],[-4018,-604],[-4192,-1470],[-7447,-1153],[-6574,2082],[-3186,36],[-4954,1421],[-4303,3389],[-3521,2592],[-5695,2786],[-2605,5158],[-2518,2307],[-2139,809],[-2475,-128],[-3099,-1629],[-3607,2513],[-3395,-2052],[-5172,-267],[-1386,311],[-3740,1973],[-1465,2073],[-1982,710],[-5338,1038],[-2539,1191],[1719,4092],[-3630,2984],[-1894,2338],[-2842,1639],[1344,816],[5321,342],[2983,-3772],[2895,-2012],[2359,-958],[2301,-4195],[709,-585],[1136,-1061],[1054,-805],[3419,-1540],[6455,394],[3373,1040],[3044,551],[3389,85],[3073,-868],[3812,-3065],[2433,-2252],[3626,-3708],[4637,-4021],[4865,-1669],[1538,-2022],[4776,-661],[2769,-1431],[2877,-276],[3121,1275],[3029,-1835],[3122,621],[4278,-380],[4187,337],[7190,216],[3204,-500],[3617,-976],[2707,887],[8394,-4638],[6524,-1641],[1698,-45],[3879,-101],[3968,-720],[2042,567],[10025,575],[4468,22],[4055,-250],[4304,1797],[5014,2135],[6907,3596],[3442,1132],[2903,245],[3270,18],[6043,-2785],[3135,-739],[1794,1147],[-1055,-3175],[534,-2231],[-2809,-553],[-6591,4652],[-2995,-284],[-3255,1055],[-4847,-1895],[-2346,-3704],[-10705,-2969],[-4111,-101],[-6457,-642],[-6537,-459],[-3902,-562],[-10173,-209],[-1331,-27]],[[981760,578265],[3221,-5457]],[[979962,588903],[2851,-1707],[-1053,-8931]]],"bbox":[21974.956,-206.27,26859.501,6472.853],"transform":{"scale":[0.004884549884549887,0.006679129679129679],"translate":[21974.956,-206.27]}}