{"type":"Topology","objects":{"01217-4308-21.featurecollection":{"type":"GeometryCollection","geometries":[{"type":"Polygon","arcs":[[0,1,2,3]],"properties":{"市区町村名":"江別市","大字名":"対雁","丁目名":null,"小字名":null,"地番":"131-51","精度区分":null,"座標系":"任意座標系"}},{"type":"Polygon","arcs":[[4,5,-1,6]],"properties":{"市区町村名":"江別市","大字名":"対雁","丁目名":null,"小字名":null,"地番":"131-50","精度区分":null,"座標系":"任意座標系"}},{"type":"Polygon","arcs":[[7,8,9,10]],"properties":{"市区町村名":"江別市","大字名":"対雁","丁目名":null,"小字名":null,"地番":"131-49","精度区分":null,"座標系":"任意座標系"}},{"type":"Polygon","arcs":[[11,-8,12]],"properties":{"市区町村名":"江別市","大字名":"対雁","丁目名":null,"小字名":null,"地番":"131-48","精度区分":null,"座標系":"任意座標系"}},{"type":"Polygon","arcs":[[13,-11,14,15]],"properties":{"市区町村名":"江別市","大字名":"対雁","丁目名":null,"小字名":null,"地番":"131-47","精度区分":null,"座標系":"任意座標系"}},{"type":"Polygon","arcs":[[16,17,-13,-14,18]],"properties":{"市区町村名":"江別市","大字名":"対雁","丁目名":null,"小字名":null,"地番":"131-46","精度区分":null,"座標系":"任意座標系"}},{"type":"Polygon","arcs":[[19,20,-17,21]],"properties":{"市区町村名":"江別市","大字名":"対雁","丁目名":null,"小字名":null,"地番":"131-45","精度区分":null,"座標系":"任意座標系"}},{"type":"Polygon","arcs":[[22,23,-20,24]],"properties":{"市区町村名":"江別市","大字名":"対雁","丁目名":null,"小字名":null,"地番":"131-44","精度区分":null,"座標系":"任意座標系"}},{"type":"Polygon","arcs":[[25,-23,26]],"properties":{"市区町村名":"江別市","大字名":"対雁","丁目名":null,"小字名":null,"地番":"131-43","精度区分":null,"座標系":"任意座標系"}},{"type":"Polygon","arcs":[[27,28,29,30,-2,-6,31]],"properties":{"市区町村名":"江別市","大字名":"対雁","丁目名":null,"小字名":null,"地番":"131-42","精度区分":null,"座標系":"任意座標系"}},{"type":"Polygon","arcs":[[32,33,34,35,36]],"properties":{"市区町村名":"江別市","大字名":"対雁","丁目名":null,"小字名":null,"地番":"131-41","精度区分":null,"座標系":"任意座標系"}},{"type":"Polygon","arcs":[[37,38,-33,39,40]],"properties":{"市区町村名":"江別市","大字名":"対雁","丁目名":null,"小字名":null,"地番":"131-40","精度区分":null,"座標系":"任意座標系"}},{"type":"Polygon","arcs":[[41,42,-38,43,44]],"properties":{"市区町村名":"江別市","大字名":"対雁","丁目名":null,"小字名":null,"地番":"131-39","精度区分":null,"座標系":"任意座標系"}},{"type":"Polygon","arcs":[[45,46,-42,47]],"properties":{"市区町村名":"江別市","大字名":"対雁","丁目名":null,"小字名":null,"地番":"131-38","精度区分":null,"座標系":"任意座標系"}},{"type":"Polygon","arcs":[[48,49,-46,50]],"properties":{"市区町村名":"江別市","大字名":"対雁","丁目名":null,"小字名":null,"地番":"131-37","精度区分":null,"座標系":"任意座標系"}},{"type":"Polygon","arcs":[[51,52,-49,53]],"properties":{"市区町村名":"江別市","大字名":"対雁","丁目名":null,"小字名":null,"地番":"131-36","精度区分":null,"座標系":"任意座標系"}},{"type":"Polygon","arcs":[[54,55,-52,56]],"properties":{"市区町村名":"江別市","大字名":"対雁","丁目名":null,"小字名":null,"地番":"131-35","精度区分":null,"座標系":"任意座標系"}},{"type":"Polygon","arcs":[[57,58,-55,59]],"properties":{"市区町村名":"江別市","大字名":"対雁","丁目名":null,"小字名":null,"地番":"131-34","精度区分":null,"座標系":"任意座標系"}},{"type":"Polygon","arcs":[[60,61,62,-58,63]],"properties":{"市区町村名":"江別市","大字名":"対雁","丁目名":null,"小字名":null,"地番":"131-33","精度区分":null,"座標系":"任意座標系"}},{"type":"Polygon","arcs":[[64,65,66,67,68]],"properties":{"市区町村名":"江別市","大字名":"対雁","丁目名":null,"小字名":null,"地番":"131-27","精度区分":null,"座標系":"任意座標系"}},{"type":"Polygon","arcs":[[69,70,-65,71]],"properties":{"市区町村名":"江別市","大字名":"対雁","丁目名":null,"小字名":null,"地番":"131-26","精度区分":null,"座標系":"任意座標系"}},{"type":"Polygon","arcs":[[72,73,-70,74]],"properties":{"市区町村名":"江別市","大字名":"対雁","丁目名":null,"小字名":null,"地番":"131-25","精度区分":null,"座標系":"任意座標系"}},{"type":"Polygon","arcs":[[-3,-31,75]],"properties":{"市区町村名":"江別市","大字名":"対雁","丁目名":null,"小字名":null,"地番":"131-24","精度区分":null,"座標系":"任意座標系"}},{"type":"Polygon","arcs":[[76,77,-5,78]],"properties":{"市区町村名":"江別市","大字名":"対雁","丁目名":null,"小字名":null,"地番":"131-23","精度区分":null,"座標系":"任意座標系"}},{"type":"Polygon","arcs":[[79,-16,-77,80]],"properties":{"市区町村名":"江別市","大字名":"対雁","丁目名":null,"小字名":null,"地番":"131-22","精度区分":null,"座標系":"任意座標系"}},{"type":"Polygon","arcs":[[81,-19,-80,82]],"properties":{"市区町村名":"江別市","大字名":"対雁","丁目名":null,"小字名":null,"地番":"131-21","精度区分":null,"座標系":"任意座標系"}},{"type":"Polygon","arcs":[[83,-22,-82,84]],"properties":{"市区町村名":"江別市","大字名":"対雁","丁目名":null,"小字名":null,"地番":"131-20","精度区分":null,"座標系":"任意座標系"}},{"type":"Polygon","arcs":[[85,-25,-84,86]],"properties":{"市区町村名":"江別市","大字名":"対雁","丁目名":null,"小字名":null,"地番":"131-19","精度区分":null,"座標系":"任意座標系"}},{"type":"Polygon","arcs":[[87,88,-27,-86,89]],"properties":{"市区町村名":"江別市","大字名":"対雁","丁目名":null,"小字名":null,"地番":"131-18","精度区分":null,"座標系":"任意座標系"}},{"type":"Polygon","arcs":[[90,91,-88,92]],"properties":{"市区町村名":"江別市","大字名":"対雁","丁目名":null,"小字名":null,"地番":"131-17","精度区分":null,"座標系":"任意座標系"}},{"type":"Polygon","arcs":[[93,94,-91,95]],"properties":{"市区町村名":"江別市","大字名":"対雁","丁目名":null,"小字名":null,"地番":"131-16","精度区分":null,"座標系":"任意座標系"}},{"type":"Polygon","arcs":[[96,97,-94,98]],"properties":{"市区町村名":"江別市","大字名":"対雁","丁目名":null,"小字名":null,"地番":"131-15","精度区分":null,"座標系":"任意座標系"}},{"type":"Polygon","arcs":[[99,100,-97,101]],"properties":{"市区町村名":"江別市","大字名":"対雁","丁目名":null,"小字名":null,"地番":"131-14","精度区分":null,"座標系":"任意座標系"}},{"type":"Polygon","arcs":[[102,103,-100,104]],"properties":{"市区町村名":"江別市","大字名":"対雁","丁目名":null,"小字名":null,"地番":"131-13","精度区分":null,"座標系":"任意座標系"}},{"type":"Polygon","arcs":[[105,106,-103,107]],"properties":{"市区町村名":"江別市","大字名":"対雁","丁目名":null,"小字名":null,"地番":"131-12","精度区分":null,"座標系":"任意座標系"}},{"type":"Polygon","arcs":[[108,109,-106,110]],"properties":{"市区町村名":"江別市","大字名":"対雁","丁目名":null,"小字名":null,"地番":"131-11","精度区分":null,"座標系":"任意座標系"}},{"type":"Polygon","arcs":[[111,112,-109,113]],"properties":{"市区町村名":"江別市","大字名":"対雁","丁目名":null,"小字名":null,"地番":"131-10","精度区分":null,"座標系":"任意座標系"}},{"type":"Polygon","arcs":[[114,115,-112,116]],"properties":{"市区町村名":"江別市","大字名":"対雁","丁目名":null,"小字名":null,"地番":"131-9","精度区分":null,"座標系":"任意座標系"}},{"type":"Polygon","arcs":[[117,118,-115,119]],"properties":{"市区町村名":"江別市","大字名":"対雁","丁目名":null,"小字名":null,"地番":"131-8","精度区分":null,"座標系":"任意座標系"}},{"type":"Polygon","arcs":[[120,121,-118,122]],"properties":{"市区町村名":"江別市","大字名":"対雁","丁目名":null,"小字名":null,"地番":"131-7","精度区分":null,"座標系":"任意座標系"}},{"type":"Polygon","arcs":[[-10,123,124,-28,125]],"properties":{"市区町村名":"江別市","大字名":"対雁","丁目名":null,"小字名":null,"地番":"131-5","精度区分":null,"座標系":"任意座標系"}},{"type":"Polygon","arcs":[[-78,-15,-126,-32]],"properties":{"市区町村名":"江別市","大字名":"対雁","丁目名":null,"小字名":null,"地番":"131-4","精度区分":null,"座標系":"任意座標系"}},{"type":"Polygon","arcs":[[126,-121,127,-73,128]],"properties":{"市区町村名":"江別市","大字名":"対雁","丁目名":null,"小字名":null,"地番":"131-3","精度区分":null,"座標系":"任意座標系"}},{"type":"Polygon","arcs":[[129,-29,-125,130,131]],"properties":{"市区町村名":"江別市","大字名":"対雁","丁目名":null,"小字名":null,"地番":"131-2","精度区分":null,"座標系":"任意座標系"}},{"type":"Polygon","arcs":[[-35,132,133,134]],"properties":{"市区町村名":"江別市","大字名":"対雁","丁目名":null,"小字名":null,"地番":"131-1","精度区分":null,"座標系":"任意座標系"}},{"type":"Polygon","arcs":[[135,136,137,138,139,140,141,142,143,144,145,146,147,148,149]],"properties":{"市区町村名":"江別市","大字名":"対雁","丁目名":null,"小字名":null,"地番":"130-30","精度区分":null,"座標系":"任意座標系"}},{"type":"Polygon","arcs":[[-134,-141,150]],"properties":{"市区町村名":"江別市","大字名":"対雁","丁目名":null,"小字名":null,"地番":"130-29","精度区分":null,"座標系":"任意座標系"}},{"type":"Polygon","arcs":[[-36,-135,-151,-140,151]],"properties":{"市区町村名":"江別市","大字名":"対雁","丁目名":null,"小字名":null,"地番":"130-28","精度区分":null,"座標系":"任意座標系"}},{"type":"Polygon","arcs":[[-40,-37,-152,-139,152]],"properties":{"市区町村名":"江別市","大字名":"対雁","丁目名":null,"小字名":null,"地番":"130-27","精度区分":null,"座標系":"任意座標系"}},{"type":"Polygon","arcs":[[-44,-41,-153,-138,153]],"properties":{"市区町村名":"江別市","大字名":"対雁","丁目名":null,"小字名":null,"地番":"130-26","精度区分":null,"座標系":"任意座標系"}},{"type":"Polygon","arcs":[[154,-48,-45,-154,-137,155]],"properties":{"市区町村名":"江別市","大字名":"対雁","丁目名":null,"小字名":null,"地番":"130-25","精度区分":null,"座標系":"任意座標系"}},{"type":"Polygon","arcs":[[-150,156,157,158]],"properties":{"市区町村名":"江別市","大字名":"対雁","丁目名":null,"小字名":null,"地番":"130-24","精度区分":null,"座標系":"任意座標系"}},{"type":"Polygon","arcs":[[-158,159,160,161,162]],"properties":{"市区町村名":"江別市","大字名":"対雁","丁目名":null,"小字名":null,"地番":"130-23","精度区分":null,"座標系":"任意座標系"}},{"type":"Polygon","arcs":[[-160,-157,-149,163]],"properties":{"市区町村名":"江別市","大字名":"対雁","丁目名":null,"小字名":null,"地番":"130-22","精度区分":null,"座標系":"任意座標系"}},{"type":"Polygon","arcs":[[-161,-164,-148,164,165,166]],"properties":{"市区町村名":"江別市","大字名":"対雁","丁目名":null,"小字名":null,"地番":"130-21","精度区分":null,"座標系":"任意座標系"}},{"type":"Polygon","arcs":[[-165,-147,167,168,169]],"properties":{"市区町村名":"江別市","大字名":"対雁","丁目名":null,"小字名":null,"地番":"130-20","精度区分":null,"座標系":"任意座標系"}},{"type":"Polygon","arcs":[[-168,-146,170,171,172]],"properties":{"市区町村名":"江別市","大字名":"対雁","丁目名":null,"小字名":null,"地番":"130-19","精度区分":null,"座標系":"任意座標系"}},{"type":"Polygon","arcs":[[173,174,175,176]],"properties":{"市区町村名":"江別市","大字名":"対雁","丁目名":null,"小字名":null,"地番":"130-18","精度区分":null,"座標系":"任意座標系"}},{"type":"Polygon","arcs":[[-143,-132,177,178]],"properties":{"市区町村名":"江別市","大字名":"対雁","丁目名":null,"小字名":null,"地番":"130-11","精度区分":null,"座標系":"任意座標系"}},{"type":"Polygon","arcs":[[-175,179,180,181,182,183,184,185]],"properties":{"市区町村名":"江別市","大字名":"対雁","丁目名":null,"小字名":null,"地番":"130-10","精度区分":null,"座標系":"任意座標系"}},{"type":"Polygon","arcs":[[-185,186,187,188,189,190,-179,191]],"properties":{"市区町村名":"江別市","大字名":"対雁","丁目名":null,"小字名":null,"地番":"130-9","精度区分":null,"座標系":"任意座標系"}},{"type":"Polygon","arcs":[[-171,-145,192]],"properties":{"市区町村名":"江別市","大字名":"対雁","丁目名":null,"小字名":null,"地番":"130-3","精度区分":null,"座標系":"任意座標系"}},{"type":"Polygon","arcs":[[193,194,195,196]],"properties":{"市区町村名":"江別市","大字名":"対雁","丁目名":null,"小字名":null,"地番":"126-2","精度区分":null,"座標系":"任意座標系"}},{"type":"Polygon","arcs":[[197,-197,198]],"properties":{"市区町村名":"江別市","大字名":"対雁","丁目名":null,"小字名":null,"地番":"125-4","精度区分":null,"座標系":"任意座標系"}},{"type":"Polygon","arcs":[[-195,199,200,201]],"properties":{"市区町村名":"江別市","大字名":"対雁","丁目名":null,"小字名":null,"地番":"125-3","精度区分":null,"座標系":"任意座標系"}},{"type":"Polygon","arcs":[[202,-199,-196,-202,203,204,205,206,207,208,209,210,211,212,213,214,215,216,217,218,219,220,221,222,223,224,-204,225,226,227,228,229,230,231,232,233,234,235,236,237,238,239,240,241,242,243,244,245,246,247,248,249,250,251,252,253]],"properties":{"市区町村名":"江別市","大字名":"対雁","丁目名":null,"小字名":null,"地番":"124-55","精度区分":null,"座標系":"任意座標系"}},{"type":"Polygon","arcs":[[-207,254,255,256,257]],"properties":{"市区町村名":"江別市","大字名":"対雁","丁目名":null,"小字名":null,"地番":"124-54","精度区分":null,"座標系":"任意座標系"}},{"type":"Polygon","arcs":[[-208,-258,258,259,260]],"properties":{"市区町村名":"江別市","大字名":"対雁","丁目名":null,"小字名":null,"地番":"124-53","精度区分":null,"座標系":"任意座標系"}},{"type":"Polygon","arcs":[[-209,-261,261,262,263]],"properties":{"市区町村名":"江別市","大字名":"対雁","丁目名":null,"小字名":null,"地番":"124-52","精度区分":null,"座標系":"任意座標系"}},{"type":"Polygon","arcs":[[-210,-264,264,265,266]],"properties":{"市区町村名":"江別市","大字名":"対雁","丁目名":null,"小字名":null,"地番":"124-51","精度区分":null,"座標系":"任意座標系"}},{"type":"Polygon","arcs":[[-211,-267,267,268,269]],"properties":{"市区町村名":"江別市","大字名":"対雁","丁目名":null,"小字名":null,"地番":"124-50","精度区分":null,"座標系":"任意座標系"}},{"type":"Polygon","arcs":[[-212,-270,270,271,272]],"properties":{"市区町村名":"江別市","大字名":"対雁","丁目名":null,"小字名":null,"地番":"124-49","精度区分":null,"座標系":"任意座標系"}},{"type":"Polygon","arcs":[[-213,-273,273,274,275]],"properties":{"市区町村名":"江別市","大字名":"対雁","丁目名":null,"小字名":null,"地番":"124-48","精度区分":null,"座標系":"任意座標系"}},{"type":"Polygon","arcs":[[-276,276,277,-214]],"properties":{"市区町村名":"江別市","大字名":"対雁","丁目名":null,"小字名":null,"地番":"124-47","精度区分":null,"座標系":"任意座標系"}},{"type":"Polygon","arcs":[[-215,-278,278]],"properties":{"市区町村名":"江別市","大字名":"対雁","丁目名":null,"小字名":null,"地番":"124-46","精度区分":null,"座標系":"任意座標系"}},{"type":"Polygon","arcs":[[-216,-279,-277,-275,279]],"properties":{"市区町村名":"江別市","大字名":"対雁","丁目名":null,"小字名":null,"地番":"124-45","精度区分":null,"座標系":"任意座標系"}},{"type":"Polygon","arcs":[[-217,-280,-274,-272,280]],"properties":{"市区町村名":"江別市","大字名":"対雁","丁目名":null,"小字名":null,"地番":"124-44","精度区分":null,"座標系":"任意座標系"}},{"type":"Polygon","arcs":[[-218,-281,-271,-269,281]],"properties":{"市区町村名":"江別市","大字名":"対雁","丁目名":null,"小字名":null,"地番":"124-43","精度区分":null,"座標系":"任意座標系"}},{"type":"Polygon","arcs":[[-219,-282,-268,-266,282]],"properties":{"市区町村名":"江別市","大字名":"対雁","丁目名":null,"小字名":null,"地番":"124-42","精度区分":null,"座標系":"任意座標系"}},{"type":"Polygon","arcs":[[-220,-283,-265,-263,283]],"properties":{"市区町村名":"江別市","大字名":"対雁","丁目名":null,"小字名":null,"地番":"124-41","精度区分":null,"座標系":"任意座標系"}},{"type":"Polygon","arcs":[[-221,-284,-262,-260,284]],"properties":{"市区町村名":"江別市","大字名":"対雁","丁目名":null,"小字名":null,"地番":"124-40","精度区分":null,"座標系":"任意座標系"}},{"type":"Polygon","arcs":[[-222,-285,-259,-257,285]],"properties":{"市区町村名":"江別市","大字名":"対雁","丁目名":null,"小字名":null,"地番":"124-39","精度区分":null,"座標系":"任意座標系"}},{"type":"Polygon","arcs":[[-223,-286,-256,286]],"properties":{"市区町村名":"江別市","大字名":"対雁","丁目名":null,"小字名":null,"地番":"124-38","精度区分":null,"座標系":"任意座標系"}},{"type":"Polygon","arcs":[[-255,-206,287,-224,-287]],"properties":{"市区町村名":"江別市","大字名":"対雁","丁目名":null,"小字名":null,"地番":"124-37","精度区分":null,"座標系":"任意座標系"}},{"type":"Polygon","arcs":[[-205,-225,-288]],"properties":{"市区町村名":"江別市","大字名":"対雁","丁目名":null,"小字名":null,"地番":"124-36","精度区分":null,"座標系":"任意座標系"}},{"type":"Polygon","arcs":[[288,-254,289,290,291]],"properties":{"市区町村名":"江別市","大字名":"対雁","丁目名":null,"小字名":null,"地番":"124-35","精度区分":null,"座標系":"任意座標系"}},{"type":"Polygon","arcs":[[-290,-253,292,293,294]],"properties":{"市区町村名":"江別市","大字名":"対雁","丁目名":null,"小字名":null,"地番":"124-34","精度区分":null,"座標系":"任意座標系"}},{"type":"Polygon","arcs":[[-293,-252,295,296,297]],"properties":{"市区町村名":"江別市","大字名":"対雁","丁目名":null,"小字名":null,"地番":"124-33","精度区分":null,"座標系":"任意座標系"}},{"type":"Polygon","arcs":[[-250,298]],"properties":{"市区町村名":"江別市","大字名":"対雁","丁目名":null,"小字名":null,"地番":"124-32","精度区分":null,"座標系":"任意座標系"}},{"type":"Polygon","arcs":[[-296,-251,-299,-249,299]],"properties":{"市区町村名":"江別市","大字名":"対雁","丁目名":null,"小字名":null,"地番":"124-31","精度区分":null,"座標系":"任意座標系"}},{"type":"Polygon","arcs":[[-297,-300,-248,300]],"properties":{"市区町村名":"江別市","大字名":"対雁","丁目名":null,"小字名":null,"地番":"124-30","精度区分":null,"座標系":"任意座標系"}},{"type":"Polygon","arcs":[[-298,-301,-247,301,-294]],"properties":{"市区町村名":"江別市","大字名":"対雁","丁目名":null,"小字名":null,"地番":"124-29","精度区分":null,"座標系":"任意座標系"}},{"type":"Polygon","arcs":[[-295,-302,-246,302,-291]],"properties":{"市区町村名":"江別市","大字名":"対雁","丁目名":null,"小字名":null,"地番":"124-28","精度区分":null,"座標系":"任意座標系"}},{"type":"Polygon","arcs":[[303,-292,-303,-245,304]],"properties":{"市区町村名":"江別市","大字名":"対雁","丁目名":null,"小字名":null,"地番":"124-27","精度区分":null,"座標系":"任意座標系"}},{"type":"Polygon","arcs":[[305,-305,-244,306]],"properties":{"市区町村名":"江別市","大字名":"対雁","丁目名":null,"小字名":null,"地番":"124-26","精度区分":null,"座標系":"任意座標系"}},{"type":"Polygon","arcs":[[307,-307,-243,308]],"properties":{"市区町村名":"江別市","大字名":"対雁","丁目名":null,"小字名":null,"地番":"124-25","精度区分":null,"座標系":"任意座標系"}},{"type":"Polygon","arcs":[[309,-309,-242,310]],"properties":{"市区町村名":"江別市","大字名":"対雁","丁目名":null,"小字名":null,"地番":"124-24","精度区分":null,"座標系":"任意座標系"}},{"type":"Polygon","arcs":[[311,-311,-241,312]],"properties":{"市区町村名":"江別市","大字名":"対雁","丁目名":null,"小字名":null,"地番":"124-23","精度区分":null,"座標系":"任意座標系"}},{"type":"Polygon","arcs":[[-240,313,314,-313]],"properties":{"市区町村名":"江別市","大字名":"対雁","丁目名":null,"小字名":null,"地番":"124-22","精度区分":null,"座標系":"任意座標系"}},{"type":"Polygon","arcs":[[-239,315,316,-314]],"properties":{"市区町村名":"江別市","大字名":"対雁","丁目名":null,"小字名":null,"地番":"124-21","精度区分":null,"座標系":"任意座標系"}},{"type":"Polygon","arcs":[[317,-316,-238,318]],"properties":{"市区町村名":"江別市","大字名":"対雁","丁目名":null,"小字名":null,"地番":"124-20","精度区分":null,"座標系":"任意座標系"}},{"type":"Polygon","arcs":[[319,-319,-237,320]],"properties":{"市区町村名":"江別市","大字名":"対雁","丁目名":null,"小字名":null,"地番":"124-19","精度区分":null,"座標系":"任意座標系"}},{"type":"Polygon","arcs":[[321,-321,-236,322]],"properties":{"市区町村名":"江別市","大字名":"対雁","丁目名":null,"小字名":null,"地番":"124-18","精度区分":null,"座標系":"任意座標系"}},{"type":"Polygon","arcs":[[323,-323,-235,324]],"properties":{"市区町村名":"江別市","大字名":"対雁","丁目名":null,"小字名":null,"地番":"124-17","精度区分":null,"座標系":"任意座標系"}},{"type":"Polygon","arcs":[[325,-325,-234,326]],"properties":{"市区町村名":"江別市","大字名":"対雁","丁目名":null,"小字名":null,"地番":"124-16","精度区分":null,"座標系":"任意座標系"}},{"type":"Polygon","arcs":[[327,-327,-233,328]],"properties":{"市区町村名":"江別市","大字名":"対雁","丁目名":null,"小字名":null,"地番":"124-15","精度区分":null,"座標系":"任意座標系"}},{"type":"Polygon","arcs":[[329,-329,-232,330]],"properties":{"市区町村名":"江別市","大字名":"対雁","丁目名":null,"小字名":null,"地番":"124-14","精度区分":null,"座標系":"任意座標系"}},{"type":"Polygon","arcs":[[331,-331,-231,332]],"properties":{"市区町村名":"江別市","大字名":"対雁","丁目名":null,"小字名":null,"地番":"124-13","精度区分":null,"座標系":"任意座標系"}},{"type":"Polygon","arcs":[[333,334,335]],"properties":{"市区町村名":"江別市","大字名":"対雁","丁目名":null,"小字名":null,"地番":"124-12","精度区分":null,"座標系":"任意座標系"}},{"type":"Polygon","arcs":[[-335,336,-333,-230,337]],"properties":{"市区町村名":"江別市","大字名":"対雁","丁目名":null,"小字名":null,"地番":"124-11","精度区分":null,"座標系":"任意座標系"}},{"type":"Polygon","arcs":[[338,-336,339,340]],"properties":{"市区町村名":"江別市","大字名":"対雁","丁目名":null,"小字名":null,"地番":"124-10","精度区分":null,"座標系":"任意座標系"}},{"type":"Polygon","arcs":[[-340,-338,-229,341]],"properties":{"市区町村名":"江別市","大字名":"対雁","丁目名":null,"小字名":null,"地番":"124-9","精度区分":null,"座標系":"任意座標系"}},{"type":"Polygon","arcs":[[342,343,344]],"properties":{"市区町村名":"江別市","大字名":"対雁","丁目名":null,"小字名":null,"地番":"124-8","精度区分":null,"座標系":"任意座標系"}},{"type":"Polygon","arcs":[[-344,345,-341,346,347]],"properties":{"市区町村名":"江別市","大字名":"対雁","丁目名":null,"小字名":null,"地番":"124-7","精度区分":null,"座標系":"任意座標系"}},{"type":"Polygon","arcs":[[-347,-342,-228,348]],"properties":{"市区町村名":"江別市","大字名":"対雁","丁目名":null,"小字名":null,"地番":"124-6","精度区分":null,"座標系":"任意座標系"}},{"type":"Polygon","arcs":[[349,-345,350,351]],"properties":{"市区町村名":"江別市","大字名":"対雁","丁目名":null,"小字名":null,"地番":"124-5","精度区分":null,"座標系":"任意座標系"}},{"type":"Polygon","arcs":[[352,-351,-348,353]],"properties":{"市区町村名":"江別市","大字名":"対雁","丁目名":null,"小字名":null,"地番":"124-4","精度区分":null,"座標系":"任意座標系"}},{"type":"Polygon","arcs":[[-201,354,-352,-353,355,-226]],"properties":{"市区町村名":"江別市","大字名":"対雁","丁目名":null,"小字名":null,"地番":"124-3","精度区分":null,"座標系":"任意座標系"}},{"type":"Polygon","arcs":[[-227,-356,-354,-349]],"properties":{"市区町村名":"江別市","大字名":"対雁","丁目名":null,"小字名":null,"地番":"124-1","精度区分":null,"座標系":"任意座標系"}},{"type":"Polygon","arcs":[[356,357,358,359,360]],"properties":{"市区町村名":"江別市","大字名":"対雁","丁目名":null,"小字名":null,"地番":"115-210","精度区分":null,"座標系":"任意座標系"}},{"type":"Polygon","arcs":[[-359,361,362]],"properties":{"市区町村名":"江別市","大字名":"対雁","丁目名":null,"小字名":null,"地番":"115-209","精度区分":null,"座標系":"任意座標系"}},{"type":"Polygon","arcs":[[363,364,365]],"properties":{"市区町村名":"江別市","大字名":"対雁","丁目名":null,"小字名":null,"地番":"115-208","精度区分":null,"座標系":"任意座標系"}},{"type":"Polygon","arcs":[[366,367,368]],"properties":{"市区町村名":"江別市","大字名":"対雁","丁目名":null,"小字名":null,"地番":"115-207","精度区分":null,"座標系":"任意座標系"}},{"type":"Polygon","arcs":[[369,370,371,372]],"properties":{"市区町村名":"江別市","大字名":"対雁","丁目名":null,"小字名":null,"地番":"115-206","精度区分":null,"座標系":"任意座標系"}},{"type":"Polygon","arcs":[[373,374,375,376,377]],"properties":{"市区町村名":"江別市","大字名":"対雁","丁目名":null,"小字名":null,"地番":"115-205","精度区分":null,"座標系":"任意座標系"}},{"type":"Polygon","arcs":[[378,379,380,-374,381]],"properties":{"市区町村名":"江別市","大字名":"対雁","丁目名":null,"小字名":null,"地番":"115-204","精度区分":null,"座標系":"任意座標系"}},{"type":"Polygon","arcs":[[382,383,384,-379,385]],"properties":{"市区町村名":"江別市","大字名":"対雁","丁目名":null,"小字名":null,"地番":"115-203","精度区分":null,"座標系":"任意座標系"}},{"type":"Polygon","arcs":[[386,387,388,389,390]],"properties":{"市区町村名":"江別市","大字名":"対雁","丁目名":null,"小字名":null,"地番":"115-202","精度区分":null,"座標系":"任意座標系"}},{"type":"Polygon","arcs":[[391,392,393,394]],"properties":{"市区町村名":"江別市","大字名":"対雁","丁目名":null,"小字名":null,"地番":"115-201","精度区分":null,"座標系":"任意座標系"}},{"type":"Polygon","arcs":[[395,396,397]],"properties":{"市区町村名":"江別市","大字名":"対雁","丁目名":null,"小字名":null,"地番":"115-199","精度区分":null,"座標系":"任意座標系"}},{"type":"Polygon","arcs":[[398,399,400,401]],"properties":{"市区町村名":"江別市","大字名":"対雁","丁目名":null,"小字名":null,"地番":"115-198","精度区分":null,"座標系":"任意座標系"}},{"type":"Polygon","arcs":[[402,403,-400,404]],"properties":{"市区町村名":"江別市","大字名":"対雁","丁目名":null,"小字名":null,"地番":"115-197","精度区分":null,"座標系":"任意座標系"}},{"type":"Polygon","arcs":[[405,406,407,408]],"properties":{"市区町村名":"江別市","大字名":"対雁","丁目名":null,"小字名":null,"地番":"115-196","精度区分":null,"座標系":"任意座標系"}},{"type":"Polygon","arcs":[[409,410,411,412]],"properties":{"市区町村名":"江別市","大字名":"対雁","丁目名":null,"小字名":null,"地番":"115-195","精度区分":null,"座標系":"任意座標系"}},{"type":"Polygon","arcs":[[413,414,415,416]],"properties":{"市区町村名":"江別市","大字名":"対雁","丁目名":null,"小字名":null,"地番":"115-194","精度区分":null,"座標系":"任意座標系"}},{"type":"Polygon","arcs":[[417,418,419,420,421]],"properties":{"市区町村名":"江別市","大字名":"対雁","丁目名":null,"小字名":null,"地番":"115-193","精度区分":null,"座標系":"任意座標系"}},{"type":"Polygon","arcs":[[422,423,424,425,-418,426]],"properties":{"市区町村名":"江別市","大字名":"対雁","丁目名":null,"小字名":null,"地番":"115-192","精度区分":null,"座標系":"任意座標系"}},{"type":"Polygon","arcs":[[427,-424,428,429]],"properties":{"市区町村名":"江別市","大字名":"対雁","丁目名":null,"小字名":null,"地番":"115-191","精度区分":null,"座標系":"任意座標系"}},{"type":"Polygon","arcs":[[-429,-423,430,431]],"properties":{"市区町村名":"江別市","大字名":"対雁","丁目名":null,"小字名":null,"地番":"115-190","精度区分":null,"座標系":"任意座標系"}},{"type":"Polygon","arcs":[[432,433,-421,434,435]],"properties":{"市区町村名":"江別市","大字名":"対雁","丁目名":null,"小字名":null,"地番":"115-189","精度区分":null,"座標系":"任意座標系"}},{"type":"Polygon","arcs":[[436,437,438,-433,439,440]],"properties":{"市区町村名":"江別市","大字名":"対雁","丁目名":null,"小字名":null,"地番":"115-188","精度区分":null,"座標系":"任意座標系"}},{"type":"Polygon","arcs":[[441,-437,442,443]],"properties":{"市区町村名":"江別市","大字名":"対雁","丁目名":null,"小字名":null,"地番":"115-187","精度区分":null,"座標系":"任意座標系"}},{"type":"Polygon","arcs":[[444,-438,-442,445]],"properties":{"市区町村名":"江別市","大字名":"対雁","丁目名":null,"小字名":null,"地番":"115-186","精度区分":null,"座標系":"任意座標系"}},{"type":"Polygon","arcs":[[446,447,448,449]],"properties":{"市区町村名":"江別市","大字名":"対雁","丁目名":null,"小字名":null,"地番":"115-185","精度区分":null,"座標系":"任意座標系"}},{"type":"Polygon","arcs":[[450,451,452,-447,453,454]],"properties":{"市区町村名":"江別市","大字名":"対雁","丁目名":null,"小字名":null,"地番":"115-184","精度区分":null,"座標系":"任意座標系"}},{"type":"Polygon","arcs":[[-397,455,-190,456]],"properties":{"市区町村名":"江別市","大字名":"対雁","丁目名":null,"小字名":null,"地番":"115-183","精度区分":null,"座標系":"任意座標系"}},{"type":"Polygon","arcs":[[-68,457,458,459,-375,-381,460]],"properties":{"市区町村名":"江別市","大字名":"対雁","丁目名":null,"小字名":null,"地番":"115-182","精度区分":null,"座標系":"任意座標系"}},{"type":"Polygon","arcs":[[-376,-460,-412,461,462,463]],"properties":{"市区町村名":"江別市","大字名":"対雁","丁目名":null,"小字名":null,"地番":"115-181","精度区分":null,"座標系":"任意座標系"}},{"type":"Polygon","arcs":[[-463,464,465,466,467,468]],"properties":{"市区町村名":"江別市","大字名":"対雁","丁目名":null,"小字名":null,"地番":"115-180","精度区分":null,"座標系":"任意座標系"}},{"type":"Polygon","arcs":[[-467,469,470,-61,471,472,473]],"properties":{"市区町村名":"江別市","大字名":"対雁","丁目名":null,"小字名":null,"地番":"115-179","精度区分":null,"座標系":"任意座標系"}},{"type":"Polygon","arcs":[[474,-62,-471,475]],"properties":{"市区町村名":"江別市","大字名":"対雁","丁目名":null,"小字名":null,"地番":"115-178","精度区分":null,"座標系":"任意座標系"}},{"type":"Polygon","arcs":[[476,477,-465,478]],"properties":{"市区町村名":"江別市","大字名":"対雁","丁目名":null,"小字名":null,"地番":"115-176","精度区分":null,"座標系":"任意座標系"}},{"type":"Polygon","arcs":[[-462,-411,479,-479]],"properties":{"市区町村名":"江別市","大字名":"対雁","丁目名":null,"小字名":null,"地番":"115-175","精度区分":null,"座標系":"任意座標系"}},{"type":"Polygon","arcs":[[480,-413,-459,481]],"properties":{"市区町村名":"江別市","大字名":"対雁","丁目名":null,"小字名":null,"地番":"115-174","精度区分":null,"座標系":"任意座標系"}},{"type":"Polygon","arcs":[[482,-54,483,484,485]],"properties":{"市区町村名":"江別市","大字名":"対雁","丁目名":null,"小字名":null,"地番":"115-173","精度区分":null,"座標系":"任意座標系"}},{"type":"Polygon","arcs":[[486,-57,-483,487]],"properties":{"市区町村名":"江別市","大字名":"対雁","丁目名":null,"小字名":null,"地番":"115-172","精度区分":null,"座標系":"任意座標系"}},{"type":"Polygon","arcs":[[488,-60,-487,489,490]],"properties":{"市区町村名":"江別市","大字名":"対雁","丁目名":null,"小字名":null,"地番":"115-171","精度区分":null,"座標系":"任意座標系"}},{"type":"Polygon","arcs":[[-472,-64,-489,491,492]],"properties":{"市区町村名":"江別市","大字名":"対雁","丁目名":null,"小字名":null,"地番":"115-170","精度区分":null,"座標系":"任意座標系"}},{"type":"Polygon","arcs":[[-458,-67,493,-482]],"properties":{"市区町村名":"江別市","大字名":"対雁","丁目名":null,"小字名":null,"地番":"115-165","精度区分":null,"座標系":"任意座標系"}},{"type":"Polygon","arcs":[[-69,-461,-380,-385,494]],"properties":{"市区町村名":"江別市","大字名":"対雁","丁目名":null,"小字名":null,"地番":"115-164","精度区分":null,"座標系":"任意座標系"}},{"type":"Polygon","arcs":[[495,-72,-495,-384,496]],"properties":{"市区町村名":"江別市","大字名":"対雁","丁目名":null,"小字名":null,"地番":"115-163","精度区分":null,"座標系":"任意座標系"}},{"type":"Polygon","arcs":[[-75,-496,497,498]],"properties":{"市区町村名":"江別市","大字名":"対雁","丁目名":null,"小字名":null,"地番":"115-162","精度区分":null,"座標系":"任意座標系"}},{"type":"Polygon","arcs":[[499,500,501,502]],"properties":{"市区町村名":"江別市","大字名":"対雁","丁目名":null,"小字名":null,"地番":"115-160","精度区分":null,"座標系":"任意座標系"}},{"type":"Polygon","arcs":[[503,504,-500,505]],"properties":{"市区町村名":"江別市","大字名":"対雁","丁目名":null,"小字名":null,"地番":"115-159","精度区分":null,"座標系":"任意座標系"}},{"type":"Polygon","arcs":[[506,-399,507,508]],"properties":{"市区町村名":"江別市","大字名":"対雁","丁目名":null,"小字名":null,"地番":"115-158","精度区分":null,"座標系":"任意座標系"}},{"type":"Polygon","arcs":[[509,510,511,-414,512]],"properties":{"市区町村名":"江別市","大字名":"対雁","丁目名":null,"小字名":null,"地番":"115-157","精度区分":null,"座標系":"任意座標系"}},{"type":"Polygon","arcs":[[513,514,515,516]],"properties":{"市区町村名":"江別市","大字名":"対雁","丁目名":null,"小字名":null,"地番":"115-156","精度区分":null,"座標系":"任意座標系"}},{"type":"Polygon","arcs":[[517,518,519]],"properties":{"市区町村名":"江別市","大字名":"対雁","丁目名":null,"小字名":null,"地番":"115-155","精度区分":null,"座標系":"任意座標系"}},{"type":"Polygon","arcs":[[520,521,522,-518,523]],"properties":{"市区町村名":"江別市","大字名":"対雁","丁目名":null,"小字名":null,"地番":"115-154","精度区分":null,"座標系":"任意座標系"}},{"type":"Polygon","arcs":[[-443,-441,524,525]],"properties":{"市区町村名":"江別市","大字名":"対雁","丁目名":null,"小字名":null,"地番":"115-153","精度区分":null,"座標系":"任意座標系"}},{"type":"Polygon","arcs":[[526,-514,527,528]],"properties":{"市区町村名":"江別市","大字名":"対雁","丁目名":null,"小字名":null,"地番":"115-152","精度区分":null,"座標系":"任意座標系"}},{"type":"Polygon","arcs":[[-519,529,-527,530]],"properties":{"市区町村名":"江別市","大字名":"対雁","丁目名":null,"小字名":null,"地番":"115-151","精度区分":null,"座標系":"任意座標系"}},{"type":"Polygon","arcs":[[-528,531,532]],"properties":{"市区町村名":"江別市","大字名":"対雁","丁目名":null,"小字名":null,"地番":"115-150","精度区分":null,"座標系":"任意座標系"}},{"type":"Polygon","arcs":[[-532,-517,533,534,535]],"properties":{"市区町村名":"江別市","大字名":"対雁","丁目名":null,"小字名":null,"地番":"115-149","精度区分":null,"座標系":"任意座標系"}},{"type":"Polygon","arcs":[[536,537,538,539]],"properties":{"市区町村名":"江別市","大字名":"対雁","丁目名":null,"小字名":null,"地番":"115-148","精度区分":null,"座標系":"任意座標系"}},{"type":"Polygon","arcs":[[540,541,542]],"properties":{"市区町村名":"江別市","大字名":"対雁","丁目名":null,"小字名":null,"地番":"115-147","精度区分":null,"座標系":"任意座標系"}},{"type":"Polygon","arcs":[[543,544,545]],"properties":{"市区町村名":"江別市","大字名":"対雁","丁目名":null,"小字名":null,"地番":"115-146","精度区分":null,"座標系":"任意座標系"}},{"type":"Polygon","arcs":[[546,547,548,549]],"properties":{"市区町村名":"江別市","大字名":"対雁","丁目名":null,"小字名":null,"地番":"115-145","精度区分":null,"座標系":"任意座標系"}},{"type":"Polygon","arcs":[[550,551,552,-548,553]],"properties":{"市区町村名":"江別市","大字名":"対雁","丁目名":null,"小字名":null,"地番":"115-144","精度区分":null,"座標系":"任意座標系"}},{"type":"Polygon","arcs":[[554,555,556,557]],"properties":{"市区町村名":"江別市","大字名":"対雁","丁目名":null,"小字名":null,"地番":"115-143","精度区分":null,"座標系":"任意座標系"}},{"type":"Polygon","arcs":[[-394,558,-556,559,560]],"properties":{"市区町村名":"江別市","大字名":"対雁","丁目名":null,"小字名":null,"地番":"115-142","精度区分":null,"座標系":"任意座標系"}},{"type":"Polygon","arcs":[[561,562,563,564]],"properties":{"市区町村名":"江別市","大字名":"対雁","丁目名":null,"小字名":null,"地番":"115-141","精度区分":null,"座標系":"任意座標系"}},{"type":"Polygon","arcs":[[565,566,-543,-544,567]],"properties":{"市区町村名":"江別市","大字名":"対雁","丁目名":null,"小字名":null,"地番":"115-140","精度区分":null,"座標系":"任意座標系"}},{"type":"Polygon","arcs":[[568,569,570,571]],"properties":{"市区町村名":"江別市","大字名":"対雁","丁目名":null,"小字名":null,"地番":"115-139","精度区分":null,"座標系":"任意座標系"}},{"type":"Polygon","arcs":[[572,573,574,575,576]],"properties":{"市区町村名":"江別市","大字名":"対雁","丁目名":null,"小字名":null,"地番":"115-138","精度区分":null,"座標系":"任意座標系"}},{"type":"Polygon","arcs":[[577,-370,578,579]],"properties":{"市区町村名":"江別市","大字名":"対雁","丁目名":null,"小字名":null,"地番":"115-137","精度区分":null,"座標系":"任意座標系"}},{"type":"Polygon","arcs":[[-579,-373,580,581,582]],"properties":{"市区町村名":"江別市","大字名":"対雁","丁目名":null,"小字名":null,"地番":"115-136","精度区分":null,"座標系":"任意座標系"}},{"type":"Polygon","arcs":[[-582,-387,-511,583,584]],"properties":{"市区町村名":"江別市","大字名":"対雁","丁目名":null,"小字名":null,"地番":"115-135","精度区分":null,"座標系":"任意座標系"}},{"type":"Polygon","arcs":[[-584,-510,585]],"properties":{"市区町村名":"江別市","大字名":"対雁","丁目名":null,"小字名":null,"地番":"115-134","精度区分":null,"座標系":"任意座標系"}},{"type":"Polygon","arcs":[[-416,586,587]],"properties":{"市区町村名":"江別市","大字名":"対雁","丁目名":null,"小字名":null,"地番":"115-133","精度区分":null,"座標系":"任意座標系"}},{"type":"Polygon","arcs":[[-415,-512,-391,588,-587]],"properties":{"市区町村名":"江別市","大字名":"対雁","丁目名":null,"小字名":null,"地番":"115-132","精度区分":null,"座標系":"任意座標系"}},{"type":"Polygon","arcs":[[-389,589,590]],"properties":{"市区町村名":"江別市","大字名":"対雁","丁目名":null,"小字名":null,"地番":"115-131","精度区分":null,"座標系":"任意座標系"}},{"type":"Polygon","arcs":[[-388,-581,591,-502,592,-590]],"properties":{"市区町村名":"江別市","大字名":"対雁","丁目名":null,"小字名":null,"地番":"115-130","精度区分":null,"座標系":"任意座標系"}},{"type":"Polygon","arcs":[[-592,-372,593,-506,-503]],"properties":{"市区町村名":"江別市","大字名":"対雁","丁目名":null,"小字名":null,"地番":"115-129","精度区分":null,"座標系":"任意座標系"}},{"type":"Polygon","arcs":[[-560,-555,594,595]],"properties":{"市区町村名":"江別市","大字名":"対雁","丁目名":null,"小字名":null,"地番":"115-128","精度区分":null,"座標系":"任意座標系"}},{"type":"Polygon","arcs":[[-557,-559,596,597,598]],"properties":{"市区町村名":"江別市","大字名":"対雁","丁目名":null,"小字名":null,"地番":"115-127","精度区分":null,"座標系":"任意座標系"}},{"type":"Polygon","arcs":[[-598,599,600,601]],"properties":{"市区町村名":"江別市","大字名":"対雁","丁目名":null,"小字名":null,"地番":"115-126","精度区分":null,"座標系":"任意座標系"}},{"type":"Polygon","arcs":[[-601,602,603,604]],"properties":{"市区町村名":"江別市","大字名":"対雁","丁目名":null,"小字名":null,"地番":"115-125","精度区分":null,"座標系":"任意座標系"}},{"type":"Polygon","arcs":[[-604,605,606]],"properties":{"市区町村名":"江別市","大字名":"対雁","丁目名":null,"小字名":null,"地番":"115-124","精度区分":null,"座標系":"任意座標系"}},{"type":"Polygon","arcs":[[607,608,-606,609]],"properties":{"市区町村名":"江別市","大字名":"対雁","丁目名":null,"小字名":null,"地番":"115-123","精度区分":null,"座標系":"任意座標系"}},{"type":"Polygon","arcs":[[610,-610,-603,611]],"properties":{"市区町村名":"江別市","大字名":"対雁","丁目名":null,"小字名":null,"地番":"115-122","精度区分":null,"座標系":"任意座標系"}},{"type":"Polygon","arcs":[[612,-612,-600,613]],"properties":{"市区町村名":"江別市","大字名":"対雁","丁目名":null,"小字名":null,"地番":"115-121","精度区分":null,"座標系":"任意座標系"}},{"type":"Polygon","arcs":[[614,615,616,617]],"properties":{"市区町村名":"江別市","大字名":"対雁","丁目名":null,"小字名":null,"地番":"115-118","精度区分":null,"座標系":"任意座標系"}},{"type":"Polygon","arcs":[[618,619,-615,620]],"properties":{"市区町村名":"江別市","大字名":"対雁","丁目名":null,"小字名":null,"地番":"115-117","精度区分":null,"座標系":"任意座標系"}},{"type":"Polygon","arcs":[[621,622,-619,623]],"properties":{"市区町村名":"江別市","大字名":"対雁","丁目名":null,"小字名":null,"地番":"115-116","精度区分":null,"座標系":"任意座標系"}},{"type":"Polygon","arcs":[[624,-622,625,626]],"properties":{"市区町村名":"江別市","大字名":"対雁","丁目名":null,"小字名":null,"地番":"115-115","精度区分":null,"座標系":"任意座標系"}},{"type":"Polygon","arcs":[[-626,-624,627,628,629]],"properties":{"市区町村名":"江別市","大字名":"対雁","丁目名":null,"小字名":null,"地番":"115-114","精度区分":null,"座標系":"任意座標系"}},{"type":"Polygon","arcs":[[-629,630,631,632]],"properties":{"市区町村名":"江別市","大字名":"対雁","丁目名":null,"小字名":null,"地番":"115-113","精度区分":null,"座標系":"任意座標系"}},{"type":"Polygon","arcs":[[-632,633,-562,634,635]],"properties":{"市区町村名":"江別市","大字名":"対雁","丁目名":null,"小字名":null,"地番":"115-112","精度区分":null,"座標系":"任意座標系"}},{"type":"Polygon","arcs":[[-635,-565,636]],"properties":{"市区町村名":"江別市","大字名":"対雁","丁目名":null,"小字名":null,"地番":"115-111","精度区分":null,"座標系":"任意座標系"}},{"type":"Polygon","arcs":[[-628,-621,-618,637,638,-563,-634,-631]],"properties":{"市区町村名":"江別市","大字名":"対雁","丁目名":null,"小字名":null,"地番":"115-110","精度区分":null,"座標系":"任意座標系"}},{"type":"Polygon","arcs":[[-638,-617,639]],"properties":{"市区町村名":"江別市","大字名":"対雁","丁目名":null,"小字名":null,"地番":"115-109","精度区分":null,"座標系":"任意座標系"}},{"type":"Polygon","arcs":[[640,641,642]],"properties":{"市区町村名":"江別市","大字名":"対雁","丁目名":null,"小字名":null,"地番":"115-107","精度区分":null,"座標系":"任意座標系"}},{"type":"Polygon","arcs":[[643,-641,644,645]],"properties":{"市区町村名":"江別市","大字名":"対雁","丁目名":null,"小字名":null,"地番":"115-106","精度区分":null,"座標系":"任意座標系"}},{"type":"Polygon","arcs":[[646,-646,647,648]],"properties":{"市区町村名":"江別市","大字名":"対雁","丁目名":null,"小字名":null,"地番":"115-105","精度区分":null,"座標系":"任意座標系"}},{"type":"Polygon","arcs":[[649,-649,650,651]],"properties":{"市区町村名":"江別市","大字名":"対雁","丁目名":null,"小字名":null,"地番":"115-104","精度区分":null,"座標系":"任意座標系"}},{"type":"Polygon","arcs":[[652,-652,653,654]],"properties":{"市区町村名":"江別市","大字名":"対雁","丁目名":null,"小字名":null,"地番":"115-103","精度区分":null,"座標系":"任意座標系"}},{"type":"Polygon","arcs":[[655,-655,656,657]],"properties":{"市区町村名":"江別市","大字名":"対雁","丁目名":null,"小字名":null,"地番":"115-102","精度区分":null,"座標系":"任意座標系"}},{"type":"Polygon","arcs":[[-658,658,659,660]],"properties":{"市区町村名":"江別市","大字名":"対雁","丁目名":null,"小字名":null,"地番":"115-101","精度区分":null,"座標系":"任意座標系"}},{"type":"Polygon","arcs":[[661,-660,662,663]],"properties":{"市区町村名":"江別市","大字名":"対雁","丁目名":null,"小字名":null,"地番":"115-100","精度区分":null,"座標系":"任意座標系"}},{"type":"Polygon","arcs":[[664,-664,665,666]],"properties":{"市区町村名":"江別市","大字名":"対雁","丁目名":null,"小字名":null,"地番":"115-99","精度区分":null,"座標系":"任意座標系"}},{"type":"Polygon","arcs":[[667,-667,668,669,-509]],"properties":{"市区町村名":"江別市","大字名":"対雁","丁目名":null,"小字名":null,"地番":"115-98","精度区分":null,"座標系":"任意座標系"}},{"type":"Polygon","arcs":[[-507,-670,670,-405]],"properties":{"市区町村名":"江別市","大字名":"対雁","丁目名":null,"小字名":null,"地番":"115-97","精度区分":null,"座標系":"任意座標系"}},{"type":"Polygon","arcs":[[671,-401,-404,672,673]],"properties":{"市区町村名":"江別市","大字名":"対雁","丁目名":null,"小字名":null,"地番":"115-96","精度区分":null,"座標系":"任意座標系"}},{"type":"Polygon","arcs":[[674,-674,675,-409]],"properties":{"市区町村名":"江別市","大字名":"対雁","丁目名":null,"小字名":null,"地番":"115-95","精度区分":null,"座標系":"任意座標系"}},{"type":"Polygon","arcs":[[676,-360,-363,677,-366,678]],"properties":{"市区町村名":"江別市","大字名":"対雁","丁目名":null,"小字名":null,"地番":"115-92","精度区分":null,"座標系":"任意座標系"}},{"type":"Polygon","arcs":[[679,680,681,682]],"properties":{"市区町村名":"江別市","大字名":"対雁","丁目名":null,"小字名":null,"地番":"115-91","精度区分":null,"座標系":"任意座標系"}},{"type":"Polygon","arcs":[[683,-680,-419,-426,684]],"properties":{"市区町村名":"江別市","大字名":"対雁","丁目名":null,"小字名":null,"地番":"115-90","精度区分":null,"座標系":"任意座標系"}},{"type":"Polygon","arcs":[[-431,-427,-422,685,686]],"properties":{"市区町村名":"江別市","大字名":"対雁","丁目名":null,"小字名":null,"地番":"115-88","精度区分":null,"座標系":"任意座標系"}},{"type":"Polygon","arcs":[[-686,-434,-439,-445,687]],"properties":{"市区町村名":"江別市","大字名":"対雁","丁目名":null,"小字名":null,"地番":"115-87","精度区分":null,"座標系":"任意座標系"}},{"type":"Polygon","arcs":[[-525,-440,-436,688,-521,689]],"properties":{"市区町村名":"江別市","大字名":"対雁","丁目名":null,"小字名":null,"地番":"115-86","精度区分":null,"座標系":"任意座標系"}},{"type":"Polygon","arcs":[[-515,-530,-523,690]],"properties":{"市区町村名":"江別市","大字名":"対雁","丁目名":null,"小字名":null,"地番":"115-85","精度区分":null,"座標系":"任意座標系"}},{"type":"Polygon","arcs":[[-535,691,692,-537,693]],"properties":{"市区町村名":"江別市","大字名":"対雁","丁目名":null,"小字名":null,"地番":"115-84","精度区分":null,"座標系":"任意座標系"}},{"type":"Polygon","arcs":[[-539,694,695]],"properties":{"市区町村名":"江別市","大字名":"対雁","丁目名":null,"小字名":null,"地番":"115-83","精度区分":null,"座標系":"任意座標系"}},{"type":"Polygon","arcs":[[-695,-538,-693,696,697]],"properties":{"市区町村名":"江別市","大字名":"対雁","丁目名":null,"小字名":null,"地番":"115-82","精度区分":null,"座標系":"任意座標系"}},{"type":"Polygon","arcs":[[-545,-542,698,699]],"properties":{"市区町村名":"江別市","大字名":"対雁","丁目名":null,"小字名":null,"地番":"115-80","精度区分":null,"座標系":"任意座標系"}},{"type":"Polygon","arcs":[[700,701,702]],"properties":{"市区町村名":"江別市","大字名":"対雁","丁目名":null,"小字名":null,"地番":"115-78","精度区分":null,"座標系":"任意座標系"}},{"type":"Polygon","arcs":[[703,-435,704,705]],"properties":{"市区町村名":"江別市","大字名":"対雁","丁目名":null,"小字名":null,"地番":"115-75","精度区分":null,"座標系":"任意座標系"}},{"type":"Polygon","arcs":[[-705,-420,-683,706,707]],"properties":{"市区町村名":"江別市","大字名":"対雁","丁目名":null,"小字名":null,"地番":"115-74","精度区分":null,"座標系":"任意座標系"}},{"type":"Polygon","arcs":[[-707,-682,708,-180,-174,709]],"properties":{"市区町村名":"江別市","大字名":"対雁","丁目名":null,"小字名":null,"地番":"115-73","精度区分":null,"座標系":"任意座標系"}},{"type":"Polygon","arcs":[[710,711,712,713,714]],"properties":{"市区町村名":"江別市","大字名":"対雁","丁目名":null,"小字名":null,"地番":"115-72","精度区分":null,"座標系":"任意座標系"}},{"type":"Polygon","arcs":[[715,716,717,718,-711,719]],"properties":{"市区町村名":"江別市","大字名":"対雁","丁目名":null,"小字名":null,"地番":"115-71","精度区分":null,"座標系":"任意座標系"}},{"type":"Polygon","arcs":[[720,721,-716,722,723]],"properties":{"市区町村名":"江別市","大字名":"対雁","丁目名":null,"小字名":null,"地番":"115-70","精度区分":null,"座標系":"任意座標系"}},{"type":"Polygon","arcs":[[724,-717,-722,725]],"properties":{"市区町村名":"江別市","大字名":"対雁","丁目名":null,"小字名":null,"地番":"115-69","精度区分":null,"座標系":"任意座標系"}},{"type":"Polygon","arcs":[[726,727,728,729]],"properties":{"市区町村名":"江別市","大字名":"対雁","丁目名":null,"小字名":null,"地番":"115-68","精度区分":null,"座標系":"任意座標系"}},{"type":"Polygon","arcs":[[-571,730,731,732]],"properties":{"市区町村名":"江別市","大字名":"対雁","丁目名":null,"小字名":null,"地番":"115-67","精度区分":null,"座標系":"任意座標系"}},{"type":"Polygon","arcs":[[-732,733,734,735]],"properties":{"市区町村名":"江別市","大字名":"対雁","丁目名":null,"小字名":null,"地番":"115-66","精度区分":null,"座標系":"任意座標系"}},{"type":"Polygon","arcs":[[736,737,738]],"properties":{"市区町村名":"江別市","大字名":"対雁","丁目名":null,"小字名":null,"地番":"115-65","精度区分":null,"座標系":"任意座標系"}},{"type":"Polygon","arcs":[[739,740,-737,741]],"properties":{"市区町村名":"江別市","大字名":"対雁","丁目名":null,"小字名":null,"地番":"115-64","精度区分":null,"座標系":"任意座標系"}},{"type":"Polygon","arcs":[[-368,742,743,-740,744]],"properties":{"市区町村名":"江別市","大字名":"対雁","丁目名":null,"小字名":null,"地番":"115-63","精度区分":null,"座標系":"任意座標系"}},{"type":"Polygon","arcs":[[745,746,-369,747]],"properties":{"市区町村名":"江別市","大字名":"対雁","丁目名":null,"小字名":null,"地番":"115-62","精度区分":null,"座標系":"任意座標系"}},{"type":"Polygon","arcs":[[748,-746,749]],"properties":{"市区町村名":"江別市","大字名":"対雁","丁目名":null,"小字名":null,"地番":"115-61","精度区分":null,"座標系":"任意座標系"}},{"type":"Polygon","arcs":[[-743,-367,-747,-749,750,751,752]],"properties":{"市区町村名":"江別市","大字名":"対雁","丁目名":null,"小字名":null,"地番":"115-60","精度区分":null,"座標系":"任意座標系"}},{"type":"Polygon","arcs":[[-738,-741,-744,-753,-551,753,754]],"properties":{"市区町村名":"江別市","大字名":"対雁","丁目名":null,"小字名":null,"地番":"115-59","精度区分":null,"座標系":"任意座標系"}},{"type":"Polygon","arcs":[[-754,-554,-547,755]],"properties":{"市区町村名":"江別市","大字名":"対雁","丁目名":null,"小字名":null,"地番":"115-58","精度区分":null,"座標系":"任意座標系"}},{"type":"Polygon","arcs":[[-552,-752,756,757]],"properties":{"市区町村名":"江別市","大字名":"対雁","丁目名":null,"小字名":null,"地番":"115-57","精度区分":null,"座標系":"任意座標系"}},{"type":"Polygon","arcs":[[-758,758,-727,759,-452,760,761]],"properties":{"市区町村名":"江別市","大字名":"対雁","丁目名":null,"小字名":null,"地番":"115-56","精度区分":null,"座標系":"任意座標系"}},{"type":"Polygon","arcs":[[-549,-553,-762,762,763,764]],"properties":{"市区町村名":"江別市","大字名":"対雁","丁目名":null,"小字名":null,"地番":"115-55","精度区分":null,"座標系":"任意座標系"}},{"type":"Polygon","arcs":[[765,-455,766,767,768]],"properties":{"市区町村名":"江別市","大字名":"対雁","丁目名":null,"小字名":null,"地番":"115-54","精度区分":null,"座標系":"任意座標系"}},{"type":"Polygon","arcs":[[-768,769,770,771]],"properties":{"市区町村名":"江別市","大字名":"対雁","丁目名":null,"小字名":null,"地番":"115-53","精度区分":null,"座標系":"任意座標系"}},{"type":"Polygon","arcs":[[-771,772,773]],"properties":{"市区町村名":"江別市","大字名":"対雁","丁目名":null,"小字名":null,"地番":"115-52","精度区分":null,"座標系":"任意座標系"}},{"type":"Polygon","arcs":[[-767,-454,-450,774,-773,-770]],"properties":{"市区町村名":"江別市","大字名":"対雁","丁目名":null,"小字名":null,"地番":"115-51","精度区分":null,"座標系":"任意座標系"}},{"type":"Polygon","arcs":[[-453,-760,-730,775,776,-448]],"properties":{"市区町村名":"江別市","大字名":"対雁","丁目名":null,"小字名":null,"地番":"115-50","精度区分":null,"座標系":"任意座標系"}},{"type":"Polygon","arcs":[[-776,-729,777,778]],"properties":{"市区町村名":"江別市","大字名":"対雁","丁目名":null,"小字名":null,"地番":"115-49","精度区分":null,"座標系":"任意座標系"}},{"type":"Polygon","arcs":[[779,780,781,782]],"properties":{"市区町村名":"江別市","大字名":"対雁","丁目名":null,"小字名":null,"地番":"115-43","精度区分":null,"座標系":"任意座標系"}},{"type":"Polygon","arcs":[[-782,783,-182,784]],"properties":{"市区町村名":"江別市","大字名":"対雁","丁目名":null,"小字名":null,"地番":"115-42","精度区分":null,"座標系":"任意座標系"}},{"type":"Polygon","arcs":[[-781,785,786,-183,-784]],"properties":{"市区町村名":"江別市","大字名":"対雁","丁目名":null,"小字名":null,"地番":"115-41","精度区分":null,"座標系":"任意座標系"}},{"type":"Polygon","arcs":[[-787,787,-733,-736,788,-187,-184]],"properties":{"市区町村名":"江別市","大字名":"対雁","丁目名":null,"小字名":null,"地番":"115-40","精度区分":null,"座標系":"任意座標系"}},{"type":"Polygon","arcs":[[-789,-735,789,-188]],"properties":{"市区町村名":"江別市","大字名":"対雁","丁目名":null,"小字名":null,"地番":"115-39","精度区分":null,"座標系":"任意座標系"}},{"type":"Polygon","arcs":[[790,-172,-193,-144,-191,-456,-396,791]],"properties":{"市区町村名":"江別市","大字名":"対雁","丁目名":null,"小字名":null,"地番":"115-38","精度区分":null,"座標系":"任意座標系"}},{"type":"Polygon","arcs":[[792,-169,-173,-791,793]],"properties":{"市区町村名":"江別市","大字名":"対雁","丁目名":null,"小字名":null,"地番":"115-37","精度区分":null,"座標系":"任意座標系"}},{"type":"Polygon","arcs":[[794,795,796,797]],"properties":{"市区町村名":"江別市","大字名":"対雁","丁目名":null,"小字名":null,"地番":"115-34","精度区分":null,"座標系":"任意座標系"}},{"type":"Polygon","arcs":[[798,-796,799]],"properties":{"市区町村名":"江別市","大字名":"対雁","丁目名":null,"小字名":null,"地番":"115-33","精度区分":null,"座標系":"任意座標系"}},{"type":"Polygon","arcs":[[800,801,-800,802,803]],"properties":{"市区町村名":"江別市","大字名":"対雁","丁目名":null,"小字名":null,"地番":"115-32","精度区分":null,"座標系":"任意座標系"}},{"type":"Polygon","arcs":[[804,805,-803,-795,806]],"properties":{"市区町村名":"江別市","大字名":"対雁","丁目名":null,"小字名":null,"地番":"115-31","精度区分":null,"座標系":"任意座標系"}},{"type":"Polygon","arcs":[[807,-805,808]],"properties":{"市区町村名":"江別市","大字名":"対雁","丁目名":null,"小字名":null,"地番":"115-30","精度区分":null,"座標系":"任意座標系"}},{"type":"Polygon","arcs":[[809,-806,-808,810]],"properties":{"市区町村名":"江別市","大字名":"対雁","丁目名":null,"小字名":null,"地番":"115-29","精度区分":null,"座標系":"任意座標系"}},{"type":"Polygon","arcs":[[811,-804,-810,812]],"properties":{"市区町村名":"江別市","大字名":"対雁","丁目名":null,"小字名":null,"地番":"115-28","精度区分":null,"座標系":"任意座標系"}},{"type":"Polygon","arcs":[[-801,-812,813]],"properties":{"市区町村名":"江別市","大字名":"対雁","丁目名":null,"小字名":null,"地番":"115-27","精度区分":null,"座標系":"任意座標系"}},{"type":"Polygon","arcs":[[-712,-719,814]],"properties":{"市区町村名":"江別市","大字名":"対雁","丁目名":null,"小字名":null,"地番":"115-26","精度区分":null,"座標系":"任意座標系"}},{"type":"Polygon","arcs":[[-714,815,816,817]],"properties":{"市区町村名":"江別市","大字名":"対雁","丁目名":null,"小字名":null,"地番":"115-25","精度区分":null,"座標系":"任意座標系"}},{"type":"Polygon","arcs":[[-817,818,819,-573,820]],"properties":{"市区町村名":"江別市","大字名":"対雁","丁目名":null,"小字名":null,"地番":"115-24","精度区分":null,"座標系":"任意座標系"}},{"type":"Polygon","arcs":[[-574,-820,821]],"properties":{"市区町村名":"江別市","大字名":"対雁","丁目名":null,"小字名":null,"地番":"115-23","精度区分":null,"座標系":"任意座標系"}},{"type":"Polygon","arcs":[[822,823,824]],"properties":{"市区町村名":"江別市","大字名":"対雁","丁目名":null,"小字名":null,"地番":"115-20","精度区分":null,"座標系":"任意座標系"}},{"type":"Polygon","arcs":[[825,826,-823,827]],"properties":{"市区町村名":"江別市","大字名":"対雁","丁目名":null,"小字名":null,"地番":"115-19","精度区分":null,"座標系":"任意座標系"}},{"type":"Polygon","arcs":[[828,-577,-826,829]],"properties":{"市区町村名":"江別市","大字名":"対雁","丁目名":null,"小字名":null,"地番":"115-18","精度区分":null,"座標系":"任意座標系"}},{"type":"Polygon","arcs":[[830,-821,-829,831]],"properties":{"市区町村名":"江別市","大字名":"対雁","丁目名":null,"小字名":null,"地番":"115-17","精度区分":null,"座標系":"任意座標系"}},{"type":"Polygon","arcs":[[832,-818,-831,833]],"properties":{"市区町村名":"江別市","大字名":"対雁","丁目名":null,"小字名":null,"地番":"115-16","精度区分":null,"座標系":"任意座標系"}},{"type":"Polygon","arcs":[[-723,-720,-715,-833,834]],"properties":{"市区町村名":"江別市","大字名":"対雁","丁目名":null,"小字名":null,"地番":"115-15","精度区分":null,"座標系":"任意座標系"}},{"type":"Polygon","arcs":[[-726,-721,835]],"properties":{"市区町村名":"江別市","大字名":"対雁","丁目名":null,"小字名":null,"地番":"115-14","精度区分":null,"座標系":"任意座標系"}},{"type":"Polygon","arcs":[[-498,-497,-383,836]],"properties":{"市区町村名":"江別市","大字名":"対雁","丁目名":null,"小字名":null,"地番":"115-12","精度区分":null,"座標系":"任意座標系"}},{"type":"Polygon","arcs":[[-377,-464,-469,837,838]],"properties":{"市区町村名":"江別市","大字名":"対雁","丁目名":null,"小字名":null,"地番":"115-11","精度区分":null,"座標系":"任意座標系"}},{"type":"Polygon","arcs":[[-838,-468,-474,839,840]],"properties":{"市区町村名":"江別市","大字名":"対雁","丁目名":null,"小字名":null,"地番":"115-10","精度区分":null,"座標系":"任意座標系"}},{"type":"Polygon","arcs":[[-840,-473,-493,841,842]],"properties":{"市区町村名":"江別市","大字名":"対雁","丁目名":null,"小字名":null,"地番":"115-9","精度区分":null,"座標系":"任意座標系"}},{"type":"Polygon","arcs":[[-842,-492,-491,843,844]],"properties":{"市区町村名":"江別市","大字名":"対雁","丁目名":null,"小字名":null,"地番":"115-8","精度区分":null,"座標系":"任意座標系"}},{"type":"Polygon","arcs":[[-844,-490,-488,-486,845,846]],"properties":{"市区町村名":"江別市","大字名":"対雁","丁目名":null,"小字名":null,"地番":"115-7","精度区分":null,"座標系":"任意座標系"}},{"type":"Polygon","arcs":[[-846,-485,847,848,849]],"properties":{"市区町村名":"江別市","大字名":"対雁","丁目名":null,"小字名":null,"地番":"115-6","精度区分":null,"座標系":"任意座標系"}},{"type":"Polygon","arcs":[[-849,850,-156,851]],"properties":{"市区町村名":"江別市","大字名":"対雁","丁目名":null,"小字名":null,"地番":"115-5","精度区分":null,"座標系":"任意座標系"}},{"type":"Polygon","arcs":[[-848,-484,-51,-155,-851]],"properties":{"市区町村名":"江別市","大字名":"対雁","丁目名":null,"小字名":null,"地番":"115-3","精度区分":null,"座標系":"任意座標系"}},{"type":"Polygon","arcs":[[-685,-425,-428,852,853,854]],"properties":{"市区町村名":"江別市","大字名":"対雁","丁目名":null,"小字名":null,"地番":"115-89","精度区分":null,"座標系":"任意座標系"}},{"type":"Polygon","arcs":[[-854,855,856]],"properties":{"市区町村名":"江別市","大字名":"対雁","丁目名":null,"小字名":null,"地番":"115-213","精度区分":null,"座標系":"任意座標系"}},{"type":"Polygon","arcs":[[857,858,859]],"properties":{"市区町村名":"江別市","大字名":"対雁","丁目名":null,"小字名":null,"地番":"115-214","精度区分":null,"座標系":"任意座標系"}},{"type":"Polygon","arcs":[[-858,860,-824,861]],"properties":{"市区町村名":"江別市","大字名":"対雁","丁目名":null,"小字名":null,"地番":"115-21","精度区分":null,"座標系":"任意座標系"}},{"type":"Polygon","arcs":[[-576,862,-859,-862,-827]],"properties":{"市区町村名":"江別市","大字名":"対雁","丁目名":null,"小字名":null,"地番":"115-22","精度区分":null,"座標系":"任意座標系"}},{"type":"Polygon","arcs":[[863,864,865,866]],"properties":{"市区町村名":"江別市","大字名":"対雁","丁目名":null,"小字名":null,"地番":"115-119","精度区分":null,"座標系":"任意座標系"}},{"type":"Polygon","arcs":[[867,-392,868,-865]],"properties":{"市区町村名":"江別市","大字名":"対雁","丁目名":null,"小字名":null,"地番":"115-215","精度区分":null,"座標系":"任意座標系"}},{"type":"Polygon","arcs":[[-597,-393,-868,-864,869,-614]],"properties":{"市区町村名":"江別市","大字名":"対雁","丁目名":null,"小字名":null,"地番":"115-120","精度区分":null,"座標系":"任意座標系"}},{"type":"Polygon","arcs":[[870,871,872,-162,-167]],"properties":{"市区町村名":"江別市","大字名":"対雁","丁目名":null,"小字名":null,"地番":"115-216","精度区分":null,"座標系":"任意座標系"}},{"type":"Polygon","arcs":[[873,874,875,-872]],"properties":{"市区町村名":"江別市","大字名":"対雁","丁目名":null,"小字名":null,"地番":"115-35","精度区分":null,"座標系":"任意座標系"}},{"type":"Polygon","arcs":[[-874,-871,-166,-170,-793,876]],"properties":{"市区町村名":"江別市","大字名":"対雁","丁目名":null,"小字名":null,"地番":"115-36","精度区分":null,"座標系":"任意座標系"}},{"type":"Polygon","arcs":[[-128,-123,-120,-117,-114,-111,-108,-105,-102,-99,-96,-93,-90,-87,-85,-83,-81,-79,-7,-4,-76,-30,-130,-142,-133,-34,-39,-43,-47,-50,-53,-56,-59,-63,-475,877,878,-477,-480,-410,-481,-494,-66,-71,-74]],"properties":{"市区町村名":"江別市","大字名":"対雁","丁目名":null,"小字名":null,"地番":"131-6","精度区分":null,"座標系":"任意座標系"}},{"type":"Polygon","arcs":[[-476,-470,879,-878]],"properties":{"市区町村名":"江別市","大字名":"対雁","丁目名":null,"小字名":null,"地番":"115-217","精度区分":null,"座標系":"任意座標系"}},{"type":"Polygon","arcs":[[-880,-466,-478,-879]],"properties":{"市区町村名":"江別市","大字名":"対雁","丁目名":null,"小字名":null,"地番":"115-177","精度区分":null,"座標系":"任意座標系"}},{"type":"Polygon","arcs":[[880,881,882,883,884]],"properties":{"市区町村名":"江別市","大字名":"対雁","丁目名":null,"小字名":null,"地番":"115-220","精度区分":null,"座標系":"任意座標系"}},{"type":"Polygon","arcs":[[885,-885,886,887]],"properties":{"市区町村名":"江別市","大字名":"対雁","丁目名":null,"小字名":null,"地番":"115-77","精度区分":null,"座標系":"任意座標系"}},{"type":"Polygon","arcs":[[-887,-884,888,889]],"properties":{"市区町村名":"江別市","大字名":"対雁","丁目名":null,"小字名":null,"地番":"115-218","精度区分":null,"座標系":"任意座標系"}},{"type":"Polygon","arcs":[[890,891,-516,-691,892,-889,-883]],"properties":{"市区町村名":"江別市","大字名":"対雁","丁目名":null,"小字名":null,"地番":"115-219","精度区分":null,"座標系":"任意座標系"}},{"type":"Polygon","arcs":[[893,-702,894,-891,-882]],"properties":{"市区町村名":"江別市","大字名":"対雁","丁目名":null,"小字名":null,"地番":"115-221","精度区分":null,"座標系":"任意座標系"}},{"type":"Polygon","arcs":[[-888,-890,-893,-522,-689,-704,895]],"properties":{"市区町村名":"江別市","大字名":"対雁","丁目名":null,"小字名":null,"地番":"115-76","精度区分":null,"座標系":"任意座標系"}},{"type":"Polygon","arcs":[[-534,-892,-895,-701,896,897,898,-692]],"properties":{"市区町村名":"江別市","大字名":"対雁","丁目名":null,"小字名":null,"地番":"115-161","精度区分":null,"座標系":"任意座標系"}},{"type":"Polygon","arcs":[[899,900,901,902]],"properties":{"市区町村名":"江別市","大字名":"対雁","丁目名":null,"小字名":null,"地番":"115-223","精度区分":null,"座標系":"任意座標系"}},{"type":"Polygon","arcs":[[-902,903,904]],"properties":{"市区町村名":"江別市","大字名":"対雁","丁目名":null,"小字名":null,"地番":"115-222","精度区分":null,"座標系":"任意座標系"}},{"type":"Polygon","arcs":[[905,-903,-905,906,907,908]],"properties":{"市区町村名":"江別市","大字名":"対雁","丁目名":null,"小字名":null,"地番":"115-224","精度区分":null,"座標系":"任意座標系"}},{"type":"Polygon","arcs":[[-908,909,910]],"properties":{"市区町村名":"江別市","大字名":"対雁","丁目名":null,"小字名":null,"地番":"115-45","精度区分":null,"座標系":"任意座標系"}},{"type":"Polygon","arcs":[[911,-786,912,-909,-911,913]],"properties":{"市区町村名":"江別市","大字名":"対雁","丁目名":null,"小字名":null,"地番":"115-46","精度区分":null,"座標系":"任意座標系"}},{"type":"Polygon","arcs":[[-900,-906,-913,-780,914]],"properties":{"市区町村名":"江別市","大字名":"対雁","丁目名":null,"小字名":null,"地番":"115-44","精度区分":null,"座標系":"任意座標系"}},{"type":"Polygon","arcs":[[-569,915,916,917,918]],"properties":{"市区町村名":"江別市","大字名":"対雁","丁目名":null,"小字名":null,"地番":"115-48","精度区分":null,"座標系":"任意座標系"}},{"type":"Polygon","arcs":[[-918,919,920,921]],"properties":{"市区町村名":"江別市","大字名":"対雁","丁目名":null,"小字名":null,"地番":"115-225","精度区分":null,"座標系":"任意座標系"}},{"type":"Polygon","arcs":[[-917,922,923,-920]],"properties":{"市区町村名":"江別市","大字名":"対雁","丁目名":null,"小字名":null,"地番":"115-226","精度区分":null,"座標系":"任意座標系"}},{"type":"Polygon","arcs":[[-923,-916,-572,-788,-912,924]],"properties":{"市区町村名":"江別市","大字名":"対雁","丁目名":null,"小字名":null,"地番":"115-47","精度区分":null,"座標系":"任意座標系"}},{"type":"Polygon","arcs":[[-566,925,926,927,928]],"properties":{"市区町村名":"江別市","大字名":"対雁","丁目名":null,"小字名":null,"地番":"115-227","精度区分":null,"座標系":"任意座標系"}},{"type":"Polygon","arcs":[[929,-697,-899,930,-928,931]],"properties":{"市区町村名":"江別市","大字名":"対雁","丁目名":null,"小字名":null,"地番":"115-81","精度区分":null,"座標系":"任意座標系"}},{"type":"Polygon","arcs":[[-927,932,-932]],"properties":{"市区町村名":"江別市","大字名":"対雁","丁目名":null,"小字名":null,"地番":"115-228","精度区分":null,"座標系":"任意座標系"}},{"type":"Polygon","arcs":[[-567,-929,-931,-898,933,-699,-541]],"properties":{"市区町村名":"江別市","大字名":"対雁","丁目名":null,"小字名":null,"地番":"115-79","精度区分":null,"座標系":"任意座標系"}},{"type":"Polygon","arcs":[[-357,934,935,936]],"properties":{"市区町村名":"江別市","大字名":"対雁","丁目名":null,"小字名":null,"地番":"115-211","精度区分":null,"座標系":"任意座標系"}},{"type":"Polygon","arcs":[[-936,937,938,939]],"properties":{"市区町村名":"江別市","大字名":"対雁","丁目名":null,"小字名":null,"地番":"115-229","精度区分":null,"座標系":"任意座標系"}},{"type":"Polygon","arcs":[[-939,940,-407,941]],"properties":{"市区町村名":"江別市","大字名":"対雁","丁目名":null,"小字名":null,"地番":"115-230","精度区分":null,"座標系":"任意座標系"}},{"type":"Polygon","arcs":[[942,943,-580,-583,-585,-586,-513,-417,-588,-589,-390,-591,-593,-501,-505,944,-866,-869,-395,-561,-596,945,-627,-630,-633,-636,-637,-564,-639,-640,-616,-620,-623,-625,-946,-595,-558,-599,-602,-605,-607,-609,946,-856,-853,-430,-432,-687,-688,-446,-444,-526,-690,-524,-520,-531,-529,-533,-536,-694,-540,-696,-698,-930,-933,-926,-568,-546,-700,-934,-897,-703,-894,-881,-886,-896,-706,-708,-710,-177,947,-364,-678,-362,-358,-937,-940,-942,-406,-676,-673,-403,-671,-669,-666,-663,-659,-657,-654,-651,-648,-645,-643,948]],"properties":{"市区町村名":"江別市","大字名":"対雁","丁目名":null,"小字名":null,"地番":"115-1","精度区分":null,"座標系":"任意座標系"}},{"type":"Polygon","arcs":[[-949,-642,-644,-647,-650,-653,-656,-661,-662,-665,-668,-508,-402,-672,-675,-408,-941,-938,-935,-361,-677,949]],"properties":{"市区町村名":"江別市","大字名":"対雁","丁目名":null,"小字名":null,"地番":"115-108","精度区分":null,"座標系":"任意座標系"}},{"type":"Polygon","arcs":[[-766,950,951,-763,-761,-451]],"properties":{"市区町村名":"江別市","大字名":"対雁","丁目名":null,"小字名":null,"地番":"115-200","精度区分":null,"座標系":"任意座標系"}},{"type":"Polygon","arcs":[[-952,952,-764]],"properties":{"市区町村名":"江別市","大字名":"対雁","丁目名":null,"小字名":null,"地番":"115-231","精度区分":null,"座標系":"任意座標系"}},{"type":"Polygon","arcs":[[953,-129,-499,-837,-386,954,-836,-724,-835,-834,-832,-830,-828,-825,-861,-860,-863,-575,-822,-819,-816,-713,-815,-718,-725,-955,-382,-378,-839,-841,-843,-845,-847,-850,-852,-136,-159,-163,-873,-876,955,-797,-799,-802,-814,-813,-811,-809,-807,-798,-956,-875,-877,-794,-792,-398,-457,-189,-790,-734,-731,-570,-919,-922,956,-778,-728,-759,-757,-751,-750,-748,-745,-742,-739,-755,-756,-550,-765,-953,-951,-769,-772,-774,-775,-449,-777,-779,-957,-921,-924,-925,-914,-910,-907,-904,-901,-915,-783,-785,-181,-709,-681,-684,-855,-857,-947,-608,-611,-613,-870,-867,-945,-504,-594,-371,-578,-944]],"properties":{"市区町村名":"江別市","大字名":"対雁","丁目名":null,"小字名":null,"地番":"115-4","精度区分":null,"座標系":"任意座標系"}}]}},"arcs":[[[405441,879020],[-4652,24286]],[[400789,903306],[8495,3683]],[[409284,906989],[4606,-24301]],[[413890,882688],[-8449,-3668]],[[391699,873052],[-4614,24314]],[[387085,897366],[13704,5940]],[[405441,879020],[-13742,-5968]],[[321341,907492],[-605,3358]],[[320736,910850],[33781,28433]],[[354517,939283],[2919,-15784]],[[357436,923499],[-36095,-16007]],[[311672,903211],[9064,7639]],[[321341,907492],[-9669,-4281]],[[327610,871520],[-6269,35972]],[[357436,923499],[6677,-36117]],[[364113,887382],[-36503,-15862]],[[289478,854950],[-8097,22739]],[[281381,877689],[30291,25522]],[[327610,871520],[-38132,-16570]],[[257467,841039],[-4702,12616]],[[252765,853655],[28616,24034]],[[289478,854950],[-32011,-13911]],[[233883,830672],[-1948,5316]],[[231935,835988],[20830,17667]],[[257467,841039],[-23584,-10367]],[[216819,823169],[15116,12819]],[[233883,830672],[-17064,-7503]],[[380154,933420],[29198,13117]],[[409352,946537],[28421,-27201]],[[437773,919336],[-3381,-1464]],[[434392,917872],[-25108,-10883]],[[387085,897366],[-6931,36054]],[[392918,811930],[-12405,35055]],[[380513,846985],[28185,12426]],[[408698,859411],[9564,-26004]],[[418262,833407],[-1503,-1265]],[[416759,832142],[-23841,-20212]],[[372502,794684],[-14959,41998]],[[357543,836682],[22970,10303]],[[392918,811930],[-2451,-2077]],[[390467,809853],[-17965,-15169]],[[355667,780480],[-17367,47570]],[[338300,828050],[19243,8632]],[[372502,794684],[-10550,-8910]],[[361952,785774],[-6285,-5294]],[[339022,766453],[-19397,53449]],[[319625,819902],[18675,8148]],[[355667,780480],[-16645,-14027]],[[321027,751099],[-21176,59265]],[[299851,810364],[2160,1852],[17614,7686]],[[339022,766453],[-17995,-15354]],[[301730,734634],[-19828,60336]],[[281902,794970],[17949,15394]],[[321027,751099],[-19297,-16465]],[[284985,720345],[-21070,59199]],[[263915,779544],[17987,15426]],[[301730,734634],[-16745,-14289]],[[266538,704739],[-21008,59171]],[[245530,763910],[18385,15634]],[[284985,720345],[-18447,-15606]],[[248403,689400],[-6854,19594]],[[241549,708994],[-13892,39713]],[[227657,748707],[17873,15203]],[[266538,704739],[-18135,-15339]],[[139974,598431],[-21406,57693]],[[118568,656124],[18006,15313]],[[136574,671437],[14325,-39255]],[[150899,632182],[6805,-18650]],[[157704,613532],[-17730,-15101]],[[121606,582938],[-21245,57698]],[[100361,640636],[18207,15488]],[[139974,598431],[-18368,-15493]],[[108749,571950],[-33923,34854]],[[74826,606804],[45,12151],[25490,21681]],[[121606,582938],[-12857,-10988]],[[434392,917872],[9026,-9356],[-757,-13222],[-28771,-12606]],[[368649,862846],[-4536,24536]],[[364113,887382],[22972,9984]],[[391699,873052],[-23050,-10206]],[[331955,846600],[-4345,24920]],[[368649,862846],[-36694,-16246]],[[297888,831940],[-8410,23010]],[[331955,846600],[-34067,-14660]],[[269550,807977],[-12083,33062]],[[297888,831940],[-28338,-23963]],[[248698,790275],[-14815,40397]],[[269550,807977],[-20852,-17702]],[[230813,775091],[-16727,45762]],[[214086,820853],[2733,2316]],[[248698,790275],[-17885,-15184]],[[214283,761151],[-16633,45901]],[[197650,807052],[16436,13801]],[[230813,775091],[-16530,-13940]],[[197470,746975],[-16629,45967]],[[180841,792942],[16809,14110]],[[214283,761151],[-16813,-14176]],[[180911,733062],[-16629,45979]],[[164282,779041],[16559,13901]],[[197470,746975],[-16559,-13913]],[[164390,719182],[-16695,45935]],[[147695,765117],[16587,13924]],[[180911,733062],[-16521,-13880]],[[147655,704991],[-16966,45849]],[[130689,750840],[17006,14277]],[[164390,719182],[-16735,-14191]],[[130919,690802],[-16732,46184]],[[114187,736986],[16502,13854]],[[147655,704991],[-16736,-14189]],[[114298,676708],[-17027,45937]],[[97271,722645],[16916,14341]],[[130919,690802],[-16621,-14094]],[[97470,662558],[-16577,46205]],[[80893,708763],[16378,13882]],[[114298,676708],[-16828,-14150]],[[80874,648605],[-16933,45865]],[[63941,694470],[16952,14293]],[[97470,662558],[-16596,-13953]],[[64321,634419],[-16820,46189]],[[47501,680608],[16440,13862]],[[80874,648605],[-16553,-14186]],[[52184,630068],[-29128,29928]],[[23056,659996],[24445,20612]],[[64321,634419],[-5142,-4406],[-6995,55]],[[354517,939283],[33277,27885]],[[387794,967168],[21558,-20631]],[[380154,933420],[-22718,-9921]],[[105454,569265],[-19619,-16761],[-85835,87817],[23056,19675]],[[52184,630068],[22642,-23264]],[[108749,571950],[-3295,-2685]],[[476351,882342],[-38578,36994]],[[387794,967168],[3674,3081],[88756,-84561]],[[480224,885688],[-3873,-3346]],[[408698,859411],[57967,25553],[6852,-2098],[1597,-1593]],[[475114,881273],[-33172,-27921]],[[441942,853352],[-23680,-19945]],[[399598,711501],[-17064,15472]],[[382534,726973],[11641,29255]],[[394175,756228],[2543,6390],[9806,10042]],[[406524,772660],[24816,25414]],[[431340,798074],[24052,24631]],[[455392,822705],[11795,12080],[12437,31136],[-4510,15352]],[[475114,881273],[1237,1069]],[[476351,882342],[38882,-35241]],[[515233,847101],[-724,-1845]],[[514509,845256],[-14153,13002],[-9320,-4092],[-13738,-34193]],[[477298,819973],[-23769,-24382]],[[453529,795591],[-20860,-21493]],[[432669,774098],[-4919,-5022]],[[427750,769076],[-20916,-21357]],[[406834,747719],[-9395,-23559],[2159,-12659]],[[455392,822705],[-13450,30647]],[[431340,798074],[-14581,34068]],[[406524,772660],[-16057,37193]],[[394175,756228],[-32223,29546]],[[347890,758405],[-8868,8048]],[[382534,726973],[-34644,31432]],[[406834,747719],[24323,-21993]],[[431157,725726],[-12524,-31487]],[[418633,694239],[-19035,17262]],[[431157,725726],[3876,-3508]],[[435033,722218],[22935,-20738]],[[457968,701480],[-12448,-31620]],[[445520,669860],[-26887,24379]],[[427750,769076],[18815,-17348],[-11532,-29510]],[[432669,774098],[39610,-36274]],[[472279,737824],[-4348,-11042]],[[467931,726782],[-9963,-25302]],[[453529,795591],[30349,-28302]],[[483878,767289],[-2561,-6505]],[[481317,760784],[-9038,-22960]],[[477298,819973],[20106,-18307]],[[497404,801666],[-3157,-8045]],[[494247,793621],[-10369,-26332]],[[735484,647133],[-15952,14529]],[[719532,661662],[2095,5104]],[[721627,666766],[15831,-14359]],[[737458,652407],[-1974,-5274]],[[480224,885688],[36996,-33452]],[[517220,852236],[-1987,-5135]],[[719532,661662],[-10945,9968]],[[708587,671630],[-31279,28286]],[[677308,699916],[-32061,29143]],[[645247,729059],[-26663,24238]],[[618584,753297],[-24433,22210]],[[594151,775507],[2017,5043]],[[596168,780550],[125459,-113784]],[[594151,775507],[-2293,2086]],[[591858,777593],[-24166,21927]],[[567692,799520],[-18871,17123]],[[548821,816643],[-14235,12916]],[[534586,829559],[-19353,17542]],[[517220,852236],[78948,-71686]],[[514509,845256],[-17105,-43590]],[[714194,689159],[-70176,63273]],[[644018,752432],[2055,5208]],[[646073,757640],[69967,-63807]],[[716040,693833],[-1846,-4674]],[[727582,683307],[-1773,-4700],[-11615,10552]],[[716040,693833],[11542,-10526]],[[644018,752432],[-135361,122373]],[[508657,874805],[1461,7000]],[[510118,881805],[135955,-124165]],[[728149,684811],[-567,-1504]],[[510118,881805],[1581,-477]],[[511699,881328],[24504,-22388]],[[536203,858940],[17797,-16259]],[[554000,842681],[28890,-26211],[6842,543]],[[589732,817013],[21525,1786]],[[611257,818799],[21569,1787]],[[632826,820586],[22083,1703]],[[654909,822289],[21660,1671]],[[676569,823960],[21231,1441]],[[697800,825401],[22209,1509]],[[720009,826910],[13171,893],[3530,3537],[17023,49066]],[[753733,880406],[12400,35653],[-5892,14131],[-26388,-2128]],[[733853,928062],[-21434,-1920]],[[712419,926142],[-22235,-1742]],[[690184,924400],[-21500,-1685]],[[668684,922715],[-21725,-1700]],[[646959,921015],[-21230,-1587]],[[625729,919428],[-21438,-1601]],[[604291,917827],[-22209,-1797]],[[582082,916030],[-21235,-1716]],[[560847,914314],[-21597,-1821]],[[539250,912493],[-20820,-1663],[-4590,-3149],[-4638,-12620],[2497,-13733]],[[510118,881805],[-39087,37285]],[[471031,919090],[18792,-16411],[7851,3105]],[[497674,905784],[10270,24495],[14293,1213]],[[522237,931492],[24378,2072]],[[546615,933564],[24049,2041]],[[570664,935605],[24644,2093]],[[595308,937698],[23902,1792]],[[619210,939490],[23789,1781]],[[642999,941271],[24573,2023]],[[667572,943294],[25216,2072]],[[692788,945366],[24861,2046]],[[717649,947412],[25256,2340]],[[742905,949752],[25093,1975]],[[767998,951727],[5014,-11931]],[[773012,939796],[3709,-8831]],[[776721,930965],[5302,-12622],[-1905,-5486]],[[780118,912857],[-12435,-35781]],[[767683,877076],[-12152,-34843]],[[755531,842233],[-11807,-33858]],[[743724,808375],[-9504,-843]],[[734220,807532],[-20820,-1625]],[[713400,805907],[-20498,-1600]],[[692902,804307],[-21199,-1929]],[[671703,802378],[-20830,-1789]],[[650873,800589],[-29487,-2533],[-2386,-14697],[29509,-26651]],[[648509,756708],[19463,-17579]],[[667972,739129],[24712,-22320]],[[692684,716809],[18060,-16293]],[[710744,700516],[17405,-15705]],[[554000,842681],[8535,21364]],[[562535,864045],[21583,1944]],[[584118,865989],[4022,365]],[[588140,866354],[1592,-49341]],[[588140,866354],[17834,1519]],[[605974,867873],[3886,330]],[[609860,868203],[1397,-49404]],[[609860,868203],[17316,1475]],[[627176,869678],[3869,330]],[[631045,870008],[1781,-49422]],[[631045,870008],[18185,1567]],[[649230,871575],[3905,338]],[[653135,871913],[1774,-49624]],[[653135,871913],[17745,1435]],[[670880,873348],[3851,312]],[[674731,873660],[1838,-49700]],[[674731,873660],[17481,1415]],[[692212,875075],[3895,314]],[[696107,875389],[1693,-49988]],[[696107,875389],[18073,1640]],[[714180,877029],[3929,356]],[[718109,877385],[1900,-50475]],[[718109,877385],[17182,1457]],[[735291,878842],[18442,1564]],[[735291,878842],[-1438,49220]],[[714180,877029],[-1761,49113]],[[692212,875075],[-2028,49325]],[[670880,873348],[-2196,49367]],[[649230,871575],[-2271,49440]],[[627176,869678],[-1447,49750]],[[605974,867873],[-1683,49954]],[[584118,865989],[-2036,50041]],[[562535,864045],[-1688,50269]],[[536203,858940],[4331,10966],[-1284,42587]],[[751332,746244],[-23183,-61433]],[[710744,700516],[22655,57827]],[[733399,758343],[2790,280]],[[736189,758623],[15143,-12379]],[[692684,716809],[15287,39063]],[[707971,755872],[6867,621]],[[714838,756493],[18561,1850]],[[667972,739129],[5409,13743]],[[673381,752872],[20947,1769]],[[694328,754641],[13643,1231]],[[650873,800589],[1248,-34722],[-3612,-9159]],[[671703,802378],[1678,-49506]],[[692902,804307],[1426,-49666]],[[713400,805907],[1438,-49414]],[[734220,807532],[1969,-48909]],[[767726,789688],[-16394,-43444]],[[743724,808375],[24002,-18687]],[[780440,823381],[-12714,-33693]],[[755531,842233],[24909,-18852]],[[793594,858127],[-13154,-34746]],[[767683,877076],[25911,-18949]],[[806603,892496],[-13009,-34369]],[[780118,912857],[26485,-20361]],[[827010,946401],[-20407,-53905]],[[776721,930965],[14045,12510],[36244,2926]],[[773012,939796],[15447,13893],[4626,920],[-1120,41683]],[[791965,996292],[55458,3707],[-20413,-53598]],[[767998,951727],[-1394,43046]],[[766604,994773],[25361,1519]],[[741541,993067],[25063,1706]],[[742905,949752],[-1364,43315]],[[716214,991343],[25327,1724]],[[717649,947412],[-1435,43931]],[[691050,989627],[25164,1716]],[[692788,945366],[-1738,44261]],[[666125,987977],[24925,1650]],[[667572,943294],[-1447,44683]],[[641576,986347],[24549,1630]],[[642999,941271],[-1423,45076]],[[617886,984778],[23690,1569]],[[619210,939490],[-1324,45288]],[[593518,983256],[24368,1522]],[[595308,937698],[-1790,45558]],[[568999,981726],[24519,1530]],[[570664,935605],[-1665,46121]],[[545145,980238],[18024,1124]],[[563169,981362],[-17752,-9759]],[[545417,971603],[-272,8635]],[[563169,981362],[5830,364]],[[546615,933564],[-1198,38039]],[[520901,978724],[24244,1514]],[[545417,971603],[-24023,-10277]],[[521394,961326],[-493,17398]],[[522237,931492],[-843,29834]],[[495178,976969],[2579,178]],[[497757,977147],[-2548,-1059]],[[495209,976088],[-31,881]],[[497757,977147],[23144,1577]],[[521394,961326],[-25287,-10820]],[[496107,950506],[-898,25582]],[[497674,905784],[-1567,44722]],[[416190,971399],[78988,5570]],[[495209,976088],[-58491,-24269]],[[436718,951819],[-20528,19580]],[[456058,933370],[-19340,18449]],[[496107,950506],[-40049,-17136]],[[508657,874805],[-99738,96080],[7271,514]],[[456058,933370],[14973,-14280]],[[958977,389863],[-29571,45358]],[[929406,435221],[3036,4575]],[[932442,439796],[17649,-26895],[10348,15682]],[[960439,428583],[13792,-21029]],[[974231,407554],[-15254,-17691]],[[932442,439796],[10381,15645]],[[942823,455441],[17616,-26858]],[[946693,461270],[7777,11718]],[[954470,472988],[24580,-22451]],[[979050,450537],[-12873,-19030],[-19484,29763]],[[436288,314379],[2852,-2945]],[[439140,311434],[-24302,-53938]],[[414838,257496],[21450,56883]],[[548514,165898],[-31348,32186]],[[517166,198084],[8851,22708]],[[526017,220792],[32164,-32956]],[[558181,187836],[-9667,-21938]],[[192719,566585],[-16137,46619]],[[176582,613204],[8736,7440]],[[185318,620644],[7747,6597]],[[193065,627241],[16375,-46554]],[[209440,580687],[-16721,-14102]],[[176199,552653],[-16554,46142]],[[159645,598795],[2625,2222]],[[162270,601017],[14312,12187]],[[192719,566585],[-16520,-13932]],[[159954,538771],[-16668,46171]],[[143286,584942],[1290,1090]],[[144576,586032],[15069,12763]],[[176199,552653],[-16245,-13882]],[[600665,144300],[-21285,21812]],[[579380,166112],[10105,22672]],[[589485,188784],[18284,-18773],[13950,31681]],[[621719,201692],[3047,-3118]],[[624766,198574],[-24101,-54274]],[[574606,275750],[18657,48047]],[[593263,323797],[16707,-15066]],[[609970,308731],[-19355,-49344]],[[590615,259387],[-16009,16363]],[[533855,768604],[-17494,15900],[2295,5674]],[[518656,790178],[17454,-15808]],[[536110,774370],[-2255,-5766]],[[881087,271663],[-14060,22386]],[[867027,294049],[1300,1921]],[[868327,295970],[14097,-22227]],[[882424,273743],[-1337,-2080]],[[843280,305445],[9736,14671]],[[853016,320116],[15311,-24146]],[[867027,294049],[-10473,16675],[-8871,-12315],[-4403,7036]],[[889827,375582],[12575,18949]],[[902402,394531],[25952,-40185]],[[928354,354346],[-14069,-16316]],[[914285,338030],[-24458,37552]],[[159425,690862],[4477,3796]],[[163902,694658],[14361,-39089]],[[178263,655569],[-4350,-3681]],[[173913,651888],[-14488,38974]],[[642092,101854],[-20446,20948]],[[621646,122802],[13901,30809]],[[635547,153611],[30432,-30625]],[[665979,122986],[-23887,-21132]],[[716737,510312],[-20723,18687]],[[696014,528999],[10710,27262]],[[706724,556261],[26420,-24026]],[[733144,532235],[-10667,-27097]],[[722477,505138],[-5740,5174]],[[704850,480169],[-2869,2641]],[[701981,482810],[-17709,16297]],[[684272,499107],[9123,23225]],[[693395,522332],[2619,6667]],[[716737,510312],[-11887,-30143]],[[671158,465726],[13114,33381]],[[701981,482810],[-13040,-33222]],[[688941,449588],[-17783,16138]],[[704850,480169],[-13074,-33153]],[[691776,447016],[-2835,2572]],[[749281,480965],[-20913,18860]],[[728368,499825],[-5891,5313]],[[733144,532235],[26749,-24328]],[[759893,507907],[-10612,-26942]],[[737460,450959],[-17999,16169]],[[719461,467128],[-3007,2703]],[[716454,469831],[11914,29994]],[[749281,480965],[-5699,-14463]],[[743582,466502],[-6122,-15543]],[[706278,433857],[13183,33271]],[[737460,450959],[-13175,-33445]],[[724285,417514],[-18007,16343]],[[703255,436597],[13199,33234]],[[706278,433857],[-3023,2740]],[[518697,474958],[-6614,6228]],[[512083,481186],[27218,67509]],[[539301,548695],[6332,-5735]],[[545633,542960],[-26936,-68002]],[[528370,427794],[-22851,21249]],[[505519,449043],[-4651,4326]],[[500868,453369],[11215,27817]],[[518697,474958],[20591,-19386]],[[539288,455572],[-10918,-27778]],[[518656,790178],[15930,39381]],[[548821,816643],[1013,-7183],[-13724,-35090]],[[150899,632182],[18367,15726]],[[169266,647908],[4647,3980]],[[173913,651888],[11405,-31244]],[[162270,601017],[-4566,12515]],[[178263,655569],[18183,15388]],[[196446,670957],[11328,-31191]],[[207774,639766],[-14709,-12525]],[[196446,670957],[18340,15556]],[[214786,686513],[4076,3425]],[[218862,689938],[11123,-31417]],[[229985,658521],[-14430,-12129]],[[215555,646392],[-7781,-6626]],[[218862,689938],[4766,4003]],[[223628,693941],[17921,15053]],[[248403,689400],[4162,-11899]],[[252565,677501],[-14485,-12176]],[[238080,665325],[-8095,-6804]],[[209728,733507],[17929,15200]],[[223628,693941],[-13900,39566]],[[182194,710165],[18306,15519]],[[200500,725684],[14286,-39171]],[[196446,670957],[-14252,39208]],[[163902,694658],[18292,15507]],[[154888,687016],[4537,3846]],[[169266,647908],[-14378,39108]],[[305725,722480],[-3995,12154]],[[321027,751099],[4269,-11949]],[[325296,739150],[-18021,-15352]],[[307275,723798],[-1550,-1318]],[[289221,708444],[-4236,11901]],[[305725,722480],[-16504,-14036]],[[270762,692843],[-4224,11896]],[[289221,708444],[-6061,-5122]],[[283160,703322],[-12398,-10479]],[[270762,692843],[-10295,-8698]],[[260467,684145],[-7902,-6644]],[[136574,671437],[18314,15579]],[[144576,586032],[-4602,12399]],[[126196,570468],[-4590,12470]],[[143286,584942],[-17090,-14474]],[[126196,570468],[-8772,-7430]],[[117424,563038],[-8675,8912]],[[551959,226320],[14169,32268]],[[566128,258588],[16009,-16387]],[[582137,242201],[-14161,-32137]],[[567976,210064],[-16017,16256]],[[534915,243621],[11173,28666]],[[546088,272287],[6046,621],[13994,-14320]],[[551959,226320],[-17044,17301]],[[849599,268305],[17428,25744]],[[881087,271663],[-16845,-26221]],[[864242,245442],[-14643,22863]],[[618974,81404],[-31753,32619]],[[587221,114023],[13444,30277]],[[600665,144300],[20981,-21498]],[[642092,101854],[-23118,-20450]],[[796530,418662],[-13400,12009]],[[783130,430671],[16311,41269]],[[799441,471940],[13195,-12001]],[[812636,459939],[-16106,-41277]],[[748600,395451],[19093,49055],[2233,-2002]],[[769926,442504],[-19214,-48971]],[[750712,393533],[-2112,1918]],[[744287,399362],[35532,90422]],[[779819,489784],[6382,-5803]],[[786201,483981],[-16275,-41477]],[[748600,395451],[-4313,3911]],[[743582,466502],[15304,-13922],[-19525,-48746]],[[739361,403834],[-15076,13680]],[[763769,381684],[19361,48987]],[[796530,418662],[-19221,-49265]],[[777309,369397],[-13540,12287]],[[769926,442504],[13204,-11833]],[[763769,381684],[-13057,11849]],[[796530,418662],[2062,-1850],[-19361,-49160]],[[779231,367652],[-1922,1745]],[[812636,459939],[6598,-6002]],[[819234,453937],[-35402,-90461]],[[783832,363476],[-4601,4176]],[[788223,359492],[19161,49223],[15690,-14181]],[[823074,394534],[-1376,-3529]],[[821698,391005],[-17830,-45713]],[[803868,345292],[-15645,14200]],[[886262,478139],[745,1915]],[[887007,480054],[13240,-12376]],[[900247,467678],[-718,-1713],[-13267,12174]],[[913950,454867],[-13703,12811]],[[900247,467678],[846,2025],[14095,-12970]],[[915188,456733],[-1238,-1866]],[[543020,338177],[-35935,33381]],[[507085,371558],[3486,9041]],[[510571,380599],[36003,-33284]],[[546574,347315],[-3554,-9138]],[[492200,332953],[-23178,21417]],[[469022,354370],[18373,47656]],[[487395,402026],[23176,-21427]],[[507085,371558],[-14885,-38605]],[[636618,249736],[-21185,19211]],[[615433,268947],[10057,25791]],[[625490,294738],[21204,-19119]],[[646694,275619],[-10076,-25883]],[[609970,308731],[15520,-13993]],[[615433,268947],[-9740,-24972]],[[605693,243975],[-15078,15412]],[[778807,286510],[-23242,21139]],[[755565,307649],[12718,32579]],[[768283,340228],[23469,-21424]],[[791752,318804],[-12945,-32294]],[[900976,435313],[-23258,20901]],[[877718,456214],[8544,21925]],[[913950,454867],[-12974,-19554]],[[549122,668115],[-27947,25165]],[[521175,693280],[9252,23594]],[[530427,716874],[27839,-25317]],[[558266,691557],[-9144,-23442]],[[305277,448499],[10838,24290]],[[316115,472789],[16152,-16266],[13474,30531]],[[345741,487054],[5552,-5682]],[[351293,481372],[-24393,-54861]],[[326900,426511],[-21623,21988]],[[507268,172683],[9898,25401]],[[548514,165898],[-14165,-32142]],[[534349,133756],[-24166,25231],[-2915,13696]],[[558181,187836],[21199,-21724]],[[579380,166112],[-24144,-54164]],[[555236,111948],[-20887,21808]],[[587221,114023],[-10762,-24233]],[[576459,89790],[-21223,22158]],[[618974,81404],[-16073,-14220],[-3848,-982],[-22594,23588]],[[635547,153611],[10473,23211]],[[646020,176822],[31342,-32077],[-1059,-12627],[-10324,-9132]],[[624766,198574],[21254,-21752]],[[589485,188784],[14051,31519]],[[603536,220303],[18183,-18611]],[[558181,187836],[9795,22228]],[[582137,242201],[21399,-21898]],[[526017,220792],[8898,22829]],[[636618,249736],[-8794,-22588]],[[627824,227148],[-4358,-1341],[-17773,18168]],[[609970,308731],[13295,33897]],[[623265,342628],[36551,-33303]],[[659816,309325],[-13122,-33706]],[[623265,342628],[13142,33499]],[[636407,376127],[36527,-33103]],[[672934,343024],[-13118,-33699]],[[636407,376127],[13206,33664]],[[649613,409791],[36408,-33150]],[[686021,376641],[-13087,-33617]],[[649613,409791],[11062,28205]],[[660675,437996],[33885,-30691],[671,-7008],[-9210,-23656]],[[612753,443353],[7887,20222]],[[620640,463575],[8398,3073],[31637,-28652]],[[649613,409791],[-36860,33562]],[[599558,409521],[13195,33832]],[[636407,376127],[-36849,33394]],[[586525,376104],[13033,33417]],[[623265,342628],[-36740,33476]],[[710344,294104],[-30106,27000]],[[680238,321104],[13214,33908]],[[693452,355012],[30242,-26850]],[[723694,328162],[-13350,-34058]],[[697240,260673],[-30035,26984]],[[667205,287657],[13033,33447]],[[710344,294104],[-13104,-33431]],[[680357,217602],[-30115,26527]],[[650242,244129],[16963,43528]],[[697240,260673],[-16883,-43071]],[[639188,215762],[11054,28367]],[[680357,217602],[-14215,-36263]],[[666142,181339],[-25197,25909],[-1757,8514]],[[697240,260673],[29606,-26601]],[[726846,234072],[31150,-27987]],[[757996,206085],[-4643,-6971],[-54948,-47937],[-3455,540],[-28808,29622]],[[726846,234072],[15469,39632]],[[742315,273704],[37813,-34395]],[[780128,239309],[-22132,-33224]],[[742315,273704],[13250,33945]],[[778807,286510],[20401,-18559]],[[799208,267951],[-19080,-28642]],[[791752,318804],[21956,-20042],[588,-8160],[-15088,-22651]],[[723694,328162],[15235,38864]],[[738929,367026],[29354,-26798]],[[693452,355012],[13383,34345],[5838,1637],[26256,-23968]],[[648323,82793],[21699,-58070]],[[670022,24723],[-16751,-14202]],[[653271,10521],[-34613,35676],[-1419,9410],[31084,27186]],[[692600,43860],[-22578,-19137]],[[648323,82793],[22251,19460]],[[670574,102253],[22026,-58393]],[[715316,63116],[-22716,-19256]],[[670574,102253],[22428,19614]],[[693002,121867],[22314,-58751]],[[737629,82031],[-22313,-18915]],[[693002,121867],[22574,19745]],[[715576,141612],[22053,-59581]],[[759948,100951],[-22319,-18920]],[[715576,141612],[22577,19743]],[[738153,161355],[21795,-60404]],[[783287,120911],[-23339,-19960]],[[738153,161355],[22642,19803]],[[760795,181158],[22492,-60247]],[[760795,181158],[18597,28021]],[[779392,209179],[30738,-47973]],[[810130,161206],[-24719,-38480],[-2124,-1815]],[[828146,189250],[-18016,-28044]],[[779392,209179],[18212,27445]],[[797604,236624],[30542,-47374]],[[846069,217151],[-17923,-27901]],[[797604,236624],[18220,27450]],[[815824,264074],[30245,-46923]],[[864242,245442],[-18173,-28291]],[[815824,264074],[18566,27977]],[[834390,292051],[15209,-23746]],[[834390,292051],[8890,13394]],[[900910,302522],[-18486,-28779]],[[853016,320116],[18463,27820]],[[871479,347936],[29431,-45414]],[[914285,338030],[-13375,-35508]],[[871479,347936],[18348,27646]],[[997087,434061],[-22856,-26507]],[[942823,455441],[3870,5829]],[[979050,450537],[18037,-16476]],[[706724,556261],[-36878,33538]],[[669846,589799],[13249,33960]],[[683095,623759],[36823,-33913]],[[719918,589846],[-13194,-33585]],[[656470,555514],[13376,34285]],[[693395,522332],[-36925,33182]],[[722477,505138],[-24939,-63351]],[[697538,441787],[-5762,5229]],[[703255,436597],[-5717,5190]],[[759893,507907],[19926,-18123]],[[744287,399362],[-4926,4472]],[[786201,483981],[13240,-12041]],[[819234,453937],[19939,-18131]],[[839173,435806],[-16099,-41272]],[[788223,359492],[-4391,3984]],[[821698,391005],[31061,-28362]],[[852759,362643],[-21885,-32983],[-8162,-1467],[-18844,17099]],[[839173,435806],[38747,-35242]],[[877920,400564],[-25161,-37921]],[[887007,480054],[8674,22263]],[[895681,502317],[25226,-22821],[588,-13256],[-6307,-9507]],[[868580,526833],[-17702,-45446],[-22040,20081]],[[828838,501468],[17683,45319]],[[846521,546787],[22059,-19954]],[[793944,594350],[-34051,-86443]],[[733144,532235],[33997,86361]],[[767141,618596],[26803,-24246]],[[719918,589846],[20714,52731]],[[740632,642577],[26509,-23981]],[[683095,623759],[17283,44301],[8209,3570]],[[735484,647133],[5148,-4556]],[[248049,507263],[10478,23774]],[[258527,531037],[13823,31364]],[[272350,562401],[14681,-15150]],[[287031,547251],[-24456,-55083]],[[262575,492168],[-14526,15095]],[[241089,514496],[-14454,14755]],[[226635,529251],[-16092,16423]],[[210543,545674],[18599,15782]],[[229142,561456],[29385,-30419]],[[248049,507263],[-6960,7233]],[[202660,475425],[10256,23028]],[[212916,498453],[13719,30798]],[[241089,514496],[-24278,-53556]],[[216811,460940],[-14151,14485]],[[186494,525497],[24049,20177]],[[212916,498453],[-26422,27044]],[[474520,477898],[-27616,25715]],[[446904,503613],[19080,48749]],[[465984,552362],[28144,-25839]],[[494128,526523],[-19608,-48625]],[[530427,716874],[10954,27859]],[[541381,744733],[27757,-25331]],[[569138,719402],[-10872,-27845]],[[541381,744733],[11057,28126]],[[552438,772859],[27711,-25255]],[[580149,747604],[-11011,-28202]],[[458004,213266],[23896,53857]],[[481900,267123],[23830,-24715]],[[505730,242408],[-18914,-48573],[-7416,-2491],[-21396,21922]],[[436471,235330],[23984,54035]],[[460455,289365],[21445,-22242]],[[458004,213266],[-21533,22064]],[[439140,311434],[9533,-9847]],[[448673,301587],[11782,-12222]],[[436471,235330],[-21633,22166]],[[393770,279083],[24065,54355]],[[417835,333438],[18453,-19059]],[[414838,257496],[-21068,21587]],[[391127,361024],[26708,-27586]],[[393770,279083],[-21454,21980],[-1507,8029],[20318,51932]],[[391127,361024],[18797,47945]],[[409924,408969],[59098,-54599]],[[469022,354370],[-20349,-52783]],[[492200,332953],[35877,-33151]],[[528077,299802],[-22347,-57394]],[[543020,338177],[-14943,-38375]],[[409924,408969],[18487,47313]],[[428411,456282],[58984,-54256]],[[428411,456282],[18493,47331]],[[474520,477898],[26348,-24529]],[[505519,449043],[-9384,-24340]],[[496135,424703],[-8740,-22677]],[[496135,424703],[29183,-27243]],[[525318,397460],[-5286,-13196],[30147,-27680]],[[550179,356584],[-3605,-9269]],[[564726,393991],[-36356,33803]],[[539288,455572],[2355,5994]],[[541643,461566],[36613,-32870]],[[578256,428696],[-13530,-34705]],[[541643,461566],[13402,34102]],[[555045,495668],[36440,-33036]],[[591485,462632],[-13229,-33936]],[[555045,495668],[11236,28592]],[[566281,524260],[30741,-27843],[2460,-13269],[-7997,-20516]],[[545633,542960],[20648,-18700]],[[494128,526523],[18628,46195]],[[512756,572718],[26545,-24023]],[[465984,552362],[16238,41485],[5530,1498]],[[487752,595345],[25004,-22627]],[[648745,609269],[-37257,33884]],[[611488,643153],[13329,33924]],[[624817,677077],[37086,-34044]],[[661903,643033],[-13158,-33764]],[[624817,677077],[20430,51982]],[[677308,699916],[2152,-11833],[-17557,-45050]],[[611488,643153],[-26423,24032]],[[585065,667185],[33519,86112]],[[585065,667185],[-26799,24372]],[[580149,747604],[11709,29989]],[[552438,772859],[9893,25163],[5361,1498]],[[530827,760863],[-36580,32758]],[[533855,768604],[-3028,-7741]],[[517723,727442],[-36406,33342]],[[530827,760863],[-13104,-33421]],[[449789,553921],[-51096,45123]],[[398693,599044],[22269,56598]],[[420962,655642],[47831,-43169]],[[468793,612473],[1103,-7099],[-20107,-51453]],[[361942,672864],[16566,13930],[7077,775],[35377,-31927]],[[398693,599044],[-15997,14126],[-20754,59694]],[[360202,578909],[-25328,71161]],[[334874,650070],[27068,22794]],[[398693,599044],[-15844,-40266]],[[382849,558778],[-22647,20131]],[[433899,513270],[-28682,25569]],[[405217,538839],[-22368,19939]],[[449789,553921],[-15890,-40651]],[[378516,478752],[26701,60087]],[[433899,513270],[-23584,-60328],[-4739,-1960],[-27060,27770]],[[357147,500514],[25702,58264]],[[378516,478752],[-21369,21762]],[[335307,522756],[24895,56153]],[[357147,500514],[-21840,22242]],[[335307,522756],[-61619,63265],[-104,13005],[61290,51044]],[[229142,561456],[22023,18687],[4138,-152],[17047,-17590]],[[287031,547251],[21316,-21872]],[[308347,525379],[-24707,-54754]],[[283640,470625],[-21065,21543]],[[308347,525379],[21425,-21983]],[[329772,503396],[-13657,-30607]],[[305277,448499],[-21637,22126]],[[329772,503396],[15969,-16342]],[[324362,350354],[24152,54182]],[[348514,404536],[30606,-31251]],[[379120,373285],[-20371,-52006],[-5142,-917],[-29245,29992]],[[302847,372418],[24053,54093]],[[326900,426511],[21614,-21975]],[[324362,350354],[-21515,22064]],[[281305,394466],[23972,54033]],[[302847,372418],[-21542,22048]],[[259367,416920],[24273,53705]],[[281305,394466],[-21938,22454]],[[238649,438352],[23926,53816]],[[259367,416920],[-20718,21432]],[[238649,438352],[-21838,22588]],[[202660,475425],[-26066,26677],[357,15388],[9543,8007]],[[159954,538771],[-6261,-5350],[-7105,-348],[-29164,29965]],[[215555,646392],[16375,-46609]],[[231930,599783],[-22490,-19096]],[[238080,665325],[16556,-46266]],[[254636,619059],[-22706,-19276]],[[260467,684145],[16676,-46113]],[[277143,638032],[-22507,-18973]],[[283160,703322],[16927,-45951]],[[300087,657371],[-22944,-19339]],[[307275,723798],[15223,-47536]],[[322498,676262],[-22411,-18891]],[[325296,739150],[3341,2848]],[[328637,741998],[16961,-46221]],[[345598,695777],[-23100,-19515]],[[328637,741998],[19253,16407]],[[382534,726973],[-36936,-31196]],[[671158,465726],[-14811,13440]],[[656347,479166],[10661,26887],[-21957,20188]],[[645051,526241],[11419,29273]],[[656347,479166],[-16335,14825],[-2494,12939]],[[637518,506930],[7533,19311]],[[389930,400884],[-29374,30788]],[[360556,431672],[12274,27659]],[[372830,459331],[25430,-26156],[1048,-8346],[-9378,-23945]],[[389930,400884],[-10810,-27599]],[[348514,404536],[12042,27136]],[[351293,481372],[21537,-22041]],[[573185,341900],[14942,-13471]],[[588127,328429],[-18497,-47594]],[[569630,280835],[-11614,11870],[-509,8994]],[[557507,301699],[15678,40201]],[[588127,328429],[5136,-4632]],[[574606,275750],[-4976,5085]],[[573185,341900],[13340,34204]],[[467931,726782],[17043,-15708]],[[484974,711074],[-22328,-56679]],[[462646,654395],[-17126,15465]],[[484974,711074],[19373,-17857]],[[504347,693217],[-20561,-52170],[-4774,-1433]],[[479012,639614],[-16366,14781]],[[517723,727442],[-13376,-34225]],[[209728,733507],[-4614,-3911]],[[205114,729596],[-4614,-3912]],[[218862,689938],[-13748,39658]],[[837109,555302],[4548,-4113]],[[841657,551189],[-26625,-67874]],[[815032,483315],[-4569,4090]],[[810463,487405],[13094,33363]],[[823557,520768],[13552,34534]],[[820189,570609],[16920,-15307]],[[823557,520768],[-16947,15229]],[[806610,535997],[13579,34612]],[[810463,487405],[-16962,15182]],[[793501,502587],[13109,33410]],[[815032,483315],[4985,-4458]],[[820017,478857],[-7381,-18918]],[[786201,483981],[7300,18606]],[[841657,551189],[4864,-4402]],[[828838,501468],[-8821,-22611]],[[793944,594350],[26245,-23741]],[[868580,526833],[4505,-4077]],[[873085,522756],[-18014,-46187]],[[855071,476569],[-15898,-40763]],[[617564,591486],[17860,-16389]],[[635424,575097],[-11345,-29106]],[[624079,545991],[-17526,16748]],[[606553,562739],[11011,28747]],[[624079,545991],[-8136,-20874],[-7526,-2793],[-12875,11668]],[[595542,533992],[11011,28747]],[[598211,609243],[19353,-17757]],[[595542,533992],[-4550,4124]],[[590992,538116],[12497,31956],[-15219,13775]],[[588270,583847],[9941,25396]],[[590992,538116],[-15224,13796]],[[575768,551912],[12502,31935]],[[549367,575838],[35698,91347]],[[611488,643153],[-13277,-33910]],[[575768,551912],[-26401,23926]],[[648745,609269],[-13321,-34172]],[[549122,668115],[-8852,-22698]],[[540270,645417],[-13981,12622]],[[526289,658039],[-13983,12620]],[[512306,670659],[8869,22621]],[[526289,658039],[-17178,-45788]],[[509111,612251],[-10462,9462]],[[498649,621713],[-2157,8609],[15814,40337]],[[540270,645417],[-17688,-45351]],[[522582,600066],[-13471,12185]],[[549367,575838],[-26785,24228]],[[900976,435313],[-8971,-13520]],[[892005,421793],[-32366,28985]],[[859639,450778],[6222,16093]],[[865861,466871],[11857,-10657]],[[882810,407934],[-4890,-7370]],[[855071,476569],[10790,-9698]],[[859639,450778],[-6352,-16432],[29523,-26412]],[[892005,421793],[-9195,-13859]],[[873085,522756],[22596,-20439]],[[958977,389863],[-3477,-4032],[-6261,-7262]],[[949239,378569],[-28378,43776]],[[920861,422345],[5776,8703],[2769,4173]],[[949239,378569],[-3995,-4635],[-1734,-2012],[-3978,-4613]],[[939532,367309],[-27227,42144]],[[912305,409453],[3428,5164],[1736,2617],[3392,5111]],[[939532,367309],[-11178,-12963]],[[902402,394531],[9903,14922]],[[661492,2049],[-2295,-2049],[-156581,160713]],[[502616,160713],[4652,11970]],[[546088,272287],[11419,29412]],[[627824,227148],[11364,-11386]],[[620640,463575],[16878,43355]],[[737458,652407],[4359,11644],[838,2240],[57048,-52390],[154767,-140913]],[[653271,10521],[8221,-8472]],[[997087,434061],[2912,-2659],[-70233,-87779],[-21950,-43794],[-109886,-167292],[-57689,-60179],[-78749,-70309]],[[564726,393991],[-9386,-24136]],[[555340,369855],[-30022,27605]],[[555340,369855],[-5161,-13271]],[[502616,160713],[-397162,408552]],[[176199,552653],[10295,-27156]],[[479012,639614],[-10219,-27141]],[[498649,621713],[-10897,-26368]]],"bbox":[-34.645,76.841,545.34,458.552],"transform":{"scale":[0.0005799855799855801,0.0003817113817113817],"translate":[-34.645,76.841]}}