{"type":"Topology","objects":{"01693-4625-9.featurecollection":{"type":"GeometryCollection","geometries":[{"type":"Polygon","arcs":[[0,1,2,3]],"properties":{"市区町村名":"標津郡標津町","大字名":"字川北","丁目名":null,"小字名":null,"地番":"2671-2","精度区分":null,"座標系":"任意座標系"}},{"type":"Polygon","arcs":[[4,5,-1]],"properties":{"市区町村名":"標津郡標津町","大字名":"字川北","丁目名":null,"小字名":null,"地番":"2671-1","精度区分":null,"座標系":"任意座標系"}},{"type":"Polygon","arcs":[[-3,6]],"properties":{"市区町村名":"標津郡標津町","大字名":"字川北","丁目名":null,"小字名":null,"地番":"2671-3","精度区分":null,"座標系":"任意座標系"}},{"type":"Polygon","arcs":[[7,8]],"properties":{"市区町村名":"標津郡標津町","大字名":"字川北","丁目名":null,"小字名":null,"地番":"2670-1","精度区分":null,"座標系":"任意座標系"}},{"type":"Polygon","arcs":[[9,10,11]],"properties":{"市区町村名":"標津郡標津町","大字名":"字川北","丁目名":null,"小字名":null,"地番":"2670-3","精度区分":null,"座標系":"任意座標系"}},{"type":"Polygon","arcs":[[12,-9,-11]],"properties":{"市区町村名":"標津郡標津町","大字名":"字川北","丁目名":null,"小字名":null,"地番":"2670-2","精度区分":null,"座標系":"任意座標系"}}]}},"arcs":[[[959936,374],[573,56173],[1872,28614],[1072,27919],[-924,14251],[4657,80273]],[[967186,207604],[2532,316],[6096,-13012]],[[975814,194908],[-4245,-72528],[-1290,-79026]],[[970279,43354],[-1688,-5710],[-7629,-37644],[-1026,374]],[[959936,374],[-99853,36323],[-28713,73667],[-13896,27275],[-30920,-2561],[-21459,-19459],[-15409,-53260],[-26486,-15341],[-43819,7457],[-29664,6546],[-32758,20422],[-23020,36846],[-24039,71982],[-22156,16790],[-41066,68516],[-20157,50674],[-7661,19260],[-46020,37367],[-6655,10817]],[[426185,393695],[25994,8204],[17128,3949],[17214,-22395],[41686,-54231],[59011,-84255],[34448,12642],[20958,9436],[22940,-10620],[27833,-11264],[26505,-10723],[28648,-13258],[47200,-19911],[14711,-5378],[7660,61],[45035,3359],[35863,2293],[48157,3499],[20010,2501]],[[975814,194908],[15437,-32944],[8748,-18132],[-29720,-100478]],[[341250,482074],[-73109,54527],[-23236,52630],[-26403,-6130],[-2054,-785],[-73089,75006],[-83006,-3581],[-60353,56730],[71617,153134],[18628,39775],[14680,41007],[70979,-105553],[30470,161165],[83185,-149436],[40823,-72879],[38203,-124150],[13077,-40571],[2271,-55733],[3203,-67591]],[[387136,489639],[-31028,50436],[-7967,5505],[-6891,-63506]],[[426185,393695],[-30330,48621],[-12834,9098]],[[383021,451414],[4115,38225]],[[387136,489639],[1292,-27276],[37757,-68668]],[[383021,451414],[-41771,30660]]],"bbox":[61002.486,-30913.484,63361.094,-30116.066],"transform":{"scale":[0.002358610358610359,0.0007974187974187989],"translate":[61002.486,-30913.484]}}