{"type":"Topology","objects":{"01693-4625-12.featurecollection":{"type":"GeometryCollection","geometries":[{"type":"Polygon","arcs":[[0,1]],"properties":{"市区町村名":"標津郡標津町","大字名":"字崎無異","丁目名":null,"小字名":null,"地番":"9-3","精度区分":null,"座標系":"任意座標系"}},{"type":"Polygon","arcs":[[2,3,4,5]],"properties":{"市区町村名":"標津郡標津町","大字名":"字崎無異","丁目名":null,"小字名":null,"地番":"33","精度区分":null,"座標系":"任意座標系"}},{"type":"Polygon","arcs":[[6,7,8]],"properties":{"市区町村名":"標津郡標津町","大字名":"字崎無異","丁目名":null,"小字名":null,"地番":"19-1","精度区分":null,"座標系":"任意座標系"}},{"type":"Polygon","arcs":[[9,10,11,-9,12,13,-4,14]],"properties":{"市区町村名":"標津郡標津町","大字名":"字崎無異","丁目名":null,"小字名":null,"地番":"水-3","精度区分":null,"座標系":"任意座標系"}},{"type":"Polygon","arcs":[[-15,-3,15,16]],"properties":{"市区町村名":"標津郡標津町","大字名":"字崎無異","丁目名":null,"小字名":null,"地番":"18-1","精度区分":null,"座標系":"任意座標系"}},{"type":"Polygon","arcs":[[-16,-6,17]],"properties":{"市区町村名":"標津郡標津町","大字名":"字崎無異","丁目名":null,"小字名":null,"地番":"長狭物不明-2","精度区分":null,"座標系":"任意座標系"}},{"type":"Polygon","arcs":[[18,19,20]],"properties":{"市区町村名":"標津郡標津町","大字名":"字崎無異","丁目名":null,"小字名":null,"地番":"31","精度区分":null,"座標系":"任意座標系"}},{"type":"Polygon","arcs":[[21,22,23,24,-20]],"properties":{"市区町村名":"標津郡標津町","大字名":"字崎無異","丁目名":null,"小字名":null,"地番":"29","精度区分":null,"座標系":"任意座標系"}},{"type":"Polygon","arcs":[[25,-11]],"properties":{"市区町村名":"標津郡標津町","大字名":"字崎無異","丁目名":null,"小字名":null,"地番":"20","精度区分":null,"座標系":"任意座標系"}},{"type":"Polygon","arcs":[[-8,26,-13]],"properties":{"市区町村名":"標津郡標津町","大字名":"字崎無異","丁目名":null,"小字名":null,"地番":"32","精度区分":null,"座標系":"任意座標系"}},{"type":"Polygon","arcs":[[27,28]],"properties":{"市区町村名":"標津郡標津町","大字名":"字崎無異","丁目名":null,"小字名":null,"地番":"10-4","精度区分":null,"座標系":"任意座標系"}},{"type":"Polygon","arcs":[[29,30,31]],"properties":{"市区町村名":"標津郡標津町","大字名":"字崎無異","丁目名":null,"小字名":null,"地番":"28","精度区分":null,"座標系":"任意座標系"}},{"type":"Polygon","arcs":[[-30,32,33]],"properties":{"市区町村名":"標津郡標津町","大字名":"字崎無異","丁目名":null,"小字名":null,"地番":"30","精度区分":null,"座標系":"任意座標系"}},{"type":"Polygon","arcs":[[-33,-32,34,-22,-19,35]],"properties":{"市区町村名":"標津郡標津町","大字名":"字崎無異","丁目名":null,"小字名":null,"地番":"水-5","精度区分":null,"座標系":"任意座標系"}},{"type":"Polygon","arcs":[[-28,36,-1,37]],"properties":{"市区町村名":"標津郡標津町","大字名":"字崎無異","丁目名":null,"小字名":null,"地番":"水-7","精度区分":null,"座標系":"任意座標系"}},{"type":"Polygon","arcs":[[38,39]],"properties":{"市区町村名":"標津郡標津町","大字名":"字崎無異","丁目名":null,"小字名":null,"地番":"27-2","精度区分":null,"座標系":"任意座標系"}},{"type":"Polygon","arcs":[[-39,40,-24,41]],"properties":{"市区町村名":"標津郡標津町","大字名":"字崎無異","丁目名":null,"小字名":null,"地番":"27-1","精度区分":null,"座標系":"任意座標系"}}]}},"arcs":[[[959415,754488],[-7872,1288],[-9818,6414],[-871,5409],[-11762,5042],[-13929,430],[-3053,2962],[-18127,5448],[-7406,-5472],[-9890,5850],[-6252,3590],[-2020,8781],[-8820,3979],[-3123,-3981],[-5477,-4025],[-5779,14372],[-3764,-2954],[-12121,9528],[-4949,-5159],[-7376,5643],[-7936,-2737],[-5229,5688]],[[803841,814584],[1736,38911],[1662,33722],[2527,59916],[-8938,29940],[10172,12126],[9060,10800],[9663,-10800],[21134,-23622],[401,-448],[4724,4634],[19649,-5796],[29075,-43757],[42924,1265],[9089,18152],[15156,-588],[28124,-24262],[-5391,-24651],[-3111,-13183],[-3048,-13495],[-19851,-87922],[-6549,-14829],[-2634,-6209]],[[423633,75944],[12929,96234],[7730,59815]],[[444292,231993],[8887,-1729],[16754,2815],[9232,5200],[-1057,5863],[15132,3546],[1696,-4692],[13711,2090],[1169,3846],[10545,3368],[6463,-2371],[2671,-762],[5913,2550],[1505,861],[2304,-72],[-2957,-4774],[6011,-610],[3138,5002],[9315,1772],[3309,6541],[1790,19],[-966,-5683],[4065,289],[5499,8985],[3267,-156],[3332,3175],[3285,3013],[6429,-246],[4645,4337],[3959,-1366],[1706,696],[3435,1215],[2077,5847],[2688,-4009],[4389,2320],[2372,7857],[7837,4511],[4253,-562],[1146,7040],[12933,3574],[1917,5050],[7418,3728],[2476,8277],[12308,6250]],[[660293,324598],[-9534,-37663],[-3886,-14958],[-16460,-66693],[-5402,-21823]],[[625011,183461],[-2834,-488],[-34998,-3852],[-10240,2001],[-2641,-907],[-26365,-7594],[-959,-21642],[-472,-7720],[-261,-7655],[-19362,-4493],[-1913,-732],[-23704,-7557],[-15766,-1733],[-11882,-13157],[-11990,6738],[-22224,-17454],[-15767,-21272]],[[173117,209990],[69029,6228],[131608,-20879],[7612,16819],[12958,29302],[534,1208],[841,2088],[10701,24075],[4662,5894],[20604,25591],[20795,26224],[5958,7318],[144,-3]],[[458563,333855],[-4911,-34053],[-8301,-59946]],[[445351,239856],[-25,-210],[-16687,579],[-18878,-20267],[488,-13913],[-9972,-15683],[-4078,-2953],[-1046,-930],[-1272,-921],[-5005,-13087],[-7129,-7733],[-361,-6008],[-7554,-5945],[-12095,7769],[-4864,-4669],[-19453,-1775],[-10383,12641],[-8190,-6283],[-17929,5152],[-19109,-4473],[-6445,6577],[-14709,3183],[-10810,-7090],[-7138,-1543],[-8984,9987],[-10131,3748],[-4308,8831],[-12897,4856],[-6023,10145],[-27247,10149]],[[97421,173185],[3950,3035]],[[101371,176220],[6073,-1867],[27993,8071],[8161,-4456],[7458,5278],[10515,-515],[8844,8715],[9824,1718],[5566,-3135],[9157,6521],[-7225,1754],[-6371,4401],[-12838,436],[-254,6186]],[[168274,209327],[4843,663]],[[445351,239856],[7960,-583],[9707,2297],[11027,5248],[187,1798],[8586,3133],[6269,2566],[2169,-2196],[15379,-54],[2191,3467],[8806,3417],[11009,-167],[3969,3295],[3503,-371],[2596,-2244],[12586,2251],[1471,3019],[11282,1284],[1702,4244],[7844,3564],[10498,4400],[1082,3862],[18109,7486],[-13,-3044],[13055,10158],[791,5046],[10995,5684],[3192,7036],[2054,4916],[12032,4804],[1441,7994]],[[646830,332166],[13463,-7568]],[[444292,231993],[-12834,883],[-15705,-16841],[888,-12168],[-4961,-7599],[-5453,-8697],[-6952,-4531],[-2607,-7424],[-1869,-5962],[-7079,-7282],[-753,-7003],[-6899,-6242],[-4609,-3925],[-1899,1200],[-1128,547],[-8744,5674],[-3856,-3762],[-24113,-1826],[-9747,11168],[-4910,-3973],[-20211,5820],[-20378,-4797],[-7172,6681],[-12265,2867],[-8237,-5637],[-12698,-1001],[-9968,10635],[-9865,3619],[-3919,8269],[-13911,5492],[-3722,6401],[-13201,-8195],[-4263,3022],[-10261,-1577],[-6471,-7160],[-11432,554],[-8957,-5952],[-8850,4593],[-27659,-7721],[-10201,3042]],[[423633,75944],[-416,-2859]],[[423217,73085],[-27120,2627],[-1773,-1349],[-10707,-8144],[-11294,-6822],[-10394,-10238],[-10538,-4736],[-9790,-10421],[-12819,-3673],[-14932,-5497],[-10543,-140],[-10631,3109],[-7089,10032],[-10919,-4541],[-10412,2784],[-22110,-1270],[-4414,-254],[-35415,-6432],[-17373,-3439],[-2305,-176],[-5020,234],[-10330,824],[-15795,7369],[-13672,584],[-9843,-738],[-5739,1810],[-1349,6313],[-12291,6072],[-10491,-878],[-8140,1630],[-2271,455],[-16248,-10043],[-8278,-7843],[-9432,-1405],[-1256,-121],[-5232,-3636],[-1257,-649],[-2722,-1911],[-21901,-8238],[628,-9811],[-22000,-4523],[1450,29278],[44640,67988],[24383,37242],[19496,29777],[327,500],[1304,2354],[1892,2917],[3929,3129]],[[625011,183461],[-422,-1414],[-35489,-4069],[-12120,1948],[-28239,-8593],[-1264,-36825],[-32,-919],[-943,125],[-19490,-3893],[-24719,-8255],[-16504,-2057],[-11790,-13324],[-12673,6967],[-3202,-2563],[-2795,-2454],[-4620,-3556],[-3791,-2798],[-4104,-3242],[-2364,-1791],[-494,-443],[-319,-677],[-867,-1739],[-2139,-2976],[-8156,-10909],[-5258,-6919]],[[654645,447360],[-6722,34920],[-3005,8100],[-2682,7880],[-3251,18289]],[[638985,516549],[29985,-12412],[17775,-7100],[19489,-8055]],[[706234,488982],[56830,-119451],[-64385,46222],[-12292,8825],[-31742,22782]],[[638985,516549],[-7648,35622],[-6172,5199]],[[625165,557370],[-601,4484],[-55,407],[163,22114]],[[624672,584375],[35444,-15652],[34177,-14868],[19348,-8652]],[[713641,545203],[-7407,-56221]],[[101371,176220],[39192,30915],[27711,2192]],[[458563,333855],[24543,-1025],[10030,-4976],[2582,-1405],[1001,-361],[14532,2490],[4806,-7303],[7716,-11313],[4983,-389],[3010,5181],[4070,4780],[10666,-1444],[858,-116],[4369,8390],[19613,-2564],[1498,2647],[19396,-1268],[13266,-1061],[2449,4274],[7396,-426],[2685,4233],[18117,-1262],[10681,1229]],[[803486,808176],[3811,-4917],[10568,3343],[6658,-5639],[5083,5249],[9433,-12196],[4958,3537],[6860,-14011],[4830,4844],[4824,5187],[5110,-2076],[2313,-10598],[4467,-936],[11890,-9537],[5486,4655],[21297,-3135],[2456,-5748],[4917,3193],[12740,-2476],[7191,-2936],[3217,-10040],[2828,-758],[8823,-2083],[4305,-6122]],[[957551,744976],[-10000,-43509],[-23319,-102657],[-22274,18615],[-23331,19322],[-23526,24836],[-4244,4692],[0,1067],[-29798,31871],[-11932,6904],[-5284,789],[-5454,565],[3445,68055],[1652,32650]],[[637586,517019],[-7162,2918]],[[630424,519937],[-4983,35372],[-27,195]],[[625414,555504],[5306,-5151],[6866,-33334]],[[637586,517019],[3222,-19331],[5811,-16732],[3309,-16515],[2844,-15777]],[[652772,448664],[-13422,9342],[-8916,61856],[-10,75]],[[625414,555504],[-249,1866]],[[654645,447360],[-1873,1304]],[[803486,808176],[355,6408]],[[959415,754488],[-1864,-9512]],[[720348,596111],[-95045,40673]],[[625303,636784],[252,13064],[31350,12218],[41774,11952],[12501,3576],[21024,6275],[-10185,-75078],[-1671,-12680]],[[720348,596111],[-4513,-34257],[-2194,-16651]],[[624672,584375],[124,26089],[507,26320]]],"bbox":[29091.169,893.627,34611.03,6228.884],"transform":{"scale":[0.005519866519866517,0.005335262335262335],"translate":[29091.169,893.627]}}