{"type":"Topology","objects":{"01693-4625-8":{"type":"GeometryCollection","geometries":[{"type":"MultiPolygon","arcs":[[[0,1,2,3,4]]],"properties":{"筆ID":"H000000001","version":"ver1.0","座標系":"任意座標系","測地系判別":null,"地図名":"H22462501693061","地図番号":"開L-3-1","縮尺分母":"2500","市区町村コード":"01693","市区町村名":"標津郡標津町","大字コード":"000","丁目コード":"000","小字コード":"0000","予備コード":"00","大字名":null,"丁目名":null,"小字名":null,"予備名":null,"地番":"地区外-521789","精度区分":null,"座標値種別":"図上測量","筆界未定構成筆":null,"代表点緯度":3984.5125,"代表点経度":5875}},{"type":"MultiPolygon","arcs":[[[5,6,7,8,9,10]]],"properties":{"筆ID":"H000000002","version":"ver1.0","座標系":"任意座標系","測地系判別":null,"地図名":"H22462501693061","地図番号":"開L-3","縮尺分母":"2500","市区町村コード":"01693","市区町村名":"標津郡標津町","大字コード":"003","丁目コード":"000","小字コード":"0000","予備コード":"00","大字名":"字忠類","丁目名":null,"小字名":null,"予備名":null,"地番":"290-1","精度区分":null,"座標値種別":"図上測量","筆界未定構成筆":null,"代表点緯度":5269.541,"代表点経度":5097.85679627}},{"type":"MultiPolygon","arcs":[[[11,12,13,14]]],"properties":{"筆ID":"H000000003","version":"ver1.0","座標系":"任意座標系","測地系判別":null,"地図名":"H22462501693061","地図番号":"開L-3-1","縮尺分母":"2500","市区町村コード":"01693","市区町村名":"標津郡標津町","大字コード":"003","丁目コード":"000","小字コード":"0000","予備コード":"00","大字名":"字忠類","丁目名":null,"小字名":null,"予備名":null,"地番":"297-3","精度区分":null,"座標値種別":"図上測量","筆界未定構成筆":null,"代表点緯度":4744.852,"代表点経度":6134.309056896}},{"type":"MultiPolygon","arcs":[[[-12,15,-3,16]]],"properties":{"筆ID":"H000000004","version":"ver1.0","座標系":"任意座標系","測地系判別":null,"地図名":"H22462501693061","地図番号":"開L-3-1","縮尺分母":"2500","市区町村コード":"01693","市区町村名":"標津郡標津町","大字コード":"003","丁目コード":"000","小字コード":"0000","予備コード":"00","大字名":"字忠類","丁目名":null,"小字名":null,"予備名":null,"地番":"297-1","精度区分":null,"座標値種別":"図上測量","筆界未定構成筆":null,"代表点緯度":4727.994,"代表点経度":6176.804324753}},{"type":"MultiPolygon","arcs":[[[17,18,-13,-17,-2]]],"properties":{"筆ID":"H000000005","version":"ver1.0","座標系":"任意座標系","測地系判別":null,"地図名":"H22462501693061","地図番号":"開L-3-1","縮尺分母":"2500","市区町村コード":"01693","市区町村名":"標津郡標津町","大字コード":"003","丁目コード":"000","小字コード":"0000","予備コード":"00","大字名":"字忠類","丁目名":null,"小字名":null,"予備名":null,"地番":"297-2","精度区分":null,"座標値種別":"図上測量","筆界未定構成筆":null,"代表点緯度":4482.186,"代表点経度":6048.814124262}},{"type":"MultiPolygon","arcs":[[[19,20,21,22,23,24]]],"properties":{"筆ID":"H000000006","version":"ver1.0","座標系":"任意座標系","測地系判別":null,"地図名":"H22462501693061","地図番号":"開L-3","縮尺分母":"2500","市区町村コード":"01693","市区町村名":"標津郡標津町","大字コード":"003","丁目コード":"000","小字コード":"0000","予備コード":"00","大字名":"字忠類","丁目名":null,"小字名":null,"予備名":null,"地番":"291-2","精度区分":null,"座標値種別":"図上測量","筆界未定構成筆":null,"代表点緯度":4910.351,"代表点経度":5201.092649844}},{"type":"MultiPolygon","arcs":[[[-10,25,26,27]]],"properties":{"筆ID":"H000000007","version":"ver1.0","座標系":"任意座標系","測地系判別":null,"地図名":"H22462501693061","地図番号":"開L-3","縮尺分母":"2500","市区町村コード":"01693","市区町村名":"標津郡標津町","大字コード":"003","丁目コード":"000","小字コード":"0000","予備コード":"00","大字名":"字忠類","丁目名":null,"小字名":null,"予備名":null,"地番":"290-4","精度区分":null,"座標値種別":"図上測量","筆界未定構成筆":null,"代表点緯度":5152.65,"代表点経度":5140.758711796}},{"type":"MultiPolygon","arcs":[[[-4,-16,-15,28,29,30,31,32,33,34,35,36,-26,-9,37,38]]],"properties":{"筆ID":"H000000008","version":"ver1.0","座標系":"任意座標系","測地系判別":null,"地図名":"H22462501693061","地図番号":"開L-3","縮尺分母":"2500","市区町村コード":"01693","市区町村名":"標津郡標津町","大字コード":"000","丁目コード":"000","小字コード":"0000","予備コード":"00","大字名":null,"丁目名":null,"小字名":null,"予備名":null,"地番":"地区外-521796","精度区分":null,"座標値種別":"図上測量","筆界未定構成筆":null,"代表点緯度":5017.0195,"代表点経度":6347.75175}},{"type":"MultiPolygon","arcs":[[[-25,39,-36,40]]],"properties":{"筆ID":"H000000009","version":"ver1.0","座標系":"任意座標系","測地系判別":null,"地図名":"H22462501693061","地図番号":"開L-3","縮尺分母":"2500","市区町村コード":"01693","市区町村名":"標津郡標津町","大字コード":"003","丁目コード":"000","小字コード":"0000","予備コード":"00","大字名":"字忠類","丁目名":null,"小字名":null,"予備名":null,"地番":"291-1","精度区分":null,"座標値種別":"図上測量","筆界未定構成筆":null,"代表点緯度":5229.805,"代表点経度":5359.067884981}},{"type":"MultiPolygon","arcs":[[[-1,41,-21,42,43,44,45,46,-18]]],"properties":{"筆ID":"H000000010","version":"ver1.0","座標系":"任意座標系","測地系判別":null,"地図名":"H22462501693061","地図番号":"開L-3","縮尺分母":"2500","市区町村コード":"01693","市区町村名":"標津郡標津町","大字コード":"000","丁目コード":"000","小字コード":"0000","予備コード":"00","大字名":null,"丁目名":null,"小字名":null,"予備名":null,"地番":"地区外-521798","精度区分":null,"座標値種別":"図上測量","筆界未定構成筆":null,"代表点緯度":4674.1195,"代表点経度":5457.23375}},{"type":"MultiPolygon","arcs":[[[47,48,49,-44]]],"properties":{"筆ID":"H000000011","version":"ver1.0","座標系":"任意座標系","測地系判別":null,"地図名":"H22462501693061","地図番号":"開L-3","縮尺分母":"2500","市区町村コード":"01693","市区町村名":"標津郡標津町","大字コード":"003","丁目コード":"000","小字コード":"0000","予備コード":"00","大字名":"字忠類","丁目名":null,"小字名":null,"予備名":null,"地番":"293-2","精度区分":null,"座標値種別":"図上測量","筆界未定構成筆":null,"代表点緯度":4757.8945,"代表点経度":5502.461439226}},{"type":"MultiPolygon","arcs":[[[50,51,52,53,-46]]],"properties":{"筆ID":"H000000012","version":"ver1.0","座標系":"任意座標系","測地系判別":null,"地図名":"H22462501693061","地図番号":"開L-3","縮尺分母":"2500","市区町村コード":"01693","市区町村名":"標津郡標津町","大字コード":"003","丁目コード":"000","小字コード":"0000","予備コード":"00","大字名":"字忠類","丁目名":null,"小字名":null,"予備名":null,"地番":"295-2","精度区分":null,"座標値種別":"図上測量","筆界未定構成筆":null,"代表点緯度":4578.857,"代表点経度":5857.089802259}},{"type":"MultiPolygon","arcs":[[[54,-33,55,-49]]],"properties":{"筆ID":"H000000013","version":"ver1.0","座標系":"任意座標系","測地系判別":null,"地図名":"H22462501693061","地図番号":"開L-3","縮尺分母":"2500","市区町村コード":"01693","市区町村名":"標津郡標津町","大字コード":"003","丁目コード":"000","小字コード":"0000","予備コード":"00","大字名":"字忠類","丁目名":null,"小字名":null,"予備名":null,"地番":"293-1","精度区分":null,"座標値種別":"図上測量","筆界未定構成筆":null,"代表点緯度":4929.445,"代表点経度":5589.539293095}},{"type":"MultiPolygon","arcs":[[[-45,-50,56,-51]]],"properties":{"筆ID":"H000000014","version":"ver1.0","座標系":"任意座標系","測地系判別":null,"地図名":"H22462501693061","地図番号":"開L-3","縮尺分母":"2500","市区町村コード":"01693","市区町村名":"標津郡標津町","大字コード":"003","丁目コード":"000","小字コード":"0000","予備コード":"00","大字名":"字忠類","丁目名":null,"小字名":null,"予備名":null,"地番":"294-2","精度区分":null,"座標値種別":"図上測量","筆界未定構成筆":null,"代表点緯度":4656.446,"代表点経度":5703.474672795}},{"type":"MultiPolygon","arcs":[[[-57,-56,-32,57]]],"properties":{"筆ID":"H000000015","version":"ver1.0","座標系":"任意座標系","測地系判別":null,"地図名":"H22462501693061","地図番号":"開L-3","縮尺分母":"2500","市区町村コード":"01693","市区町村名":"標津郡標津町","大字コード":"003","丁目コード":"000","小字コード":"0000","予備コード":"00","大字名":"字忠類","丁目名":null,"小字名":null,"予備名":null,"地番":"294-1","精度区分":null,"座標値種別":"図上測量","筆界未定構成筆":null,"代表点緯度":4918.91,"代表点経度":5788.796491508}},{"type":"MultiPolygon","arcs":[[[-27,-37,-40,-24]]],"properties":{"筆ID":"H000000016","version":"ver1.0","座標系":"任意座標系","測地系判別":null,"地図名":"H22462501693061","地図番号":"開L-3","縮尺分母":"2500","市区町村コード":"01693","市区町村名":"標津郡標津町","大字コード":"003","丁目コード":"000","小字コード":"0000","予備コード":"00","大字名":"字忠類","丁目名":null,"小字名":null,"予備名":null,"地番":"291-3","精度区分":null,"座標値種別":"図上測量","筆界未定構成筆":null,"代表点緯度":5194.0785,"代表点経度":5239.060160555}},{"type":"MultiPolygon","arcs":[[[58,-41,-35,59]]],"properties":{"筆ID":"H000000017","version":"ver1.0","座標系":"任意座標系","測地系判別":null,"地図名":"H22462501693061","地図番号":"開L-3","縮尺分母":"2500","市区町村コード":"01693","市区町村名":"標津郡標津町","大字コード":"003","丁目コード":"000","小字コード":"0000","予備コード":"00","大字名":"字忠類","丁目名":null,"小字名":null,"予備名":null,"地番":"292-3","精度区分":null,"座標値種別":"図上測量","筆界未定構成筆":null,"代表点緯度":5209.29,"代表点経度":5475.982713434}},{"type":"MultiPolygon","arcs":[[[60,-60,-34,-55]]],"properties":{"筆ID":"H000000018","version":"ver1.0","座標系":"任意座標系","測地系判別":null,"地図名":"H22462501693061","地図番号":"開L-3","縮尺分母":"2500","市区町村コード":"01693","市区町村名":"標津郡標津町","大字コード":"003","丁目コード":"000","小字コード":"0000","予備コード":"00","大字名":"字忠類","丁目名":null,"小字名":null,"予備名":null,"地番":"292-1","精度区分":null,"座標値種別":"図上測量","筆界未定構成筆":null,"代表点緯度":5171.1125,"代表点経度":5558.741471034}},{"type":"MultiPolygon","arcs":[[[-43,-20,-59,-61,-48]]],"properties":{"筆ID":"H000000019","version":"ver1.0","座標系":"任意座標系","測地系判別":null,"地図名":"H22462501693061","地図番号":"開L-3","縮尺分母":"2500","市区町村コード":"01693","市区町村名":"標津郡標津町","大字コード":"003","丁目コード":"000","小字コード":"0000","予備コード":"00","大字名":"字忠類","丁目名":null,"小字名":null,"予備名":null,"地番":"292-2","精度区分":null,"座標値種別":"図上測量","筆界未定構成筆":null,"代表点緯度":4820.5985,"代表点経度":5377.860105782}},{"type":"MultiPolygon","arcs":[[[-52,-58,-31,61]]],"properties":{"筆ID":"H000000020","version":"ver1.0","座標系":"任意座標系","測地系判別":null,"地図名":"H22462501693061","地図番号":"開L-3","縮尺分母":"2500","市区町村コード":"01693","市区町村名":"標津郡標津町","大字コード":"003","丁目コード":"000","小字コード":"0000","予備コード":"00","大字名":"字忠類","丁目名":null,"小字名":null,"予備名":null,"地番":"295-3","精度区分":null,"座標値種別":"図上測量","筆界未定構成筆":null,"代表点緯度":4973.405,"代表点経度":5959.208741657}},{"type":"MultiPolygon","arcs":[[[-53,-62,-30,62]]],"properties":{"筆ID":"H000000021","version":"ver1.0","座標系":"任意座標系","測地系判別":null,"地図名":"H22462501693061","地図番号":"開L-3","縮尺分母":"2500","市区町村コード":"01693","市区町村名":"標津郡標津町","大字コード":"003","丁目コード":"000","小字コード":"0000","予備コード":"00","大字名":"字忠類","丁目名":null,"小字名":null,"予備名":null,"地番":"295-1","精度区分":null,"座標値種別":"図上測量","筆界未定構成筆":null,"代表点緯度":4731.9215,"代表点経度":5938.931525042}},{"type":"MultiPolygon","arcs":[[[-47,-54,63,-19]]],"properties":{"筆ID":"H000000022","version":"ver1.0","座標系":"任意座標系","測地系判別":null,"地図名":"H22462501693061","地図番号":"開L-3","縮尺分母":"2500","市区町村コード":"01693","市区町村名":"標津郡標津町","大字コード":"003","丁目コード":"000","小字コード":"0000","予備コード":"00","大字名":"字忠類","丁目名":null,"小字名":null,"予備名":null,"地番":"296-2","精度区分":null,"座標値種別":"図上測量","筆界未定構成筆":null,"代表点緯度":4531.9005,"代表点経度":5950.153362239}},{"type":"MultiPolygon","arcs":[[[-64,-63,-29,-14]]],"properties":{"筆ID":"H000000023","version":"ver1.0","座標系":"任意座標系","測地系判別":null,"地図名":"H22462501693061","地図番号":"開L-3","縮尺分母":"2500","市区町村コード":"01693","市区町村名":"標津郡標津町","大字コード":"003","丁目コード":"000","小字コード":"0000","予備コード":"00","大字名":"字忠類","丁目名":null,"小字名":null,"予備名":null,"地番":"296-1","精度区分":null,"座標値種別":"図上測量","筆界未定構成筆":null,"代表点緯度":4715.641,"代表点経度":6043.126188492}},{"type":"MultiPolygon","arcs":[[[64,65,66,67,68,69,70,71,-22,-42,72]]],"properties":{"筆ID":"H000000024","version":"ver1.0","座標系":"任意座標系","測地系判別":null,"地図名":"H22462501693061","地図番号":"開L-2","縮尺分母":"2500","市区町村コード":"01693","市区町村名":"標津郡標津町","大字コード":"000","丁目コード":"000","小字コード":"0000","予備コード":"00","大字名":null,"丁目名":null,"小字名":null,"予備名":null,"地番":"地区外-521812","精度区分":null,"座標値種別":"図上測量","筆界未定構成筆":null,"代表点緯度":4996.136,"代表点経度":4516.9335}},{"type":"MultiPolygon","arcs":[[[-67,73,74]]],"properties":{"筆ID":"H000000025","version":"ver1.0","座標系":"任意座標系","測地系判別":null,"地図名":"H22462501693061","地図番号":"開L-2","縮尺分母":"2500","市区町村コード":"01693","市区町村名":"標津郡標津町","大字コード":"003","丁目コード":"000","小字コード":"0000","予備コード":"00","大字名":"字忠類","丁目名":null,"小字名":null,"予備名":null,"地番":"286-2","精度区分":null,"座標値種別":"図上測量","筆界未定構成筆":null,"代表点緯度":5429.8155,"代表点経度":4175.636082333}},{"type":"MultiPolygon","arcs":[[[-75,75,76,77,-68]]],"properties":{"筆ID":"H000000026","version":"ver1.0","座標系":"任意座標系","測地系判別":null,"地図名":"H22462501693061","地図番号":"開L-2","縮尺分母":"2500","市区町村コード":"01693","市区町村名":"標津郡標津町","大字コード":"003","丁目コード":"000","小字コード":"0000","予備コード":"00","大字名":"字忠類","丁目名":null,"小字名":null,"予備名":null,"地番":"287-2","精度区分":null,"座標値種別":"図上測量","筆界未定構成筆":null,"代表点緯度":5344.011,"代表点経度":4347.90244321}},{"type":"MultiPolygon","arcs":[[[-78,78,79,-69]]],"properties":{"筆ID":"H000000027","version":"ver1.0","座標系":"任意座標系","測地系判別":null,"地図名":"H22462501693061","地図番号":"開L-2","縮尺分母":"2500","市区町村コード":"01693","市区町村名":"標津郡標津町","大字コード":"003","丁目コード":"000","小字コード":"0000","予備コード":"00","大字名":"字忠類","丁目名":null,"小字名":null,"予備名":null,"地番":"288-2","精度区分":null,"座標値種別":"図上測量","筆界未定構成筆":null,"代表点緯度":5229.821,"代表点経度":4574.025381542}},{"type":"MultiPolygon","arcs":[[[-80,80,81,82,-70]]],"properties":{"筆ID":"H000000028","version":"ver1.0","座標系":"任意座標系","測地系判別":null,"地図名":"H22462501693061","地図番号":"開L-2","縮尺分母":"2500","市区町村コード":"01693","市区町村名":"標津郡標津町","大字コード":"003","丁目コード":"000","小字コード":"0000","予備コード":"00","大字名":"字忠類","丁目名":null,"小字名":null,"予備名":null,"地番":"289-2","精度区分":null,"座標値種別":"図上測量","筆界未定構成筆":null,"代表点緯度":5069.7575,"代表点経度":4891.678785532}},{"type":"MultiPolygon","arcs":[[[-83,-11,83,-71]]],"properties":{"筆ID":"H000000029","version":"ver1.0","座標系":"任意座標系","測地系判別":null,"地図名":"H22462501693061","地図番号":"開L-2","縮尺分母":"2500","市区町村コード":"01693","市区町村名":"標津郡標津町","大字コード":"003","丁目コード":"000","小字コード":"0000","予備コード":"00","大字名":"字忠類","丁目名":null,"小字名":null,"予備名":null,"地番":"290-2","精度区分":null,"座標値種別":"図上測量","筆界未定構成筆":null,"代表点緯度":5030.9935,"代表点経度":4968.334054411}},{"type":"MultiPolygon","arcs":[[[-84,-28,-23,-72]]],"properties":{"筆ID":"H000000030","version":"ver1.0","座標系":"任意座標系","測地系判別":null,"地図名":"H22462501693061","地図番号":"開L-2","縮尺分母":"2500","市区町村コード":"01693","市区町村名":"標津郡標津町","大字コード":"003","丁目コード":"000","小字コード":"0000","予備コード":"00","大字名":"字忠類","丁目名":null,"小字名":null,"予備名":null,"地番":"290-3","精度区分":null,"座標値種別":"図上測量","筆界未定構成筆":null,"代表点緯度":4976.274,"代表点経度":5075.154591915}},{"type":"MultiPolygon","arcs":[[[-74,-66,84,85]]],"properties":{"筆ID":"H000000031","version":"ver1.0","座標系":"任意座標系","測地系判別":null,"地図名":"H22462501693061","地図番号":"開L-2","縮尺分母":"2500","市区町村コード":"01693","市区町村名":"標津郡標津町","大字コード":"003","丁目コード":"000","小字コード":"0000","予備コード":"00","大字名":"字忠類","丁目名":null,"小字名":null,"予備名":null,"地番":"286-1","精度区分":null,"座標値種別":"図上測量","筆界未定構成筆":null,"代表点緯度":5614.382,"代表点経度":4293.33454404}},{"type":"MultiPolygon","arcs":[[[86,87,88,-77]]],"properties":{"筆ID":"H000000032","version":"ver1.0","座標系":"任意座標系","測地系判別":null,"地図名":"H22462501693061","地図番号":"開L-2","縮尺分母":"2500","市区町村コード":"01693","市区町村名":"標津郡標津町","大字コード":"003","丁目コード":"000","小字コード":"0000","予備コード":"00","大字名":"字忠類","丁目名":null,"小字名":null,"予備名":null,"地番":"287-3","精度区分":null,"座標値種別":"図上測量","筆界未定構成筆":null,"代表点緯度":5624.0565,"代表点経度":4588.555188775}},{"type":"MultiPolygon","arcs":[[[-79,-89,89,90]]],"properties":{"筆ID":"H000000033","version":"ver1.0","座標系":"任意座標系","測地系判別":null,"地図名":"H22462501693061","地図番号":"開L-2","縮尺分母":"2500","市区町村コード":"01693","市区町村名":"標津郡標津町","大字コード":"003","丁目コード":"000","小字コード":"0000","予備コード":"00","大字名":"字忠類","丁目名":null,"小字名":null,"予備名":null,"地番":"288-1","精度区分":null,"座標値種別":"図上測量","筆界未定構成筆":null,"代表点緯度":5397.693,"代表点経度":4703.882828628}},{"type":"MultiPolygon","arcs":[[[-91,91,92,-81]]],"properties":{"筆ID":"H000000034","version":"ver1.0","座標系":"任意座標系","測地系判別":null,"地図名":"H22462501693061","地図番号":"開L-2","縮尺分母":"2500","市区町村コード":"01693","市区町村名":"標津郡標津町","大字コード":"003","丁目コード":"000","小字コード":"0000","予備コード":"00","大字名":"字忠類","丁目名":null,"小字名":null,"予備名":null,"地番":"289-1","精度区分":null,"座標値種別":"図上測量","筆界未定構成筆":null,"代表点緯度":5386.442,"代表点経度":4953.394374718}},{"type":"MultiPolygon","arcs":[[[-8,93,-38]]],"properties":{"筆ID":"H000000035","version":"ver1.0","座標系":"任意座標系","測地系判別":null,"地図名":"H22462501693061","地図番号":"開L-2","縮尺分母":"2500","市区町村コード":"01693","市区町村名":"標津郡標津町","大字コード":"000","丁目コード":"000","小字コード":"0000","予備コード":"00","大字名":null,"丁目名":null,"小字名":null,"予備名":null,"地番":"地区外-521823","精度区分":null,"座標値種別":"図上測量","筆界未定構成筆":null,"代表点緯度":5497.851,"代表点経度":5247.914}},{"type":"MultiPolygon","arcs":[[[-93,94,-6,-82]]],"properties":{"筆ID":"H000000036","version":"ver1.0","座標系":"任意座標系","測地系判別":null,"地図名":"H22462501693061","地図番号":"開L-2","縮尺分母":"2500","市区町村コード":"01693","市区町村名":"標津郡標津町","大字コード":"003","丁目コード":"000","小字コード":"0000","予備コード":"00","大字名":"字忠類","丁目名":null,"小字名":null,"予備名":null,"地番":"289-3","精度区分":null,"座標値種別":"図上測量","筆界未定構成筆":null,"代表点緯度":5311.4285,"代表点経度":5017.129606655}},{"type":"MultiPolygon","arcs":[[[-76,-86,95,-87]]],"properties":{"筆ID":"H000000037","version":"ver1.0","座標系":"任意座標系","測地系判別":null,"地図名":"H22462501693061","地図番号":"開L-2","縮尺分母":"2500","市区町村コード":"01693","市区町村名":"標津郡標津町","大字コード":"003","丁目コード":"000","小字コード":"0000","予備コード":"00","大字名":"字忠類","丁目名":null,"小字名":null,"予備名":null,"地番":"287-1","精度区分":null,"座標値種別":"図上測量","筆界未定構成筆":null,"代表点緯度":5650.5375,"代表点経度":4500.206535181}},{"type":"MultiPolygon","arcs":[[[-65,96,-94,-7,-95,-92,-90,-88,-96,-85]]],"properties":{"筆ID":"H000000038","version":"ver1.0","座標系":"任意座標系","測地系判別":null,"地図名":"H22462501693061","地図番号":"開L-1","縮尺分母":"2500","市区町村コード":"01693","市区町村名":"標津郡標津町","大字コード":"000","丁目コード":"000","小字コード":"0000","予備コード":"00","大字名":null,"丁目名":null,"小字名":null,"予備名":null,"地番":"地区外-521826","精度区分":null,"座標値種別":"図上測量","筆界未定構成筆":null,"代表点緯度":6209.9335,"代表点経度":4625}}]}},"arcs":[[[500000,333333],[303747,0]],[[803747,333333],[24683,-10325],[628,1035]],[[829058,324043],[5643,9290]],[[834701,333333],[165298,0]],[[999999,333333],[0,-333333],[-499999,0],[0,333333]],[[374185,516339],[97907,161114]],[[472092,677453],[24570,-10787]],[[496662,666666],[3338,-1433]],[[500000,665233],[4379,-1879]],[[504379,663354],[-98183,-160565]],[[406196,502789],[-5209,2218],[-26802,11332]],[[910574,492184],[-97417,-161437]],[[813157,330747],[-16535,6970]],[[796622,337717],[97794,161199]],[[894416,498916],[16158,-6732]],[[910574,492184],[16453,-6855],[-92326,-151996]],[[829058,324043],[-15901,6704]],[[803747,333333],[-7783,3256]],[[795964,336589],[658,1128]],[[503403,460756],[-502,-863]],[[502901,459893],[-2901,1247]],[[500000,461140],[-41767,17954],[-19766,8784]],[[438467,487878],[530,945]],[[438997,488823],[15943,-7110]],[[454940,481713],[48463,-20957]],[[504379,663354],[32974,-14152]],[[537353,649202],[-30900,-50226],[-67456,-110153]],[[438997,488823],[-32801,13966]],[[894416,498916],[-32431,13513]],[[861985,512429],[-38902,16432]],[[823083,528861],[-26039,10999]],[[797044,539860],[-65083,27350]],[[731961,567210],[-65140,27375]],[[666821,594585],[-32641,13717]],[[634180,608302],[-32544,13677]],[[601636,621979],[-47833,20256]],[[553803,642235],[-16450,6967]],[[500000,665233],[0,1433]],[[500000,666666],[499999,0],[0,-333333]],[[454940,481713],[29620,48695],[69243,111827]],[[601636,621979],[-55091,-90756],[-43142,-70467]],[[500000,333333],[0,127807]],[[502901,459893],[65106,-27377]],[[568007,432516],[65430,-27512]],[[633437,405004],[64699,-27263]],[[698136,377741],[65320,-27525]],[[763456,350216],[32508,-13627]],[[568007,432516],[624,958]],[[568631,433474],[65498,-27395]],[[634129,406079],[-692,-1075]],[[698136,377741],[786,1052]],[[698922,378793],[25974,-10921]],[[724896,367872],[39263,-16507]],[[764159,351365],[-703,-1149]],[[568631,433474],[52251,86015],[45939,75096]],[[731961,567210],[-97832,-161131]],[[634129,406079],[32972,-13908],[31821,-13378]],[[797044,539860],[-98122,-161067]],[[536471,446925],[-33068,13831]],[[634180,608302],[-97709,-161377]],[[568631,433474],[-32160,13451]],[[823083,528861],[-46155,-75453],[-52032,-85536]],[[861985,512429],[-32285,-53367],[-65541,-107697]],[[764159,351365],[32463,-13648]],[[0,666666],[32918,0]],[[32918,666666],[-5586,-4913]],[[27332,661753],[-1044,-951],[85332,-35311],[1892,-664]],[[113512,624827],[2304,-809],[62698,-26564]],[[178514,597454],[99821,-41695],[30221,-12897]],[[308556,542862],[65144,-27208]],[[373700,515654],[32090,-13590]],[[405790,502064],[15512,-6705],[17165,-7481]],[[500000,333333],[-500000,0],[0,333333]],[[27332,661753],[86758,-36013]],[[114090,625740],[-578,-913]],[[114090,625740],[48603,-20418]],[[162693,605322],[16329,-6861]],[[179022,598461],[-508,-1007]],[[179022,598461],[109450,-46202],[20683,-8519]],[[309155,543740],[-599,-878]],[[309155,543740],[32329,-13575]],[[341484,530165],[32701,-13826]],[[374185,516339],[-485,-685]],[[406196,502789],[-406,-725]],[[32918,666666],[27972,24599],[23290,27057],[2689,3279],[36108,33118],[17673,19215],[22762,27486],[4027,5202],[44996,-19056]],[[212435,787566],[-98345,-161826]],[[162693,605322],[37784,61344],[60462,100358]],[[260939,767024],[16274,-6892]],[[277213,760132],[-6685,-10762],[-91506,-150909]],[[277213,760132],[118971,-50422],[10704,-4745]],[[406888,704965],[-22638,-38299],[-46275,-75705],[-28820,-47221]],[[406888,704965],[32682,-13850]],[[439570,691115],[-98086,-160950]],[[496662,666666],[3338,0]],[[439570,691115],[32522,-13662]],[[212435,787566],[48504,-20542]],[[0,666666],[0,333333],[500000,0],[0,-333333]]],"bbox":[4000,3500,6500,6500],"transform":{"scale":[0.0025000025000025,0.0030000030000029996],"translate":[4000,3500]}}
