{"type":"Topology","objects":{"01693-4625-4":{"type":"GeometryCollection","geometries":[{"type":"MultiPolygon","arcs":[[[0,1,2,3,4,5,6,7]]],"properties":{"筆ID":"H000000001","version":"ver1.0","座標系":"任意座標系","測地系判別":null,"地図名":"H22462501693057","地図番号":"開D-1","縮尺分母":"5000","市区町村コード":"01693","市区町村名":"標津郡標津町","大字コード":"008","丁目コード":"000","小字コード":"0000","予備コード":"00","大字名":"字川北","丁目名":null,"小字名":null,"予備名":null,"地番":"長狭物不明-6","精度区分":null,"座標値種別":"図上測量","筆界未定構成筆":null,"代表点緯度":2656.978,"代表点経度":7175.994151789}},{"type":"MultiPolygon","arcs":[[[8,9,10,11,12,13,14,15,16,17]]],"properties":{"筆ID":"H000000002","version":"ver1.0","座標系":"任意座標系","測地系判別":null,"地図名":"H22462501693057","地図番号":"開D-1","縮尺分母":"5000","市区町村コード":"01693","市区町村名":"標津郡標津町","大字コード":"008","丁目コード":"000","小字コード":"0000","予備コード":"00","大字名":"字川北","丁目名":null,"小字名":null,"予備名":null,"地番":"長狭物不明-17","精度区分":null,"座標値種別":"図上測量","筆界未定構成筆":null,"代表点緯度":1947.9035,"代表点経度":6847.69066088}},{"type":"MultiPolygon","arcs":[[[18,19]]],"properties":{"筆ID":"H000000003","version":"ver1.0","座標系":"任意座標系","測地系判別":null,"地図名":"H22462501693057","地図番号":"開D-1","縮尺分母":"5000","市区町村コード":"01693","市区町村名":"標津郡標津町","大字コード":"008","丁目コード":"000","小字コード":"0000","予備コード":"00","大字名":"字川北","丁目名":null,"小字名":null,"予備名":null,"地番":"2504-3","精度区分":null,"座標値種別":"図上測量","筆界未定構成筆":null,"代表点緯度":923.6005,"代表点経度":6325.589559947}},{"type":"MultiPolygon","arcs":[[[20,21,22,-18]]],"properties":{"筆ID":"H000000004","version":"ver1.0","座標系":"任意座標系","測地系判別":null,"地図名":"H22462501693057","地図番号":"開D-1","縮尺分母":"5000","市区町村コード":"01693","市区町村名":"標津郡標津町","大字コード":"008","丁目コード":"000","小字コード":"0000","予備コード":"00","大字名":"字川北","丁目名":null,"小字名":null,"予備名":null,"地番":"2500-2","精度区分":null,"座標値種別":"図上測量","筆界未定構成筆":null,"代表点緯度":1896.9965,"代表点経度":6915.709564191}},{"type":"MultiPolygon","arcs":[[[-14,23,24,25]]],"properties":{"筆ID":"H000000005","version":"ver1.0","座標系":"任意座標系","測地系判別":null,"地図名":"H22462501693057","地図番号":"開D-1","縮尺分母":"5000","市区町村コード":"01693","市区町村名":"標津郡標津町","大字コード":"008","丁目コード":"000","小字コード":"0000","予備コード":"00","大字名":"字川北","丁目名":null,"小字名":null,"予備名":null,"地番":"2499-2","精度区分":null,"座標値種別":"図上測量","筆界未定構成筆":null,"代表点緯度":1950.1015,"代表点経度":6855.210856971}},{"type":"MultiPolygon","arcs":[[[-7,26,27]]],"properties":{"筆ID":"H000000006","version":"ver1.0","座標系":"任意座標系","測地系判別":null,"地図名":"H22462501693057","地図番号":"開D-1","縮尺分母":"5000","市区町村コード":"01693","市区町村名":"標津郡標津町","大字コード":"008","丁目コード":"000","小字コード":"0000","予備コード":"00","大字名":"字川北","丁目名":null,"小字名":null,"予備名":null,"地番":"2496-5","精度区分":null,"座標値種別":"図上測量","筆界未定構成筆":null,"代表点緯度":2760.7575,"代表点経度":7245.878447791}},{"type":"MultiPolygon","arcs":[[[28,29,30,31,32]]],"properties":{"筆ID":"H000000007","version":"ver1.0","座標系":"任意座標系","測地系判別":null,"地図名":"H22462501693057","地図番号":"開D-1","縮尺分母":"5000","市区町村コード":"01693","市区町村名":"標津郡標津町","大字コード":"008","丁目コード":"000","小字コード":"0000","予備コード":"00","大字名":"字川北","丁目名":null,"小字名":null,"予備名":null,"地番":"2494-3","精度区分":null,"座標値種別":"図上測量","筆界未定構成筆":null,"代表点緯度":2805.282,"代表点経度":7102.56122312}},{"type":"MultiPolygon","arcs":[[[33,34,35]]],"properties":{"筆ID":"H000000008","version":"ver1.0","座標系":"任意座標系","測地系判別":null,"地図名":"H22462501693057","地図番号":"開D-1","縮尺分母":"5000","市区町村コード":"01693","市区町村名":"標津郡標津町","大字コード":"008","丁目コード":"000","小字コード":"0000","予備コード":"00","大字名":"字川北","丁目名":null,"小字名":null,"予備名":null,"地番":"2495-5","精度区分":null,"座標値種別":"図上測量","筆界未定構成筆":null,"代表点緯度":2913.935,"代表点経度":6700.422086127}},{"type":"MultiPolygon","arcs":[[[36,37,-5]]],"properties":{"筆ID":"H000000009","version":"ver1.0","座標系":"任意座標系","測地系判別":null,"地図名":"H22462501693057","地図番号":"開D-1","縮尺分母":"5000","市区町村コード":"01693","市区町村名":"標津郡標津町","大字コード":"008","丁目コード":"000","小字コード":"0000","予備コード":"00","大字名":"字川北","丁目名":null,"小字名":null,"予備名":null,"地番":"2494-5","精度区分":null,"座標値種別":"図上測量","筆界未定構成筆":null,"代表点緯度":2765.9315,"代表点経度":7236.310942542}},{"type":"MultiPolygon","arcs":[[[38,39,40]]],"properties":{"筆ID":"H000000010","version":"ver1.0","座標系":"任意座標系","測地系判別":null,"地図名":"H22462501693057","地図番号":"開D-1","縮尺分母":"5000","市区町村コード":"01693","市区町村名":"標津郡標津町","大字コード":"008","丁目コード":"000","小字コード":"0000","予備コード":"00","大字名":"字川北","丁目名":null,"小字名":null,"予備名":null,"地番":"2504-2","精度区分":null,"座標値種別":"図上測量","筆界未定構成筆":null,"代表点緯度":1054.088,"代表点経度":6213.115999193}},{"type":"MultiPolygon","arcs":[[[41,-22,42]]],"properties":{"筆ID":"H000000011","version":"ver1.0","座標系":"任意座標系","測地系判別":null,"地図名":"H22462501693057","地図番号":"開D-1","縮尺分母":"5000","市区町村コード":"01693","市区町村名":"標津郡標津町","大字コード":"008","丁目コード":"000","小字コード":"0000","予備コード":"00","大字名":"字川北","丁目名":null,"小字名":null,"予備名":null,"地番":"2500-1","精度区分":null,"座標値種別":"図上測量","筆界未定構成筆":null,"代表点緯度":1894.9255,"代表点経度":6911.682813756}},{"type":"MultiPolygon","arcs":[[[43,44,45]]],"properties":{"筆ID":"H000000012","version":"ver1.0","座標系":"任意座標系","測地系判別":null,"地図名":"H22462501693057","地図番号":"開D-1","縮尺分母":"5000","市区町村コード":"01693","市区町村名":"標津郡標津町","大字コード":"008","丁目コード":"000","小字コード":"0000","予備コード":"00","大字名":"字川北","丁目名":null,"小字名":null,"予備名":null,"地番":"2496-6","精度区分":null,"座標値種別":"図上測量","筆界未定構成筆":null,"代表点緯度":2461.7105,"代表点経度":7063.876902854}},{"type":"MultiPolygon","arcs":[[[-20,46,-41,47]]],"properties":{"筆ID":"H000000013","version":"ver1.0","座標系":"任意座標系","測地系判別":null,"地図名":"H22462501693057","地図番号":"開D-1","縮尺分母":"5000","市区町村コード":"01693","市区町村名":"標津郡標津町","大字コード":"008","丁目コード":"000","小字コード":"0000","予備コード":"00","大字名":"字川北","丁目名":null,"小字名":null,"予備名":null,"地番":"2504-1","精度区分":null,"座標値種別":"図上測量","筆界未定構成筆":null,"代表点緯度":983.983,"代表点経度":6297.802269456}},{"type":"MultiPolygon","arcs":[[[-40,48,49,50,51,-48]]],"properties":{"筆ID":"H000000014","version":"ver1.0","座標系":"任意座標系","測地系判別":null,"地図名":"H22462501693057","地図番号":"開D-1","縮尺分母":"5000","市区町村コード":"01693","市区町村名":"標津郡標津町","大字コード":"008","丁目コード":"000","小字コード":"0000","予備コード":"00","大字名":"字川北","丁目名":null,"小字名":null,"予備名":null,"地番":"長狭物不明-25","精度区分":null,"座標値種別":"図上測量","筆界未定構成筆":null,"代表点緯度":1012.378,"代表点経度":6292.294956303}},{"type":"MultiPolygon","arcs":[[[-50,52,53,54]]],"properties":{"筆ID":"H000000015","version":"ver1.0","座標系":"任意座標系","測地系判別":null,"地図名":"H22462501693057","地図番号":"開D-1","縮尺分母":"5000","市区町村コード":"01693","市区町村名":"標津郡標津町","大字コード":"008","丁目コード":"000","小字コード":"0000","予備コード":"00","大字名":"字川北","丁目名":null,"小字名":null,"予備名":null,"地番":"2503-6","精度区分":null,"座標値種別":"図上測量","筆界未定構成筆":null,"代表点緯度":1146.6095,"代表点経度":6265.953233123}},{"type":"MultiPolygon","arcs":[[[55,56,57,58]]],"properties":{"筆ID":"H000000016","version":"ver1.0","座標系":"任意座標系","測地系判別":null,"地図名":"H22462501693057","地図番号":"開D-1","縮尺分母":"5000","市区町村コード":"01693","市区町村名":"標津郡標津町","大字コード":"008","丁目コード":"000","小字コード":"0000","予備コード":"00","大字名":"字川北","丁目名":null,"小字名":null,"予備名":null,"地番":"長狭物不明-34","精度区分":null,"座標値種別":"図上測量","筆界未定構成筆":null,"代表点緯度":1482.18,"代表点経度":6572.181585556}},{"type":"MultiPolygon","arcs":[[[59,-51,-55,60]]],"properties":{"筆ID":"H000000017","version":"ver1.0","座標系":"任意座標系","測地系判別":null,"地図名":"H22462501693057","地図番号":"開D-1","縮尺分母":"5000","市区町村コード":"01693","市区町村名":"標津郡標津町","大字コード":"008","丁目コード":"000","小字コード":"0000","予備コード":"00","大字名":"字川北","丁目名":null,"小字名":null,"予備名":null,"地番":"2503-1","精度区分":null,"座標値種別":"図上測量","筆界未定構成筆":null,"代表点緯度":1098.818,"代表点経度":6342.15853672}},{"type":"MultiPolygon","arcs":[[[61,-61,62,63,64]]],"properties":{"筆ID":"H000000018","version":"ver1.0","座標系":"任意座標系","測地系判別":null,"地図名":"H22462501693057","地図番号":"開D-1","縮尺分母":"5000","市区町村コード":"01693","市区町村名":"標津郡標津町","大字コード":"008","丁目コード":"000","小字コード":"0000","予備コード":"00","大字名":"字川北","丁目名":null,"小字名":null,"予備名":null,"地番":"2503-3","精度区分":null,"座標値種別":"図上測量","筆界未定構成筆":null,"代表点緯度":1242.349,"代表点経度":6429.156859086}},{"type":"MultiPolygon","arcs":[[[-54,65,-63]]],"properties":{"筆ID":"H000000019","version":"ver1.0","座標系":"任意座標系","測地系判別":null,"地図名":"H22462501693057","地図番号":"開D-1","縮尺分母":"5000","市区町村コード":"01693","市区町村名":"標津郡標津町","大字コード":"008","丁目コード":"000","小字コード":"0000","予備コード":"00","大字名":"字川北","丁目名":null,"小字名":null,"予備名":null,"地番":"2503-5","精度区分":null,"座標値種別":"図上測量","筆界未定構成筆":null,"代表点緯度":1275.8555,"代表点経度":6344.017216203}},{"type":"MultiPolygon","arcs":[[[66,67,68,69,70,-65]]],"properties":{"筆ID":"H000000020","version":"ver1.0","座標系":"任意座標系","測地系判別":null,"地図名":"H22462501693057","地図番号":"開D-1","縮尺分母":"5000","市区町村コード":"01693","市区町村名":"標津郡標津町","大字コード":"008","丁目コード":"000","小字コード":"0000","予備コード":"00","大字名":"字川北","丁目名":null,"小字名":null,"予備名":null,"地番":"2503-4","精度区分":null,"座標値種別":"図上測量","筆界未定構成筆":null,"代表点緯度":1286.9425,"代表点経度":6526.669288287}},{"type":"MultiPolygon","arcs":[[[-68,71,72]]],"properties":{"筆ID":"H000000021","version":"ver1.0","座標系":"任意座標系","測地系判別":null,"地図名":"H22462501693057","地図番号":"開D-1","縮尺分母":"5000","市区町村コード":"01693","市区町村名":"標津郡標津町","大字コード":"008","丁目コード":"000","小字コード":"0000","予備コード":"00","大字名":"字川北","丁目名":null,"小字名":null,"予備名":null,"地番":"2503-8","精度区分":null,"座標値種別":"図上測量","筆界未定構成筆":null,"代表点緯度":1388.9835,"代表点経度":6432.888748554}},{"type":"MultiPolygon","arcs":[[[-70,73,74]]],"properties":{"筆ID":"H000000022","version":"ver1.0","座標系":"任意座標系","測地系判別":null,"地図名":"H22462501693057","地図番号":"開D-1","縮尺分母":"5000","市区町村コード":"01693","市区町村名":"標津郡標津町","大字コード":"008","丁目コード":"000","小字コード":"0000","予備コード":"00","大字名":"字川北","丁目名":null,"小字名":null,"予備名":null,"地番":"2503-7","精度区分":null,"座標値種別":"図上測量","筆界未定構成筆":null,"代表点緯度":1341.457,"代表点経度":6547.604985134}},{"type":"MultiPolygon","arcs":[[[75,-57,76,77,78]]],"properties":{"筆ID":"H000000023","version":"ver1.0","座標系":"任意座標系","測地系判別":null,"地図名":"H22462501693057","地図番号":"開D-1","縮尺分母":"5000","市区町村コード":"01693","市区町村名":"標津郡標津町","大字コード":"008","丁目コード":"000","小字コード":"0000","予備コード":"00","大字名":"字川北","丁目名":null,"小字名":null,"予備名":null,"地番":"2502-1","精度区分":null,"座標値種別":"図上測量","筆界未定構成筆":null,"代表点緯度":1518.694,"代表点経度":6594.912522591}},{"type":"MultiPolygon","arcs":[[[79,-79,80]]],"properties":{"筆ID":"H000000024","version":"ver1.0","座標系":"任意座標系","測地系判別":null,"地図名":"H22462501693057","地図番号":"開D-1","縮尺分母":"5000","市区町村コード":"01693","市区町村名":"標津郡標津町","大字コード":"008","丁目コード":"000","小字コード":"0000","予備コード":"00","大字名":"字川北","丁目名":null,"小字名":null,"予備名":null,"地番":"2502-3","精度区分":null,"座標値種別":"図上測量","筆界未定構成筆":null,"代表点緯度":1545.6135,"代表点経度":6657.412941959}},{"type":"MultiPolygon","arcs":[[[-81,-78,81,82,83,84,85]]],"properties":{"筆ID":"H000000025","version":"ver1.0","座標系":"任意座標系","測地系判別":null,"地図名":"H22462501693057","地図番号":"開D-1","縮尺分母":"5000","市区町村コード":"01693","市区町村名":"標津郡標津町","大字コード":"008","丁目コード":"000","小字コード":"0000","予備コード":"00","大字名":"字川北","丁目名":null,"小字名":null,"予備名":null,"地番":"水-3","精度区分":null,"座標値種別":"図上測量","筆界未定構成筆":null,"代表点緯度":1623.0705,"代表点経度":6652.19526504}},{"type":"MultiPolygon","arcs":[[[86,87,-9,-23]]],"properties":{"筆ID":"H000000026","version":"ver1.0","座標系":"任意座標系","測地系判別":null,"地図名":"H22462501693057","地図番号":"開D-1","縮尺分母":"5000","市区町村コード":"01693","市区町村名":"標津郡標津町","大字コード":"008","丁目コード":"000","小字コード":"0000","予備コード":"00","大字名":"字川北","丁目名":null,"小字名":null,"予備名":null,"地番":"2501-3","精度区分":null,"座標値種別":"図上測量","筆界未定構成筆":null,"代表点緯度":1946.121,"代表点経度":6835.450099713}},{"type":"MultiPolygon","arcs":[[[-12,88,89]]],"properties":{"筆ID":"H000000027","version":"ver1.0","座標系":"任意座標系","測地系判別":null,"地図名":"H22462501693057","地図番号":"開D-1","縮尺分母":"5000","市区町村コード":"01693","市区町村名":"標津郡標津町","大字コード":"008","丁目コード":"000","小字コード":"0000","予備コード":"00","大字名":"字川北","丁目名":null,"小字名":null,"予備名":null,"地番":"2498-4","精度区分":null,"座標値種別":"図上測量","筆界未定構成筆":null,"代表点緯度":1985.976,"代表点経度":6795.793349462}},{"type":"MultiPolygon","arcs":[[[90,-85,91,-83,92,-87,-42]]],"properties":{"筆ID":"H000000028","version":"ver1.0","座標系":"任意座標系","測地系判別":null,"地図名":"H22462501693057","地図番号":"開D-1","縮尺分母":"5000","市区町村コード":"01693","市区町村名":"標津郡標津町","大字コード":"008","丁目コード":"000","小字コード":"0000","予備コード":"00","大字名":"字川北","丁目名":null,"小字名":null,"予備名":null,"地番":"2501-1","精度区分":null,"座標値種別":"図上測量","筆界未定構成筆":null,"代表点緯度":1804.2575,"代表点経度":6767.066821166}},{"type":"MultiPolygon","arcs":[[[-84,-92]]],"properties":{"筆ID":"H000000029","version":"ver1.0","座標系":"任意座標系","測地系判別":null,"地図名":"H22462501693057","地図番号":"開D-1","縮尺分母":"5000","市区町村コード":"01693","市区町村名":"標津郡標津町","大字コード":"008","丁目コード":"000","小字コード":"0000","予備コード":"00","大字名":"字川北","丁目名":null,"小字名":null,"予備名":null,"地番":"2501-2","精度区分":null,"座標値種別":"図上測量","筆界未定構成筆":null,"代表点緯度":1636.4765,"代表点経度":6623.101354941}},{"type":"MultiPolygon","arcs":[[[-11,93,94,95]]],"properties":{"筆ID":"H000000030","version":"ver1.0","座標系":"任意座標系","測地系判別":null,"地図名":"H22462501693057","地図番号":"開D-1","縮尺分母":"5000","市区町村コード":"01693","市区町村名":"標津郡標津町","大字コード":"008","丁目コード":"000","小字コード":"0000","予備コード":"00","大字名":"字川北","丁目名":null,"小字名":null,"予備名":null,"地番":"2498-6","精度区分":null,"座標値種別":"図上測量","筆界未定構成筆":null,"代表点緯度":2027.2855,"代表点経度":6798.495739949}},{"type":"MultiPolygon","arcs":[[[96,97,98,99]]],"properties":{"筆ID":"H000000031","version":"ver1.0","座標系":"任意座標系","測地系判別":null,"地図名":"H22462501693057","地図番号":"開D-1","縮尺分母":"5000","市区町村コード":"01693","市区町村名":"標津郡標津町","大字コード":"008","丁目コード":"000","小字コード":"0000","予備コード":"00","大字名":"字川北","丁目名":null,"小字名":null,"予備名":null,"地番":"2497-10","精度区分":null,"座標値種別":"図上測量","筆界未定構成筆":null,"代表点緯度":2121.057,"代表点経度":6855.800477904}},{"type":"MultiPolygon","arcs":[[[100,101,102,103,104]]],"properties":{"筆ID":"H000000032","version":"ver1.0","座標系":"任意座標系","測地系判別":null,"地図名":"H22462501693057","地図番号":"開D-1","縮尺分母":"5000","市区町村コード":"01693","市区町村名":"標津郡標津町","大字コード":"008","丁目コード":"000","小字コード":"0000","予備コード":"00","大字名":"字川北","丁目名":null,"小字名":null,"予備名":null,"地番":"2497-13","精度区分":null,"座標値種別":"図上測量","筆界未定構成筆":null,"代表点緯度":2398.2895,"代表点経度":7133.118121671}},{"type":"MultiPolygon","arcs":[[[105,106,107,-104]]],"properties":{"筆ID":"H000000033","version":"ver1.0","座標系":"任意座標系","測地系判別":null,"地図名":"H22462501693057","地図番号":"開D-1","縮尺分母":"5000","市区町村コード":"01693","市区町村名":"標津郡標津町","大字コード":"008","丁目コード":"000","小字コード":"0000","予備コード":"00","大字名":"字川北","丁目名":null,"小字名":null,"予備名":null,"地番":"長狭物不明-42","精度区分":null,"座標値種別":"図上測量","筆界未定構成筆":null,"代表点緯度":2407.4035,"代表点経度":7133.408704342}},{"type":"MultiPolygon","arcs":[[[108,-16,109,110]]],"properties":{"筆ID":"H000000034","version":"ver1.0","座標系":"任意座標系","測地系判別":null,"地図名":"H22462501693057","地図番号":"開D-1","縮尺分母":"5000","市区町村コード":"01693","市区町村名":"標津郡標津町","大字コード":"008","丁目コード":"000","小字コード":"0000","予備コード":"00","大字名":"字川北","丁目名":null,"小字名":null,"予備名":null,"地番":"2497-8","精度区分":null,"座標値種別":"図上測量","筆界未定構成筆":null,"代表点緯度":1912.108,"代表点経度":6919.404297436}},{"type":"MultiPolygon","arcs":[[[111,112,-101,113]]],"properties":{"筆ID":"H000000035","version":"ver1.0","座標系":"任意座標系","測地系判別":null,"地図名":"H22462501693057","地図番号":"開D-1","縮尺分母":"5000","市区町村コード":"01693","市区町村名":"標津郡標津町","大字コード":"008","丁目コード":"000","小字コード":"0000","予備コード":"00","大字名":"字川北","丁目名":null,"小字名":null,"予備名":null,"地番":"2497-14","精度区分":null,"座標値種別":"図上測量","筆界未定構成筆":null,"代表点緯度":2396.559,"代表点経度":7131.141531702}},{"type":"MultiPolygon","arcs":[[[114,-112,115,116]]],"properties":{"筆ID":"H000000036","version":"ver1.0","座標系":"任意座標系","測地系判別":null,"地図名":"H22462501693057","地図番号":"開D-1","縮尺分母":"5000","市区町村コード":"01693","市区町村名":"標津郡標津町","大字コード":"008","丁目コード":"000","小字コード":"0000","予備コード":"00","大字名":"字川北","丁目名":null,"小字名":null,"予備名":null,"地番":"2497-3","精度区分":null,"座標値種別":"図上測量","筆界未定構成筆":null,"代表点緯度":2240.6685,"代表点経度":7035.060232415}},{"type":"MultiPolygon","arcs":[[[117,-102,-113,-115,118]]],"properties":{"筆ID":"H000000037","version":"ver1.0","座標系":"任意座標系","測地系判別":null,"地図名":"H22462501693057","地図番号":"開D-1","縮尺分母":"5000","市区町村コード":"01693","市区町村名":"標津郡標津町","大字コード":"008","丁目コード":"000","小字コード":"0000","予備コード":"00","大字名":"字川北","丁目名":null,"小字名":null,"予備名":null,"地番":"2497-11","精度区分":null,"座標値種別":"図上測量","筆界未定構成筆":null,"代表点緯度":2360.1135,"代表点経度":7001.64190581}},{"type":"MultiPolygon","arcs":[[[119,-119,120,-100]]],"properties":{"筆ID":"H000000038","version":"ver1.0","座標系":"任意座標系","測地系判別":null,"地図名":"H22462501693057","地図番号":"開D-1","縮尺分母":"5000","市区町村コード":"01693","市区町村名":"標津郡標津町","大字コード":"008","丁目コード":"000","小字コード":"0000","予備コード":"00","大字名":"字川北","丁目名":null,"小字名":null,"予備名":null,"地番":"2497-12","精度区分":null,"座標値種別":"図上測量","筆界未定構成筆":null,"代表点緯度":2174.537,"代表点経度":6889.039053017}},{"type":"MultiPolygon","arcs":[[[121,122,123,-121,-117]]],"properties":{"筆ID":"H000000039","version":"ver1.0","座標系":"任意座標系","測地系判別":null,"地図名":"H22462501693057","地図番号":"開D-1","縮尺分母":"5000","市区町村コード":"01693","市区町村名":"標津郡標津町","大字コード":"008","丁目コード":"000","小字コード":"0000","予備コード":"00","大字名":"字川北","丁目名":null,"小字名":null,"予備名":null,"地番":"2497-2","精度区分":null,"座標値種別":"図上測量","筆界未定構成筆":null,"代表点緯度":2117.708,"代表点経度":6958.600064771}},{"type":"MultiPolygon","arcs":[[[124,125,126,127,128,-97,-124,129]]],"properties":{"筆ID":"H000000040","version":"ver1.0","座標系":"任意座標系","測地系判別":null,"地図名":"H22462501693057","地図番号":"開D-1","縮尺分母":"5000","市区町村コード":"01693","市区町村名":"標津郡標津町","大字コード":"008","丁目コード":"000","小字コード":"0000","予備コード":"00","大字名":"字川北","丁目名":null,"小字名":null,"予備名":null,"地番":"2497-1","精度区分":null,"座標値種別":"図上測量","筆界未定構成筆":null,"代表点緯度":2049.2135,"代表点経度":6906.282139554}},{"type":"MultiPolygon","arcs":[[[-15,-26,130,-24,-13,-90,131,132,133,134,-98,-129,135,136,137,-127,138,139,-110]]],"properties":{"筆ID":"H000000041","version":"ver1.0","座標系":"任意座標系","測地系判別":null,"地図名":"H22462501693057","地図番号":"開D-1","縮尺分母":"5000","市区町村コード":"01693","市区町村名":"標津郡標津町","大字コード":"008","丁目コード":"000","小字コード":"0000","予備コード":"00","大字名":"字川北","丁目名":null,"小字名":null,"予備名":null,"地番":"水-6","精度区分":null,"座標値種別":"図上測量","筆界未定構成筆":null,"代表点緯度":2012.1995,"代表点経度":6835.789258094}},{"type":"MultiPolygon","arcs":[[[140,-137]]],"properties":{"筆ID":"H000000042","version":"ver1.0","座標系":"任意座標系","測地系判別":null,"地図名":"H22462501693057","地図番号":"開D-1","縮尺分母":"5000","市区町村コード":"01693","市区町村名":"標津郡標津町","大字コード":"008","丁目コード":"000","小字コード":"0000","予備コード":"00","大字名":"字川北","丁目名":null,"小字名":null,"予備名":null,"地番":"2497-5","精度区分":null,"座標値種別":"図上測量","筆界未定構成筆":null,"代表点緯度":1999.816,"代表点経度":6839.51226537}},{"type":"MultiPolygon","arcs":[[[141,-139,-126,142]]],"properties":{"筆ID":"H000000043","version":"ver1.0","座標系":"任意座標系","測地系判別":null,"地図名":"H22462501693057","地図番号":"開D-1","縮尺分母":"5000","市区町村コード":"01693","市区町村名":"標津郡標津町","大字コード":"008","丁目コード":"000","小字コード":"0000","予備コード":"00","大字名":"字川北","丁目名":null,"小字名":null,"予備名":null,"地番":"2497-7","精度区分":null,"座標値種別":"図上測量","筆界未定構成筆":null,"代表点緯度":1929.208,"代表点経度":6921.279049216}},{"type":"MultiPolygon","arcs":[[[-111,-140,-142,143]]],"properties":{"筆ID":"H000000044","version":"ver1.0","座標系":"任意座標系","測地系判別":null,"地図名":"H22462501693057","地図番号":"開D-1","縮尺分母":"5000","市区町村コード":"01693","市区町村名":"標津郡標津町","大字コード":"008","丁目コード":"000","小字コード":"0000","予備コード":"00","大字名":"字川北","丁目名":null,"小字名":null,"予備名":null,"地番":"2497-4","精度区分":null,"座標値種別":"図上測量","筆界未定構成筆":null,"代表点緯度":1927.9775,"代表点経度":6906.718728896}},{"type":"MultiPolygon","arcs":[[[-130,-123,144]]],"properties":{"筆ID":"H000000045","version":"ver1.0","座標系":"任意座標系","測地系判別":null,"地図名":"H22462501693057","地図番号":"開D-1","縮尺分母":"5000","市区町村コード":"01693","市区町村名":"標津郡標津町","大字コード":"008","丁目コード":"000","小字コード":"0000","予備コード":"00","大字名":"字川北","丁目名":null,"小字名":null,"予備名":null,"地番":"2497-9","精度区分":null,"座標値種別":"図上測量","筆界未定構成筆":null,"代表点緯度":2052.9205,"代表点経度":6962.07022908}},{"type":"MultiPolygon","arcs":[[[-138,-141,-136,-128]]],"properties":{"筆ID":"H000000046","version":"ver1.0","座標系":"任意座標系","測地系判別":null,"地図名":"H22462501693057","地図番号":"開D-1","縮尺分母":"5000","市区町村コード":"01693","市区町村名":"標津郡標津町","大字コード":"008","丁目コード":"000","小字コード":"0000","予備コード":"00","大字名":"字川北","丁目名":null,"小字名":null,"予備名":null,"地番":"2497-6","精度区分":null,"座標値種別":"図上測量","筆界未定構成筆":null,"代表点緯度":1989.722,"代表点経度":6854.035745283}},{"type":"MultiPolygon","arcs":[[[-25,-131]]],"properties":{"筆ID":"H000000047","version":"ver1.0","座標系":"任意座標系","測地系判別":null,"地図名":"H22462501693057","地図番号":"開D-1","縮尺分母":"5000","市区町村コード":"01693","市区町村名":"標津郡標津町","大字コード":"008","丁目コード":"000","小字コード":"0000","予備コード":"00","大字名":"字川北","丁目名":null,"小字名":null,"予備名":null,"地番":"2499-1","精度区分":null,"座標値種別":"図上測量","筆界未定構成筆":null,"代表点緯度":1959.4495,"代表点経度":6848.987655133}},{"type":"MultiPolygon","arcs":[[[-89,-96,145,-132]]],"properties":{"筆ID":"H000000048","version":"ver1.0","座標系":"任意座標系","測地系判別":null,"地図名":"H22462501693057","地図番号":"開D-1","縮尺分母":"5000","市区町村コード":"01693","市区町村名":"標津郡標津町","大字コード":"008","丁目コード":"000","小字コード":"0000","予備コード":"00","大字名":"字川北","丁目名":null,"小字名":null,"予備名":null,"地番":"2498-2","精度区分":null,"座標値種別":"図上測量","筆界未定構成筆":null,"代表点緯度":2017.0075,"代表点経度":6812.572380997}},{"type":"MultiPolygon","arcs":[[[-146,-95,146,147,148,-133]]],"properties":{"筆ID":"H000000049","version":"ver1.0","座標系":"任意座標系","測地系判別":null,"地図名":"H22462501693057","地図番号":"開D-1","縮尺分母":"5000","市区町村コード":"01693","市区町村名":"標津郡標津町","大字コード":"008","丁目コード":"000","小字コード":"0000","予備コード":"00","大字名":"字川北","丁目名":null,"小字名":null,"予備名":null,"地番":"2498-3","精度区分":null,"座標値種別":"図上測量","筆界未定構成筆":null,"代表点緯度":2046.577,"代表点経度":6827.905605978}},{"type":"MultiPolygon","arcs":[[[-149,149,-134]]],"properties":{"筆ID":"H000000050","version":"ver1.0","座標系":"任意座標系","測地系判別":null,"地図名":"H22462501693057","地図番号":"開D-1","縮尺分母":"5000","市区町村コード":"01693","市区町村名":"標津郡標津町","大字コード":"008","丁目コード":"000","小字コード":"0000","予備コード":"00","大字名":"字川北","丁目名":null,"小字名":null,"予備名":null,"地番":"2498-1","精度区分":null,"座標値種別":"図上測量","筆界未定構成筆":null,"代表点緯度":2078.452,"代表点経度":6841.99758736}},{"type":"MultiPolygon","arcs":[[[-148,150,-135,-150]]],"properties":{"筆ID":"H000000051","version":"ver1.0","座標系":"任意座標系","測地系判別":null,"地図名":"H22462501693057","地図番号":"開D-1","縮尺分母":"5000","市区町村コード":"01693","市区町村名":"標津郡標津町","大字コード":"008","丁目コード":"000","小字コード":"0000","予備コード":"00","大字名":"字川北","丁目名":null,"小字名":null,"予備名":null,"地番":"2498-5","精度区分":null,"座標値種別":"図上測量","筆界未定構成筆":null,"代表点緯度":2075.4855,"代表点経度":6827.108236089}},{"type":"MultiPolygon","arcs":[[[151,-8,-28,152,153]]],"properties":{"筆ID":"H000000052","version":"ver1.0","座標系":"任意座標系","測地系判別":null,"地図名":"H22462501693057","地図番号":"開D-1","縮尺分母":"5000","市区町村コード":"01693","市区町村名":"標津郡標津町","大字コード":"008","丁目コード":"000","小字コード":"0000","予備コード":"00","大字名":"字川北","丁目名":null,"小字名":null,"予備名":null,"地番":"2496-2","精度区分":null,"座標値種別":"図上測量","筆界未定構成筆":null,"代表点緯度":2648.488,"代表点経度":7272.468427542}},{"type":"MultiPolygon","arcs":[[[154,-154,155]]],"properties":{"筆ID":"H000000053","version":"ver1.0","座標系":"任意座標系","測地系判別":null,"地図名":"H22462501693057","地図番号":"開D-1","縮尺分母":"5000","市区町村コード":"01693","市区町村名":"標津郡標津町","大字コード":"008","丁目コード":"000","小字コード":"0000","予備コード":"00","大字名":"字川北","丁目名":null,"小字名":null,"予備名":null,"地番":"2496-3","精度区分":null,"座標値種別":"図上測量","筆界未定構成筆":null,"代表点緯度":2499.3985,"代表点経度":7509.931872496}},{"type":"MultiPolygon","arcs":[[[156,157,-152,-155,158]]],"properties":{"筆ID":"H000000054","version":"ver1.0","座標系":"任意座標系","測地系判別":null,"地図名":"H22462501693057","地図番号":"開D-1","縮尺分母":"5000","市区町村コード":"01693","市区町村名":"標津郡標津町","大字コード":"008","丁目コード":"000","小字コード":"0000","予備コード":"00","大字名":"字川北","丁目名":null,"小字名":null,"予備名":null,"地番":"2496-1","精度区分":null,"座標値種別":"図上測量","筆界未定構成筆":null,"代表点緯度":2491.3815,"代表点経度":7187.287839534}},{"type":"MultiPolygon","arcs":[[[159,-107,160,-44,161]]],"properties":{"筆ID":"H000000055","version":"ver1.0","座標系":"任意座標系","測地系判別":null,"地図名":"H22462501693057","地図番号":"開D-1","縮尺分母":"5000","市区町村コード":"01693","市区町村名":"標津郡標津町","大字コード":"008","丁目コード":"000","小字コード":"0000","予備コード":"00","大字名":"字川北","丁目名":null,"小字名":null,"予備名":null,"地番":"2496-7","精度区分":null,"座標値種別":"図上測量","筆界未定構成筆":null,"代表点緯度":2407.4035,"代表点経度":7147.492619648}},{"type":"MultiPolygon","arcs":[[[-46,162,-157,163,-162]]],"properties":{"筆ID":"H000000056","version":"ver1.0","座標系":"任意座標系","測地系判別":null,"地図名":"H22462501693057","地図番号":"開D-1","縮尺分母":"5000","市区町村コード":"01693","市区町村名":"標津郡標津町","大字コード":"008","丁目コード":"000","小字コード":"0000","予備コード":"00","大字名":"字川北","丁目名":null,"小字名":null,"予備名":null,"地番":"2496-8","精度区分":null,"座標値種別":"図上測量","筆界未定構成筆":null,"代表点緯度":2412.741,"代表点経度":7141.491328545}},{"type":"MultiPolygon","arcs":[[[164,165,166,167,-30]]],"properties":{"筆ID":"H000000057","version":"ver1.0","座標系":"任意座標系","測地系判別":null,"地図名":"H22462501693057","地図番号":"開D-1","縮尺分母":"5000","市区町村コード":"01693","市区町村名":"標津郡標津町","大字コード":"008","丁目コード":"000","小字コード":"0000","予備コード":"00","大字名":"字川北","丁目名":null,"小字名":null,"予備名":null,"地番":"2494-1","精度区分":null,"座標値種別":"図上測量","筆界未定構成筆":null,"代表点緯度":2921.124,"代表点経度":6848.785763244}},{"type":"MultiPolygon","arcs":[[[168,169,170,171,-165,-29,172,173,-3,174]]],"properties":{"筆ID":"H000000058","version":"ver1.0","座標系":"任意座標系","測地系判別":null,"地図名":"H22462501693057","地図番号":"開D-1","縮尺分母":"5000","市区町村コード":"01693","市区町村名":"標津郡標津町","大字コード":"000","丁目コード":"000","小字コード":"0000","予備コード":"00","大字名":null,"丁目名":null,"小字名":null,"予備名":null,"地番":"地区外-521186","精度区分":null,"座標値種別":"図上測量","筆界未定構成筆":null,"代表点緯度":2827.602,"代表点経度":6963.743026935}},{"type":"MultiPolygon","arcs":[[[-34,175,-170,176,177]]],"properties":{"筆ID":"H000000059","version":"ver1.0","座標系":"任意座標系","測地系判別":null,"地図名":"H22462501693057","地図番号":"開D-1","縮尺分母":"5000","市区町村コード":"01693","市区町村名":"標津郡標津町","大字コード":"008","丁目コード":"000","小字コード":"0000","予備コード":"00","大字名":"字川北","丁目名":null,"小字名":null,"予備名":null,"地番":"2495-2","精度区分":null,"座標値種別":"図上測量","筆界未定構成筆":null,"代表点緯度":2793.2395,"代表点経度":6897.108369203}},{"type":"MultiPolygon","arcs":[[[-174,178,-4]]],"properties":{"筆ID":"H000000060","version":"ver1.0","座標系":"任意座標系","測地系判別":null,"地図名":"H22462501693057","地図番号":"開D-1","縮尺分母":"5000","市区町村コード":"01693","市区町村名":"標津郡標津町","大字コード":"008","丁目コード":"000","小字コード":"0000","予備コード":"00","大字名":"字川北","丁目名":null,"小字名":null,"予備名":null,"地番":"2494-6","精度区分":null,"座標値種別":"図上測量","筆界未定構成筆":null,"代表点緯度":2716.784,"代表点経度":7205.808551659}},{"type":"MultiPolygon","arcs":[[[-36,179,-171,-176]]],"properties":{"筆ID":"H000000061","version":"ver1.0","座標系":"任意座標系","測地系判別":null,"地図名":"H22462501693057","地図番号":"開D-1","縮尺分母":"5000","市区町村コード":"01693","市区町村名":"標津郡標津町","大字コード":"008","丁目コード":"000","小字コード":"0000","予備コード":"00","大字名":"字川北","丁目名":null,"小字名":null,"予備名":null,"地番":"2495-1","精度区分":null,"座標値種別":"図上測量","筆界未定構成筆":null,"代表点緯度":2882.75,"代表点経度":6817.950282655}},{"type":"MultiPolygon","arcs":[[[180,181,-175,-2]]],"properties":{"筆ID":"H000000062","version":"ver1.0","座標系":"任意座標系","測地系判別":null,"地図名":"H22462501693057","地図番号":"開D-1","縮尺分母":"5000","市区町村コード":"01693","市区町村名":"標津郡標津町","大字コード":"008","丁目コード":"000","小字コード":"0000","予備コード":"00","大字名":"字川北","丁目名":null,"小字名":null,"予備名":null,"地番":"2495-4","精度区分":null,"座標値種別":"図上測量","筆界未定構成筆":null,"代表点緯度":2655.3925,"代表点経度":7168.002794832}},{"type":"MultiPolygon","arcs":[[[-177,-169,-182,182]]],"properties":{"筆ID":"H000000063","version":"ver1.0","座標系":"任意座標系","測地系判別":null,"地図名":"H22462501693057","地図番号":"開D-1","縮尺分母":"5000","市区町村コード":"01693","市区町村名":"標津郡標津町","大字コード":"008","丁目コード":"000","小字コード":"0000","予備コード":"00","大字名":"字川北","丁目名":null,"小字名":null,"予備名":null,"地番":"2495-3","精度区分":null,"座標値種別":"図上測量","筆界未定構成筆":null,"代表点緯度":2660.819,"代表点経度":7139.287249676}},{"type":"MultiPolygon","arcs":[[[-173,-33,183,-37,-179]]],"properties":{"筆ID":"H000000064","version":"ver1.0","座標系":"任意座標系","測地系判別":null,"地図名":"H22462501693057","地図番号":"開D-1","縮尺分母":"5000","市区町村コード":"01693","市区町村名":"標津郡標津町","大字コード":"008","丁目コード":"000","小字コード":"0000","予備コード":"00","大字名":"字川北","丁目名":null,"小字名":null,"予備名":null,"地番":"2494-4","精度区分":null,"座標値種別":"図上測量","筆界未定構成筆":null,"代表点緯度":2744.4685,"代表点経度":7191.410408861}},{"type":"MultiPolygon","arcs":[[[-31,-168,184,185]]],"properties":{"筆ID":"H000000065","version":"ver1.0","座標系":"任意座標系","測地系判別":null,"地図名":"H22462501693057","地図番号":"開D-1","縮尺分母":"5000","市区町村コード":"01693","市区町村名":"標津郡標津町","大字コード":"008","丁目コード":"000","小字コード":"0000","予備コード":"00","大字名":"字川北","丁目名":null,"小字名":null,"予備名":null,"地番":"2494-2","精度区分":null,"座標値種別":"図上測量","筆界未定構成筆":null,"代表点緯度":2950.12,"代表点経度":6911.400934353}},{"type":"MultiPolygon","arcs":[[[-167,186,-185]]],"properties":{"筆ID":"H000000066","version":"ver1.0","座標系":"任意座標系","測地系判別":null,"地図名":"H22462501693057","地図番号":"開D-1","縮尺分母":"5000","市区町村コード":"01693","市区町村名":"標津郡標津町","大字コード":"008","丁目コード":"000","小字コード":"0000","予備コード":"00","大字名":"字川北","丁目名":null,"小字名":null,"予備名":null,"地番":"2494-7","精度区分":null,"座標値種別":"図上測量","筆界未定構成筆":null,"代表点緯度":3035.0985,"代表点経度":6773.301262673}},{"type":"MultiPolygon","arcs":[[[-59,187,188,-73,189]]],"properties":{"筆ID":"H000000067","version":"ver1.0","座標系":"任意座標系","測地系判別":null,"地図名":"H22462501693057","地図番号":"開D-1","縮尺分母":"5000","市区町村コード":"01693","市区町村名":"標津郡標津町","大字コード":"008","丁目コード":"000","小字コード":"0000","予備コード":"00","大字名":"字川北","丁目名":null,"小字名":null,"予備名":null,"地番":"2503-2","精度区分":null,"座標値種別":"図上測量","筆界未定構成筆":null,"代表点緯度":1476.823,"代表点経度":6515.984981159}},{"type":"MultiPolygon","arcs":[[[-189,190,-74,-69]]],"properties":{"筆ID":"H000000068","version":"ver1.0","座標系":"任意座標系","測地系判別":null,"地図名":"H22462501693057","地図番号":"開D-1","縮尺分母":"5000","市区町村コード":"01693","市区町村名":"標津郡標津町","大字コード":"008","丁目コード":"000","小字コード":"0000","予備コード":"00","大字名":"字川北","丁目名":null,"小字名":null,"予備名":null,"地番":"2503-9","精度区分":null,"座標値種別":"図上測量","筆界未定構成筆":null,"代表点緯度":1341.457,"代表点経度":6576.498300413}}]}},"arcs":[[[629453,794685],[-5808,2935]],[[623645,797620],[31658,36164]],[[655303,833784],[1394,1620]],[[656697,835404],[14085,16007],[7598,8683],[3898,4506]],[[682278,864600],[3241,3747]],[[685519,868347],[6689,-1785]],[[692208,866562],[-4154,-4757]],[[688054,861805],[-56543,-64762],[-2058,-2358]],[[460113,467214],[-85382,36722]],[[374731,503936],[3132,4228]],[[377863,508164],[6909,-2917]],[[384772,505247],[10668,-4593]],[[395440,500654],[12266,-5282]],[[407706,495372],[47653,-20188]],[[455359,475184],[9175,-4068]],[[464534,471116],[15660,-6817]],[[480194,464299],[-3524,-4206]],[[476670,460093],[-16557,7121]],[[100802,26251],[-23022,-26251],[-17722,15918]],[[60058,15918],[40744,10333]],[[476670,460093],[-1657,-1930]],[[475013,458163],[-11402,4855]],[[463611,463018],[-3498,4196]],[[407706,495372],[438,73]],[[408144,495445],[44643,-18213]],[[452787,477232],[2572,-2048]],[[692208,866562],[553,-241]],[[692761,866321],[-4707,-4516]],[[625754,848344],[-91449,39772],[12937,14192]],[[547242,902308],[3356,3682]],[[550598,905990],[13628,14950]],[[564226,920940],[90876,-39434]],[[655102,881506],[-29348,-33162]],[[335550,942008],[-13010,-15142]],[[322540,926866],[-4642,2011],[12796,15200]],[[330694,944077],[4856,-2069]],[[682278,864600],[3062,3818]],[[685340,868418],[179,-71]],[[3858,66395],[-3858,3465]],[[0,69860],[5063,-2190]],[[5063,67670],[-1205,-1275]],[[471283,453814],[-7672,9204]],[[475013,458163],[-3730,-4349]],[[570092,722742],[-2549,1034]],[[567543,723776],[1627,1865]],[[569170,725641],[922,-2899]],[[60058,15918],[-31935,30025],[-10606,7525],[-13659,12927]],[[5063,67670],[95739,-41419]],[[0,69860],[2811,4822]],[[2811,74682],[3292,-1414]],[[6103,73268],[98438,-42281]],[[104541,30987],[-3739,-4736]],[[2811,74682],[65188,75971]],[[67999,150653],[3586,-1576]],[[71585,149077],[-65482,-75809]],[[187734,287539],[4914,4921]],[[192648,292460],[102046,-43492]],[[294694,248968],[-4833,-4993]],[[289861,243975],[-102127,43564]],[[169766,105950],[-65225,-74963]],[[71585,149077],[98181,-43127]],[[220197,163910],[-50431,-57960]],[[71585,149077],[38426,44485],[-1915,874],[2466,2951],[-777,1037]],[[109785,198424],[8951,10234]],[[118736,208658],[101461,-44748]],[[67999,150653],[41786,47771]],[[118736,208658],[2163,2473]],[[120899,211131],[65438,4031]],[[186337,215162],[14126,-6065]],[[200463,209097],[42990,-18459]],[[243453,190638],[-23256,-26728]],[[120899,211131],[20430,23356]],[[141329,234487],[45008,-19325]],[[200463,209097],[17503,963],[30377,-13802]],[[248343,196258],[-4890,-5620]],[[319960,278078],[-25266,-29110]],[[192648,292460],[22790,26131]],[[215438,318591],[10847,-394]],[[226285,318197],[93675,-40119]],[[327652,286942],[-7692,-8864]],[[226285,318197],[44408,-1611],[41801,12713],[7112,7214],[9077,-4812],[244,-9437],[-12331,-13579],[11056,-21743]],[[215438,318591],[55449,64274]],[[270887,382865],[15841,-15460],[54,-8949],[-8106,-6652]],[[278676,351804],[-19794,-16242],[9480,-3309],[27551,12494]],[[295913,344747],[19050,8638],[29789,-6082],[11767,-27282]],[[356519,320021],[-28867,-33079]],[[463611,463018],[-90800,38663]],[[372811,501681],[1920,2255]],[[384772,505247],[11496,-4456]],[[396268,500791],[-828,-137]],[[471283,453814],[-114764,-133793]],[[295913,344747],[-17237,7057]],[[270887,382865],[101924,118816]],[[377863,508164],[22914,26288]],[[400777,534452],[2498,-1223]],[[403275,533229],[-18730,-21919],[227,-6063]],[[433261,567050],[-4241,-4361]],[[429020,562689],[-1716,2194]],[[427304,564883],[2974,3412]],[[430278,568295],[2983,-1245]],[[664758,672870],[-100334,43536]],[[564424,716406],[-2419,1050]],[[562005,717456],[929,1052]],[[562934,718508],[102738,-44604]],[[665672,673904],[-914,-1034]],[[562934,718508],[4122,4712]],[[567056,723220],[40776,-17199],[31475,-13238],[30769,-12992]],[[670076,679791],[-4404,-5887]],[[481768,466079],[-1574,-1780]],[[464534,471116],[-674,1549]],[[463860,472665],[17908,-6586]],[[663737,671716],[-100389,44111]],[[563348,715827],[1076,579]],[[664758,672870],[-1021,-1154]],[[463658,602878],[32542,37653],[64127,73668],[3021,1628]],[[663737,671716],[-97848,-110575]],[[565889,561141],[-102231,41737]],[[461571,603730],[99807,113016],[627,710]],[[463658,602878],[-2087,852]],[[430278,568295],[31293,35435]],[[463658,602878],[-4995,-5780],[-8260,-12421],[-17142,-17627]],[[565889,561141],[-31302,-35373]],[[534587,525768],[-42908,16894],[-45750,19100]],[[445929,561762],[-12668,5288]],[[527721,518009],[-39110,-44198]],[[488611,473811],[-37025,15892]],[[451586,489703],[-1525,2297],[-4741,2076]],[[445320,494076],[-5314,3292],[-9632,11609],[-6007,9518]],[[424367,518495],[20541,27986],[-15888,16208]],[[445929,561762],[4414,-11383],[77378,-32370]],[[452787,477232],[-10848,8640],[-24301,11139],[-9494,-1566]],[[396268,500791],[8480,1413],[11605,21446]],[[416353,523650],[2884,4059]],[[419237,527709],[9447,13247],[-1250,21669]],[[427434,562625],[-130,2258]],[[424367,518495],[-4778,-6511]],[[419589,511984],[-3692,-5031],[10067,-4208]],[[425964,502745],[19356,-8669]],[[451586,489703],[7385,-10383]],[[458971,479320],[4889,-6655]],[[419589,511984],[2916,-5199],[3459,-4040]],[[484151,468771],[-25180,10549]],[[488611,473811],[-4460,-5040]],[[484151,468771],[-2383,-2692]],[[534587,525768],[-6866,-7759]],[[403275,533229],[6297,-3084],[6781,-6495]],[[400777,534452],[3259,3739]],[[404036,538191],[1897,-1006]],[[405933,537185],[9017,-4812],[4287,-4664]],[[405933,537185],[12205,14084],[3733,4140],[3734,6950],[1829,266]],[[404036,538191],[23268,26692]],[[722578,754744],[-90097,38643],[-3028,1298]],[[692761,866321],[91395,-39872]],[[784156,826449],[-61578,-71705]],[[732461,750503],[-9883,4241]],[[784156,826449],[215843,-92410],[-61969,-71737],[-205569,88201]],[[671174,681036],[-99941,41953],[209,2974],[-1463,604]],[[569979,726567],[59474,68118]],[[732461,750503],[-61287,-69467]],[[670717,680518],[-641,-727]],[[567056,723220],[487,556]],[[570092,722742],[100625,-42224]],[[569170,725641],[809,926]],[[671174,681036],[-457,-518]],[[547242,902308],[-101266,43078],[-13374,-15226],[-6092,2039],[-77974,32980]],[[348536,965179],[18090,20560]],[[366626,985739],[4784,-2070]],[[371410,983669],[179188,-77679]],[[654430,834149],[-29592,12714]],[[624838,846863],[-28986,12021],[-63167,27353],[-13707,-14076]],[[518978,872161],[-99972,41591],[11858,14317],[-84084,35116]],[[346780,963185],[1756,1994]],[[625754,848344],[30246,-12612]],[[656000,835732],[697,-328]],[[655303,833784],[-873,365]],[[335550,942008],[177711,-75718],[5717,5871]],[[624838,846863],[-32363,-35969]],[[592475,810894],[-132028,56222],[-137907,59750]],[[656000,835732],[26278,28868]],[[330694,944077],[16086,19108]],[[623645,797620],[-419,179]],[[623226,797799],[6855,8037],[15431,18255],[8918,10058]],[[623226,797799],[-1623,691],[-29128,12404]],[[655102,881506],[30238,-13088]],[[371410,983669],[12280,14400]],[[383690,998069],[180536,-77129]],[[366626,985739],[12547,14260],[4517,-1930]],[[289861,243975],[-20450,-23504]],[[269411,220471],[-83074,-5309]],[[141329,234487],[46405,53052]],[[269411,220471],[-21068,-24213]]],"bbox":[6210.302,906.521,7710.665,3052.47],"transform":{"scale":[0.0015003645003645006,0.0021459511459511454],"translate":[6210.302,906.521]}}
