{"type":"Topology","objects":{"01235-4306-70.featurecollection":{"type":"GeometryCollection","geometries":[{"type":"Polygon","arcs":[[0,1]],"properties":{"市区町村名":"石狩市","大字名":"花川北三条","丁目名":"２丁目","小字名":null,"地番":"197","精度区分":null,"座標系":"任意座標系"}},{"type":"Polygon","arcs":[[2,3,4,5]],"properties":{"市区町村名":"石狩市","大字名":"花川北三条","丁目名":"２丁目","小字名":null,"地番":"501","精度区分":null,"座標系":"任意座標系"}},{"type":"Polygon","arcs":[[6,7,8,-1,9,10,11]],"properties":{"市区町村名":"石狩市","大字名":"花川北三条","丁目名":"２丁目","小字名":null,"地番":"502","精度区分":null,"座標系":"任意座標系"}},{"type":"Polygon","arcs":[[12,13]],"properties":{"市区町村名":"石狩市","大字名":"花川北三条","丁目名":"３丁目","小字名":null,"地番":"1","精度区分":null,"座標系":"任意座標系"}},{"type":"Polygon","arcs":[[14,15,16,17]],"properties":{"市区町村名":"石狩市","大字名":"花川北三条","丁目名":"３丁目","小字名":null,"地番":"7","精度区分":null,"座標系":"任意座標系"}},{"type":"Polygon","arcs":[[18,-14,19,20]],"properties":{"市区町村名":"石狩市","大字名":"花川北三条","丁目名":"３丁目","小字名":null,"地番":"500","精度区分":null,"座標系":"任意座標系"}},{"type":"Polygon","arcs":[[-4,21,22,23,24,25]],"properties":{"市区町村名":"石狩市","大字名":"花川北三条","丁目名":"３丁目","小字名":null,"地番":"501","精度区分":null,"座標系":"任意座標系"}},{"type":"Polygon","arcs":[[-8,26,27,28,29,30,-16,31,32,33,34,35]],"properties":{"市区町村名":"石狩市","大字名":"花川北三条","丁目名":"３丁目","小字名":null,"地番":"502","精度区分":null,"座標系":"任意座標系"}},{"type":"Polygon","arcs":[[-28,36]],"properties":{"市区町村名":"石狩市","大字名":"花川北三条","丁目名":"３丁目","小字名":null,"地番":"504","精度区分":null,"座標系":"任意座標系"}},{"type":"Polygon","arcs":[[-30,37]],"properties":{"市区町村名":"石狩市","大字名":"花川北三条","丁目名":"３丁目","小字名":null,"地番":"505","精度区分":null,"座標系":"任意座標系"}},{"type":"Polygon","arcs":[[38,39,40]],"properties":{"市区町村名":"石狩市","大字名":"花川北四条","丁目名":"５丁目","小字名":null,"地番":"502","精度区分":null,"座標系":"任意座標系"}},{"type":"Polygon","arcs":[[41,42,-39,43]],"properties":{"市区町村名":"石狩市","大字名":"花川北四条","丁目名":"５丁目","小字名":null,"地番":"503","精度区分":null,"座標系":"任意座標系"}},{"type":"Polygon","arcs":[[44,45,-42]],"properties":{"市区町村名":"石狩市","大字名":"花川北四条","丁目名":"５丁目","小字名":null,"地番":"504","精度区分":null,"座標系":"任意座標系"}},{"type":"Polygon","arcs":[[-41,46,47]],"properties":{"市区町村名":"石狩市","大字名":"花川北四条","丁目名":"５丁目","小字名":null,"地番":"505","精度区分":null,"座標系":"任意座標系"}},{"type":"Polygon","arcs":[[-44,-48,48,49]],"properties":{"市区町村名":"石狩市","大字名":"花川北四条","丁目名":"５丁目","小字名":null,"地番":"506","精度区分":null,"座標系":"任意座標系"}},{"type":"Polygon","arcs":[[50,-45,-50]],"properties":{"市区町村名":"石狩市","大字名":"花川北四条","丁目名":"５丁目","小字名":null,"地番":"507","精度区分":null,"座標系":"任意座標系"}},{"type":"Polygon","arcs":[[51,52,53,54]],"properties":{"市区町村名":"石狩市","大字名":"花川北三条","丁目名":"１丁目","小字名":null,"地番":"1","精度区分":null,"座標系":"任意座標系"}},{"type":"Polygon","arcs":[[55,56,57,58,59]],"properties":{"市区町村名":"石狩市","大字名":"花川北三条","丁目名":"１丁目","小字名":null,"地番":"4-1","精度区分":null,"座標系":"任意座標系"}},{"type":"Polygon","arcs":[[-58,60,61]],"properties":{"市区町村名":"石狩市","大字名":"花川北三条","丁目名":"１丁目","小字名":null,"地番":"4-2","精度区分":null,"座標系":"任意座標系"}},{"type":"Polygon","arcs":[[62,-60]],"properties":{"市区町村名":"石狩市","大字名":"花川北三条","丁目名":"１丁目","小字名":null,"地番":"4-3","精度区分":null,"座標系":"任意座標系"}},{"type":"Polygon","arcs":[[63,64,65]],"properties":{"市区町村名":"石狩市","大字名":"花川北三条","丁目名":"１丁目","小字名":null,"地番":"5","精度区分":null,"座標系":"任意座標系"}},{"type":"Polygon","arcs":[[66,67,68,69,-66]],"properties":{"市区町村名":"石狩市","大字名":"花川北三条","丁目名":"１丁目","小字名":null,"地番":"6-1","精度区分":null,"座標系":"任意座標系"}},{"type":"Polygon","arcs":[[70,71,-68,72]],"properties":{"市区町村名":"石狩市","大字名":"花川北三条","丁目名":"１丁目","小字名":null,"地番":"6-2","精度区分":null,"座標系":"任意座標系"}},{"type":"Polygon","arcs":[[73,74,75,-71,76]],"properties":{"市区町村名":"石狩市","大字名":"花川北三条","丁目名":"１丁目","小字名":null,"地番":"7","精度区分":null,"座標系":"任意座標系"}},{"type":"Polygon","arcs":[[77,78,79,-75]],"properties":{"市区町村名":"石狩市","大字名":"花川北三条","丁目名":"１丁目","小字名":null,"地番":"8","精度区分":null,"座標系":"任意座標系"}},{"type":"Polygon","arcs":[[80,81,-78,-74]],"properties":{"市区町村名":"石狩市","大字名":"花川北三条","丁目名":"１丁目","小字名":null,"地番":"9","精度区分":null,"座標系":"任意座標系"}},{"type":"Polygon","arcs":[[-82,82,-61,-57,83,84,-6,85,86,87,-52,88,-79]],"properties":{"市区町村名":"石狩市","大字名":"花川北三条","丁目名":"１丁目","小字名":null,"地番":"500","精度区分":null,"座標系":"任意座標系"}},{"type":"Polygon","arcs":[[-77,-73,-67,-65,89,-11,90,-84,-56,-63,-59,-62,-83,-81]],"properties":{"市区町村名":"石狩市","大字名":"花川北三条","丁目名":"１丁目","小字名":null,"地番":"501","精度区分":null,"座標系":"任意座標系"}},{"type":"Polygon","arcs":[[-12,-90,-64,-70,91]],"properties":{"市区町村名":"石狩市","大字名":"花川北三条","丁目名":"１丁目","小字名":null,"地番":"502","精度区分":null,"座標系":"任意座標系"}},{"type":"Polygon","arcs":[[92,-87,93,94]],"properties":{"市区町村名":"石狩市","大字名":"花川北三条","丁目名":"１丁目","小字名":null,"地番":"503","精度区分":null,"座標系":"任意座標系"}},{"type":"Polygon","arcs":[[95,96,97,-54,98,99]],"properties":{"市区町村名":"石狩市","大字名":"花川北二条","丁目名":"１丁目","小字名":null,"地番":"1","精度区分":null,"座標系":"任意座標系"}},{"type":"Polygon","arcs":[[100,-100,101,102]],"properties":{"市区町村名":"石狩市","大字名":"花川北二条","丁目名":"１丁目","小字名":null,"地番":"5-72","精度区分":null,"座標系":"任意座標系"}},{"type":"Polygon","arcs":[[-103,103]],"properties":{"市区町村名":"石狩市","大字名":"花川北二条","丁目名":"１丁目","小字名":null,"地番":"6","精度区分":null,"座標系":"任意座標系"}},{"type":"Polygon","arcs":[[104,105,106,107]],"properties":{"市区町村名":"石狩市","大字名":"花川北一条","丁目名":"１丁目","小字名":null,"地番":"1-1","精度区分":null,"座標系":"任意座標系"}},{"type":"Polygon","arcs":[[108,109,110,111,112]],"properties":{"市区町村名":"石狩市","大字名":"花川北一条","丁目名":"１丁目","小字名":null,"地番":"1-2","精度区分":null,"座標系":"任意座標系"}},{"type":"Polygon","arcs":[[113,-113,114,-106]],"properties":{"市区町村名":"石狩市","大字名":"花川北一条","丁目名":"１丁目","小字名":null,"地番":"1-3","精度区分":null,"座標系":"任意座標系"}},{"type":"Polygon","arcs":[[115,116,-110,117,118]],"properties":{"市区町村名":"石狩市","大字名":"花川北一条","丁目名":"１丁目","小字名":null,"地番":"2-2","精度区分":null,"座標系":"任意座標系"}},{"type":"Polygon","arcs":[[119,120,-116,121,122]],"properties":{"市区町村名":"石狩市","大字名":"花川北一条","丁目名":"１丁目","小字名":null,"地番":"2-3","精度区分":null,"座標系":"任意座標系"}},{"type":"Polygon","arcs":[[123,124,-123]],"properties":{"市区町村名":"石狩市","大字名":"花川北一条","丁目名":"１丁目","小字名":null,"地番":"2-4","精度区分":null,"座標系":"任意座標系"}},{"type":"Polygon","arcs":[[-122,-119,125,126,127,-124]],"properties":{"市区町村名":"石狩市","大字名":"花川北一条","丁目名":"１丁目","小字名":null,"地番":"2-5","精度区分":null,"座標系":"任意座標系"}},{"type":"Polygon","arcs":[[-118,-109,128,-126]],"properties":{"市区町村名":"石狩市","大字名":"花川北一条","丁目名":"１丁目","小字名":null,"地番":"2-6","精度区分":null,"座標系":"任意座標系"}},{"type":"Polygon","arcs":[[-127,-129,-114,129]],"properties":{"市区町村名":"石狩市","大字名":"花川北一条","丁目名":"１丁目","小字名":null,"地番":"2-7","精度区分":null,"座標系":"任意座標系"}},{"type":"Polygon","arcs":[[130,-108,131,132]],"properties":{"市区町村名":"石狩市","大字名":"花川北一条","丁目名":"１丁目","小字名":null,"地番":"4","精度区分":null,"座標系":"任意座標系"}},{"type":"Polygon","arcs":[[-121,133,-111,-117]],"properties":{"市区町村名":"石狩市","大字名":"花川北一条","丁目名":"１丁目","小字名":null,"地番":"500","精度区分":null,"座標系":"任意座標系"}},{"type":"Polygon","arcs":[[-133,134,-97,135]],"properties":{"市区町村名":"石狩市","大字名":"花川北一条","丁目名":"１丁目","小字名":null,"地番":"501","精度区分":null,"座標系":"任意座標系"}},{"type":"Polygon","arcs":[[136,137]],"properties":{"市区町村名":"石狩市","大字名":"花川北二条","丁目名":"３丁目","小字名":null,"地番":"210","精度区分":null,"座標系":"任意座標系"}},{"type":"Polygon","arcs":[[138,-20,-13,-19,139,-138]],"properties":{"市区町村名":"石狩市","大字名":"花川北二条","丁目名":"３丁目","小字名":null,"地番":"500","精度区分":null,"座標系":"任意座標系"}},{"type":"Polygon","arcs":[[-33,140,-23,141]],"properties":{"市区町村名":"石狩市","大字名":"花川北三条","丁目名":"３丁目","小字名":null,"地番":"9-2","精度区分":null,"座標系":"任意座標系"}},{"type":"Polygon","arcs":[[142,-24,-141,-32,-15]],"properties":{"市区町村名":"石狩市","大字名":"花川北三条","丁目名":"３丁目","小字名":null,"地番":"9-3","精度区分":null,"座標系":"任意座標系"}},{"type":"Polygon","arcs":[[-18,143,-25,-143]],"properties":{"市区町村名":"石狩市","大字名":"花川北三条","丁目名":"３丁目","小字名":null,"地番":"9-1","精度区分":null,"座標系":"任意座標系"}},{"type":"Polygon","arcs":[[-35,144]],"properties":{"市区町村名":"石狩市","大字名":"花川北三条","丁目名":"３丁目","小字名":null,"地番":"8","精度区分":null,"座標系":"任意座標系"}},{"type":"Polygon","arcs":[[145,146,147]],"properties":{"市区町村名":"石狩市","大字名":"花川北二条","丁目名":"１丁目","小字名":null,"地番":"4-2","精度区分":null,"座標系":"任意座標系"}},{"type":"Polygon","arcs":[[148,149,150,151,-147,152,-95]],"properties":{"市区町村名":"石狩市","大字名":"花川北二条","丁目名":"１丁目","小字名":null,"地番":"500","精度区分":null,"座標系":"任意座標系"}},{"type":"Polygon","arcs":[[153,-150]],"properties":{"市区町村名":"石狩市","大字名":"花川北二条","丁目名":"１丁目","小字名":null,"地番":"5-54X(2/2)","精度区分":null,"座標系":"任意座標系"}},{"type":"Polygon","arcs":[[-148,-152,154]],"properties":{"市区町村名":"石狩市","大字名":"花川北二条","丁目名":"１丁目","小字名":null,"地番":"5-88X(2/2)","精度区分":null,"座標系":"任意座標系"}}]}},"arcs":[[[553821,771749],[1719,-2829]],[[555540,768920],[-1702,-2773],[-1732,2879],[1715,2723]],[[451852,841408],[76164,-125489]],[[528016,715919],[-8007,-8926]],[[520009,706993],[-1385,-185],[-3049,5059],[-56,2756],[-69345,113398]],[[446174,828021],[5678,13387]],[[493180,886054],[69403,-113736]],[[562583,772318],[-4628,-7372]],[[557955,764946],[-2415,3974]],[[553821,771749],[-66986,110256]],[[486835,882005],[4539,7008]],[[491374,889013],[1806,-2959]],[[537200,340991],[-73836,-1167],[-3857,5938]],[[459507,345762],[-521,84959],[63966,104930],[14350,-23076],[1057,-169452],[-1159,-2132]],[[668354,557800],[7891,13026]],[[676245,570826],[6419,-7968],[9722,-16110],[-50,-2345]],[[692336,544403],[-7996,-13002]],[[684340,531401],[-15986,26399]],[[539992,341035],[-2792,-44]],[[459507,345762],[-6390,-55]],[[453117,345707],[-494,89051],[65654,108526],[-50267,83074],[1164,1871],[69692,-114561],[1126,-172633]],[[528016,715919],[52847,-87013]],[[580863,628906],[41100,-67671]],[[621963,561235],[24266,-39954]],[[646229,521281],[13019,-21436]],[[659248,499845],[-6903,-10843],[-132336,217991]],[[562583,772318],[61880,-102175]],[[624463,670143],[6827,-11274]],[[631290,658869],[63426,-104728]],[[694716,554141],[1791,-2957]],[[696507,551184],[-4171,-6781]],[[676245,570826],[-2475,3072],[-21814,35984]],[[651956,609882],[-26162,43157]],[[625794,653039],[-4630,7637]],[[621164,660676],[-2706,4464]],[[618458,665140],[-60503,99806]],[[624463,670143],[27499,44438],[6825,-11278],[-27497,-44434]],[[694716,554141],[2829,212],[25971,42054],[8853,-14632],[-2595,13],[-26177,-42311],[-343,566],[-6747,11141]],[[942334,449434],[-11821,-126051],[-1709,-13085],[-1770,-10651],[-2738,-13185],[-3085,-12041]],[[921211,274421],[-7461,12170],[2545,10689],[2559,13518],[2324,16116],[1157,12455],[10497,112741]],[[932832,452110],[9502,-2676]],[[947492,447981],[-11635,-124971],[-1411,-12152],[-1175,-7779],[-2133,-11584],[-1912,-8649],[-2455,-9939],[-1483,-5138]],[[925288,267769],[-4077,6652]],[[942334,449434],[5158,-1453]],[[947492,447981],[8065,-2271]],[[955557,445710],[-7643,-54439],[-5494,-57867],[-2572,-27077],[-6456,-30594],[-2483,-11765],[-1216,-3385],[-4405,7186]],[[932832,452110],[15448,151626],[1178,11402],[950,7854],[1077,6762],[1994,10037],[1457,5884],[1780,6248],[1530,4900],[2177,6065],[3835,9282],[3055,6390],[1078,1918],[3357,5970],[4334,6794],[4788,6225],[7041,-11784]],[[987911,687683],[-3189,-4214],[-3637,-5544],[-4980,-8935],[-4128,-8835],[-3759,-9514],[-2773,-8404],[-2620,-9737],[-2031,-9448],[-1899,-11883],[-16561,-161735]],[[987911,687683],[3687,-6170]],[[991598,681513],[-3204,-4479],[-2567,-3817],[-3864,-6558],[-2586,-4871],[-3341,-7176],[-2154,-5484],[-2412,-7236],[-2230,-7455],[-1414,-5393],[-1518,-6785],[-1510,-8107],[-886,-6165],[-1079,-11040],[-15341,-148966]],[[991598,681513],[8401,-14060],[-1311,-2887],[-2989,-6585],[-7944,-17499],[-4828,-10639],[-20005,-134579],[-2072,-13942],[-5293,-35612]],[[382597,932526],[5138,-8489]],[[387735,924037],[-106980,-173228]],[[280755,750809],[-4458,7376]],[[276297,758185],[106300,174341]],[[462850,871156],[-15592,-17907]],[[447258,853249],[-2830,143],[-13394,21974]],[[431034,875366],[15774,25159]],[[446808,900525],[16149,-26475]],[[462957,874050],[-107,-2894]],[[431034,875366],[-18785,30817],[-20,4481]],[[412229,910664],[13437,21730],[1766,-105],[19376,-31764]],[[462957,874050],[994,-1629],[-1101,-1265]],[[483971,901144],[2089,-3423]],[[486060,897721],[-2673,-3055]],[[483387,894666],[-1651,2811],[2235,3667]],[[483387,894666],[-14888,-17011],[-1683,144],[-23835,39012]],[[442981,916811],[15811,25596]],[[458792,942407],[24647,-40390]],[[483439,902017],[532,-873]],[[433376,932533],[15817,25604]],[[449193,958137],[9599,-15730]],[[442981,916811],[-9605,15722]],[[425845,944859],[-13932,22805]],[[411913,967664],[15833,25620]],[[427746,993284],[21447,-35147]],[[433376,932533],[-7531,12326]],[[411913,967664],[-18680,-30226]],[[393233,937438],[-3824,6283]],[[389409,943721],[34240,56278],[4097,-6715]],[[425845,944859],[-17363,-27939]],[[408482,916920],[-2699,-108],[-12550,20626]],[[408482,916920],[3747,-6256]],[[447258,853249],[4685,-7438]],[[451943,845811],[-91,-4403]],[[446174,828021],[-5271,121]],[[440903,828142],[-6048,9950]],[[434855,838092],[-43,8743],[-47077,77202]],[[382597,932526],[6812,11195]],[[486060,897721],[5314,-8708]],[[486835,882005],[-3016,602],[-31876,-36796]],[[483439,902017],[3934,303],[25348,41404],[7848,-12901],[-3655,21],[-23603,-38340],[-131,-6450]],[[332942,673164],[101913,164928]],[[440903,828142],[-102032,-164937]],[[338871,663205],[-5929,9959]],[[222371,656554],[-50544,-81334]],[[171827,575220],[-4149,6829]],[[167678,582049],[35662,57837],[7170,10654],[65787,107645]],[[280755,750809],[-42436,-68583]],[[238319,682226],[-15948,-25672]],[[223822,654111],[-1451,2443]],[[238319,682226],[1474,-2386]],[[239793,679840],[-15971,-25729]],[[239793,679840],[17207,-28448],[-14811,-23875],[-5249,8597],[-1122,-1800],[-11996,19797]],[[112944,479459],[-54470,-89319]],[[58474,390140],[-3426,5468]],[[55048,395608],[46444,77042],[-363,595],[7799,12839]],[[108928,486084],[4016,-6625]],[[55523,385289],[-29408,-48122]],[[26115,337167],[-17696,-28956]],[[8419,308211],[-3123,5064]],[[5296,313275],[46836,77471]],[[52132,390746],[3391,-5457]],[[58474,390140],[-2951,-4851]],[[52132,390746],[2916,4862]],[[41322,312478],[-17769,-28930]],[[23553,283548],[-15134,24663]],[[26115,337167],[11574,-18791]],[[37689,318376],[3633,-5898]],[[77407,253895],[-17720,-29236]],[[59687,224659],[-36134,58889]],[[41322,312478],[35461,-57569]],[[76783,254909],[624,-1014]],[[76783,254909],[19866,32573]],[[96649,287482],[-1876,-4934],[-17366,-28653]],[[37689,318376],[29190,48038]],[[66879,366414],[38366,-62265],[12,-2589]],[[105257,301560],[-8608,-14078]],[[55523,385289],[11356,-18875]],[[58474,390140],[49813,-80912],[1603,-90],[-4633,-7578]],[[167331,567672],[-54387,-88213]],[[108928,486084],[54174,88492]],[[163102,574576],[4229,-6904]],[[59687,224659],[-5265,-8723],[-54422,88776],[5296,8563]],[[163102,574576],[4576,7473]],[[171827,575220],[50416,-82967],[-5998,-9744],[64,4465],[-48978,80698]],[[529409,301742],[604,-98701],[-805,-6145],[31,-6791],[812,-178316],[-7173,-11789],[-2680,4],[-11828,19383],[-101678,166339],[-6806,11135],[-1069,1064],[-2030,2023],[-9106,14879],[-51710,84486]],[[335971,299313],[-38,7566],[11186,18090],[108606,1471],[1862,2804],[68037,1136],[3662,-6064],[123,-22574]],[[335971,299313],[-10572,17273],[7665,195],[2844,4814],[-142,13600],[117380,1695],[-29,8817]],[[539992,341035],[17719,-28515],[10,-10296],[-28312,-482]],[[651956,609882],[-29993,-48647]],[[580863,628906],[10388,16848],[32483,3928],[2060,3357]],[[668354,557800],[-22125,-36519]],[[684340,531401],[-19392,-31533],[-5700,-23]],[[621164,660676],[-453,-701],[-5988,-750],[3735,5915]],[[326501,664180],[418,-695]],[[326919,663485],[-426,-688]],[[326493,662797],[8,1383]],[[338871,663205],[-92,-4697],[-4482,-7190],[-2681,49],[-43768,-70652],[-4273,-7081],[-2006,-3687],[-1052,-1976],[-3246,-6873],[-2503,-6114],[-1174,-2971],[-2282,-6921],[-2094,-7340],[-1846,-7487],[-1362,-7069],[-1012,-6564],[-1006,-8480],[-404,-5746],[-362,-7331],[-113,-4940],[-10632,-56]],[[252481,490079],[1949,3200],[4,693],[232,5655]],[[254666,499627],[252,4880],[854,9213],[1141,8683],[1670,9363],[2027,9180],[2004,7160],[2405,7647],[2751,7440],[2898,6797],[3910,8126],[3618,6542],[46064,74526]],[[324260,659184],[2233,3613]],[[326919,663485],[3316,5328],[2707,4351]],[[252481,490079],[-3925,15],[-16,3834],[41,5623],[6085,76]],[[324260,659184],[-3538,5894],[2651,4292],[3128,-5190]]],"bbox":[-1523.351,-2783.323,348.738,-1635.761],"transform":{"scale":[0.0018720908720908725,0.0011475631475631476],"translate":[-1523.351,-2783.323]}}