{"type":"Topology","objects":{"01236-4400-44":{"type":"GeometryCollection","geometries":[{"type":"MultiPolygon","arcs":[[[0,1,2,3,4,5]]],"properties":{"筆ID":"H000000001","version":"ver1.0","座標系":"任意座標系","測地系判別":null,"地図名":"土地連絡整理図文月（１２００）","地図番号":"50","縮尺分母":"1200","市区町村コード":"01236","市区町村名":"北斗市","大字コード":"050","丁目コード":"000","小字コード":"0000","予備コード":"00","大字名":"文月","丁目名":null,"小字名":null,"予備名":null,"地番":"299-1","精度区分":null,"座標値種別":"図上測量","筆界未定構成筆":null,"代表点緯度":-236468.7945,"代表点経度":28857.567964205}},{"type":"MultiPolygon","arcs":[[[6,7,-6]]],"properties":{"筆ID":"H000000002","version":"ver1.0","座標系":"任意座標系","測地系判別":null,"地図名":"土地連絡整理図文月（１２００）","地図番号":"50","縮尺分母":"1200","市区町村コード":"01236","市区町村名":"北斗市","大字コード":"050","丁目コード":"000","小字コード":"0000","予備コード":"00","大字名":"文月","丁目名":null,"小字名":null,"予備名":null,"地番":"299-2","精度区分":null,"座標値種別":"図上測量","筆界未定構成筆":null,"代表点緯度":-236580.54,"代表点経度":28737.29261165}},{"type":"MultiPolygon","arcs":[[[8,-2]]],"properties":{"筆ID":"H000000003","version":"ver1.0","座標系":"任意座標系","測地系判別":null,"地図名":"土地連絡整理図文月（１２００）","地図番号":"50","縮尺分母":"1200","市区町村コード":"01236","市区町村名":"北斗市","大字コード":"050","丁目コード":"000","小字コード":"0000","予備コード":"00","大字名":"文月","丁目名":null,"小字名":null,"予備名":null,"地番":"299-3","精度区分":null,"座標値種別":"図上測量","筆界未定構成筆":null,"代表点緯度":-236502.211,"代表点経度":28800.284489411}},{"type":"MultiPolygon","arcs":[[[9,10,11,-4,12]]],"properties":{"筆ID":"H000000004","version":"ver1.0","座標系":"任意座標系","測地系判別":null,"地図名":"土地連絡整理図文月（１２００）","地図番号":"50","縮尺分母":"1200","市区町村コード":"01236","市区町村名":"北斗市","大字コード":"050","丁目コード":"000","小字コード":"0000","予備コード":"00","大字名":"文月","丁目名":null,"小字名":null,"予備名":null,"地番":"299-4","精度区分":null,"座標値種別":"図上測量","筆界未定構成筆":null,"代表点緯度":-236365.9305,"代表点経度":28913.341066797}},{"type":"MultiPolygon","arcs":[[[13,-10]]],"properties":{"筆ID":"H000000005","version":"ver1.0","座標系":"任意座標系","測地系判別":null,"地図名":"土地連絡整理図文月（１２００）","地図番号":"50","縮尺分母":"1200","市区町村コード":"01236","市区町村名":"北斗市","大字コード":"050","丁目コード":"000","小字コード":"0000","予備コード":"00","大字名":"文月","丁目名":null,"小字名":null,"予備名":null,"地番":"299-5","精度区分":null,"座標値種別":"図上測量","筆界未定構成筆":null,"代表点緯度":-236334.512,"代表点経度":28933.905414541}},{"type":"MultiPolygon","arcs":[[[14,15,16]]],"properties":{"筆ID":"H000000006","version":"ver1.0","座標系":"任意座標系","測地系判別":null,"地図名":"土地連絡整理図文月（１２００）","地図番号":"50","縮尺分母":"1200","市区町村コード":"01236","市区町村名":"北斗市","大字コード":"050","丁目コード":"000","小字コード":"0000","予備コード":"00","大字名":"文月","丁目名":null,"小字名":null,"予備名":null,"地番":"300-1","精度区分":null,"座標値種別":"図上測量","筆界未定構成筆":null,"代表点緯度":-236391.149,"代表点経度":28834.983974003}},{"type":"MultiPolygon","arcs":[[[17,-16,18,-11,19,-13,20,-9,21,-8,22,23,24,25]]],"properties":{"筆ID":"H000000007","version":"ver1.0","座標系":"任意座標系","測地系判別":null,"地図名":"土地連絡整理図文月（１２００）","地図番号":"50","縮尺分母":"1200","市区町村コード":"01236","市区町村名":"北斗市","大字コード":"050","丁目コード":"000","小字コード":"0000","予備コード":"00","大字名":"文月","丁目名":null,"小字名":null,"予備名":null,"地番":"300-2","精度区分":null,"座標値種別":"図上測量","筆界未定構成筆":null,"代表点緯度":-236391.149,"代表点経度":28864.28459429}},{"type":"MultiPolygon","arcs":[[[-14,-20]]],"properties":{"筆ID":"H000000008","version":"ver1.0","座標系":"任意座標系","測地系判別":null,"地図名":"土地連絡整理図文月（１２００）","地図番号":"50","縮尺分母":"1200","市区町村コード":"01236","市区町村名":"北斗市","大字コード":"050","丁目コード":"000","小字コード":"0000","予備コード":"00","大字名":"文月","丁目名":null,"小字名":null,"予備名":null,"地番":"300-3","精度区分":null,"座標値種別":"図上測量","筆界未定構成筆":null,"代表点緯度":-236327.42,"代表点経度":28926.240797553}},{"type":"MultiPolygon","arcs":[[[-3,-21]]],"properties":{"筆ID":"H000000009","version":"ver1.0","座標系":"任意座標系","測地系判別":null,"地図名":"土地連絡整理図文月（１２００）","地図番号":"50","縮尺分母":"1200","市区町村コード":"01236","市区町村名":"北斗市","大字コード":"050","丁目コード":"000","小字コード":"0000","予備コード":"00","大字名":"文月","丁目名":null,"小字名":null,"予備名":null,"地番":"300-4","精度区分":null,"座標値種別":"図上測量","筆界未定構成筆":null,"代表点緯度":-236463.998,"代表点経度":28825.018101643}},{"type":"MultiPolygon","arcs":[[[-1,-22]]],"properties":{"筆ID":"H000000010","version":"ver1.0","座標系":"任意座標系","測地系判別":null,"地図名":"土地連絡整理図文月（１２００）","地図番号":"50","縮尺分母":"1200","市区町村コード":"01236","市区町村名":"北斗市","大字コード":"050","丁目コード":"000","小字コード":"0000","予備コード":"00","大字名":"文月","丁目名":null,"小字名":null,"予備名":null,"地番":"300-5","精度区分":null,"座標値種別":"図上測量","筆界未定構成筆":null,"代表点緯度":-236537.504,"代表点経度":28767.437567544}},{"type":"MultiPolygon","arcs":[[[-24]]],"properties":{"筆ID":"H000000011","version":"ver1.0","座標系":"任意座標系","測地系判別":null,"地図名":"土地連絡整理図文月（１２００）","地図番号":"50","縮尺分母":"1200","市区町村コード":"01236","市区町村名":"北斗市","大字コード":"050","丁目コード":"000","小字コード":"0000","予備コード":"00","大字名":"文月","丁目名":null,"小字名":null,"予備名":null,"地番":"300-6","精度区分":null,"座標値種別":"図上測量","筆界未定構成筆":null,"代表点緯度":-236545.8215,"代表点経度":28731.577725737}},{"type":"MultiPolygon","arcs":[[[26,27,-26]]],"properties":{"筆ID":"H000000012","version":"ver1.0","座標系":"任意座標系","測地系判別":null,"地図名":"土地連絡整理図文月（１２００）","地図番号":"50","縮尺分母":"1200","市区町村コード":"01236","市区町村名":"北斗市","大字コード":"050","丁目コード":"000","小字コード":"0000","予備コード":"00","大字名":"文月","丁目名":null,"小字名":null,"予備名":null,"地番":"300-7","精度区分":null,"座標値種別":"図上測量","筆界未定構成筆":null,"代表点緯度":-236537.4575,"代表点経度":28720.279434043}},{"type":"MultiPolygon","arcs":[[[-18,28]]],"properties":{"筆ID":"H000000013","version":"ver1.0","座標系":"任意座標系","測地系判別":null,"地図名":"土地連絡整理図文月（１２００）","地図番号":"50","縮尺分母":"1200","市区町村コード":"01236","市区町村名":"北斗市","大字コード":"050","丁目コード":"000","小字コード":"0000","予備コード":"00","大字名":"文月","丁目名":null,"小字名":null,"予備名":null,"地番":"301-3","精度区分":null,"座標値種別":"図上測量","筆界未定構成筆":null,"代表点緯度":-236495.616,"代表点経度":28749.997305853}},{"type":"MultiPolygon","arcs":[[[29,30,31,32]]],"properties":{"筆ID":"H000000014","version":"ver1.0","座標系":"任意座標系","測地系判別":null,"地図名":"土地連絡整理図文月（１２００）","地図番号":"50","縮尺分母":"1200","市区町村コード":"01236","市区町村名":"北斗市","大字コード":"050","丁目コード":"000","小字コード":"0000","予備コード":"00","大字名":"文月","丁目名":null,"小字名":null,"予備名":null,"地番":"303","精度区分":null,"座標値種別":"図上測量","筆界未定構成筆":null,"代表点緯度":-236440.193,"代表点経度":28650.159196526}},{"type":"MultiPolygon","arcs":[[[33,-33,34,35]]],"properties":{"筆ID":"H000000015","version":"ver1.0","座標系":"任意座標系","測地系判別":null,"地図名":"土地連絡整理図文月（１２００）","地図番号":"50","縮尺分母":"1200","市区町村コード":"01236","市区町村名":"北斗市","大字コード":"050","丁目コード":"000","小字コード":"0000","予備コード":"00","大字名":"文月","丁目名":null,"小字名":null,"予備名":null,"地番":"304","精度区分":null,"座標値種別":"図上測量","筆界未定構成筆":null,"代表点緯度":-236333.4355,"代表点経度":28701.311674848}},{"type":"MultiPolygon","arcs":[[[36,37,38,39]]],"properties":{"筆ID":"H000000016","version":"ver1.0","座標系":"任意座標系","測地系判別":null,"地図名":"土地連絡整理図文月（１２００）","地図番号":"50","縮尺分母":"1200","市区町村コード":"01236","市区町村名":"北斗市","大字コード":"050","丁目コード":"000","小字コード":"0000","予備コード":"00","大字名":"文月","丁目名":null,"小字名":null,"予備名":null,"地番":"306","精度区分":null,"座標値種別":"図上測量","筆界未定構成筆":null,"代表点緯度":-236304.014,"代表点経度":28574.9468512}},{"type":"MultiPolygon","arcs":[[[40,41,-40,42]]],"properties":{"筆ID":"H000000017","version":"ver1.0","座標系":"任意座標系","測地系判別":null,"地図名":"土地連絡整理図文月（１２００）","地図番号":"49","縮尺分母":"1200","市区町村コード":"01236","市区町村名":"北斗市","大字コード":"050","丁目コード":"000","小字コード":"0000","予備コード":"00","大字名":"文月","丁目名":null,"小字名":null,"予備名":null,"地番":"307","精度区分":null,"座標値種別":"図上測量","筆界未定構成筆":null,"代表点緯度":-236266.8885,"代表点経度":28528.423323317}},{"type":"MultiPolygon","arcs":[[[43,-41,44,45]]],"properties":{"筆ID":"H000000018","version":"ver1.0","座標系":"任意座標系","測地系判別":null,"地図名":"土地連絡整理図文月（１２００）","地図番号":"49","縮尺分母":"1200","市区町村コード":"01236","市区町村名":"北斗市","大字コード":"050","丁目コード":"000","小字コード":"0000","予備コード":"00","大字名":"文月","丁目名":null,"小字名":null,"予備名":null,"地番":"308","精度区分":null,"座標値種別":"図上測量","筆界未定構成筆":null,"代表点緯度":-236249.3445,"代表点経度":28464.402152336}},{"type":"MultiPolygon","arcs":[[[46,47,48,49]]],"properties":{"筆ID":"H000000019","version":"ver1.0","座標系":"任意座標系","測地系判別":null,"地図名":"土地連絡整理図文月（１２００）","地図番号":"49","縮尺分母":"1200","市区町村コード":"01236","市区町村名":"北斗市","大字コード":"050","丁目コード":"000","小字コード":"0000","予備コード":"00","大字名":"文月","丁目名":null,"小字名":null,"予備名":null,"地番":"310","精度区分":null,"座標値種別":"図上測量","筆界未定構成筆":null,"代表点緯度":-236050.925,"代表点経度":28461.776023879}},{"type":"MultiPolygon","arcs":[[[50,-50,51,52]]],"properties":{"筆ID":"H000000020","version":"ver1.0","座標系":"任意座標系","測地系判別":null,"地図名":"土地連絡整理図文月（１２００）","地図番号":"49","縮尺分母":"1200","市区町村コード":"01236","市区町村名":"北斗市","大字コード":"050","丁目コード":"000","小字コード":"0000","予備コード":"00","大字名":"文月","丁目名":null,"小字名":null,"予備名":null,"地番":"311","精度区分":null,"座標値種別":"図上測量","筆界未定構成筆":null,"代表点緯度":-236070.414,"代表点経度":28382.913953555}},{"type":"MultiPolygon","arcs":[[[53,-53,54,55]]],"properties":{"筆ID":"H000000021","version":"ver1.0","座標系":"任意座標系","測地系判別":null,"地図名":"土地連絡整理図文月（１２００）","地図番号":"49","縮尺分母":"1200","市区町村コード":"01236","市区町村名":"北斗市","大字コード":"050","丁目コード":"000","小字コード":"0000","予備コード":"00","大字名":"文月","丁目名":null,"小字名":null,"予備名":null,"地番":"312-1","精度区分":null,"座標値種別":"図上測量","筆界未定構成筆":null,"代表点緯度":-236074.4295,"代表点経度":28325.93330923}},{"type":"MultiPolygon","arcs":[[[56,-56,57,58]]],"properties":{"筆ID":"H000000022","version":"ver1.0","座標系":"任意座標系","測地系判別":null,"地図名":"土地連絡整理図文月（１２００）","地図番号":"49","縮尺分母":"1200","市区町村コード":"01236","市区町村名":"北斗市","大字コード":"050","丁目コード":"000","小字コード":"0000","予備コード":"00","大字名":"文月","丁目名":null,"小字名":null,"予備名":null,"地番":"312-2","精度区分":null,"座標値種別":"図上測量","筆界未定構成筆":null,"代表点緯度":-236037.1135,"代表点経度":28308.630809929}},{"type":"MultiPolygon","arcs":[[[59,60,-59,61]]],"properties":{"筆ID":"H000000023","version":"ver1.0","座標系":"任意座標系","測地系判別":null,"地図名":"土地連絡整理図文月（１２００）","地図番号":"48","縮尺分母":"1200","市区町村コード":"01236","市区町村名":"北斗市","大字コード":"050","丁目コード":"000","小字コード":"0000","予備コード":"00","大字名":"文月","丁目名":null,"小字名":null,"予備名":null,"地番":"313","精度区分":null,"座標値種別":"図上測量","筆界未定構成筆":null,"代表点緯度":-235891.2805,"代表点経度":28217.826045543}},{"type":"MultiPolygon","arcs":[[[62,-60,63,64]]],"properties":{"筆ID":"H000000024","version":"ver1.0","座標系":"任意座標系","測地系判別":null,"地図名":"土地連絡整理図文月（１２００）","地図番号":"47","縮尺分母":"1200","市区町村コード":"01236","市区町村名":"北斗市","大字コード":"050","丁目コード":"000","小字コード":"0000","予備コード":"00","大字名":"文月","丁目名":null,"小字名":null,"予備名":null,"地番":"314","精度区分":null,"座標値種別":"図上測量","筆界未定構成筆":null,"代表点緯度":-235671.335,"代表点経度":28139.546796727}},{"type":"MultiPolygon","arcs":[[[65,-65,66,67]]],"properties":{"筆ID":"H000000025","version":"ver1.0","座標系":"任意座標系","測地系判別":null,"地図名":"土地連絡整理図文月（１２００）","地図番号":"47","縮尺分母":"1200","市区町村コード":"01236","市区町村名":"北斗市","大字コード":"050","丁目コード":"000","小字コード":"0000","予備コード":"00","大字名":"文月","丁目名":null,"小字名":null,"予備名":null,"地番":"315","精度区分":null,"座標値種別":"図上測量","筆界未定構成筆":null,"代表点緯度":-235628.5745,"代表点経度":28087.519097462}},{"type":"MultiPolygon","arcs":[[[-68,68,69,70]]],"properties":{"筆ID":"H000000026","version":"ver1.0","座標系":"任意座標系","測地系判別":null,"地図名":"土地連絡整理図文月（１２００）","地図番号":"47","縮尺分母":"1200","市区町村コード":"01236","市区町村名":"北斗市","大字コード":"050","丁目コード":"000","小字コード":"0000","予備コード":"00","大字名":"文月","丁目名":null,"小字名":null,"予備名":null,"地番":"316","精度区分":null,"座標値種別":"図上測量","筆界未定構成筆":null,"代表点緯度":-235604.5665,"代表点経度":28028.147155818}},{"type":"MultiPolygon","arcs":[[[-70,71,72,73]]],"properties":{"筆ID":"H000000027","version":"ver1.0","座標系":"任意座標系","測地系判別":null,"地図名":"土地連絡整理図文月（１２００）","地図番号":"47","縮尺分母":"1200","市区町村コード":"01236","市区町村名":"北斗市","大字コード":"050","丁目コード":"000","小字コード":"0000","予備コード":"00","大字名":"文月","丁目名":null,"小字名":null,"予備名":null,"地番":"317","精度区分":null,"座標値種別":"図上測量","筆界未定構成筆":null,"代表点緯度":-235557.331,"代表点経度":27968.0984639}},{"type":"MultiPolygon","arcs":[[[-73,74,75,76]]],"properties":{"筆ID":"H000000028","version":"ver1.0","座標系":"任意座標系","測地系判別":null,"地図名":"土地連絡整理図文月（１２００）","地図番号":"46","縮尺分母":"1200","市区町村コード":"01236","市区町村名":"北斗市","大字コード":"050","丁目コード":"000","小字コード":"0000","予備コード":"00","大字名":"文月","丁目名":null,"小字名":null,"予備名":null,"地番":"318","精度区分":null,"座標値種別":"図上測量","筆界未定構成筆":null,"代表点緯度":-235533.6355,"代表点経度":27897.007894364}},{"type":"MultiPolygon","arcs":[[[77,-76,78,79]]],"properties":{"筆ID":"H000000029","version":"ver1.0","座標系":"任意座標系","測地系判別":null,"地図名":"土地連絡整理図文月（１２００）","地図番号":"46","縮尺分母":"1200","市区町村コード":"01236","市区町村名":"北斗市","大字コード":"050","丁目コード":"000","小字コード":"0000","予備コード":"00","大字名":"文月","丁目名":null,"小字名":null,"予備名":null,"地番":"319","精度区分":null,"座標値種別":"図上測量","筆界未定構成筆":null,"代表点緯度":-235569.365,"代表点経度":27805.586509868}},{"type":"MultiPolygon","arcs":[[[80,-80,81,82]]],"properties":{"筆ID":"H000000030","version":"ver1.0","座標系":"任意座標系","測地系判別":null,"地図名":"土地連絡整理図文月（１２００）","地図番号":"46","縮尺分母":"1200","市区町村コード":"01236","市区町村名":"北斗市","大字コード":"050","丁目コード":"000","小字コード":"0000","予備コード":"00","大字名":"文月","丁目名":null,"小字名":null,"予備名":null,"地番":"320","精度区分":null,"座標値種別":"図上測量","筆界未定構成筆":null,"代表点緯度":-235540.643,"代表点経度":27749.776067118}},{"type":"MultiPolygon","arcs":[[[83,-83,84,85]]],"properties":{"筆ID":"H000000031","version":"ver1.0","座標系":"任意座標系","測地系判別":null,"地図名":"土地連絡整理図文月（１２００）","地図番号":"46","縮尺分母":"1200","市区町村コード":"01236","市区町村名":"北斗市","大字コード":"050","丁目コード":"000","小字コード":"0000","予備コード":"00","大字名":"文月","丁目名":null,"小字名":null,"予備名":null,"地番":"321","精度区分":null,"座標値種別":"図上測量","筆界未定構成筆":null,"代表点緯度":-235375.3205,"代表点経度":27736.843215528}},{"type":"MultiPolygon","arcs":[[[86,-86,87,88]]],"properties":{"筆ID":"H000000032","version":"ver1.0","座標系":"任意座標系","測地系判別":null,"地図名":"土地連絡整理図文月（１２００）","地図番号":"46","縮尺分母":"1200","市区町村コード":"01236","市区町村名":"北斗市","大字コード":"050","丁目コード":"000","小字コード":"0000","予備コード":"00","大字名":"文月","丁目名":null,"小字名":null,"予備名":null,"地番":"322","精度区分":null,"座標値種別":"図上測量","筆界未定構成筆":null,"代表点緯度":-235372.029,"代表点経度":27679.279969199}},{"type":"MultiPolygon","arcs":[[[89,-89,90,91]]],"properties":{"筆ID":"H000000033","version":"ver1.0","座標系":"任意座標系","測地系判別":null,"地図名":"土地連絡整理図文月（１２００）","地図番号":"46","縮尺分母":"1200","市区町村コード":"01236","市区町村名":"北斗市","大字コード":"050","丁目コード":"000","小字コード":"0000","予備コード":"00","大字名":"文月","丁目名":null,"小字名":null,"予備名":null,"地番":"323","精度区分":null,"座標値種別":"図上測量","筆界未定構成筆":null,"代表点緯度":-235296.8705,"代表点経度":27630.875866794}},{"type":"MultiPolygon","arcs":[[[92,-92,93,94]]],"properties":{"筆ID":"H000000034","version":"ver1.0","座標系":"任意座標系","測地系判別":null,"地図名":"土地連絡整理図文月（１２００）","地図番号":"46","縮尺分母":"1200","市区町村コード":"01236","市区町村名":"北斗市","大字コード":"050","丁目コード":"000","小字コード":"0000","予備コード":"00","大字名":"文月","丁目名":null,"小字名":null,"予備名":null,"地番":"324","精度区分":null,"座標値種別":"図上測量","筆界未定構成筆":null,"代表点緯度":-235257.1335,"代表点経度":27571.572913946}},{"type":"MultiPolygon","arcs":[[[-95,95]]],"properties":{"筆ID":"H000000035","version":"ver1.0","座標系":"任意座標系","測地系判別":null,"地図名":"土地連絡整理図文月（１２００）","地図番号":"46-1","縮尺分母":"1200","市区町村コード":"01236","市区町村名":"北斗市","大字コード":"050","丁目コード":"000","小字コード":"0000","予備コード":"00","大字名":"文月","丁目名":null,"小字名":null,"予備名":null,"地番":"325","精度区分":null,"座標値種別":"図上測量","筆界未定構成筆":null,"代表点緯度":-235184.1315,"代表点経度":27512.293077451}},{"type":"MultiPolygon","arcs":[[[96]]],"properties":{"筆ID":"H000000036","version":"ver1.0","座標系":"任意座標系","測地系判別":null,"地図名":"土地連絡整理図文月（１２００）","地図番号":"46-1","縮尺分母":"1200","市区町村コード":"01236","市区町村名":"北斗市","大字コード":"050","丁目コード":"000","小字コード":"0000","予備コード":"00","大字名":"文月","丁目名":null,"小字名":null,"予備名":null,"地番":"326","精度区分":null,"座標値種別":"図上測量","筆界未定構成筆":null,"代表点緯度":-235109.1095,"代表点経度":27441.752140718}},{"type":"MultiPolygon","arcs":[[[97,98,99,100]]],"properties":{"筆ID":"H000000037","version":"ver1.0","座標系":"任意座標系","測地系判別":null,"地図名":"土地連絡整理図文月（１２００）","地図番号":"55","縮尺分母":"1200","市区町村コード":"01236","市区町村名":"北斗市","大字コード":"050","丁目コード":"000","小字コード":"0000","予備コード":"00","大字名":"文月","丁目名":null,"小字名":null,"予備名":null,"地番":"339","精度区分":null,"座標値種別":"図上測量","筆界未定構成筆":null,"代表点緯度":-234450.429,"代表点経度":28516.658936419}},{"type":"MultiPolygon","arcs":[[[101,102,-101,103,104,105]]],"properties":{"筆ID":"H000000038","version":"ver1.0","座標系":"任意座標系","測地系判別":null,"地図名":"土地連絡整理図文月（１２００）","地図番号":"55","縮尺分母":"1200","市区町村コード":"01236","市区町村名":"北斗市","大字コード":"050","丁目コード":"000","小字コード":"0000","予備コード":"00","大字名":"文月","丁目名":null,"小字名":null,"予備名":null,"地番":"340","精度区分":null,"座標値種別":"図上測量","筆界未定構成筆":null,"代表点緯度":-234406.0495,"代表点経度":28427.625241817}},{"type":"MultiPolygon","arcs":[[[106,-102,107,108]]],"properties":{"筆ID":"H000000039","version":"ver1.0","座標系":"任意座標系","測地系判別":null,"地図名":"土地連絡整理図文月（１２００）","地図番号":"55","縮尺分母":"1200","市区町村コード":"01236","市区町村名":"北斗市","大字コード":"050","丁目コード":"000","小字コード":"0000","予備コード":"00","大字名":"文月","丁目名":null,"小字名":null,"予備名":null,"地番":"341","精度区分":null,"座標値種別":"図上測量","筆界未定構成筆":null,"代表点緯度":-234189.4525,"代表点経度":28422.060593644}},{"type":"MultiPolygon","arcs":[[[-106,109,110,-108]]],"properties":{"筆ID":"H000000040","version":"ver1.0","座標系":"任意座標系","測地系判別":null,"地図名":"土地連絡整理図文月（１２００）","地図番号":"55","縮尺分母":"1200","市区町村コード":"01236","市区町村名":"北斗市","大字コード":"050","丁目コード":"000","小字コード":"0000","予備コード":"00","大字名":"文月","丁目名":null,"小字名":null,"予備名":null,"地番":"342","精度区分":null,"座標値種別":"図上測量","筆界未定構成筆":null,"代表点緯度":-234343.0875,"代表点経度":28292.976742128}},{"type":"MultiPolygon","arcs":[[[-110,-105,111,112]]],"properties":{"筆ID":"H000000041","version":"ver1.0","座標系":"任意座標系","測地系判別":null,"地図名":"土地連絡整理図文月（１２００）","地図番号":"55","縮尺分母":"1200","市区町村コード":"01236","市区町村名":"北斗市","大字コード":"050","丁目コード":"000","小字コード":"0000","予備コード":"00","大字名":"文月","丁目名":null,"小字名":null,"予備名":null,"地番":"343","精度区分":null,"座標値種別":"図上測量","筆界未定構成筆":null,"代表点緯度":-234527.024,"代表点経度":28199.913758322}},{"type":"MultiPolygon","arcs":[[[113,114,-109,-111,-113,115]]],"properties":{"筆ID":"H000000042","version":"ver1.0","座標系":"任意座標系","測地系判別":null,"地図名":"土地連絡整理図文月（１２００）","地図番号":"54","縮尺分母":"1200","市区町村コード":"01236","市区町村名":"北斗市","大字コード":"050","丁目コード":"000","小字コード":"0000","予備コード":"00","大字名":"文月","丁目名":null,"小字名":null,"予備名":null,"地番":"344","精度区分":null,"座標値種別":"図上測量","筆界未定構成筆":null,"代表点緯度":-234104.23,"代表点経度":28182.23687778}},{"type":"MultiPolygon","arcs":[[[116,-114,117,118,119]]],"properties":{"筆ID":"H000000043","version":"ver1.0","座標系":"任意座標系","測地系判別":null,"地図名":"土地連絡整理図文月（１２００）","地図番号":"53","縮尺分母":"1200","市区町村コード":"01236","市区町村名":"北斗市","大字コード":"050","丁目コード":"000","小字コード":"0000","予備コード":"00","大字名":"文月","丁目名":null,"小字名":null,"予備名":null,"地番":"345","精度区分":null,"座標値種別":"図上測量","筆界未定構成筆":null,"代表点緯度":-233827.653,"代表点経度":28180.729359051}},{"type":"MultiPolygon","arcs":[[[120,-120,121,122]]],"properties":{"筆ID":"H000000044","version":"ver1.0","座標系":"任意座標系","測地系判別":null,"地図名":"土地連絡整理図文月（１２００）","地図番号":"53","縮尺分母":"1200","市区町村コード":"01236","市区町村名":"北斗市","大字コード":"050","丁目コード":"000","小字コード":"0000","予備コード":"00","大字名":"文月","丁目名":null,"小字名":null,"予備名":null,"地番":"346","精度区分":null,"座標値種別":"図上測量","筆界未定構成筆":null,"代表点緯度":-233765.2285,"代表点経度":28133.932347089}},{"type":"MultiPolygon","arcs":[[[123,-122,-119,124]]],"properties":{"筆ID":"H000000045","version":"ver1.0","座標系":"任意座標系","測地系判別":null,"地図名":"土地連絡整理図文月（１２００）","地図番号":"53","縮尺分母":"1200","市区町村コード":"01236","市区町村名":"北斗市","大字コード":"050","丁目コード":"000","小字コード":"0000","予備コード":"00","大字名":"文月","丁目名":null,"小字名":null,"予備名":null,"地番":"347","精度区分":null,"座標値種別":"図上測量","筆界未定構成筆":null,"代表点緯度":-233824.863,"代表点経度":27926.338171872}},{"type":"MultiPolygon","arcs":[[[125,-123,-124,126]]],"properties":{"筆ID":"H000000046","version":"ver1.0","座標系":"任意座標系","測地系判別":null,"地図名":"土地連絡整理図文月（１２００）","地図番号":"53","縮尺分母":"1200","市区町村コード":"01236","市区町村名":"北斗市","大字コード":"050","丁目コード":"000","小字コード":"0000","予備コード":"00","大字名":"文月","丁目名":null,"小字名":null,"予備名":null,"地番":"348","精度区分":null,"座標値種別":"図上測量","筆界未定構成筆":null,"代表点緯度":-233674.094,"代表点経度":28141.147912296}},{"type":"MultiPolygon","arcs":[[[127,128,-127,129]]],"properties":{"筆ID":"H000000047","version":"ver1.0","座標系":"任意座標系","測地系判別":null,"地図名":"土地連絡整理図文月（１２００）","地図番号":"53","縮尺分母":"1200","市区町村コード":"01236","市区町村名":"北斗市","大字コード":"050","丁目コード":"000","小字コード":"0000","予備コード":"00","大字名":"文月","丁目名":null,"小字名":null,"予備名":null,"地番":"349","精度区分":null,"座標値種別":"図上測量","筆界未定構成筆":null,"代表点緯度":-233609.225,"代表点経度":28108.30655931}},{"type":"MultiPolygon","arcs":[[[130,-128,131,132]]],"properties":{"筆ID":"H000000048","version":"ver1.0","座標系":"任意座標系","測地系判別":null,"地図名":"土地連絡整理図文月（１２００）","地図番号":"53","縮尺分母":"1200","市区町村コード":"01236","市区町村名":"北斗市","大字コード":"050","丁目コード":"000","小字コード":"0000","予備コード":"00","大字名":"文月","丁目名":null,"小字名":null,"予備名":null,"地番":"350","精度区分":null,"座標値種別":"図上測量","筆界未定構成筆":null,"代表点緯度":-233521.333,"代表点経度":28111.975335807}},{"type":"MultiPolygon","arcs":[[[133,134,-133,135]]],"properties":{"筆ID":"H000000049","version":"ver1.0","座標系":"任意座標系","測地系判別":null,"地図名":"土地連絡整理図文月（１２００）","地図番号":"53","縮尺分母":"1200","市区町村コード":"01236","市区町村名":"北斗市","大字コード":"050","丁目コード":"000","小字コード":"0000","予備コード":"00","大字名":"文月","丁目名":null,"小字名":null,"予備名":null,"地番":"351","精度区分":null,"座標値種別":"図上測量","筆界未定構成筆":null,"代表点緯度":-233493.152,"代表点経度":28038.69183468}},{"type":"MultiPolygon","arcs":[[[-134,136]]],"properties":{"筆ID":"H000000050","version":"ver1.0","座標系":"任意座標系","測地系判別":null,"地図名":"土地連絡整理図文月（１２００）","地図番号":"53","縮尺分母":"1200","市区町村コード":"01236","市区町村名":"北斗市","大字コード":"050","丁目コード":"000","小字コード":"0000","予備コード":"00","大字名":"文月","丁目名":null,"小字名":null,"予備名":null,"地番":"352","精度区分":null,"座標値種別":"図上測量","筆界未定構成筆":null,"代表点緯度":-233415.8315,"代表点経度":28013.240491407}},{"type":"MultiPolygon","arcs":[[[137,-46,138,-48]]],"properties":{"筆ID":"H000000051","version":"ver1.0","座標系":"任意座標系","測地系判別":null,"地図名":"土地連絡整理図文月（１２００）","地図番号":"49","縮尺分母":"1200","市区町村コード":"01236","市区町村名":"北斗市","大字コード":"050","丁目コード":"000","小字コード":"0000","予備コード":"00","大字名":"文月","丁目名":null,"小字名":null,"予備名":null,"地番":"筆界未定地-1","精度区分":null,"座標値種別":"図上測量","筆界未定構成筆":[{"大字コード":"050","丁目コード":"000","小字コード":"0000","予備コード":"00","大字名":"文月","地番":"309"},{"大字コード":"050","丁目コード":"000","小字コード":"0000","予備コード":"00","大字名":"文月","地番":"309-1"}],"代表点緯度":-236115.2505,"代表点経度":28483.688610341}},{"type":"MultiPolygon","arcs":[[[139,-36,140,-38]]],"properties":{"筆ID":"H000000052","version":"ver1.0","座標系":"任意座標系","測地系判別":null,"地図名":"土地連絡整理図文月（１２００）","地図番号":"50","縮尺分母":"1200","市区町村コード":"01236","市区町村名":"北斗市","大字コード":"050","丁目コード":"000","小字コード":"0000","予備コード":"00","大字名":"文月","丁目名":null,"小字名":null,"予備名":null,"地番":"筆界未定地-2","精度区分":null,"座標値種別":"図上測量","筆界未定構成筆":[{"大字コード":"050","丁目コード":"000","小字コード":"0000","予備コード":"00","大字名":"文月","地番":"305"},{"大字コード":"050","丁目コード":"000","小字コード":"0000","予備コード":"00","大字名":"文月","地番":"305-1"}],"代表点緯度":-236321.214,"代表点経度":28639.566654906}},{"type":"MultiPolygon","arcs":[[[141,142,143,-31]]],"properties":{"筆ID":"H000000053","version":"ver1.0","座標系":"任意座標系","測地系判別":null,"地図名":"土地連絡整理図文月（１２００）","地図番号":"50","縮尺分母":"1200","市区町村コード":"01236","市区町村名":"北斗市","大字コード":"050","丁目コード":"000","小字コード":"0000","予備コード":"00","大字名":"文月","丁目名":null,"小字名":null,"予備名":null,"地番":"筆界未定地-3","精度区分":null,"座標値種別":"図上測量","筆界未定構成筆":[{"大字コード":"050","丁目コード":"000","小字コード":"0000","予備コード":"00","大字名":"文月","地番":"302"},{"大字コード":"050","丁目コード":"000","小字コード":"0000","予備コード":"00","大字名":"文月","地番":"302-1"}],"代表点緯度":-236408.741,"代表点経度":28747.476307474}},{"type":"MultiPolygon","arcs":[[[144,-17,-29,-28,145,-143]]],"properties":{"筆ID":"H000000054","version":"ver1.0","座標系":"任意座標系","測地系判別":null,"地図名":"土地連絡整理図文月（１２００）","地図番号":"50","縮尺分母":"1200","市区町村コード":"01236","市区町村名":"北斗市","大字コード":"050","丁目コード":"000","小字コード":"0000","予備コード":"00","大字名":"文月","丁目名":null,"小字名":null,"予備名":null,"地番":"筆界未定地-4","精度区分":null,"座標値種別":"図上測量","筆界未定構成筆":[{"大字コード":"050","丁目コード":"000","小字コード":"0000","予備コード":"00","大字名":"文月","地番":"301-1"},{"大字コード":"050","丁目コード":"000","小字コード":"0000","予備コード":"00","大字名":"文月","地番":"301-2"}],"代表点緯度":-236376.814,"代表点経度":28818.700532422}},{"type":"MultiPolygon","arcs":[[[146,-99]]],"properties":{"筆ID":"H000000055","version":"ver1.0","座標系":"任意座標系","測地系判別":null,"地図名":"土地連絡整理図文月（１２００）","地図番号":"55","縮尺分母":"1200","市区町村コード":"01236","市区町村名":"北斗市","大字コード":"050","丁目コード":"000","小字コード":"0000","予備コード":"00","大字名":"文月","丁目名":null,"小字名":null,"予備名":null,"地番":"筆界未定地-5","精度区分":null,"座標値種別":"図上測量","筆界未定構成筆":[{"大字コード":"050","丁目コード":"000","小字コード":"0000","予備コード":"00","大字名":"文月","地番":"338-1"},{"大字コード":"050","丁目コード":"000","小字コード":"0000","予備コード":"00","大字名":"文月","地番":"338-2"}],"代表点緯度":-234562.996,"代表点経度":28520.185402663}}]}},"arcs":[[[824688,20630],[25464,16292]],[[850152,36922],[4357,1894],[13883,7855],[-1767,771]],[[866625,47442],[18548,11846]],[[885173,59288],[3175,-1388],[23276,13169],[9434,5317],[20379,15086],[6621,2811],[13389,5762],[13637,5932],[7322,4137],[-4351,2034]],[[978055,112148],[21944,-2738],[-123989,-80782],[-39670,-25890],[-4333,-2738],[-324,4592],[-5675,4524],[-4438,8565]],[[821570,17681],[1532,-535],[1539,3404],[47,80]],[[821570,17681],[-372,717]],[[821198,18398],[3490,2232]],[[850152,36922],[16473,10520]],[[934213,90608],[1205,-534],[7751,4446],[-1677,759]],[[941492,95279],[27958,17943]],[[969450,113222],[8605,-1074]],[[885173,59288],[49040,31320]],[[934213,90608],[7279,4671]],[[937777,117492],[15165,-2043]],[[952942,115449],[-24937,-18676],[-26945,-11763],[-32817,-18543],[5475,-2331],[-20034,-11205],[-5383,2323],[-11084,-6420]],[[837217,48834],[25587,17441],[74973,51217]],[[827004,41873],[620,423],[9593,6538]],[[952942,115449],[16508,-2227]],[[941492,95279],[-7101,3214],[-7976,-4431],[7798,-3454]],[[885173,59288],[-1811,793],[-20086,-11177],[3349,-1462]],[[850152,36922],[-21439,-9326],[-4025,-6966]],[[821198,18398],[-2785,5265],[-4710,4785]],[[813703,28448],[8116,-2746],[6366,4913],[-9425,3252],[-6643,-4906],[1586,-513]],[[813703,28448],[-5167,-361]],[[808536,28087],[2058,1510],[7271,5351],[9139,6925]],[[808536,28087],[-1982,-138]],[[806554,27949],[20450,13924]],[[827004,41873],[6912,5238],[3301,1723]],[[854500,105615],[31579,-2399]],[[886079,103216],[-60085,-27653],[-87289,-39933]],[[738705,35630],[-8943,2719],[-7560,3938],[-427,4565],[-2929,645]],[[718846,47497],[63475,27342],[72179,30776]],[[828050,112877],[8028,-5921],[18422,-1341]],[[718846,47497],[-12242,2748],[-14865,3321],[-2830,978]],[[688909,54544],[60994,25608],[78147,32725]],[[787394,143608],[12932,-6326],[11711,-10406]],[[812037,126876],[-150479,-66900]],[[661558,59976],[-7802,281],[-24303,1707],[-3571,2427]],[[625882,64391],[29231,14299],[93564,45868],[38717,19050]],[[617173,80218],[38845,20531],[105707,56426]],[[761725,157175],[5243,-2888],[20426,-10679]],[[625882,64391],[-5676,3787],[-3330,7708],[297,4332]],[[722227,180422],[15022,-9078],[24476,-14169]],[[617173,80218],[1027,9421],[-6869,5653],[-12,900]],[[611319,96192],[50869,38790],[60039,45440]],[[682264,211103],[24200,-14646]],[[706464,196457],[-109548,-87923]],[[596916,108534],[-2692,3934],[-10674,12960]],[[583550,125428],[36588,31739],[62126,53936]],[[658548,225149],[23716,-14046]],[[583550,125428],[-38,47],[-3464,3683],[-6786,1500],[-11904,9738]],[[561358,140396],[50907,44481],[46283,40272]],[[643601,235275],[14947,-10126]],[[561358,140396],[-24414,-7292],[-6834,271]],[[530110,133375],[23963,21406],[89528,80494]],[[630683,243417],[12918,-8142]],[[530110,133375],[-13078,519],[-4937,782]],[[512095,134676],[31074,28525],[38610,35428],[48904,44788]],[[453562,237895],[9043,11538],[46127,60439]],[[508732,309872],[12893,-8355],[47860,-29739],[19397,-8985],[41801,-19376]],[[512095,134676],[-11201,2513],[-12106,5196],[-13838,1285],[-14257,4624],[-21141,3661],[-3310,3758],[-4255,13498],[-29957,16867],[-10659,9276],[-165,10309],[23049,8907],[7457,5620],[15884,8098],[15966,9607]],[[474507,330890],[28115,-17421],[6110,-3597]],[[453562,237895],[-666,13429],[-11691,10924]],[[441205,262248],[3594,7041],[29708,61601]],[[453664,343268],[20843,-12378]],[[441205,262248],[-15459,9465],[-18613,1964]],[[407133,273677],[46531,69591]],[[407133,273677],[-10190,1065],[-23351,-2346],[-12774,3168]],[[360818,275564],[66160,87232]],[[426978,362796],[16366,-12563],[10320,-6965]],[[360818,275564],[-29286,4402],[-12056,4135]],[[319476,284101],[65138,83570]],[[384614,367671],[42364,-4875]],[[319476,284101],[-23481,9205],[-17752,-1134]],[[278243,292172],[66153,83797]],[[344396,375969],[37373,-7853],[2845,-445]],[[306227,388551],[38169,-12582]],[[278243,292172],[-27997,-6703],[-15085,3715]],[[235161,289184],[41692,58392],[28026,39244],[1348,1731]],[[269598,402713],[36629,-14162]],[[235161,289184],[-15009,3611],[-8075,8233],[6098,8209]],[[218175,309237],[23740,43091],[27683,50385]],[[230744,415787],[38854,-13074]],[[218175,309237],[-9785,18604]],[[208390,327841],[22354,87946]],[[215714,437423],[15030,-21636]],[[208390,327841],[-2018,3773],[-35626,9595]],[[170746,341209],[44968,96214]],[[195055,458086],[20659,-20663]],[[170746,341209],[-24406,-614],[-8308,16776],[-9927,6858]],[[128105,364229],[66950,93857]],[[161726,477219],[33329,-19133]],[[128105,364229],[-20908,9158],[-2384,14016]],[[104813,387403],[32014,50457],[24899,39359]],[[104813,387403],[-16162,11975],[-3371,17382],[-1411,5528],[-6709,6938],[-3096,1551],[23486,15220],[40209,26043],[15345,9951],[8622,-4772]],[[142639,487762],[8254,-4531],[-32354,-21069],[-36883,-23844],[-9779,-6384],[-24426,12628],[-27236,6348],[-20215,141],[58296,14959],[84343,21752]],[[763448,716256],[14088,-24688]],[[777536,691568],[-102776,-70284],[-76624,-52380]],[[598136,568904],[-25795,18339]],[[572341,587243],[53810,36230],[85411,57629],[51886,35154]],[[634628,690992],[75375,50503]],[[710003,741495],[53445,-25239]],[[572341,587243],[-55175,25313]],[[517166,612556],[55836,37285]],[[573002,649841],[61626,41151]],[[654502,767809],[32555,-15497],[22946,-10817]],[[634628,690992],[-70047,27149]],[[564581,718141],[89921,49668]],[[573002,649841],[-82502,27519]],[[490500,677360],[74081,40781]],[[517166,612556],[-82622,33952]],[[434544,646508],[55956,30852]],[[390342,795313],[133540,36109],[54071,14617]],[[577953,846039],[14465,-20410],[36775,-34254],[25309,-23566]],[[434544,646508],[-18536,22972],[-25322,32982],[-24382,12656],[-8553,8656],[1363,20244],[14188,22236],[15374,11576],[1666,17483]],[[562206,868512],[15747,-22473]],[[390342,795313],[-13910,21310],[-188,88]],[[376244,816711],[-34,73]],[[376210,816784],[95413,26397],[90583,25331]],[[546503,890995],[15703,-22483]],[[376210,816784],[-10553,22210]],[[365657,838994],[125266,35969],[55580,16032]],[[360189,861196],[-1506,-7550],[6974,-14652]],[[376244,816711],[-44082,20556],[2697,11420],[25330,12509]],[[530942,913505],[15561,-22510]],[[360189,861196],[97013,29683],[73740,22626]],[[364795,884090],[105515,36436],[45207,15554]],[[515517,936080],[15425,-22575]],[[360189,861196],[4606,22894]],[[498007,958142],[3979,-2580],[13531,-19482]],[[364795,884090],[3746,22837]],[[368541,906927],[25071,9920],[67799,26734],[36596,14561]],[[371725,929769],[46933,22770],[49918,24467]],[[468576,977006],[29431,-18864]],[[368541,906927],[3184,22842]],[[371725,929769],[2693,18037],[-11984,18946],[37488,18239],[30743,15008],[27327,-16360],[10584,-6633]],[[706464,196457],[15763,-16035]],[[611319,96192],[220,3286],[-13638,7372],[-985,1684]],[[812037,126876],[16013,-13999]],[[688909,54544],[-12903,4769],[-14448,663]],[[886079,103216],[4193,-317],[20384,8701]],[[910656,111600],[-29042,-17881],[-45808,-28259],[-59035,-36325]],[[776771,29135],[-3129,1340],[-4833,73],[-25658,3729],[-4446,1353]],[[910656,111600],[17647,6903],[9474,-1011]],[[806554,27949],[-23289,-1717],[-6494,2903]],[[777536,691568],[12528,-23007],[-71524,-52154],[-74669,-54355],[-19917,-14393],[-25818,21245]]],"bbox":[27329.252,-236646.091,29039.039,-233279.997],"transform":{"scale":[0.00170978870978871,0.0033660973660973492],"translate":[27329.252,-236646.091]}}
