{"type":"Topology","objects":{"01236-4400-68":{"type":"GeometryCollection","geometries":[{"type":"MultiPolygon","arcs":[[[0,1,2,3,4]]],"properties":{"筆ID":"H000000001","version":"ver1.0","座標系":"任意座標系","測地系判別":null,"地図名":"土地連絡整理図本郷（１２００）","地図番号":"13","縮尺分母":"1200","市区町村コード":"01236","市区町村名":"北斗市","大字コード":"052","丁目コード":"000","小字コード":"0000","予備コード":"00","大字名":"本郷","丁目名":null,"小字名":null,"予備名":null,"地番":"233-1","精度区分":null,"座標値種別":"図上測量","筆界未定構成筆":null,"代表点緯度":633.2545,"代表点経度":-421.476910327}},{"type":"MultiPolygon","arcs":[[[5,6,7,-3]]],"properties":{"筆ID":"H000000002","version":"ver1.0","座標系":"任意座標系","測地系判別":null,"地図名":"土地連絡整理図本郷（１２００）","地図番号":"12","縮尺分母":"1200","市区町村コード":"01236","市区町村名":"北斗市","大字コード":"052","丁目コード":"000","小字コード":"0000","予備コード":"00","大字名":"本郷","丁目名":null,"小字名":null,"予備名":null,"地番":"233-2","精度区分":null,"座標値種別":"図上測量","筆界未定構成筆":null,"代表点緯度":603.063,"代表点経度":-412.533967637}},{"type":"MultiPolygon","arcs":[[[8,-6,-2]]],"properties":{"筆ID":"H000000003","version":"ver1.0","座標系":"任意座標系","測地系判別":null,"地図名":"土地連絡整理図本郷（１２００）","地図番号":"12","縮尺分母":"1200","市区町村コード":"01236","市区町村名":"北斗市","大字コード":"052","丁目コード":"000","小字コード":"0000","予備コード":"00","大字名":"本郷","丁目名":null,"小字名":null,"予備名":null,"地番":"233-3","精度区分":null,"座標値種別":"図上測量","筆界未定構成筆":null,"代表点緯度":593.7045,"代表点経度":-396.304531163}},{"type":"MultiPolygon","arcs":[[[9,10,11,12,13,14,-5,15]]],"properties":{"筆ID":"H000000004","version":"ver1.0","座標系":"任意座標系","測地系判別":null,"地図名":"土地連絡整理図本郷（１２００）","地図番号":"13","縮尺分母":"1200","市区町村コード":"01236","市区町村名":"北斗市","大字コード":"052","丁目コード":"000","小字コード":"0000","予備コード":"00","大字名":"本郷","丁目名":null,"小字名":null,"予備名":null,"地番":"336-1","精度区分":null,"座標値種別":"図上測量","筆界未定構成筆":null,"代表点緯度":627.533,"代表点経度":-364.972908045}},{"type":"MultiPolygon","arcs":[[[16,-14]]],"properties":{"筆ID":"H000000005","version":"ver1.0","座標系":"任意座標系","測地系判別":null,"地図名":"土地連絡整理図本郷（１２００）","地図番号":"12","縮尺分母":"1200","市区町村コード":"01236","市区町村名":"北斗市","大字コード":"052","丁目コード":"000","小字コード":"0000","予備コード":"00","大字名":"本郷","丁目名":null,"小字名":null,"予備名":null,"地番":"336-2","精度区分":null,"座標値種別":"図上測量","筆界未定構成筆":null,"代表点緯度":603.748,"代表点経度":-350.961947196}},{"type":"MultiPolygon","arcs":[[[17,18,19,20,-10,21]]],"properties":{"筆ID":"H000000006","version":"ver1.0","座標系":"任意座標系","測地系判別":null,"地図名":"土地連絡整理図本郷（１２００）","地図番号":"12","縮尺分母":"1200","市区町村コード":"01236","市区町村名":"北斗市","大字コード":"052","丁目コード":"000","小字コード":"0000","予備コード":"00","大字名":"本郷","丁目名":null,"小字名":null,"予備名":null,"地番":"337","精度区分":null,"座標値種別":"図上測量","筆界未定構成筆":null,"代表点緯度":629.2325,"代表点経度":-298.000370961}},{"type":"MultiPolygon","arcs":[[[-9,22,-17,-13,23,24,-7]]],"properties":{"筆ID":"H000000007","version":"ver1.0","座標系":"任意座標系","測地系判別":null,"地図名":"土地連絡整理図本郷（１２００）","地図番号":"12","縮尺分母":"1200","市区町村コード":"01236","市区町村名":"北斗市","大字コード":"052","丁目コード":"000","小字コード":"0000","予備コード":"00","大字名":"本郷","丁目名":null,"小字名":null,"予備名":null,"地番":"338-1","精度区分":null,"座標値種別":"図上測量","筆界未定構成筆":null,"代表点緯度":576.937,"代表点経度":-362.748261925}},{"type":"MultiPolygon","arcs":[[[25,26,-11,-21]]],"properties":{"筆ID":"H000000008","version":"ver1.0","座標系":"任意座標系","測地系判別":null,"地図名":"土地連絡整理図本郷（１２００）","地図番号":"12","縮尺分母":"1200","市区町村コード":"01236","市区町村名":"北斗市","大字コード":"052","丁目コード":"000","小字コード":"0000","予備コード":"00","大字名":"本郷","丁目名":null,"小字名":null,"予備名":null,"地番":"338-2","精度区分":null,"座標値種別":"図上測量","筆界未定構成筆":null,"代表点緯度":603.7785,"代表点経度":-273.504700668}},{"type":"MultiPolygon","arcs":[[[27,28,29,30,-26,-20]]],"properties":{"筆ID":"H000000009","version":"ver1.0","座標系":"任意座標系","測地系判別":null,"地図名":"土地連絡整理図本郷（１２００）","地図番号":"12","縮尺分母":"1200","市区町村コード":"01236","市区町村名":"北斗市","大字コード":"052","丁目コード":"000","小字コード":"0000","予備コード":"00","大字名":"本郷","丁目名":null,"小字名":null,"予備名":null,"地番":"338-3","精度区分":null,"座標値種別":"図上測量","筆界未定構成筆":null,"代表点緯度":592.3715,"代表点経度":-251.847447645}},{"type":"MultiPolygon","arcs":[[[31,32,-29,33]]],"properties":{"筆ID":"H000000010","version":"ver1.0","座標系":"任意座標系","測地系判別":null,"地図名":"土地連絡整理図本郷（１２００）","地図番号":"12","縮尺分母":"1200","市区町村コード":"01236","市区町村名":"北斗市","大字コード":"052","丁目コード":"000","小字コード":"0000","予備コード":"00","大字名":"本郷","丁目名":null,"小字名":null,"予備名":null,"地番":"338-4","精度区分":null,"座標値種別":"図上測量","筆界未定構成筆":null,"代表点緯度":575.4355,"代表点経度":-228.252544687}},{"type":"MultiPolygon","arcs":[[[-27,-31,34,35,-12]]],"properties":{"筆ID":"H000000011","version":"ver1.0","座標系":"任意座標系","測地系判別":null,"地図名":"土地連絡整理図本郷（１２００）","地図番号":"12","縮尺分母":"1200","市区町村コード":"01236","市区町村名":"北斗市","大字コード":"052","丁目コード":"000","小字コード":"0000","予備コード":"00","大字名":"本郷","丁目名":null,"小字名":null,"予備名":null,"地番":"338-5","精度区分":null,"座標値種別":"図上測量","筆界未定構成筆":null,"代表点緯度":576.2885,"代表点経度":-286.699302103}},{"type":"MultiPolygon","arcs":[[[36,-24,-36]]],"properties":{"筆ID":"H000000012","version":"ver1.0","座標系":"任意座標系","測地系判別":null,"地図名":"土地連絡整理図本郷（１２００）","地図番号":"12","縮尺分母":"1200","市区町村コード":"01236","市区町村名":"北斗市","大字コード":"052","丁目コード":"000","小字コード":"0000","予備コード":"00","大字名":"本郷","丁目名":null,"小字名":null,"予備名":null,"地番":"338-6","精度区分":null,"座標値種別":"図上測量","筆界未定構成筆":null,"代表点緯度":578.924,"代表点経度":-322.326867038}},{"type":"MultiPolygon","arcs":[[[-23,-1,-15]]],"properties":{"筆ID":"H000000013","version":"ver1.0","座標系":"任意座標系","測地系判別":null,"地図名":"土地連絡整理図本郷（１２００）","地図番号":"12","縮尺分母":"1200","市区町村コード":"01236","市区町村名":"北斗市","大字コード":"052","丁目コード":"000","小字コード":"0000","予備コード":"00","大字名":"本郷","丁目名":null,"小字名":null,"予備名":null,"地番":"338-7","精度区分":null,"座標値種別":"図上測量","筆界未定構成筆":null,"代表点緯度":603.385,"代表点経度":-378.648301057}},{"type":"MultiPolygon","arcs":[[[37,38,39,40,-33]]],"properties":{"筆ID":"H000000014","version":"ver1.0","座標系":"任意座標系","測地系判別":null,"地図名":"土地連絡整理図本郷（１２００）","地図番号":"12","縮尺分母":"1200","市区町村コード":"01236","市区町村名":"北斗市","大字コード":"052","丁目コード":"000","小字コード":"0000","予備コード":"00","大字名":"本郷","丁目名":null,"小字名":null,"予備名":null,"地番":"339-3","精度区分":null,"座標値種別":"図上測量","筆界未定構成筆":null,"代表点緯度":549.8285,"代表点経度":-228.91018142}},{"type":"MultiPolygon","arcs":[[[41,42,43,-40]]],"properties":{"筆ID":"H000000015","version":"ver1.0","座標系":"任意座標系","測地系判別":null,"地図名":"土地連絡整理図本郷（１２００）","地図番号":"12","縮尺分母":"1200","市区町村コード":"01236","市区町村名":"北斗市","大字コード":"052","丁目コード":"000","小字コード":"0000","予備コード":"00","大字名":"本郷","丁目名":null,"小字名":null,"予備名":null,"地番":"339-4","精度区分":null,"座標値種別":"図上測量","筆界未定構成筆":null,"代表点緯度":539.3155,"代表点経度":-241.935173476}},{"type":"MultiPolygon","arcs":[[[-44,44,45,-30,-41]]],"properties":{"筆ID":"H000000016","version":"ver1.0","座標系":"任意座標系","測地系判別":null,"地図名":"土地連絡整理図本郷（１２００）","地図番号":"12","縮尺分母":"1200","市区町村コード":"01236","市区町村名":"北斗市","大字コード":"052","丁目コード":"000","小字コード":"0000","予備コード":"00","大字名":"本郷","丁目名":null,"小字名":null,"予備名":null,"地番":"339-5","精度区分":null,"座標値種別":"図上測量","筆界未定構成筆":null,"代表点緯度":540.36,"代表点経度":-248.496114312}},{"type":"MultiPolygon","arcs":[[[46,47,48,49,50,51,-43]]],"properties":{"筆ID":"H000000017","version":"ver1.0","座標系":"任意座標系","測地系判別":null,"地図名":"土地連絡整理図本郷（１２００）","地図番号":"12","縮尺分母":"1200","市区町村コード":"01236","市区町村名":"北斗市","大字コード":"052","丁目コード":"000","小字コード":"0000","予備コード":"00","大字名":"本郷","丁目名":null,"小字名":null,"予備名":null,"地番":"343-5","精度区分":null,"座標値種別":"図上測量","筆界未定構成筆":null,"代表点緯度":526.641,"代表点経度":-224.518621714}},{"type":"MultiPolygon","arcs":[[[52,53]]],"properties":{"筆ID":"H000000018","version":"ver1.0","座標系":"任意座標系","測地系判別":null,"地図名":"土地連絡整理図本郷（１２００）","地図番号":"12","縮尺分母":"1200","市区町村コード":"01236","市区町村名":"北斗市","大字コード":"052","丁目コード":"000","小字コード":"0000","予備コード":"00","大字名":"本郷","丁目名":null,"小字名":null,"予備名":null,"地番":"343-16","精度区分":null,"座標値種別":"図上測量","筆界未定構成筆":null,"代表点緯度":516.3745,"代表点経度":-224.69330502}},{"type":"MultiPolygon","arcs":[[[-52,54,55,56,57,58,-45]]],"properties":{"筆ID":"H000000019","version":"ver1.0","座標系":"任意座標系","測地系判別":null,"地図名":"土地連絡整理図本郷（１２００）","地図番号":"12","縮尺分母":"1200","市区町村コード":"01236","市区町村名":"北斗市","大字コード":"052","丁目コード":"000","小字コード":"0000","予備コード":"00","大字名":"本郷","丁目名":null,"小字名":null,"予備名":null,"地番":"343-22","精度区分":null,"座標値種別":"図上測量","筆界未定構成筆":null,"代表点緯度":524.1055,"代表点経度":-245.723189526}},{"type":"MultiPolygon","arcs":[[[-55,-51]]],"properties":{"筆ID":"H000000020","version":"ver1.0","座標系":"任意座標系","測地系判別":null,"地図名":"土地連絡整理図本郷（１２００）","地図番号":"12","縮尺分母":"1200","市区町村コード":"01236","市区町村名":"北斗市","大字コード":"052","丁目コード":"000","小字コード":"0000","予備コード":"00","大字名":"本郷","丁目名":null,"小字名":null,"予備名":null,"地番":"343-23","精度区分":null,"座標値種別":"図上測量","筆界未定構成筆":null,"代表点緯度":528.1095,"代表点経度":-241.005549787}},{"type":"MultiPolygon","arcs":[[[-53,59,60,61,-57]]],"properties":{"筆ID":"H000000021","version":"ver1.0","座標系":"任意座標系","測地系判別":null,"地図名":"土地連絡整理図本郷（１２００）","地図番号":"12","縮尺分母":"1200","市区町村コード":"01236","市区町村名":"北斗市","大字コード":"052","丁目コード":"000","小字コード":"0000","予備コード":"00","大字名":"本郷","丁目名":null,"小字名":null,"予備名":null,"地番":"343-24","精度区分":null,"座標値種別":"図上測量","筆界未定構成筆":null,"代表点緯度":505.6345,"代表点経度":-213.365215505}},{"type":"MultiPolygon","arcs":[[[62,63,64,65,-60,66]]],"properties":{"筆ID":"H000000022","version":"ver1.0","座標系":"任意座標系","測地系判別":null,"地図名":"土地連絡整理図本郷（１２００）","地図番号":"12","縮尺分母":"1200","市区町村コード":"01236","市区町村名":"北斗市","大字コード":"052","丁目コード":"000","小字コード":"0000","予備コード":"00","大字名":"本郷","丁目名":null,"小字名":null,"予備名":null,"地番":"343-25","精度区分":null,"座標値種別":"図上測量","筆界未定構成筆":null,"代表点緯度":519.2075,"代表点経度":-207.95430707}},{"type":"MultiPolygon","arcs":[[[67,-63,-49]]],"properties":{"筆ID":"H000000023","version":"ver1.0","座標系":"任意座標系","測地系判別":null,"地図名":"土地連絡整理図本郷（１２００）","地図番号":"12","縮尺分母":"1200","市区町村コード":"01236","市区町村名":"北斗市","大字コード":"052","丁目コード":"000","小字コード":"0000","予備コード":"00","大字名":"本郷","丁目名":null,"小字名":null,"予備名":null,"地番":"343-26","精度区分":null,"座標値種別":"図上測量","筆界未定構成筆":null,"代表点緯度":526.555,"代表点経度":-209.329791576}},{"type":"MultiPolygon","arcs":[[[68,-64,-68,69]]],"properties":{"筆ID":"H000000024","version":"ver1.0","座標系":"任意座標系","測地系判別":null,"地図名":"土地連絡整理図本郷（１２００）","地図番号":"12","縮尺分母":"1200","市区町村コード":"01236","市区町村名":"北斗市","大字コード":"052","丁目コード":"000","小字コード":"0000","予備コード":"00","大字名":"本郷","丁目名":null,"小字名":null,"予備名":null,"地番":"343-27","精度区分":null,"座標値種別":"図上測量","筆界未定構成筆":null,"代表点緯度":527.8645,"代表点経度":-201.726717798}},{"type":"MultiPolygon","arcs":[[[70,-70,-48]]],"properties":{"筆ID":"H000000025","version":"ver1.0","座標系":"任意座標系","測地系判別":null,"地図名":"土地連絡整理図本郷（１２００）","地図番号":"12","縮尺分母":"1200","市区町村コード":"01236","市区町村名":"北斗市","大字コード":"052","丁目コード":"000","小字コード":"0000","予備コード":"00","大字名":"本郷","丁目名":null,"小字名":null,"予備名":null,"地番":"343-29","精度区分":null,"座標値種別":"図上測量","筆界未定構成筆":null,"代表点緯度":536.1565,"代表点経度":-205.883285741}},{"type":"MultiPolygon","arcs":[[[-67,-54,-56,-50]]],"properties":{"筆ID":"H000000026","version":"ver1.0","座標系":"任意座標系","測地系判別":null,"地図名":"土地連絡整理図本郷（１２００）","地図番号":"12","縮尺分母":"1200","市区町村コード":"01236","市区町村名":"北斗市","大字コード":"052","丁目コード":"000","小字コード":"0000","予備コード":"00","大字名":"本郷","丁目名":null,"小字名":null,"予備名":null,"地番":"343-30","精度区分":null,"座標値種別":"図上測量","筆界未定構成筆":null,"代表点緯度":519.622,"代表点経度":-224.637992713}},{"type":"MultiPolygon","arcs":[[[71,72,73,74,75,76]]],"properties":{"筆ID":"H000000027","version":"ver1.0","座標系":"任意座標系","測地系判別":null,"地図名":"土地連絡整理図本郷（１２００）","地図番号":"12","縮尺分母":"1200","市区町村コード":"01236","市区町村名":"北斗市","大字コード":"052","丁目コード":"000","小字コード":"0000","予備コード":"00","大字名":"本郷","丁目名":null,"小字名":null,"予備名":null,"地番":"346-1","精度区分":null,"座標値種別":"図上測量","筆界未定構成筆":null,"代表点緯度":553.001,"代表点経度":-171.482546639}},{"type":"MultiPolygon","arcs":[[[77,-73,78,79,80,81,82,83,-69,-71,84,85,86]]],"properties":{"筆ID":"H000000028","version":"ver1.0","座標系":"任意座標系","測地系判別":null,"地図名":"土地連絡整理図本郷（１２００）","地図番号":"12","縮尺分母":"1200","市区町村コード":"01236","市区町村名":"北斗市","大字コード":"052","丁目コード":"000","小字コード":"0000","予備コード":"00","大字名":"本郷","丁目名":null,"小字名":null,"予備名":null,"地番":"346-2","精度区分":null,"座標値種別":"図上測量","筆界未定構成筆":null,"代表点緯度":522.248,"代表点経度":-153.11827513}},{"type":"MultiPolygon","arcs":[[[87,88,-86,89,-39]]],"properties":{"筆ID":"H000000029","version":"ver1.0","座標系":"任意座標系","測地系判別":null,"地図名":"土地連絡整理図本郷（１２００）","地図番号":"12","縮尺分母":"1200","市区町村コード":"01236","市区町村名":"北斗市","大字コード":"052","丁目コード":"000","小字コード":"0000","予備コード":"00","大字名":"本郷","丁目名":null,"小字名":null,"予備名":null,"地番":"346-3","精度区分":null,"座標値種別":"図上測量","筆界未定構成筆":null,"代表点緯度":550.1095,"代表点経度":-208.410159878}},{"type":"MultiPolygon","arcs":[[[-87,-89,-75]]],"properties":{"筆ID":"H000000030","version":"ver1.0","座標系":"任意座標系","測地系判別":null,"地図名":"土地連絡整理図本郷（１２００）","地図番号":"12","縮尺分母":"1200","市区町村コード":"01236","市区町村名":"北斗市","大字コード":"052","丁目コード":"000","小字コード":"0000","予備コード":"00","大字名":"本郷","丁目名":null,"小字名":null,"予備名":null,"地番":"346-4","精度区分":null,"座標値種別":"図上測量","筆界未定構成筆":null,"代表点緯度":548.984,"代表点経度":-194.919359056}},{"type":"MultiPolygon","arcs":[[[-90,-85,-47,-42]]],"properties":{"筆ID":"H000000031","version":"ver1.0","座標系":"任意座標系","測地系判別":null,"地図名":"土地連絡整理図本郷（１２００）","地図番号":"12","縮尺分母":"1200","市区町村コード":"01236","市区町村名":"北斗市","大字コード":"052","丁目コード":"000","小字コード":"0000","予備コード":"00","大字名":"本郷","丁目名":null,"小字名":null,"予備名":null,"地番":"346-5","精度区分":null,"座標値種別":"図上測量","筆界未定構成筆":null,"代表点緯度":540.457,"代表点経度":-208.08349774}},{"type":"MultiPolygon","arcs":[[[90,-65,-84,91]]],"properties":{"筆ID":"H000000032","version":"ver1.0","座標系":"任意座標系","測地系判別":null,"地図名":"土地連絡整理図本郷（１２００）","地図番号":"12","縮尺分母":"1200","市区町村コード":"01236","市区町村名":"北斗市","大字コード":"052","丁目コード":"000","小字コード":"0000","予備コード":"00","大字名":"本郷","丁目名":null,"小字名":null,"予備名":null,"地番":"346-6","精度区分":null,"座標値種別":"図上測量","筆界未定構成筆":null,"代表点緯度":517.623,"代表点経度":-178.691134472}},{"type":"MultiPolygon","arcs":[[[-83,92,93,94,-92]]],"properties":{"筆ID":"H000000033","version":"ver1.0","座標系":"任意座標系","測地系判別":null,"地図名":"土地連絡整理図本郷（１２００）","地図番号":"12","縮尺分母":"1200","市区町村コード":"01236","市区町村名":"北斗市","大字コード":"052","丁目コード":"000","小字コード":"0000","予備コード":"00","大字名":"本郷","丁目名":null,"小字名":null,"予備名":null,"地番":"346-8","精度区分":null,"座標値種別":"図上測量","筆界未定構成筆":null,"代表点緯度":513.2025,"代表点経度":-165.698301331}},{"type":"MultiPolygon","arcs":[[[-76,-88,-38,95]]],"properties":{"筆ID":"H000000034","version":"ver1.0","座標系":"任意座標系","測地系判別":null,"地図名":"土地連絡整理図本郷（１２００）","地図番号":"12","縮尺分母":"1200","市区町村コード":"01236","市区町村名":"北斗市","大字コード":"052","丁目コード":"000","小字コード":"0000","予備コード":"00","大字名":"本郷","丁目名":null,"小字名":null,"予備名":null,"地番":"346-9","精度区分":null,"座標値種別":"図上測量","筆界未定構成筆":null,"代表点緯度":558.1115,"代表点経度":-207.364021489}},{"type":"MultiPolygon","arcs":[[[-78,-74]]],"properties":{"筆ID":"H000000035","version":"ver1.0","座標系":"任意座標系","測地系判別":null,"地図名":"土地連絡整理図本郷（１２００）","地図番号":"12","縮尺分母":"1200","市区町村コード":"01236","市区町村名":"北斗市","大字コード":"052","丁目コード":"000","小字コード":"0000","予備コード":"00","大字名":"本郷","丁目名":null,"小字名":null,"予備名":null,"地番":"346-10","精度区分":null,"座標値種別":"図上測量","筆界未定構成筆":null,"代表点緯度":539.7725,"代表点経度":-149.554486983}},{"type":"MultiPolygon","arcs":[[[96,-79,-72,97,98]]],"properties":{"筆ID":"H000000036","version":"ver1.0","座標系":"任意座標系","測地系判別":null,"地図名":"土地連絡整理図本郷（１２００）","地図番号":"12","縮尺分母":"1200","市区町村コード":"01236","市区町村名":"北斗市","大字コード":"052","丁目コード":"000","小字コード":"0000","予備コード":"00","大字名":"本郷","丁目名":null,"小字名":null,"予備名":null,"地番":"348-1","精度区分":null,"座標値種別":"図上測量","筆界未定構成筆":null,"代表点緯度":566.3465,"代表点経度":-158.387548543}},{"type":"MultiPolygon","arcs":[[[99,-99,100]]],"properties":{"筆ID":"H000000037","version":"ver1.0","座標系":"任意座標系","測地系判別":null,"地図名":"土地連絡整理図本郷（１２００）","地図番号":"12","縮尺分母":"1200","市区町村コード":"01236","市区町村名":"北斗市","大字コード":"052","丁目コード":"000","小字コード":"0000","予備コード":"00","大字名":"本郷","丁目名":null,"小字名":null,"予備名":null,"地番":"348-2","精度区分":null,"座標値種別":"図上測量","筆界未定構成筆":null,"代表点緯度":575.7135,"代表点経度":-171.726559347}},{"type":"MultiPolygon","arcs":[[[-101,101,102,103]]],"properties":{"筆ID":"H000000038","version":"ver1.0","座標系":"任意座標系","測地系判別":null,"地図名":"土地連絡整理図本郷（１２００）","地図番号":"12","縮尺分母":"1200","市区町村コード":"01236","市区町村名":"北斗市","大字コード":"052","丁目コード":"000","小字コード":"0000","予備コード":"00","大字名":"本郷","丁目名":null,"小字名":null,"予備名":null,"地番":"349-1","精度区分":null,"座標値種別":"図上測量","筆界未定構成筆":null,"代表点緯度":584.157,"代表点経度":-193.096891793}},{"type":"MultiPolygon","arcs":[[[104,-96,-32,-103]]],"properties":{"筆ID":"H000000039","version":"ver1.0","座標系":"任意座標系","測地系判別":null,"地図名":"土地連絡整理図本郷（１２００）","地図番号":"12","縮尺分母":"1200","市区町村コード":"01236","市区町村名":"北斗市","大字コード":"052","丁目コード":"000","小字コード":"0000","予備コード":"00","大字名":"本郷","丁目名":null,"小字名":null,"予備名":null,"地番":"349-2","精度区分":null,"座標値種別":"図上測量","筆界未定構成筆":null,"代表点緯度":578.1505,"代表点経度":-207.412128326}},{"type":"MultiPolygon","arcs":[[[-98,-77,-105,-102]]],"properties":{"筆ID":"H000000040","version":"ver1.0","座標系":"任意座標系","測地系判別":null,"地図名":"土地連絡整理図本郷（１２００）","地図番号":"12","縮尺分母":"1200","市区町村コード":"01236","市区町村名":"北斗市","大字コード":"052","丁目コード":"000","小字コード":"0000","予備コード":"00","大字名":"本郷","丁目名":null,"小字名":null,"予備名":null,"地番":"349-3","精度区分":null,"座標値種別":"図上測量","筆界未定構成筆":null,"代表点緯度":564.704,"代表点経度":-196.664415988}},{"type":"MultiPolygon","arcs":[[[-100,-104,-34,105,106]]],"properties":{"筆ID":"H000000041","version":"ver1.0","座標系":"任意座標系","測地系判別":null,"地図名":"土地連絡整理図本郷（１２００）","地図番号":"12","縮尺分母":"1200","市区町村コード":"01236","市区町村名":"北斗市","大字コード":"052","丁目コード":"000","小字コード":"0000","予備コード":"00","大字名":"本郷","丁目名":null,"小字名":null,"予備名":null,"地番":"350-1","精度区分":null,"座標値種別":"図上測量","筆界未定構成筆":null,"代表点緯度":605.763,"代表点経度":-214.836088841}},{"type":"MultiPolygon","arcs":[[[-28,107,-106]]],"properties":{"筆ID":"H000000042","version":"ver1.0","座標系":"任意座標系","測地系判別":null,"地図名":"土地連絡整理図本郷（１２００）","地図番号":"12","縮尺分母":"1200","市区町村コード":"01236","市区町村名":"北斗市","大字コード":"052","丁目コード":"000","小字コード":"0000","予備コード":"00","大字名":"本郷","丁目名":null,"小字名":null,"予備名":null,"地番":"350-2","精度区分":null,"座標値種別":"図上測量","筆界未定構成筆":null,"代表点緯度":608.2405,"代表点経度":-251.591240628}},{"type":"MultiPolygon","arcs":[[[-18,108,109]]],"properties":{"筆ID":"H000000043","version":"ver1.0","座標系":"任意座標系","測地系判別":null,"地図名":"土地連絡整理図本郷（１２００）","地図番号":"12","縮尺分母":"1200","市区町村コード":"01236","市区町村名":"北斗市","大字コード":"052","丁目コード":"000","小字コード":"0000","予備コード":"00","大字名":"本郷","丁目名":null,"小字名":null,"予備名":null,"地番":"351-2","精度区分":null,"座標値種別":"図上測量","筆界未定構成筆":null,"代表点緯度":631.874,"代表点経度":-260.764583074}},{"type":"MultiPolygon","arcs":[[[-108,-19,-110,110]]],"properties":{"筆ID":"H000000044","version":"ver1.0","座標系":"任意座標系","測地系判別":null,"地図名":"土地連絡整理図本郷（１２００）","地図番号":"12","縮尺分母":"1200","市区町村コード":"01236","市区町村名":"北斗市","大字コード":"052","丁目コード":"000","小字コード":"0000","予備コード":"00","大字名":"本郷","丁目名":null,"小字名":null,"予備名":null,"地番":"351-3","精度区分":null,"座標値種別":"図上測量","筆界未定構成筆":null,"代表点緯度":632.9635,"代表点経度":-254.988726338}},{"type":"MultiPolygon","arcs":[[[111,-94,112]]],"properties":{"筆ID":"H000000045","version":"ver1.0","座標系":"任意座標系","測地系判別":null,"地図名":"土地連絡整理図本郷（１２００）","地図番号":"12","縮尺分母":"1200","市区町村コード":"01236","市区町村名":"北斗市","大字コード":"052","丁目コード":"000","小字コード":"0000","予備コード":"00","大字名":"本郷","丁目名":null,"小字名":null,"予備名":null,"地番":"343-28","精度区分":null,"座標値種別":"図上測量","筆界未定構成筆":null,"代表点緯度":505.663,"代表点経度":-172.25001693}},{"type":"MultiPolygon","arcs":[[[113,-82]]],"properties":{"筆ID":"H000000046","version":"ver1.0","座標系":"任意座標系","測地系判別":null,"地図名":"土地連絡整理図本郷（１２００）","地図番号":"12","縮尺分母":"1200","市区町村コード":"01236","市区町村名":"北斗市","大字コード":"052","丁目コード":"000","小字コード":"0000","予備コード":"00","大字名":"本郷","丁目名":null,"小字名":null,"予備名":null,"地番":"345-4","精度区分":null,"座標値種別":"図上測量","筆界未定構成筆":null,"代表点緯度":519.33,"代表点経度":-143.81847904}},{"type":"MultiPolygon","arcs":[[[114,115,116,117]]],"properties":{"筆ID":"H000000047","version":"ver1.0","座標系":"任意座標系","測地系判別":null,"地図名":"土地連絡整理図本郷（１２００）","地図番号":"12","縮尺分母":"1200","市区町村コード":"01236","市区町村名":"北斗市","大字コード":"052","丁目コード":"000","小字コード":"0000","予備コード":"00","大字名":"本郷","丁目名":null,"小字名":null,"予備名":null,"地番":"342-9","精度区分":null,"座標値種別":"図上測量","筆界未定構成筆":null,"代表点緯度":401.6585,"代表点経度":-200.270079684}},{"type":"MultiPolygon","arcs":[[[-117,118,119,120]]],"properties":{"筆ID":"H000000048","version":"ver1.0","座標系":"任意座標系","測地系判別":null,"地図名":"土地連絡整理図本郷（１２００）","地図番号":"12","縮尺分母":"1200","市区町村コード":"01236","市区町村名":"北斗市","大字コード":"052","丁目コード":"000","小字コード":"0000","予備コード":"00","大字名":"本郷","丁目名":null,"小字名":null,"予備名":null,"地番":"342-10","精度区分":null,"座標値種別":"図上測量","筆界未定構成筆":null,"代表点緯度":401.2405,"代表点経度":-220.059012382}},{"type":"MultiPolygon","arcs":[[[121,-121,122,123,124]]],"properties":{"筆ID":"H000000049","version":"ver1.0","座標系":"任意座標系","測地系判別":null,"地図名":"土地連絡整理図本郷（１２００）","地図番号":"12","縮尺分母":"1200","市区町村コード":"01236","市区町村名":"北斗市","大字コード":"052","丁目コード":"000","小字コード":"0000","予備コード":"00","大字名":"本郷","丁目名":null,"小字名":null,"予備名":null,"地番":"342-2","精度区分":null,"座標値種別":"図上測量","筆界未定構成筆":null,"代表点緯度":418.7025,"代表点経度":-223.635741087}},{"type":"MultiPolygon","arcs":[[[125,-118,-122,126,127]]],"properties":{"筆ID":"H000000050","version":"ver1.0","座標系":"任意座標系","測地系判別":null,"地図名":"土地連絡整理図本郷（１２００）","地図番号":"12","縮尺分母":"1200","市区町村コード":"01236","市区町村名":"北斗市","大字コード":"052","丁目コード":"000","小字コード":"0000","予備コード":"00","大字名":"本郷","丁目名":null,"小字名":null,"予備名":null,"地番":"342-1","精度区分":null,"座標値種別":"図上測量","筆界未定構成筆":null,"代表点緯度":422.394,"代表点経度":-210.546222837}},{"type":"MultiPolygon","arcs":[[[128,129,130,131]]],"properties":{"筆ID":"H000000051","version":"ver1.0","座標系":"任意座標系","測地系判別":null,"地図名":"土地連絡整理図本郷（１２００）","地図番号":"12","縮尺分母":"1200","市区町村コード":"01236","市区町村名":"北斗市","大字コード":"052","丁目コード":"000","小字コード":"0000","予備コード":"00","大字名":"本郷","丁目名":null,"小字名":null,"予備名":null,"地番":"345-3","精度区分":null,"座標値種別":"図上測量","筆界未定構成筆":null,"代表点緯度":481.5655,"代表点経度":-159.036140418}},{"type":"MultiPolygon","arcs":[[[132,133,-115,134]]],"properties":{"筆ID":"H000000052","version":"ver1.0","座標系":"任意座標系","測地系判別":null,"地図名":"土地連絡整理図本郷（１２００）","地図番号":"12","縮尺分母":"1200","市区町村コード":"01236","市区町村名":"北斗市","大字コード":"052","丁目コード":"000","小字コード":"0000","予備コード":"00","大字名":"本郷","丁目名":null,"小字名":null,"予備名":null,"地番":"342-11","精度区分":null,"座標値種別":"図上測量","筆界未定構成筆":null,"代表点緯度":402.4855,"代表点経度":-175.296390583}},{"type":"MultiPolygon","arcs":[[[-134,135,136]]],"properties":{"筆ID":"H000000053","version":"ver1.0","座標系":"任意座標系","測地系判別":null,"地図名":"土地連絡整理図本郷（１２００）","地図番号":"12","縮尺分母":"1200","市区町村コード":"01236","市区町村名":"北斗市","大字コード":"052","丁目コード":"000","小字コード":"0000","予備コード":"00","大字名":"本郷","丁目名":null,"小字名":null,"予備名":null,"地番":"342-6","精度区分":null,"座標値種別":"図上測量","筆界未定構成筆":null,"代表点緯度":398.0125,"代表点経度":-180.316269377}},{"type":"MultiPolygon","arcs":[[[-137,137,138,-116]]],"properties":{"筆ID":"H000000054","version":"ver1.0","座標系":"任意座標系","測地系判別":null,"地図名":"土地連絡整理図本郷（１２００）","地図番号":"12","縮尺分母":"1200","市区町村コード":"01236","市区町村名":"北斗市","大字コード":"052","丁目コード":"000","小字コード":"0000","予備コード":"00","大字名":"本郷","丁目名":null,"小字名":null,"予備名":null,"地番":"342-7","精度区分":null,"座標値種別":"図上測量","筆界未定構成筆":null,"代表点緯度":396.912,"代表点経度":-209.368450301}},{"type":"MultiPolygon","arcs":[[[-120,139,140,141]]],"properties":{"筆ID":"H000000055","version":"ver1.0","座標系":"任意座標系","測地系判別":null,"地図名":"土地連絡整理図本郷（１２００）","地図番号":"12","縮尺分母":"1200","市区町村コード":"01236","市区町村名":"北斗市","大字コード":"052","丁目コード":"000","小字コード":"0000","予備コード":"00","大字名":"本郷","丁目名":null,"小字名":null,"予備名":null,"地番":"341-6","精度区分":null,"座標値種別":"図上測量","筆界未定構成筆":null,"代表点緯度":401.1355,"代表点経度":-223.245585221}},{"type":"MultiPolygon","arcs":[[[-123,-142,142,143,144]]],"properties":{"筆ID":"H000000056","version":"ver1.0","座標系":"任意座標系","測地系判別":null,"地図名":"土地連絡整理図本郷（１２００）","地図番号":"12","縮尺分母":"1200","市区町村コード":"01236","市区町村名":"北斗市","大字コード":"052","丁目コード":"000","小字コード":"0000","予備コード":"00","大字名":"本郷","丁目名":null,"小字名":null,"予備名":null,"地番":"341-2","精度区分":null,"座標値種別":"図上測量","筆界未定構成筆":null,"代表点緯度":424.0645,"代表点経度":-227.781075877}},{"type":"MultiPolygon","arcs":[[[145,-144,146,147]]],"properties":{"筆ID":"H000000057","version":"ver1.0","座標系":"任意座標系","測地系判別":null,"地図名":"土地連絡整理図本郷（１２００）","地図番号":"12","縮尺分母":"1200","市区町村コード":"01236","市区町村名":"北斗市","大字コード":"052","丁目コード":"000","小字コード":"0000","予備コード":"00","大字名":"本郷","丁目名":null,"小字名":null,"予備名":null,"地番":"340-3","精度区分":null,"座標値種別":"図上測量","筆界未定構成筆":null,"代表点緯度":484.2155,"代表点経度":-240.013816177}},{"type":"MultiPolygon","arcs":[[[148,149,150,151]]],"properties":{"筆ID":"H000000058","version":"ver1.0","座標系":"任意座標系","測地系判別":null,"地図名":"土地連絡整理図本郷（１２００）","地図番号":"12","縮尺分母":"1200","市区町村コード":"01236","市区町村名":"北斗市","大字コード":"052","丁目コード":"000","小字コード":"0000","予備コード":"00","大字名":"本郷","丁目名":null,"小字名":null,"予備名":null,"地番":"343-3","精度区分":null,"座標値種別":"図上測量","筆界未定構成筆":null,"代表点緯度":493.469,"代表点経度":-213.129029138}},{"type":"MultiPolygon","arcs":[[[152,153,-128,154]]],"properties":{"筆ID":"H000000059","version":"ver1.0","座標系":"任意座標系","測地系判別":null,"地図名":"土地連絡整理図本郷（１２００）","地図番号":"12","縮尺分母":"1200","市区町村コード":"01236","市区町村名":"北斗市","大字コード":"052","丁目コード":"000","小字コード":"0000","予備コード":"00","大字名":"本郷","丁目名":null,"小字名":null,"予備名":null,"地番":"343-9","精度区分":null,"座標値種別":"図上測量","筆界未定構成筆":null,"代表点緯度":421.8465,"代表点経度":-190.441207809}},{"type":"MultiPolygon","arcs":[[[155,-152,156,157,-62]]],"properties":{"筆ID":"H000000060","version":"ver1.0","座標系":"任意座標系","測地系判別":null,"地図名":"土地連絡整理図本郷（１２００）","地図番号":"12","縮尺分母":"1200","市区町村コード":"01236","市区町村名":"北斗市","大字コード":"052","丁目コード":"000","小字コード":"0000","予備コード":"00","大字名":"本郷","丁目名":null,"小字名":null,"予備名":null,"地番":"343-6","精度区分":null,"座標値種別":"図上測量","筆界未定構成筆":null,"代表点緯度":499.746,"代表点経度":-224.328306517}},{"type":"MultiPolygon","arcs":[[[-58,-158,158,-148,159]]],"properties":{"筆ID":"H000000061","version":"ver1.0","座標系":"任意座標系","測地系判別":null,"地図名":"土地連絡整理図本郷（１２００）","地図番号":"12","縮尺分母":"1200","市区町村コード":"01236","市区町村名":"北斗市","大字コード":"052","丁目コード":"000","小字コード":"0000","予備コード":"00","大字名":"本郷","丁目名":null,"小字名":null,"予備名":null,"地番":"343-8","精度区分":null,"座標値種別":"図上測量","筆界未定構成筆":null,"代表点緯度":501.4155,"代表点経度":-241.694562613}},{"type":"MultiPolygon","arcs":[[[-81,160,-132,161,-113,-93,-114]]],"properties":{"筆ID":"H000000062","version":"ver1.0","座標系":"任意座標系","測地系判別":null,"地図名":"土地連絡整理図本郷（１２００）","地図番号":"12","縮尺分母":"1200","市区町村コード":"01236","市区町村名":"北斗市","大字コード":"052","丁目コード":"000","小字コード":"0000","予備コード":"00","大字名":"本郷","丁目名":null,"小字名":null,"予備名":null,"地番":"345-1","精度区分":null,"座標値種別":"図上測量","筆界未定構成筆":null,"代表点緯度":496.375,"代表点経度":-155.486325587}},{"type":"MultiPolygon","arcs":[[[-130,162,163,164,-150,165]]],"properties":{"筆ID":"H000000063","version":"ver1.0","座標系":"任意座標系","測地系判別":null,"地図名":"土地連絡整理図本郷（１２００）","地図番号":"12","縮尺分母":"1200","市区町村コード":"01236","市区町村名":"北斗市","大字コード":"052","丁目コード":"000","小字コード":"0000","予備コード":"00","大字名":"本郷","丁目名":null,"小字名":null,"予備名":null,"地番":"342-3","精度区分":null,"座標値種別":"図上測量","筆界未定構成筆":null,"代表点緯度":482.2055,"代表点経度":-200.728225775}},{"type":"MultiPolygon","arcs":[[[-164,166,-135,-126,-154,167,-155,-127,-125,168]]],"properties":{"筆ID":"H000000064","version":"ver1.0","座標系":"任意座標系","測地系判別":null,"地図名":"土地連絡整理図本郷（１２００）","地図番号":"12","縮尺分母":"1200","市区町村コード":"01236","市区町村名":"北斗市","大字コード":"052","丁目コード":"000","小字コード":"0000","予備コード":"00","大字名":"本郷","丁目名":null,"小字名":null,"予備名":null,"地番":"342-12","精度区分":null,"座標値種別":"図上測量","筆界未定構成筆":null,"代表点緯度":440.205,"代表点経度":-196.054490069}},{"type":"MultiPolygon","arcs":[[[-168,-153]]],"properties":{"筆ID":"H000000065","version":"ver1.0","座標系":"任意座標系","測地系判別":null,"地図名":"土地連絡整理図本郷（１２００）","地図番号":"12","縮尺分母":"1200","市区町村コード":"01236","市区町村名":"北斗市","大字コード":"052","丁目コード":"000","小字コード":"0000","予備コード":"00","大字名":"本郷","丁目名":null,"小字名":null,"予備名":null,"地番":"343-11","精度区分":null,"座標値種別":"図上測量","筆界未定構成筆":null,"代表点緯度":434.585,"代表点経度":-187.576225699}},{"type":"MultiPolygon","arcs":[[[-165,-169,-124,-145,-146,-159,-157,-151]]],"properties":{"筆ID":"H000000066","version":"ver1.0","座標系":"任意座標系","測地系判別":null,"地図名":"土地連絡整理図本郷（１２００）","地図番号":"12","縮尺分母":"1200","市区町村コード":"01236","市区町村名":"北斗市","大字コード":"052","丁目コード":"000","小字コード":"0000","予備コード":"00","大字名":"本郷","丁目名":null,"小字名":null,"予備名":null,"地番":"343-20","精度区分":null,"座標値種別":"図上測量","筆界未定構成筆":null,"代表点緯度":470.932,"代表点経度":-234.322542086}},{"type":"MultiPolygon","arcs":[[[-139,169,170,-119]]],"properties":{"筆ID":"H000000067","version":"ver1.0","座標系":"任意座標系","測地系判別":null,"地図名":"土地連絡整理図本郷（１２００）","地図番号":"12","縮尺分母":"1200","市区町村コード":"01236","市区町村名":"北斗市","大字コード":"052","丁目コード":"000","小字コード":"0000","予備コード":"00","大字名":"本郷","丁目名":null,"小字名":null,"予備名":null,"地番":"342-8","精度区分":null,"座標値種別":"図上測量","筆界未定構成筆":null,"代表点緯度":396.807,"代表点経度":-219.184610845}},{"type":"MultiPolygon","arcs":[[[-171,171,-140]]],"properties":{"筆ID":"H000000068","version":"ver1.0","座標系":"任意座標系","測地系判別":null,"地図名":"土地連絡整理図本郷（１２００）","地図番号":"12","縮尺分母":"1200","市区町村コード":"01236","市区町村名":"北斗市","大字コード":"052","丁目コード":"000","小字コード":"0000","予備コード":"00","大字名":"本郷","丁目名":null,"小字名":null,"予備名":null,"地番":"341-4","精度区分":null,"座標値種別":"図上測量","筆界未定構成筆":null,"代表点緯度":396.606,"代表点経度":-222.351823294}},{"type":"MultiPolygon","arcs":[[[172,-112,173,174,-156,-61,-66]]],"properties":{"筆ID":"H000000069","version":"ver1.0","座標系":"任意座標系","測地系判別":null,"地図名":"土地連絡整理図本郷（１２００）","地図番号":"12","縮尺分母":"1200","市区町村コード":"01236","市区町村名":"北斗市","大字コード":"052","丁目コード":"000","小字コード":"0000","予備コード":"00","大字名":"本郷","丁目名":null,"小字名":null,"予備名":null,"地番":"343-4","精度区分":null,"座標値種別":"図上測量","筆界未定構成筆":null,"代表点緯度":506.896,"代表点経度":-189.486626991}},{"type":"MultiPolygon","arcs":[[[175,-166,-149,-175]]],"properties":{"筆ID":"H000000070","version":"ver1.0","座標系":"任意座標系","測地系判別":null,"地図名":"土地連絡整理図本郷（１２００）","地図番号":"12","縮尺分母":"1200","市区町村コード":"01236","市区町村名":"北斗市","大字コード":"052","丁目コード":"000","小字コード":"0000","予備コード":"00","大字名":"本郷","丁目名":null,"小字名":null,"予備名":null,"地番":"343-13","精度区分":null,"座標値種別":"図上測量","筆界未定構成筆":null,"代表点緯度":491.3255,"代表点経度":-191.808059912}},{"type":"MultiPolygon","arcs":[[[-162,-131,-176,-174]]],"properties":{"筆ID":"H000000071","version":"ver1.0","座標系":"任意座標系","測地系判別":null,"地図名":"土地連絡整理図本郷（１２００）","地図番号":"12","縮尺分母":"1200","市区町村コード":"01236","市区町村名":"北斗市","大字コード":"052","丁目コード":"000","小字コード":"0000","予備コード":"00","大字名":"本郷","丁目名":null,"小字名":null,"予備名":null,"地番":"345-2","精度区分":null,"座標値種別":"図上測量","筆界未定構成筆":null,"代表点緯度":498.729,"代表点経度":-175.13223888}},{"type":"MultiPolygon","arcs":[[[-173,-91,-95]]],"properties":{"筆ID":"H000000072","version":"ver1.0","座標系":"任意座標系","測地系判別":null,"地図名":"土地連絡整理図本郷（１２００）","地図番号":"12","縮尺分母":"1200","市区町村コード":"01236","市区町村名":"北斗市","大字コード":"052","丁目コード":"000","小字コード":"0000","予備コード":"00","大字名":"本郷","丁目名":null,"小字名":null,"予備名":null,"地番":"346-7","精度区分":null,"座標値種別":"図上測量","筆界未定構成筆":null,"代表点緯度":513.2025,"代表点経度":-175.510933357}}]}},"arcs":[[[168785,758602],[8209,-42511]],[[176994,716091],[-40061,-8211]],[[136933,707880],[-21544,71629],[-57567,-10299]],[[57822,769210],[-23010,-4283],[-14119,62169],[-7064,33039],[-12227,57171],[-1402,6677],[128721,34620]],[[128721,958603],[14880,-74286],[25184,-125715]],[[136933,707880],[2849,-9472]],[[139782,698408],[-6141,-440]],[[133641,697968],[-6624,35],[-4594,23287],[-27532,4084],[-3165,24505],[-28177,-2471],[-5727,21802]],[[176994,716091],[3411,-17662],[-40623,-21]],[[327561,857762],[40848,-70990],[24432,2056],[11404,-47174],[21811,-13389],[46565,-11112]],[[472621,717153],[62845,-487],[-116,-41939]],[[535350,674727],[-37989,-4305],[-130426,18720]],[[366935,689142],[-31972,54196]],[[334963,743338],[-4751,8054],[-80097,-17082]],[[250115,734310],[-2914,14255],[-51550,-7806],[-26866,17843]],[[128721,958603],[-8579,41396],[82952,-75437],[69409,12388],[7410,-27272],[9848,-36243],[20897,16909],[16903,-32582]],[[334963,743338],[-82892,-18589],[-1956,9561]],[[528301,876525],[43646,-75625]],[[571947,800900],[6111,-10591]],[[578058,790309],[-5493,-2131]],[[572565,788178],[-72554,-25769],[-34404,-1698],[7014,-43558]],[[327561,857762],[71433,44635],[129307,-25872]],[[176994,716091],[73121,18219]],[[366935,689142],[24554,-138010]],[[391489,551132],[-245577,-20435],[-3541,62232],[5425,5139],[-14155,99900]],[[572565,788178],[5993,-109030]],[[578558,679148],[-43208,-4421]],[[578058,790309],[10298,-71061],[6029,-1556]],[[594385,717692],[4715,-142737]],[[599100,574955],[-13818,-1463]],[[585282,573492],[-6724,105656]],[[712705,687189],[4810,-97833]],[[717515,589356],[-118415,-14401]],[[594385,717692],[118320,-30503]],[[585282,573492],[-141761,-16156]],[[443521,557336],[-8138,54846],[-35413,-8844],[-33035,85804]],[[443521,557336],[-52032,-6204]],[[717515,589356],[-5698,-25219]],[[711817,564137],[-7590,-33614]],[[704227,530523],[-103254,-2369]],[[600973,528154],[-1873,46801]],[[704227,530523],[-1429,-6009]],[[702798,524514],[-46930,-3779],[-53325,-21483]],[[602543,499252],[-1570,28902]],[[602543,499252],[-7768,-32461]],[[594775,466791],[-53,370],[-9440,106331]],[[702798,524514],[17483,-20933]],[[720281,503581],[-36,-18780]],[[720245,484801],[-34513,-40252]],[[685732,444549],[-38339,610]],[[647393,445159],[-41516,50073]],[[605877,495232],[-3334,4020]],[[678023,435556],[-11526,-13442],[-10620,12810]],[[655877,434924],[22146,632]],[[605877,495232],[8307,-50076],[33209,3]],[[647393,445159],[8484,-10235]],[[655877,434924],[-40746,-1062],[4248,-28046]],[[619379,405816],[-15501,-962]],[[603878,404854],[-9103,61937]],[[678023,435556],[43237,-2209]],[[721260,433347],[1843,-69356]],[[723103,363991],[-25302,10945],[-43548,33611],[-34874,-2731]],[[685732,444549],[36217,-579]],[[721949,443970],[145,-3523],[59005,-3733]],[[781099,436714],[7662,-6251]],[[788761,430463],[-67501,2884]],[[678023,435556],[7709,8993]],[[720245,484801],[1704,-40831]],[[728105,493967],[32659,-40117],[20335,-17136]],[[720245,484801],[7860,9166]],[[720281,503581],[7824,-9614]],[[772999,587034],[120888,-6379]],[[893887,580655],[14516,-40739]],[[908403,539916],[-103792,-5433]],[[804611,534483],[-33194,19696],[-50337,8836]],[[721080,563015],[-80,26402]],[[721000,589417],[51999,-2383]],[[804611,534483],[16034,-9511],[89081,-29847],[11664,3136],[-12987,41655]],[[893887,580655],[59337,-2653]],[[953224,578002],[46775,-161070],[-16974,-70415],[-14528,-26043],[-41773,10665]],[[926724,331139],[-14093,100383]],[[912631,431522],[-2124,13385],[-20560,-11784]],[[889947,433123],[-70243,2320]],[[819704,435443],[-38605,1271]],[[720281,503581],[-979,27496]],[[719302,531077],[2153,2564]],[[721455,533641],[83156,842]],[[711817,564137],[9263,-1122]],[[721080,563015],[375,-29374]],[[719302,531077],[-15075,-554]],[[819521,428638],[-30760,1825]],[[819704,435443],[-183,-6805]],[[889947,433123],[-61135,-36011]],[[828812,397112],[-9910,8757]],[[818902,405869],[619,22769]],[[717515,589356],[3485,61]],[[930300,655787],[20814,-69247],[2110,-8538]],[[772999,587034],[14410,37919]],[[787409,624953],[142891,30834]],[[798272,653567],[132028,2220]],[[787409,624953],[10863,28614]],[[787409,624953],[-66368,-14050]],[[721041,610903],[-515,74023],[-7821,2263]],[[712705,687189],[92992,62754],[-7425,-96376]],[[721041,610903],[-41,-21486]],[[594385,717692],[-7721,80530]],[[586664,798222],[50183,47476],[38380,-12164],[154144,-18521],[47761,-25620],[27923,-47377],[10824,-54216],[14421,-32013]],[[578058,790309],[8606,7913]],[[528301,876525],[38557,7739]],[[566858,884264],[5089,-83364]],[[566858,884264],[15522,3114],[4284,-89156]],[[819482,383843],[-580,22026]],[[828812,397112],[-9330,-13269]],[[912631,431522],[-22684,1601]],[[791367,38264],[355,-29435]],[[791722,8829],[-95341,-2245],[-7712,-181]],[[688669,6403],[-4712,26984]],[[683957,33387],[107410,4877]],[[688669,6403],[-4904,-113],[-7263,-171]],[[676502,6119],[-4488,26725]],[[672014,32844],[11943,543]],[[667269,129892],[16688,-96505]],[[672014,32844],[-22784,135677]],[[649230,168521],[10676,3949]],[[659906,172470],[7363,-42578]],[[790305,59608],[1062,-21344]],[[667269,129892],[52127,3626]],[[719396,133518],[46403,-74539],[24506,629]],[[899449,327542],[-35981,-43797]],[[863468,283745],[-50231,46847]],[[813237,330592],[6508,-85]],[[819745,330507],[68353,-4460],[11351,1495]],[[833531,40178],[680,-30351]],[[834211,9827],[-42489,-998]],[[791367,38264],[42164,1914]],[[834211,9827],[-42394,-2337]],[[791817,7490],[-95,1339]],[[791817,7490],[-94604,-5391],[-8109,-462]],[[689104,1637],[-435,4766]],[[676502,6119],[-6893,-266]],[[669609,5853],[-4286,26529]],[[665323,32382],[6691,462]],[[665323,32382],[-40528,250784]],[[624795,283166],[4787,2348]],[[629582,285514],[19648,-116993]],[[616477,339521],[13105,-54007]],[[624795,283166],[-958,5927],[-8836,57151]],[[615001,346244],[1476,-6723]],[[724053,353166],[556,-21909]],[[724609,331257],[-92282,689]],[[632327,331946],[-1598,9230]],[[630729,341176],[93324,11990]],[[728712,132552],[63155,-6549]],[[791867,126003],[-1562,-66395]],[[719396,133518],[9316,-966]],[[723103,363991],[6946,-3786],[-5996,-7039]],[[630729,341176],[-289,-36],[-1246,-142]],[[629194,340998],[-9815,64818]],[[629194,340998],[-12717,-1477]],[[615001,346244],[-12795,58297],[1672,313]],[[926724,331139],[-27275,-3597]],[[819745,330507],[-263,53336]],[[863468,283745],[-5150,-27840]],[[858318,255905],[-211602,-7156]],[[646716,248749],[-14389,83197]],[[724609,331257],[88628,-665]],[[858318,255905],[-21962,-118729],[-3651,-60130],[826,-36868]],[[791867,126003],[524,17537],[-63679,-10988]],[[659906,172470],[-13190,76279]],[[689104,1637],[-4405,-252],[-7274,-909]],[[677425,476],[-923,5643]],[[677425,476],[-1769,-220],[-5100,-256],[-947,5853]],[[788761,430463],[30141,-24594]],[[819482,383843],[-25302,-35983]],[[794180,347860],[-70127,5306]],[[794180,347860],[19057,-17268]]],"bbox":[-450.027,395.715,-111.987,677.288],"transform":{"scale":[0.000338040338040338,0.0002815732815732816],"translate":[-450.027,395.715]}}
