{"type":"Topology","objects":{"01236-4400-45":{"type":"GeometryCollection","geometries":[{"type":"MultiPolygon","arcs":[[[0,1,2,3,4]]],"properties":{"筆ID":"H000000001","version":"ver1.0","座標系":"任意座標系","測地系判別":null,"地図名":"土地連絡整理図文月（２０００）","地図番号":"57","縮尺分母":"2000","市区町村コード":"01236","市区町村名":"北斗市","大字コード":"050","丁目コード":"000","小字コード":"0000","予備コード":"00","大字名":"文月","丁目名":null,"小字名":null,"予備名":null,"地番":"287-1","精度区分":null,"座標値種別":"図上測量","筆界未定構成筆":null,"代表点緯度":-235492.074,"代表点経度":29166.82256142}},{"type":"MultiPolygon","arcs":[[[5,6,7,-1]]],"properties":{"筆ID":"H000000002","version":"ver1.0","座標系":"任意座標系","測地系判別":null,"地図名":"土地連絡整理図文月（２０００）","地図番号":"57","縮尺分母":"2000","市区町村コード":"01236","市区町村名":"北斗市","大字コード":"050","丁目コード":"000","小字コード":"0000","予備コード":"00","大字名":"文月","丁目名":null,"小字名":null,"予備名":null,"地番":"287-2","精度区分":null,"座標値種別":"図上測量","筆界未定構成筆":null,"代表点緯度":-235584.561,"代表点経度":29197.390535015}},{"type":"MultiPolygon","arcs":[[[8,9,-7]]],"properties":{"筆ID":"H000000003","version":"ver1.0","座標系":"任意座標系","測地系判別":null,"地図名":"土地連絡整理図文月（２０００）","地図番号":"57","縮尺分母":"2000","市区町村コード":"01236","市区町村名":"北斗市","大字コード":"050","丁目コード":"000","小字コード":"0000","予備コード":"00","大字名":"文月","丁目名":null,"小字名":null,"予備名":null,"地番":"287-3","精度区分":null,"座標値種別":"図上測量","筆界未定構成筆":null,"代表点緯度":-235624.178,"代表点経度":29208.981799631}},{"type":"MultiPolygon","arcs":[[[10,-4,11,12]]],"properties":{"筆ID":"H000000004","version":"ver1.0","座標系":"任意座標系","測地系判別":null,"地図名":"土地連絡整理図文月（２０００）","地図番号":"57","縮尺分母":"2000","市区町村コード":"01236","市区町村名":"北斗市","大字コード":"050","丁目コード":"000","小字コード":"0000","予備コード":"00","大字名":"文月","丁目名":null,"小字名":null,"予備名":null,"地番":"288","精度区分":null,"座標値種別":"図上測量","筆界未定構成筆":null,"代表点緯度":-235363.7305,"代表点経度":29144.729692553}},{"type":"MultiPolygon","arcs":[[[-12,-3,13,14,15]]],"properties":{"筆ID":"H000000005","version":"ver1.0","座標系":"任意座標系","測地系判別":null,"地図名":"土地連絡整理図文月（２０００）","地図番号":"57","縮尺分母":"2000","市区町村コード":"01236","市区町村名":"北斗市","大字コード":"050","丁目コード":"000","小字コード":"0000","予備コード":"00","大字名":"文月","丁目名":null,"小字名":null,"予備名":null,"地番":"289","精度区分":null,"座標値種別":"図上測量","筆界未定構成筆":null,"代表点緯度":-235468.5365,"代表点経度":29114.198236173}},{"type":"MultiPolygon","arcs":[[[16,-15,17,18]]],"properties":{"筆ID":"H000000006","version":"ver1.0","座標系":"任意座標系","測地系判別":null,"地図名":"土地連絡整理図文月（２０００）","地図番号":"57","縮尺分母":"2000","市区町村コード":"01236","市区町村名":"北斗市","大字コード":"050","丁目コード":"000","小字コード":"0000","予備コード":"00","大字名":"文月","丁目名":null,"小字名":null,"予備名":null,"地番":"290","精度区分":null,"座標値種別":"図上測量","筆界未定構成筆":null,"代表点緯度":-235370.1815,"代表点経度":29064.806173261}},{"type":"MultiPolygon","arcs":[[[19,20,21,22]]],"properties":{"筆ID":"H000000007","version":"ver1.0","座標系":"任意座標系","測地系判別":null,"地図名":"土地連絡整理図文月（２０００）","地図番号":"57","縮尺分母":"2000","市区町村コード":"01236","市区町村名":"北斗市","大字コード":"050","丁目コード":"000","小字コード":"0000","予備コード":"00","大字名":"文月","丁目名":null,"小字名":null,"予備名":null,"地番":"292","精度区分":null,"座標値種別":"図上測量","筆界未定構成筆":null,"代表点緯度":-235401.528,"代表点経度":28985.42661134}},{"type":"MultiPolygon","arcs":[[[23,-23,24,25]]],"properties":{"筆ID":"H000000008","version":"ver1.0","座標系":"任意座標系","測地系判別":null,"地図名":"土地連絡整理図文月（２０００）","地図番号":"57","縮尺分母":"2000","市区町村コード":"01236","市区町村名":"北斗市","大字コード":"050","丁目コード":"000","小字コード":"0000","予備コード":"00","大字名":"文月","丁目名":null,"小字名":null,"予備名":null,"地番":"293","精度区分":null,"座標値種別":"図上測量","筆界未定構成筆":null,"代表点緯度":-235374.034,"代表点経度":28955.617356418}},{"type":"MultiPolygon","arcs":[[[26,-26,27,28]]],"properties":{"筆ID":"H000000009","version":"ver1.0","座標系":"任意座標系","測地系判別":null,"地図名":"土地連絡整理図文月（２０００）","地図番号":"57","縮尺分母":"2000","市区町村コード":"01236","市区町村名":"北斗市","大字コード":"050","丁目コード":"000","小字コード":"0000","予備コード":"00","大字名":"文月","丁目名":null,"小字名":null,"予備名":null,"地番":"294","精度区分":null,"座標値種別":"図上測量","筆界未定構成筆":null,"代表点緯度":-235194.109,"代表点経度":28985.776994214}},{"type":"MultiPolygon","arcs":[[[29,-29,30,31]]],"properties":{"筆ID":"H000000010","version":"ver1.0","座標系":"任意座標系","測地系判別":null,"地図名":"土地連絡整理図文月（２０００）","地図番号":"57","縮尺分母":"2000","市区町村コード":"01236","市区町村名":"北斗市","大字コード":"050","丁目コード":"000","小字コード":"0000","予備コード":"00","大字名":"文月","丁目名":null,"小字名":null,"予備名":null,"地番":"295","精度区分":null,"座標値種別":"図上測量","筆界未定構成筆":null,"代表点緯度":-235242.7155,"代表点経度":28940.316310211}},{"type":"MultiPolygon","arcs":[[[32,-32,33,34]]],"properties":{"筆ID":"H000000011","version":"ver1.0","座標系":"任意座標系","測地系判別":null,"地図名":"土地連絡整理図文月（２０００）","地図番号":"56","縮尺分母":"2000","市区町村コード":"01236","市区町村名":"北斗市","大字コード":"050","丁目コード":"000","小字コード":"0000","予備コード":"00","大字名":"文月","丁目名":null,"小字名":null,"予備名":null,"地番":"296","精度区分":null,"座標値種別":"図上測量","筆界未定構成筆":null,"代表点緯度":-235186.327,"代表点経度":28923.98375131}},{"type":"MultiPolygon","arcs":[[[35,36]]],"properties":{"筆ID":"H000000012","version":"ver1.0","座標系":"任意座標系","測地系判別":null,"地図名":"土地連絡整理図文月（２０００）","地図番号":"56","縮尺分母":"2000","市区町村コード":"01236","市区町村名":"北斗市","大字コード":"050","丁目コード":"000","小字コード":"0000","予備コード":"00","大字名":"文月","丁目名":null,"小字名":null,"予備名":null,"地番":"327","精度区分":null,"座標値種別":"図上測量","筆界未定構成筆":null,"代表点緯度":-235255.445,"代表点経度":28704.965819444}},{"type":"MultiPolygon","arcs":[[[37,-35,38,39]]],"properties":{"筆ID":"H000000013","version":"ver1.0","座標系":"任意座標系","測地系判別":null,"地図名":"土地連絡整理図文月（２０００）","地図番号":"56","縮尺分母":"2000","市区町村コード":"01236","市区町村名":"北斗市","大字コード":"050","丁目コード":"000","小字コード":"0000","予備コード":"00","大字名":"文月","丁目名":null,"小字名":null,"予備名":null,"地番":"328","精度区分":null,"座標値種別":"図上測量","筆界未定構成筆":null,"代表点緯度":-235126.8795,"代表点経度":28903.89535193}},{"type":"MultiPolygon","arcs":[[[40,-40,41,42]]],"properties":{"筆ID":"H000000014","version":"ver1.0","座標系":"任意座標系","測地系判別":null,"地図名":"土地連絡整理図文月（２０００）","地図番号":"56","縮尺分母":"2000","市区町村コード":"01236","市区町村名":"北斗市","大字コード":"050","丁目コード":"000","小字コード":"0000","予備コード":"00","大字名":"文月","丁目名":null,"小字名":null,"予備名":null,"地番":"329","精度区分":null,"座標値種別":"図上測量","筆界未定構成筆":null,"代表点緯度":-235058.2575,"代表点経度":28896.420805956}},{"type":"MultiPolygon","arcs":[[[43,-43,-37,44]]],"properties":{"筆ID":"H000000015","version":"ver1.0","座標系":"任意座標系","測地系判別":null,"地図名":"土地連絡整理図文月（２０００）","地図番号":"56","縮尺分母":"2000","市区町村コード":"01236","市区町村名":"北斗市","大字コード":"050","丁目コード":"000","小字コード":"0000","予備コード":"00","大字名":"文月","丁目名":null,"小字名":null,"予備名":null,"地番":"330","精度区分":null,"座標値種別":"図上測量","筆界未定構成筆":null,"代表点緯度":-235056.4465,"代表点経度":28845.179060866}},{"type":"MultiPolygon","arcs":[[[45,-45,46,47]]],"properties":{"筆ID":"H000000016","version":"ver1.0","座標系":"任意座標系","測地系判別":null,"地図名":"土地連絡整理図文月（２０００）","地図番号":"56","縮尺分母":"2000","市区町村コード":"01236","市区町村名":"北斗市","大字コード":"050","丁目コード":"000","小字コード":"0000","予備コード":"00","大字名":"文月","丁目名":null,"小字名":null,"予備名":null,"地番":"331","精度区分":null,"座標値種別":"図上測量","筆界未定構成筆":null,"代表点緯度":-234986.4495,"代表点経度":28843.089666417}},{"type":"MultiPolygon","arcs":[[[48,49,50,51]]],"properties":{"筆ID":"H000000017","version":"ver1.0","座標系":"任意座標系","測地系判別":null,"地図名":"土地連絡整理図文月（２０００）","地図番号":"56","縮尺分母":"2000","市区町村コード":"01236","市区町村名":"北斗市","大字コード":"050","丁目コード":"000","小字コード":"0000","予備コード":"00","大字名":"文月","丁目名":null,"小字名":null,"予備名":null,"地番":"333","精度区分":null,"座標値種別":"図上測量","筆界未定構成筆":null,"代表点緯度":-234971.136,"代表点経度":28679.481411682}},{"type":"MultiPolygon","arcs":[[[52,-52,53,54]]],"properties":{"筆ID":"H000000018","version":"ver1.0","座標系":"任意座標系","測地系判別":null,"地図名":"土地連絡整理図文月（２０００）","地図番号":"56","縮尺分母":"2000","市区町村コード":"01236","市区町村名":"北斗市","大字コード":"050","丁目コード":"000","小字コード":"0000","予備コード":"00","大字名":"文月","丁目名":null,"小字名":null,"予備名":null,"地番":"334","精度区分":null,"座標値種別":"図上測量","筆界未定構成筆":null,"代表点緯度":-234840.472,"代表点経度":28678.824860516}},{"type":"MultiPolygon","arcs":[[[55,-55,56,57]]],"properties":{"筆ID":"H000000019","version":"ver1.0","座標系":"任意座標系","測地系判別":null,"地図名":"土地連絡整理図文月（２０００）","地図番号":"56","縮尺分母":"2000","市区町村コード":"01236","市区町村名":"北斗市","大字コード":"050","丁目コード":"000","小字コード":"0000","予備コード":"00","大字名":"文月","丁目名":null,"小字名":null,"予備名":null,"地番":"335","精度区分":null,"座標値種別":"図上測量","筆界未定構成筆":null,"代表点緯度":-234778.504,"代表点経度":28632.41602004}},{"type":"MultiPolygon","arcs":[[[58,-58,59,60]]],"properties":{"筆ID":"H000000020","version":"ver1.0","座標系":"任意座標系","測地系判別":null,"地図名":"土地連絡整理図文月（２０００）","地図番号":"56","縮尺分母":"2000","市区町村コード":"01236","市区町村名":"北斗市","大字コード":"050","丁目コード":"000","小字コード":"0000","予備コード":"00","大字名":"文月","丁目名":null,"小字名":null,"予備名":null,"地番":"336","精度区分":null,"座標値種別":"図上測量","筆界未定構成筆":null,"代表点緯度":-234654.4685,"代表点経度":28632.260265033}},{"type":"MultiPolygon","arcs":[[[-60,61,62]]],"properties":{"筆ID":"H000000021","version":"ver1.0","座標系":"任意座標系","測地系判別":null,"地図名":"土地連絡整理図文月（２０００）","地図番号":"56","縮尺分母":"2000","市区町村コード":"01236","市区町村名":"北斗市","大字コード":"050","丁目コード":"000","小字コード":"0000","予備コード":"00","大字名":"文月","丁目名":null,"小字名":null,"予備名":null,"地番":"336-1","精度区分":null,"座標値種別":"図上測量","筆界未定構成筆":null,"代表点緯度":-234909.869,"代表点経度":28457.960840016}},{"type":"MultiPolygon","arcs":[[[63,64,-63,65]]],"properties":{"筆ID":"H000000022","version":"ver1.0","座標系":"任意座標系","測地系判別":null,"地図名":"土地連絡整理図文月（２０００）","地図番号":"56","縮尺分母":"2000","市区町村コード":"01236","市区町村名":"北斗市","大字コード":"050","丁目コード":"000","小字コード":"0000","予備コード":"00","大字名":"文月","丁目名":null,"小字名":null,"予備名":null,"地番":"337-1","精度区分":null,"座標値種別":"図上測量","筆界未定構成筆":null,"代表点緯度":-234840.545,"代表点経度":28414.703176219}},{"type":"MultiPolygon","arcs":[[[66,-61,-65,67]]],"properties":{"筆ID":"H000000023","version":"ver1.0","座標系":"任意座標系","測地系判別":null,"地図名":"土地連絡整理図文月（２０００）","地図番号":"56","縮尺分母":"2000","市区町村コード":"01236","市区町村名":"北斗市","大字コード":"050","丁目コード":"000","小字コード":"0000","予備コード":"00","大字名":"文月","丁目名":null,"小字名":null,"予備名":null,"地番":"337-2","精度区分":null,"座標値種別":"図上測量","筆界未定構成筆":null,"代表点緯度":-234686.456,"代表点経度":28542.185137325}},{"type":"MultiPolygon","arcs":[[[-68,-64,68]]],"properties":{"筆ID":"H000000024","version":"ver1.0","座標系":"任意座標系","測地系判別":null,"地図名":"土地連絡整理図文月（２０００）","地図番号":"56","縮尺分母":"2000","市区町村コード":"01236","市区町村名":"北斗市","大字コード":"050","丁目コード":"000","小字コード":"0000","予備コード":"00","大字名":"文月","丁目名":null,"小字名":null,"予備名":null,"地番":"337-3","精度区分":null,"座標値種別":"図上測量","筆界未定構成筆":null,"代表点緯度":-234606.379,"代表点経度":28552.244281855}},{"type":"MultiPolygon","arcs":[[[69,-48,70,-50]]],"properties":{"筆ID":"H000000025","version":"ver1.0","座標系":"任意座標系","測地系判別":null,"地図名":"土地連絡整理図文月（２０００）","地図番号":"56","縮尺分母":"2000","市区町村コード":"01236","市区町村名":"北斗市","大字コード":"050","丁目コード":"000","小字コード":"0000","予備コード":"00","大字名":"文月","丁目名":null,"小字名":null,"予備名":null,"地番":"筆界未定地-44","精度区分":null,"座標値種別":"図上測量","筆界未定構成筆":[{"大字コード":"050","丁目コード":"000","小字コード":"0000","予備コード":"00","大字名":"文月","地番":"332"},{"大字コード":"050","丁目コード":"000","小字コード":"0000","予備コード":"00","大字名":"文月","地番":"332-1"}],"代表点緯度":-234904.986,"代表点経度":28829.373495075}},{"type":"MultiPolygon","arcs":[[[71,-19,72,-21]]],"properties":{"筆ID":"H000000026","version":"ver1.0","座標系":"任意座標系","測地系判別":null,"地図名":"土地連絡整理図文月（２０００）","地図番号":"57","縮尺分母":"2000","市区町村コード":"01236","市区町村名":"北斗市","大字コード":"050","丁目コード":"000","小字コード":"0000","予備コード":"00","大字名":"文月","丁目名":null,"小字名":null,"予備名":null,"地番":"筆界未定地-46","精度区分":null,"座標値種別":"図上測量","筆界未定構成筆":{"大字コード":"050","丁目コード":"000","小字コード":"0000","予備コード":"00","大字名":"文月","地番":"291W1"},"代表点緯度":-235392.389,"代表点経度":29026.434261059}},{"type":"MultiPolygon","arcs":[[[-72,73]]],"properties":{"筆ID":"H000000027","version":"ver1.0","座標系":"任意座標系","測地系判別":null,"地図名":"土地連絡整理図文月（２０００）","地図番号":"56","縮尺分母":"2000","市区町村コード":"01236","市区町村名":"北斗市","大字コード":"054","丁目コード":"000","小字コード":"0000","予備コード":"00","大字名":"向野","丁目名":null,"小字名":null,"予備名":null,"地番":"筆界未定地-49","精度区分":null,"座標値種別":null,"筆界未定構成筆":{"大字コード":"054","丁目コード":"000","小字コード":"0000","予備コード":"00","大字名":"向野","地番":"211-4W2"},"代表点緯度":-235240.675,"代表点経度":29041.068401637}},{"type":"MultiPolygon","arcs":[[[74,75]]],"properties":{"筆ID":"H000000028","version":"ver1.0","座標系":"任意座標系","測地系判別":null,"地図名":"土地連絡整理図文月（２０００）","地図番号":"57","縮尺分母":"2000","市区町村コード":"01236","市区町村名":"北斗市","大字コード":"050","丁目コード":"000","小字コード":"0000","予備コード":"00","大字名":"文月","丁目名":null,"小字名":null,"予備名":null,"地番":"無地番-10","精度区分":null,"座標値種別":"図上測量","筆界未定構成筆":null,"代表点緯度":-235459.1545,"代表点経度":29370.329459487}},{"type":"MultiPolygon","arcs":[[[-75,76,-9,-6,-5,-11,77]]],"properties":{"筆ID":"H000000029","version":"ver1.0","座標系":"任意座標系","測地系判別":null,"地図名":"土地連絡整理図文月（２０００）","地図番号":"57","縮尺分母":"2000","市区町村コード":"01236","市区町村名":"北斗市","大字コード":"050","丁目コード":"000","小字コード":"0000","予備コード":"00","大字名":"文月","丁目名":null,"小字名":null,"予備名":null,"地番":"無地番-11","精度区分":null,"座標値種別":"図上測量","筆界未定構成筆":null,"代表点緯度":-235504.77,"代表点経度":29276.116236632}}]}},"arcs":[[[782602,79462],[-34222,-22901]],[[748380,56561],[-9362,4637]],[[739018,61198],[-13954,70144],[-20102,101165]],[[704962,232507],[49138,-5304]],[[754100,227203],[8642,-42071],[9962,-30262],[2218,-36321],[7680,-39087]],[[782602,79462],[5545,-17279]],[[788147,62183],[-21767,-14538]],[[766380,47645],[-18000,8916]],[[788147,62183],[9665,-30108]],[[797812,32075],[-31432,15570]],[[748530,254319],[5570,-27116]],[[704962,232507],[-5464,27503]],[[699498,260010],[49032,-5691]],[[739018,61198],[-52972,21131]],[[686046,82329],[-14361,109332],[-12183,93420]],[[659502,285081],[11269,-9243],[28727,-15828]],[[634137,321122],[25365,-36041]],[[686046,82329],[-52737,4199]],[[633309,86528],[492,104300],[336,130294]],[[594863,399675],[11097,-41606]],[[605960,358069],[-11133,-106868],[-17011,-163076]],[[577816,88125],[-43735,23337]],[[534081,111462],[13633,65081],[24818,117725],[22331,105407]],[[605319,439629],[-4899,-14771],[-5557,-25183]],[[534081,111462],[-39121,32445]],[[494960,143907],[55846,150270],[54513,145452]],[[627554,497938],[-8860,-22972],[-13375,-35337]],[[494960,143907],[-29041,35547]],[[465919,179454],[67542,132878],[94093,185606]],[[649168,543496],[-12609,-23322],[-9005,-22236]],[[465919,179454],[-38121,29303]],[[427798,208757],[102239,154895],[89674,135739],[29457,44105]],[[621131,573774],[1561,-6596],[29088,-19369],[-2612,-4313]],[[427798,208757],[-41568,32987]],[[386230,241744],[112735,158729],[40258,56102],[81908,117199]],[[323947,317078],[-14998,-17595],[-25127,39526],[11723,13474]],[[295545,352483],[28402,-35405]],[[612128,610521],[9003,-36747]],[[386230,241744],[-32486,37932]],[[353744,279676],[74841,95522],[110699,141592],[72844,93731]],[[601878,647525],[10250,-37004]],[[353744,279676],[-29797,37402]],[[323947,317078],[109673,130443],[168258,200004]],[[591099,685154],[10779,-37629]],[[295545,352483],[148798,167138],[146756,165533]],[[583395,723024],[7704,-37870]],[[295545,352483],[-28297,31649]],[[267248,384132],[161472,172801],[154675,166091]],[[446059,782271],[66770,-29699]],[[512829,752572],[-96302,-105615],[-201338,-218731]],[[215189,428226],[-50846,52086]],[[164343,480312],[129949,139867],[151767,162092]],[[385640,824373],[60419,-42102]],[[164343,480312],[-48513,42742]],[[115830,523054],[143999,161499],[125811,139820]],[[331299,865815],[54341,-41442]],[[115830,523054],[-24578,58679]],[[91252,581733],[114109,135308],[125938,148774]],[[304214,931780],[27085,-65965]],[[91252,581733],[-37941,50821]],[[53311,632554],[81903,97106],[169000,202120]],[[91252,581733],[-14490,-18139],[-38226,50930]],[[38536,614524],[14775,18030]],[[5293,681950],[20646,-21237]],[[25939,660713],[27372,-28159]],[[38536,614524],[-21743,29381],[-16793,31901],[5293,6144]],[[289867,970770],[14347,-38990]],[[25939,660713],[131559,155102],[132369,154955]],[[5293,681950],[148931,172878],[124764,145171],[10879,-29229]],[[512829,752572],[70526,-29349],[40,-199]],[[267248,384132],[-52059,44094]],[[605960,358069],[28177,-36947]],[[633309,86528],[-55493,1597]],[[605960,358069],[27320,-17],[857,-36930]],[[949016,53770],[-21639,10308],[-12539,24229],[24308,34140],[-12735,21472],[-3096,14898],[-32576,20034],[-11863,42639],[-16712,4536],[-11271,25109]],[[850893,251135],[54222,11558],[13624,3545],[21662,-4362],[28153,-53913],[-5974,-15671],[31756,-39643],[5663,-15484],[-2693,-35604],[-11393,-13696],[-7948,-9263],[-28949,-24832]],[[949016,53770],[2960,-8389],[-15038,-13703],[3248,-21291],[-5959,-10387],[-32549,4584],[-28857,12018],[-36564,-11452],[-38445,26925]],[[748530,254319],[27728,-1394],[74635,-1790]]],"bbox":[28390.59,-235675.179,29428.23,-234395.673],"transform":{"scale":[0.001037641037641037,0.0012795072795072735],"translate":[28390.59,-235675.179]}}
