{"type":"Topology","objects":{"01107-4313-14":{"type":"GeometryCollection","geometries":[{"type":"MultiPolygon","arcs":[[[0,1,2,3]]],"properties":{"筆ID":"H000000001","version":"ver1.0","座標系":"任意座標系","測地系判別":null,"地図名":"整附Ａ２４（５００）","地図番号":"整附A-24-1","縮尺分母":"500","市区町村コード":"01107","市区町村名":"札幌市西区","大字コード":"00a","丁目コード":"008","小字コード":"0000","予備コード":"00","大字名":"西野一条","丁目名":"８丁目","小字名":null,"予備名":null,"地番":"111-4","精度区分":"甲一","座標値種別":"図上測量","筆界未定構成筆":null,"代表点緯度":-212871.171,"代表点経度":-79536.517906242}},{"type":"MultiPolygon","arcs":[[[4,5,6,7]]],"properties":{"筆ID":"H000000002","version":"ver1.0","座標系":"任意座標系","測地系判別":null,"地図名":"整附Ａ２４（５００）","地図番号":"整附A-24-1","縮尺分母":"500","市区町村コード":"01107","市区町村名":"札幌市西区","大字コード":"00a","丁目コード":"008","小字コード":"0000","予備コード":"00","大字名":"西野一条","丁目名":"８丁目","小字名":null,"予備名":null,"地番":"111-5","精度区分":"甲一","座標値種別":"図上測量","筆界未定構成筆":null,"代表点緯度":-212887.5765,"代表点経度":-79517.797493996}},{"type":"MultiPolygon","arcs":[[[8,9,-5,10]]],"properties":{"筆ID":"H000000003","version":"ver1.0","座標系":"任意座標系","測地系判別":null,"地図名":"整附Ａ２４（５００）","地図番号":"整附A-24-1","縮尺分母":"500","市区町村コード":"01107","市区町村名":"札幌市西区","大字コード":"00a","丁目コード":"008","小字コード":"0000","予備コード":"00","大字名":"西野一条","丁目名":"８丁目","小字名":null,"予備名":null,"地番":"111-6","精度区分":"甲一","座標値種別":"図上測量","筆界未定構成筆":null,"代表点緯度":-212893.774,"代表点経度":-79510.264145236}},{"type":"MultiPolygon","arcs":[[[11,12,13,-9]]],"properties":{"筆ID":"H000000004","version":"ver1.0","座標系":"任意座標系","測地系判別":null,"地図名":"整附Ａ２４（５００）","地図番号":"整附A-24-1","縮尺分母":"500","市区町村コード":"01107","市区町村名":"札幌市西区","大字コード":"00a","丁目コード":"008","小字コード":"0000","予備コード":"00","大字名":"西野一条","丁目名":"８丁目","小字名":null,"予備名":null,"地番":"111-7","精度区分":"甲一","座標値種別":"図上測量","筆界未定構成筆":null,"代表点緯度":-212902.079,"代表点経度":-79500.236133537}},{"type":"MultiPolygon","arcs":[[[14,15,16,17,-13]]],"properties":{"筆ID":"H000000005","version":"ver1.0","座標系":"任意座標系","測地系判別":null,"地図名":"整附Ａ２４（５００）","地図番号":"整附A-24-1","縮尺分母":"500","市区町村コード":"01107","市区町村名":"札幌市西区","大字コード":"00a","丁目コード":"008","小字コード":"0000","予備コード":"00","大字名":"西野一条","丁目名":"８丁目","小字名":null,"予備名":null,"地番":"111-8","精度区分":"甲一","座標値種別":"図上測量","筆界未定構成筆":null,"代表点緯度":-212910.7055,"代表点経度":-79489.852118619}},{"type":"MultiPolygon","arcs":[[[18,19,20,-17,21]]],"properties":{"筆ID":"H000000006","version":"ver1.0","座標系":"任意座標系","測地系判別":null,"地図名":"整附Ａ２４（５００）","地図番号":"整附A-24-1","縮尺分母":"500","市区町村コード":"01107","市区町村名":"札幌市西区","大字コード":"00a","丁目コード":"008","小字コード":"0000","予備コード":"00","大字名":"西野一条","丁目名":"８丁目","小字名":null,"予備名":null,"地番":"111-9","精度区分":"甲一","座標値種別":"図上測量","筆界未定構成筆":null,"代表点緯度":-212920.137,"代表点経度":-79478.449614519}},{"type":"MultiPolygon","arcs":[[[22,-4,23,24]]],"properties":{"筆ID":"H000000007","version":"ver1.0","座標系":"任意座標系","測地系判別":null,"地図名":"整附Ａ２４（５００）","地図番号":"整附A-24-1","縮尺分母":"500","市区町村コード":"01107","市区町村名":"札幌市西区","大字コード":"00a","丁目コード":"008","小字コード":"0000","予備コード":"00","大字名":"西野一条","丁目名":"８丁目","小字名":null,"予備名":null,"地番":"111-10","精度区分":"甲一","座標値種別":"図上測量","筆界未定構成筆":null,"代表点緯度":-212859.878,"代表点経度":-79531.04500994}},{"type":"MultiPolygon","arcs":[[[25,26,27,28]]],"properties":{"筆ID":"H000000008","version":"ver1.0","座標系":"任意座標系","測地系判別":null,"地図名":"整附Ａ２４（５００）","地図番号":"整附A-24-1","縮尺分母":"500","市区町村コード":"01107","市区町村名":"札幌市西区","大字コード":"00a","丁目コード":"008","小字コード":"0000","予備コード":"00","大字名":"西野一条","丁目名":"８丁目","小字名":null,"予備名":null,"地番":"111-11","精度区分":"甲一","座標値種別":"図上測量","筆界未定構成筆":null,"代表点緯度":-212869.168,"代表点経度":-79519.317160205}},{"type":"MultiPolygon","arcs":[[[29,-8,30,31]]],"properties":{"筆ID":"H000000009","version":"ver1.0","座標系":"任意座標系","測地系判別":null,"地図名":"整附Ａ２４（５００）","地図番号":"整附A-24-1","縮尺分母":"500","市区町村コード":"01107","市区町村名":"札幌市西区","大字コード":"00a","丁目コード":"008","小字コード":"0000","予備コード":"00","大字名":"西野一条","丁目名":"８丁目","小字名":null,"予備名":null,"地番":"111-12","精度区分":"甲一","座標値種別":"図上測量","筆界未定構成筆":null,"代表点緯度":-212877.2985,"代表点経度":-79509.133196607}},{"type":"MultiPolygon","arcs":[[[32,-11,-30,33]]],"properties":{"筆ID":"H000000010","version":"ver1.0","座標系":"任意座標系","測地系判別":null,"地図名":"整附Ａ２４（５００）","地図番号":"整附A-24-1","縮尺分母":"500","市区町村コード":"01107","市区町村名":"札幌市西区","大字コード":"00a","丁目コード":"008","小字コード":"0000","予備コード":"00","大字名":"西野一条","丁目名":"８丁目","小字名":null,"予備名":null,"地番":"111-13","精度区分":"甲一","座標値種別":"図上測量","筆界未定構成筆":null,"代表点緯度":-212883.3495,"代表点経度":-79501.492081851}},{"type":"MultiPolygon","arcs":[[[34,35,-12,-33]]],"properties":{"筆ID":"H000000011","version":"ver1.0","座標系":"任意座標系","測地系判別":null,"地図名":"整附Ａ２４（５００）","地図番号":"整附A-24-1","縮尺分母":"500","市区町村コード":"01107","市区町村名":"札幌市西区","大字コード":"00a","丁目コード":"008","小字コード":"0000","予備コード":"00","大字名":"西野一条","丁目名":"８丁目","小字名":null,"予備名":null,"地番":"111-14","精度区分":"甲一","座標値種別":"図上測量","筆界未定構成筆":null,"代表点緯度":-212891.478,"代表点経度":-79491.313899306}},{"type":"MultiPolygon","arcs":[[[36,-15,-36,37]]],"properties":{"筆ID":"H000000012","version":"ver1.0","座標系":"任意座標系","測地系判別":null,"地図名":"整附Ａ２４（５００）","地図番号":"整附A-24-1","縮尺分母":"500","市区町村コード":"01107","市区町村名":"札幌市西区","大字コード":"00a","丁目コード":"008","小字コード":"0000","予備コード":"00","大字名":"西野一条","丁目名":"８丁目","小字名":null,"予備名":null,"地番":"111-15","精度区分":"甲一","座標値種別":"図上測量","筆界未定構成筆":null,"代表点緯度":-212899.5735,"代表点経度":-79481.164971557}},{"type":"MultiPolygon","arcs":[[[-19,38,39]]],"properties":{"筆ID":"H000000013","version":"ver1.0","座標系":"任意座標系","測地系判別":null,"地図名":"整附Ａ２４（５００）","地図番号":"整附A-24-1","縮尺分母":"500","市区町村コード":"01107","市区町村名":"札幌市西区","大字コード":"00a","丁目コード":"008","小字コード":"0000","予備コード":"00","大字名":"西野一条","丁目名":"８丁目","小字名":null,"予備名":null,"地番":"111-16","精度区分":"甲一","座標値種別":"図上測量","筆界未定構成筆":null,"代表点緯度":-212911.6485,"代表点経度":-79467.78880202}},{"type":"MultiPolygon","arcs":[[[40,41,42,43,44]]],"properties":{"筆ID":"H000000014","version":"ver1.0","座標系":"任意座標系","測地系判別":null,"地図名":"整附Ａ２４（５００）","地図番号":"整附A-24-1","縮尺分母":"500","市区町村コード":"01107","市区町村名":"札幌市西区","大字コード":"00a","丁目コード":"008","小字コード":"0000","予備コード":"00","大字名":"西野一条","丁目名":"８丁目","小字名":null,"予備名":null,"地番":"111-17","精度区分":"甲一","座標値種別":"図上測量","筆界未定構成筆":null,"代表点緯度":-212849.778,"代表点経度":-79511.436147564}},{"type":"MultiPolygon","arcs":[[[45,46,47,48,49]]],"properties":{"筆ID":"H000000015","version":"ver1.0","座標系":"任意座標系","測地系判別":null,"地図名":"整附Ａ２４（５００）","地図番号":"整附A-24-1","縮尺分母":"500","市区町村コード":"01107","市区町村名":"札幌市西区","大字コード":"00a","丁目コード":"008","小字コード":"0000","予備コード":"00","大字名":"西野一条","丁目名":"８丁目","小字名":null,"予備名":null,"地番":"111-18","精度区分":"甲一","座標値種別":"図上測量","筆界未定構成筆":null,"代表点緯度":-212860.885,"代表点経度":-79497.293063591}},{"type":"MultiPolygon","arcs":[[[50,51,52,53]]],"properties":{"筆ID":"H000000016","version":"ver1.0","座標系":"任意座標系","測地系判別":null,"地図名":"整附Ａ２４（５００）","地図番号":"整附A-24-1","縮尺分母":"500","市区町村コード":"01107","市区町村名":"札幌市西区","大字コード":"00a","丁目コード":"008","小字コード":"0000","予備コード":"00","大字名":"西野一条","丁目名":"８丁目","小字名":null,"予備名":null,"地番":"111-19","精度区分":"甲一","座標値種別":"図上測量","筆界未定構成筆":null,"代表点緯度":-212871.975,"代表点経度":-79483.142709132}},{"type":"MultiPolygon","arcs":[[[54,55,56,57,58]]],"properties":{"筆ID":"H000000017","version":"ver1.0","座標系":"任意座標系","測地系判別":null,"地図名":"整附Ａ２４（５００）","地図番号":"整附A-24-1","縮尺分母":"500","市区町村コード":"01107","市区町村名":"札幌市西区","大字コード":"00a","丁目コード":"008","小字コード":"0000","予備コード":"00","大字名":"西野一条","丁目名":"８丁目","小字名":null,"予備名":null,"地番":"111-20","精度区分":"甲一","座標値種別":"図上測量","筆界未定構成筆":null,"代表点緯度":-212883.0715,"代表点経度":-79468.999620969}},{"type":"MultiPolygon","arcs":[[[59,60,61]]],"properties":{"筆ID":"H000000018","version":"ver1.0","座標系":"任意座標系","測地系判別":null,"地図名":"整附Ａ２４（５００）","地図番号":"整附A-24-1","縮尺分母":"500","市区町村コード":"01107","市区町村名":"札幌市西区","大字コード":"00a","丁目コード":"008","小字コード":"0000","予備コード":"00","大字名":"西野一条","丁目名":"８丁目","小字名":null,"予備名":null,"地番":"111-21","精度区分":"甲一","座標値種別":"図上測量","筆界未定構成筆":null,"代表点緯度":-212894.697,"代表点経度":-79454.200744673}},{"type":"MultiPolygon","arcs":[[[62,-45,63,64,65]]],"properties":{"筆ID":"H000000019","version":"ver1.0","座標系":"任意座標系","測地系判別":null,"地図名":"整附Ａ２４（５００）","地図番号":"整附A-24-1","縮尺分母":"500","市区町村コード":"01107","市区町村名":"札幌市西区","大字コード":"00a","丁目コード":"008","小字コード":"0000","予備コード":"00","大字名":"西野一条","丁目名":"８丁目","小字名":null,"予備名":null,"地番":"111-22","精度区分":"甲一","座標値種別":"図上測量","筆界未定構成筆":null,"代表点緯度":-212834.5465,"代表点経度":-79510.77947087}},{"type":"MultiPolygon","arcs":[[[66,67,-41,-63,68]]],"properties":{"筆ID":"H000000020","version":"ver1.0","座標系":"任意座標系","測地系判別":null,"地図名":"整附Ａ２４（５００）","地図番号":"整附A-24-1","縮尺分母":"500","市区町村コード":"01107","市区町村名":"札幌市西区","大字コード":"00a","丁目コード":"008","小字コード":"0000","予備コード":"00","大字名":"西野一条","丁目名":"８丁目","小字名":null,"予備名":null,"地番":"111-23","精度区分":"甲一","座標値種別":"図上測量","筆界未定構成筆":null,"代表点緯度":-212842.145,"代表点経度":-79500.862589737}},{"type":"MultiPolygon","arcs":[[[69,-46,70,-67,71]]],"properties":{"筆ID":"H000000021","version":"ver1.0","座標系":"任意座標系","測地系判別":null,"地図名":"整附Ａ２４（５００）","地図番号":"整附A-24-1","縮尺分母":"500","市区町村コード":"01107","市区町村名":"札幌市西区","大字コード":"00a","丁目コード":"008","小字コード":"0000","予備コード":"00","大字名":"西野一条","丁目名":"８丁目","小字名":null,"予備名":null,"地番":"111-24","精度区分":"甲一","座標値種別":"図上測量","筆界未定構成筆":null,"代表点緯度":-212848.8795,"代表点経度":-79492.127259794}},{"type":"MultiPolygon","arcs":[[[72,73,74,-47,-70]]],"properties":{"筆ID":"H000000022","version":"ver1.0","座標系":"任意座標系","測地系判別":null,"地図名":"整附Ａ２４（５００）","地図番号":"整附A-24-1","縮尺分母":"500","市区町村コード":"01107","市区町村名":"札幌市西区","大字コード":"00a","丁目コード":"008","小字コード":"0000","予備コード":"00","大字名":"西野一条","丁目名":"８丁目","小字名":null,"予備名":null,"地番":"111-25","精度区分":"甲一","座標値種別":"図上測量","筆界未定構成筆":null,"代表点緯度":-212855.557,"代表点経度":-79483.423082116}},{"type":"MultiPolygon","arcs":[[[75,76,-51,77,-74,78]]],"properties":{"筆ID":"H000000023","version":"ver1.0","座標系":"任意座標系","測地系判別":null,"地図名":"整附Ａ２４（５００）","地図番号":"整附A-24-1","縮尺分母":"500","市区町村コード":"01107","市区町村名":"札幌市西区","大字コード":"00a","丁目コード":"008","小字コード":"0000","予備コード":"00","大字名":"西野一条","丁目名":"８丁目","小字名":null,"予備名":null,"地番":"111-26","精度区分":"甲一","座標値種別":"図上測量","筆界未定構成筆":null,"代表点緯度":-212861.99,"代表点経度":-79475.087460948}},{"type":"MultiPolygon","arcs":[[[79,80,-55,81,82]]],"properties":{"筆ID":"H000000024","version":"ver1.0","座標系":"任意座標系","測地系判別":null,"地図名":"整附Ａ２４（５００）","地図番号":"整附A-24-1","縮尺分母":"500","市区町村コード":"01107","市区町村名":"札幌市西区","大字コード":"00a","丁目コード":"008","小字コード":"0000","予備コード":"00","大字名":"西野一条","丁目名":"８丁目","小字名":null,"予備名":null,"地番":"111-27","精度区分":"甲一","座標値種別":"図上測量","筆界未定構成筆":null,"代表点緯度":-212869.0235,"代表点経度":-79465.93038357}},{"type":"MultiPolygon","arcs":[[[83,84,85,86]]],"properties":{"筆ID":"H000000025","version":"ver1.0","座標系":"任意座標系","測地系判別":null,"地図名":"整附Ａ２４（５００）","地図番号":"整附A-24-1","縮尺分母":"500","市区町村コード":"01107","市区町村名":"札幌市西区","大字コード":"00a","丁目コード":"008","小字コード":"0000","予備コード":"00","大字名":"西野一条","丁目名":"８丁目","小字名":null,"予備名":null,"地番":"111-30","精度区分":"甲一","座標値種別":"図上測量","筆界未定構成筆":null,"代表点緯度":-212810.602,"代表点経度":-79492.447625221}},{"type":"MultiPolygon","arcs":[[[87,88,89,90,-85]]],"properties":{"筆ID":"H000000026","version":"ver1.0","座標系":"任意座標系","測地系判別":null,"地図名":"整附Ａ２４（５００）","地図番号":"整附A-24-1","縮尺分母":"500","市区町村コード":"01107","市区町村名":"札幌市西区","大字コード":"00a","丁目コード":"008","小字コード":"0000","予備コード":"00","大字名":"西野一条","丁目名":"８丁目","小字名":null,"予備名":null,"地番":"111-31","精度区分":"甲一","座標値種別":"図上測量","筆界未定構成筆":null,"代表点緯度":-212826.282,"代表点経度":-79484.459539232}},{"type":"MultiPolygon","arcs":[[[91,92,93,-90,94]]],"properties":{"筆ID":"H000000027","version":"ver1.0","座標系":"任意座標系","測地系判別":null,"地図名":"整附Ａ２４（５００）","地図番号":"整附A-24-1","縮尺分母":"500","市区町村コード":"01107","市区町村名":"札幌市西区","大字コード":"00a","丁目コード":"008","小字コード":"0000","予備コード":"00","大字名":"西野一条","丁目名":"８丁目","小字名":null,"予備名":null,"地番":"111-32","精度区分":"甲一","座標値種別":"図上測量","筆界未定構成筆":null,"代表点緯度":-212833.721,"代表点経度":-79474.394244991}},{"type":"MultiPolygon","arcs":[[[95,96,97,98,-93]]],"properties":{"筆ID":"H000000028","version":"ver1.0","座標系":"任意座標系","測地系判別":null,"地図名":"整附Ａ２４（５００）","地図番号":"整附A-24-1","縮尺分母":"500","市区町村コード":"01107","市区町村名":"札幌市西区","大字コード":"00a","丁目コード":"008","小字コード":"0000","予備コード":"00","大字名":"西野一条","丁目名":"８丁目","小字名":null,"予備名":null,"地番":"111-33","精度区分":"甲一","座標値種別":"図上測量","筆界未定構成筆":null,"代表点緯度":-212840.255,"代表点経度":-79465.522832433}},{"type":"MultiPolygon","arcs":[[[99,100,101,-98,102]]],"properties":{"筆ID":"H000000029","version":"ver1.0","座標系":"任意座標系","測地系判別":null,"地図名":"整附Ａ２４（５００）","地図番号":"整附A-24-1","縮尺分母":"500","市区町村コード":"01107","市区町村名":"札幌市西区","大字コード":"00a","丁目コード":"008","小字コード":"0000","予備コード":"00","大字名":"西野一条","丁目名":"８丁目","小字名":null,"予備名":null,"地番":"111-34","精度区分":"甲一","座標値種別":"図上測量","筆界未定構成筆":null,"代表点緯度":-212846.7835,"代表点経度":-79456.649499971}},{"type":"MultiPolygon","arcs":[[[103,104,105]]],"properties":{"筆ID":"H000000030","version":"ver1.0","座標系":"任意座標系","測地系判別":null,"地図名":"整附Ａ２４（５００）","地図番号":"整附A-24-1","縮尺分母":"500","市区町村コード":"01107","市区町村名":"札幌市西区","大字コード":"00a","丁目コード":"008","小字コード":"0000","予備コード":"00","大字名":"西野一条","丁目名":"８丁目","小字名":null,"予備名":null,"地番":"111-37","精度区分":"甲一","座標値種別":"図上測量","筆界未定構成筆":null,"代表点緯度":-212865.2425,"代表点経度":-79431.658958424}},{"type":"MultiPolygon","arcs":[[[106,-88,-84,107]]],"properties":{"筆ID":"H000000031","version":"ver1.0","座標系":"任意座標系","測地系判別":null,"地図名":"整附Ａ２４（５００）","地図番号":"整附A-24-1","縮尺分母":"500","市区町村コード":"01107","市区町村名":"札幌市西区","大字コード":"00a","丁目コード":"008","小字コード":"0000","予備コード":"00","大字名":"西野一条","丁目名":"８丁目","小字名":null,"予備名":null,"地番":"111-38","精度区分":"甲一","座標値種別":"図上測量","筆界未定構成筆":null,"代表点緯度":-212814.0695,"代表点経度":-79476.510025504}},{"type":"MultiPolygon","arcs":[[[108,109,-95,-89,-107]]],"properties":{"筆ID":"H000000032","version":"ver1.0","座標系":"任意座標系","測地系判別":null,"地図名":"整附Ａ２４（５００）","地図番号":"整附A-24-1","縮尺分母":"500","市区町村コード":"01107","市区町村名":"札幌市西区","大字コード":"00a","丁目コード":"008","小字コード":"0000","予備コード":"00","大字名":"西野一条","丁目名":"８丁目","小字名":null,"予備名":null,"地番":"111-39","精度区分":"甲一","座標値種別":"図上測量","筆界未定構成筆":null,"代表点緯度":-212820.987,"代表点経度":-79466.666436447}},{"type":"MultiPolygon","arcs":[[[110,-96,-92,-110,111]]],"properties":{"筆ID":"H000000033","version":"ver1.0","座標系":"任意座標系","測地系判別":null,"地図名":"整附Ａ２４（５００）","地図番号":"整附A-24-1","縮尺分母":"500","市区町村コード":"01107","市区町村名":"札幌市西区","大字コード":"00a","丁目コード":"008","小字コード":"0000","予備コード":"00","大字名":"西野一条","丁目名":"８丁目","小字名":null,"予備名":null,"地番":"111-40","精度区分":"甲一","座標値種別":"図上測量","筆界未定構成筆":null,"代表点緯度":-212827.4735,"代表点経度":-79457.451738977}},{"type":"MultiPolygon","arcs":[[[112,113,114,115]]],"properties":{"筆ID":"H000000034","version":"ver1.0","座標系":"任意座標系","測地系判別":null,"地図名":"整附Ａ２４（５００）","地図番号":"整附A-24-1","縮尺分母":"500","市区町村コード":"01107","市区町村名":"札幌市西区","大字コード":"00a","丁目コード":"008","小字コード":"0000","予備コード":"00","大字名":"西野一条","丁目名":"８丁目","小字名":null,"予備名":null,"地番":"111-44","精度区分":"甲一","座標値種別":"図上測量","筆界未定構成筆":null,"代表点緯度":-212935.8685,"代表点経度":-79462.364331333}},{"type":"MultiPolygon","arcs":[[[116,117,-116,118]]],"properties":{"筆ID":"H000000035","version":"ver1.0","座標系":"任意座標系","測地系判別":null,"地図名":"整附Ａ２４（５００）","地図番号":"整附A-24-1","縮尺分母":"500","市区町村コード":"01107","市区町村名":"札幌市西区","大字コード":"00a","丁目コード":"008","小字コード":"0000","予備コード":"00","大字名":"西野一条","丁目名":"８丁目","小字名":null,"予備名":null,"地番":"111-45","精度区分":"甲一","座標値種別":"図上測量","筆界未定構成筆":null,"代表点緯度":-212926.095,"代表点経度":-79455.048532527}},{"type":"MultiPolygon","arcs":[[[119,120,121,-117,122]]],"properties":{"筆ID":"H000000036","version":"ver1.0","座標系":"任意座標系","測地系判別":null,"地図名":"整附Ａ２４（５００）","地図番号":"整附A-24-1","縮尺分母":"500","市区町村コード":"01107","市区町村名":"札幌市西区","大字コード":"00a","丁目コード":"008","小字コード":"0000","予備コード":"00","大字名":"西野一条","丁目名":"８丁目","小字名":null,"予備名":null,"地番":"111-46","精度区分":"甲一","座標値種別":"図上測量","筆界未定構成筆":null,"代表点緯度":-212915.432,"代表点経度":-79446.320830589}},{"type":"MultiPolygon","arcs":[[[123,124,-120,125,126]]],"properties":{"筆ID":"H000000037","version":"ver1.0","座標系":"任意座標系","測地系判別":null,"地図名":"整附Ａ２４（５００）","地図番号":"整附A-24-1","縮尺分母":"500","市区町村コード":"01107","市区町村名":"札幌市西区","大字コード":"00a","丁目コード":"008","小字コード":"0000","予備コード":"00","大字名":"西野一条","丁目名":"８丁目","小字名":null,"予備名":null,"地番":"111-47","精度区分":"甲一","座標値種別":"図上測量","筆界未定構成筆":null,"代表点緯度":-212905.2025,"代表点経度":-79437.950169911}},{"type":"MultiPolygon","arcs":[[[127,128,-127,129,130]]],"properties":{"筆ID":"H000000038","version":"ver1.0","座標系":"任意座標系","測地系判別":null,"地図名":"整附Ａ２４（５００）","地図番号":"整附A-24-1","縮尺分母":"500","市区町村コード":"01107","市区町村名":"札幌市西区","大字コード":"00a","丁目コード":"008","小字コード":"0000","予備コード":"00","大字名":"西野一条","丁目名":"８丁目","小字名":null,"予備名":null,"地番":"111-48","精度区分":"甲一","座標値種別":"図上測量","筆界未定構成筆":null,"代表点緯度":-212894.747,"代表点経度":-79429.409356816}},{"type":"MultiPolygon","arcs":[[[131,132,133,-131,134]]],"properties":{"筆ID":"H000000039","version":"ver1.0","座標系":"任意座標系","測地系判別":null,"地図名":"整附Ａ２４（５００）","地図番号":"整附A-24-1","縮尺分母":"500","市区町村コード":"01107","市区町村名":"札幌市西区","大字コード":"00a","丁目コード":"008","小字コード":"0000","予備コード":"00","大字名":"西野一条","丁目名":"８丁目","小字名":null,"予備名":null,"地番":"111-49","精度区分":"甲一","座標値種別":"図上測量","筆界未定構成筆":null,"代表点緯度":-212884.2865,"代表点経度":-79420.865255984}},{"type":"MultiPolygon","arcs":[[[135,136,137,-132,138]]],"properties":{"筆ID":"H000000040","version":"ver1.0","座標系":"任意座標系","測地系判別":null,"地図名":"整附Ａ２４（５００）","地図番号":"整附A-24-1","縮尺分母":"500","市区町村コード":"01107","市区町村名":"札幌市西区","大字コード":"00a","丁目コード":"008","小字コード":"0000","予備コード":"00","大字名":"西野一条","丁目名":"８丁目","小字名":null,"予備名":null,"地番":"111-50","精度区分":"甲一","座標値種別":"図上測量","筆界未定構成筆":null,"代表点緯度":-212873.5575,"代表点経度":-79412.101231654}},{"type":"MultiPolygon","arcs":[[[139,140,-136,141]]],"properties":{"筆ID":"H000000041","version":"ver1.0","座標系":"任意座標系","測地系判別":null,"地図名":"整附Ａ２４（５００）","地図番号":"整附A-24-1","縮尺分母":"500","市区町村コード":"01107","市区町村名":"札幌市西区","大字コード":"00a","丁目コード":"008","小字コード":"0000","予備コード":"00","大字名":"西野一条","丁目名":"８丁目","小字名":null,"予備名":null,"地番":"111-51","精度区分":"甲一","座標値種別":"図上測量","筆界未定構成筆":null,"代表点緯度":-212863.1155,"代表点経度":-79403.571220428}},{"type":"MultiPolygon","arcs":[[[142,143,-113,-118]]],"properties":{"筆ID":"H000000042","version":"ver1.0","座標系":"任意座標系","測地系判別":null,"地図名":"整附Ａ２４（５００）","地図番号":"整附A-24-1","縮尺分母":"500","市区町村コード":"01107","市区町村名":"札幌市西区","大字コード":"00a","丁目コード":"008","小字コード":"0000","予備コード":"00","大字名":"西野一条","丁目名":"８丁目","小字名":null,"予備名":null,"地番":"111-52","精度区分":"甲一","座標値種別":"図上測量","筆界未定構成筆":null,"代表点緯度":-212939.0905,"代表点経度":-79448.835153198}},{"type":"MultiPolygon","arcs":[[[144,145,-143,-122]]],"properties":{"筆ID":"H000000043","version":"ver1.0","座標系":"任意座標系","測地系判別":null,"地図名":"整附Ａ２４（５００）","地図番号":"整附A-24-1","縮尺分母":"500","市区町村コード":"01107","市区町村名":"札幌市西区","大字コード":"00a","丁目コード":"008","小字コード":"0000","予備コード":"00","大字名":"西野一条","丁目名":"８丁目","小字名":null,"予備名":null,"地番":"111-53","精度区分":"甲一","座標値種別":"図上測量","筆界未定構成筆":null,"代表点緯度":-212929.906,"代表点経度":-79436.81222713}},{"type":"MultiPolygon","arcs":[[[146,147,-145,-121,-125]]],"properties":{"筆ID":"H000000044","version":"ver1.0","座標系":"任意座標系","測地系判別":null,"地図名":"整附Ａ２４（５００）","地図番号":"整附A-24-1","縮尺分母":"500","市区町村コード":"01107","市区町村名":"札幌市西区","大字コード":"00a","丁目コード":"008","小字コード":"0000","予備コード":"00","大字名":"西野一条","丁目名":"８丁目","小字名":null,"予備名":null,"地番":"111-54","精度区分":"甲一","座標値種別":"図上測量","筆界未定構成筆":null,"代表点緯度":-212916.5715,"代表点経度":-79430.402623161}},{"type":"MultiPolygon","arcs":[[[148,149,-147,-124,-129]]],"properties":{"筆ID":"H000000045","version":"ver1.0","座標系":"任意座標系","測地系判別":null,"地図名":"整附Ａ２４（５００）","地図番号":"整附A-24-1","縮尺分母":"500","市区町村コード":"01107","市区町村名":"札幌市西区","大字コード":"00a","丁目コード":"008","小字コード":"0000","予備コード":"00","大字名":"西野一条","丁目名":"８丁目","小字名":null,"予備名":null,"地番":"111-55","精度区分":"甲一","座標値種別":"図上測量","筆界未定構成筆":null,"代表点緯度":-212907.644,"代表点経度":-79423.118461078}},{"type":"MultiPolygon","arcs":[[[-134,150,151,-149,-128]]],"properties":{"筆ID":"H000000046","version":"ver1.0","座標系":"任意座標系","測地系判別":null,"地図名":"整附Ａ２４（５００）","地図番号":"整附A-24-1","縮尺分母":"500","市区町村コード":"01107","市区町村名":"札幌市西区","大字コード":"00a","丁目コード":"008","小字コード":"0000","予備コード":"00","大字名":"西野一条","丁目名":"８丁目","小字名":null,"予備名":null,"地番":"111-56","精度区分":"甲一","座標値種別":"図上測量","筆界未定構成筆":null,"代表点緯度":-212897.555,"代表点経度":-79414.888443202}},{"type":"MultiPolygon","arcs":[[[152,153,-151,-133,-138]]],"properties":{"筆ID":"H000000047","version":"ver1.0","座標系":"任意座標系","測地系判別":null,"地図名":"整附Ａ２４（５００）","地図番号":"整附A-24-1","縮尺分母":"500","市区町村コード":"01107","市区町村名":"札幌市西区","大字コード":"00a","丁目コード":"008","小字コード":"0000","予備コード":"00","大字名":"西野一条","丁目名":"８丁目","小字名":null,"予備名":null,"地番":"111-57","精度区分":"甲一","座標値種別":"図上測量","筆界未定構成筆":null,"代表点緯度":-212888.055,"代表点経度":-79407.134955734}},{"type":"MultiPolygon","arcs":[[[154,-153,-137,155]]],"properties":{"筆ID":"H000000048","version":"ver1.0","座標系":"任意座標系","測地系判別":null,"地図名":"整附Ａ２４（５００）","地図番号":"整附A-24-1","縮尺分母":"500","市区町村コード":"01107","市区町村名":"札幌市西区","大字コード":"00a","丁目コード":"008","小字コード":"0000","予備コード":"00","大字名":"西野一条","丁目名":"８丁目","小字名":null,"予備名":null,"地番":"111-58","精度区分":"甲一","座標値種別":"図上測量","筆界未定構成筆":null,"代表点緯度":-212880.3035,"代表点経度":-79400.80195967}},{"type":"MultiPolygon","arcs":[[[156,-156,-141]]],"properties":{"筆ID":"H000000049","version":"ver1.0","座標系":"任意座標系","測地系判別":null,"地図名":"整附Ａ２４（５００）","地図番号":"整附A-24-1","縮尺分母":"500","市区町村コード":"01107","市区町村名":"札幌市西区","大字コード":"00a","丁目コード":"008","小字コード":"0000","予備コード":"00","大字名":"西野一条","丁目名":"８丁目","小字名":null,"予備名":null,"地番":"111-59","精度区分":"甲一","座標値種別":"図上測量","筆界未定構成筆":null,"代表点緯度":-212869.866,"代表点経度":-79393.669124434}},{"type":"MultiPolygon","arcs":[[[-7,157,158,159]]],"properties":{"筆ID":"H000000050","version":"ver1.0","座標系":"任意座標系","測地系判別":null,"地図名":"整附Ａ２４（５００）","地図番号":"整附A-24-1","縮尺分母":"500","市区町村コード":"01107","市区町村名":"札幌市西区","大字コード":"00a","丁目コード":"008","小字コード":"0000","予備コード":"00","大字名":"西野一条","丁目名":"８丁目","小字名":null,"予備名":null,"地番":"111-61","精度区分":"甲一","座標値種別":"図上測量","筆界未定構成筆":null,"代表点緯度":-212883.4335,"代表点経度":-79522.81653552}},{"type":"MultiPolygon","arcs":[[[-159,160,-2,-28]]],"properties":{"筆ID":"H000000051","version":"ver1.0","座標系":"任意座標系","測地系判別":null,"地図名":"整附Ａ２４（５００）","地図番号":"整附A-24-1","縮尺分母":"500","市区町村コード":"01107","市区町村名":"札幌市西区","大字コード":"00a","丁目コード":"008","小字コード":"0000","予備コード":"00","大字名":"西野一条","丁目名":"８丁目","小字名":null,"予備名":null,"地番":"111-62","精度区分":"甲一","座標値種別":"図上測量","筆界未定構成筆":null,"代表点緯度":-212879.261,"代表点経度":-79527.861680313}},{"type":"MultiPolygon","arcs":[[[-29,-1,-23,161]]],"properties":{"筆ID":"H000000052","version":"ver1.0","座標系":"任意座標系","測地系判別":null,"地図名":"整附Ａ２４（５００）","地図番号":"整附A-24-1","縮尺分母":"500","市区町村コード":"01107","市区町村名":"札幌市西区","大字コード":"00a","丁目コード":"008","小字コード":"0000","予備コード":"00","大字名":"西野一条","丁目名":"８丁目","小字名":null,"予備名":null,"地番":"111-63","精度区分":"甲一","座標値種別":"図上測量","筆界未定構成筆":null,"代表点緯度":-212865.1035,"代表点経度":-79524.422071036}},{"type":"MultiPolygon","arcs":[[[162,-31,-160,-27]]],"properties":{"筆ID":"H000000053","version":"ver1.0","座標系":"任意座標系","測地系判別":null,"地図名":"整附Ａ２４（５００）","地図番号":"整附A-24-1","縮尺分母":"500","市区町村コード":"01107","市区町村名":"札幌市西区","大字コード":"00a","丁目コード":"008","小字コード":"0000","予備コード":"00","大字名":"西野一条","丁目名":"８丁目","小字名":null,"予備名":null,"地番":"111-64","精度区分":"甲一","座標値種別":"図上測量","筆界未定構成筆":null,"代表点緯度":-212873.2355,"代表点経度":-79514.217026721}},{"type":"MultiPolygon","arcs":[[[163,-39,-22,-16,-37]]],"properties":{"筆ID":"H000000054","version":"ver1.0","座標系":"任意座標系","測地系判別":null,"地図名":"整附Ａ２４（５００）","地図番号":"整附A-24-1","縮尺分母":"500","市区町村コード":"01107","市区町村名":"札幌市西区","大字コード":"00a","丁目コード":"008","小字コード":"0000","予備コード":"00","大字名":"西野一条","丁目名":"８丁目","小字名":null,"予備名":null,"地番":"111-65","精度区分":"甲一","座標値種別":"図上測量","筆界未定構成筆":null,"代表点緯度":-212905.691,"代表点経度":-79473.56614684}},{"type":"MultiPolygon","arcs":[[[-44,164,165,-64]]],"properties":{"筆ID":"H000000055","version":"ver1.0","座標系":"任意座標系","測地系判別":null,"地図名":"整附Ａ２４（５００）","地図番号":"整附A-24-1","縮尺分母":"500","市区町村コード":"01107","市区町村名":"札幌市西区","大字コード":"00a","丁目コード":"008","小字コード":"0000","予備コード":"00","大字名":"西野一条","丁目名":"８丁目","小字名":null,"予備名":null,"地番":"111-66","精度区分":"甲一","座標値種別":"図上測量","筆界未定構成筆":null,"代表点緯度":-212844.6475,"代表点経度":-79519.19302737}},{"type":"MultiPolygon","arcs":[[[-71,-50,166,-42,-68]]],"properties":{"筆ID":"H000000056","version":"ver1.0","座標系":"任意座標系","測地系判別":null,"地図名":"整附Ａ２４（５００）","地図番号":"整附A-24-1","縮尺分母":"500","市区町村コード":"01107","市区町村名":"札幌市西区","大字コード":"00a","丁目コード":"008","小字コード":"0000","予備コード":"00","大字名":"西野一条","丁目名":"８丁目","小字名":null,"予備名":null,"地番":"111-67","精度区分":"甲一","座標値種別":"図上測量","筆界未定構成筆":null,"代表点緯度":-212855.3195,"代表点経度":-79504.369480017}},{"type":"MultiPolygon","arcs":[[[-78,-54,167,-48,-75]]],"properties":{"筆ID":"H000000057","version":"ver1.0","座標系":"任意座標系","測地系判別":null,"地図名":"整附Ａ２４（５００）","地図番号":"整附A-24-1","縮尺分母":"500","市区町村コード":"01107","市区町村名":"札幌市西区","大字コード":"00a","丁目コード":"008","小字コード":"0000","予備コード":"00","大字名":"西野一条","丁目名":"８丁目","小字名":null,"予備名":null,"地番":"111-68","精度区分":"甲一","座標値種別":"図上測量","筆界未定構成筆":null,"代表点緯度":-212866.415,"代表点経度":-79490.225834095}},{"type":"MultiPolygon","arcs":[[[168,-82,-59,169,-52,-77]]],"properties":{"筆ID":"H000000058","version":"ver1.0","座標系":"任意座標系","測地系判別":null,"地図名":"整附Ａ２４（５００）","地図番号":"整附A-24-1","縮尺分母":"500","市区町村コード":"01107","市区町村名":"札幌市西区","大字コード":"00a","丁目コード":"008","小字コード":"0000","予備コード":"00","大字名":"西野一条","丁目名":"８丁目","小字名":null,"予備名":null,"地番":"111-69","精度区分":"甲一","座標値種別":"図上測量","筆界未定構成筆":null,"代表点緯度":-212877.533,"代表点経度":-79476.067361993}},{"type":"MultiPolygon","arcs":[[[170,171,-62,172,-57]]],"properties":{"筆ID":"H000000059","version":"ver1.0","座標系":"任意座標系","測地系判別":null,"地図名":"整附Ａ２４（５００）","地図番号":"整附A-24-1","縮尺分母":"500","市区町村コード":"01107","市区町村名":"札幌市西区","大字コード":"00a","丁目コード":"008","小字コード":"0000","予備コード":"00","大字名":"西野一条","丁目名":"８丁目","小字名":null,"予備名":null,"地番":"111-70","精度区分":"甲一","座標値種別":"図上測量","筆界未定構成筆":null,"代表点緯度":-212888.6305,"代表点経度":-79461.921789765}},{"type":"MultiPolygon","arcs":[[[173,-83,-169,-76]]],"properties":{"筆ID":"H000000060","version":"ver1.0","座標系":"任意座標系","測地系判別":null,"地図名":"整附Ａ２４（５００）","地図番号":"整附A-24-1","縮尺分母":"500","市区町村コード":"01107","市区町村名":"札幌市西区","大字コード":"00a","丁目コード":"008","小字コード":"0000","予備コード":"00","大字名":"西野一条","丁目名":"８丁目","小字名":null,"予備名":null,"地番":"111-71","精度区分":"甲一","座標値種別":"図上測量","筆界未定構成筆":null,"代表点緯度":-212865.3945,"代表点経度":-79470.715386167}},{"type":"MultiPolygon","arcs":[[[174,-103,-97,-111,175]]],"properties":{"筆ID":"H000000061","version":"ver1.0","座標系":"任意座標系","測地系判別":null,"地図名":"整附Ａ２４（５００）","地図番号":"整附A-24-1","縮尺分母":"500","市区町村コード":"01107","市区町村名":"札幌市西区","大字コード":"00a","丁目コード":"008","小字コード":"0000","予備コード":"00","大字名":"西野一条","丁目名":"８丁目","小字名":null,"予備名":null,"地番":"111-80","精度区分":"甲一","座標値種別":"図上測量","筆界未定構成筆":null,"代表点緯度":-212832.4635,"代表点経度":-79450.491303643}},{"type":"MultiPolygon","arcs":[[[176,177,178,-100,-175]]],"properties":{"筆ID":"H000000062","version":"ver1.0","座標系":"任意座標系","測地系判別":null,"地図名":"整附Ａ２４（５００）","地図番号":"整附A-24-1","縮尺分母":"500","市区町村コード":"01107","市区町村名":"札幌市西区","大字コード":"00a","丁目コード":"008","小字コード":"0000","予備コード":"00","大字名":"西野一条","丁目名":"８丁目","小字名":null,"予備名":null,"地番":"111-41","精度区分":"甲一","座標値種別":"図上測量","筆界未定構成筆":null,"代表点緯度":-212836.3375,"代表点経度":-79444.955374642}},{"type":"MultiPolygon","arcs":[[[179,180,181,182,-178]]],"properties":{"筆ID":"H000000063","version":"ver1.0","座標系":"任意座標系","測地系判別":null,"地図名":"整附Ａ２４（５００）","地図番号":"整附A-24-1","縮尺分母":"500","市区町村コード":"01107","市区町村名":"札幌市西区","大字コード":"00a","丁目コード":"008","小字コード":"0000","予備コード":"00","大字名":"西野一条","丁目名":"８丁目","小字名":null,"予備名":null,"地番":"111-83","精度区分":"甲一","座標値種別":"図上測量","筆界未定構成筆":null,"代表点緯度":-212840.3755,"代表点経度":-79439.229874229}},{"type":"MultiPolygon","arcs":[[[183,184,-101,-179,-183]]],"properties":{"筆ID":"H000000064","version":"ver1.0","座標系":"任意座標系","測地系判別":null,"地図名":"整附Ａ２４（５００）","地図番号":"整附A-24-1","縮尺分母":"500","市区町村コード":"01107","市区町村名":"札幌市西区","大字コード":"00a","丁目コード":"008","小字コード":"0000","予備コード":"00","大字名":"西野一条","丁目名":"８丁目","小字名":null,"予備名":null,"地番":"111-35","精度区分":"甲一","座標値種別":"図上測量","筆界未定構成筆":null,"代表点緯度":-212852.1515,"代表点経度":-79449.389249265}},{"type":"MultiPolygon","arcs":[[[185,186,187,-184,-182]]],"properties":{"筆ID":"H000000065","version":"ver1.0","座標系":"任意座標系","測地系判別":null,"地図名":"整附Ａ２４（５００）","地図番号":"整附A-24-1","縮尺分母":"500","市区町村コード":"01107","市区町村名":"札幌市西区","大字コード":"00a","丁目コード":"008","小字コード":"0000","予備コード":"00","大字名":"西野一条","丁目名":"８丁目","小字名":null,"予備名":null,"地番":"111-84","精度区分":"甲一","座標値種別":"図上測量","筆界未定構成筆":null,"代表点緯度":-212856.0315,"代表点経度":-79444.144056097}},{"type":"MultiPolygon","arcs":[[[188,-106,189,-187]]],"properties":{"筆ID":"H000000066","version":"ver1.0","座標系":"任意座標系","測地系判別":null,"地図名":"整附Ａ２４（５００）","地図番号":"整附A-24-1","縮尺分母":"500","市区町村コード":"01107","市区町村名":"札幌市西区","大字コード":"00a","丁目コード":"008","小字コード":"0000","予備コード":"00","大字名":"西野一条","丁目名":"８丁目","小字名":null,"予備名":null,"地番":"111-36","精度区分":"甲一","座標値種別":"図上測量","筆界未定構成筆":null,"代表点緯度":-212859.5795,"代表点経度":-79439.33609828}},{"type":"MultiPolygon","arcs":[[[190,191,192]]],"properties":{"筆ID":"H000000067","version":"ver1.0","座標系":"任意座標系","測地系判別":null,"地図名":"整附Ａ２４（５００）","地図番号":"整附A-24-1","縮尺分母":"500","市区町村コード":"01107","市区町村名":"札幌市西区","大字コード":"00a","丁目コード":"008","小字コード":"0000","予備コード":"00","大字名":"西野一条","丁目名":"８丁目","小字名":null,"予備名":null,"地番":"111-85","精度区分":"甲一","座標値種別":"図上測量","筆界未定構成筆":null,"代表点緯度":-212881.932,"代表点経度":-79443.870921767}},{"type":"MultiPolygon","arcs":[[[-191,193,-60,-172,194]]],"properties":{"筆ID":"H000000068","version":"ver1.0","座標系":"任意座標系","測地系判別":null,"地図名":"整附Ａ２４（５００）","地図番号":"整附A-24-1","縮尺分母":"500","市区町村コード":"01107","市区町村名":"札幌市西区","大字コード":"00a","丁目コード":"008","小字コード":"0000","予備コード":"00","大字名":"西野一条","丁目名":"８丁目","小字名":null,"予備名":null,"地番":"111-29","精度区分":"甲一","座標値種別":"図上測量","筆界未定構成筆":null,"代表点緯度":-212886.08,"代表点経度":-79450.114754561}},{"type":"MultiPolygon","arcs":[[[195,-192,-195,-171,-56,-81]]],"properties":{"筆ID":"H000000069","version":"ver1.0","座標系":"任意座標系","測地系判別":null,"地図名":"整附Ａ２４（５００）","地図番号":"整附A-24-1","縮尺分母":"500","市区町村コード":"01107","市区町村名":"札幌市西区","大字コード":"00a","丁目コード":"008","小字コード":"0000","予備コード":"00","大字名":"西野一条","丁目名":"８丁目","小字名":null,"予備名":null,"地番":"111-28","精度区分":"甲一","座標値種別":"図上測量","筆界未定構成筆":null,"代表点緯度":-212875.729,"代表点経度":-79457.211545477}},{"type":"MultiPolygon","arcs":[[[196,197,198,199]]],"properties":{"筆ID":"H000000070","version":"ver1.0","座標系":"任意座標系","測地系判別":null,"地図名":"整附Ａ２４（５００）","地図番号":"整附A-24-1","縮尺分母":"500","市区町村コード":"01107","市区町村名":"札幌市西区","大字コード":"00a","丁目コード":"008","小字コード":"0000","予備コード":"00","大字名":"西野一条","丁目名":"８丁目","小字名":null,"予備名":null,"地番":"111-43","精度区分":"甲一","座標値種別":"図上測量","筆界未定構成筆":null,"代表点緯度":-212850.7355,"代表点経度":-79418.807391003}},{"type":"MultiPolygon","arcs":[[[-198,200,-104,201]]],"properties":{"筆ID":"H000000071","version":"ver1.0","座標系":"任意座標系","測地系判別":null,"地図名":"整附Ａ２４（５００）","地図番号":"整附A-24-1","縮尺分母":"500","市区町村コード":"01107","市区町村名":"札幌市西区","大字コード":"00a","丁目コード":"008","小字コード":"0000","予備コード":"00","大字名":"西野一条","丁目名":"８丁目","小字名":null,"予備名":null,"地番":"111-86","精度区分":"甲一","座標値種別":"図上測量","筆界未定構成筆":null,"代表点緯度":-212855.7455,"代表点経度":-79424.227455946}},{"type":"MultiPolygon","arcs":[[[-165,-43,-167,-49,-168,-53,-170,-58,-173,-61,-194,-193,-196,-80,-174,-79,-73,-72,-69,-66,202,-86,-91,-94,-99,-102,-185,-188,-190,-105,-201,-197,203,-142,-139,-135,-130,-126,-123,-119,-115,204,-20,-40,-164,-38,-35,-34,-32,-163,-26,-162,-25,205]]],"properties":{"筆ID":"H000000072","version":"ver1.0","座標系":"任意座標系","測地系判別":null,"地図名":"整附Ａ２４（５００）","地図番号":"整附A-24-1","縮尺分母":"500","市区町村コード":"01107","市区町村名":"札幌市西区","大字コード":"00a","丁目コード":"008","小字コード":"0000","予備コード":"00","大字名":"西野一条","丁目名":"８丁目","小字名":null,"予備名":null,"地番":"111-3","精度区分":"甲一","座標値種別":"図上測量","筆界未定構成筆":null,"代表点緯度":-212877.131,"代表点経度":-79432.892555448}},{"type":"MultiPolygon","arcs":[[[-199,-202,-189,-186,-181,206]]],"properties":{"筆ID":"H000000073","version":"ver1.0","座標系":"任意座標系","測地系判別":null,"地図名":"整附Ａ２４（５００）","地図番号":"整附A-24-1","縮尺分母":"500","市区町村コード":"01107","市区町村名":"札幌市西区","大字コード":"00a","丁目コード":"008","小字コード":"0000","予備コード":"00","大字名":"西野一条","丁目名":"８丁目","小字名":null,"予備名":null,"地番":"111-42","精度区分":"甲一","座標値種別":"図上測量","筆界未定構成筆":null,"代表点緯度":-212845.524,"代表点経度":-79431.862792734}}]}},"arcs":[[[90526,533061],[31603,-26525]],[[122129,506536],[-52897,-64818]],[[69232,441718],[-67040,58944],[-2192,18836],[40907,55202]],[[40907,574700],[49619,-41639]],[[217157,426791],[-54370,-66588]],[[162787,360203],[-30954,27023]],[[131833,387226],[53802,66020]],[[185635,453246],[31522,-26455]],[[280232,373721],[-55151,-67829]],[[225081,305892],[-62294,54311]],[[217157,426791],[63075,-53070]],[[280232,373721],[63007,-53019]],[[343239,320702],[-56525,-69069]],[[286714,251633],[-61633,54259]],[[343239,320702],[63031,-53037]],[[406270,267665],[4977,-4188]],[[411247,263477],[-57536,-70374]],[[353711,193103],[-66997,58530]],[[437599,241314],[48956,-41194]],[[486555,200120],[-49037,-62252],[-18565,-2010]],[[418953,135858],[-65242,57245]],[[411247,263477],[26352,-22163]],[[143704,597278],[-53178,-64217]],[[40907,574700],[40452,55358]],[[81359,630058],[18552,2423],[43793,-35203]],[[175644,571386],[32065,-26002]],[[207709,545384],[-53671,-65619]],[[154038,479765],[-31909,26771]],[[122129,506536],[53515,64850]],[[271577,493599],[-54420,-66808]],[[185635,453246],[53890,66342]],[[239525,519588],[32052,-25989]],[[335402,441854],[-55170,-68133]],[[271577,493599],[63825,-51745]],[[335402,441854],[64106,-51979]],[[399508,389875],[-56269,-69173]],[[463151,338272],[-56881,-70607]],[[399508,389875],[63643,-51603]],[[437599,241314],[57648,70937]],[[495247,312251],[37973,-30791],[2573,-19850],[-49238,-61490]],[[226374,686644],[31191,-25330]],[[257565,661314],[-42618,-55966]],[[214947,605348],[-44155,35844]],[[170792,641192],[42787,55836]],[[213579,697028],[12795,-10384]],[[301626,625541],[32689,-26544]],[[334315,598997],[11546,-9370]],[[345861,589627],[-42780,-55816]],[[303081,533811],[-43768,35526]],[[259313,569337],[42313,56204]],[[390122,553687],[43905,-35650]],[[434027,518037],[-42256,-56223]],[[391771,461814],[-44092,35791]],[[347679,497605],[42443,56082]],[[478412,482000],[18272,-14836]],[[496684,467164],[25714,-20878]],[[522398,446286],[-42312,-56159]],[[480086,390127],[-44136,35824]],[[435950,425951],[42462,56049]],[[566753,410269],[52391,-42538]],[[619144,367731],[-35050,-44534],[-18653,-2359],[-41182,33427]],[[524259,354265],[42494,56004]],[[279371,757167],[-52997,-70523]],[[213579,697028],[-55607,45154]],[[157972,742182],[39890,61070]],[[197862,803252],[18508,3082],[63001,-49167]],[[334028,714507],[-53621,-71732]],[[280407,642775],[-22842,18539]],[[279371,757167],[54657,-42660]],[[389329,671342],[-55014,-72345]],[[301626,625541],[-21219,17234]],[[334028,714507],[55301,-43165]],[[389329,671342],[54477,-42518]],[[443806,628824],[-55401,-73741]],[[388405,555083],[-42544,34544]],[[494061,589601],[-56425,-74497]],[[437636,515104],[-3609,2933]],[[390122,553687],[-1717,1396]],[[443806,628824],[50255,-39223]],[[499213,585582],[54657,-42660]],[[553870,542922],[-57186,-75758]],[[478412,482000],[-35549,28865]],[[442863,510865],[56350,74717]],[[427358,940034],[-51960,-71971]],[[375398,868063],[-56381,-77146]],[[319017,790917],[-75334,58692],[-2959,19152]],[[240724,868761],[83107,127671],[19320,3567],[84207,-59965]],[[375398,868063],[60783,-45316]],[[436181,822747],[10073,-7508]],[[446254,815239],[-57306,-78795]],[[388948,736444],[-69931,54473]],[[497058,777353],[5071,-3780]],[[502129,773573],[-58336,-79860]],[[443793,693713],[-54845,42731]],[[446254,815239],[50804,-37886]],[[502129,773573],[48869,-36431]],[[550998,737142],[7075,-5279]],[[558073,731863],[-59354,-80940]],[[498719,650923],[-54926,42790]],[[583488,712917],[30360,-22636]],[[613848,690281],[-60059,-82257]],[[553789,608024],[-55070,42899]],[[558073,731863],[25415,-18946]],[[709982,618608],[67277,-50163]],[[777259,568445],[-57611,-72901],[-18508,-2320],[-52597,40981]],[[648543,534205],[61439,84403]],[[489240,895920],[-53059,-73173]],[[427358,940034],[61882,-44114]],[[489240,895920],[62176,-44082]],[[551416,851838],[-54358,-74485]],[[605212,813403],[-54214,-76261]],[[551416,851838],[53796,-38435]],[[572704,104622],[-48139,-60967]],[[524565,43655],[-47595,41640]],[[476970,85295],[-1580,19443],[39047,49271]],[[514437,154009],[58267,-49387]],[[560140,211680],[58036,-49465]],[[618176,162215],[-45472,-57593]],[[514437,154009],[45703,57671]],[[617514,284084],[57805,-49491]],[[675319,234593],[-11971,-15159]],[[663348,219434],[-45172,-57219]],[[560140,211680],[57374,72404]],[[728653,302144],[-19764,-25032]],[[708889,277112],[-33570,-42519]],[[617514,284084],[53128,67312]],[[670642,351396],[58011,-49252]],[[782193,369954],[-27707,-35087]],[[754486,334867],[-25833,-32723]],[[670642,351396],[53477,67764]],[[724119,419160],[58074,-49206]],[[777815,487196],[57605,-49820]],[[835420,437376],[-23566,-29847]],[[811854,407529],[-29661,-37575]],[[724119,419160],[53696,68036]],[[833247,557435],[57930,-49439]],[[891177,507996],[-39933,-50583]],[[851244,457413],[-15824,-20037]],[[777815,487196],[55432,70239]],[[891133,609322],[51142,-36618]],[[942275,572704],[-51098,-64708]],[[833247,557435],[38778,49128],[19108,2759]],[[618176,162215],[67540,-57457]],[[685716,104758],[-80241,-101831],[-30723,-2927],[-50187,43655]],[[663348,219434],[67940,-57038]],[[731288,162396],[-45572,-57638]],[[708889,277112],[68189,-57245]],[[777078,219867],[-45790,-57471]],[[754486,334867],[68021,-57303]],[[822507,277564],[-45429,-57697]],[[811854,407529],[67821,-57335]],[[879675,350194],[-57168,-72630]],[[851244,457413],[67939,-57108]],[[919183,400305],[-39508,-50111]],[[958823,450596],[-39640,-50291]],[[891177,507996],[67646,-57400]],[[942275,572704],[53216,-37801],[4508,-32012],[-41176,-52295]],[[131833,387226],[-31216,27088]],[[100617,414314],[53421,65451]],[[154038,479765],[31597,-26519]],[[100617,414314],[-31385,27404]],[[143704,597278],[31940,-25892]],[[207709,545384],[31816,-25796]],[[463151,338272],[32096,-26021]],[[170792,641192],[-41688,33840],[-2960,18745]],[[126144,693777],[31828,48405]],[[259313,569337],[-44366,36011]],[[347679,497605],[-44598,36206]],[[437636,515104],[5227,-4239]],[[435950,425951],[-44179,35863]],[[522398,446286],[28569,-23197]],[[550967,423089],[15786,-12820]],[[524259,354265],[-44173,35862]],[[494061,589601],[5152,-4019]],[[638995,789127],[-55507,-76210]],[[605212,813403],[33783,-24276]],[[638995,789127],[36174,-25841]],[[675169,763286],[-56000,-76972]],[[619169,686314],[-5321,3967]],[[675169,763286],[35824,-25582]],[[710993,737704],[-56493,-77735]],[[654500,659969],[-5152,3839]],[[649348,663808],[-30179,22506]],[[649348,663808],[-60296,-83260]],[[589052,580548],[-35263,27476]],[[654500,659969],[25259,-18829]],[[679759,641140],[-60771,-83912]],[[618988,557228],[-29936,23320]],[[679759,641140],[30223,-22532]],[[648543,534205],[-29555,23023]],[[648980,405648],[-68983,55959]],[[579997,461607],[28912,38357]],[[608909,499964],[59809,-46680],[2323,-19605],[-22061,-28031]],[[648980,405648],[-29836,-37917]],[[550967,423089],[29030,38518]],[[553870,542922],[55039,-42958]],[[827721,654710],[2466,-19289],[-22636,-28645]],[[807551,606776],[-68664,51281]],[[738887,658057],[28918,39455]],[[767805,697512],[59916,-42802]],[[807551,606776],[-30292,-38331]],[[709982,618608],[28905,39449]],[[197862,803252],[42862,65509]],[[827721,654710],[63412,-45388]],[[476970,85295],[-58017,50563]],[[81359,630058],[23473,31637],[21312,32082]],[[710993,737704],[56812,-40192]]],"bbox":[-79545.739,-212950.564,-79385.597,-212795.807],"transform":{"scale":[0.00016014216014216724,0.0001547571547571671],"translate":[-79545.739,-212950.564]}}
