{"type":"Topology","objects":{"01465-4501-14":{"type":"GeometryCollection","geometries":[{"type":"MultiPolygon","arcs":[[[0,1,2,3,4,5,6]]],"properties":{"筆ID":"H000000001","version":"ver1.0","座標系":"任意座標系","測地系判別":null,"地図名":"H16AN091250","地図番号":"A1","縮尺分母":"5000","市区町村コード":"01465","市区町村名":"上川郡剣淵町","大字コード":"610","丁目コード":"000","小字コード":"0000","予備コード":"00","大字名":"東町","丁目名":null,"小字名":null,"予備名":null,"地番":"道-1","精度区分":null,"座標値種別":"図上測量","筆界未定構成筆":null,"代表点緯度":351390.11,"代表点経度":191819.022829069}},{"type":"MultiPolygon","arcs":[[[7,8,9,10,11,12,13]]],"properties":{"筆ID":"H000000002","version":"ver1.0","座標系":"任意座標系","測地系判別":null,"地図名":"H16AN091250","地図番号":"A1","縮尺分母":"5000","市区町村コード":"01465","市区町村名":"上川郡剣淵町","大字コード":"610","丁目コード":"000","小字コード":"0000","予備コード":"00","大字名":"東町","丁目名":null,"小字名":null,"予備名":null,"地番":"道-2","精度区分":null,"座標値種別":"図上測量","筆界未定構成筆":null,"代表点緯度":351576.105,"代表点経度":191867.077530013}},{"type":"MultiPolygon","arcs":[[[14,15,16,17,18,19]]],"properties":{"筆ID":"H000000003","version":"ver1.0","座標系":"任意座標系","測地系判別":null,"地図名":"H16AN091250","地図番号":"A1","縮尺分母":"5000","市区町村コード":"01465","市区町村名":"上川郡剣淵町","大字コード":"610","丁目コード":"000","小字コード":"0000","予備コード":"00","大字名":"東町","丁目名":null,"小字名":null,"予備名":null,"地番":"道-3","精度区分":null,"座標値種別":"図上測量","筆界未定構成筆":null,"代表点緯度":352069.9505,"代表点経度":191972.486185767}},{"type":"MultiPolygon","arcs":[[[-11,20,-3]]],"properties":{"筆ID":"H000000004","version":"ver1.0","座標系":"任意座標系","測地系判別":null,"地図名":"H16AN091250","地図番号":"A1","縮尺分母":"5000","市区町村コード":"01465","市区町村名":"上川郡剣淵町","大字コード":"610","丁目コード":"000","小字コード":"0000","予備コード":"00","大字名":"東町","丁目名":null,"小字名":null,"予備名":null,"地番":"道-4","精度区分":null,"座標値種別":"図上測量","筆界未定構成筆":null,"代表点緯度":351443.252,"代表点経度":191930.325737147}},{"type":"MultiPolygon","arcs":[[[21,22,23,24,25,26,27,28]]],"properties":{"筆ID":"H000000005","version":"ver1.0","座標系":"任意座標系","測地系判別":null,"地図名":"H16AN091250","地図番号":"A1","縮尺分母":"5000","市区町村コード":"01465","市区町村名":"上川郡剣淵町","大字コード":"610","丁目コード":"000","小字コード":"0000","予備コード":"00","大字名":"東町","丁目名":null,"小字名":null,"予備名":null,"地番":"道-5","精度区分":null,"座標値種別":"図上測量","筆界未定構成筆":null,"代表点緯度":352257.42,"代表点経度":192134.449581026}},{"type":"MultiPolygon","arcs":[[[29,30,31,32]]],"properties":{"筆ID":"H000000006","version":"ver1.0","座標系":"任意座標系","測地系判別":null,"地図名":"H16AN091250","地図番号":"A1","縮尺分母":"5000","市区町村コード":"01465","市区町村名":"上川郡剣淵町","大字コード":"610","丁目コード":"000","小字コード":"0000","予備コード":"00","大字名":"東町","丁目名":null,"小字名":null,"予備名":null,"地番":"道-6","精度区分":null,"座標値種別":"図上測量","筆界未定構成筆":null,"代表点緯度":352779.9315,"代表点経度":192196.13685547}},{"type":"MultiPolygon","arcs":[[[-24,33]]],"properties":{"筆ID":"H000000007","version":"ver1.0","座標系":"任意座標系","測地系判別":null,"地図名":"H16AN091250","地図番号":"A1","縮尺分母":"5000","市区町村コード":"01465","市区町村名":"上川郡剣淵町","大字コード":"610","丁目コード":"000","小字コード":"0000","予備コード":"00","大字名":"東町","丁目名":null,"小字名":null,"予備名":null,"地番":"道-7","精度区分":null,"座標値種別":"図上測量","筆界未定構成筆":null,"代表点緯度":352167.9165,"代表点経度":192177.49360633}},{"type":"MultiPolygon","arcs":[[[34,35,36,37,38,39,40,41,42,43]]],"properties":{"筆ID":"H000000008","version":"ver1.0","座標系":"任意座標系","測地系判別":null,"地図名":"H16AN091250","地図番号":"A1","縮尺分母":"5000","市区町村コード":"01465","市区町村名":"上川郡剣淵町","大字コード":"610","丁目コード":"000","小字コード":"0000","予備コード":"00","大字名":"東町","丁目名":null,"小字名":null,"予備名":null,"地番":"道-8","精度区分":null,"座標値種別":"図上測量","筆界未定構成筆":null,"代表点緯度":353170.2115,"代表点経度":192334.074052842}},{"type":"MultiPolygon","arcs":[[[-5,44,45]]],"properties":{"筆ID":"H000000009","version":"ver1.0","座標系":"任意座標系","測地系判別":null,"地図名":"H16AN091250","地図番号":"A1","縮尺分母":"5000","市区町村コード":"01465","市区町村名":"上川郡剣淵町","大字コード":"610","丁目コード":"000","小字コード":"0000","予備コード":"00","大字名":"東町","丁目名":null,"小字名":null,"予備名":null,"地番":"199","精度区分":null,"座標値種別":"図上測量","筆界未定構成筆":null,"代表点緯度":351201.488,"代表点経度":191819.071289914}},{"type":"MultiPolygon","arcs":[[[-6,-46,46]]],"properties":{"筆ID":"H000000010","version":"ver1.0","座標系":"任意座標系","測地系判別":null,"地図名":"H16AN091250","地図番号":"A1","縮尺分母":"5000","市区町村コード":"01465","市区町村名":"上川郡剣淵町","大字コード":"610","丁目コード":"000","小字コード":"0000","予備コード":"00","大字名":"東町","丁目名":null,"小字名":null,"予備名":null,"地番":"200","精度区分":null,"座標値種別":"図上測量","筆界未定構成筆":null,"代表点緯度":351172.223,"代表点経度":191746.487496801}},{"type":"MultiPolygon","arcs":[[[-12,-2,47]]],"properties":{"筆ID":"H000000011","version":"ver1.0","座標系":"任意座標系","測地系判別":null,"地図名":"H16AN091250","地図番号":"A1","縮尺分母":"5000","市区町村コード":"01465","市区町村名":"上川郡剣淵町","大字コード":"610","丁目コード":"000","小字コード":"0000","予備コード":"00","大字名":"東町","丁目名":null,"小字名":null,"予備名":null,"地番":"211","精度区分":null,"座標値種別":"図上測量","筆界未定構成筆":null,"代表点緯度":351518.8575,"代表点経度":191843.989985833}},{"type":"MultiPolygon","arcs":[[[-13,-48,-1,48]]],"properties":{"筆ID":"H000000012","version":"ver1.0","座標系":"任意座標系","測地系判別":null,"地図名":"H16AN091250","地図番号":"A1","縮尺分母":"5000","市区町村コード":"01465","市区町村名":"上川郡剣淵町","大字コード":"610","丁目コード":"000","小字コード":"0000","予備コード":"00","大字名":"東町","丁目名":null,"小字名":null,"予備名":null,"地番":"212","精度区分":null,"座標値種別":"図上測量","筆界未定構成筆":null,"代表点緯度":351518.8575,"代表点経度":191748.21175183}},{"type":"MultiPolygon","arcs":[[[49,-15,50]]],"properties":{"筆ID":"H000000013","version":"ver1.0","座標系":"任意座標系","測地系判別":null,"地図名":"H16AN091250","地図番号":"A1","縮尺分母":"5000","市区町村コード":"01465","市区町村名":"上川郡剣淵町","大字コード":"610","丁目コード":"000","小字コード":"0000","予備コード":"00","大字名":"東町","丁目名":null,"小字名":null,"予備名":null,"地番":"220","精度区分":null,"座標値種別":"図上測量","筆界未定構成筆":null,"代表点緯度":352134.8985,"代表点経度":191900.432443758}},{"type":"MultiPolygon","arcs":[[[51,-16,-50]]],"properties":{"筆ID":"H000000014","version":"ver1.0","座標系":"任意座標系","測地系判別":null,"地図名":"H16AN091250","地図番号":"A1","縮尺分母":"5000","市区町村コード":"01465","市区町村名":"上川郡剣淵町","大字コード":"610","丁目コード":"000","小字コード":"0000","予備コード":"00","大字名":"東町","丁目名":null,"小字名":null,"予備名":null,"地番":"221","精度区分":null,"座標値種別":"図上測量","筆界未定構成筆":null,"代表点緯度":352124.707,"代表点経度":192003.156693425}},{"type":"MultiPolygon","arcs":[[[52,-18,53,-9]]],"properties":{"筆ID":"H000000015","version":"ver1.0","座標系":"任意座標系","測地系判別":null,"地図名":"H16AN091250","地図番号":"A1","縮尺分母":"5000","市区町村コード":"01465","市区町村名":"上川郡剣淵町","大字コード":"610","丁目コード":"000","小字コード":"0000","予備コード":"00","大字名":"東町","丁目名":null,"小字名":null,"予備名":null,"地番":"272","精度区分":null,"座標値種別":"図上測量","筆界未定構成筆":null,"代表点緯度":351816.2485,"代表点経度":191956.925767049}},{"type":"MultiPolygon","arcs":[[[54,-19,-53,-8]]],"properties":{"筆ID":"H000000016","version":"ver1.0","座標系":"任意座標系","測地系判別":null,"地図名":"H16AN091250","地図番号":"A1","縮尺分母":"5000","市区町村コード":"01465","市区町村名":"上川郡剣淵町","大字コード":"610","丁目コード":"000","小字コード":"0000","予備コード":"00","大字名":"東町","丁目名":null,"小字名":null,"予備名":null,"地番":"273","精度区分":null,"座標値種別":"図上測量","筆界未定構成筆":null,"代表点緯度":351816.2485,"代表点経度":191880.919079459}},{"type":"MultiPolygon","arcs":[[[55,56,57]]],"properties":{"筆ID":"H000000017","version":"ver1.0","座標系":"任意座標系","測地系判別":null,"地図名":"H16AN091250","地図番号":"A1","縮尺分母":"5000","市区町村コード":"01465","市区町村名":"上川郡剣淵町","大字コード":"610","丁目コード":"000","小字コード":"0000","予備コード":"00","大字名":"東町","丁目名":null,"小字名":null,"予備名":null,"地番":"442","精度区分":null,"座標値種別":"図上測量","筆界未定構成筆":null,"代表点緯度":352314.622,"代表点経度":192056.622831649}},{"type":"MultiPolygon","arcs":[[[58,-28,59,-56]]],"properties":{"筆ID":"H000000018","version":"ver1.0","座標系":"任意座標系","測地系判別":null,"地図名":"H16AN091250","地図番号":"A1","縮尺分母":"5000","市区町村コード":"01465","市区町村名":"上川郡剣淵町","大字コード":"610","丁目コード":"000","小字コード":"0000","予備コード":"00","大字名":"東町","丁目名":null,"小字名":null,"予備名":null,"地番":"443","精度区分":null,"座標値種別":"図上測量","筆界未定構成筆":null,"代表点緯度":352381.636,"代表点経度":192063.772962525}},{"type":"MultiPolygon","arcs":[[[-57,-60,-27,60,61]]],"properties":{"筆ID":"H000000019","version":"ver1.0","座標系":"任意座標系","測地系判別":null,"地図名":"H16AN091250","地図番号":"A1","縮尺分母":"5000","市区町村コード":"01465","市区町村名":"上川郡剣淵町","大字コード":"610","丁目コード":"000","小字コード":"0000","予備コード":"00","大字名":"東町","丁目名":null,"小字名":null,"予備名":null,"地番":"444","精度区分":null,"座標値種別":"図上測量","筆界未定構成筆":null,"代表点緯度":352304.8335,"代表点経度":192082.320755345}},{"type":"MultiPolygon","arcs":[[[-61,-26,62]]],"properties":{"筆ID":"H000000020","version":"ver1.0","座標系":"任意座標系","測地系判別":null,"地図名":"H16AN091250","地図番号":"A1","縮尺分母":"5000","市区町村コード":"01465","市区町村名":"上川郡剣淵町","大字コード":"610","丁目コード":"000","小字コード":"0000","予備コード":"00","大字名":"東町","丁目名":null,"小字名":null,"予備名":null,"地番":"445","精度区分":null,"座標値種別":"図上測量","筆界未定構成筆":null,"代表点緯度":352212.941,"代表点経度":192137.198750779}},{"type":"MultiPolygon","arcs":[[[63,-32,64,-22]]],"properties":{"筆ID":"H000000021","version":"ver1.0","座標系":"任意座標系","測地系判別":null,"地図名":"H16AN091250","地図番号":"A1","縮尺分母":"5000","市区町村コード":"01465","市区町村名":"上川郡剣淵町","大字コード":"610","丁目コード":"000","小字コード":"0000","予備コード":"00","大字名":"東町","丁目名":null,"小字名":null,"予備名":null,"地番":"筆界未定地-1","精度区分":null,"座標値種別":"図上測量","筆界未定構成筆":[{"大字コード":"610","丁目コード":"000","小字コード":"0000","予備コード":"00","大字名":"東町","地番":"446"},{"大字コード":"610","丁目コード":"000","小字コード":"0000","予備コード":"00","大字名":"東町","地番":"447"},{"大字コード":"610","丁目コード":"000","小字コード":"0000","予備コード":"00","大字名":"東町","地番":"449"},{"大字コード":"610","丁目コード":"000","小字コード":"0000","予備コード":"00","大字名":"東町","地番":"448"},{"大字コード":"000","丁目コード":"000","小字コード":"0000","予備コード":"00","地番":"3489-5"}],"代表点緯度":352564.48,"代表点経度":192168.868061249}},{"type":"MultiPolygon","arcs":[[[65,66]]],"properties":{"筆ID":"H000000022","version":"ver1.0","座標系":"任意座標系","測地系判別":null,"地図名":"H16AN091250","地図番号":"A1","縮尺分母":"5000","市区町村コード":"01465","市区町村名":"上川郡剣淵町","大字コード":"610","丁目コード":"000","小字コード":"0000","予備コード":"00","大字名":"東町","丁目名":null,"小字名":null,"予備名":null,"地番":"462","精度区分":null,"座標値種別":"図上測量","筆界未定構成筆":null,"代表点緯度":353174.802,"代表点経度":192203.170058101}},{"type":"MultiPolygon","arcs":[[[-66,67,68,69]]],"properties":{"筆ID":"H000000023","version":"ver1.0","座標系":"任意座標系","測地系判別":null,"地図名":"H16AN091250","地図番号":"A1","縮尺分母":"5000","市区町村コード":"01465","市区町村名":"上川郡剣淵町","大字コード":"610","丁目コード":"000","小字コード":"0000","予備コード":"00","大字名":"東町","丁目名":null,"小字名":null,"予備名":null,"地番":"463","精度区分":null,"座標値種別":"図上測量","筆界未定構成筆":null,"代表点緯度":353171.718,"代表点経度":192215.995196397}},{"type":"MultiPolygon","arcs":[[[-69,70,-43,71,72]]],"properties":{"筆ID":"H000000024","version":"ver1.0","座標系":"任意座標系","測地系判別":null,"地図名":"H16AN091250","地図番号":"A1","縮尺分母":"5000","市区町村コード":"01465","市区町村名":"上川郡剣淵町","大字コード":"610","丁目コード":"000","小字コード":"0000","予備コード":"00","大字名":"東町","丁目名":null,"小字名":null,"予備名":null,"地番":"464","精度区分":null,"座標値種別":"図上測量","筆界未定構成筆":null,"代表点緯度":353190.6605,"代表点経度":192265.348253271}},{"type":"MultiPolygon","arcs":[[[-72,-42,73]]],"properties":{"筆ID":"H000000025","version":"ver1.0","座標系":"任意座標系","測地系判別":null,"地図名":"H16AN091250","地図番号":"A1","縮尺分母":"5000","市区町村コード":"01465","市区町村名":"上川郡剣淵町","大字コード":"610","丁目コード":"000","小字コード":"0000","予備コード":"00","大字名":"東町","丁目名":null,"小字名":null,"予備名":null,"地番":"465","精度区分":null,"座標値種別":"図上測量","筆界未定構成筆":null,"代表点緯度":353178.6145,"代表点経度":192287.264059767}},{"type":"MultiPolygon","arcs":[[[74,-35]]],"properties":{"筆ID":"H000000026","version":"ver1.0","座標系":"任意座標系","測地系判別":null,"地図名":"H16AN091250","地図番号":"A1","縮尺分母":"5000","市区町村コード":"01465","市区町村名":"上川郡剣淵町","大字コード":"610","丁目コード":"000","小字コード":"0000","予備コード":"00","大字名":"東町","丁目名":null,"小字名":null,"予備名":null,"地番":"466","精度区分":null,"座標値種別":"図上測量","筆界未定構成筆":null,"代表点緯度":353231.8945,"代表点経度":192357.567814987}},{"type":"MultiPolygon","arcs":[[[75,-40,76,-30]]],"properties":{"筆ID":"H000000027","version":"ver1.0","座標系":"任意座標系","測地系判別":null,"地図名":"H16AN091250","地図番号":"A1","縮尺分母":"5000","市区町村コード":"01465","市区町村名":"上川郡剣淵町","大字コード":"610","丁目コード":"000","小字コード":"0000","予備コード":"00","大字名":"東町","丁目名":null,"小字名":null,"予備名":null,"地番":"筆界未定地-2","精度区分":null,"座標値種別":"図上測量","筆界未定構成筆":[{"大字コード":"610","丁目コード":"000","小字コード":"0000","予備コード":"00","大字名":"東町","地番":"469"},{"大字コード":"610","丁目コード":"000","小字コード":"0000","予備コード":"00","大字名":"東町","地番":"468"},{"大字コード":"610","丁目コード":"000","小字コード":"0000","予備コード":"00","大字名":"東町","地番":"467"}],"代表点緯度":352920.187,"代表点経度":192259.20562105}},{"type":"MultiPolygon","arcs":[[[77,78]]],"properties":{"筆ID":"H000000028","version":"ver1.0","座標系":"任意座標系","測地系判別":null,"地図名":"H16AN091250","地図番号":"A1","縮尺分母":"5000","市区町村コード":"01465","市区町村名":"上川郡剣淵町","大字コード":"610","丁目コード":"000","小字コード":"0000","予備コード":"00","大字名":"東町","丁目名":null,"小字名":null,"予備名":null,"地番":"1381","精度区分":null,"座標値種別":"図上測量","筆界未定構成筆":null,"代表点緯度":353229.0435,"代表点経度":192568.131234191}},{"type":"MultiPolygon","arcs":[[[79,80,81,-78,82,-38]]],"properties":{"筆ID":"H000000029","version":"ver1.0","座標系":"任意座標系","測地系判別":null,"地図名":"H16AN091250","地図番号":"A1","縮尺分母":"5000","市区町村コード":"01465","市区町村名":"上川郡剣淵町","大字コード":"610","丁目コード":"000","小字コード":"0000","予備コード":"00","大字名":"東町","丁目名":null,"小字名":null,"予備名":null,"地番":"1382","精度区分":null,"座標値種別":"図上測量","筆界未定構成筆":null,"代表点緯度":353239.262,"代表点経度":192502.289917357}},{"type":"MultiPolygon","arcs":[[[83,84,-80,-37]]],"properties":{"筆ID":"H000000030","version":"ver1.0","座標系":"任意座標系","測地系判別":null,"地図名":"H16AN091250","地図番号":"A1","縮尺分母":"5000","市区町村コード":"01465","市区町村名":"上川郡剣淵町","大字コード":"610","丁目コード":"000","小字コード":"0000","予備コード":"00","大字名":"東町","丁目名":null,"小字名":null,"予備名":null,"地番":"1384","精度区分":null,"座標値種別":"図上測量","筆界未定構成筆":null,"代表点緯度":353208.2575,"代表点経度":192435.467350617}},{"type":"MultiPolygon","arcs":[[[85,-81,-85]]],"properties":{"筆ID":"H000000031","version":"ver1.0","座標系":"任意座標系","測地系判別":null,"地図名":"H16AN091250","地図番号":"A1","縮尺分母":"5000","市区町村コード":"01465","市区町村名":"上川郡剣淵町","大字コード":"610","丁目コード":"000","小字コード":"0000","予備コード":"00","大字名":"東町","丁目名":null,"小字名":null,"予備名":null,"地番":"1385","精度区分":null,"座標値種別":"図上測量","筆界未定構成筆":null,"代表点緯度":353323.042,"代表点経度":192521.080861309}}]}},"arcs":[[[63496,122018],[6462,1368]],[[69958,123386],[164761,34881]],[[234719,158267],[4793,-4454]],[[239512,153813],[-46341,-9717]],[[193171,144096],[-132836,-27855]],[[60335,116241],[-3558,-746]],[[56777,115495],[-29616,-6210],[-2597,4490],[38932,8243]],[[124679,268962],[43889,-40594]],[[168568,228368],[28092,-25983]],[[196660,202385],[45904,-42457]],[[242564,159928],[-7845,-1661]],[[234719,158267],[-73909,68706]],[[160810,226973],[-44400,41275]],[[116410,268248],[-8847,8226],[4244,4393],[12872,-11905]],[[184441,411101],[32555,6897]],[[216996,417998],[191628,40602]],[[408624,458600],[8489,-3488],[-68293,-13946]],[[348820,441166],[-131038,-27467]],[[217782,413699],[-34314,-7211]],[[183468,406488],[-30560,-6348],[-3290,3582],[34823,7379]],[[242564,159928],[4826,-4462],[-7878,-1653]],[[376359,578249],[96103,-90404]],[[472462,487845],[13987,-13160]],[[486449,474685],[-7997,-1705]],[[478452,472980],[-867,353]],[[477585,473333],[-65810,61146]],[[411775,534479],[-24030,22327]],[[387745,556806],[-18104,16820]],[[369641,573626],[-8343,7752],[4692,6625],[10369,-9754]],[[406600,720357],[192920,40727]],[[599520,761084],[834,-4363]],[[600354,756721],[-203461,-42563]],[[396893,714158],[-31885,-6670],[4634,5067],[36958,7802]],[[486449,474685],[3444,-3238],[-5086,-1057],[-6355,2590]],[[621865,928730],[5416,-4998]],[[627281,923732],[30047,-27732]],[[657328,896000],[19344,-17853]],[[676672,878147],[6633,-6121]],[[683305,872026],[6961,-6425],[-4135,-4762]],[[686131,860839],[-35193,32406]],[[650938,893245],[-30430,27504]],[[620508,920749],[-6202,5708]],[[614306,926457],[-6160,5671]],[[608146,932128],[-12777,11762],[8848,1129],[17648,-16289]],[[193171,144096],[-30949,-135184],[-39659,-8912],[-2459,277]],[[120104,277],[-53780,94131],[-5989,21833]],[[120104,277],[-119444,13453],[41937,50390],[-42597,16445],[56777,34930]],[[69958,123386],[-1674,9533],[11395,21389],[10900,17540],[40943,35839],[29288,19286]],[[63496,122018],[-58807,23808],[11249,67608],[100472,54814]],[[333445,489473],[-50612,-16334],[-52126,-24919],[-13857,-27836],[146,-2386]],[[184441,411101],[-14920,57556],[70475,-1187],[73044,30382],[20405,-8379]],[[333445,489473],[75179,-30873]],[[168568,228368],[14035,9777],[19564,28152],[18294,32526],[9400,40715],[-12079,74161]],[[348820,441166],[8610,-22084],[-61174,-127199],[-99596,-89498]],[[124679,268962],[50698,73050],[8091,64476]],[[362279,553854],[18506,-10856]],[[380785,542998],[-10664,-13888],[-9785,-7986]],[[360336,521124],[-8893,3624],[10836,29106]],[[362279,553854],[7362,19772]],[[387745,556806],[-2961,-8483],[-3999,-5325]],[[411775,534479],[-9527,-11695],[-15307,-12505]],[[386941,510279],[-26605,10845]],[[477585,473333],[-90644,36946]],[[376359,578249],[31316,39762],[-29880,53543],[19098,42604]],[[600354,756721],[-57844,-71845],[29245,-68333],[-99293,-128698]],[[528461,915783],[-23999,-12360]],[[504462,903423],[-28764,1538],[52763,10822]],[[528461,915783],[26914,5521]],[[555375,921304],[-13622,-6667],[-24950,-11873]],[[516803,902764],[-12341,659]],[[555375,921304],[52771,10824]],[[614306,926457],[-13392,-6547],[-32461,-15757],[-8154,-3714]],[[560299,900439],[-43496,2325]],[[620508,920749],[-46709,-21031],[-13500,721]],[[621865,928730],[69140,12973],[-63724,-17971]],[[406600,720357],[66095,51410],[49757,55612],[89667,47801],[38819,18065]],[[686131,860839],[-86611,-99755]],[[724768,878669],[16410,8498],[4424,2223],[31333,17249],[28752,17953],[27400,18768],[24698,19092],[21870,20123],[16527,16959]],[[896182,999534],[103817,-770],[-20329,-35112],[-130322,-65023],[-124580,-19960]],[[676672,878147],[9842,5126],[27463,14144],[3994,2150],[30872,16809],[27950,17110],[25710,17884]],[[802503,951370],[23860,18572],[20646,19174],[10804,10703]],[[857813,999819],[38369,-285]],[[724768,878669],[-41463,-6643]],[[657328,896000],[131790,65876]],[[789118,961876],[13385,-10506]],[[789118,961876],[35898,17943],[8531,20180],[24266,-180]]],"bbox":[191685.799,351082.774,192700.218,353380.764],"transform":{"scale":[0.0010144200144200088,0.002297992297992347],"translate":[191685.799,351082.774]}}
