{"type":"Topology","objects":{"01332-4400-13":{"type":"GeometryCollection","geometries":[{"type":"MultiPolygon","arcs":[[[0,1,2]]],"properties":{"筆ID":"H000000001","version":"ver1.0","座標系":"任意座標系","測地系判別":null,"地図名":"千軒地区開拓図","地図番号":"開38","縮尺分母":"3000","市区町村コード":"01332","市区町村名":"松前郡福島町","大字コード":"000","丁目コード":"000","小字コード":"0005","予備コード":"00","大字名":null,"丁目名":null,"小字名":"字千軒","予備名":null,"地番":"27-2","精度区分":null,"座標値種別":null,"筆界未定構成筆":null,"代表点緯度":1083.774,"代表点経度":828.777349106}},{"type":"MultiPolygon","arcs":[[[3,-2,4,5,6]]],"properties":{"筆ID":"H000000002","version":"ver1.0","座標系":"任意座標系","測地系判別":null,"地図名":"千軒地区開拓図","地図番号":"開38","縮尺分母":"3000","市区町村コード":"01332","市区町村名":"松前郡福島町","大字コード":"000","丁目コード":"000","小字コード":"0005","予備コード":"00","大字名":null,"丁目名":null,"小字名":"字千軒","予備名":null,"地番":"28-1","精度区分":null,"座標値種別":null,"筆界未定構成筆":null,"代表点緯度":995.52,"代表点経度":780.495240392}},{"type":"MultiPolygon","arcs":[[[7,8,9,10]]],"properties":{"筆ID":"H000000003","version":"ver1.0","座標系":"任意座標系","測地系判別":null,"地図名":"千軒地区開拓図","地図番号":"開38","縮尺分母":"3000","市区町村コード":"01332","市区町村名":"松前郡福島町","大字コード":"000","丁目コード":"000","小字コード":"0005","予備コード":"00","大字名":null,"丁目名":null,"小字名":"字千軒","予備名":null,"地番":"28-2","精度区分":null,"座標値種別":null,"筆界未定構成筆":null,"代表点緯度":991.755,"代表点経度":854.364747176}},{"type":"MultiPolygon","arcs":[[[-6,11,12,13]]],"properties":{"筆ID":"H000000004","version":"ver1.0","座標系":"任意座標系","測地系判別":null,"地図名":"千軒地区開拓図","地図番号":"開38","縮尺分母":"3000","市区町村コード":"01332","市区町村名":"松前郡福島町","大字コード":"000","丁目コード":"000","小字コード":"0005","予備コード":"00","大字名":null,"丁目名":null,"小字名":"字千軒","予備名":null,"地番":"28-3","精度区分":null,"座標値種別":null,"筆界未定構成筆":null,"代表点緯度":892.2985,"代表点経度":746.409010092}},{"type":"MultiPolygon","arcs":[[[14,15,-8,16]]],"properties":{"筆ID":"H000000005","version":"ver1.0","座標系":"任意座標系","測地系判別":null,"地図名":"千軒地区開拓図","地図番号":"開38","縮尺分母":"3000","市区町村コード":"01332","市区町村名":"松前郡福島町","大字コード":"000","丁目コード":"000","小字コード":"0005","予備コード":"00","大字名":null,"丁目名":null,"小字名":"字千軒","予備名":null,"地番":"28-4","精度区分":null,"座標値種別":null,"筆界未定構成筆":null,"代表点緯度":867.2725,"代表点経度":823.1203914}},{"type":"MultiPolygon","arcs":[[[17,18,-13,19,20,21]]],"properties":{"筆ID":"H000000006","version":"ver1.0","座標系":"任意座標系","測地系判別":null,"地図名":"千軒地区開拓図","地図番号":"開38","縮尺分母":"3000","市区町村コード":"01332","市区町村名":"松前郡福島町","大字コード":"000","丁目コード":"000","小字コード":"0005","予備コード":"00","大字名":null,"丁目名":null,"小字名":"字千軒","予備名":null,"地番":"29-2","精度区分":null,"座標値種別":null,"筆界未定構成筆":null,"代表点緯度":728.5805,"代表点経度":767.741929635}},{"type":"MultiPolygon","arcs":[[[-21,22,23,24,25]]],"properties":{"筆ID":"H000000007","version":"ver1.0","座標系":"任意座標系","測地系判別":null,"地図名":"千軒地区開拓図","地図番号":"開38","縮尺分母":"3000","市区町村コード":"01332","市区町村名":"松前郡福島町","大字コード":"000","丁目コード":"000","小字コード":"0005","予備コード":"00","大字名":null,"丁目名":null,"小字名":"字千軒","予備名":null,"地番":"46-1","精度区分":null,"座標値種別":null,"筆界未定構成筆":null,"代表点緯度":528.658,"代表点経度":673.409622257}},{"type":"MultiPolygon","arcs":[[[26,-25,27,28,29,30,31,32,33]]],"properties":{"筆ID":"H000000008","version":"ver1.0","座標系":"任意座標系","測地系判別":null,"地図名":"千軒地区開拓図","地図番号":"開38","縮尺分母":"3000","市区町村コード":"01332","市区町村名":"松前郡福島町","大字コード":"000","丁目コード":"000","小字コード":"0005","予備コード":"00","大字名":null,"丁目名":null,"小字名":"字千軒","予備名":null,"地番":"46-3","精度区分":null,"座標値種別":null,"筆界未定構成筆":null,"代表点緯度":478.6865,"代表点経度":619.779329916}},{"type":"MultiPolygon","arcs":[[[-28,-24,34]]],"properties":{"筆ID":"H000000009","version":"ver1.0","座標系":"任意座標系","測地系判別":null,"地図名":"千軒地区開拓図","地図番号":"開38","縮尺分母":"3000","市区町村コード":"01332","市区町村名":"松前郡福島町","大字コード":"000","丁目コード":"000","小字コード":"0005","予備コード":"00","大字名":null,"丁目名":null,"小字名":"字千軒","予備名":null,"地番":"46-4","精度区分":null,"座標値種別":null,"筆界未定構成筆":null,"代表点緯度":386.863,"代表点経度":680.241880375}},{"type":"MultiPolygon","arcs":[[[35,-32]]],"properties":{"筆ID":"H000000010","version":"ver1.0","座標系":"任意座標系","測地系判別":null,"地図名":"千軒地区開拓図","地図番号":"開38","縮尺分母":"3000","市区町村コード":"01332","市区町村名":"松前郡福島町","大字コード":"000","丁目コード":"000","小字コード":"0005","予備コード":"00","大字名":null,"丁目名":null,"小字名":"字千軒","予備名":null,"地番":"46-5","精度区分":null,"座標値種別":null,"筆界未定構成筆":null,"代表点緯度":485.1535,"代表点経度":602.624003973}},{"type":"MultiPolygon","arcs":[[[36,-7,-14,-19,37,38,39,40]]],"properties":{"筆ID":"H000000011","version":"ver1.0","座標系":"任意座標系","測地系判別":null,"地図名":"千軒地区開拓図","地図番号":"開38","縮尺分母":"3000","市区町村コード":"01332","市区町村名":"松前郡福島町","大字コード":"000","丁目コード":"000","小字コード":"0005","予備コード":"00","大字名":null,"丁目名":null,"小字名":"字千軒","予備名":null,"地番":"890-1","精度区分":null,"座標値種別":null,"筆界未定構成筆":null,"代表点緯度":975.292,"代表点経度":714.191206089}},{"type":"MultiPolygon","arcs":[[[-40,41]]],"properties":{"筆ID":"H000000012","version":"ver1.0","座標系":"任意座標系","測地系判別":null,"地図名":"千軒地区開拓図","地図番号":"開38","縮尺分母":"3000","市区町村コード":"01332","市区町村名":"松前郡福島町","大字コード":"000","丁目コード":"000","小字コード":"0005","予備コード":"00","大字名":null,"丁目名":null,"小字名":"字千軒","予備名":null,"地番":"890-2","精度区分":null,"座標値種別":null,"筆界未定構成筆":null,"代表点緯度":933.5235,"代表点経度":684.296542966}},{"type":"MultiPolygon","arcs":[[[42,43,44,45,-38,-18]]],"properties":{"筆ID":"H000000013","version":"ver1.0","座標系":"任意座標系","測地系判別":null,"地図名":"千軒地区開拓図","地図番号":"開38","縮尺分母":"3000","市区町村コード":"01332","市区町村名":"松前郡福島町","大字コード":"000","丁目コード":"000","小字コード":"0005","予備コード":"00","大字名":null,"丁目名":null,"小字名":"字千軒","予備名":null,"地番":"891-1","精度区分":null,"座標値種別":null,"筆界未定構成筆":null,"代表点緯度":776.4295,"代表点経度":666.404020406}},{"type":"MultiPolygon","arcs":[[[46,47]]],"properties":{"筆ID":"H000000014","version":"ver1.0","座標系":"任意座標系","測地系判別":null,"地図名":"千軒地区開拓図","地図番号":"開38","縮尺分母":"3000","市区町村コード":"01332","市区町村名":"松前郡福島町","大字コード":"000","丁目コード":"000","小字コード":"0005","予備コード":"00","大字名":null,"丁目名":null,"小字名":"字千軒","予備名":null,"地番":"891-2","精度区分":null,"座標値種別":null,"筆界未定構成筆":null,"代表点緯度":819.4995,"代表点経度":585.857258573}},{"type":"MultiPolygon","arcs":[[[48,-45,49,-47]]],"properties":{"筆ID":"H000000015","version":"ver1.0","座標系":"任意座標系","測地系判別":null,"地図名":"千軒地区開拓図","地図番号":"開38","縮尺分母":"3000","市区町村コード":"01332","市区町村名":"松前郡福島町","大字コード":"000","丁目コード":"000","小字コード":"0005","予備コード":"00","大字名":null,"丁目名":null,"小字名":"字千軒","予備名":null,"地番":"891-3","精度区分":null,"座標値種別":null,"筆界未定構成筆":null,"代表点緯度":808.556,"代表点経度":627.774181109}},{"type":"MultiPolygon","arcs":[[[50,51,52,53]]],"properties":{"筆ID":"H000000016","version":"ver1.0","座標系":"任意座標系","測地系判別":null,"地図名":"千軒地区開拓図","地図番号":"開38","縮尺分母":"3000","市区町村コード":"01332","市区町村名":"松前郡福島町","大字コード":"000","丁目コード":"000","小字コード":"0005","予備コード":"00","大字名":null,"丁目名":null,"小字名":"字千軒","予備名":null,"地番":"892-1","精度区分":null,"座標値種別":null,"筆界未定構成筆":null,"代表点緯度":519.5095,"代表点経度":552.521825923}},{"type":"MultiPolygon","arcs":[[[-43,-22,-26,-27,54,55]]],"properties":{"筆ID":"H000000017","version":"ver1.0","座標系":"任意座標系","測地系判別":null,"地図名":"千軒地区開拓図","地図番号":"開38","縮尺分母":"3000","市区町村コード":"01332","市区町村名":"松前郡福島町","大字コード":"000","丁目コード":"000","小字コード":"0005","予備コード":"00","大字名":null,"丁目名":null,"小字名":"字千軒","予備名":null,"地番":"892-2","精度区分":null,"座標値種別":null,"筆界未定構成筆":null,"代表点緯度":652.866,"代表点経度":638.853547365}},{"type":"MultiPolygon","arcs":[[[-55,-34,-51,56]]],"properties":{"筆ID":"H000000018","version":"ver1.0","座標系":"任意座標系","測地系判別":null,"地図名":"千軒地区開拓図","地図番号":"開38","縮尺分母":"3000","市区町村コード":"01332","市区町村名":"松前郡福島町","大字コード":"000","丁目コード":"000","小字コード":"0005","予備コード":"00","大字名":null,"丁目名":null,"小字名":"字千軒","予備名":null,"地番":"892-3","精度区分":null,"座標値種別":null,"筆界未定構成筆":null,"代表点緯度":611.044,"代表点経度":595.879395205}},{"type":"MultiPolygon","arcs":[[[-53,57,58]]],"properties":{"筆ID":"H000000019","version":"ver1.0","座標系":"任意座標系","測地系判別":null,"地図名":"千軒地区開拓図","地図番号":"開38","縮尺分母":"3000","市区町村コード":"01332","市区町村名":"松前郡福島町","大字コード":"000","丁目コード":"000","小字コード":"0005","予備コード":"00","大字名":null,"丁目名":null,"小字名":"字千軒","予備名":null,"地番":"893","精度区分":null,"座標値種別":null,"筆界未定構成筆":null,"代表点緯度":264.9055,"代表点経度":562.22422982}},{"type":"MultiPolygon","arcs":[[[59,60,61,62]]],"properties":{"筆ID":"H000000020","version":"ver1.0","座標系":"任意座標系","測地系判別":null,"地図名":"千軒地区開拓図","地図番号":"開38","縮尺分母":"3000","市区町村コード":"01332","市区町村名":"松前郡福島町","大字コード":"000","丁目コード":"000","小字コード":"0005","予備コード":"00","大字名":null,"丁目名":null,"小字名":"字千軒","予備名":null,"地番":"道-3","精度区分":null,"座標値種別":null,"筆界未定構成筆":null,"代表点緯度":212.2775,"代表点経度":643.163874493}},{"type":"MultiPolygon","arcs":[[[-62,63,64,65,-30]]],"properties":{"筆ID":"H000000021","version":"ver1.0","座標系":"任意座標系","測地系判別":null,"地図名":"千軒地区開拓図","地図番号":"開38","縮尺分母":"3000","市区町村コード":"01332","市区町村名":"松前郡福島町","大字コード":"000","丁目コード":"000","小字コード":"0005","予備コード":"00","大字名":null,"丁目名":null,"小字名":"字千軒","予備名":null,"地番":"48-2","精度区分":null,"座標値種別":null,"筆界未定構成筆":null,"代表点緯度":345.4465,"代表点経度":661.124455651}},{"type":"MultiPolygon","arcs":[[[-33,-36,-31,66,-52]]],"properties":{"筆ID":"H000000022","version":"ver1.0","座標系":"任意座標系","測地系判別":null,"地図名":"千軒地区開拓図","地図番号":"開38","縮尺分母":"3000","市区町村コード":"01332","市区町村名":"松前郡福島町","大字コード":"000","丁目コード":"000","小字コード":"0005","予備コード":"00","大字名":null,"丁目名":null,"小字名":"字千軒","予備名":null,"地番":"46-2","精度区分":null,"座標値種別":null,"筆界未定構成筆":null,"代表点緯度":493.072,"代表点経度":585.634075688}},{"type":"MultiPolygon","arcs":[[[-64,-61,67,-58,-67,-66,68]]],"properties":{"筆ID":"H000000023","version":"ver1.0","座標系":"任意座標系","測地系判別":null,"地図名":"千軒地区開拓図","地図番号":"開38","縮尺分母":"3000","市区町村コード":"01332","市区町村名":"松前郡福島町","大字コード":"000","丁目コード":"000","小字コード":"0005","予備コード":"00","大字名":null,"丁目名":null,"小字名":"字千軒","予備名":null,"地番":"48-1","精度区分":null,"座標値種別":null,"筆界未定構成筆":null,"代表点緯度":200.5905,"代表点経度":582.361208582}},{"type":"MultiPolygon","arcs":[[[-69,-65]]],"properties":{"筆ID":"H000000024","version":"ver1.0","座標系":"任意座標系","測地系判別":null,"地図名":"千軒地区開拓図","地図番号":"開38","縮尺分母":"3000","市区町村コード":"01332","市区町村名":"松前郡福島町","大字コード":"000","丁目コード":"000","小字コード":"0005","予備コード":"00","大字名":null,"丁目名":null,"小字名":"字千軒","予備名":null,"地番":"48-3","精度区分":null,"座標値種別":null,"筆界未定構成筆":null,"代表点緯度":314.3815,"代表点経度":658.933756584}},{"type":"MultiPolygon","arcs":[[[69,-10,70,71,72]]],"properties":{"筆ID":"H000000025","version":"ver1.0","座標系":"任意座標系","測地系判別":null,"地図名":"千軒地区開拓図","地図番号":"開38","縮尺分母":"3000","市区町村コード":"01332","市区町村名":"松前郡福島町","大字コード":"000","丁目コード":"000","小字コード":"0005","予備コード":"00","大字名":null,"丁目名":null,"小字名":"字千軒","予備名":null,"地番":"27-7","精度区分":null,"座標値種別":null,"筆界未定構成筆":null,"代表点緯度":1089.608,"代表点経度":863.598425552}},{"type":"MultiPolygon","arcs":[[[73,74,75]]],"properties":{"筆ID":"H000000026","version":"ver1.0","座標系":"任意座標系","測地系判別":null,"地図名":"千軒地区開拓図","地図番号":"開38","縮尺分母":"3000","市区町村コード":"01332","市区町村名":"松前郡福島町","大字コード":"000","丁目コード":"000","小字コード":"0005","予備コード":"00","大字名":null,"丁目名":null,"小字名":"字千軒","予備名":null,"地番":"27-5","精度区分":null,"座標値種別":null,"筆界未定構成筆":null,"代表点緯度":1263.618,"代表点経度":1045.967272943}},{"type":"MultiPolygon","arcs":[[[-74,76,-73,77]]],"properties":{"筆ID":"H000000027","version":"ver1.0","座標系":"任意座標系","測地系判別":null,"地図名":"千軒地区開拓図","地図番号":"開38","縮尺分母":"3000","市区町村コード":"01332","市区町村名":"松前郡福島町","大字コード":"000","丁目コード":"000","小字コード":"0005","予備コード":"00","大字名":null,"丁目名":null,"小字名":"字千軒","予備名":null,"地番":"27-6","精度区分":null,"座標値種別":null,"筆界未定構成筆":null,"代表点緯度":1155.4805,"代表点経度":905.924008543}},{"type":"MultiPolygon","arcs":[[[-75,-78,-72,78,-3,-4,-37,79]]],"properties":{"筆ID":"H000000028","version":"ver1.0","座標系":"任意座標系","測地系判別":null,"地図名":"千軒地区開拓図","地図番号":"開38","縮尺分母":"3000","市区町村コード":"01332","市区町村名":"松前郡福島町","大字コード":"000","丁目コード":"000","小字コード":"0005","予備コード":"00","大字名":null,"丁目名":null,"小字名":"字千軒","予備名":null,"地番":"889","精度区分":null,"座標値種別":null,"筆界未定構成筆":null,"代表点緯度":1149.7455,"代表点経度":840.562706235}},{"type":"MultiPolygon","arcs":[[[-15,80,81,82]]],"properties":{"筆ID":"H000000029","version":"ver1.0","座標系":"任意座標系","測地系判別":null,"地図名":"千軒地区開拓図","地図番号":"開38","縮尺分母":"3000","市区町村コード":"01332","市区町村名":"松前郡福島町","大字コード":"000","丁目コード":"000","小字コード":"0005","予備コード":"00","大字名":null,"丁目名":null,"小字名":"字千軒","予備名":null,"地番":"29-1","精度区分":null,"座標値種別":null,"筆界未定構成筆":null,"代表点緯度":749.6995,"代表点経度":837.775861282}},{"type":"MultiPolygon","arcs":[[[83,84,85,86,-82]]],"properties":{"筆ID":"H000000030","version":"ver1.0","座標系":"任意座標系","測地系判別":null,"地図名":"千軒地区開拓図","地図番号":"開38","縮尺分母":"3000","市区町村コード":"01332","市区町村名":"松前郡福島町","大字コード":"000","丁目コード":"000","小字コード":"0005","予備コード":"00","大字名":null,"丁目名":null,"小字名":"字千軒","予備名":null,"地番":"29-4","精度区分":null,"座標値種別":null,"筆界未定構成筆":null,"代表点緯度":667.5235,"代表点経度":893.92225511}},{"type":"MultiPolygon","arcs":[[[-85,87]]],"properties":{"筆ID":"H000000031","version":"ver1.0","座標系":"任意座標系","測地系判別":null,"地図名":"千軒地区開拓図","地図番号":"開38","縮尺分母":"3000","市区町村コード":"01332","市区町村名":"松前郡福島町","大字コード":"000","丁目コード":"000","小字コード":"0005","予備コード":"00","大字名":null,"丁目名":null,"小字名":"字千軒","予備名":null,"地番":"29-3","精度区分":null,"座標値種別":null,"筆界未定構成筆":null,"代表点緯度":464.194,"代表点経度":801.485487976}},{"type":"MultiPolygon","arcs":[[[-63,-29,-35,-23,-20,-12,-5,-1,-79,-71,-9,-16,-83,-87,88]]],"properties":{"筆ID":"H000000032","version":"ver1.0","座標系":"任意座標系","測地系判別":null,"地図名":"千軒地区開拓図","地図番号":"開38","縮尺分母":"3000","市区町村コード":"01332","市区町村名":"松前郡福島町","大字コード":"000","丁目コード":"000","小字コード":"0005","予備コード":"00","大字名":null,"丁目名":null,"小字名":"字千軒","予備名":null,"地番":"871","精度区分":null,"座標値種別":null,"筆界未定構成筆":null,"代表点緯度":757.6935,"代表点経度":816.797801351}}]}},"arcs":[[[533846,779326],[22420,-31442],[-7153,-13417]],[[549113,734467],[-64372,12182]],[[484741,746649],[49105,32677]],[[442526,718925],[42215,27724]],[[549113,734467],[-7977,-15391],[-60247,-36546],[-37825,-35064],[-3165,-7573]],[[439899,639893],[-35212,-3457]],[[404687,636436],[-8522,18120],[46361,64369]],[[564794,651663],[-116229,-11194]],[[448565,640469],[2889,6585],[33974,31360],[64648,39262],[8115,15145]],[[558191,732821],[57496,-11030]],[[615687,721791],[-50893,-70128]],[[439899,639893],[-1464,-4013],[24022,-17388],[13067,-17038]],[[475524,601454],[-60422,10945]],[[415102,612399],[-10415,24037]],[[561355,586309],[-74551,13005]],[[486804,599314],[-15130,20084],[-24485,17778],[1376,3293]],[[564794,651663],[-3439,-65354]],[[393589,478313],[4358,36304],[-28901,18545],[45602,78453]],[[414648,611615],[454,784]],[[475524,601454],[13618,-17614],[15544,-29879],[8527,-47492],[-7977,-40909],[-25997,-30290],[-17194,-10947],[-33011,-11276]],[[429034,413047],[-56504,56381]],[[372530,469428],[21059,8885]],[[429034,413047],[-49656,-82804],[-24346,-54736],[688,-6338]],[[355720,269169],[-39717,3829]],[[316003,272998],[-8629,24653],[-3019,15490],[-17547,41054],[-7153,27821],[1513,16133],[-8940,28808]],[[272228,426957],[100302,42471]],[[270454,426198],[1774,759]],[[316003,272998],[40121,-8003]],[[356124,264995],[2156,-22847]],[[358280,242148],[-88869,38982]],[[269411,281130],[-4962,10842]],[[264449,291972],[-4313,59892],[-6354,20179],[-18537,5654]],[[235245,377697],[-5092,15472]],[[230153,393169],[29767,28526],[10534,4503]],[[355720,269169],[404,-4174]],[[264449,291972],[-7638,30772],[-2499,28733],[-6831,21218],[-10857,-566],[-1379,5568]],[[414649,757455],[27877,-38530]],[[414648,611615],[-32613,3887]],[[382035,615502],[-2990,7867],[-15134,10099]],[[363911,633468],[1615,4057],[-2757,24297],[-3530,17632]],[[359239,679454],[8292,13723],[16968,19492],[30150,44786]],[[363911,633468],[-9864,6583],[-7878,11241],[4546,14052],[8524,14110]],[[393589,478313],[-34543,14596]],[[359046,492909],[3637,8522],[-10303,12239],[-25088,11632],[-3697,1695],[-20150,13599],[-21053,8075]],[[282392,548671],[15599,13774],[30301,20670]],[[328292,583115],[13332,-1359],[19695,3898],[15302,12058],[5414,17790]],[[298142,586833],[-21058,-14234],[-20757,-17951]],[[256327,554648],[-39844,8432],[-20301,8159],[-759,6800],[9242,12239],[12575,3173],[31361,-272],[49541,-6346]],[[298142,586833],[30150,-3718]],[[282392,548671],[-3187,1172],[-22878,4805]],[[227542,442275],[4999,-14868],[-10908,-7888],[8520,-26350]],[[230153,393169],[-7914,-7738],[-1212,-51404],[11795,-36875]],[[232822,297152],[-40883,-24502]],[[191939,272650],[-15454,65094],[-1514,51132],[12271,18314],[25301,25021],[14999,10064]],[[270454,426198],[-11248,4654],[-4091,13689],[7272,8794],[-3181,6528]],[[259206,459863],[53936,16183],[44682,16414],[1222,449]],[[227542,442275],[14090,9791],[17574,7797]],[[232822,297152],[-11728,-144066],[-201897,-79899]],[[19197,73187],[-19197,11617],[18550,11875],[27394,12908],[34297,13682],[50259,17683],[50905,16909],[14021,8907],[3667,26847],[-7154,79035]],[[367556,238276],[1509,-14327],[-33977,-54210],[-48418,-54737],[-75514,-60744],[-89682,-37369],[-47704,-16889],[-3667,4647]],[[70103,4647],[48748,16522],[87359,36528],[71829,57956],[48748,54729],[11644,18387]],[[338431,188769],[21791,34405],[-1942,18974]],[[358280,242148],[9276,-3872]],[[338431,188769],[-7739,12406]],[[330692,201175],[-10221,29027],[-16938,2798]],[[303533,233000],[-16644,12240],[-16646,26055],[-832,9835]],[[269411,281130],[-3771,1652],[-32818,14370]],[[70103,4647],[-50906,68540]],[[303533,233000],[16127,-3292],[11032,-28533]],[[609222,751670],[6465,-29879]],[[558191,732821],[7704,14487],[-24759,36545]],[[541136,783853],[11248,7469]],[[552384,791322],[56838,-39652]],[[680060,791343],[-57319,46700]],[[622741,838043],[69916,46427]],[[692657,884470],[78736,20873],[39063,26092],[28610,15063],[18019,17285],[28748,36216],[29572,-22882],[84594,-44201],[-82942,-21812],[-62172,-12099],[-12792,-37122],[-29573,-33583],[-40852,-25927],[-91608,-11030]],[[680060,791343],[-70838,-39673]],[[552384,791322],[70357,46721]],[[541136,783853],[-7290,-4527]],[[414649,757455],[118929,72438],[97871,47959],[108325,50045],[18029,-20943],[-65146,-22484]],[[561355,586309],[-2658,-43738]],[[558697,542571],[-3119,-51330],[-28472,-48398],[-61485,-23211]],[[465621,419632],[20220,12510],[27235,31114],[9078,45352],[-8803,47987],[-16507,28973],[-10040,13746]],[[558697,542571],[137495,-47235],[-55155,-57514],[-66881,-77817]],[[574156,360005],[-130133,32053]],[[444023,392058],[-1249,18884]],[[442774,410942],[22847,8690]],[[574156,360005],[-65023,-75656],[-57828,-2387],[-7282,110096]],[[442774,410942],[-8102,-3081],[-47454,-80170],[-23796,-54818],[4134,-34597]]],"bbox":[385.608,11.992,1225.518,1415.572],"transform":{"scale":[0.00083991083991084,0.0014035814035814036],"translate":[385.608,11.992]}}
