{"type":"Topology","objects":{"01665-4600-6.featurecollection":{"type":"GeometryCollection","geometries":[{"type":"Polygon","arcs":[[0,1]],"properties":{"市区町村名":"川上郡弟子屈町","大字名":null,"丁目名":null,"小字名":"字アトサヌプリ原野七十一線","地番":"58-2","精度区分":null,"座標系":"任意座標系"}},{"type":"Polygon","arcs":[[2,3,-2,4,5]],"properties":{"市区町村名":"川上郡弟子屈町","大字名":null,"丁目名":null,"小字名":"字アトサヌプリ原野七十一線","地番":"60-1","精度区分":null,"座標系":"任意座標系"}},{"type":"Polygon","arcs":[[6,7,8]],"properties":{"市区町村名":"川上郡弟子屈町","大字名":null,"丁目名":null,"小字名":"字アトサヌプリ原野七十一線","地番":"62","精度区分":null,"座標系":"任意座標系"}},{"type":"Polygon","arcs":[[9,10,-7,11]],"properties":{"市区町村名":"川上郡弟子屈町","大字名":null,"丁目名":null,"小字名":"字アトサヌプリ原野七十一線","地番":"64","精度区分":null,"座標系":"任意座標系"}},{"type":"Polygon","arcs":[[12,-10,13]],"properties":{"市区町村名":"川上郡弟子屈町","大字名":null,"丁目名":null,"小字名":"字アトサヌプリ原野七十一線","地番":"66","精度区分":null,"座標系":"任意座標系"}},{"type":"Polygon","arcs":[[14,-1,15,16,17]],"properties":{"市区町村名":"川上郡弟子屈町","大字名":null,"丁目名":null,"小字名":"字アトサヌプリ原野七十一線","地番":"水-7","精度区分":null,"座標系":"任意座標系"}},{"type":"Polygon","arcs":[[-5,-15,18]],"properties":{"市区町村名":"川上郡弟子屈町","大字名":null,"丁目名":null,"小字名":"字アトサヌプリ原野七十一線","地番":"水-8","精度区分":null,"座標系":"任意座標系"}},{"type":"Polygon","arcs":[[19,20,-16,-4]],"properties":{"市区町村名":"川上郡弟子屈町","大字名":null,"丁目名":null,"小字名":"字アトサヌプリ原野七十一線","地番":"水-9","精度区分":null,"座標系":"任意座標系"}},{"type":"Polygon","arcs":[[21,22,23,24,25,26]],"properties":{"市区町村名":"川上郡弟子屈町","大字名":null,"丁目名":null,"小字名":"字アトサヌプリ原野七十五線","地番":"65-1","精度区分":null,"座標系":"任意座標系"}},{"type":"Polygon","arcs":[[27,28,29]],"properties":{"市区町村名":"川上郡弟子屈町","大字名":null,"丁目名":null,"小字名":"字アトサヌプリ原野七十五線","地番":"65-2","精度区分":null,"座標系":"任意座標系"}},{"type":"Polygon","arcs":[[30,31,32]],"properties":{"市区町村名":"川上郡弟子屈町","大字名":null,"丁目名":null,"小字名":"字アトサヌプリ原野七十五線","地番":"66","精度区分":null,"座標系":"任意座標系"}},{"type":"Polygon","arcs":[[33,34,35]],"properties":{"市区町村名":"川上郡弟子屈町","大字名":null,"丁目名":null,"小字名":"字アトサヌプリ原野七十五線","地番":"67-1","精度区分":null,"座標系":"任意座標系"}},{"type":"Polygon","arcs":[[36,37,38,39]],"properties":{"市区町村名":"川上郡弟子屈町","大字名":null,"丁目名":null,"小字名":"字アトサヌプリ原野七十五線","地番":"67-2","精度区分":null,"座標系":"任意座標系"}},{"type":"Polygon","arcs":[[40,41]],"properties":{"市区町村名":"川上郡弟子屈町","大字名":null,"丁目名":null,"小字名":"字アトサヌプリ原野七十五線","地番":"68","精度区分":null,"座標系":"任意座標系"}},{"type":"Polygon","arcs":[[42,43]],"properties":{"市区町村名":"川上郡弟子屈町","大字名":null,"丁目名":null,"小字名":"字アトサヌプリ原野七十五線","地番":"83","精度区分":null,"座標系":"任意座標系"}},{"type":"Polygon","arcs":[[44,-36,45,-39,46,-26,47,-31,48,-41]],"properties":{"市区町村名":"川上郡弟子屈町","大字名":null,"丁目名":null,"小字名":"字アトサヌプリ原野七十五線","地番":"道-4","精度区分":null,"座標系":"任意座標系"}},{"type":"Polygon","arcs":[[-44,49]],"properties":{"市区町村名":"川上郡弟子屈町","大字名":null,"丁目名":null,"小字名":"字アトサヌプリ原野七十五線","地番":"道-8","精度区分":null,"座標系":"任意座標系"}},{"type":"Polygon","arcs":[[50,-30,51,-24]],"properties":{"市区町村名":"川上郡弟子屈町","大字名":null,"丁目名":null,"小字名":"字アトサヌプリ原野七十五線","地番":"水-1","精度区分":null,"座標系":"任意座標系"}},{"type":"Polygon","arcs":[[52,-40,-46,-35]],"properties":{"市区町村名":"川上郡弟子屈町","大字名":null,"丁目名":null,"小字名":"字アトサヌプリ原野七十五線","地番":"水-2","精度区分":null,"座標系":"任意座標系"}},{"type":"Polygon","arcs":[[53,54,55,56]],"properties":{"市区町村名":"川上郡弟子屈町","大字名":null,"丁目名":null,"小字名":"字アトサヌプリ原野七十三線","地番":"57-1","精度区分":null,"座標系":"任意座標系"}},{"type":"Polygon","arcs":[[57,-54,58]],"properties":{"市区町村名":"川上郡弟子屈町","大字名":null,"丁目名":null,"小字名":"字アトサヌプリ原野七十三線","地番":"57-2","精度区分":null,"座標系":"任意座標系"}},{"type":"Polygon","arcs":[[59,-55,-58,60]],"properties":{"市区町村名":"川上郡弟子屈町","大字名":null,"丁目名":null,"小字名":"字アトサヌプリ原野七十三線","地番":"59","精度区分":null,"座標系":"任意座標系"}},{"type":"Polygon","arcs":[[61,62,63]],"properties":{"市区町村名":"川上郡弟子屈町","大字名":null,"丁目名":null,"小字名":"字アトサヌプリ原野七十三線","地番":"65","精度区分":null,"座標系":"任意座標系"}},{"type":"Polygon","arcs":[[64,65,66]],"properties":{"市区町村名":"川上郡弟子屈町","大字名":null,"丁目名":null,"小字名":"字アトサヌプリ原野七十三線","地番":"筆界未定地-1","精度区分":null,"座標系":"任意座標系"}},{"type":"Polygon","arcs":[[-63,67,-65,68]],"properties":{"市区町村名":"川上郡弟子屈町","大字名":null,"丁目名":null,"小字名":"字アトサヌプリ原野七十三線","地番":"筆界未定地-2","精度区分":null,"座標系":"任意座標系"}},{"type":"Polygon","arcs":[[69,70]],"properties":{"市区町村名":"川上郡弟子屈町","大字名":null,"丁目名":null,"小字名":"字アトサヌプリ原野七十三線","地番":"筆界未定地-3","精度区分":null,"座標系":"任意座標系"}},{"type":"Polygon","arcs":[[71,-71,72,-64,-69,-67,73,-61]],"properties":{"市区町村名":"川上郡弟子屈町","大字名":null,"丁目名":null,"小字名":"字アトサヌプリ原野七十三線","地番":"道-5","精度区分":null,"座標系":"任意座標系"}},{"type":"Polygon","arcs":[[74,75,76,77]],"properties":{"市区町村名":"川上郡弟子屈町","大字名":null,"丁目名":null,"小字名":"字アトサヌプリ原野七十二線","地番":"56-1","精度区分":null,"座標系":"任意座標系"}},{"type":"Polygon","arcs":[[78,79,80]],"properties":{"市区町村名":"川上郡弟子屈町","大字名":null,"丁目名":null,"小字名":"字アトサヌプリ原野七十二線","地番":"56-2","精度区分":null,"座標系":"任意座標系"}},{"type":"Polygon","arcs":[[81,82,83]],"properties":{"市区町村名":"川上郡弟子屈町","大字名":null,"丁目名":null,"小字名":"字アトサヌプリ原野七十二線","地番":"57-2","精度区分":null,"座標系":"任意座標系"}},{"type":"Polygon","arcs":[[84,-76,85]],"properties":{"市区町村名":"川上郡弟子屈町","大字名":null,"丁目名":null,"小字名":"字アトサヌプリ原野七十二線","地番":"58-1","精度区分":null,"座標系":"任意座標系"}},{"type":"Polygon","arcs":[[86,87,88,-79,-56]],"properties":{"市区町村名":"川上郡弟子屈町","大字名":null,"丁目名":null,"小字名":"字アトサヌプリ原野七十二線","地番":"58-2","精度区分":null,"座標系":"任意座標系"}},{"type":"Polygon","arcs":[[-6,89,-82,90]],"properties":{"市区町村名":"川上郡弟子屈町","大字名":null,"丁目名":null,"小字名":"字アトサヌプリ原野七十二線","地番":"59-1","精度区分":null,"座標系":"任意座標系"}},{"type":"Polygon","arcs":[[91,92]],"properties":{"市区町村名":"川上郡弟子屈町","大字名":null,"丁目名":null,"小字名":"字アトサヌプリ原野七十二線","地番":"59-2","精度区分":null,"座標系":"任意座標系"}},{"type":"Polygon","arcs":[[93,-87,-60]],"properties":{"市区町村名":"川上郡弟子屈町","大字名":null,"丁目名":null,"小字名":"字アトサヌプリ原野七十二線","地番":"60","精度区分":null,"座標系":"任意座標系"}},{"type":"Polygon","arcs":[[94,-9,95]],"properties":{"市区町村名":"川上郡弟子屈町","大字名":null,"丁目名":null,"小字名":"字アトサヌプリ原野七十二線","地番":"61","精度区分":null,"座標系":"任意座標系"}},{"type":"Polygon","arcs":[[96,97,-66]],"properties":{"市区町村名":"川上郡弟子屈町","大字名":null,"丁目名":null,"小字名":"字アトサヌプリ原野七十二線","地番":"62","精度区分":null,"座標系":"任意座標系"}},{"type":"Polygon","arcs":[[98,-12,-95,99]],"properties":{"市区町村名":"川上郡弟子屈町","大字名":null,"丁目名":null,"小字名":"字アトサヌプリ原野七十二線","地番":"63","精度区分":null,"座標系":"任意座標系"}},{"type":"Polygon","arcs":[[-14,-99,100]],"properties":{"市区町村名":"川上郡弟子屈町","大字名":null,"丁目名":null,"小字名":"字アトサヌプリ原野七十二線","地番":"65","精度区分":null,"座標系":"任意座標系"}},{"type":"Polygon","arcs":[[101,102]],"properties":{"市区町村名":"川上郡弟子屈町","大字名":null,"丁目名":null,"小字名":"字アトサヌプリ原野七十二線","地番":"無地番-1","精度区分":null,"座標系":"任意座標系"}},{"type":"Polygon","arcs":[[-80,-89,103,-86,-75,104]],"properties":{"市区町村名":"川上郡弟子屈町","大字名":null,"丁目名":null,"小字名":"字アトサヌプリ原野七十二線","地番":"水-3","精度区分":null,"座標系":"任意座標系"}},{"type":"Polygon","arcs":[[-83,105,106,107]],"properties":{"市区町村名":"川上郡弟子屈町","大字名":null,"丁目名":null,"小字名":"字アトサヌプリ原野七十二線","地番":"水-4","精度区分":null,"座標系":"任意座標系"}},{"type":"Polygon","arcs":[[-19,108,-93,-106,-90]],"properties":{"市区町村名":"川上郡弟子屈町","大字名":null,"丁目名":null,"小字名":"字アトサヌプリ原野七十二線","地番":"水-5","精度区分":null,"座標系":"任意座標系"}},{"type":"Polygon","arcs":[[-109,-18,109]],"properties":{"市区町村名":"川上郡弟子屈町","大字名":null,"丁目名":null,"小字名":"字アトサヌプリ原野七十二線","地番":"水-6","精度区分":null,"座標系":"任意座標系"}},{"type":"Polygon","arcs":[[110,111,-103,112,113]],"properties":{"市区町村名":"川上郡弟子屈町","大字名":null,"丁目名":null,"小字名":"字アトサヌプリ原野七十二線","地番":"水-11","精度区分":null,"座標系":"任意座標系"}},{"type":"Polygon","arcs":[[-112,114]],"properties":{"市区町村名":"川上郡弟子屈町","大字名":null,"丁目名":null,"小字名":"字アトサヌプリ原野七十二線","地番":"水-12","精度区分":null,"座標系":"任意座標系"}},{"type":"Polygon","arcs":[[115,116,-28,117,-27]],"properties":{"市区町村名":"川上郡弟子屈町","大字名":null,"丁目名":null,"小字名":"字アトサヌプリ原野七十四線","地番":"66-1","精度区分":null,"座標系":"任意座標系"}},{"type":"Polygon","arcs":[[118,-23]],"properties":{"市区町村名":"川上郡弟子屈町","大字名":null,"丁目名":null,"小字名":"字アトサヌプリ原野七十四線","地番":"66-2","精度区分":null,"座標系":"任意座標系"}},{"type":"Polygon","arcs":[[119,120,-38]],"properties":{"市区町村名":"川上郡弟子屈町","大字名":null,"丁目名":null,"小字名":"字アトサヌプリ原野七十四線","地番":"68","精度区分":null,"座標系":"任意座標系"}},{"type":"Polygon","arcs":[[121,-116,-47,-121]],"properties":{"市区町村名":"川上郡弟子屈町","大字名":null,"丁目名":null,"小字名":"字アトサヌプリ原野七十四線","地番":"道-3","精度区分":null,"座標系":"任意座標系"}},{"type":"Polygon","arcs":[[-118,-51,-119,-22]],"properties":{"市区町村名":"川上郡弟子屈町","大字名":null,"丁目名":null,"小字名":"字アトサヌプリ原野七十四線","地番":"水-13","精度区分":null,"座標系":"任意座標系"}},{"type":"Polygon","arcs":[[122,-33,123,124]],"properties":{"市区町村名":"川上郡弟子屈町","大字名":null,"丁目名":null,"小字名":"字アトサヌプリ原野七十六線","地番":"65","精度区分":null,"座標系":"任意座標系"}},{"type":"Polygon","arcs":[[125,-125,126]],"properties":{"市区町村名":"川上郡弟子屈町","大字名":null,"丁目名":null,"小字名":"字アトサヌプリ原野七十六線","地番":"道-1","精度区分":null,"座標系":"任意座標系"}},{"type":"Polygon","arcs":[[-126,127,-49,-123]],"properties":{"市区町村名":"川上郡弟子屈町","大字名":null,"丁目名":null,"小字名":"字アトサヌプリ原野七十六線","地番":"道-2","精度区分":null,"座標系":"任意座標系"}},{"type":"Polygon","arcs":[[128,129,130,131]],"properties":{"市区町村名":"川上郡弟子屈町","大字名":null,"丁目名":null,"小字名":"字アトサヌプリ原野七十一線","地番":"67-72","精度区分":null,"座標系":"任意座標系"}},{"type":"Polygon","arcs":[[132,133,134,135]],"properties":{"市区町村名":"川上郡弟子屈町","大字名":null,"丁目名":null,"小字名":"字アトサヌプリ原野七十一線","地番":"67-85","精度区分":null,"座標系":"任意座標系"}},{"type":"Polygon","arcs":[[136,-136,137,138]],"properties":{"市区町村名":"川上郡弟子屈町","大字名":null,"丁目名":null,"小字名":"字アトサヌプリ原野七十一線","地番":"67-84","精度区分":null,"座標系":"任意座標系"}},{"type":"Polygon","arcs":[[139,140,141,142]],"properties":{"市区町村名":"川上郡弟子屈町","大字名":null,"丁目名":null,"小字名":"字アトサヌプリ原野七十一線","地番":"67-77","精度区分":null,"座標系":"任意座標系"}},{"type":"Polygon","arcs":[[143,144,145,-141]],"properties":{"市区町村名":"川上郡弟子屈町","大字名":null,"丁目名":null,"小字名":"字アトサヌプリ原野七十一線","地番":"67-78","精度区分":null,"座標系":"任意座標系"}},{"type":"Polygon","arcs":[[146,147,148,149]],"properties":{"市区町村名":"川上郡弟子屈町","大字名":null,"丁目名":null,"小字名":"字アトサヌプリ原野七十一線","地番":"67-71","精度区分":null,"座標系":"任意座標系"}},{"type":"Polygon","arcs":[[150,151,152,153]],"properties":{"市区町村名":"川上郡弟子屈町","大字名":null,"丁目名":null,"小字名":"字アトサヌプリ原野七十一線","地番":"67-88","精度区分":null,"座標系":"任意座標系"}},{"type":"Polygon","arcs":[[154,155,156,157]],"properties":{"市区町村名":"川上郡弟子屈町","大字名":null,"丁目名":null,"小字名":"字アトサヌプリ原野七十一線","地番":"67-90","精度区分":null,"座標系":"任意座標系"}},{"type":"Polygon","arcs":[[-135,158,159,160]],"properties":{"市区町村名":"川上郡弟子屈町","大字名":null,"丁目名":null,"小字名":"字アトサヌプリ原野七十一線","地番":"67-87","精度区分":null,"座標系":"任意座標系"}},{"type":"Polygon","arcs":[[-138,-161,161,162]],"properties":{"市区町村名":"川上郡弟子屈町","大字名":null,"丁目名":null,"小字名":"字アトサヌプリ原野七十一線","地番":"67-86","精度区分":null,"座標系":"任意座標系"}},{"type":"Polygon","arcs":[[-146,163,164,165]],"properties":{"市区町村名":"川上郡弟子屈町","大字名":null,"丁目名":null,"小字名":"字アトサヌプリ原野七十一線","地番":"67-80","精度区分":null,"座標系":"任意座標系"}},{"type":"Polygon","arcs":[[-142,-166,166,167]],"properties":{"市区町村名":"川上郡弟子屈町","大字名":null,"丁目名":null,"小字名":"字アトサヌプリ原野七十一線","地番":"67-79","精度区分":null,"座標系":"任意座標系"}},{"type":"Polygon","arcs":[[-149,168,169,-130]],"properties":{"市区町村名":"川上郡弟子屈町","大字名":null,"丁目名":null,"小字名":"字アトサヌプリ原野七十一線","地番":"67-73","精度区分":null,"座標系":"任意座標系"}},{"type":"Polygon","arcs":[[170,-150,-129,171]],"properties":{"市区町村名":"川上郡弟子屈町","大字名":null,"丁目名":null,"小字名":"字アトサヌプリ原野七十一線","地番":"67-70","精度区分":null,"座標系":"任意座標系"}},{"type":"Polygon","arcs":[[172,173,-171,174]],"properties":{"市区町村名":"川上郡弟子屈町","大字名":null,"丁目名":null,"小字名":"字アトサヌプリ原野七十一線","地番":"67-68","精度区分":null,"座標系":"任意座標系"}},{"type":"Polygon","arcs":[[175,176,-147,-174]],"properties":{"市区町村名":"川上郡弟子屈町","大字名":null,"丁目名":null,"小字名":"字アトサヌプリ原野七十一線","地番":"67-69","精度区分":null,"座標系":"任意座標系"}},{"type":"Polygon","arcs":[[177,178,-143,-168,179,-169,-148,-177]],"properties":{"市区町村名":"川上郡弟子屈町","大字名":null,"丁目名":null,"小字名":"字アトサヌプリ原野七十一線","地番":"67-74","精度区分":null,"座標系":"任意座標系"}},{"type":"Polygon","arcs":[[180,181,-140,-179]],"properties":{"市区町村名":"川上郡弟子屈町","大字名":null,"丁目名":null,"小字名":"字アトサヌプリ原野七十一線","地番":"67-75","精度区分":null,"座標系":"任意座標系"}},{"type":"Polygon","arcs":[[182,183,-144,-182]],"properties":{"市区町村名":"川上郡弟子屈町","大字名":null,"丁目名":null,"小字名":"字アトサヌプリ原野七十一線","地番":"67-76","精度区分":null,"座標系":"任意座標系"}},{"type":"Polygon","arcs":[[184,185,-139,-163,186,-164,-145,-184]],"properties":{"市区町村名":"川上郡弟子屈町","大字名":null,"丁目名":null,"小字名":"字アトサヌプリ原野七十一線","地番":"67-81","精度区分":null,"座標系":"任意座標系"}},{"type":"Polygon","arcs":[[187,188,-137,-186]],"properties":{"市区町村名":"川上郡弟子屈町","大字名":null,"丁目名":null,"小字名":"字アトサヌプリ原野七十一線","地番":"67-82","精度区分":null,"座標系":"任意座標系"}},{"type":"Polygon","arcs":[[189,190,-133,-189]],"properties":{"市区町村名":"川上郡弟子屈町","大字名":null,"丁目名":null,"小字名":"字アトサヌプリ原野七十一線","地番":"67-83","精度区分":null,"座標系":"任意座標系"}},{"type":"Polygon","arcs":[[191,-154,192,-158,193,-159,-134,-191]],"properties":{"市区町村名":"川上郡弟子屈町","大字名":null,"丁目名":null,"小字名":"字アトサヌプリ原野七十一線","地番":"67-4","精度区分":null,"座標系":"任意座標系"}},{"type":"Polygon","arcs":[[-153,194,-155,-193]],"properties":{"市区町村名":"川上郡弟子屈町","大字名":null,"丁目名":null,"小字名":"字アトサヌプリ原野七十一線","地番":"67-89","精度区分":null,"座標系":"任意座標系"}},{"type":"Polygon","arcs":[[195,196,197,198]],"properties":{"市区町村名":"川上郡弟子屈町","大字名":null,"丁目名":null,"小字名":"字アトサヌプリ原野七十一線","地番":"67-16","精度区分":null,"座標系":"任意座標系"}},{"type":"Polygon","arcs":[[199,200,-156,-195,-152]],"properties":{"市区町村名":"川上郡弟子屈町","大字名":null,"丁目名":null,"小字名":"字アトサヌプリ原野七十一線","地番":"67-3","精度区分":null,"座標系":"任意座標系"}},{"type":"Polygon","arcs":[[201,202,203,204]],"properties":{"市区町村名":"川上郡弟子屈町","大字名":null,"丁目名":null,"小字名":"字アトサヌプリ原野七十一線","地番":"67-10","精度区分":null,"座標系":"任意座標系"}},{"type":"Polygon","arcs":[[205,-202,206,207]],"properties":{"市区町村名":"川上郡弟子屈町","大字名":null,"丁目名":null,"小字名":"字アトサヌプリ原野七十一線","地番":"67-11","精度区分":null,"座標系":"任意座標系"}},{"type":"Polygon","arcs":[[208,209,210,211]],"properties":{"市区町村名":"川上郡弟子屈町","大字名":null,"丁目名":null,"小字名":"字アトサヌプリ原野七十一線","地番":"67-18","精度区分":null,"座標系":"任意座標系"}},{"type":"Polygon","arcs":[[212,213,214,215,216,217,218]],"properties":{"市区町村名":"川上郡弟子屈町","大字名":null,"丁目名":null,"小字名":"字アトサヌプリ原野七十一線","地番":"67-14","精度区分":null,"座標系":"任意座標系"}},{"type":"Polygon","arcs":[[219,220,221,222]],"properties":{"市区町村名":"川上郡弟子屈町","大字名":null,"丁目名":null,"小字名":"字アトサヌプリ原野七十一線","地番":"67-15","精度区分":null,"座標系":"任意座標系"}},{"type":"Polygon","arcs":[[223,-199,224,-221]],"properties":{"市区町村名":"川上郡弟子屈町","大字名":null,"丁目名":null,"小字名":"字アトサヌプリ原野七十一線","地番":"67-91","精度区分":null,"座標系":"任意座標系"}},{"type":"Polygon","arcs":[[-217,225,226,227]],"properties":{"市区町村名":"川上郡弟子屈町","大字名":null,"丁目名":null,"小字名":"字アトサヌプリ原野七十一線","地番":"67-66","精度区分":null,"座標系":"任意座標系"}},{"type":"Polygon","arcs":[[-218,-228,228,229]],"properties":{"市区町村名":"川上郡弟子屈町","大字名":null,"丁目名":null,"小字名":"字アトサヌプリ原野七十一線","地番":"67-7","精度区分":null,"座標系":"任意座標系"}},{"type":"Polygon","arcs":[[230,231,232,-197]],"properties":{"市区町村名":"川上郡弟子屈町","大字名":null,"丁目名":null,"小字名":"字アトサヌプリ原野七十一線","地番":"67-17","精度区分":null,"座標系":"任意座標系"}},{"type":"Polygon","arcs":[[233,-212,234,-232]],"properties":{"市区町村名":"川上郡弟子屈町","大字名":null,"丁目名":null,"小字名":"字アトサヌプリ原野七十一線","地番":"67-57","精度区分":null,"座標系":"任意座標系"}},{"type":"Polygon","arcs":[[-216,235,236,237,-226]],"properties":{"市区町村名":"川上郡弟子屈町","大字名":null,"丁目名":null,"小字名":"字アトサヌプリ原野七十一線","地番":"67-67","精度区分":null,"座標系":"任意座標系"}},{"type":"Polygon","arcs":[[238,239,240,241]],"properties":{"市区町村名":"川上郡弟子屈町","大字名":null,"丁目名":null,"小字名":"字アトサヌプリ原野七十一線","地番":"67-63","精度区分":null,"座標系":"任意座標系"}},{"type":"Polygon","arcs":[[-241,242,243,244]],"properties":{"市区町村名":"川上郡弟子屈町","大字名":null,"丁目名":null,"小字名":"字アトサヌプリ原野七十一線","地番":"67-64","精度区分":null,"座標系":"任意座標系"}},{"type":"Polygon","arcs":[[-244,245,246,247]],"properties":{"市区町村名":"川上郡弟子屈町","大字名":null,"丁目名":null,"小字名":"字アトサヌプリ原野七十一線","地番":"67-65","精度区分":null,"座標系":"任意座標系"}},{"type":"Polygon","arcs":[[248,249,250,-237]],"properties":{"市区町村名":"川上郡弟子屈町","大字名":null,"丁目名":null,"小字名":"字アトサヌプリ原野七十一線","地番":"67-61","精度区分":null,"座標系":"任意座標系"}},{"type":"Polygon","arcs":[[251,252,-249,-236]],"properties":{"市区町村名":"川上郡弟子屈町","大字名":null,"丁目名":null,"小字名":"字アトサヌプリ原野七十一線","地番":"67-60","精度区分":null,"座標系":"任意座標系"}},{"type":"Polygon","arcs":[[253,254,-252,-215]],"properties":{"市区町村名":"川上郡弟子屈町","大字名":null,"丁目名":null,"小字名":"字アトサヌプリ原野七十一線","地番":"67-59","精度区分":null,"座標系":"任意座標系"}},{"type":"Polygon","arcs":[[255,256,-254,-214]],"properties":{"市区町村名":"川上郡弟子屈町","大字名":null,"丁目名":null,"小字名":"字アトサヌプリ原野七十一線","地番":"67-58","精度区分":null,"座標系":"任意座標系"}},{"type":"Polygon","arcs":[[257,258,-239,259]],"properties":{"市区町村名":"川上郡弟子屈町","大字名":null,"丁目名":null,"小字名":"字アトサヌプリ原野七十一線","地番":"67-62","精度区分":null,"座標系":"任意座標系"}},{"type":"Polygon","arcs":[[260,-207,261,262]],"properties":{"市区町村名":"川上郡弟子屈町","大字名":null,"丁目名":null,"小字名":"字アトサヌプリ原野七十一線","地番":"67-97","精度区分":null,"座標系":"任意座標系"}},{"type":"Polygon","arcs":[[-262,-205,263,264]],"properties":{"市区町村名":"川上郡弟子屈町","大字名":null,"丁目名":null,"小字名":"字アトサヌプリ原野七十一線","地番":"67-98","精度区分":null,"座標系":"任意座標系"}},{"type":"Polygon","arcs":[[-264,-204,265,266]],"properties":{"市区町村名":"川上郡弟子屈町","大字名":null,"丁目名":null,"小字名":"字アトサヌプリ原野七十一線","地番":"67-99","精度区分":null,"座標系":"任意座標系"}},{"type":"Polygon","arcs":[[267,268,269,-246]],"properties":{"市区町村名":"川上郡弟子屈町","大字名":null,"丁目名":null,"小字名":"字アトサヌプリ原野七十一線","地番":"67-95","精度区分":null,"座標系":"任意座標系"}},{"type":"Polygon","arcs":[[270,271,-268,-243]],"properties":{"市区町村名":"川上郡弟子屈町","大字名":null,"丁目名":null,"小字名":"字アトサヌプリ原野七十一線","地番":"67-94","精度区分":null,"座標系":"任意座標系"}},{"type":"Polygon","arcs":[[272,273,-271,-240]],"properties":{"市区町村名":"川上郡弟子屈町","大字名":null,"丁目名":null,"小字名":"字アトサヌプリ原野七十一線","地番":"67-93","精度区分":null,"座標系":"任意座標系"}},{"type":"Polygon","arcs":[[274,275,-273,-259]],"properties":{"市区町村名":"川上郡弟子屈町","大字名":null,"丁目名":null,"小字名":"字アトサヌプリ原野七十一線","地番":"67-92","精度区分":null,"座標系":"任意座標系"}},{"type":"Polygon","arcs":[[276,-208,-261,277]],"properties":{"市区町村名":"川上郡弟子屈町","大字名":null,"丁目名":null,"小字名":"字アトサヌプリ原野七十一線","地番":"67-96","精度区分":null,"座標系":"任意座標系"}},{"type":"Polygon","arcs":[[278,279,280,281]],"properties":{"市区町村名":"川上郡弟子屈町","大字名":null,"丁目名":null,"小字名":"字アトサヌプリ原野七十一線","地番":"67-44","精度区分":null,"座標系":"任意座標系"}},{"type":"Polygon","arcs":[[282,283,284,285]],"properties":{"市区町村名":"川上郡弟子屈町","大字名":null,"丁目名":null,"小字名":"字アトサヌプリ原野七十一線","地番":"67-42","精度区分":null,"座標系":"任意座標系"}},{"type":"Polygon","arcs":[[-281,286,-283,287]],"properties":{"市区町村名":"川上郡弟子屈町","大字名":null,"丁目名":null,"小字名":"字アトサヌプリ原野七十一線","地番":"67-43","精度区分":null,"座標系":"任意座標系"}},{"type":"Polygon","arcs":[[288,289,290,291]],"properties":{"市区町村名":"川上郡弟子屈町","大字名":null,"丁目名":null,"小字名":"字アトサヌプリ原野七十一線","地番":"67-36","精度区分":null,"座標系":"任意座標系"}},{"type":"Polygon","arcs":[[-291,292,293,294]],"properties":{"市区町村名":"川上郡弟子屈町","大字名":null,"丁目名":null,"小字名":"字アトサヌプリ原野七十一線","地番":"67-37","精度区分":null,"座標系":"任意座標系"}},{"type":"Polygon","arcs":[[-294,295,296,297]],"properties":{"市区町村名":"川上郡弟子屈町","大字名":null,"丁目名":null,"小字名":"字アトサヌプリ原野七十一線","地番":"67-38","精度区分":null,"座標系":"任意座標系"}},{"type":"Polygon","arcs":[[-297,298,299,300]],"properties":{"市区町村名":"川上郡弟子屈町","大字名":null,"丁目名":null,"小字名":"字アトサヌプリ原野七十一線","地番":"67-39","精度区分":null,"座標系":"任意座標系"}},{"type":"Polygon","arcs":[[301,302,303]],"properties":{"市区町村名":"川上郡弟子屈町","大字名":null,"丁目名":null,"小字名":"字アトサヌプリ原野七十一線","地番":"67-22","精度区分":null,"座標系":"任意座標系"}},{"type":"Polygon","arcs":[[304,305,306,-210]],"properties":{"市区町村名":"川上郡弟子屈町","大字名":null,"丁目名":null,"小字名":"字アトサヌプリ原野七十一線","地番":"67-19","精度区分":null,"座標系":"任意座標系"}},{"type":"Polygon","arcs":[[307,308,309,-306]],"properties":{"市区町村名":"川上郡弟子屈町","大字名":null,"丁目名":null,"小字名":"字アトサヌプリ原野七十一線","地番":"67-20","精度区分":null,"座標系":"任意座標系"}},{"type":"Polygon","arcs":[[310,-304,311,-309]],"properties":{"市区町村名":"川上郡弟子屈町","大字名":null,"丁目名":null,"小字名":"字アトサヌプリ原野七十一線","地番":"67-21","精度区分":null,"座標系":"任意座標系"}},{"type":"Polygon","arcs":[[312,313,314,315]],"properties":{"市区町村名":"川上郡弟子屈町","大字名":null,"丁目名":null,"小字名":"字アトサヌプリ原野七十一線","地番":"67-28","精度区分":null,"座標系":"任意座標系"}},{"type":"Polygon","arcs":[[316,317,-313,318]],"properties":{"市区町村名":"川上郡弟子屈町","大字名":null,"丁目名":null,"小字名":"字アトサヌプリ原野七十一線","地番":"67-27","精度区分":null,"座標系":"任意座標系"}},{"type":"Polygon","arcs":[[319,320,-317,321]],"properties":{"市区町村名":"川上郡弟子屈町","大字名":null,"丁目名":null,"小字名":"字アトサヌプリ原野七十一線","地番":"67-26","精度区分":null,"座標系":"任意座標系"}},{"type":"Polygon","arcs":[[322,323,-320,324]],"properties":{"市区町村名":"川上郡弟子屈町","大字名":null,"丁目名":null,"小字名":"字アトサヌプリ原野七十一線","地番":"67-25","精度区分":null,"座標系":"任意座標系"}},{"type":"Polygon","arcs":[[325,326,-323,327]],"properties":{"市区町村名":"川上郡弟子屈町","大字名":null,"丁目名":null,"小字名":"字アトサヌプリ原野七十一線","地番":"67-24","精度区分":null,"座標系":"任意座標系"}},{"type":"Polygon","arcs":[[328,-326,329]],"properties":{"市区町村名":"川上郡弟子屈町","大字名":null,"丁目名":null,"小字名":"字アトサヌプリ原野七十一線","地番":"67-23","精度区分":null,"座標系":"任意座標系"}},{"type":"Polygon","arcs":[[330,331,332]],"properties":{"市区町村名":"川上郡弟子屈町","大字名":null,"丁目名":null,"小字名":"字アトサヌプリ原野七十一線","地番":"67-34","精度区分":null,"座標系":"任意座標系"}},{"type":"Polygon","arcs":[[-332,333,334,-290]],"properties":{"市区町村名":"川上郡弟子屈町","大字名":null,"丁目名":null,"小字名":"字アトサヌプリ原野七十一線","地番":"67-33","精度区分":null,"座標系":"任意座標系"}},{"type":"Polygon","arcs":[[-335,335,336,-293]],"properties":{"市区町村名":"川上郡弟子屈町","大字名":null,"丁目名":null,"小字名":"字アトサヌプリ原野七十一線","地番":"67-32","精度区分":null,"座標系":"任意座標系"}},{"type":"Polygon","arcs":[[-337,337,338,-296]],"properties":{"市区町村名":"川上郡弟子屈町","大字名":null,"丁目名":null,"小字名":"字アトサヌプリ原野七十一線","地番":"67-31","精度区分":null,"座標系":"任意座標系"}},{"type":"Polygon","arcs":[[-339,339,340,-299]],"properties":{"市区町村名":"川上郡弟子屈町","大字名":null,"丁目名":null,"小字名":"字アトサヌプリ原野七十一線","地番":"67-30","精度区分":null,"座標系":"任意座標系"}},{"type":"Polygon","arcs":[[-341,341,342,343]],"properties":{"市区町村名":"川上郡弟子屈町","大字名":null,"丁目名":null,"小字名":"字アトサヌプリ原野七十一線","地番":"67-29","精度区分":null,"座標系":"任意座標系"}},{"type":"Polygon","arcs":[[-300,-344,344,345]],"properties":{"市区町村名":"川上郡弟子屈町","大字名":null,"丁目名":null,"小字名":"字アトサヌプリ原野七十一線","地番":"67-40","精度区分":null,"座標系":"任意座標系"}},{"type":"Polygon","arcs":[[-285,346,347,348]],"properties":{"市区町村名":"川上郡弟子屈町","大字名":null,"丁目名":null,"小字名":"字アトサヌプリ原野七十一線","地番":"67-41","精度区分":null,"座標系":"任意座標系"}},{"type":"Polygon","arcs":[[349,-349,350,351]],"properties":{"市区町村名":"川上郡弟子屈町","大字名":null,"丁目名":null,"小字名":"字アトサヌプリ原野七十一線","地番":"67-52","精度区分":null,"座標系":"任意座標系"}},{"type":"Polygon","arcs":[[352,-286,-350,353]],"properties":{"市区町村名":"川上郡弟子屈町","大字名":null,"丁目名":null,"小字名":"字アトサヌプリ原野七十一線","地番":"67-51","精度区分":null,"座標系":"任意座標系"}},{"type":"Polygon","arcs":[[354,-288,-353,355]],"properties":{"市区町村名":"川上郡弟子屈町","大字名":null,"丁目名":null,"小字名":"字アトサヌプリ原野七十一線","地番":"67-50","精度区分":null,"座標系":"任意座標系"}},{"type":"Polygon","arcs":[[356,-282,-355,357]],"properties":{"市区町村名":"川上郡弟子屈町","大字名":null,"丁目名":null,"小字名":"字アトサヌプリ原野七十一線","地番":"67-49","精度区分":null,"座標系":"任意座標系"}},{"type":"Polygon","arcs":[[358,359,-357,360]],"properties":{"市区町村名":"川上郡弟子屈町","大字名":null,"丁目名":null,"小字名":"字アトサヌプリ原野七十一線","地番":"67-48","精度区分":null,"座標系":"任意座標系"}},{"type":"Polygon","arcs":[[361,362,-359,363]],"properties":{"市区町村名":"川上郡弟子屈町","大字名":null,"丁目名":null,"小字名":"字アトサヌプリ原野七十一線","地番":"67-47","精度区分":null,"座標系":"任意座標系"}},{"type":"Polygon","arcs":[[364,365,-279,-360]],"properties":{"市区町村名":"川上郡弟子屈町","大字名":null,"丁目名":null,"小字名":"字アトサヌプリ原野七十一線","地番":"67-45","精度区分":null,"座標系":"任意座標系"}},{"type":"Polygon","arcs":[[-333,-289,366]],"properties":{"市区町村名":"川上郡弟子屈町","大字名":null,"丁目名":null,"小字名":"字アトサヌプリ原野七十一線","地番":"67-35","精度区分":null,"座標系":"任意座標系"}},{"type":"Polygon","arcs":[[367,-365,-363]],"properties":{"市区町村名":"川上郡弟子屈町","大字名":null,"丁目名":null,"小字名":"字アトサヌプリ原野七十一線","地番":"67-46","精度区分":null,"座標系":"任意座標系"}},{"type":"Polygon","arcs":[[-330,-328,-325,-322,-319,-316,368,-342,-340,-338,-336,-334,-331,-367,-292,-295,-298,-301,-346,369,-347,-284,-287,-280,-366,-368,-362,370,-307,-310,-312,-303,371]],"properties":{"市区町村名":"川上郡弟子屈町","大字名":null,"丁目名":null,"小字名":"字アトサヌプリ原野七十一線","地番":"67-2","精度区分":null,"座標系":"任意座標系"}},{"type":"Polygon","arcs":[[-211,-371,-364,-361,-358,-356,-354,-352,372,-200,-151,-192,-190,-188,-185,-183,-181,-178,-176,-173,373,-229,-227,-238,-251,374,-247,-270,375,-266,-203,-206,-277,376,-275,-258,377,-256,-213,378,-222,-225,-198,-233,-235]],"properties":{"市区町村名":"川上郡弟子屈町","大字名":null,"丁目名":null,"小字名":"字アトサヌプリ原野七十一線","地番":"67-1","精度区分":null,"座標系":"任意座標系"}},{"type":"Polygon","arcs":[[379,380,381]],"properties":{"市区町村名":"川上郡弟子屈町","大字名":null,"丁目名":null,"小字名":"字アトサヌプリ原野七十一線","地番":"無地番-1","精度区分":null,"座標系":"任意座標系"}},{"type":"Polygon","arcs":[[382,-380,383]],"properties":{"市区町村名":"川上郡弟子屈町","大字名":null,"丁目名":null,"小字名":"字アトサヌプリ原野七十一線","地番":"水-1","精度区分":null,"座標系":"任意座標系"}},{"type":"Polygon","arcs":[[384,385,386,387]],"properties":{"市区町村名":"川上郡弟子屈町","大字名":null,"丁目名":null,"小字名":"字アトサヌプリ原野七十一線","地番":"59-4","精度区分":null,"座標系":"任意座標系"}},{"type":"Polygon","arcs":[[388,389,390,391]],"properties":{"市区町村名":"川上郡弟子屈町","大字名":null,"丁目名":null,"小字名":"字アトサヌプリ原野七十一線","地番":"59-3","精度区分":null,"座標系":"任意座標系"}},{"type":"Polygon","arcs":[[392,393,394]],"properties":{"市区町村名":"川上郡弟子屈町","大字名":null,"丁目名":null,"小字名":"字アトサヌプリ原野七十一線","地番":"59-1","精度区分":null,"座標系":"任意座標系"}},{"type":"Polygon","arcs":[[395,396,397,398]],"properties":{"市区町村名":"川上郡弟子屈町","大字名":null,"丁目名":null,"小字名":"字アトサヌプリ原野七十一線","地番":"59-2","精度区分":null,"座標系":"任意座標系"}},{"type":"Polygon","arcs":[[399,400,401,402,403,404,405,406,407]],"properties":{"市区町村名":"川上郡弟子屈町","大字名":null,"丁目名":null,"小字名":"字アトサヌプリ原野七十一線","地番":"55-4","精度区分":null,"座標系":"任意座標系"}},{"type":"Polygon","arcs":[[408,409,410,411,-404,412]],"properties":{"市区町村名":"川上郡弟子屈町","大字名":null,"丁目名":null,"小字名":"字アトサヌプリ原野七十一線","地番":"55-1","精度区分":null,"座標系":"任意座標系"}},{"type":"Polygon","arcs":[[413,414,415,416,417,418]],"properties":{"市区町村名":"川上郡弟子屈町","大字名":null,"丁目名":null,"小字名":"字アトサヌプリ原野七十一線","地番":"55-8","精度区分":null,"座標系":"任意座標系"}},{"type":"Polygon","arcs":[[419,420,421,-416]],"properties":{"市区町村名":"川上郡弟子屈町","大字名":null,"丁目名":null,"小字名":"字アトサヌプリ原野七十一線","地番":"55-5","精度区分":null,"座標系":"任意座標系"}},{"type":"Polygon","arcs":[[422,423,424,425,-402,426,-421]],"properties":{"市区町村名":"川上郡弟子屈町","大字名":null,"丁目名":null,"小字名":"字アトサヌプリ原野七十一線","地番":"道-1","精度区分":null,"座標系":"任意座標系"}},{"type":"Polygon","arcs":[[427,428,-424]],"properties":{"市区町村名":"川上郡弟子屈町","大字名":null,"丁目名":null,"小字名":"字アトサヌプリ原野七十一線","地番":"無地番-7","精度区分":null,"座標系":"任意座標系"}},{"type":"Polygon","arcs":[[429,430,431,432]],"properties":{"市区町村名":"川上郡弟子屈町","大字名":null,"丁目名":null,"小字名":"字アトサヌプリ原野七十二線","地番":"55-1","精度区分":null,"座標系":"任意座標系"}},{"type":"Polygon","arcs":[[433,-431,434]],"properties":{"市区町村名":"川上郡弟子屈町","大字名":null,"丁目名":null,"小字名":"字アトサヌプリ原野七十一線","地番":"56-2","精度区分":null,"座標系":"任意座標系"}},{"type":"Polygon","arcs":[[-432,435,436,437,438]],"properties":{"市区町村名":"川上郡弟子屈町","大字名":null,"丁目名":null,"小字名":"字アトサヌプリ原野七十二線","地番":"55-2","精度区分":null,"座標系":"任意座標系"}},{"type":"Polygon","arcs":[[-92,-110,439,-430,440,-107]],"properties":{"市区町村名":"川上郡弟子屈町","大字名":null,"丁目名":null,"小字名":"字アトサヌプリ原野七十二線","地番":"57-1","精度区分":null,"座標系":"任意座標系"}},{"type":"Polygon","arcs":[[441,-435,-440,-17,442]],"properties":{"市区町村名":"川上郡弟子屈町","大字名":null,"丁目名":null,"小字名":"字アトサヌプリ原野七十一線","地番":"58-3","精度区分":null,"座標系":"任意座標系"}},{"type":"Polygon","arcs":[[443,444,445,446,447,448,449,450,451,452,453,-442]],"properties":{"市区町村名":"川上郡弟子屈町","大字名":null,"丁目名":null,"小字名":"字アトサヌプリ原野七十一線","地番":"58-1","精度区分":null,"座標系":"任意座標系"}},{"type":"Polygon","arcs":[[-114,454,455,-101,-100,-96,456,-91,-84,-108,-441,-433,-439,457,458,-77,-85,-104,-88,-94,-74,-98,459]],"properties":{"市区町村名":"川上郡弟子屈町","大字名":null,"丁目名":null,"小字名":"字アトサヌプリ原野七十二線","地番":"道-7","精度区分":null,"座標系":"任意座標系"}},{"type":"Polygon","arcs":[[460,-444,-443,-21]],"properties":{"市区町村名":"川上郡弟子屈町","大字名":null,"丁目名":null,"小字名":"字アトサヌプリ原野七十一線","地番":"60-2","精度区分":null,"座標系":"任意座標系"}},{"type":"Polygon","arcs":[[461,-388,462,463,464,465,466,467,-396,468,-394,469,470,471,472,473,-391]],"properties":{"市区町村名":"川上郡弟子屈町","大字名":null,"丁目名":null,"小字名":"字アトサヌプリ原野七十一線","地番":"水-10","精度区分":null,"座標系":"任意座標系"}},{"type":"Polygon","arcs":[[474,475,476,-389,477,478,479,480,481,-395,-469,-399,482,483,484,-425,-429,485,486,-458,487,488,489,490,491,492,-445,-461,-20,-3,-457,-8,-11,-13,-456,493]],"properties":{"市区町村名":"川上郡弟子屈町","大字名":null,"丁目名":null,"小字名":"字アトサヌプリ原野七十一線","地番":"道-6","精度区分":null,"座標系":"任意座標系"}},{"type":"Polygon","arcs":[[494,495,496,497,498,499,500,501,502,503,504,505,506,507,508,-486,509]],"properties":{"市区町村名":"川上郡弟子屈町","大字名":null,"丁目名":null,"小字名":"字アトサヌプリ原野七十線","地番":"道-1","精度区分":null,"座標系":"任意座標系"}},{"type":"Polygon","arcs":[[510,-498]],"properties":{"市区町村名":"川上郡弟子屈町","大字名":null,"丁目名":null,"小字名":"字アトサヌプリ原野七十線","地番":"57-2","精度区分":null,"座標系":"任意座標系"}},{"type":"Polygon","arcs":[[-499,-511,-497,511]],"properties":{"市区町村名":"川上郡弟子屈町","大字名":null,"丁目名":null,"小字名":"字アトサヌプリ原野七十線","地番":"無地番-1","精度区分":null,"座標系":"任意座標系"}},{"type":"Polygon","arcs":[[-382,512,513,-477,514,-384]],"properties":{"市区町村名":"川上郡弟子屈町","大字名":null,"丁目名":null,"小字名":"字アトサヌプリ原野七十線","地番":"道-3","精度区分":null,"座標系":"任意座標系"}},{"type":"Polygon","arcs":[[515,-495,516,-513]],"properties":{"市区町村名":"川上郡弟子屈町","大字名":null,"丁目名":null,"小字名":"字アトサヌプリ原野七十線","地番":"道-2","精度区分":null,"座標系":"任意座標系"}},{"type":"Polygon","arcs":[[517,518,519]],"properties":{"市区町村名":"川上郡弟子屈町","大字名":null,"丁目名":null,"小字名":"字アトサヌプリ原野七十線","地番":"57-9","精度区分":null,"座標系":"任意座標系"}},{"type":"Polygon","arcs":[[520,521,522,523]],"properties":{"市区町村名":"川上郡弟子屈町","大字名":null,"丁目名":null,"小字名":"字アトサヌプリ原野七十線","地番":"57-11","精度区分":null,"座標系":"任意座標系"}},{"type":"Polygon","arcs":[[524,-524,525,-506,526]],"properties":{"市区町村名":"川上郡弟子屈町","大字名":null,"丁目名":null,"小字名":"字アトサヌプリ原野七十線","地番":"57-12","精度区分":null,"座標系":"任意座標系"}},{"type":"Polygon","arcs":[[527,528,529,-522]],"properties":{"市区町村名":"川上郡弟子屈町","大字名":null,"丁目名":null,"小字名":"字アトサヌプリ原野七十線","地番":"57-13","精度区分":null,"座標系":"任意座標系"}},{"type":"Polygon","arcs":[[-508,530]],"properties":{"市区町村名":"川上郡弟子屈町","大字名":null,"丁目名":null,"小字名":"字アトサヌプリ原野七十線","地番":"57-15","精度区分":null,"座標系":"任意座標系"}},{"type":"Polygon","arcs":[[531,-528,532,533]],"properties":{"市区町村名":"川上郡弟子屈町","大字名":null,"丁目名":null,"小字名":"字アトサヌプリ原野七十線","地番":"57-16","精度区分":null,"座標系":"任意座標系"}},{"type":"Polygon","arcs":[[-503,534,-534,535]],"properties":{"市区町村名":"川上郡弟子屈町","大字名":null,"丁目名":null,"小字名":"字アトサヌプリ原野七十線","地番":"57-1","精度区分":null,"座標系":"任意座標系"}},{"type":"Polygon","arcs":[[536,537,-525]],"properties":{"市区町村名":"川上郡弟子屈町","大字名":null,"丁目名":null,"小字名":"字アトサヌプリ原野七十線","地番":"57-17","精度区分":null,"座標系":"任意座標系"}},{"type":"Polygon","arcs":[[-505,538,-537,-527]],"properties":{"市区町村名":"川上郡弟子屈町","大字名":null,"丁目名":null,"小字名":"字アトサヌプリ原野七十線","地番":"57-5","精度区分":null,"座標系":"任意座標系"}},{"type":"Polygon","arcs":[[-533,-521,-538,539]],"properties":{"市区町村名":"川上郡弟子屈町","大字名":null,"丁目名":null,"小字名":"字アトサヌプリ原野七十線","地番":"57-18","精度区分":null,"座標系":"任意座標系"}},{"type":"Polygon","arcs":[[-536,-540,-539,-504]],"properties":{"市区町村名":"川上郡弟子屈町","大字名":null,"丁目名":null,"小字名":"字アトサヌプリ原野七十線","地番":"57-6","精度区分":null,"座標系":"任意座標系"}},{"type":"Polygon","arcs":[[-502,540,541,-535]],"properties":{"市区町村名":"川上郡弟子屈町","大字名":null,"丁目名":null,"小字名":"字アトサヌプリ原野七十線","地番":"57-3","精度区分":null,"座標系":"任意座標系"}},{"type":"Polygon","arcs":[[-542,542,-520,543,-529,-532]],"properties":{"市区町村名":"川上郡弟子屈町","大字名":null,"丁目名":null,"小字名":"字アトサヌプリ原野七十線","地番":"57-19","精度区分":null,"座標系":"任意座標系"}},{"type":"Polygon","arcs":[[544,545,-518,-543]],"properties":{"市区町村名":"川上郡弟子屈町","大字名":null,"丁目名":null,"小字名":"字アトサヌプリ原野七十線","地番":"57-20","精度区分":null,"座標系":"任意座標系"}},{"type":"Polygon","arcs":[[-501,546,-545,-541]],"properties":{"市区町村名":"川上郡弟子屈町","大字名":null,"丁目名":null,"小字名":"字アトサヌプリ原野七十線","地番":"57-4","精度区分":null,"座標系":"任意座標系"}},{"type":"Polygon","arcs":[[547,-422,-427,-401,548]],"properties":{"市区町村名":"川上郡弟子屈町","大字名":null,"丁目名":null,"小字名":"字アトサヌプリ原野七十一線","地番":"55-6","精度区分":null,"座標系":"任意座標系"}},{"type":"Polygon","arcs":[[549,-403,-426,-485]],"properties":{"市区町村名":"川上郡弟子屈町","大字名":null,"丁目名":null,"小字名":"字アトサヌプリ原野七十一線","地番":"55-7","精度区分":null,"座標系":"任意座標系"}},{"type":"Polygon","arcs":[[550,-413,-550,-484]],"properties":{"市区町村名":"川上郡弟子屈町","大字名":null,"丁目名":null,"小字名":"字アトサヌプリ原野七十一線","地番":"55-3","精度区分":null,"座標系":"任意座標系"}},{"type":"Polygon","arcs":[[-417,-548,551,552]],"properties":{"市区町村名":"川上郡弟子屈町","大字名":null,"丁目名":null,"小字名":"字アトサヌプリ原野七十一線","地番":"55-9","精度区分":null,"座標系":"任意座標系"}},{"type":"Polygon","arcs":[[553,-553,554,555,556]],"properties":{"市区町村名":"川上郡弟子屈町","大字名":null,"丁目名":null,"小字名":"字アトサヌプリ原野七十一線","地番":"55-12","精度区分":null,"座標系":"任意座標系"}},{"type":"Polygon","arcs":[[-555,-552,-549,557]],"properties":{"市区町村名":"川上郡弟子屈町","大字名":null,"丁目名":null,"小字名":"字アトサヌプリ原野七十一線","地番":"55-11","精度区分":null,"座標系":"任意座標系"}},{"type":"Polygon","arcs":[[-557,558]],"properties":{"市区町村名":"川上郡弟子屈町","大字名":null,"丁目名":null,"小字名":"字アトサヌプリ原野七十一線","地番":"55-2","精度区分":null,"座標系":"任意座標系"}},{"type":"Polygon","arcs":[[559,560,561]],"properties":{"市区町村名":"川上郡弟子屈町","大字名":null,"丁目名":null,"小字名":"字アトサヌプリ原野七十一線","地番":"55-20","精度区分":null,"座標系":"任意座標系"}},{"type":"Polygon","arcs":[[562,-562,563]],"properties":{"市区町村名":"川上郡弟子屈町","大字名":null,"丁目名":null,"小字名":"字アトサヌプリ原野七十一線","地番":"55-19","精度区分":null,"座標系":"任意座標系"}},{"type":"Polygon","arcs":[[564,565,566,-410]],"properties":{"市区町村名":"川上郡弟子屈町","大字名":null,"丁目名":null,"小字名":"字アトサヌプリ原野七十一線","地番":"55-13","精度区分":null,"座標系":"任意座標系"}},{"type":"Polygon","arcs":[[-567,567,568,-411]],"properties":{"市区町村名":"川上郡弟子屈町","大字名":null,"丁目名":null,"小字名":"字アトサヌプリ原野七十一線","地番":"55-14","精度区分":null,"座標系":"任意座標系"}},{"type":"Polygon","arcs":[[569,570,571]],"properties":{"市区町村名":"川上郡弟子屈町","大字名":null,"丁目名":null,"小字名":"字アトサヌプリ原野七十一線","地番":"55-17","精度区分":null,"座標系":"任意座標系"}},{"type":"Polygon","arcs":[[572,573,-570]],"properties":{"市区町村名":"川上郡弟子屈町","大字名":null,"丁目名":null,"小字名":"字アトサヌプリ原野七十一線","地番":"55-18","精度区分":null,"座標系":"任意座標系"}},{"type":"Polygon","arcs":[[574,-556,575]],"properties":{"市区町村名":"川上郡弟子屈町","大字名":null,"丁目名":null,"小字名":"字アトサヌプリ原野七十一線","地番":"55-24","精度区分":null,"座標系":"任意座標系"}},{"type":"Polygon","arcs":[[576,-419,577,578]],"properties":{"市区町村名":"川上郡弟子屈町","大字名":null,"丁目名":null,"小字名":"字アトサヌプリ原野七十一線","地番":"55-21","精度区分":null,"座標系":"任意座標系"}},{"type":"Polygon","arcs":[[-578,-418,-554,579]],"properties":{"市区町村名":"川上郡弟子屈町","大字名":null,"丁目名":null,"小字名":"字アトサヌプリ原野七十一線","地番":"55-22","精度区分":null,"座標系":"任意座標系"}},{"type":"Polygon","arcs":[[-576,-558,-400,580]],"properties":{"市区町村名":"川上郡弟子屈町","大字名":null,"丁目名":null,"小字名":"字アトサヌプリ原野七十一線","地番":"55-23","精度区分":null,"座標系":"任意座標系"}},{"type":"Polygon","arcs":[[-574,581,-407,582,-571]],"properties":{"市区町村名":"川上郡弟子屈町","大字名":null,"丁目名":null,"小字名":"字アトサヌプリ原野七十一線","地番":"55-16","精度区分":null,"座標系":"任意座標系"}},{"type":"Polygon","arcs":[[583,-579,-580,-559,-575,-581,-408,-582,-573,-572,-583,-406,584,-568,-566,585,-564,-561]],"properties":{"市区町村名":"川上郡弟子屈町","大字名":null,"丁目名":null,"小字名":"字アトサヌプリ原野七十一線","地番":"55-10","精度区分":null,"座標系":"任意座標系"}},{"type":"Polygon","arcs":[[-569,-585,-405,-412]],"properties":{"市区町村名":"川上郡弟子屈町","大字名":null,"丁目名":null,"小字名":"字アトサヌプリ原野七十一線","地番":"55-15","精度区分":null,"座標系":"任意座標系"}},{"type":"Polygon","arcs":[[-446,-493,586,587]],"properties":{"市区町村名":"川上郡弟子屈町","大字名":null,"丁目名":null,"小字名":"字アトサヌプリ原野七十一線","地番":"56-6","精度区分":null,"座標系":"任意座標系"}},{"type":"Polygon","arcs":[[588,589,-490,590]],"properties":{"市区町村名":"川上郡弟子屈町","大字名":null,"丁目名":null,"小字名":"字アトサヌプリ原野七十一線","地番":"56-4","精度区分":null,"座標系":"任意座標系"}},{"type":"Polygon","arcs":[[591,-491,-590]],"properties":{"市区町村名":"川上郡弟子屈町","大字名":null,"丁目名":null,"小字名":"字アトサヌプリ原野七十一線","地番":"56-3","精度区分":null,"座標系":"任意座標系"}},{"type":"Polygon","arcs":[[-453,592,593,594]],"properties":{"市区町村名":"川上郡弟子屈町","大字名":null,"丁目名":null,"小字名":"字アトサヌプリ原野七十一線","地番":"56-10","精度区分":null,"座標系":"任意座標系"}},{"type":"Polygon","arcs":[[-454,-595,595,596,-436,-434]],"properties":{"市区町村名":"川上郡弟子屈町","大字名":null,"丁目名":null,"小字名":"字アトサヌプリ原野七十一線","地番":"56-1","精度区分":null,"座標系":"任意座標系"}},{"type":"Polygon","arcs":[[-448,597,598,599]],"properties":{"市区町村名":"川上郡弟子屈町","大字名":null,"丁目名":null,"小字名":"字アトサヌプリ原野七十一線","地番":"56-12","精度区分":null,"座標系":"任意座標系"}},{"type":"Polygon","arcs":[[-447,-588,600,-598]],"properties":{"市区町村名":"川上郡弟子屈町","大字名":null,"丁目名":null,"小字名":"字アトサヌプリ原野七十一線","地番":"56-7","精度区分":null,"座標系":"任意座標系"}},{"type":"Polygon","arcs":[[-450,601,602,603]],"properties":{"市区町村名":"川上郡弟子屈町","大字名":null,"丁目名":null,"小字名":"字アトサヌプリ原野七十一線","地番":"56-13","精度区分":null,"座標系":"任意座標系"}},{"type":"Polygon","arcs":[[-449,-600,604,-602]],"properties":{"市区町村名":"川上郡弟子屈町","大字名":null,"丁目名":null,"小字名":"字アトサヌプリ原野七十一線","地番":"56-8","精度区分":null,"座標系":"任意座標系"}},{"type":"Polygon","arcs":[[-452,605,606,-593]],"properties":{"市区町村名":"川上郡弟子屈町","大字名":null,"丁目名":null,"小字名":"字アトサヌプリ原野七十一線","地番":"56-14","精度区分":null,"座標系":"任意座標系"}},{"type":"Polygon","arcs":[[-451,-604,607,-606]],"properties":{"市区町村名":"川上郡弟子屈町","大字名":null,"丁目名":null,"小字名":"字アトサヌプリ原野七十一線","地番":"56-9","精度区分":null,"座標系":"任意座標系"}},{"type":"Polygon","arcs":[[608,609,-488,-438]],"properties":{"市区町村名":"川上郡弟子屈町","大字名":null,"丁目名":null,"小字名":"字アトサヌプリ原野七十一線","地番":"56-15","精度区分":null,"座標系":"任意座標系"}},{"type":"Polygon","arcs":[[610,-591,-489,-610]],"properties":{"市区町村名":"川上郡弟子屈町","大字名":null,"丁目名":null,"小字名":"字アトサヌプリ原野七十一線","地番":"56-5","精度区分":null,"座標系":"任意座標系"}},{"type":"Polygon","arcs":[[-597,611,-609,-437]],"properties":{"市区町村名":"川上郡弟子屈町","大字名":null,"丁目名":null,"小字名":"字アトサヌプリ原野七十一線","地番":"56-16","精度区分":null,"座標系":"任意座標系"}},{"type":"Polygon","arcs":[[-587,-492,-592,-589,-611,-612,-596,-594,-607,-608,-603,-605,-599,-601]],"properties":{"市区町村名":"川上郡弟子屈町","大字名":null,"丁目名":null,"小字名":"字アトサヌプリ原野七十一線","地番":"56-11","精度区分":null,"座標系":"任意座標系"}},{"type":"Polygon","arcs":[[-386,612,-414,613,614,615,616]],"properties":{"市区町村名":"川上郡弟子屈町","大字名":null,"丁目名":null,"小字名":"字アトサヌプリ原野七十一線","地番":"57-2","精度区分":null,"座標系":"任意座標系"}},{"type":"Polygon","arcs":[[-398,617,618,619,620,621,-409,-551,-483]],"properties":{"市区町村名":"川上郡弟子屈町","大字名":null,"丁目名":null,"小字名":"字アトサヌプリ原野七十一線","地番":"57-1","精度区分":null,"座標系":"任意座標系"}},{"type":"Polygon","arcs":[[622,623,624]],"properties":{"市区町村名":"川上郡弟子屈町","大字名":null,"丁目名":null,"小字名":"字アトサヌプリ原野七十一線","地番":"57-13","精度区分":null,"座標系":"任意座標系"}},{"type":"Polygon","arcs":[[625,626,627,-619]],"properties":{"市区町村名":"川上郡弟子屈町","大字名":null,"丁目名":null,"小字名":"字アトサヌプリ原野七十一線","地番":"57-20","精度区分":null,"座標系":"任意座標系"}},{"type":"Polygon","arcs":[[-628,628,629,-620]],"properties":{"市区町村名":"川上郡弟子屈町","大字名":null,"丁目名":null,"小字名":"字アトサヌプリ原野七十一線","地番":"57-19","精度区分":null,"座標系":"任意座標系"}},{"type":"Polygon","arcs":[[-630,630,631,-621]],"properties":{"市区町村名":"川上郡弟子屈町","大字名":null,"丁目名":null,"小字名":"字アトサヌプリ原野七十一線","地番":"57-18","精度区分":null,"座標系":"任意座標系"}},{"type":"Polygon","arcs":[[-632,632,-565,-622]],"properties":{"市区町村名":"川上郡弟子屈町","大字名":null,"丁目名":null,"小字名":"字アトサヌプリ原野七十一線","地番":"57-17","精度区分":null,"座標系":"任意座標系"}},{"type":"Polygon","arcs":[[633,634,635]],"properties":{"市区町村名":"川上郡弟子屈町","大字名":null,"丁目名":null,"小字名":"字アトサヌプリ原野七十一線","地番":"57-14","精度区分":null,"座標系":"任意座標系"}},{"type":"Polygon","arcs":[[636,637,-634]],"properties":{"市区町村名":"川上郡弟子屈町","大字名":null,"丁目名":null,"小字名":"字アトサヌプリ原野七十一線","地番":"57-10","精度区分":null,"座標系":"任意座標系"}},{"type":"Polygon","arcs":[[-635,638,639,640]],"properties":{"市区町村名":"川上郡弟子屈町","大字名":null,"丁目名":null,"小字名":"字アトサヌプリ原野七十一線","地番":"57-15","精度区分":null,"座標系":"任意座標系"}},{"type":"Polygon","arcs":[[-638,641,642,-639]],"properties":{"市区町村名":"川上郡弟子屈町","大字名":null,"丁目名":null,"小字名":"字アトサヌプリ原野七十一線","地番":"57-9","精度区分":null,"座標系":"任意座標系"}},{"type":"Polygon","arcs":[[-640,643,-563,644]],"properties":{"市区町村名":"川上郡弟子屈町","大字名":null,"丁目名":null,"小字名":"字アトサヌプリ原野七十一線","地番":"57-16","精度区分":null,"座標系":"任意座標系"}},{"type":"Polygon","arcs":[[-643,645,-560,-644]],"properties":{"市区町村名":"川上郡弟子屈町","大字名":null,"丁目名":null,"小字名":"字アトサヌプリ原野七十一線","地番":"57-8","精度区分":null,"座標系":"任意座標系"}},{"type":"Polygon","arcs":[[646,-616,647,648]],"properties":{"市区町村名":"川上郡弟子屈町","大字名":null,"丁目名":null,"小字名":"字アトサヌプリ原野七十一線","地番":"57-5","精度区分":null,"座標系":"任意座標系"}},{"type":"Polygon","arcs":[[-648,-615,649,650]],"properties":{"市区町村名":"川上郡弟子屈町","大字名":null,"丁目名":null,"小字名":"字アトサヌプリ原野七十一線","地番":"57-6","精度区分":null,"座標系":"任意座標系"}},{"type":"Polygon","arcs":[[-650,-614,-577,651]],"properties":{"市区町村名":"川上郡弟子屈町","大字名":null,"丁目名":null,"小字名":"字アトサヌプリ原野七十一線","地番":"57-7","精度区分":null,"座標系":"任意座標系"}},{"type":"Polygon","arcs":[[652,653,-626,-618]],"properties":{"市区町村名":"川上郡弟子屈町","大字名":null,"丁目名":null,"小字名":"字アトサヌプリ原野七十一線","地番":"57-21","精度区分":null,"座標系":"任意座標系"}},{"type":"Polygon","arcs":[[654,655,-623,656]],"properties":{"市区町村名":"川上郡弟子屈町","大字名":null,"丁目名":null,"小字名":"字アトサヌプリ原野七十一線","地番":"57-12","精度区分":null,"座標系":"任意座標系"}},{"type":"Polygon","arcs":[[657,658,-624,-656]],"properties":{"市区町村名":"川上郡弟子屈町","大字名":null,"丁目名":null,"小字名":"字アトサヌプリ原野七十一線","地番":"57-11","精度区分":null,"座標系":"任意座標系"}},{"type":"Polygon","arcs":[[659,-617,-647,660]],"properties":{"市区町村名":"川上郡弟子屈町","大字名":null,"丁目名":null,"小字名":"字アトサヌプリ原野七十一線","地番":"57-4","精度区分":null,"座標系":"任意座標系"}},{"type":"Polygon","arcs":[[661,-661,-649,-651,-652,-584,-646,-642,-637,-636,-641,-645,-586,-633,-631,-629,-627,-654,662,-657,-625,-659]],"properties":{"市区町村名":"川上郡弟子屈町","大字名":null,"丁目名":null,"小字名":"字アトサヌプリ原野七十一線","地番":"57-3","精度区分":null,"座標系":"任意座標系"}},{"type":"Polygon","arcs":[[-479,663,-473,664,665,666]],"properties":{"市区町村名":"川上郡弟子屈町","大字名":null,"丁目名":null,"小字名":"字アトサヌプリ原野七十一線","地番":"59-7","精度区分":null,"座標系":"任意座標系"}},{"type":"Polygon","arcs":[[-480,-667,667,668]],"properties":{"市区町村名":"川上郡弟子屈町","大字名":null,"丁目名":null,"小字名":"字アトサヌプリ原野七十一線","地番":"59-10","精度区分":null,"座標系":"任意座標系"}},{"type":"Polygon","arcs":[[-481,-669,669,670,-471,671]],"properties":{"市区町村名":"川上郡弟子屈町","大字名":null,"丁目名":null,"小字名":"字アトサヌプリ原野七十一線","地番":"59-11","精度区分":null,"座標系":"任意座標系"}},{"type":"Polygon","arcs":[[-482,-672,-470,-393]],"properties":{"市区町村名":"川上郡弟子屈町","大字名":null,"丁目名":null,"小字名":"字アトサヌプリ原野七十一線","地番":"59-12","精度区分":null,"座標系":"任意座標系"}},{"type":"Polygon","arcs":[[672,-665,-472,-671]],"properties":{"市区町村名":"川上郡弟子屈町","大字名":null,"丁目名":null,"小字名":"字アトサヌプリ原野七十一線","地番":"59-8","精度区分":null,"座標系":"任意座標系"}},{"type":"Polygon","arcs":[[-478,-392,-474,-664]],"properties":{"市区町村名":"川上郡弟子屈町","大字名":null,"丁目名":null,"小字名":"字アトサヌプリ原野七十一線","地番":"59-5","精度区分":null,"座標系":"任意座標系"}},{"type":"Polygon","arcs":[[-668,-666,-673,-670]],"properties":{"市区町村名":"川上郡弟子屈町","大字名":null,"丁目名":null,"小字名":"字アトサヌプリ原野七十一線","地番":"59-9","精度区分":null,"座標系":"任意座標系"}},{"type":"Polygon","arcs":[[-464,673,-662,674]],"properties":{"市区町村名":"川上郡弟子屈町","大字名":null,"丁目名":null,"小字名":"字アトサヌプリ原野七十一線","地番":"59-13","精度区分":null,"座標系":"任意座標系"}},{"type":"Polygon","arcs":[[-675,-658,675,-465]],"properties":{"市区町村名":"川上郡弟子屈町","大字名":null,"丁目名":null,"小字名":"字アトサヌプリ原野七十一線","地番":"59-14","精度区分":null,"座標系":"任意座標系"}},{"type":"Polygon","arcs":[[-466,-676,-655,676]],"properties":{"市区町村名":"川上郡弟子屈町","大字名":null,"丁目名":null,"小字名":"字アトサヌプリ原野七十一線","地番":"59-15","精度区分":null,"座標系":"任意座標系"}},{"type":"Polygon","arcs":[[-467,-677,-663,677]],"properties":{"市区町村名":"川上郡弟子屈町","大字名":null,"丁目名":null,"小字名":"字アトサヌプリ原野七十一線","地番":"59-16","精度区分":null,"座標系":"任意座標系"}},{"type":"Polygon","arcs":[[-678,-653,-397,-468]],"properties":{"市区町村名":"川上郡弟子屈町","大字名":null,"丁目名":null,"小字名":"字アトサヌプリ原野七十一線","地番":"59-17","精度区分":null,"座標系":"任意座標系"}},{"type":"Polygon","arcs":[[-463,-387,-660,-674]],"properties":{"市区町村名":"川上郡弟子屈町","大字名":null,"丁目名":null,"小字名":"字アトサヌプリ原野七十一線","地番":"59-6","精度区分":null,"座標系":"任意座標系"}},{"type":"Polygon","arcs":[[-377,-278,-263,-265,-267,-376,-269,-272,-274,-276]],"properties":{"市区町村名":"川上郡弟子屈町","大字名":null,"丁目名":null,"小字名":"字アトサヌプリ原野七十一線","地番":"67-9","精度区分":null,"座標系":"任意座標系"}},{"type":"Polygon","arcs":[[-378,-260,-242,-245,-248,-375,-250,-253,-255,-257]],"properties":{"市区町村名":"川上郡弟子屈町","大字名":null,"丁目名":null,"小字名":"字アトサヌプリ原野七十一線","地番":"67-8","精度区分":null,"座標系":"任意座標系"}}]}},"arcs":[[[577993,276427],[-11489,4804],[-12724,21480]],[[553780,302711],[24213,-26284]],[[626834,328670],[60950,-63958],[-56742,-16805]],[[631042,247907],[-15236,12708],[-37813,15812]],[[553780,302711],[-2359,3983]],[[551421,306694],[75413,21976]],[[707330,351730],[61856,-63379]],[[769186,288351],[-75845,-22034],[-60846,63932]],[[632495,330249],[74835,21481]],[[786466,374447],[60279,-63565]],[[846745,310882],[-77559,-22531]],[[707330,351730],[79136,22717]],[[863499,396560],[60674,-63184],[-77428,-22494]],[[786466,374447],[77033,22113]],[[550389,306394],[3391,-3683]],[[577993,276427],[17697,-19211]],[[595690,257216],[-46085,18778],[-17155,25172]],[[532450,301166],[17939,5228]],[[550389,306394],[1032,300]],[[631042,247907],[-15443,-4573]],[[615599,243334],[-10122,9894],[-9787,3988]],[[255417,720388],[-1263,-393]],[[254154,719995],[-56315,-17565]],[[197839,702430],[-1247,953],[-955,633],[-1478,610],[-684,255],[-1328,118],[-1857,-3],[-1947,-50],[-1246,36],[-1485,-107],[-2226,165],[-2552,341]],[[180834,705381],[-58991,64257]],[[121843,769638],[72169,21262],[64915,-69417]],[[258927,721483],[-3510,-1095]],[[196631,702054],[-9906,-3090]],[[186725,698964],[-4967,5411]],[[181758,704375],[1673,-166],[8944,135],[747,-141],[2186,-963],[699,-532],[624,-654]],[[132159,857261],[59806,-63992],[-72115,-21223]],[[119850,772046],[-60627,66192]],[[59223,838238],[72936,19023]],[[273855,814188],[55041,-60153]],[[328896,754035],[-4116,-166],[-2808,-443],[-1678,-477],[-1593,-511],[-2590,-1308],[-4967,-4721],[-2401,-1003],[-2257,-453],[-1893,-149],[-4149,17],[-2473,-140],[-1644,-381],[-2417,-743],[-1993,-977],[-1204,-877],[-2482,-2044],[-1808,-1322],[-1932,-1516],[-2332,-1362],[-3592,-1620],[-1703,-982],[-1214,-486],[-2362,-808],[-3262,-811],[-3517,-694],[-3975,-1157],[-1753,-835],[-556,-464]],[[260225,727602],[-60598,64821],[74228,21765]],[[329526,753345],[7029,-7681]],[[336555,745664],[-72111,-22574]],[[264444,723090],[-3325,3556]],[[261119,726646],[2963,1872],[3003,864],[2372,435],[2138,405],[1886,556],[2546,1018],[2459,1019],[2456,938],[1669,885],[2054,1041],[1052,716],[1606,1358],[4791,4107],[2256,1023],[2975,897],[1929,262],[3002,278],[1367,60],[2110,-164],[1221,46],[1753,233],[1174,274],[976,375],[602,430],[732,705],[1734,1014],[1656,1193],[1456,1831],[874,653],[4589,1829],[1647,429],[2270,126],[3089,-9]],[[271692,816655],[-74257,-21846],[-59369,64049]],[[138066,858858],[76969,21656],[56657,-63859]],[[965676,931032],[-78587,-22697],[-61546,64710]],[[825543,973045],[77873,22727],[62260,-64740]],[[271692,816655],[2163,-2467]],[[260225,727602],[894,-956]],[[264444,723090],[-5517,-1607]],[[121843,769638],[-1993,2408]],[[132159,857261],[5907,1597]],[[825543,973045],[-2641,2776],[83645,24178],[64848,-67315],[-5719,-1652]],[[197839,702430],[-1208,-376]],[[181758,704375],[-924,1006]],[[328896,754035],[630,-690]],[[356669,446375],[49532,14534]],[[406201,460909],[21895,-23275]],[[428096,437634],[-77201,-22883]],[[350895,414751],[5774,31624]],[[366941,502641],[39260,-41732]],[[356669,446375],[10272,56266]],[[503350,459940],[-75254,-22306]],[[366941,502641],[75905,22429],[60504,-65130]],[[736743,528993],[-74900,-22160]],[[661843,506833],[-60310,64403]],[[601533,571236],[74123,21650],[61087,-63893]],[[520105,547452],[61030,-64498]],[[581135,482954],[-72104,-21333]],[[509031,461621],[-60338,64973],[71412,20858]],[[661843,506833],[-80708,-23879]],[[520105,547452],[81428,23784]],[[757610,616793],[61270,-63788],[-76762,-22416]],[[742118,530589],[-61135,63983],[76627,22221]],[[366941,502641],[724,3964],[72637,21452],[5555,1734],[309102,89763],[2651,-2761]],[[742118,530589],[-5375,-1596]],[[509031,461621],[-5681,-1681]],[[343619,374895],[26500,7162],[8373,-2894],[6210,225]],[[384702,379388],[25984,-26587]],[[410686,352801],[-75061,-21694]],[[335625,331107],[7994,43788]],[[350895,414751],[23197,-24507]],[[374092,390244],[-29102,-7838]],[[344990,382406],[5905,32345]],[[489915,372042],[17880,-19410]],[[507795,352632],[-35168,14413]],[[472627,367045],[17288,4997]],[[448308,363675],[-37622,-10874]],[[384702,379388],[31394,1136],[32212,-16849]],[[428096,437634],[59025,-62741]],[[487121,374893],[-24005,-6938]],[[463116,367955],[-40089,20599],[-38489,-2129],[-10446,3819]],[[551421,306694],[-4350,7345],[12300,3586],[-31192,26652],[-20384,8355]],[[489915,372042],[74945,21661],[61974,-65033]],[[533500,324728],[-7946,8626]],[[525554,333354],[14991,-6954],[-7045,-1672]],[[503350,459940],[58850,-63348],[-75079,-21699]],[[643938,416684],[63392,-64954]],[[632495,330249],[-61934,65075],[73377,21360]],[[581135,482954],[59996,-63404]],[[641131,419550],[-73201,-21353],[-58899,63424]],[[724244,440061],[62222,-65614]],[[643938,416684],[80306,23377]],[[724244,440061],[76184,22177],[63071,-65678]],[[928695,438478],[17186,-17934],[-19514,-5661]],[[926367,414883],[-28670,26872],[30998,-3277]],[[463116,367955],[-14808,-4280]],[[343619,374895],[1371,7511]],[[507795,352632],[17759,-19278]],[[525554,333354],[-29614,13736],[-42403,14438]],[[453537,361528],[19090,5517]],[[550389,306394],[-16889,18334]],[[532450,301166],[-13676,20068],[14726,3494]],[[837069,472806],[6957,-13697],[46896,-10570],[31815,-3844]],[[922737,444695],[5958,-6217]],[[926367,414883],[-9964,-2890],[-32885,33001],[-52489,9632],[-2169,12046],[-5438,2171]],[[823422,468843],[13647,3963]],[[922737,444695],[47452,-5732],[29810,-2734],[-14901,-4332],[-14324,2010],[-42079,4571]],[[258927,721483],[59663,-63799],[-73559,-22231]],[[245031,635453],[-58306,63511]],[[196631,702054],[567,-1126],[1067,-1174],[2092,-997],[1295,-202],[1821,-113],[2729,17],[1334,-7],[2503,119],[2809,-98],[5758,-297],[1420,-41],[3849,339],[4152,42],[2108,-184],[2146,-542],[4238,-1035],[1903,-196],[1160,-37],[1608,233],[2876,568],[1899,227],[1648,427],[1310,579],[2131,760],[1765,1483],[1213,1444],[2042,3838],[594,1813],[-185,1370],[253,1949],[-466,1539],[-946,1237],[-223,1208],[-25,2165],[341,3026]],[[254154,719995],[-599,-5077],[1162,-3618],[287,-2675],[-527,-2155],[-500,-1701],[-719,-1452],[-1608,-1779],[-558,-625],[-2822,-1708],[-951,-390],[-6849,-1573],[-1753,-230],[-1411,204],[-1461,351],[-1681,550],[-886,244],[-4284,710],[-1100,52],[-2498,-38],[-1313,-140],[-939,-195],[-1654,13],[-11547,561],[-2006,-63],[-3849,-339],[-986,17],[-1522,287],[-984,571],[-2757,2633]],[[336555,745664],[59217,-64717]],[[395772,680947],[-71683,-21658],[-59645,63801]],[[395772,680947],[1965,-2147],[-71718,-21768],[-5354,-1523],[-73601,-22272],[-2033,2216]],[[73007,920933],[59152,-63672]],[[59223,838238],[-56927,62452]],[[2296,900690],[70711,20243]],[[70766,923345],[2241,-2412]],[[2296,900690],[-2296,2519],[70766,20136]],[[70766,923345],[5748,1674],[2257,-2426],[59295,-63735]],[[703829,265724],[3700,-3914]],[[707529,261810],[-8644,-2567]],[[698885,259243],[-3700,3914]],[[695185,263157],[8644,2567]],[[733687,245850],[3699,-3914]],[[737386,241936],[-8643,-2567]],[[728743,239369],[-3700,3914]],[[725043,243283],[8644,2567]],[[729987,249764],[3700,-3914]],[[725043,243283],[-3699,3914]],[[721344,247197],[8643,2567]],[[721229,259027],[3701,-3914]],[[724930,255113],[-8644,-2566]],[[716286,252547],[-3700,3913]],[[712586,256460],[8643,2567]],[[724930,255113],[3699,-3913]],[[728629,251200],[-8643,-2567]],[[719986,248633],[-3700,3914]],[[716172,264377],[3700,-3914]],[[719872,260463],[-8643,-2567]],[[711229,257896],[-3700,3914]],[[707529,261810],[8643,2567]],[[747387,243067],[3654,-3865]],[[751041,239202],[-8643,-2567]],[[742398,236635],[-3654,3865]],[[738744,240500],[8643,2567]],[[730101,237934],[3653,-3866]],[[733754,234068],[-8643,-2567]],[[725111,231501],[-3654,3865]],[[721457,235366],[8644,2568]],[[728743,239369],[-8643,-2567]],[[720100,236802],[-3700,3914]],[[716400,240716],[8643,2567]],[[716400,240716],[-3700,3914]],[[712700,244630],[8644,2567]],[[719986,248633],[-8643,-2567]],[[711343,246066],[-3701,3913]],[[707642,249979],[8644,2568]],[[707642,249979],[-3699,3914]],[[703943,253893],[8643,2567]],[[711229,257896],[-8644,-2567]],[[702585,255329],[-3700,3914]],[[712472,268291],[3700,-3914]],[[703829,265724],[8643,2567]],[[721115,270857],[3701,-3913]],[[724816,266944],[-8644,-2567]],[[712472,268291],[8643,2566]],[[724816,266944],[3699,-3914]],[[728515,263030],[-8643,-2567]],[[728515,263030],[1358,-1436]],[[729873,261594],[-8644,-2567]],[[703943,253893],[-1358,1436]],[[729873,261594],[3700,-3914]],[[733573,257680],[-8643,-2567]],[[733573,257680],[3699,-3914]],[[737272,253766],[-8643,-2566]],[[737272,253766],[1358,-1435]],[[738630,252331],[-8643,-2567]],[[712700,244630],[-1357,1436]],[[738630,252331],[3700,-3914]],[[742330,248417],[-8643,-2567]],[[742330,248417],[3699,-3914]],[[746029,244503],[-8643,-2567]],[[746029,244503],[1358,-1436]],[[738744,240500],[-8643,-2566]],[[721457,235366],[-1357,1436]],[[742398,236635],[-8644,-2567]],[[783107,275335],[10284,-10879]],[[793391,264456],[-15528,-4611]],[[777863,259845],[-10284,10878]],[[767579,270723],[15528,4612]],[[751041,239202],[9853,-10423],[-25930,-7700]],[[734964,221079],[-9853,10422]],[[770057,243594],[8926,-9443]],[[778983,234151],[-15527,-4611],[-8926,9443]],[[754530,238983],[7763,2305]],[[762293,241288],[7764,2306]],[[785584,248205],[8926,-9442],[-15527,-4612]],[[770057,243594],[7763,2305]],[[777820,245899],[7764,2306]],[[803674,253578],[10285,-10879]],[[813959,242699],[-15528,-4611]],[[798431,238088],[-10284,10878]],[[788147,248966],[15527,4612]],[[754732,280841],[10284,-10879]],[[765016,269962],[-7764,-2305]],[[757252,267657],[-7764,-2306]],[[749488,265351],[-2059,2178]],[[747429,267529],[-3083,3261]],[[744346,270790],[-5142,5439]],[[739204,276229],[15528,4612]],[[772822,286213],[5142,-5439]],[[777964,280774],[-15528,-4611]],[[762436,276163],[-5141,5439]],[[757295,281602],[15527,4611]],[[777964,280774],[5143,-5439]],[[767579,270723],[-5143,5440]],[[747429,267529],[-15527,-4611]],[[731902,262918],[-3082,3261]],[[728820,266179],[15526,4611]],[[728820,266179],[-5142,5439]],[[723678,271618],[15526,4611]],[[793391,264456],[5141,-5439]],[[798532,259017],[-15527,-4611]],[[783005,254406],[-5142,5439]],[[798532,259017],[5142,-5439]],[[788147,248966],[-5142,5440]],[[749488,265351],[-7763,-2306]],[[741725,263045],[-7763,-2305]],[[733962,260740],[-2060,2178]],[[763073,261499],[4463,-4721]],[[767536,256778],[-7763,-2306]],[[759773,254472],[-4463,4721]],[[755310,259193],[7763,2306]],[[759773,254472],[-7764,-2305]],[[752009,252167],[-4463,4721]],[[747546,256888],[7764,2305]],[[752009,252167],[-7763,-2306]],[[744246,249861],[-4463,4721]],[[739783,254582],[7763,2306]],[[741725,263045],[4463,-4721]],[[746188,258324],[-7763,-2306]],[[738425,256018],[-4463,4722]],[[749488,265351],[4464,-4722]],[[753952,260629],[-7764,-2305]],[[757252,267657],[4464,-4722]],[[761716,262935],[-7764,-2306]],[[765016,269962],[4463,-4721]],[[769479,265241],[-7763,-2306]],[[770837,263805],[4463,-4722]],[[775300,259083],[-7764,-2305]],[[763073,261499],[7764,2306]],[[773357,250621],[4463,-4722]],[[770057,243594],[-4463,4721]],[[765594,248315],[7763,2306]],[[762293,241288],[-4463,4721]],[[757830,246009],[7764,2306]],[[754530,238983],[-4464,4721]],[[750066,243704],[7764,2305]],[[752009,252167],[4463,-4722]],[[756472,247445],[-7763,-2305]],[[748709,245140],[-4463,4721]],[[759773,254472],[4463,-4721]],[[764236,249751],[-7764,-2306]],[[767536,256778],[4463,-4721]],[[771999,252057],[-7763,-2306]],[[775300,259083],[4463,-4721]],[[779763,254362],[-7764,-2305]],[[781121,252926],[4463,-4721]],[[773357,250621],[7764,2305]],[[781549,228235],[3570,-3776]],[[785119,224459],[-8946,-2657]],[[776173,221802],[-3571,3777]],[[772602,225579],[8947,2656]],[[763657,222922],[3570,-3776]],[[767227,219146],[-8946,-2657]],[[758281,216489],[-3570,3777]],[[754711,220266],[8946,2656]],[[776173,221802],[-8946,-2656]],[[763657,222922],[8945,2657]],[[795421,225681],[3570,-3777]],[[798991,221904],[-8946,-2657]],[[790045,219247],[-3570,3777]],[[786475,223024],[8946,2657]],[[790045,219247],[-8945,-2656]],[[781100,216591],[-3570,3776]],[[777530,220367],[8945,2657]],[[781100,216591],[-8946,-2657]],[[772154,213934],[-3570,3776]],[[768584,217710],[8946,2657]],[[772154,213934],[-8946,-2657]],[[763208,211277],[-3570,3777]],[[759638,215054],[8946,2656]],[[829804,226382],[4721,-5438],[-15527,-4611]],[[818998,216333],[-5141,5437]],[[813857,221770],[15947,4612]],[[813959,242699],[5142,-5439]],[[819101,237260],[-15528,-4611]],[[803573,232649],[-5142,5439]],[[819101,237260],[5142,-5439]],[[824243,231821],[-15528,-4611]],[[808715,227210],[-5142,5439]],[[824243,231821],[5561,-5439]],[[813857,221770],[-5142,5440]],[[768136,206065],[3571,-3777]],[[771707,202288],[-14819,-4401]],[[756888,197887],[-3570,3777]],[[753318,201664],[14818,4401]],[[777082,208721],[3570,-3776]],[[780652,204945],[-8945,-2657]],[[768136,206065],[8946,2656]],[[786028,211378],[3570,-3776]],[[789598,207602],[-8946,-2657]],[[777082,208721],[8946,2657]],[[794973,214035],[3570,-3777]],[[798543,210258],[-8945,-2656]],[[786028,211378],[8945,2657]],[[803918,216692],[3571,-3777]],[[807489,212915],[-8946,-2657]],[[794973,214035],[8945,2657]],[[816434,215572],[-8945,-2657]],[[803918,216692],[8946,2656],[3570,-3776]],[[807936,224561],[3571,-3777],[-8946,-2657]],[[802561,218127],[-3570,3777]],[[798991,221904],[8945,2657]],[[802561,218127],[-8946,-2656]],[[793615,215471],[-3570,3776]],[[793615,215471],[-8945,-2657]],[[784670,212814],[-3570,3777]],[[784670,212814],[-8946,-2657]],[[775724,210157],[-3570,3777]],[[775724,210157],[-8945,-2656]],[[766779,207501],[-3571,3776]],[[766779,207501],[-14818,-4401]],[[751961,203100],[-3571,3777]],[[748390,206877],[14818,4400]],[[748390,206877],[-3570,3776]],[[744820,210653],[14818,4401]],[[758281,216489],[-14818,-4400]],[[743463,212089],[-3571,3776]],[[739892,215865],[14819,4401]],[[751139,224045],[3572,-3779]],[[739892,215865],[-3572,3779]],[[736320,219644],[14819,4401]],[[760085,226701],[3572,-3779]],[[751139,224045],[8946,2656]],[[769030,229358],[3572,-3779]],[[760085,226701],[8945,2657]],[[777976,232014],[3573,-3779]],[[769030,229358],[8946,2656]],[[786922,234670],[3572,-3778]],[[790494,230892],[-8945,-2657]],[[777976,232014],[8946,2656]],[[795868,237327],[3572,-3779]],[[799440,233548],[-8946,-2656]],[[786922,234670],[8946,2657]],[[790494,230892],[3570,-3777]],[[794064,227115],[-8945,-2656]],[[795421,225681],[8945,2656],[3570,-3776]],[[799440,233548],[3570,-3776],[-8946,-2657]],[[753318,201664],[-1357,1436]],[[744820,210653],[-1357,1436]],[[795868,237327],[2563,761]],[[818998,216333],[-2564,-761]],[[736320,219644],[-1356,1435]],[[721115,270857],[2563,761]],[[738425,256018],[1358,-1436]],[[748709,245140],[1357,-1436]],[[781121,252926],[-1358,1436]],[[770837,263805],[-1358,1436]],[[754732,280841],[2563,761]],[[807155,144715],[32130,-5951]],[[839285,138764],[-20694,-6146]],[[818591,132618],[-11436,12097]],[[800227,152043],[48251,-10549],[-9193,-2730]],[[807155,144715],[-6928,7328]],[[705081,182550],[-4419,-1310],[-25746,-7665]],[[674916,173575],[-22597,23988]],[[652319,197563],[20875,6071]],[[673194,203634],[6593,-15499],[25294,-5585]],[[729849,220210],[22398,-23710]],[[752247,196500],[-22612,-6679]],[[729635,189821],[-30292,6617],[-6937,12792]],[[692406,209230],[37443,10980]],[[710206,241004],[-45054,-13018]],[[665152,227986],[-2668,629],[-24904,17512]],[[637580,246127],[52980,15674],[19646,-20797]],[[619477,240770],[23715,-19113]],[[643192,221657],[-10667,-3082]],[[632525,218575],[-19192,20373]],[[613333,238948],[4898,1453],[1246,369]],[[522505,164746],[3765,-1510]],[[526270,163236],[-916,-676]],[[525354,162560],[-8401,3319],[-16431,6473],[-12356,4388]],[[488166,176740],[1521,722]],[[489687,177462],[576,-194],[289,-107]],[[490552,177161],[8300,-3018]],[[498852,174143],[4447,-1644]],[[503299,172499],[15160,-6095]],[[518459,166404],[4046,-1658]],[[547011,204142],[8015,-8488]],[[555026,195654],[-18062,-5181]],[[536964,190473],[-36442,-10452]],[[500522,180021],[-9970,-2860]],[[489687,177462],[57324,26680]],[[574856,174652],[22638,-23975]],[[597494,150677],[-25333,-7482]],[[572161,143195],[-14255,6639],[-21160,9150]],[[536746,158984],[9154,6849],[-513,196]],[[545387,166029],[14070,4117]],[[559457,170146],[15399,4506]],[[572161,143195],[-1118,-348]],[[571043,142847],[-14368,6630],[-17387,7495],[-3417,1376]],[[535871,158348],[875,636]],[[571043,142847],[-6062,-1772]],[[564981,141075],[-13599,5988],[-21126,9216],[-8360,3399],[-49750,18802]],[[472146,178480],[-5852,6207]],[[466294,184687],[21872,-7947]],[[525354,162560],[3183,-1257],[7334,-2955]],[[564981,141075],[-45029,-13299]],[[519952,127776],[-47806,50704]],[[411299,348637],[61040,-65125]],[[472339,283512],[-10407,-3138],[-5356,-1586]],[[456576,278788],[-102331,25190]],[[354245,303978],[-20636,21817],[77690,22842]],[[482758,272351],[-26182,6437]],[[472339,283512],[6904,-7421],[3515,-3740]],[[456576,278788],[-17676,-5233]],[[438900,273555],[-2864,-848]],[[436036,272707],[-41031,-12148]],[[395005,260559],[-40760,43419]],[[532450,301166],[-60111,-17654]],[[411299,348637],[42238,12891]],[[608193,243643],[-125435,28708]],[[595690,257216],[11793,-12803],[710,-770]],[[608193,243643],[1811,-1966]],[[610004,241677],[-76710,-23081]],[[533294,218596],[-13149,13987]],[[520145,232583],[-6042,6427]],[[514103,239010],[-2923,3109]],[[511180,242119],[-6636,7058]],[[504544,249177],[-2086,2220]],[[502458,251397],[-7268,7731]],[[495190,259128],[-1307,1390]],[[493883,260518],[-8990,9563]],[[484893,270081],[-2135,2270]],[[823422,468843],[-17781,-5163],[62970,-65552]],[[868611,398128],[-5112,-1568]],[[632495,330249],[-5661,-1579]],[[395005,260559],[-5129,-1567]],[[389876,258992],[-64890,68962],[10639,3153]],[[641131,419550],[156579,45674],[5562,1362],[156051,45230],[2618,-2750],[-78927,-22918],[-45945,-13342]],[[615599,243334],[-5595,-1657]],[[729635,189821],[-8243,-2435],[-16311,-4836]],[[673194,203634],[-2116,4974]],[[671078,208608],[-711,1670]],[[670367,210278],[-1723,4050],[-3070,613]],[[665574,214941],[-11446,2285]],[[654128,217226],[-3448,688]],[[650680,217914],[-3779,754],[-3709,2989]],[[619477,240770],[14549,4306],[3554,1051]],[[665152,227986],[11052,-2605]],[[676204,225381],[3505,-826]],[[679709,224555],[5030,-1185],[4237,-7813]],[[688976,215557],[883,-1631]],[[689859,213926],[2547,-4696]],[[772822,286213],[-77637,-23056]],[[695185,263157],[61703,-65270]],[[756888,197887],[-4641,-1387]],[[729849,220210],[-3939,4170]],[[725910,224380],[-1448,1533]],[[724462,225913],[-8593,9096]],[[715869,235009],[-1432,1516]],[[714437,236525],[-4231,4479]],[[613333,238948],[-77576,-22886]],[[535757,216062],[-77400,-22957],[6394,-6781]],[[464751,186324],[1543,-1637]],[[519952,127776],[-4651,-1381]],[[515301,126395],[-61669,65351],[-63756,67246]],[[395005,260559],[1351,-1440]],[[396356,259119],[14002,-14922]],[[410358,244197],[22750,-24248]],[[433108,219949],[22772,-24269],[41109,12169]],[[496989,207849],[2965,878]],[[499954,208727],[33340,9869]],[[868611,398128],[60833,-63326],[2805,-2905],[-5271,-1459],[-154156,-44225]],[[659046,85175],[2460,-2683]],[[661506,82492],[-77480,-22907],[32665,-34259],[-4546,-1420],[-138,146],[-15328,16089],[-17232,18086],[-18571,-5509],[-8895,-2639]],[[551981,50079],[-48564,-14407]],[[503417,35672],[-6545,-1942],[11202,-2775]],[[508074,30955],[50223,-12442]],[[558297,18513],[167,-2207],[-370,92]],[[558094,16398],[-15117,3754]],[[542977,20152],[-3161,785]],[[539816,20937],[-29112,7228]],[[510704,28165],[-17742,4405],[-984,-292]],[[491978,32278],[-33335,-9888]],[[458643,22390],[-1881,-558]],[[456762,21832],[-5998,1585]],[[450764,23417],[1772,525]],[[452536,23942],[124417,36903],[-61652,65550]],[[519952,127776],[61718,-65574],[77376,22973]],[[503417,35672],[4657,-4717]],[[551981,50079],[9392,-9936],[5481,-84],[3686,-4582],[-12698,-13921],[455,-3043]],[[818591,132618],[-4646,-1381]],[[813945,131237],[-61698,65263]],[[756888,197887],[43339,-45844]],[[818591,132618],[2398,-2628],[-159483,-47498]],[[659046,85175],[150715,44817],[4184,1245]],[[529872,3861],[15207,-3762]],[[545079,99],[-19,-23],[-60,-76],[-15207,3763]],[[529793,3763],[79,98]],[[479444,16588],[18362,-4587]],[[497806,12001],[-227,-268]],[[497579,11733],[-18345,4539]],[[479234,16272],[210,316]],[[472997,18182],[6447,-1594]],[[479234,16272],[-22472,5560]],[[458643,22390],[14354,-4208]],[[497806,12001],[28984,-7280]],[[526790,4721],[-144,-180]],[[526646,4541],[-29067,7192]],[[450764,23417],[-34260,13031],[-45500,19727],[-36274,15856],[1120,325],[950,310],[15629,-6969],[15477,-6720],[15225,-6655],[15021,-6650],[15127,-6665],[15515,-6214],[16085,-5570],[7657,-3281]],[[527031,5020],[-241,-299]],[[497806,12001],[232,287]],[[498038,12288],[15060,-3792],[13933,-3476]],[[539816,20937],[-12785,-15917]],[[498038,12288],[12666,15877]],[[472997,18182],[6574,-1458]],[[479571,16724],[-127,-136]],[[491978,32278],[-12407,-15554]],[[479571,16724],[9025,-2027],[9442,-2409]],[[542977,20152],[-12787,-15896]],[[530190,4256],[-3159,764]],[[530190,4256],[-318,-395]],[[529793,3763],[-3147,778]],[[530190,4256],[15259,-3694]],[[545449,562],[-370,-463]],[[558094,16398],[-12645,-15836]],[[530272,161693],[6474,-2709]],[[526270,163236],[4002,-1543]],[[464751,186324],[24936,-8862]],[[535757,216062],[11254,-11920]],[[530272,161693],[9513,2729]],[[539785,164422],[5602,1607]],[[537079,169565],[8308,-3536]],[[539785,164422],[-7793,3141]],[[531992,167563],[1151,870]],[[533143,168433],[3936,1132]],[[526270,163236],[5722,4327]],[[533143,168433],[2376,1796],[1560,-664]],[[564941,185153],[4289,-4543]],[[569230,180610],[-9891,-2851],[-1592,269],[-3716,3989]],[[554031,182017],[10910,3136]],[[560652,189695],[4289,-4542]],[[554031,182017],[-3706,3979],[338,834],[9989,2865]],[[555026,195654],[4289,-4543]],[[559315,191111],[-18322,-5273]],[[540993,185838],[-4029,4635]],[[540993,185838],[-31944,-9193]],[[509049,176645],[-8527,3376]],[[552385,181545],[-32279,-9277]],[[520106,172268],[-8490,3361]],[[511616,175629],[35540,10195],[1554,-257],[3675,-4022]],[[552385,181545],[3643,-3989],[-326,-845],[-27094,-7808]],[[528608,168903],[-8502,3365]],[[531203,167875],[1940,558]],[[531992,167563],[-789,312]],[[570567,179195],[4289,-4543]],[[559457,170146],[-4088,4678]],[[555369,174824],[15198,4371]],[[537079,169565],[18290,5259]],[[522505,164746],[180,680],[8518,2449]],[[528608,168903],[-8712,-2511],[-1437,12]],[[503299,172499],[145,786],[8172,2344]],[[569230,180610],[1337,-1415]],[[498852,174143],[1576,22],[8621,2480]],[[559315,191111],[1337,-1416]],[[499954,208727],[-13115,13926]],[[486839,222653],[33306,9930]],[[451365,256396],[22812,-24273]],[[474177,232123],[-41069,-12174]],[[410358,244197],[41007,12199]],[[474177,232123],[22812,-24274]],[[493883,260518],[-33518,-9755]],[[460365,250763],[-8885,9434]],[[451480,260197],[33413,9884]],[[451480,260197],[-11229,11923]],[[440251,272120],[-1351,1435]],[[514103,239010],[-33307,-9941]],[[480796,229069],[-2923,3104]],[[477873,232173],[33307,9946]],[[486839,222653],[-6043,6416]],[[504544,249177],[-33389,-9871]],[[471155,239306],[-2112,2243]],[[469043,241549],[33415,9848]],[[477873,232173],[-6718,7133]],[[495190,259128],[-33502,-9770]],[[461688,249358],[-1323,1405]],[[469043,241549],[-7355,7809]],[[436036,272707],[1349,-1435]],[[437385,271272],[-41029,-12153]],[[437385,271272],[13980,-14876]],[[440251,272120],[-2866,-848]],[[674916,173575],[-77422,-22898]],[[574856,174652],[6901,2041]],[[581757,176693],[16987,5025]],[[598744,181718],[31415,9291]],[[630159,191009],[22160,6554]],[[632525,218575],[-10615,-3140]],[[621910,215435],[-22187,-6562]],[[599723,208873],[-23901,-7069]],[[575822,201804],[-17067,-5048]],[[558755,196756],[-3729,-1102]],[[636027,211988],[4282,-4544]],[[640309,207444],[-22113,-6540]],[[618196,200904],[-3806,4037],[427,774],[21210,6273]],[[621910,215435],[4282,-4544]],[[626192,210891],[-22184,-6561]],[[604008,204330],[-4285,4543]],[[604008,204330],[-23899,-7069]],[[580109,197261],[-4287,4543]],[[580109,197261],[-17065,-5047]],[[563044,192214],[-4289,4542]],[[563044,192214],[-3729,-1103]],[[616492,200400],[-28394,-8398]],[[588098,192002],[-4287,4543]],[[583811,196545],[27493,8131],[1381,-239],[3807,-4037]],[[616492,200400],[3806,-4038],[-426,-773],[-27487,-8130]],[[592385,187459],[-4287,4543]],[[588098,192002],[-11732,-3470]],[[576366,188532],[-4288,4543]],[[572078,193075],[11733,3470]],[[592385,187459],[-11731,-3470]],[[580654,183989],[-4288,4543]],[[576366,188532],[-11425,-3379]],[[560652,189695],[11426,3380]],[[580654,183989],[-11424,-3379]],[[625875,195553],[4284,-4544]],[[598744,181718],[-4286,4543]],[[594458,186261],[31417,9292]],[[581757,176693],[-4288,4543]],[[577469,181236],[16989,5025]],[[570567,179195],[6902,2041]],[[632525,218575],[4281,-4545]],[[636806,214030],[-10614,-3139]],[[638140,212613],[4282,-4544]],[[642422,208069],[-2113,-625]],[[636027,211988],[2113,625]],[[642422,208069],[4281,-4545]],[[646703,203524],[-23319,-6897],[-1381,239],[-3807,4038]],[[648038,202108],[4281,-4545]],[[625875,195553],[22163,6555]],[[646703,203524],[1335,-1416]],[[636806,214030],[1334,-1417]],[[725910,224380],[-36051,-10454]],[[688976,215557],[13185,3848]],[[702161,219405],[11044,3223]],[[713205,222628],[11257,3285]],[[713205,222628],[-8603,9124]],[[704602,231752],[11267,3257]],[[704602,231752],[-10934,-3161]],[[693668,228591],[-13959,-4036]],[[676204,225381],[38233,11144]],[[693668,228591],[8493,-9186]],[[671078,208608],[-23040,-6500]],[[646703,203524],[23664,6754]],[[642422,208069],[23152,6872]],[[638140,212613],[15988,4613]],[[636806,214030],[13874,3884]]],"bbox":[-3694.208,-866.133,-1624.816,2825.987],"transform":{"scale":[0.002069394069394069,0.003692123692123692],"translate":[-3694.208,-866.133]}}