{"type":"Topology","objects":{"01214-4503-26.featurecollection":{"type":"GeometryCollection","geometries":[{"type":"Polygon","arcs":[[0]],"properties":{"市区町村名":"稚内市","大字名":"大字抜海村","丁目名":null,"小字名":null,"地番":"1827","精度区分":null,"座標系":"任意座標系"}},{"type":"Polygon","arcs":[[1]],"properties":{"市区町村名":"稚内市","大字名":"大字抜海村","丁目名":null,"小字名":null,"地番":"筆界未定地-4","精度区分":null,"座標系":"任意座標系"}}]}},"arcs":[[[988882,0],[-66741,24996],[13189,378813],[8997,59902],[11577,268572],[8258,189567],[18300,78149],[13876,-154000],[-9101,-161325],[285,-153487],[12477,-229044],[-11117,-302143]],[[67387,322515],[-4205,-115],[-61976,-1707],[-1206,548479],[83127,2763],[3441,113],[79243,2635],[690,-549440],[-99114,-2728]]],"bbox":[82.803,957.023,1712.027,1451.861],"transform":{"scale":[0.0016292256292256295,0.0004948384948384949],"translate":[82.803,957.023]}}