{"type":"Topology","objects":{"01214-4503-25.featurecollection":{"type":"GeometryCollection","geometries":[{"type":"Polygon","arcs":[[0,1]],"properties":{"市区町村名":"稚内市","大字名":"大字声問村","丁目名":null,"小字名":null,"地番":"4717","精度区分":null,"座標系":"任意座標系"}},{"type":"Polygon","arcs":[[2,3,4,5]],"properties":{"市区町村名":"稚内市","大字名":"大字声問村","丁目名":null,"小字名":null,"地番":"4716-1","精度区分":null,"座標系":"任意座標系"}},{"type":"Polygon","arcs":[[6,7,-4]],"properties":{"市区町村名":"稚内市","大字名":"大字声問村","丁目名":null,"小字名":null,"地番":"4716-3","精度区分":null,"座標系":"任意座標系"}},{"type":"Polygon","arcs":[[-8,8,9,10,-5]],"properties":{"市区町村名":"稚内市","大字名":"大字声問村","丁目名":null,"小字名":null,"地番":"4716-2","精度区分":null,"座標系":"任意座標系"}},{"type":"Polygon","arcs":[[-10,11]],"properties":{"市区町村名":"稚内市","大字名":"大字声問村","丁目名":null,"小字名":null,"地番":"水-2-7","精度区分":null,"座標系":"任意座標系"}},{"type":"Polygon","arcs":[[12,-6,-11,13,-2]],"properties":{"市区町村名":"稚内市","大字名":"大字声問村","丁目名":null,"小字名":null,"地番":"長狭物不明-2-8","精度区分":null,"座標系":"任意座標系"}}]}},"arcs":[[[708280,919261],[62650,56245],[107508,13224],[81545,-68535],[-59719,71526],[57689,8278],[42046,-109012]],[[999999,890987],[-291719,28274]],[[999925,878794],[-92198,-878794],[-412183,40392]],[[495544,40392],[61946,540492]],[[557490,580884],[232867,-24242],[38300,337966]],[[828657,894608],[171268,-15814]],[[495544,40392],[-495544,47630],[55567,540806]],[[55567,628828],[501923,-47944]],[[55567,628828],[33415,336010],[448650,-42367]],[[537632,922471],[15828,-21955],[90537,-9215],[41565,17202]],[[685562,908503],[143095,-13895]],[[537632,922471],[147930,-13968]],[[999999,890987],[-74,-12193]],[[685562,908503],[22718,10758]]],"bbox":[256.884,2090.3,850.596,2698.443],"transform":{"scale":[0.0005937125937125937,0.0006081436081436082],"translate":[256.884,2090.3]}}