{"type":"Topology","objects":{"01214-4503-27":{"type":"GeometryCollection","geometries":[{"type":"MultiPolygon","arcs":[[[0,1,2]]],"properties":{"筆ID":"H000000001","version":"ver1.0","座標系":"任意座標系","測地系判別":null,"地図名":"H20450301214043","地図番号":"殖-2-1","縮尺分母":"5000","市区町村コード":"01214","市区町村名":"稚内市","大字コード":"601","丁目コード":"000","小字コード":"0000","予備コード":"00","大字名":"字メナシベツ","丁目名":null,"小字名":null,"予備名":null,"地番":"筆界未定地-1","精度区分":null,"座標値種別":"図上測量","筆界未定構成筆":[{"大字コード":"601","丁目コード":"000","小字コード":"0000","予備コード":"00","大字名":"字メナシベツ","地番":"5102-2"},{"大字コード":"601","丁目コード":"000","小字コード":"0000","予備コード":"00","大字名":"字メナシベツ","地番":"5102-3"}],"代表点緯度":4441.4615,"代表点経度":4981.762648871}},{"type":"MultiPolygon","arcs":[[[-1,3,4,5,6,7,8,9]]],"properties":{"筆ID":"H000000002","version":"ver1.0","座標系":"任意座標系","測地系判別":null,"地図名":"H20450301214043","地図番号":"殖-2-1","縮尺分母":"5000","市区町村コード":"01214","市区町村名":"稚内市","大字コード":"000","丁目コード":"000","小字コード":"0000","予備コード":"00","大字名":null,"丁目名":null,"小字名":null,"予備名":null,"地番":"地区外-167953","精度区分":null,"座標値種別":"図上測量","筆界未定構成筆":null,"代表点緯度":4104.355,"代表点経度":6149.149243419}},{"type":"MultiPolygon","arcs":[[[10,11,-4]]],"properties":{"筆ID":"H000000003","version":"ver1.0","座標系":"任意座標系","測地系判別":null,"地図名":"H20450301214043","地図番号":"殖-2-1","縮尺分母":"5000","市区町村コード":"01214","市区町村名":"稚内市","大字コード":"601","丁目コード":"000","小字コード":"0000","予備コード":"00","大字名":"字メナシベツ","丁目名":null,"小字名":null,"予備名":null,"地番":"水-2","精度区分":null,"座標値種別":"図上測量","筆界未定構成筆":null,"代表点緯度":4707.28,"代表点経度":5154.926383037}},{"type":"MultiPolygon","arcs":[[[12,-5,-12]]],"properties":{"筆ID":"H000000004","version":"ver1.0","座標系":"任意座標系","測地系判別":null,"地図名":"H20450301214043","地図番号":"殖-2-1","縮尺分母":"5000","市区町村コード":"01214","市区町村名":"稚内市","大字コード":"601","丁目コード":"000","小字コード":"0000","予備コード":"00","大字名":"字メナシベツ","丁目名":null,"小字名":null,"予備名":null,"地番":"5102-5","精度区分":null,"座標値種別":"図上測量","筆界未定構成筆":null,"代表点緯度":4726.698,"代表点経度":5138.782649857}},{"type":"MultiPolygon","arcs":[[[13,14,-7]]],"properties":{"筆ID":"H000000005","version":"ver1.0","座標系":"任意座標系","測地系判別":null,"地図名":"H20450301214043","地図番号":"殖-2-1","縮尺分母":"5000","市区町村コード":"01214","市区町村名":"稚内市","大字コード":"601","丁目コード":"000","小字コード":"0000","予備コード":"00","大字名":"字メナシベツ","丁目名":null,"小字名":null,"予備名":null,"地番":"5102-4","精度区分":null,"座標値種別":"図上測量","筆界未定構成筆":null,"代表点緯度":4751.1375,"代表点経度":5088.451774605}},{"type":"MultiPolygon","arcs":[[[15,-14,-6,-13,-11,-3]]],"properties":{"筆ID":"H000000006","version":"ver1.0","座標系":"任意座標系","測地系判別":null,"地図名":"H20450301214043","地図番号":"殖-2-1","縮尺分母":"5000","市区町村コード":"01214","市区町村名":"稚内市","大字コード":"601","丁目コード":"000","小字コード":"0000","予備コード":"00","大字名":"字メナシベツ","丁目名":null,"小字名":null,"予備名":null,"地番":"5102-1","精度区分":null,"座標値種別":"図上測量","筆界未定構成筆":null,"代表点緯度":4721.9875,"代表点経度":5091.567565202}},{"type":"MultiPolygon","arcs":[[[16]]],"properties":{"筆ID":"H000000007","version":"ver1.0","座標系":"任意座標系","測地系判別":null,"地図名":"H20450301214043","地図番号":"殖-2","縮尺分母":"5000","市区町村コード":"01214","市区町村名":"稚内市","大字コード":"601","丁目コード":"000","小字コード":"0000","予備コード":"00","大字名":"字メナシベツ","丁目名":null,"小字名":null,"予備名":null,"地番":"4521","精度区分":null,"座標値種別":"図上測量","筆界未定構成筆":null,"代表点緯度":4081.8835,"代表点経度":3534.531169688}},{"type":"MultiPolygon","arcs":[[[17]]],"properties":{"筆ID":"H000000008","version":"ver1.0","座標系":"任意座標系","測地系判別":null,"地図名":"H20450301214043","地図番号":"殖-2","縮尺分母":"5000","市区町村コード":"01214","市区町村名":"稚内市","大字コード":"601","丁目コード":"000","小字コード":"0000","予備コード":"00","大字名":"字メナシベツ","丁目名":null,"小字名":null,"予備名":null,"地番":"4514","精度区分":null,"座標値種別":"図上測量","筆界未定構成筆":null,"代表点緯度":4232.647,"代表点経度":3744.169222774}},{"type":"MultiPolygon","arcs":[[[18,19]]],"properties":{"筆ID":"H000000009","version":"ver1.0","座標系":"任意座標系","測地系判別":null,"地図名":"H20450301214043","地図番号":"殖-2","縮尺分母":"5000","市区町村コード":"01214","市区町村名":"稚内市","大字コード":"601","丁目コード":"000","小字コード":"0000","予備コード":"00","大字名":"字メナシベツ","丁目名":null,"小字名":null,"予備名":null,"地番":"4513","精度区分":null,"座標値種別":"図上測量","筆界未定構成筆":null,"代表点緯度":4271.3955,"代表点経度":3746.058712114}},{"type":"MultiPolygon","arcs":[[[20]]],"properties":{"筆ID":"H000000010","version":"ver1.0","座標系":"任意座標系","測地系判別":null,"地図名":"H20450301214043","地図番号":"殖-2","縮尺分母":"5000","市区町村コード":"01214","市区町村名":"稚内市","大字コード":"601","丁目コード":"000","小字コード":"0000","予備コード":"00","大字名":"字メナシベツ","丁目名":null,"小字名":null,"予備名":null,"地番":"4516","精度区分":null,"座標値種別":"図上測量","筆界未定構成筆":null,"代表点緯度":4175.51,"代表点経度":3650.436033525}},{"type":"MultiPolygon","arcs":[[[21]]],"properties":{"筆ID":"H000000011","version":"ver1.0","座標系":"任意座標系","測地系判別":null,"地図名":"H20450301214043","地図番号":"殖-2","縮尺分母":"5000","市区町村コード":"01214","市区町村名":"稚内市","大字コード":"601","丁目コード":"000","小字コード":"0000","予備コード":"00","大字名":"字メナシベツ","丁目名":null,"小字名":null,"予備名":null,"地番":"4517","精度区分":null,"座標値種別":"図上測量","筆界未定構成筆":null,"代表点緯度":4124.11,"代表点経度":3648.501738622}},{"type":"MultiPolygon","arcs":[[[22]]],"properties":{"筆ID":"H000000012","version":"ver1.0","座標系":"任意座標系","測地系判別":null,"地図名":"H20450301214043","地図番号":"殖-2","縮尺分母":"5000","市区町村コード":"01214","市区町村名":"稚内市","大字コード":"601","丁目コード":"000","小字コード":"0000","予備コード":"00","大字名":"字メナシベツ","丁目名":null,"小字名":null,"予備名":null,"地番":"4519","精度区分":null,"座標値種別":"図上測量","筆界未定構成筆":null,"代表点緯度":4031.5975,"代表点経度":3680.672030436}},{"type":"MultiPolygon","arcs":[[[23,24]]],"properties":{"筆ID":"H000000013","version":"ver1.0","座標系":"任意座標系","測地系判別":null,"地図名":"H20450301214043","地図番号":"殖-2","縮尺分母":"5000","市区町村コード":"01214","市区町村名":"稚内市","大字コード":"601","丁目コード":"000","小字コード":"0000","予備コード":"00","大字名":"字メナシベツ","丁目名":null,"小字名":null,"予備名":null,"地番":"4520","精度区分":null,"座標値種別":"図上測量","筆界未定構成筆":null,"代表点緯度":4099.6185,"代表点経度":3405.065757513}},{"type":"MultiPolygon","arcs":[[[25,26]]],"properties":{"筆ID":"H000000014","version":"ver1.0","座標系":"任意座標系","測地系判別":null,"地図名":"H20450301214043","地図番号":"殖-2","縮尺分母":"5000","市区町村コード":"01214","市区町村名":"稚内市","大字コード":"601","丁目コード":"000","小字コード":"0000","予備コード":"00","大字名":"字メナシベツ","丁目名":null,"小字名":null,"予備名":null,"地番":"4510","精度区分":null,"座標値種別":"図上測量","筆界未定構成筆":null,"代表点緯度":4107.2335,"代表点経度":3332.833918268}},{"type":"MultiPolygon","arcs":[[[27,28,29,30,-26]]],"properties":{"筆ID":"H000000015","version":"ver1.0","座標系":"任意座標系","測地系判別":null,"地図名":"H20450301214043","地図番号":"殖-2","縮尺分母":"5000","市区町村コード":"01214","市区町村名":"稚内市","大字コード":"601","丁目コード":"000","小字コード":"0000","予備コード":"00","大字名":"字メナシベツ","丁目名":null,"小字名":null,"予備名":null,"地番":"4822","精度区分":null,"座標値種別":"図上測量","筆界未定構成筆":null,"代表点緯度":4267.4385,"代表点経度":3287.760771315}},{"type":"MultiPolygon","arcs":[[[31,32]]],"properties":{"筆ID":"H000000016","version":"ver1.0","座標系":"任意座標系","測地系判別":null,"地図名":"H20450301214043","地図番号":"殖-2","縮尺分母":"5000","市区町村コード":"01214","市区町村名":"稚内市","大字コード":"601","丁目コード":"000","小字コード":"0000","予備コード":"00","大字名":"字メナシベツ","丁目名":null,"小字名":null,"予備名":null,"地番":"4509-1","精度区分":null,"座標値種別":"図上測量","筆界未定構成筆":null,"代表点緯度":3951.2905,"代表点経度":3339.013936308}},{"type":"MultiPolygon","arcs":[[[33,34]]],"properties":{"筆ID":"H000000017","version":"ver1.0","座標系":"任意座標系","測地系判別":null,"地図名":"H20450301214043","地図番号":"殖-2","縮尺分母":"5000","市区町村コード":"01214","市区町村名":"稚内市","大字コード":"601","丁目コード":"000","小字コード":"0000","予備コード":"00","大字名":"字メナシベツ","丁目名":null,"小字名":null,"予備名":null,"地番":"4515-1","精度区分":null,"座標値種別":"図上測量","筆界未定構成筆":null,"代表点緯度":4228.8,"代表点経度":3813.020424444}},{"type":"MultiPolygon","arcs":[[[35,36,37,38]]],"properties":{"筆ID":"H000000018","version":"ver1.0","座標系":"任意座標系","測地系判別":null,"地図名":"H20450301214043","地図番号":"殖-2","縮尺分母":"5000","市区町村コード":"01214","市区町村名":"稚内市","大字コード":"601","丁目コード":"000","小字コード":"0000","予備コード":"00","大字名":"字メナシベツ","丁目名":null,"小字名":null,"予備名":null,"地番":"4518-5","精度区分":null,"座標値種別":"図上測量","筆界未定構成筆":null,"代表点緯度":4135.145,"代表点経度":3756.772213949}},{"type":"MultiPolygon","arcs":[[[39,40,41,-36]]],"properties":{"筆ID":"H000000019","version":"ver1.0","座標系":"任意座標系","測地系判別":null,"地図名":"H20450301214043","地図番号":"殖-2","縮尺分母":"5000","市区町村コード":"01214","市区町村名":"稚内市","大字コード":"601","丁目コード":"000","小字コード":"0000","予備コード":"00","大字名":"字メナシベツ","丁目名":null,"小字名":null,"予備名":null,"地番":"4518-1","精度区分":null,"座標値種別":"図上測量","筆界未定構成筆":null,"代表点緯度":4094.512,"代表点経度":3742.669582458}},{"type":"MultiPolygon","arcs":[[[42,43]]],"properties":{"筆ID":"H000000020","version":"ver1.0","座標系":"任意座標系","測地系判別":null,"地図名":"H20450301214043","地図番号":"殖-2","縮尺分母":"5000","市区町村コード":"01214","市区町村名":"稚内市","大字コード":"601","丁目コード":"000","小字コード":"0000","予備コード":"00","大字名":"字メナシベツ","丁目名":null,"小字名":null,"予備名":null,"地番":"4522-1","精度区分":null,"座標値種別":"図上測量","筆界未定構成筆":null,"代表点緯度":4019.8355,"代表点経度":3475.083547156}},{"type":"MultiPolygon","arcs":[[[44,45,46,-43]]],"properties":{"筆ID":"H000000021","version":"ver1.0","座標系":"任意座標系","測地系判別":null,"地図名":"H20450301214043","地図番号":"殖-2","縮尺分母":"5000","市区町村コード":"01214","市区町村名":"稚内市","大字コード":"601","丁目コード":"000","小字コード":"0000","予備コード":"00","大字名":"字メナシベツ","丁目名":null,"小字名":null,"予備名":null,"地番":"4522-3","精度区分":null,"座標値種別":"図上測量","筆界未定構成筆":null,"代表点緯度":4006.472,"代表点経度":3557.144380386}},{"type":"MultiPolygon","arcs":[[[-46,47]]],"properties":{"筆ID":"H000000022","version":"ver1.0","座標系":"任意座標系","測地系判別":null,"地図名":"H20450301214043","地図番号":"殖-2","縮尺分母":"5000","市区町村コード":"01214","市区町村名":"稚内市","大字コード":"601","丁目コード":"000","小字コード":"0000","予備コード":"00","大字名":"字メナシベツ","丁目名":null,"小字名":null,"予備名":null,"地番":"4522-2","精度区分":null,"座標値種別":"図上測量","筆界未定構成筆":null,"代表点緯度":4011.648,"代表点経度":3589.008577061}},{"type":"MultiPolygon","arcs":[[[48,49,50,51]]],"properties":{"筆ID":"H000000023","version":"ver1.0","座標系":"任意座標系","測地系判別":null,"地図名":"H20450301214043","地図番号":"殖-2","縮尺分母":"5000","市区町村コード":"01214","市区町村名":"稚内市","大字コード":"601","丁目コード":"000","小字コード":"0000","予備コード":"00","大字名":"字メナシベツ","丁目名":null,"小字名":null,"予備名":null,"地番":"4508-2","精度区分":null,"座標値種別":"図上測量","筆界未定構成筆":null,"代表点緯度":4004.7505,"代表点経度":3263.762498555}},{"type":"MultiPolygon","arcs":[[[52,53,-52,54]]],"properties":{"筆ID":"H000000024","version":"ver1.0","座標系":"任意座標系","測地系判別":null,"地図名":"H20450301214043","地図番号":"殖-2","縮尺分母":"5000","市区町村コード":"01214","市区町村名":"稚内市","大字コード":"601","丁目コード":"000","小字コード":"0000","予備コード":"00","大字名":"字メナシベツ","丁目名":null,"小字名":null,"予備名":null,"地番":"4508-1","精度区分":null,"座標値種別":"図上測量","筆界未定構成筆":null,"代表点緯度":4024.779,"代表点経度":3307.263144178}},{"type":"MultiPolygon","arcs":[[[55,-49,-54]]],"properties":{"筆ID":"H000000025","version":"ver1.0","座標系":"任意座標系","測地系判別":null,"地図名":"H20450301214043","地図番号":"殖-2","縮尺分母":"5000","市区町村コード":"01214","市区町村名":"稚内市","大字コード":"601","丁目コード":"000","小字コード":"0000","予備コード":"00","大字名":"字メナシベツ","丁目名":null,"小字名":null,"予備名":null,"地番":"4508-3","精度区分":null,"座標値種別":"図上測量","筆界未定構成筆":null,"代表点緯度":4002.8385,"代表点経度":3298.925074039}},{"type":"MultiPolygon","arcs":[[[-38,56]]],"properties":{"筆ID":"H000000026","version":"ver1.0","座標系":"任意座標系","測地系判別":null,"地図名":"H20450301214043","地図番号":"殖-2","縮尺分母":"5000","市区町村コード":"01214","市区町村名":"稚内市","大字コード":"601","丁目コード":"000","小字コード":"0000","予備コード":"00","大字名":"字メナシベツ","丁目名":null,"小字名":null,"予備名":null,"地番":"4518-3","精度区分":null,"座標値種別":"図上測量","筆界未定構成筆":null,"代表点緯度":4157.3745,"代表点経度":3754.901185243}},{"type":"MultiPolygon","arcs":[[[-41,57,58,59]]],"properties":{"筆ID":"H000000027","version":"ver1.0","座標系":"任意座標系","測地系判別":null,"地図名":"H20450301214043","地図番号":"殖-2","縮尺分母":"5000","市区町村コード":"01214","市区町村名":"稚内市","大字コード":"601","丁目コード":"000","小字コード":"0000","予備コード":"00","大字名":"字メナシベツ","丁目名":null,"小字名":null,"予備名":null,"地番":"4518-4","精度区分":null,"座標値種別":"図上測量","筆界未定構成筆":null,"代表点緯度":4089.973,"代表点経度":3683.666282045}},{"type":"MultiPolygon","arcs":[[[-59,60]]],"properties":{"筆ID":"H000000028","version":"ver1.0","座標系":"任意座標系","測地系判別":null,"地図名":"H20450301214043","地図番号":"殖-2","縮尺分母":"5000","市区町村コード":"01214","市区町村名":"稚内市","大字コード":"601","丁目コード":"000","小字コード":"0000","予備コード":"00","大字名":"字メナシベツ","丁目名":null,"小字名":null,"予備名":null,"地番":"4518-2","精度区分":null,"座標値種別":"図上測量","筆界未定構成筆":null,"代表点緯度":4103.768,"代表点経度":3663.630573376}},{"type":"MultiPolygon","arcs":[[[61,62]]],"properties":{"筆ID":"H000000029","version":"ver1.0","座標系":"任意座標系","測地系判別":null,"地図名":"H20450301214043","地図番号":"殖-2","縮尺分母":"5000","市区町村コード":"01214","市区町村名":"稚内市","大字コード":"601","丁目コード":"000","小字コード":"0000","予備コード":"00","大字名":"字メナシベツ","丁目名":null,"小字名":null,"予備名":null,"地番":"4523-1","精度区分":null,"座標値種別":"図上測量","筆界未定構成筆":null,"代表点緯度":3951.0655,"代表点経度":3408.532718248}},{"type":"MultiPolygon","arcs":[[[-24,63,64,65,-19,66]]],"properties":{"筆ID":"H000000030","version":"ver1.0","座標系":"任意座標系","測地系判別":null,"地図名":"H20450301214043","地図番号":"殖-2","縮尺分母":"5000","市区町村コード":"01214","市区町村名":"稚内市","大字コード":"601","丁目コード":"000","小字コード":"0000","予備コード":"00","大字名":"字メナシベツ","丁目名":null,"小字名":null,"予備名":null,"地番":"1440","精度区分":null,"座標値種別":"図上測量","筆界未定構成筆":null,"代表点緯度":4558.55,"代表点経度":3817.209163976}},{"type":"MultiPolygon","arcs":[[[67,68]]],"properties":{"筆ID":"H000000031","version":"ver1.0","座標系":"任意座標系","測地系判別":null,"地図名":"H20450301214043","地図番号":"殖-2","縮尺分母":"5000","市区町村コード":"01214","市区町村名":"稚内市","大字コード":"601","丁目コード":"000","小字コード":"0000","予備コード":"00","大字名":"字メナシベツ","丁目名":null,"小字名":null,"予備名":null,"地番":"4499-2","精度区分":null,"座標値種別":null,"筆界未定構成筆":null,"代表点緯度":4404.587,"代表点経度":4079.265852986}},{"type":"MultiPolygon","arcs":[[[69,70]]],"properties":{"筆ID":"H000000032","version":"ver1.0","座標系":"任意座標系","測地系判別":null,"地図名":"H20450301214043","地図番号":"殖-2","縮尺分母":"5000","市区町村コード":"01214","市区町村名":"稚内市","大字コード":"601","丁目コード":"000","小字コード":"0000","予備コード":"00","大字名":"字メナシベツ","丁目名":null,"小字名":null,"予備名":null,"地番":"4496-1","精度区分":null,"座標値種別":null,"筆界未定構成筆":null,"代表点緯度":4428.975,"代表点経度":4208.897289706}},{"type":"MultiPolygon","arcs":[[[-71,71]]],"properties":{"筆ID":"H000000033","version":"ver1.0","座標系":"任意座標系","測地系判別":null,"地図名":"H20450301214043","地図番号":"殖-2","縮尺分母":"5000","市区町村コード":"01214","市区町村名":"稚内市","大字コード":"601","丁目コード":"000","小字コード":"0000","予備コード":"00","大字名":"字メナシベツ","丁目名":null,"小字名":null,"予備名":null,"地番":"4496-2","精度区分":null,"座標値種別":null,"筆界未定構成筆":null,"代表点緯度":4446.49,"代表点経度":4202.894504495}},{"type":"MultiPolygon","arcs":[[[72,73]]],"properties":{"筆ID":"H000000034","version":"ver1.0","座標系":"任意座標系","測地系判別":null,"地図名":"H20450301214043","地図番号":"殖-2","縮尺分母":"5000","市区町村コード":"01214","市区町村名":"稚内市","大字コード":"601","丁目コード":"000","小字コード":"0000","予備コード":"00","大字名":"字メナシベツ","丁目名":null,"小字名":null,"予備名":null,"地番":"4506-1","精度区分":null,"座標値種別":null,"筆界未定構成筆":null,"代表点緯度":4258.7295,"代表点経度":3845.840078418}},{"type":"MultiPolygon","arcs":[[[74,75,-73]]],"properties":{"筆ID":"H000000035","version":"ver1.0","座標系":"任意座標系","測地系判別":null,"地図名":"H20450301214043","地図番号":"殖-2","縮尺分母":"5000","市区町村コード":"01214","市区町村名":"稚内市","大字コード":"601","丁目コード":"000","小字コード":"0000","予備コード":"00","大字名":"字メナシベツ","丁目名":null,"小字名":null,"予備名":null,"地番":"4506-2","精度区分":null,"座標値種別":null,"筆界未定構成筆":null,"代表点緯度":4224.26,"代表点経度":3854.251180532}},{"type":"MultiPolygon","arcs":[[[-68,76]]],"properties":{"筆ID":"H000000036","version":"ver1.0","座標系":"任意座標系","測地系判別":null,"地図名":"H20450301214043","地図番号":"殖-2","縮尺分母":"5000","市区町村コード":"01214","市区町村名":"稚内市","大字コード":"601","丁目コード":"000","小字コード":"0000","予備コード":"00","大字名":"字メナシベツ","丁目名":null,"小字名":null,"予備名":null,"地番":"4499-1","精度区分":null,"座標値種別":null,"筆界未定構成筆":null,"代表点緯度":4409.4845,"代表点経度":4080.23475}},{"type":"MultiPolygon","arcs":[[[77,78]]],"properties":{"筆ID":"H000000037","version":"ver1.0","座標系":"任意座標系","測地系判別":null,"地図名":"H20450301214043","地図番号":"殖-2","縮尺分母":"5000","市区町村コード":"01214","市区町村名":"稚内市","大字コード":"601","丁目コード":"000","小字コード":"0000","予備コード":"00","大字名":"字メナシベツ","丁目名":null,"小字名":null,"予備名":null,"地番":"4503-2","精度区分":null,"座標値種別":null,"筆界未定構成筆":null,"代表点緯度":4314.921,"代表点経度":3930.266494013}},{"type":"MultiPolygon","arcs":[[[79,80,-78,81]]],"properties":{"筆ID":"H000000038","version":"ver1.0","座標系":"任意座標系","測地系判別":null,"地図名":"H20450301214043","地図番号":"殖-2","縮尺分母":"5000","市区町村コード":"01214","市区町村名":"稚内市","大字コード":"601","丁目コード":"000","小字コード":"0000","予備コード":"00","大字名":"字メナシベツ","丁目名":null,"小字名":null,"予備名":null,"地番":"4503-3","精度区分":null,"座標値種別":null,"筆界未定構成筆":null,"代表点緯度":4315.95,"代表点経度":3958.368430362}},{"type":"MultiPolygon","arcs":[[[82,-80]]],"properties":{"筆ID":"H000000039","version":"ver1.0","座標系":"任意座標系","測地系判別":null,"地図名":"H20450301214043","地図番号":"殖-2","縮尺分母":"5000","市区町村コード":"01214","市区町村名":"稚内市","大字コード":"601","丁目コード":"000","小字コード":"0000","予備コード":"00","大字名":"字メナシベツ","丁目名":null,"小字名":null,"予備名":null,"地番":"4503-1","精度区分":null,"座標値種別":null,"筆界未定構成筆":null,"代表点緯度":4309.288,"代表点経度":3973.791587226}},{"type":"MultiPolygon","arcs":[[[83]]],"properties":{"筆ID":"H000000040","version":"ver1.0","座標系":"任意座標系","測地系判別":null,"地図名":"H20450301214043","地図番号":"殖-2","縮尺分母":"5000","市区町村コード":"01214","市区町村名":"稚内市","大字コード":"601","丁目コード":"000","小字コード":"0000","予備コード":"00","大字名":"字メナシベツ","丁目名":null,"小字名":null,"予備名":null,"地番":"5125","精度区分":null,"座標値種別":null,"筆界未定構成筆":null,"代表点緯度":4663.21,"代表点経度":4323.716809535}},{"type":"MultiPolygon","arcs":[[[84,85]]],"properties":{"筆ID":"H000000041","version":"ver1.0","座標系":"任意座標系","測地系判別":null,"地図名":"H20450301214043","地図番号":"殖-2","縮尺分母":"5000","市区町村コード":"01214","市区町村名":"稚内市","大字コード":"601","丁目コード":"000","小字コード":"0000","予備コード":"00","大字名":"字メナシベツ","丁目名":null,"小字名":null,"予備名":null,"地番":"5122","精度区分":null,"座標値種別":null,"筆界未定構成筆":null,"代表点緯度":4836.5755,"代表点経度":4509.003724518}},{"type":"MultiPolygon","arcs":[[[86,87]]],"properties":{"筆ID":"H000000042","version":"ver1.0","座標系":"任意座標系","測地系判別":null,"地図名":"H20450301214043","地図番号":"殖-2","縮尺分母":"5000","市区町村コード":"01214","市区町村名":"稚内市","大字コード":"601","丁目コード":"000","小字コード":"0000","予備コード":"00","大字名":"字メナシベツ","丁目名":null,"小字名":null,"予備名":null,"地番":"5119","精度区分":null,"座標値種別":null,"筆界未定構成筆":null,"代表点緯度":4931.656,"代表点経度":4609.95975653}},{"type":"MultiPolygon","arcs":[[[88,89]]],"properties":{"筆ID":"H000000043","version":"ver1.0","座標系":"任意座標系","測地系判別":null,"地図名":"H20450301214043","地図番号":"殖-2","縮尺分母":"5000","市区町村コード":"01214","市区町村名":"稚内市","大字コード":"601","丁目コード":"000","小字コード":"0000","予備コード":"00","大字名":"字メナシベツ","丁目名":null,"小字名":null,"予備名":null,"地番":"5118","精度区分":null,"座標値種別":null,"筆界未定構成筆":null,"代表点緯度":4974.046,"代表点経度":4568.709625192}},{"type":"MultiPolygon","arcs":[[[90]]],"properties":{"筆ID":"H000000044","version":"ver1.0","座標系":"任意座標系","測地系判別":null,"地図名":"H20450301214043","地図番号":"殖-2","縮尺分母":"5000","市区町村コード":"01214","市区町村名":"稚内市","大字コード":"601","丁目コード":"000","小字コード":"0000","予備コード":"00","大字名":"字メナシベツ","丁目名":null,"小字名":null,"予備名":null,"地番":"4497","精度区分":null,"座標値種別":null,"筆界未定構成筆":null,"代表点緯度":4492.523,"代表点経度":4160.326445076}},{"type":"MultiPolygon","arcs":[[[91]]],"properties":{"筆ID":"H000000045","version":"ver1.0","座標系":"任意座標系","測地系判別":null,"地図名":"H20450301214043","地図番号":"殖-2","縮尺分母":"5000","市区町村コード":"01214","市区町村名":"稚内市","大字コード":"601","丁目コード":"000","小字コード":"0000","予備コード":"00","大字名":"字メナシベツ","丁目名":null,"小字名":null,"予備名":null,"地番":"4500","精度区分":null,"座標値種別":null,"筆界未定構成筆":null,"代表点緯度":4426.354,"代表点経度":4051.381781509}},{"type":"MultiPolygon","arcs":[[[92]]],"properties":{"筆ID":"H000000046","version":"ver1.0","座標系":"任意座標系","測地系判別":null,"地図名":"H20450301214043","地図番号":"殖-2","縮尺分母":"5000","市区町村コード":"01214","市区町村名":"稚内市","大字コード":"601","丁目コード":"000","小字コード":"0000","予備コード":"00","大字名":"字メナシベツ","丁目名":null,"小字名":null,"予備名":null,"地番":"4501","精度区分":null,"座標値種別":null,"筆界未定構成筆":null,"代表点緯度":4395.152,"代表点経度":3987.138196069}},{"type":"MultiPolygon","arcs":[[[93]]],"properties":{"筆ID":"H000000047","version":"ver1.0","座標系":"任意座標系","測地系判別":null,"地図名":"H20450301214043","地図番号":"殖-2","縮尺分母":"5000","市区町村コード":"01214","市区町村名":"稚内市","大字コード":"601","丁目コード":"000","小字コード":"0000","予備コード":"00","大字名":"字メナシベツ","丁目名":null,"小字名":null,"予備名":null,"地番":"4504","精度区分":null,"座標値種別":null,"筆界未定構成筆":null,"代表点緯度":4308.0025,"代表点経度":3801.973690019}},{"type":"MultiPolygon","arcs":[[[94]]],"properties":{"筆ID":"H000000048","version":"ver1.0","座標系":"任意座標系","測地系判別":null,"地図名":"H20450301214043","地図番号":"殖-2","縮尺分母":"5000","市区町村コード":"01214","市区町村名":"稚内市","大字コード":"601","丁目コード":"000","小字コード":"0000","予備コード":"00","大字名":"字メナシベツ","丁目名":null,"小字名":null,"予備名":null,"地番":"4505","精度区分":null,"座標値種別":null,"筆界未定構成筆":null,"代表点緯度":4276.442,"代表点経度":3821.14795498}},{"type":"MultiPolygon","arcs":[[[95]]],"properties":{"筆ID":"H000000049","version":"ver1.0","座標系":"任意座標系","測地系判別":null,"地図名":"H20450301214043","地図番号":"殖-2","縮尺分母":"5000","市区町村コード":"01214","市区町村名":"稚内市","大字コード":"601","丁目コード":"000","小字コード":"0000","予備コード":"00","大字名":"字メナシベツ","丁目名":null,"小字名":null,"予備名":null,"地番":"4502","精度区分":null,"座標値種別":null,"筆界未定構成筆":null,"代表点緯度":4395.69,"代表点経度":3961.929896571}},{"type":"MultiPolygon","arcs":[[[96,97]]],"properties":{"筆ID":"H000000050","version":"ver1.0","座標系":"任意座標系","測地系判別":null,"地図名":"H20450301214043","地図番号":"殖-2","縮尺分母":"5000","市区町村コード":"01214","市区町村名":"稚内市","大字コード":"601","丁目コード":"000","小字コード":"0000","予備コード":"00","大字名":"字メナシベツ","丁目名":null,"小字名":null,"予備名":null,"地番":"4495-1","精度区分":null,"座標値種別":null,"筆界未定構成筆":null,"代表点緯度":4533.327,"代表点経度":4271.047769446}},{"type":"MultiPolygon","arcs":[[[98,99,100,101]]],"properties":{"筆ID":"H000000051","version":"ver1.0","座標系":"任意座標系","測地系判別":null,"地図名":"H20450301214043","地図番号":"殖-2","縮尺分母":"5000","市区町村コード":"01214","市区町村名":"稚内市","大字コード":"601","丁目コード":"000","小字コード":"0000","予備コード":"00","大字名":"字メナシベツ","丁目名":null,"小字名":null,"予備名":null,"地番":"5126-1","精度区分":null,"座標値種別":null,"筆界未定構成筆":null,"代表点緯度":4637.38,"代表点経度":4337.220303492}},{"type":"MultiPolygon","arcs":[[[102,103,104,-99,105]]],"properties":{"筆ID":"H000000052","version":"ver1.0","座標系":"任意座標系","測地系判別":null,"地図名":"H20450301214043","地図番号":"殖-2","縮尺分母":"5000","市区町村コード":"01214","市区町村名":"稚内市","大字コード":"601","丁目コード":"000","小字コード":"0000","予備コード":"00","大字名":"字メナシベツ","丁目名":null,"小字名":null,"予備名":null,"地番":"5126-2","精度区分":null,"座標値種別":null,"筆界未定構成筆":null,"代表点緯度":4616.397,"代表点経度":4362.624064885}},{"type":"MultiPolygon","arcs":[[[-103,106]]],"properties":{"筆ID":"H000000053","version":"ver1.0","座標系":"任意座標系","測地系判別":null,"地図名":"H20450301214043","地図番号":"殖-2","縮尺分母":"5000","市区町村コード":"01214","市区町村名":"稚内市","大字コード":"601","丁目コード":"000","小字コード":"0000","予備コード":"00","大字名":"字メナシベツ","丁目名":null,"小字名":null,"予備名":null,"地番":"5126-3","精度区分":null,"座標値種別":null,"筆界未定構成筆":null,"代表点緯度":4621.2475,"代表点経度":4380.424417818}},{"type":"MultiPolygon","arcs":[[[107,108,109,110,111]]],"properties":{"筆ID":"H000000054","version":"ver1.0","座標系":"任意座標系","測地系判別":null,"地図名":"H20450301214043","地図番号":"殖-2","縮尺分母":"5000","市区町村コード":"01214","市区町村名":"稚内市","大字コード":"601","丁目コード":"000","小字コード":"0000","予備コード":"00","大字名":"字メナシベツ","丁目名":null,"小字名":null,"予備名":null,"地番":"5123-3","精度区分":null,"座標値種別":null,"筆界未定構成筆":null,"代表点緯度":4810.7195,"代表点経度":4557.466182374}},{"type":"MultiPolygon","arcs":[[[112,113,114,115,-110]]],"properties":{"筆ID":"H000000055","version":"ver1.0","座標系":"任意座標系","測地系判別":null,"地図名":"H20450301214043","地図番号":"殖-2","縮尺分母":"5000","市区町村コード":"01214","市区町村名":"稚内市","大字コード":"601","丁目コード":"000","小字コード":"0000","予備コード":"00","大字名":"字メナシベツ","丁目名":null,"小字名":null,"予備名":null,"地番":"5124-3","精度区分":null,"座標値種別":null,"筆界未定構成筆":null,"代表点緯度":4771.714,"代表点経度":4488.413708888}},{"type":"MultiPolygon","arcs":[[[116,-115,117,-85]]],"properties":{"筆ID":"H000000056","version":"ver1.0","座標系":"任意座標系","測地系判別":null,"地図名":"H20450301214043","地図番号":"殖-2","縮尺分母":"5000","市区町村コード":"01214","市区町村名":"稚内市","大字コード":"601","丁目コード":"000","小字コード":"0000","予備コード":"00","大字名":"字メナシベツ","丁目名":null,"小字名":null,"予備名":null,"地番":"5124-2","精度区分":null,"座標値種別":null,"筆界未定構成筆":null,"代表点緯度":4781.6315,"代表点経度":4460.97678832}},{"type":"MultiPolygon","arcs":[[[118,-111,-116,119]]],"properties":{"筆ID":"H000000057","version":"ver1.0","座標系":"任意座標系","測地系判別":null,"地図名":"H20450301214043","地図番号":"殖-2","縮尺分母":"5000","市区町村コード":"01214","市区町村名":"稚内市","大字コード":"601","丁目コード":"000","小字コード":"0000","予備コード":"00","大字名":"字メナシベツ","丁目名":null,"小字名":null,"予備名":null,"地番":"5123-2","精度区分":null,"座標値種別":null,"筆界未定構成筆":null,"代表点緯度":4819.923,"代表点経度":4541.730677022}},{"type":"MultiPolygon","arcs":[[[120,121,-112,122]]],"properties":{"筆ID":"H000000058","version":"ver1.0","座標系":"任意座標系","測地系判別":null,"地図名":"H20450301214043","地図番号":"殖-2","縮尺分母":"5000","市区町村コード":"01214","市区町村名":"稚内市","大字コード":"601","丁目コード":"000","小字コード":"0000","予備コード":"00","大字名":"字メナシベツ","丁目名":null,"小字名":null,"予備名":null,"地番":"5121-2","精度区分":null,"座標値種別":null,"筆界未定構成筆":null,"代表点緯度":4853.439,"代表点経度":4623.105047785}},{"type":"MultiPolygon","arcs":[[[123,-123,-119,124]]],"properties":{"筆ID":"H000000059","version":"ver1.0","座標系":"任意座標系","測地系判別":null,"地図名":"H20450301214043","地図番号":"殖-2","縮尺分母":"5000","市区町村コード":"01214","市区町村名":"稚内市","大字コード":"601","丁目コード":"000","小字コード":"0000","予備コード":"00","大字名":"字メナシベツ","丁目名":null,"小字名":null,"予備名":null,"地番":"5121-1","精度区分":null,"座標値種別":null,"筆界未定構成筆":null,"代表点緯度":4893.639,"代表点経度":4639.589492831}},{"type":"MultiPolygon","arcs":[[[125,126,-109]]],"properties":{"筆ID":"H000000060","version":"ver1.0","座標系":"任意座標系","測地系判別":null,"地図名":"H20450301214043","地図番号":"殖-2","縮尺分母":"5000","市区町村コード":"01214","市区町村名":"稚内市","大字コード":"601","丁目コード":"000","小字コード":"0000","予備コード":"00","大字名":"字メナシベツ","丁目名":null,"小字名":null,"予備名":null,"地番":"5123-1","精度区分":null,"座標値種別":null,"筆界未定構成筆":null,"代表点緯度":4813.022,"代表点経度":4596.773203784}},{"type":"MultiPolygon","arcs":[[[127,-113,-127]]],"properties":{"筆ID":"H000000061","version":"ver1.0","座標系":"任意座標系","測地系判別":null,"地図名":"H20450301214043","地図番号":"殖-2","縮尺分母":"5000","市区町村コード":"01214","市区町村名":"稚内市","大字コード":"601","丁目コード":"000","小字コード":"0000","予備コード":"00","大字名":"字メナシベツ","丁目名":null,"小字名":null,"予備名":null,"地番":"5124-1","精度区分":null,"座標値種別":null,"筆界未定構成筆":null,"代表点緯度":4762.302,"代表点経度":4511.056271326}},{"type":"MultiPolygon","arcs":[[[128]]],"properties":{"筆ID":"H000000062","version":"ver1.0","座標系":"任意座標系","測地系判別":null,"地図名":"H20450301214043","地図番号":"殖-2","縮尺分母":"5000","市区町村コード":"01214","市区町村名":"稚内市","大字コード":"601","丁目コード":"000","小字コード":"0000","予備コード":"00","大字名":"字メナシベツ","丁目名":null,"小字名":null,"予備名":null,"地番":"5120","精度区分":null,"座標値種別":null,"筆界未定構成筆":null,"代表点緯度":4912.3435,"代表点経度":4523.4376505}},{"type":"MultiPolygon","arcs":[[[-9,129,-121,-124,130,-88,131,-90,132]]],"properties":{"筆ID":"H000000063","version":"ver1.0","座標系":"任意座標系","測地系判別":null,"地図名":"H20450301214043","地図番号":"殖-2","縮尺分母":"5000","市区町村コード":"01214","市区町村名":"稚内市","大字コード":"000","丁目コード":"000","小字コード":"0000","予備コード":"00","大字名":null,"丁目名":null,"小字名":null,"予備名":null,"地番":"地区外-167951","精度区分":null,"座標値種別":"図上測量","筆界未定構成筆":null,"代表点緯度":5146.0585,"代表点経度":4811.541507873}},{"type":"MultiPolygon","arcs":[[[-101,133]]],"properties":{"筆ID":"H000000064","version":"ver1.0","座標系":"任意座標系","測地系判別":null,"地図名":"H20450301214043","地図番号":"殖-2","縮尺分母":"5000","市区町村コード":"01214","市区町村名":"稚内市","大字コード":"601","丁目コード":"000","小字コード":"0000","予備コード":"00","大字名":"字メナシベツ","丁目名":null,"小字名":null,"予備名":null,"地番":"水-1","精度区分":null,"座標値種別":"図上測量","筆界未定構成筆":null,"代表点緯度":4577.197,"代表点経度":4259.192402433}},{"type":"MultiPolygon","arcs":[[[-65,134]]],"properties":{"筆ID":"H000000065","version":"ver1.0","座標系":"任意座標系","測地系判別":null,"地図名":"H20450301214043","地図番号":"殖-2","縮尺分母":"5000","市区町村コード":"01214","市区町村名":"稚内市","大字コード":"601","丁目コード":"000","小字コード":"0000","予備コード":"00","大字名":"字メナシベツ","丁目名":null,"小字名":null,"予備名":null,"地番":"長狭物不明-1","精度区分":null,"座標値種別":null,"筆界未定構成筆":null,"代表点緯度":4546.74,"代表点経度":4142.907576502}},{"type":"MultiPolygon","arcs":[[[135,136,-29]]],"properties":{"筆ID":"H000000066","version":"ver1.0","座標系":"任意座標系","測地系判別":null,"地図名":"H20450301214043","地図番号":"殖-2","縮尺分母":"5000","市区町村コード":"01214","市区町村名":"稚内市","大字コード":"601","丁目コード":"000","小字コード":"0000","予備コード":"00","大字名":"字メナシベツ","丁目名":null,"小字名":null,"予備名":null,"地番":"4821","精度区分":null,"座標値種別":"図上測量","筆界未定構成筆":null,"代表点緯度":4395.2875,"代表点経度":3212.860163908}},{"type":"MultiPolygon","arcs":[[[-30,-137,137]]],"properties":{"筆ID":"H000000067","version":"ver1.0","座標系":"任意座標系","測地系判別":null,"地図名":"H20450301214043","地図番号":"殖-2","縮尺分母":"5000","市区町村コード":"01214","市区町村名":"稚内市","大字コード":"601","丁目コード":"000","小字コード":"0000","予備コード":"00","大字名":"字メナシベツ","丁目名":null,"小字名":null,"予備名":null,"地番":"筆界未定地-2","精度区分":null,"座標値種別":null,"筆界未定構成筆":[{"大字コード":"601","丁目コード":"000","小字コード":"0000","予備コード":"00","大字名":"字メナシベツ","地番":"6174"},{"大字コード":"601","丁目コード":"000","小字コード":"0000","予備コード":"00","大字名":"字メナシベツ","地番":"6175"},{"大字コード":"601","丁目コード":"000","小字コード":"0000","予備コード":"00","大字名":"字メナシベツ","地番":"6176"},{"大字コード":"601","丁目コード":"000","小字コード":"0000","予備コード":"00","大字名":"字メナシベツ","地番":"6177"},{"大字コード":"601","丁目コード":"000","小字コード":"0000","予備コード":"00","大字名":"字メナシベツ","地番":"6379"}],"代表点緯度":4647.1495,"代表点経度":3363.386773027}},{"type":"MultiPolygon","arcs":[[[138,139]]],"properties":{"筆ID":"H000000068","version":"ver1.0","座標系":"任意座標系","測地系判別":null,"地図名":"H20450301214043","地図番号":"殖-2","縮尺分母":"5000","市区町村コード":"01214","市区町村名":"稚内市","大字コード":"601","丁目コード":"000","小字コード":"0000","予備コード":"00","大字名":"字メナシベツ","丁目名":null,"小字名":null,"予備名":null,"地番":"4507","精度区分":null,"座標値種別":"図上測量","筆界未定構成筆":null,"代表点緯度":4060.9605,"代表点経度":3348.104328507}},{"type":"MultiPolygon","arcs":[[[140,-51,141]]],"properties":{"筆ID":"H000000069","version":"ver1.0","座標系":"任意座標系","測地系判別":null,"地図名":"H20450301214043","地図番号":"殖-2","縮尺分母":"5000","市区町村コード":"01214","市区町村名":"稚内市","大字コード":"601","丁目コード":"000","小字コード":"0000","予備コード":"00","大字名":"字メナシベツ","丁目名":null,"小字名":null,"予備名":null,"地番":"6081-2","精度区分":null,"座標値種別":null,"筆界未定構成筆":null,"代表点緯度":3990.015,"代表点経度":3174.208787237}},{"type":"MultiPolygon","arcs":[[[142,143]]],"properties":{"筆ID":"H000000070","version":"ver1.0","座標系":"任意座標系","測地系判別":null,"地図名":"H20450301214043","地図番号":"殖-2","縮尺分母":"5000","市区町村コード":"01214","市区町村名":"稚内市","大字コード":"601","丁目コード":"000","小字コード":"0000","予備コード":"00","大字名":"字メナシベツ","丁目名":null,"小字名":null,"予備名":null,"地番":"6836-1","精度区分":null,"座標値種別":null,"筆界未定構成筆":null,"代表点緯度":4837.826,"代表点経度":4253.794267174}},{"type":"MultiPolygon","arcs":[[[144,-143]]],"properties":{"筆ID":"H000000071","version":"ver1.0","座標系":"任意座標系","測地系判別":null,"地図名":"H20450301214043","地図番号":"殖-2","縮尺分母":"5000","市区町村コード":"01214","市区町村名":"稚内市","大字コード":"601","丁目コード":"000","小字コード":"0000","予備コード":"00","大字名":"字メナシベツ","丁目名":null,"小字名":null,"予備名":null,"地番":"6836-2","精度区分":null,"座標値種別":null,"筆界未定構成筆":null,"代表点緯度":4749.3915,"代表点経度":4323.222671092}},{"type":"MultiPolygon","arcs":[[[-139,145,-55,-141,146]]],"properties":{"筆ID":"H000000072","version":"ver1.0","座標系":"任意座標系","測地系判別":null,"地図名":"H20450301214043","地図番号":"殖-2","縮尺分母":"5000","市区町村コード":"01214","市区町村名":"稚内市","大字コード":"601","丁目コード":"000","小字コード":"0000","予備コード":"00","大字名":"字メナシベツ","丁目名":null,"小字名":null,"予備名":null,"地番":"6081-1","精度区分":null,"座標値種別":null,"筆界未定構成筆":null,"代表点緯度":4062.0415,"代表点経度":3195.4674944}},{"type":"MultiPolygon","arcs":[[[147,148]]],"properties":{"筆ID":"H000000073","version":"ver1.0","座標系":"任意座標系","測地系判別":null,"地図名":"H20450301214043","地図番号":"殖-2","縮尺分母":"5000","市区町村コード":"01214","市区町村名":"稚内市","大字コード":"601","丁目コード":"000","小字コード":"0000","予備コード":"00","大字名":"字メナシベツ","丁目名":null,"小字名":null,"予備名":null,"地番":"6082-1","精度区分":null,"座標値種別":null,"筆界未定構成筆":null,"代表点緯度":3900.6825,"代表点経度":3034.962880611}},{"type":"MultiPolygon","arcs":[[[149,150]]],"properties":{"筆ID":"H000000074","version":"ver1.0","座標系":"任意座標系","測地系判別":null,"地図名":"H20450301214043","地図番号":"殖-2","縮尺分母":"5000","市区町村コード":"01214","市区町村名":"稚内市","大字コード":"601","丁目コード":"000","小字コード":"0000","予備コード":"00","大字名":"字メナシベツ","丁目名":null,"小字名":null,"予備名":null,"地番":"6082-3","精度区分":null,"座標値種別":null,"筆界未定構成筆":null,"代表点緯度":3928.195,"代表点経度":2848.559319501}},{"type":"MultiPolygon","arcs":[[[-148,151,-150,152]]],"properties":{"筆ID":"H000000075","version":"ver1.0","座標系":"任意座標系","測地系判別":null,"地図名":"H20450301214043","地図番号":"殖-2","縮尺分母":"5000","市区町村コード":"01214","市区町村名":"稚内市","大字コード":"601","丁目コード":"000","小字コード":"0000","予備コード":"00","大字名":"字メナシベツ","丁目名":null,"小字名":null,"予備名":null,"地番":"6082-2","精度区分":null,"座標値種別":null,"筆界未定構成筆":null,"代表点緯度":3911.8565,"代表点経度":2916.355558757}},{"type":"MultiPolygon","arcs":[[[153,154]]],"properties":{"筆ID":"H000000076","version":"ver1.0","座標系":"任意座標系","測地系判別":null,"地図名":"H20450301214043","地図番号":"殖-2","縮尺分母":"5000","市区町村コード":"01214","市区町村名":"稚内市","大字コード":"601","丁目コード":"000","小字コード":"0000","予備コード":"00","大字名":"字メナシベツ","丁目名":null,"小字名":null,"予備名":null,"地番":"4512-1","精度区分":null,"座標値種別":null,"筆界未定構成筆":null,"代表点緯度":3841.718,"代表点経度":2718.332910208}},{"type":"MultiPolygon","arcs":[[[155,-154]]],"properties":{"筆ID":"H000000077","version":"ver1.0","座標系":"任意座標系","測地系判別":null,"地図名":"H20450301214043","地図番号":"殖-2","縮尺分母":"5000","市区町村コード":"01214","市区町村名":"稚内市","大字コード":"601","丁目コード":"000","小字コード":"0000","予備コード":"00","大字名":"字メナシベツ","丁目名":null,"小字名":null,"予備名":null,"地番":"4512-2","精度区分":null,"座標値種別":null,"筆界未定構成筆":null,"代表点緯度":3782.4355,"代表点経度":2673.611888331}},{"type":"MultiPolygon","arcs":[[[156,157,158,159]]],"properties":{"筆ID":"H000000078","version":"ver1.0","座標系":"任意座標系","測地系判別":null,"地図名":"H20450301214043","地図番号":"殖-2","縮尺分母":"5000","市区町村コード":"01214","市区町村名":"稚内市","大字コード":"601","丁目コード":"000","小字コード":"0000","予備コード":"00","大字名":"字メナシベツ","丁目名":null,"小字名":null,"予備名":null,"地番":"6837","精度区分":null,"座標値種別":"図上測量","筆界未定構成筆":null,"代表点緯度":3984.3395,"代表点経度":3360.535360442}},{"type":"MultiPolygon","arcs":[[[160,161,162,-76]]],"properties":{"筆ID":"H000000079","version":"ver1.0","座標系":"任意座標系","測地系判別":null,"地図名":"H20450301214043","地図番号":"殖-2","縮尺分母":"5000","市区町村コード":"01214","市区町村名":"稚内市","大字コード":"601","丁目コード":"000","小字コード":"0000","予備コード":"00","大字名":"字メナシベツ","丁目名":null,"小字名":null,"予備名":null,"地番":"6838","精度区分":null,"座標値種別":"図上測量","筆界未定構成筆":null,"代表点緯度":4207.615,"代表点経度":3851.524650317}},{"type":"MultiPolygon","arcs":[[[163,164]]],"properties":{"筆ID":"H000000080","version":"ver1.0","座標系":"任意座標系","測地系判別":null,"地図名":"H20450301214043","地図番号":"殖-2","縮尺分母":"5000","市区町村コード":"01214","市区町村名":"稚内市","大字コード":"601","丁目コード":"000","小字コード":"0000","予備コード":"00","大字名":"字メナシベツ","丁目名":null,"小字名":null,"予備名":null,"地番":"6839","精度区分":null,"座標値種別":"図上測量","筆界未定構成筆":null,"代表点緯度":4431.375,"代表点経度":4128.300629156}},{"type":"MultiPolygon","arcs":[[[-105,165,166,167]]],"properties":{"筆ID":"H000000081","version":"ver1.0","座標系":"任意座標系","測地系判別":null,"地図名":"H20450301214043","地図番号":"殖-2","縮尺分母":"5000","市区町村コード":"01214","市区町村名":"稚内市","大字コード":"601","丁目コード":"000","小字コード":"0000","予備コード":"00","大字名":"字メナシベツ","丁目名":null,"小字名":null,"予備名":null,"地番":"6840","精度区分":null,"座標値種別":"図上測量","筆界未定構成筆":null,"代表点緯度":4520.4805,"代表点経度":4290.573858947}},{"type":"MultiPolygon","arcs":[[[-63,168,-157,169]]],"properties":{"筆ID":"H000000082","version":"ver1.0","座標系":"任意座標系","測地系判別":null,"地図名":"H20450301214043","地図番号":"殖-2","縮尺分母":"5000","市区町村コード":"01214","市区町村名":"稚内市","大字コード":"601","丁目コード":"000","小字コード":"0000","予備コード":"00","大字名":"字メナシベツ","丁目名":null,"小字名":null,"予備名":null,"地番":"4523-2","精度区分":null,"座標値種別":"図上測量","筆界未定構成筆":null,"代表点緯度":3981.182,"代表点経度":3390.766971163}},{"type":"MultiPolygon","arcs":[[[170,-159,171,-32]]],"properties":{"筆ID":"H000000083","version":"ver1.0","座標系":"任意座標系","測地系判別":null,"地図名":"H20450301214043","地図番号":"殖-2","縮尺分母":"5000","市区町村コード":"01214","市区町村名":"稚内市","大字コード":"601","丁目コード":"000","小字コード":"0000","予備コード":"00","大字名":"字メナシベツ","丁目名":null,"小字名":null,"予備名":null,"地番":"4509-2","精度区分":null,"座標値種別":"図上測量","筆界未定構成筆":null,"代表点緯度":3963.039,"代表点経度":3346.48243607}},{"type":"MultiPolygon","arcs":[[[-162,172,-34]]],"properties":{"筆ID":"H000000084","version":"ver1.0","座標系":"任意座標系","測地系判別":null,"地図名":"H20450301214043","地図番号":"殖-2","縮尺分母":"5000","市区町村コード":"01214","市区町村名":"稚内市","大字コード":"601","丁目コード":"000","小字コード":"0000","予備コード":"00","大字名":"字メナシベツ","丁目名":null,"小字名":null,"予備名":null,"地番":"4515-2","精度区分":null,"座標値種別":"図上測量","筆界未定構成筆":null,"代表点緯度":4201.752,"代表点経度":3824.605679298}},{"type":"MultiPolygon","arcs":[[[173,-164]]],"properties":{"筆ID":"H000000085","version":"ver1.0","座標系":"任意座標系","測地系判別":null,"地図名":"H20450301214043","地図番号":"殖-2","縮尺分母":"5000","市区町村コード":"01214","市区町村名":"稚内市","大字コード":"601","丁目コード":"000","小字コード":"0000","予備コード":"00","大字名":"字メナシベツ","丁目名":null,"小字名":null,"予備名":null,"地番":"4498","精度区分":null,"座標値種別":null,"筆界未定構成筆":null,"代表点緯度":4431.375,"代表点経度":4135.506094226}},{"type":"MultiPolygon","arcs":[[[-167,174,-97]]],"properties":{"筆ID":"H000000086","version":"ver1.0","座標系":"任意座標系","測地系判別":null,"地図名":"H20450301214043","地図番号":"殖-2","縮尺分母":"5000","市区町村コード":"01214","市区町村名":"稚内市","大字コード":"601","丁目コード":"000","小字コード":"0000","予備コード":"00","大字名":"字メナシベツ","丁目名":null,"小字名":null,"予備名":null,"地番":"4495-2","精度区分":null,"座標値種別":null,"筆界未定構成筆":null,"代表点緯度":4518.187,"代表点経度":4285.847696697}}]}},"arcs":[[[545035,676358],[-41510,-182527]],[[503525,493831],[-2337,18724],[-20005,137391],[15947,10941],[8115,1735],[13032,24779]],[[518277,687401],[26758,-11043]],[[545035,676358],[2544,10820],[-6311,3760]],[[541268,690938],[-3241,2173]],[[538027,693111],[-5486,3678]],[[532541,696789],[-2163,1451]],[[530378,698240],[-18839,13635]],[[511539,711875],[38697,198234]],[[550236,910109],[156894,-106021],[-592,-3439],[25327,-75258],[0,-1129],[36827,-22264],[35633,-29382],[2238,-2042],[28671,-54427],[631,1755],[20089,-37670],[11936,-7981],[-1202,-4640],[40640,-9652],[1998,-1245],[90673,-173367],[-87325,-383347],[-226710,150406],[22156,99699],[-112414,75837],[20791,89603],[-112972,78286]],[[545035,676358],[-2424,9383]],[[542611,685741],[-1343,5197]],[[542611,685741],[-4584,7370]],[[532541,696789],[-5080,-1162]],[[527461,695627],[2917,2613]],[[518277,687401],[9184,8226]],[[194326,426998],[-37272,6931],[418,7755],[6277,1811],[3843,-1768],[3601,-5742],[9109,-101],[28416,33460],[-2465,-13421],[-3408,-6916],[-4244,2104],[-5977,-9599],[4776,-10261],[-3074,-4253]],[[233746,494268],[-8246,-17196],[-4387,4259],[-478,6760],[1982,7309],[23963,26869],[5360,-11962],[-10754,-15186],[-7440,-853]],[[230940,507065],[468,3819],[13111,15859]],[[244519,526743],[1116,-2824],[-14695,-16854]],[[217951,479065],[-2819,-286],[3359,4961],[-540,-4675]],[[213794,455508],[4732,15293],[4584,-2100],[-9316,-13193]],[[229068,420062],[-11926,9669],[640,3541],[2598,1400],[5780,-3617],[3408,-6042],[3082,-2537],[-3582,-2414]],[[158328,457541],[23850,-9263]],[[182178,448278],[22370,19363],[-25045,-29237],[-8399,729],[-2767,4985],[-4633,2189],[-6076,-1735],[700,12969]],[[139865,449712],[3361,18279]],[[143226,467991],[12925,-6166],[-715,-18230],[-10573,-1236],[-4998,7353]],[[139865,449712],[-13597,11406],[-3696,8661]],[[122572,469779],[1550,6],[1191,2297],[400,2469],[57,7136],[715,9117],[-636,3624],[-455,5156],[-1022,5751],[-157,4557],[1430,12047],[3085,12938],[5306,14958],[1296,7103],[3070,3882],[3711,1624],[1826,2943],[4483,8558],[1762,3867],[653,3246]],[[150837,581058],[9051,-25490]],[[159888,555568],[-16662,-87577]],[[148059,398953],[4713,-475]],[[152772,398478],[-199,-3630],[-6552,1117],[2038,2988]],[[258424,496250],[-6231,-9048],[-889,-1055]],[[251304,486147],[-1637,1116],[-6842,4662],[10843,14643],[4756,-10318]],[[250071,475932],[-11232,-14449]],[[238839,461483],[61,9529]],[[238900,471012],[6106,7881]],[[245006,478893],[2261,-1322],[2804,-1639]],[[250071,475932],[408,-238],[-3919,-4985],[-6830,-43682],[-4817,-3062],[-1079,719],[-3444,2295],[-3854,7140],[-7042,4637]],[[219494,438756],[3363,3732],[622,-1476],[15405,18485],[-137,374]],[[238747,459871],[82,59],[10,1553]],[[202201,428959],[-6703,-8675],[-4839,-4691],[-5519,-1758],[-5436,-299]],[[179704,413536],[-6576,4765],[-5717,8595],[15030,-2384],[12668,-3112],[5403,8128],[1689,-569]],[[202201,428959],[5948,-2002]],[[208149,426957],[-10519,-14150]],[[197630,412807],[-4308,788],[-8391,-3847],[-5227,3788]],[[208149,426957],[-5627,-15045],[-4892,895]],[[133981,419464],[483,-5779]],[[134464,413685],[-2155,1667]],[[132309,415352],[714,3881]],[[133023,419233],[958,231]],[[135473,432563],[18424,-3024],[-4365,-9454]],[[149532,420085],[-4059,-166],[-11492,-455]],[[133023,419233],[2450,13330]],[[149532,420085],[-3700,-8012],[-5934,-2590],[-5434,4202]],[[238900,471012],[46,7163],[2451,2827],[3609,-2109]],[[219494,438756],[-1824,-1150],[-2636,6732]],[[215034,444338],[13268,15705]],[[228302,460043],[2658,-5805],[7787,5633]],[[215034,444338],[-1783,4554],[12338,17075],[2713,-5924]],[[171574,399554],[4052,-3023],[-20723,-2156],[151,3368]],[[155054,397743],[13923,533],[2597,1278]],[[158328,457541],[368,6816],[-12711,6697],[15768,83551],[1319,6991],[10185,40466],[5721,7126],[28734,40938],[26912,38737],[20332,62217],[15140,47396],[44370,-99621],[19551,-40654]],[[334017,658201],[-9579,-14103],[-1947,-2866],[-10227,-32787],[-3943,-12641]],[[308321,595804],[-3999,-3465],[-2847,-2466],[-16237,-17477],[-13181,-10271],[-11703,-2105],[-372,329],[-2132,14704],[-1326,-2449],[2684,-16960],[-10577,-7807],[-4112,-21094]],[[230940,507065],[-3298,-3782],[-764,2122],[-44700,-57127]],[[310555,568533],[2177,1425]],[[312732,569958],[-2177,-3678],[0,2253]],[[340587,584639],[2232,-3724],[-3899,-7725],[-2684,6745]],[[336236,579935],[4351,4704]],[[336236,579935],[-677,1703],[3276,5924],[1752,-2923]],[[263102,503183],[-2400,-4832]],[[260702,498351],[-5188,11095],[11315,16333],[959,-5298],[-5562,-4635],[876,-12663]],[[263102,503183],[147,-2125],[-2109,-3642]],[[261140,497416],[-438,935]],[[310555,568533],[0,1720],[3005,1103],[-828,-1398]],[[281995,536520],[-6664,-7541],[-1874,-2327]],[[273457,526652],[-683,4313],[9221,5555]],[[303255,549020],[-16225,-17282],[256,-662],[-9078,-9491],[-3267,-4307]],[[274941,517278],[-1484,9374]],[[281995,536520],[5802,3495],[14895,14346],[563,-5341]],[[303255,549020],[205,-1942],[-14768,-15561],[-13297,-17106],[-454,2867]],[[370755,690518],[3424,-13789],[-23695,-34068],[873,11703],[8994,5330],[4296,9618],[-1275,7300],[7383,13906]],[[400461,713419],[-460,179],[-4283,2649],[-2941,442]],[[392777,716689],[9126,25805],[4502,6218],[7203,15321],[9390,-17542],[-22537,-33072]],[[435181,762991],[-10640,-14279],[-9647,18874],[5804,5615]],[[420698,773201],[4358,9262],[16078,-10437],[-5953,-9035]],[[419170,774278],[-5433,-4472],[-1286,2220],[572,6586]],[[413023,778612],[714,5183],[2701,4885],[6045,-4663],[-3579,-9551],[266,-188]],[[307479,580291],[38609,52647],[-7643,-24371],[-7254,-16292],[-12636,-16292],[-10919,-3771],[-157,8079]],[[302800,573559],[2730,4039],[-156,-5924],[-2574,1885]],[[294298,569385],[2730,1077],[-10296,-13465],[-1638,1347],[9204,11041]],[[246485,529529],[6318,3232],[-4992,-5925],[-1326,2693]],[[256547,533973],[13806,1346],[-16458,-21678],[-5304,11310],[7956,9022]],[[285874,568577],[5616,-269],[-7254,-8483],[-9126,-7271],[10764,16023]],[[355037,612980],[-1576,-1722]],[[353461,611258],[-2827,1904],[1826,5157],[2577,-5339]],[[379227,672925],[-1560,-3376],[-15622,-44132],[-2717,-5758],[-2452,-3431]],[[356876,616228],[-5335,11190],[-868,1821]],[[350673,629239],[590,10824]],[[351263,640063],[23852,34004],[4112,-1142]],[[381939,665192],[-12978,-36528]],[[368961,628664],[-10548,-15661]],[[358413,613003],[-1537,3225]],[[379227,672925],[19,-5],[715,-169],[6325,5685],[-4347,-13244]],[[381939,665192],[-10357,-32886],[-2621,-3642]],[[425859,729081],[1320,-1841]],[[427179,727240],[-16360,-16599]],[[410819,710641],[-3691,-432],[-4514,2319]],[[402614,712528],[21455,21408]],[[424069,733936],[1790,-4855]],[[410819,710641],[-18598,-17870]],[[392221,692771],[-20,411],[-1340,3372],[-1190,3717]],[[389671,700271],[12526,12472]],[[402197,712743],[417,-215]],[[400461,713419],[1736,-676]],[[389671,700271],[-27,85],[-511,4966],[767,7283],[2877,4084]],[[422689,742007],[1380,-8071]],[[402197,712743],[20492,29264]],[[434094,741561],[-156,-574],[-2006,-7381]],[[431932,733606],[-6073,-4525]],[[424069,733936],[3708,3973],[6317,3652]],[[435305,760024],[5833,7461],[-7044,-25924]],[[422689,742007],[12616,18017]],[[427179,727240],[342,-477],[-575,-4193],[-1407,-3642],[-5050,-6401],[-3580,-1324]],[[416909,711203],[-6009,-552],[-81,-10]],[[416909,711203],[-25347,-27622],[959,2980],[-300,6210]],[[410907,769584],[1801,-3108],[-7718,-15988],[2959,15099],[2958,3997]],[[511539,711875],[-24629,-35647],[-23318,-26596],[-11258,13232],[-7940,49444],[-3795,2117],[-15735,-116],[7068,19297]],[[435305,760024],[577,2473],[-701,494]],[[420698,773201],[-1528,1077]],[[413023,778612],[-3264,2301],[-13042,121974],[20496,97112],[133023,-89890]],[[350673,629239],[-2834,5943],[3424,4881]],[[334017,658201],[1446,-3092],[7033,-15040],[1773,-3791],[-2230,-3171],[-23550,-33488],[-3637,1339],[-583,215],[-5948,-5369]],[[122572,469779],[-2596,6080]],[[119976,475859],[4102,24441],[-41763,118441],[27669,29394],[11587,10936],[29266,-78013]],[[119976,475859],[-22015,-7787],[-13826,-24521],[-46211,6866],[47537,112142],[-15991,45436],[17644,49882],[-5753,57386],[78663,108262],[12054,27883],[10740,2649],[45644,19423],[5416,-33638],[1031,-1779],[-13206,-63255],[-4428,-42057],[-18565,-42907],[-9819,-30724],[-2817,-3671],[-4731,-21630],[-2429,-3753],[-3196,-11035],[-4475,-5298],[-11355,-58165]],[[136085,437180],[981,6140]],[[137066,443320],[1820,79],[2562,-4203],[3595,-1600],[10485,2801],[-83,-6124],[-19360,2907]],[[100582,415212],[32441,4021]],[[132309,415352],[-6366,682],[-6457,-9160],[-10228,1435],[-8676,6903]],[[397871,742746],[-12041,-13792],[-8706,-12863],[-8189,-6496],[-2361,-2547],[-1918,-4457],[-3837,-11463],[-3246,-6368],[-3615,-6241],[-1771,-3056],[-1549,-4840],[-1899,-9450]],[[348739,661173],[-2046,-4745],[-36285,74740],[37522,73079],[29413,-3322],[6460,-46742],[8797,-12575],[5271,1138]],[[397871,742746],[1326,286],[-30100,-38201],[-13607,-27998],[-6751,-15660]],[[136085,437180],[-612,-4617]],[[100582,415212],[-6859,5457],[-4538,1435],[0,2759],[4538,10042],[2941,-441],[5626,5959],[1726,552],[6840,13133],[2813,7504],[2429,3642],[5562,-10815],[15406,-9712],[0,-1407]],[[45071,359368],[29185,27221],[12295,6941],[15493,2789]],[[102044,396319],[209,-210],[4016,-4040],[8170,-177],[-20119,-22038],[-2962,-6700],[-48819,-16044],[2532,12258]],[[66592,400569],[-25526,-22325]],[[41066,378244],[-2052,4049],[-7940,133],[4372,12250],[8401,1787],[11046,596],[11699,3510]],[[45071,359368],[1461,8093],[-5466,10783]],[[66592,400569],[1419,397],[17184,8409],[6866,-2847],[9983,-10209]],[[18706,354503],[-12707,-12354]],[[5999,342149],[8704,25227],[3836,-9712],[167,-3161]],[[18706,354503],[728,-13834],[-9589,331],[-5690,-14015],[-4155,-1656],[5945,16665],[54,155]],[[155727,412751],[-386,-8614]],[[155341,404137],[-2249,175]],[[153092,404312],[121,2195]],[[153213,406507],[323,6771],[2227,-132],[-36,-395]],[[261140,497416],[2701,-5812],[-333,-707],[-1663,-2384],[-2987,6794]],[[258858,495307],[-434,943]],[[258424,496250],[222,299],[2056,1802]],[[323937,579753],[-3510,-4578]],[[320427,575175],[-5503,-3170],[9777,8874],[-764,-1126]],[[358413,613003],[-1385,-4149]],[[357028,608854],[-1991,4126]],[[355037,612980],[718,870],[1121,2378]],[[155054,397743],[287,6394]],[[155727,412751],[2826,2593],[4592,-805],[8429,-14985]],[[148059,398953],[5154,7554]],[[153092,404312],[-320,-5834]],[[258858,495307],[-6890,-9612],[-664,452]],[[323937,579753],[468,-7810],[-3978,3232]],[[357028,608854],[-3567,2404]]],"bbox":[2650.718,2893.27,7245.758,5556.82],"transform":{"scale":[0.004595044595044595,0.0026635526635526634],"translate":[2650.718,2893.27]}}
