{"type":"Topology","objects":{"01209-4301-14.featurecollection":{"type":"GeometryCollection","geometries":[{"type":"Polygon","arcs":[[0,1,2]],"properties":{"市区町村名":"夕張市","大字名":"紅葉山","丁目名":null,"小字名":null,"地番":"390-1","精度区分":null,"座標系":"任意座標系"}},{"type":"Polygon","arcs":[[3,4,5,6]],"properties":{"市区町村名":"夕張市","大字名":"紅葉山","丁目名":null,"小字名":null,"地番":"391-5","精度区分":null,"座標系":"任意座標系"}},{"type":"Polygon","arcs":[[7,8,-7,9,10]],"properties":{"市区町村名":"夕張市","大字名":"紅葉山","丁目名":null,"小字名":null,"地番":"392","精度区分":null,"座標系":"任意座標系"}},{"type":"Polygon","arcs":[[11,-2,12,-5,13,14,15,16,17,18,19,20,-11,21]],"properties":{"市区町村名":"夕張市","大字名":"紅葉山","丁目名":null,"小字名":null,"地番":"497","精度区分":null,"座標系":"任意座標系"}},{"type":"Polygon","arcs":[[22,-3,-12]],"properties":{"市区町村名":"夕張市","大字名":"紅葉山","丁目名":null,"小字名":null,"地番":"390-2","精度区分":null,"座標系":"任意座標系"}},{"type":"Polygon","arcs":[[-4,-9,23,-14]],"properties":{"市区町村名":"夕張市","大字名":"紅葉山","丁目名":null,"小字名":null,"地番":"391-6","精度区分":null,"座標系":"任意座標系"}},{"type":"Polygon","arcs":[[24,25,-15,-24,-8,-21]],"properties":{"市区町村名":"夕張市","大字名":"紅葉山","丁目名":null,"小字名":null,"地番":"391-1","精度区分":null,"座標系":"任意座標系"}},{"type":"Polygon","arcs":[[-17,26,27]],"properties":{"市区町村名":"夕張市","大字名":"紅葉山","丁目名":null,"小字名":null,"地番":"391-7","精度区分":null,"座標系":"任意座標系"}},{"type":"Polygon","arcs":[[28,-18,-28,29,30,31,-25,-20]],"properties":{"市区町村名":"夕張市","大字名":"紅葉山","丁目名":null,"小字名":null,"地番":"391-4","精度区分":null,"座標系":"任意座標系"}},{"type":"Polygon","arcs":[[-29,-19]],"properties":{"市区町村名":"夕張市","大字名":"紅葉山","丁目名":null,"小字名":null,"地番":"391-9","精度区分":null,"座標系":"任意座標系"}},{"type":"Polygon","arcs":[[32,33,-30,-27,-16,-26]],"properties":{"市区町村名":"夕張市","大字名":"紅葉山","丁目名":null,"小字名":null,"地番":"391-2","精度区分":null,"座標系":"任意座標系"}},{"type":"Polygon","arcs":[[-32,34,-33]],"properties":{"市区町村名":"夕張市","大字名":"紅葉山","丁目名":null,"小字名":null,"地番":"391-8","精度区分":null,"座標系":"任意座標系"}},{"type":"Polygon","arcs":[[-35,-31,-34]],"properties":{"市区町村名":"夕張市","大字名":"紅葉山","丁目名":null,"小字名":null,"地番":"391-3","精度区分":null,"座標系":"任意座標系"}}]}},"arcs":[[[129797,483679],[46848,117489],[40490,109960],[29040,47697],[11060,99651],[-139922,98897],[83307,10277],[67471,26636],[11980,-9216],[98524,-53421],[105203,-1754]],[[483798,929895],[-29596,-115727],[-16271,-23238],[-21238,-39273],[-17904,-99605],[9122,-11618],[-35239,-46110],[35709,-98116],[-2470,-30340],[-3264,-7709]],[[402647,458159],[-272850,25520]],[[688867,708414],[-101848,40342],[-159362,-17003]],[[427657,731753],[3371,15965],[23114,42229],[16010,23128],[16513,74133],[13808,50061]],[[500473,937269],[40583,17944],[154675,8562],[36081,12586]],[[731812,976361],[-5910,-37243],[-12078,-74822],[-19665,-123322],[-5292,-32560]],[[654286,279047],[-1354,92083],[2389,39483],[-4541,63473],[24532,150927]],[[675312,625013],[13555,83401]],[[731812,976361],[72538,23638],[62961,-45558],[60794,-74834],[71894,-54061],[-17716,-80080],[-8612,-79644],[-19183,-157528],[1692,-42161]],[[956180,466133],[-116083,-96333],[-98115,-68027],[-87696,-22726]],[[49366,5117],[40529,8400],[62154,23914],[29817,23907],[36326,49607],[17540,13453],[4641,115294],[21878,42075],[12327,13007],[1045,6848],[79711,83652],[25057,20314],[22256,52571]],[[483798,929895],[16675,7374]],[[427657,731753],[-15410,-73017],[16256,-19377],[-28011,-35930]],[[400492,603429],[-10255,-13155],[29363,-81313]],[[419600,508961],[704,-1954]],[[420304,507007],[3846,-10651],[-4086,-34968],[-28549,-67944],[-28619,-22093],[-48854,-51556]],[[314042,319795],[-37658,-37460],[-1755,-9378],[-20922,-35852],[-654,-21028],[-1222,-39138]],[[251831,176939],[-1909,-61165],[-23692,-17950],[-25663,-36698]],[[200567,61126],[-7573,-10831],[14363,3913]],[[207357,54208],[619,169],[75504,10898],[96707,-30154],[156667,-5643],[62521,67626],[24892,78297],[18813,100741],[11206,2905]],[[956180,466133],[774,-19277],[-111459,-93744],[-98893,-65931],[-90239,-23767],[-17927,-92613],[-23614,-80762],[-70243,-75983],[-69401,1915],[-103773,5404],[-88686,27733],[-13278,-2571],[-62766,-8738],[-113505,-37799],[-43804,5117]],[[49366,5117],[-22173,2592],[-27193,28014],[52167,42024],[33951,96759],[33478,91245],[3441,114572],[-14573,50486],[21333,52870]],[[675312,625013],[-43050,32765],[-60993,10536],[-60834,14965],[-22163,-16996],[-21452,-26434],[-27829,-21899],[-38499,-14521]],[[207357,54208],[26934,16599],[75906,14159],[30706,23095],[-17771,28212],[-32249,17698],[-19553,12453],[-14167,18182]],[[257163,184606],[107913,-44135],[26849,10953],[103486,-38387],[88690,178438],[22139,36136],[24632,104438],[-4680,31848],[29512,140715],[-140753,15839],[-14626,-29293],[-81951,-8582],[1226,-73615]],[[420304,507007],[20521,-195],[22426,-13121],[-30410,-86248],[2144,-8825]],[[434985,398618],[-11765,3735],[-21319,-8675],[-32151,-24441],[-55708,-49442]],[[200567,61126],[31403,18019],[74999,14047],[23080,16818],[-12673,20127],[-25588,13405],[-28069,19076],[-11888,14321]],[[434985,398618],[2283,-9388]],[[437268,389230],[-13783,4709],[-18024,-6789],[-15797,-11082],[-53277,-48031]],[[336387,328037],[-34389,-31004],[-5371,-2194],[-19693,-21345],[-12619,-20361],[-10306,-36932],[3154,-31595]],[[257163,184606],[21635,46864],[19187,36590],[50952,44891]],[[348937,312951],[76112,-28408],[34931,-8098],[47,27661],[19043,67963],[-39305,6881],[-2497,10280]],[[336387,328037],[12550,-15086]]],"bbox":[1315.595,312.658,1786.121,787.696],"transform":{"scale":[0.0004705264705264706,0.00047503847503847503],"translate":[1315.595,312.658]}}