{"type":"Topology","objects":{"01209-4301-16.featurecollection":{"type":"GeometryCollection","geometries":[{"type":"Polygon","arcs":[[0,1,2,3]],"properties":{"市区町村名":"夕張市","大字名":"鹿島白金","丁目名":null,"小字名":null,"地番":"662","精度区分":null,"座標系":"任意座標系"}},{"type":"Polygon","arcs":[[4,5,-2,6]],"properties":{"市区町村名":"夕張市","大字名":"鹿島白金","丁目名":null,"小字名":null,"地番":"651","精度区分":null,"座標系":"任意座標系"}},{"type":"Polygon","arcs":[[7,8,9,-5]],"properties":{"市区町村名":"夕張市","大字名":"鹿島白金","丁目名":null,"小字名":null,"地番":"649","精度区分":null,"座標系":"任意座標系"}},{"type":"Polygon","arcs":[[10,11,12,13,14,15,16,17,18]],"properties":{"市区町村名":"夕張市","大字名":"鹿島白金","丁目名":null,"小字名":null,"地番":"652","精度区分":null,"座標系":"任意座標系"}},{"type":"Polygon","arcs":[[-11,19,20,21]],"properties":{"市区町村名":"夕張市","大字名":"鹿島白金","丁目名":null,"小字名":null,"地番":"655","精度区分":null,"座標系":"任意座標系"}},{"type":"Polygon","arcs":[[22,23,24]],"properties":{"市区町村名":"夕張市","大字名":"鹿島白金","丁目名":null,"小字名":null,"地番":"657","精度区分":null,"座標系":"任意座標系"}},{"type":"Polygon","arcs":[[25,26,27]],"properties":{"市区町村名":"夕張市","大字名":"鹿島白金","丁目名":null,"小字名":null,"地番":"668","精度区分":null,"座標系":"任意座標系"}},{"type":"Polygon","arcs":[[-28,28,29,30]],"properties":{"市区町村名":"夕張市","大字名":"鹿島白金","丁目名":null,"小字名":null,"地番":"669","精度区分":null,"座標系":"任意座標系"}},{"type":"Polygon","arcs":[[-30,31,32]],"properties":{"市区町村名":"夕張市","大字名":"鹿島白金","丁目名":null,"小字名":null,"地番":"674","精度区分":null,"座標系":"任意座標系"}},{"type":"Polygon","arcs":[[-17,33,34]],"properties":{"市区町村名":"夕張市","大字名":"鹿島白金","丁目名":null,"小字名":null,"地番":"650","精度区分":null,"座標系":"任意座標系"}},{"type":"Polygon","arcs":[[-21,35,-23,36]],"properties":{"市区町村名":"夕張市","大字名":"鹿島白金","丁目名":null,"小字名":null,"地番":"656","精度区分":null,"座標系":"任意座標系"}},{"type":"Polygon","arcs":[[37,38]],"properties":{"市区町村名":"夕張市","大字名":"鹿島白金","丁目名":null,"小字名":null,"地番":"638","精度区分":null,"座標系":"任意座標系"}},{"type":"Polygon","arcs":[[39,40,41,-38]],"properties":{"市区町村名":"夕張市","大字名":"鹿島白金","丁目名":null,"小字名":null,"地番":"637","精度区分":null,"座標系":"任意座標系"}},{"type":"Polygon","arcs":[[42,43,-41]],"properties":{"市区町村名":"夕張市","大字名":"鹿島白金","丁目名":null,"小字名":null,"地番":"636","精度区分":null,"座標系":"任意座標系"}},{"type":"Polygon","arcs":[[44,45,46]],"properties":{"市区町村名":"夕張市","大字名":"鹿島白金","丁目名":null,"小字名":null,"地番":"629","精度区分":null,"座標系":"任意座標系"}},{"type":"Polygon","arcs":[[47,48,49]],"properties":{"市区町村名":"夕張市","大字名":"鹿島白金","丁目名":null,"小字名":null,"地番":"628","精度区分":null,"座標系":"任意座標系"}},{"type":"Polygon","arcs":[[50,51,52,-48]],"properties":{"市区町村名":"夕張市","大字名":"鹿島白金","丁目名":null,"小字名":null,"地番":"622","精度区分":null,"座標系":"任意座標系"}},{"type":"Polygon","arcs":[[-52,53,54]],"properties":{"市区町村名":"夕張市","大字名":"鹿島白金","丁目名":null,"小字名":null,"地番":"619","精度区分":null,"座標系":"任意座標系"}},{"type":"Polygon","arcs":[[55,-49,-53,-55,56,57,58,59,60,61]],"properties":{"市区町村名":"夕張市","大字名":"鹿島白金","丁目名":null,"小字名":null,"地番":"長狭物不明-6","精度区分":null,"座標系":"任意座標系"}},{"type":"Polygon","arcs":[[62,-58,63,64]],"properties":{"市区町村名":"夕張市","大字名":"鹿島白金","丁目名":null,"小字名":null,"地番":"620","精度区分":null,"座標系":"任意座標系"}},{"type":"Polygon","arcs":[[65,66,-65,67,-62]],"properties":{"市区町村名":"夕張市","大字名":"鹿島白金","丁目名":null,"小字名":null,"地番":"626","精度区分":null,"座標系":"任意座標系"}},{"type":"Polygon","arcs":[[68,69,-59,-63]],"properties":{"市区町村名":"夕張市","大字名":"鹿島白金","丁目名":null,"小字名":null,"地番":"621","精度区分":null,"座標系":"任意座標系"}},{"type":"Polygon","arcs":[[70,-60,-70,71]],"properties":{"市区町村名":"夕張市","大字名":"鹿島白金","丁目名":null,"小字名":null,"地番":"624","精度区分":null,"座標系":"任意座標系"}},{"type":"Polygon","arcs":[[-61,-71,-66]],"properties":{"市区町村名":"夕張市","大字名":"鹿島白金","丁目名":null,"小字名":null,"地番":"623","精度区分":null,"座標系":"任意座標系"}},{"type":"Polygon","arcs":[[-72,-69,-67]],"properties":{"市区町村名":"夕張市","大字名":"鹿島白金","丁目名":null,"小字名":null,"地番":"625","精度区分":null,"座標系":"任意座標系"}},{"type":"Polygon","arcs":[[72,73]],"properties":{"市区町村名":"夕張市","大字名":"鹿島白金","丁目名":null,"小字名":null,"地番":"630","精度区分":null,"座標系":"任意座標系"}},{"type":"Polygon","arcs":[[-46,74,-74,75]],"properties":{"市区町村名":"夕張市","大字名":"鹿島白金","丁目名":null,"小字名":null,"地番":"長狭物不明-9","精度区分":null,"座標系":"任意座標系"}},{"type":"Polygon","arcs":[[76,77]],"properties":{"市区町村名":"夕張市","大字名":"鹿島白金","丁目名":null,"小字名":null,"地番":"631","精度区分":null,"座標系":"任意座標系"}},{"type":"Polygon","arcs":[[78,79,80,81,82,83,84,85,86,87]],"properties":{"市区町村名":"夕張市","大字名":"鹿島白金","丁目名":null,"小字名":null,"地番":"長狭物不明-12","精度区分":null,"座標系":"任意座標系"}},{"type":"Polygon","arcs":[[-82,88]],"properties":{"市区町村名":"夕張市","大字名":"鹿島白金","丁目名":null,"小字名":null,"地番":"635","精度区分":null,"座標系":"任意座標系"}},{"type":"Polygon","arcs":[[-13,89,-80,90,91,92]],"properties":{"市区町村名":"夕張市","大字名":"鹿島白金","丁目名":null,"小字名":null,"地番":"640","精度区分":null,"座標系":"任意座標系"}},{"type":"Polygon","arcs":[[93,-91,-79]],"properties":{"市区町村名":"夕張市","大字名":"鹿島白金","丁目名":null,"小字名":null,"地番":"641","精度区分":null,"座標系":"任意座標系"}},{"type":"Polygon","arcs":[[94,-14,-93]],"properties":{"市区町村名":"夕張市","大字名":"鹿島白金","丁目名":null,"小字名":null,"地番":"639","精度区分":null,"座標系":"任意座標系"}},{"type":"Polygon","arcs":[[95,-77,96,97,-84]],"properties":{"市区町村名":"夕張市","大字名":"鹿島白金","丁目名":null,"小字名":null,"地番":"634","精度区分":null,"座標系":"任意座標系"}},{"type":"Polygon","arcs":[[-98,98,-9,-85]],"properties":{"市区町村名":"夕張市","大字名":"鹿島白金","丁目名":null,"小字名":null,"地番":"643","精度区分":null,"座標系":"任意座標系"}},{"type":"Polygon","arcs":[[-16,99,-87,-34]],"properties":{"市区町村名":"夕張市","大字名":"鹿島白金","丁目名":null,"小字名":null,"地番":"642","精度区分":null,"座標系":"任意座標系"}},{"type":"Polygon","arcs":[[100,101,102]],"properties":{"市区町村名":"夕張市","大字名":null,"丁目名":null,"小字名":null,"地番":"無地番-1","精度区分":null,"座標系":"任意座標系"}},{"type":"Polygon","arcs":[[103,-101,104]],"properties":{"市区町村名":"夕張市","大字名":null,"丁目名":null,"小字名":null,"地番":"無地番-2","精度区分":null,"座標系":"任意座標系"}},{"type":"Polygon","arcs":[[105,106,107,-102,-104,108]],"properties":{"市区町村名":"夕張市","大字名":null,"丁目名":null,"小字名":null,"地番":"無地番-3","精度区分":null,"座標系":"任意座標系"}},{"type":"Polygon","arcs":[[109,110,-107]],"properties":{"市区町村名":"夕張市","大字名":null,"丁目名":null,"小字名":null,"地番":"無地番-4","精度区分":null,"座標系":"任意座標系"}},{"type":"Polygon","arcs":[[111,-110,-106]],"properties":{"市区町村名":"夕張市","大字名":null,"丁目名":null,"小字名":null,"地番":"無地番-5","精度区分":null,"座標系":"任意座標系"}},{"type":"Polygon","arcs":[[112,113]],"properties":{"市区町村名":"夕張市","大字名":null,"丁目名":null,"小字名":null,"地番":"無地番-6","精度区分":null,"座標系":"任意座標系"}},{"type":"Polygon","arcs":[[-114,114]],"properties":{"市区町村名":"夕張市","大字名":null,"丁目名":null,"小字名":null,"地番":"無地番-7","精度区分":null,"座標系":"任意座標系"}},{"type":"Polygon","arcs":[[115,116,117]],"properties":{"市区町村名":"夕張市","大字名":null,"丁目名":null,"小字名":null,"地番":"無地番-8","精度区分":null,"座標系":"任意座標系"}},{"type":"Polygon","arcs":[[-117,118,119]],"properties":{"市区町村名":"夕張市","大字名":null,"丁目名":null,"小字名":null,"地番":"無地番-9","精度区分":null,"座標系":"任意座標系"}},{"type":"Polygon","arcs":[[120,121,122,-118,-120]],"properties":{"市区町村名":"夕張市","大字名":null,"丁目名":null,"小字名":null,"地番":"無地番-10","精度区分":null,"座標系":"任意座標系"}},{"type":"Polygon","arcs":[[123,-122]],"properties":{"市区町村名":"夕張市","大字名":null,"丁目名":null,"小字名":null,"地番":"無地番-11","精度区分":null,"座標系":"任意座標系"}},{"type":"Polygon","arcs":[[124,125]],"properties":{"市区町村名":"夕張市","大字名":null,"丁目名":null,"小字名":null,"地番":"無地番-12","精度区分":null,"座標系":"任意座標系"}},{"type":"Polygon","arcs":[[-125,126]],"properties":{"市区町村名":"夕張市","大字名":null,"丁目名":null,"小字名":null,"地番":"無地番-13","精度区分":null,"座標系":"任意座標系"}},{"type":"Polygon","arcs":[[127,128]],"properties":{"市区町村名":"夕張市","大字名":null,"丁目名":null,"小字名":null,"地番":"無地番-14","精度区分":null,"座標系":"任意座標系"}},{"type":"Polygon","arcs":[[129,130]],"properties":{"市区町村名":"夕張市","大字名":null,"丁目名":null,"小字名":null,"地番":"無地番-15","精度区分":null,"座標系":"任意座標系"}},{"type":"Polygon","arcs":[[-128,131,-130,132]],"properties":{"市区町村名":"夕張市","大字名":null,"丁目名":null,"小字名":null,"地番":"無地番-16","精度区分":null,"座標系":"任意座標系"}},{"type":"Polygon","arcs":[[133,134,135,136,137,138]],"properties":{"市区町村名":"夕張市","大字名":"鹿島白金","丁目名":null,"小字名":null,"地番":"817","精度区分":null,"座標系":"任意座標系"}},{"type":"Polygon","arcs":[[-1,-136,-18,-35,-86,-8,-7]],"properties":{"市区町村名":"夕張市","大字名":"鹿島白金","丁目名":null,"小字名":null,"地番":"長狭物不明-3","精度区分":null,"座標系":"任意座標系"}},{"type":"Polygon","arcs":[[-32,-29,-27,139,-24,-36,-20,-19,-135,140]],"properties":{"市区町村名":"夕張市","大字名":"鹿島白金","丁目名":null,"小字名":null,"地番":"653","精度区分":null,"座標系":"任意座標系"}},{"type":"Polygon","arcs":[[-4,141,-137]],"properties":{"市区町村名":"夕張市","大字名":"鹿島白金","丁目名":null,"小字名":null,"地番":"661","精度区分":null,"座標系":"任意座標系"}},{"type":"Polygon","arcs":[[-139,142]],"properties":{"市区町村名":"夕張市","大字名":"鹿島白金","丁目名":null,"小字名":null,"地番":"666","精度区分":null,"座標系":"任意座標系"}}]}},"arcs":[[[482785,684112],[-9501,6373]],[[473284,690485],[51845,58742]],[[525129,749227],[5609,-11230],[1486,-4579],[-112,-1421]],[[532112,731997],[-15598,-3633],[-4271,-16324],[-3954,-9104],[-17004,-9983],[-2945,-4583],[-5555,-4258]],[[459571,751823],[9384,-8211],[35784,46558]],[[504739,790170],[20390,-40943]],[[473284,690485],[-32757,25282],[19044,36056]],[[459571,751823],[-5731,5015],[-12809,2873]],[[441031,759711],[32598,42285]],[[473629,801996],[8924,-3444],[5999,-3959],[16187,-4423]],[[463874,679473],[-32685,1392],[-49343,11811],[-59453,-1033]],[[322393,691643],[-7269,8273]],[[315124,699916],[11276,3694]],[[326400,703610],[37897,12524]],[[364297,716134],[45216,14836]],[[409513,730970],[6265,-3872]],[[415778,727098],[19370,-11971]],[[435148,715127],[32498,-26320],[8259,-5571]],[[475905,683236],[-6271,-457],[-5760,-3306]],[[463874,679473],[-4944,-2838],[-15926,1732],[-16380,-2841],[-7751,-8004],[-3179,-5953],[3358,-9247],[8805,-12174]],[[427857,640148],[-31749,-22427]],[[396108,617721],[-65164,64350],[-8551,9572]],[[419395,594724],[54156,11283]],[[473551,606007],[1526,-201],[17517,-527],[12522,345],[2999,1223]],[[508115,606847],[-6501,-11425],[-13103,-2850],[-50765,-15969],[-18351,18121]],[[656881,594716],[-11820,4119],[-42683,33146]],[[602378,631981],[6317,-1366],[40743,1672],[17587,-19853],[6436,-1316]],[[673461,611118],[-16580,-16402]],[[673461,611118],[20521,-4197],[56275,-36974]],[[750257,569947],[-9128,-13575]],[[741129,556372],[-31508,19970],[-52740,18374]],[[750257,569947],[13929,-9165],[8990,-8622],[43503,-11544]],[[816679,540616],[-44751,-9541],[-30799,25297]],[[415778,727098],[22713,29246]],[[438491,756344],[12479,-2772],[2717,-2339],[-18539,-36106]],[[427857,640148],[457,-631],[13278,-11125],[5769,-7902],[12115,-12779],[14075,-1704]],[[419395,594724],[-23287,22997]],[[286784,690536],[19601,6442]],[[306385,696978],[15281,-17070],[-23713,-5395],[-11169,16023]],[[286784,690536],[-18544,26529],[-5732,26575],[-4360,20106]],[[258148,763746],[36505,17485]],[[294653,781231],[7479,-2090],[23537,-4902],[7850,-8519],[-2633,-10519],[-22556,-16888],[-10187,-11814],[-3170,-16773],[11412,-12748]],[[258148,763746],[-17312,51883]],[[240836,815629],[23590,-25950],[30227,-8448]],[[240836,815629],[-20358,10908],[-61449,16537],[3880,8286]],[[162909,851360],[57814,-19061],[19581,-10087]],[[240304,822212],[532,-6583]],[[111375,863721],[5012,2449]],[[116387,866170],[21611,-7051]],[[137998,859119],[-2747,-5951],[-23876,10553]],[[111375,863721],[-53533,23699],[-18910,8372],[-38180,26949],[-752,16742],[9949,23623]],[[9949,963106],[6703,-2379],[38045,-14222]],[[54697,946505],[-2889,-6370],[-915,-31995],[14806,-16255],[14749,-10949],[21176,-9880],[14763,-4886]],[[9949,963106],[18482,22956],[47513,12886]],[[75944,998948],[12742,-27202],[-20829,-10214],[-11332,-10997],[-1828,-4030]],[[139764,862948],[-1766,-3829]],[[75944,998948],[3875,1051],[1568,-54]],[[81387,999945],[13501,-29603]],[[94888,970342],[-23732,-11958],[-9697,-9967],[-1483,-3943]],[[59976,944474],[-2643,-6027],[-1136,-29519]],[[56197,908928],[12796,-14090],[15912,-11177],[19400,-9281],[17548,-5657]],[[121853,868723],[17911,-5775]],[[185128,962003],[-6601,11115],[-83639,-2776]],[[81387,999945],[59845,-2077],[17117,-718],[13889,-4281],[18851,-14627],[5517,-9099]],[[196606,969143],[-11478,-7140]],[[121853,868723],[15576,7604]],[[137429,876327],[54201,6867],[19297,2505],[12394,11986],[-38193,64318]],[[196606,969143],[15876,-26181],[-592,-1890],[1088,-6243],[3754,-1236],[11326,-15104],[591,-15718],[-2846,-10698],[3161,-2715],[2833,1649],[-3110,-15963],[-66218,-3968],[-19464,-1103],[-3241,-7025]],[[185128,962003],[-56850,-35362]],[[128278,926641],[-26643,2057],[-41659,15776]],[[137429,876327],[-60732,33914],[-20500,-1313]],[[128278,926641],[45889,-32511],[-36738,-17803]],[[164497,854750],[3115,6653],[51447,-19174],[25516,3473],[-5230,-11641],[549,-6790]],[[239894,827271],[-16662,8152],[-58735,19327]],[[162909,851360],[1588,3390]],[[239894,827271],[410,-5059]],[[349922,800737],[-7274,153],[-40974,13762],[-53629,17927]],[[248045,832579],[5129,9832],[47965,-14951],[38208,-22794],[10575,-3929]],[[395058,742791],[14723,19941],[-46532,10411]],[[363249,773143],[-31462,6907]],[[331787,780050],[-23433,5144]],[[308354,785194],[-58747,32353]],[[249607,817547],[-567,5457]],[[249040,823004],[60941,-33951],[55574,-12365]],[[365555,776688],[75476,-16977]],[[441031,759711],[-2540,-3367]],[[438491,756344],[-23416,5232],[-16509,-21620]],[[398566,739956],[-3508,2835]],[[308354,785194],[-40222,11344],[-18525,21009]],[[315124,699916],[-10231,11536],[2034,12112],[9092,10219],[22926,17118],[4389,15713],[-11547,13436]],[[363249,773143],[-2998,-4685],[18857,-12715]],[[379108,755743],[-31583,-22980]],[[347525,732763],[-23716,-1290],[-11075,-18905],[13666,-8958]],[[395058,742791],[-15950,12952]],[[347525,732763],[16772,-16629]],[[249040,823004],[-995,9575]],[[349922,800737],[3717,-1368],[27977,623]],[[381616,799992],[-16061,-23304]],[[381616,799992],[7976,587],[19115,814],[59668,2508],[5254,-1905]],[[409513,730970],[-10947,8986]],[[908747,430446],[-46134,8662]],[[862613,439108],[-11793,80444]],[[850820,519552],[23770,2432],[12679,903],[11406,-22259],[4645,-23223],[5427,-46959]],[[868356,401007],[-5743,38101]],[[908747,430446],[17776,-11549],[58052,-2515],[3262,-14176],[-38198,-29849],[-81283,28650]],[[863316,402057],[-5723,37920]],[[857593,439977],[-11448,77143]],[[846145,517120],[4675,2432]],[[868356,401007],[-5040,1050]],[[857593,439977],[-84316,15791]],[[773277,455768],[-1599,11581],[3417,9389],[3838,14794],[36645,9693],[30567,15895]],[[863316,402057],[-62437,13012],[-24916,3280],[6701,10634],[-2729,12654],[-6658,14131]],[[864059,351833],[-27388,8265],[-12871,21452],[19388,-1199],[37226,-19764]],[[880414,360587],[-16355,-8754]],[[880414,360587],[4666,-2477],[-15130,-8055],[-5891,1778]],[[843052,279752],[4326,1447],[10182,5709],[30758,11868],[5798,1953],[29670,-10161],[19352,-2884],[-10132,-38050],[28546,-36218]],[[961552,213416],[-43723,-66145]],[[917829,147271],[-38023,21087],[-31045,12028],[-4733,3199],[-976,96167]],[[961552,213416],[33724,-35344],[4723,-52981],[-31641,-9410]],[[968358,115681],[-42587,26301],[-7942,5289]],[[968358,115681],[-5087,-1512],[-44318,26977],[-3238,2786],[-36950,20281],[-4182,2044],[-30689,11973],[-5238,3841]],[[838656,182071],[-430,96941]],[[838226,279012],[4826,740]],[[838656,182071],[-40773,27273],[-41641,12554],[-25422,-538],[-16853,4048],[29415,29516],[25808,9690],[20195,6906],[48841,7492]],[[839468,314504],[-7553,15779]],[[831915,330283],[6220,-1859],[5879,-12683],[-4546,-1237]],[[839468,314504],[-33628,-9151],[-37128,-10339],[-40196,-3837],[-16149,17542],[-7627,19571],[-903,16407],[2751,13625],[9317,10473],[20488,17463],[5253,3849],[41641,-31353],[30814,-23146],[17814,-5325]],[[801451,119107],[58386,12536]],[[859837,131643],[8140,-2584],[21798,-619],[29435,-29398],[-2786,-9944],[-18888,-7974],[-4122,-5872],[-8418,-10771],[-7590,-28668],[-46698,-31473],[-7000,-4340],[738,11215],[7922,13156],[3991,12449],[2156,11880],[4163,27633],[-1613,11400],[-8086,9115],[-15473,11242],[-16055,11017]],[[851510,134288],[-54944,-11723]],[[796566,122565],[-28720,20330],[-12372,8058],[-32296,22755],[-22990,15973],[-8365,6776],[-5484,5209],[28996,-1185],[46650,-6809],[44241,-21928],[45284,-37456]],[[801451,119107],[-4885,3458]],[[851510,134288],[8327,-2645]],[[831342,543280],[-5355,-680]],[[825987,542600],[-63547,46358],[-64108,46765],[-70766,17304],[-43020,-96],[-63236,-324],[-952,642],[-37829,25518],[-6624,4469]],[[475905,683236],[5999,296],[881,580]],[[482785,684112],[5728,-3843],[35046,-23510],[59275,72],[33116,39151]],[[615950,695982],[3916,-498]],[[619866,695484],[-32062,-38699],[40396,-161],[73114,-17919],[63375,-46476],[66653,-48949]],[[602378,631981],[-21416,16632],[-31956,-416],[-26023,-12859],[-10663,-21102],[-4205,-7389]],[[825987,542600],[-9308,-1984]],[[532112,731997],[-1342,-17045],[40045,-13260],[24468,-3085],[20667,-2625]],[[619866,695484],[22191,-2819],[10247,-9861],[53538,-25413],[11469,-2969],[34651,-8967],[21768,4051],[21922,-9597],[11865,-5194],[38702,-25526],[45235,-21318],[15085,-35054],[-75197,-9537]]],"bbox":[3442.105,5298.137,5682.331,8238.067],"transform":{"scale":[0.0022402282402282404,0.0029399329399329393],"translate":[3442.105,5298.137]}}