{"type":"Topology","objects":{"01460-4500-8":{"type":"GeometryCollection","geometries":[{"type":"MultiPolygon","arcs":[[[0,1]]],"properties":{"筆ID":"H000000001","version":"ver1.0","座標系":"任意座標系","測地系判別":null,"地図名":"中富良野町附連Ｂ２５００図無Ｈ１９","地図番号":"B36","縮尺分母":"2500","市区町村コード":"01460","市区町村名":"空知郡上富良野町","大字コード":"000","丁目コード":"000","小字コード":"0000","予備コード":"00","大字名":null,"丁目名":null,"小字名":null,"予備名":null,"地番":"6248","精度区分":null,"座標値種別":"図上測量","筆界未定構成筆":null,"代表点緯度":-5487.947,"代表点経度":70932.986589372}},{"type":"MultiPolygon","arcs":[[[-2,2]]],"properties":{"筆ID":"H000000002","version":"ver1.0","座標系":"任意座標系","測地系判別":null,"地図名":"中富良野町附連Ｂ２５００図無Ｈ１９","地図番号":"B36","縮尺分母":"2500","市区町村コード":"01460","市区町村名":"空知郡上富良野町","大字コード":"000","丁目コード":"000","小字コード":"0000","予備コード":"00","大字名":null,"丁目名":null,"小字名":null,"予備名":null,"地番":"6249","精度区分":null,"座標値種別":"図上測量","筆界未定構成筆":null,"代表点緯度":-5810.891,"代表点経度":70959.31452728}}]}},"arcs":[[[59118,397377],[76075,258656],[101164,343966],[261408,-343983],[42207,-55542],[75994,-99994],[48678,-63437]],[[664644,437043],[-87908,-27829],[-265912,-84000],[-251706,72163]],[[664644,437043],[335355,-437043],[-358074,70102],[-11279,2208],[-119295,23356],[-511351,101020],[3835,12730],[55283,187961]]],"bbox":[70877.627,-5964.855,71077.904,-5388.891],"transform":{"scale":[0.00020027720027720216,0.0005759645759645759],"translate":[70877.627,-5964.855]}}
