{"type":"Topology","objects":{"01460-4500-7":{"type":"GeometryCollection","geometries":[{"type":"MultiPolygon","arcs":[[[0,1]]],"properties":{"筆ID":"H000000001","version":"ver1.0","座標系":"任意座標系","測地系判別":null,"地図名":"中富良野町附切Ａ２４００Ａ図無Ｈ１９","地図番号":"A73-4","縮尺分母":"2400","市区町村コード":"01460","市区町村名":"空知郡上富良野町","大字コード":"000","丁目コード":"000","小字コード":"0000","予備コード":"00","大字名":null,"丁目名":null,"小字名":null,"予備名":null,"地番":"2730-8","精度区分":null,"座標値種別":"図上測量","筆界未定構成筆":null,"代表点緯度":-5497.224,"代表点経度":11944.773374095}},{"type":"MultiPolygon","arcs":[[[2,3]]],"properties":{"筆ID":"H000000002","version":"ver1.0","座標系":"任意座標系","測地系判別":null,"地図名":"中富良野町附切Ａ２４００Ａ図無Ｈ１９","地図番号":"A74-2","縮尺分母":"2400","市区町村コード":"01460","市区町村名":"空知郡上富良野町","大字コード":"000","丁目コード":"000","小字コード":"0000","予備コード":"00","大字名":null,"丁目名":null,"小字名":null,"予備名":null,"地番":"1286-7","精度区分":null,"座標値種別":"図上測量","筆界未定構成筆":null,"代表点緯度":-6847.123,"代表点経度":11969.563380599}},{"type":"MultiPolygon","arcs":[[[-3,4]]],"properties":{"筆ID":"H000000003","version":"ver1.0","座標系":"任意座標系","測地系判別":null,"地図名":"中富良野町附切Ａ２４００Ａ図無Ｈ１９","地図番号":"A74-2","縮尺分母":"2400","市区町村コード":"01460","市区町村名":"空知郡上富良野町","大字コード":"000","丁目コード":"000","小字コード":"0000","予備コード":"00","大字名":null,"丁目名":null,"小字名":null,"予備名":null,"地番":"1286-8","精度区分":null,"座標値種別":"図上測量","筆界未定構成筆":null,"代表点緯度":-6687.1655,"代表点経度":11701.514782986}},{"type":"MultiPolygon","arcs":[[[5,6,7]]],"properties":{"筆ID":"H000000004","version":"ver1.0","座標系":"任意座標系","測地系判別":null,"地図名":"中富良野町附切Ａ２４００Ａ図無Ｈ１９","地図番号":"A73-4","縮尺分母":"2400","市区町村コード":"01460","市区町村名":"空知郡上富良野町","大字コード":"000","丁目コード":"000","小字コード":"0000","予備コード":"00","大字名":null,"丁目名":null,"小字名":null,"予備名":null,"地番":"909-17","精度区分":null,"座標値種別":"図上測量","筆界未定構成筆":null,"代表点緯度":-5518.636,"代表点経度":11867.907217647}},{"type":"MultiPolygon","arcs":[[[-7,8]]],"properties":{"筆ID":"H000000005","version":"ver1.0","座標系":"任意座標系","測地系判別":null,"地図名":"中富良野町附切Ａ２４００Ａ図無Ｈ１９","地図番号":"A73-4","縮尺分母":"2400","市区町村コード":"01460","市区町村名":"空知郡上富良野町","大字コード":"000","丁目コード":"000","小字コード":"0000","予備コード":"00","大字名":null,"丁目名":null,"小字名":null,"予備名":null,"地番":"909-29","精度区分":null,"座標値種別":"図上測量","筆界未定構成筆":null,"代表点緯度":-5522.3125,"代表点経度":11864.559281756}},{"type":"MultiPolygon","arcs":[[[9,10]]],"properties":{"筆ID":"H000000006","version":"ver1.0","座標系":"任意座標系","測地系判別":null,"地図名":"中富良野町附切Ａ２４００Ａ図無Ｈ１９","地図番号":"A73-4","縮尺分母":"2400","市区町村コード":"01460","市区町村名":"空知郡上富良野町","大字コード":"000","丁目コード":"000","小字コード":"0000","予備コード":"00","大字名":null,"丁目名":null,"小字名":null,"予備名":null,"地番":"2729-2","精度区分":null,"座標値種別":"図上測量","筆界未定構成筆":null,"代表点緯度":-5513.4495,"代表点経度":11907.557584161}},{"type":"MultiPolygon","arcs":[[[11,12]]],"properties":{"筆ID":"H000000007","version":"ver1.0","座標系":"任意座標系","測地系判別":null,"地図名":"中富良野町附切Ａ２４００Ａ図無Ｈ１９","地図番号":"A73-4","縮尺分母":"2400","市区町村コード":"01460","市区町村名":"空知郡上富良野町","大字コード":"000","丁目コード":"000","小字コード":"0000","予備コード":"00","大字名":null,"丁目名":null,"小字名":null,"予備名":null,"地番":"2729-4","精度区分":null,"座標値種別":"図上測量","筆界未定構成筆":null,"代表点緯度":-5505.573,"代表点経度":11907.220705033}},{"type":"MultiPolygon","arcs":[[[13,-11,14,-12]]],"properties":{"筆ID":"H000000008","version":"ver1.0","座標系":"任意座標系","測地系判別":null,"地図名":"中富良野町附切Ａ２４００Ａ図無Ｈ１９","地図番号":"A73-4","縮尺分母":"2400","市区町村コード":"01460","市区町村名":"空知郡上富良野町","大字コード":"000","丁目コード":"000","小字コード":"0000","予備コード":"00","大字名":null,"丁目名":null,"小字名":null,"予備名":null,"地番":"2729-3","精度区分":null,"座標値種別":"図上測量","筆界未定構成筆":null,"代表点緯度":-5509.407,"代表点経度":11907.38433551}},{"type":"MultiPolygon","arcs":[[[15,16,17,18]]],"properties":{"筆ID":"H000000009","version":"ver1.0","座標系":"任意座標系","測地系判別":null,"地図名":"中富良野町附切Ａ２４００Ａ図無Ｈ１９","地図番号":"A73-4","縮尺分母":"2400","市区町村コード":"01460","市区町村名":"空知郡上富良野町","大字コード":"000","丁目コード":"000","小字コード":"0000","予備コード":"00","大字名":null,"丁目名":null,"小字名":null,"予備名":null,"地番":"2730-6","精度区分":null,"座標値種別":"図上測量","筆界未定構成筆":null,"代表点緯度":-5513.358,"代表点経度":11883.897251025}},{"type":"MultiPolygon","arcs":[[[-16,19]]],"properties":{"筆ID":"H000000010","version":"ver1.0","座標系":"任意座標系","測地系判別":null,"地図名":"中富良野町附切Ａ２４００Ａ図無Ｈ１９","地図番号":"A73-4","縮尺分母":"2400","市区町村コード":"01460","市区町村名":"空知郡上富良野町","大字コード":"000","丁目コード":"000","小字コード":"0000","予備コード":"00","大字名":null,"丁目名":null,"小字名":null,"予備名":null,"地番":"2730-7","精度区分":null,"座標値種別":"図上測量","筆界未定構成筆":null,"代表点緯度":-5507.6455,"代表点経度":11888.674575935}},{"type":"MultiPolygon","arcs":[[[-1,20,21,22]]],"properties":{"筆ID":"H000000011","version":"ver1.0","座標系":"任意座標系","測地系判別":null,"地図名":"中富良野町附切Ａ２４００Ａ図無Ｈ１９","地図番号":"A73-4","縮尺分母":"2400","市区町村コード":"01460","市区町村名":"空知郡上富良野町","大字コード":"000","丁目コード":"000","小字コード":"0000","予備コード":"00","大字名":null,"丁目名":null,"小字名":null,"予備名":null,"地番":"2730-9","精度区分":null,"座標値種別":"図上測量","筆界未定構成筆":null,"代表点緯度":-5505.128,"代表点経度":11933.57824215}},{"type":"MultiPolygon","arcs":[[[23,24,25,26]]],"properties":{"筆ID":"H000000012","version":"ver1.0","座標系":"任意座標系","測地系判別":null,"地図名":"中富良野町附切Ａ２４００Ａ図無Ｈ１９","地図番号":"A73-4","縮尺分母":"2400","市区町村コード":"01460","市区町村名":"空知郡上富良野町","大字コード":"000","丁目コード":"000","小字コード":"0000","予備コード":"00","大字名":null,"丁目名":null,"小字名":null,"予備名":null,"地番":"2730-12","精度区分":null,"座標値種別":"図上測量","筆界未定構成筆":null,"代表点緯度":-5491.522,"代表点経度":11995.418577644}},{"type":"MultiPolygon","arcs":[[[-22,27]]],"properties":{"筆ID":"H000000013","version":"ver1.0","座標系":"任意座標系","測地系判別":null,"地図名":"中富良野町附切Ａ２４００Ａ図無Ｈ１９","地図番号":"A73-4","縮尺分母":"2400","市区町村コード":"01460","市区町村名":"空知郡上富良野町","大字コード":"000","丁目コード":"000","小字コード":"0000","予備コード":"00","大字名":null,"丁目名":null,"小字名":null,"予備名":null,"地番":"2730-10","精度区分":null,"座標値種別":"図上測量","筆界未定構成筆":null,"代表点緯度":-5509.278,"代表点経度":11932.771414304}},{"type":"MultiPolygon","arcs":[[[-24,28]]],"properties":{"筆ID":"H000000014","version":"ver1.0","座標系":"任意座標系","測地系判別":null,"地図名":"中富良野町附切Ａ２４００Ａ図無Ｈ１９","地図番号":"A73-4","縮尺分母":"2400","市区町村コード":"01460","市区町村名":"空知郡上富良野町","大字コード":"000","丁目コード":"000","小字コード":"0000","予備コード":"00","大字名":null,"丁目名":null,"小字名":null,"予備名":null,"地番":"2730-11","精度区分":null,"座標値種別":"図上測量","筆界未定構成筆":null,"代表点緯度":-5488.275,"代表点経度":11996.718337201}},{"type":"MultiPolygon","arcs":[[[-18,29]]],"properties":{"筆ID":"H000000015","version":"ver1.0","座標系":"任意座標系","測地系判別":null,"地図名":"中富良野町附切Ａ２４００Ａ図無Ｈ１９","地図番号":"A73-4","縮尺分母":"2400","市区町村コード":"01460","市区町村名":"空知郡上富良野町","大字コード":"000","丁目コード":"000","小字コード":"0000","予備コード":"00","大字名":null,"丁目名":null,"小字名":null,"予備名":null,"地番":"2730-5","精度区分":null,"座標値種別":"図上測量","筆界未定構成筆":null,"代表点緯度":-5516.9185,"代表点経度":11880.919983438}},{"type":"MultiPolygon","arcs":[[[-27,30,31]]],"properties":{"筆ID":"H000000016","version":"ver1.0","座標系":"任意座標系","測地系判別":null,"地図名":"中富良野町附切Ａ２４００Ａ図無Ｈ１９","地図番号":"A73-4","縮尺分母":"2400","市区町村コード":"01460","市区町村名":"空知郡上富良野町","大字コード":"000","丁目コード":"000","小字コード":"0000","予備コード":"00","大字名":null,"丁目名":null,"小字名":null,"予備名":null,"地番":"2729-7","精度区分":null,"座標値種別":"図上測量","筆界未定構成筆":null,"代表点緯度":-5492.191,"代表点経度":11988.220520191}},{"type":"MultiPolygon","arcs":[[[32,33,34,-31,-26]]],"properties":{"筆ID":"H000000017","version":"ver1.0","座標系":"任意座標系","測地系判別":null,"地図名":"中富良野町附切Ａ２４００Ａ図無Ｈ１９","地図番号":"A73-4","縮尺分母":"2400","市区町村コード":"01460","市区町村名":"空知郡上富良野町","大字コード":"000","丁目コード":"000","小字コード":"0000","予備コード":"00","大字名":null,"丁目名":null,"小字名":null,"予備名":null,"地番":"2729-6","精度区分":null,"座標値種別":"図上測量","筆界未定構成筆":null,"代表点緯度":-5496.6905,"代表点経度":11987.848409108}},{"type":"MultiPolygon","arcs":[[[35,-34]]],"properties":{"筆ID":"H000000018","version":"ver1.0","座標系":"任意座標系","測地系判別":null,"地図名":"中富良野町附切Ａ２４００Ａ図無Ｈ１９","地図番号":"A73-4","縮尺分母":"2400","市区町村コード":"01460","市区町村名":"空知郡上富良野町","大字コード":"000","丁目コード":"000","小字コード":"0000","予備コード":"00","大字名":null,"丁目名":null,"小字名":null,"予備名":null,"地番":"2729-5","精度区分":null,"座標値種別":"図上測量","筆界未定構成筆":null,"代表点緯度":-5503.3945,"代表点経度":11982.30301538}},{"type":"MultiPolygon","arcs":[[[36,-8,37,38]]],"properties":{"筆ID":"H000000019","version":"ver1.0","座標系":"任意座標系","測地系判別":null,"地図名":"中富良野町附切Ａ２４００Ａ図無Ｈ１９","地図番号":"A73-4","縮尺分母":"2400","市区町村コード":"01460","市区町村名":"空知郡上富良野町","大字コード":"000","丁目コード":"000","小字コード":"0000","予備コード":"00","大字名":null,"丁目名":null,"小字名":null,"予備名":null,"地番":"909-18","精度区分":null,"座標値種別":"図上測量","筆界未定構成筆":null,"代表点緯度":-5519.417,"代表点経度":11862.274172926}},{"type":"MultiPolygon","arcs":[[[-39,39]]],"properties":{"筆ID":"H000000020","version":"ver1.0","座標系":"任意座標系","測地系判別":null,"地図名":"中富良野町附切Ａ２４００Ａ図無Ｈ１９","地図番号":"A73-4","縮尺分母":"2400","市区町村コード":"01460","市区町村名":"空知郡上富良野町","大字コード":"000","丁目コード":"000","小字コード":"0000","予備コード":"00","大字名":null,"丁目名":null,"小字名":null,"予備名":null,"地番":"909-16","精度区分":null,"座標値種別":"図上測量","筆界未定構成筆":null,"代表点緯度":-5511.2025,"代表点経度":11861.52192775}},{"type":"MultiPolygon","arcs":[[[40,41]]],"properties":{"筆ID":"H000000021","version":"ver1.0","座標系":"任意座標系","測地系判別":null,"地図名":"中富良野町附切Ａ２４００Ａ図無Ｈ１９","地図番号":"A73-4","縮尺分母":"2400","市区町村コード":"01460","市区町村名":"空知郡上富良野町","大字コード":"000","丁目コード":"000","小字コード":"0000","予備コード":"00","大字名":null,"丁目名":null,"小字名":null,"予備名":null,"地番":"1277-9","精度区分":null,"座標値種別":"図上測量","筆界未定構成筆":null,"代表点緯度":-5638.2115,"代表点経度":12221.625673445}},{"type":"MultiPolygon","arcs":[[[-41,42]]],"properties":{"筆ID":"H000000022","version":"ver1.0","座標系":"任意座標系","測地系判別":null,"地図名":"中富良野町附切Ａ２４００Ａ図無Ｈ１９","地図番号":"A73-4","縮尺分母":"2400","市区町村コード":"01460","市区町村名":"空知郡上富良野町","大字コード":"000","丁目コード":"000","小字コード":"0000","予備コード":"00","大字名":null,"丁目名":null,"小字名":null,"予備名":null,"地番":"1277-10","精度区分":null,"座標値種別":"図上測量","筆界未定構成筆":null,"代表点緯度":-5567.1035,"代表点経度":12260.165227913}}]}},"arcs":[[[501279,986389],[-45833,-2719]],[[455446,983670],[-9978,3940],[68555,4233],[-12744,-5454]],[[360699,99468],[1390,1281]],[[362089,100749],[145228,-37972],[58642,-15266],[93563,-24235],[74998,-19623],[6628,-1741],[2734,-810],[-1718,-1102],[-381465,99468]],[[360699,99468],[-360699,94054],[1696,1223],[217013,-56490],[70726,-18528],[3243,-823],[69411,-18155]],[[379994,976816],[-4463,-3110]],[[375531,973706],[-14803,-1661]],[[360728,972045],[10562,4053],[8704,718]],[[375531,973706],[-1491,-1038],[-11283,-1290],[-2029,667]],[[445720,981093],[9658,-3729],[-47160,-3175],[13007,5433]],[[421225,979622],[24495,1471]],[[441841,982591],[-16143,-1101]],[[425698,981490],[9124,3811],[7019,-2710]],[[441841,982591],[3879,-1498]],[[421225,979622],[4473,1868]],[[396856,979314],[6264,414]],[[403120,979728],[-4767,-1930]],[[398353,977798],[-3859,-226]],[[394494,977572],[2362,1742]],[[396856,979314],[9483,6999],[3021,275],[-1699,-1294],[10635,578],[-15176,-6144]],[[501279,986389],[-3624,-1551]],[[497655,984838],[-39123,-2387]],[[458532,982451],[-3086,1219]],[[570996,995508],[8640,-3935]],[[579636,991573],[-1082,-430]],[[578554,991143],[-1208,697]],[[577346,991840],[-6350,3668]],[[497655,984838],[-10581,-4528],[-20428,-1063],[-8114,3204]],[[570996,995508],[1383,4491],[8186,-3663],[6697,-1710],[-7626,-3053]],[[398353,977798],[-7871,-3188],[4012,2962]],[[577346,991840],[-35374,-2284]],[[541972,989556],[13002,5025],[16022,927]],[[578554,991143],[4194,-508]],[[582748,990635],[-46192,-3173]],[[536556,987462],[5416,2094]],[[582748,990635],[27548,-3329],[-10822,-2646],[-11488,1588],[-66205,-4498],[14775,5712]],[[382735,978725],[-2741,-1909]],[[360728,972045],[-954,-366],[-3692,946]],[[356082,972625],[13403,4913],[13250,1187]],[[356082,972625],[-20982,5376],[9000,3371],[22837,3549],[27101,1679],[-11303,-7875]],[[989350,939819],[6046,-1220]],[[995396,938599],[-119528,-94429],[-5800,1463],[119282,94186]],[[989350,939819],[-1900,366],[4796,3839],[7753,-1517],[-4603,-3908]]],"bbox":[11632.504,-6926.773,12264.102,-5482.386],"transform":{"scale":[0.0006315986315986316,0.0014443884443884442],"translate":[11632.504,-6926.773]}}
