{"type":"Topology","objects":{"01404-4334-9.featurecollection":{"type":"GeometryCollection","geometries":[{"type":"Polygon","arcs":[[0,1,2,3,4]],"properties":{"市区町村名":"古宇郡神恵内村","大字名":"大字赤石村","丁目名":null,"小字名":null,"地番":"筆界未定地-1","精度区分":null,"座標系":"任意座標系"}},{"type":"Polygon","arcs":[[5,-5,6,7]],"properties":{"市区町村名":"古宇郡神恵内村","大字名":"大字赤石村","丁目名":null,"小字名":null,"地番":"筆界未定地-2","精度区分":null,"座標系":"任意座標系"}},{"type":"Polygon","arcs":[[8,9,10]],"properties":{"市区町村名":"古宇郡神恵内村","大字名":"大字赤石村","丁目名":null,"小字名":null,"地番":"筆界未定地-4","精度区分":null,"座標系":"任意座標系"}},{"type":"Polygon","arcs":[[11,-8,12,13,14,15]],"properties":{"市区町村名":"古宇郡神恵内村","大字名":"大字赤石村","丁目名":null,"小字名":null,"地番":"筆界未定地-7V1","精度区分":null,"座標系":"任意座標系"}},{"type":"Polygon","arcs":[[16,-11,17]],"properties":{"市区町村名":"古宇郡神恵内村","大字名":"大字赤石村","丁目名":null,"小字名":null,"地番":"筆界未定地-7V2","精度区分":null,"座標系":"任意座標系"}},{"type":"Polygon","arcs":[[18,19,20,21]],"properties":{"市区町村名":"古宇郡神恵内村","大字名":"大字赤石村","丁目名":null,"小字名":"字大森","地番":"筆界未定地-29","精度区分":null,"座標系":"任意座標系"}},{"type":"Polygon","arcs":[[22,23,24,25,26,27,28,29]],"properties":{"市区町村名":"古宇郡神恵内村","大字名":"大字赤石村","丁目名":null,"小字名":"字大森","地番":"筆界未定地-31","精度区分":null,"座標系":"任意座標系"}},{"type":"Polygon","arcs":[[30,31,-29,32,33,34,35,36]],"properties":{"市区町村名":"古宇郡神恵内村","大字名":"大字赤石村","丁目名":null,"小字名":"字山ノ上","地番":"筆界未定地-36","精度区分":null,"座標系":"任意座標系"}},{"type":"Polygon","arcs":[[37,38,39,40,41,42,43]],"properties":{"市区町村名":"古宇郡神恵内村","大字名":"大字赤石村","丁目名":null,"小字名":null,"地番":"筆界未定地-12","精度区分":null,"座標系":"任意座標系"}},{"type":"Polygon","arcs":[[44,45,46,47,-39]],"properties":{"市区町村名":"古宇郡神恵内村","大字名":"大字赤石村","丁目名":null,"小字名":"字大森","地番":"筆界未定地-32","精度区分":null,"座標系":"任意座標系"}},{"type":"Polygon","arcs":[[48,49,50,51]],"properties":{"市区町村名":"古宇郡神恵内村","大字名":"大字赤石村","丁目名":null,"小字名":"字ヒサカブハシリ","地番":"筆界未定地-34","精度区分":null,"座標系":"任意座標系"}},{"type":"Polygon","arcs":[[52,53,54,55]],"properties":{"市区町村名":"古宇郡神恵内村","大字名":"大字赤石村","丁目名":null,"小字名":null,"地番":"筆界未定地-16","精度区分":null,"座標系":"任意座標系"}},{"type":"Polygon","arcs":[[-46,56,57,58]],"properties":{"市区町村名":"古宇郡神恵内村","大字名":"大字赤石村","丁目名":null,"小字名":null,"地番":"筆界未定地-18","精度区分":null,"座標系":"任意座標系"}},{"type":"Polygon","arcs":[[59,60,61]],"properties":{"市区町村名":"古宇郡神恵内村","大字名":"大字赤石村","丁目名":null,"小字名":"字ホッケ澗","地番":"655","精度区分":null,"座標系":"任意座標系"}},{"type":"Polygon","arcs":[[62,-61]],"properties":{"市区町村名":"古宇郡神恵内村","大字名":"大字赤石村","丁目名":null,"小字名":"字ホッケ澗","地番":"646","精度区分":null,"座標系":"任意座標系"}},{"type":"Polygon","arcs":[[63]],"properties":{"市区町村名":"古宇郡神恵内村","大字名":"大字赤石村","丁目名":null,"小字名":"字ホッケ澗","地番":"452","精度区分":null,"座標系":"任意座標系"}},{"type":"Polygon","arcs":[[64]],"properties":{"市区町村名":"古宇郡神恵内村","大字名":"大字赤石村","丁目名":null,"小字名":"字ホッケ澗","地番":"12-4","精度区分":null,"座標系":"任意座標系"}},{"type":"Polygon","arcs":[[65]],"properties":{"市区町村名":"古宇郡神恵内村","大字名":"大字赤石村","丁目名":null,"小字名":"字ホッケ澗","地番":"11-1","精度区分":null,"座標系":"任意座標系"}},{"type":"Polygon","arcs":[[66,67,68,69]],"properties":{"市区町村名":"古宇郡神恵内村","大字名":"大字赤石村","丁目名":null,"小字名":null,"地番":"長狭物不明-1","精度区分":null,"座標系":"任意座標系"}},{"type":"Polygon","arcs":[[70,71,72,-67,73,74]],"properties":{"市区町村名":"古宇郡神恵内村","大字名":"大字赤石村","丁目名":null,"小字名":null,"地番":"長狭物不明-4","精度区分":null,"座標系":"任意座標系"}},{"type":"Polygon","arcs":[[75,76,77,78,79,80,81,82,83,84,85]],"properties":{"市区町村名":"古宇郡神恵内村","大字名":"大字赤石村","丁目名":null,"小字名":null,"地番":"長狭物不明-7","精度区分":null,"座標系":"任意座標系"}},{"type":"Polygon","arcs":[[86,87,88]],"properties":{"市区町村名":"古宇郡神恵内村","大字名":"大字赤石村","丁目名":null,"小字名":"字大森","地番":"657","精度区分":null,"座標系":"任意座標系"}},{"type":"Polygon","arcs":[[89,90,-88,91]],"properties":{"市区町村名":"古宇郡神恵内村","大字名":"大字赤石村","丁目名":null,"小字名":null,"地番":"649","精度区分":null,"座標系":"任意座標系"}},{"type":"Polygon","arcs":[[92,-90]],"properties":{"市区町村名":"古宇郡神恵内村","大字名":"大字赤石村","丁目名":null,"小字名":"字大森","地番":"644","精度区分":null,"座標系":"任意座標系"}},{"type":"Polygon","arcs":[[93,-92,-87]],"properties":{"市区町村名":"古宇郡神恵内村","大字名":"大字赤石村","丁目名":null,"小字名":"字大森","地番":"643","精度区分":null,"座標系":"任意座標系"}},{"type":"Polygon","arcs":[[-73,94,-68]],"properties":{"市区町村名":"古宇郡神恵内村","大字名":"大字赤石村","丁目名":null,"小字名":null,"地番":"423","精度区分":null,"座標系":"任意座標系"}},{"type":"Polygon","arcs":[[-81,95,96]],"properties":{"市区町村名":"古宇郡神恵内村","大字名":"大字赤石村","丁目名":null,"小字名":null,"地番":"422","精度区分":null,"座標系":"任意座標系"}},{"type":"Polygon","arcs":[[-79,97]],"properties":{"市区町村名":"古宇郡神恵内村","大字名":"大字赤石村","丁目名":null,"小字名":"字大森","地番":"372","精度区分":null,"座標系":"任意座標系"}},{"type":"Polygon","arcs":[[-74,-70]],"properties":{"市区町村名":"古宇郡神恵内村","大字名":"大字赤石村","丁目名":null,"小字名":"字大森","地番":"16-5","精度区分":null,"座標系":"任意座標系"}},{"type":"Polygon","arcs":[[-71,-82,-97]],"properties":{"市区町村名":"古宇郡神恵内村","大字名":"大字赤石村","丁目名":null,"小字名":"字大森","地番":"14-7","精度区分":null,"座標系":"任意座標系"}},{"type":"Polygon","arcs":[[98,99]],"properties":{"市区町村名":"古宇郡神恵内村","大字名":"大字赤石村","丁目名":null,"小字名":null,"地番":"650","精度区分":null,"座標系":"任意座標系"}},{"type":"Polygon","arcs":[[100,-99]],"properties":{"市区町村名":"古宇郡神恵内村","大字名":"大字赤石村","丁目名":null,"小字名":"字大森","地番":"645","精度区分":null,"座標系":"任意座標系"}},{"type":"Polygon","arcs":[[101,102,103,104,105,106,107,108,109,110]],"properties":{"市区町村名":"古宇郡神恵内村","大字名":"大字赤石村","丁目名":null,"小字名":null,"地番":"長狭物不明-9","精度区分":null,"座標系":"任意座標系"}},{"type":"Polygon","arcs":[[111,112]],"properties":{"市区町村名":"古宇郡神恵内村","大字名":"大字赤石村","丁目名":null,"小字名":null,"地番":"長狭物不明-11","精度区分":null,"座標系":"任意座標系"}},{"type":"Polygon","arcs":[[113,114,115]],"properties":{"市区町村名":"古宇郡神恵内村","大字名":"大字赤石村","丁目名":null,"小字名":"字大森","地番":"51-8","精度区分":null,"座標系":"任意座標系"}},{"type":"Polygon","arcs":[[116,117]],"properties":{"市区町村名":"古宇郡神恵内村","大字名":"大字赤石村","丁目名":null,"小字名":"字大森","地番":"52-6","精度区分":null,"座標系":"任意座標系"}},{"type":"Polygon","arcs":[[118,119,120]],"properties":{"市区町村名":"古宇郡神恵内村","大字名":"大字赤石村","丁目名":null,"小字名":"字大森","地番":"90-3","精度区分":null,"座標系":"任意座標系"}},{"type":"Polygon","arcs":[[121,122,123,124,125]],"properties":{"市区町村名":"古宇郡神恵内村","大字名":"大字赤石村","丁目名":null,"小字名":"字大森","地番":"638-1","精度区分":null,"座標系":"任意座標系"}},{"type":"Polygon","arcs":[[126,127,128,-123]],"properties":{"市区町村名":"古宇郡神恵内村","大字名":"大字赤石村","丁目名":null,"小字名":"字大森","地番":"209-3","精度区分":null,"座標系":"任意座標系"}},{"type":"Polygon","arcs":[[-126,129,130]],"properties":{"市区町村名":"古宇郡神恵内村","大字名":"大字赤石村","丁目名":null,"小字名":"字大森","地番":"210-1","精度区分":null,"座標系":"任意座標系"}},{"type":"Polygon","arcs":[[131,132,133,134,-105,135,136,137]],"properties":{"市区町村名":"古宇郡神恵内村","大字名":"大字赤石村","丁目名":null,"小字名":"字大森","地番":"660","精度区分":null,"座標系":"任意座標系"}},{"type":"Polygon","arcs":[[138,139,140,141,142]],"properties":{"市区町村名":"古宇郡神恵内村","大字名":"大字赤石村","丁目名":null,"小字名":"字大森","地番":"661","精度区分":null,"座標系":"任意座標系"}},{"type":"Polygon","arcs":[[143,144,145,146,147,148]],"properties":{"市区町村名":"古宇郡神恵内村","大字名":"大字赤石村","丁目名":null,"小字名":"字大森","地番":"662","精度区分":null,"座標系":"任意座標系"}},{"type":"Polygon","arcs":[[149,150,151,152,153,154,155,156]],"properties":{"市区町村名":"古宇郡神恵内村","大字名":"大字赤石村","丁目名":null,"小字名":"字大森","地番":"663","精度区分":null,"座標系":"任意座標系"}},{"type":"Polygon","arcs":[[157,158,159,160,161,162]],"properties":{"市区町村名":"古宇郡神恵内村","大字名":"大字赤石村","丁目名":null,"小字名":null,"地番":"664","精度区分":null,"座標系":"任意座標系"}},{"type":"Polygon","arcs":[[163,-146,164,165,166,167]],"properties":{"市区町村名":"古宇郡神恵内村","大字名":"大字赤石村","丁目名":null,"小字名":null,"地番":"659","精度区分":null,"座標系":"任意座標系"}},{"type":"Polygon","arcs":[[168,-160]],"properties":{"市区町村名":"古宇郡神恵内村","大字名":"大字赤石村","丁目名":null,"小字名":null,"地番":"658","精度区分":null,"座標系":"任意座標系"}},{"type":"Polygon","arcs":[[169,170]],"properties":{"市区町村名":"古宇郡神恵内村","大字名":"大字赤石村","丁目名":null,"小字名":null,"地番":"653-4","精度区分":null,"座標系":"任意座標系"}},{"type":"Polygon","arcs":[[171,172,173]],"properties":{"市区町村名":"古宇郡神恵内村","大字名":"大字赤石村","丁目名":null,"小字名":null,"地番":"653-1","精度区分":null,"座標系":"任意座標系"}},{"type":"Polygon","arcs":[[-168,174,175,176]],"properties":{"市区町村名":"古宇郡神恵内村","大字名":"大字赤石村","丁目名":null,"小字名":"字大森","地番":"52-5","精度区分":null,"座標系":"任意座標系"}},{"type":"Polygon","arcs":[[177,178,-175,-167]],"properties":{"市区町村名":"古宇郡神恵内村","大字名":"大字赤石村","丁目名":null,"小字名":"字大森","地番":"51-7","精度区分":null,"座標系":"任意座標系"}},{"type":"Polygon","arcs":[[179,-158,180,181]],"properties":{"市区町村名":"古宇郡神恵内村","大字名":"大字赤石村","丁目名":null,"小字名":null,"地番":"34-4","精度区分":null,"座標系":"任意座標系"}},{"type":"Polygon","arcs":[[182,183,184,-180]],"properties":{"市区町村名":"古宇郡神恵内村","大字名":"大字赤石村","丁目名":null,"小字名":"字横澗","地番":"35-2","精度区分":null,"座標系":"任意座標系"}},{"type":"Polygon","arcs":[[185,186,-159,-185]],"properties":{"市区町村名":"古宇郡神恵内村","大字名":"大字赤石村","丁目名":null,"小字名":"字大森","地番":"292-4","精度区分":null,"座標系":"任意座標系"}},{"type":"Polygon","arcs":[[-170,187,-169,-187]],"properties":{"市区町村名":"古宇郡神恵内村","大字名":"大字赤石村","丁目名":null,"小字名":"字大森","地番":"292-1","精度区分":null,"座標系":"任意座標系"}},{"type":"Polygon","arcs":[[188,189,190,191]],"properties":{"市区町村名":"古宇郡神恵内村","大字名":"大字赤石村","丁目名":null,"小字名":null,"地番":"道-1","精度区分":null,"座標系":"任意座標系"}},{"type":"Polygon","arcs":[[192,193,194]],"properties":{"市区町村名":"古宇郡神恵内村","大字名":"大字赤石村","丁目名":null,"小字名":null,"地番":"道-3","精度区分":null,"座標系":"任意座標系"}},{"type":"Polygon","arcs":[[195,196,197,198,199]],"properties":{"市区町村名":"古宇郡神恵内村","大字名":"大字赤石村","丁目名":null,"小字名":null,"地番":"道-5","精度区分":null,"座標系":"任意座標系"}},{"type":"Polygon","arcs":[[-18,-10,200,201,202,203,204,205,206,207,208,209,210,211,212,213,-150,214,215,216,-57,-45,-38,217,218,219,220,221,222,223,224,225,226,227,228,229,230,231,232,233,234,-6,-12,235,236,237,238]],"properties":{"市区町村名":"古宇郡神恵内村","大字名":"大字赤石村","丁目名":null,"小字名":null,"地番":"道-7","精度区分":null,"座標系":"任意座標系"}},{"type":"Polygon","arcs":[[-59,239,240,241]],"properties":{"市区町村名":"古宇郡神恵内村","大字名":"大字赤石村","丁目名":null,"小字名":"字大森","地番":"269-1","精度区分":null,"座標系":"任意座標系"}},{"type":"Polygon","arcs":[[242,243,244,245]],"properties":{"市区町村名":"古宇郡神恵内村","大字名":"大字赤石村","丁目名":null,"小字名":"字山ノ上","地番":"54-2","精度区分":null,"座標系":"任意座標系"}},{"type":"Polygon","arcs":[[-244,246,247,-200,248,249]],"properties":{"市区町村名":"古宇郡神恵内村","大字名":"大字赤石村","丁目名":null,"小字名":"字山ノ上","地番":"54-1","精度区分":null,"座標系":"任意座標系"}},{"type":"Polygon","arcs":[[-194,250,251,252,253]],"properties":{"市区町村名":"古宇郡神恵内村","大字名":"大字赤石村","丁目名":null,"小字名":"字山ノ上","地番":"22-3","精度区分":null,"座標系":"任意座標系"}},{"type":"Polygon","arcs":[[254,255,256,257,258,259,-181,-163,260,261,262,263,264,265,266,267,-263,268,269,270,-141,271,272]],"properties":{"市区町村名":"古宇郡神恵内村","大字名":"大字赤石村","丁目名":null,"小字名":null,"地番":"長狭物不明-17","精度区分":null,"座標系":"任意座標系"}},{"type":"Polygon","arcs":[[-134,273,274,275,276,277,278,279,280,281,282,283,284,285,286,287,288,289,290,291,292,293,294,295,296,297,298,299,300,-191,301,302,303,304,305,306,307,-113,308,309,-303,310,311]],"properties":{"市区町村名":"古宇郡神恵内村","大字名":"大字赤石村","丁目名":null,"小字名":null,"地番":"長狭物不明-19","精度区分":null,"座標系":"任意座標系"}},{"type":"Polygon","arcs":[[-112,-308,312,313,-305,314,-309]],"properties":{"市区町村名":"古宇郡神恵内村","大字名":"大字赤石村","丁目名":null,"小字名":"字大森","地番":"115","精度区分":null,"座標系":"任意座標系"}},{"type":"Polygon","arcs":[[315,-55,316,317,318]],"properties":{"市区町村名":"古宇郡神恵内村","大字名":"大字赤石村","丁目名":null,"小字名":"字大森","地番":"489-1","精度区分":null,"座標系":"任意座標系"}},{"type":"Polygon","arcs":[[319,320,321,322,323,324,-50,325,326,327,328,329,330,331,332,333,334,-53,335,336,337,338,339]],"properties":{"市区町村名":"古宇郡神恵内村","大字名":"大字赤石村","丁目名":null,"小字名":null,"地番":"640","精度区分":null,"座標系":"任意座標系"}},{"type":"Polygon","arcs":[[-212,340]],"properties":{"市区町村名":"古宇郡神恵内村","大字名":"大字赤石村","丁目名":null,"小字名":null,"地番":"32-15","精度区分":null,"座標系":"任意座標系"}},{"type":"Polygon","arcs":[[341,342,343,344]],"properties":{"市区町村名":"古宇郡神恵内村","大字名":"大字赤石村","丁目名":null,"小字名":null,"地番":"653-2","精度区分":null,"座標系":"任意座標系"}},{"type":"Polygon","arcs":[[-345,345,-171,-186,-184,346,-172,347]],"properties":{"市区町村名":"古宇郡神恵内村","大字名":"大字赤石村","丁目名":null,"小字名":null,"地番":"653-3","精度区分":null,"座標系":"任意座標系"}},{"type":"Polygon","arcs":[[348,349,-256]],"properties":{"市区町村名":"古宇郡神恵内村","大字名":"大字赤石村","丁目名":null,"小字名":null,"地番":"652-2","精度区分":null,"座標系":"任意座標系"}},{"type":"Polygon","arcs":[[-350,350,351,352,-257]],"properties":{"市区町村名":"古宇郡神恵内村","大字名":"大字赤石村","丁目名":null,"小字名":null,"地番":"652-1","精度区分":null,"座標系":"任意座標系"}},{"type":"Polygon","arcs":[[353,-216,354]],"properties":{"市区町村名":"古宇郡神恵内村","大字名":"大字赤石村","丁目名":null,"小字名":null,"地番":"32-6","精度区分":null,"座標系":"任意座標系"}},{"type":"Polygon","arcs":[[355,-143,356,-165,-145,357]],"properties":{"市区町村名":"古宇郡神恵内村","大字名":"大字赤石村","丁目名":null,"小字名":null,"地番":"634","精度区分":null,"座標系":"任意座標系"}},{"type":"Polygon","arcs":[[-142,-271,358,-166,-357]],"properties":{"市区町村名":"古宇郡神恵内村","大字名":"大字赤石村","丁目名":null,"小字名":null,"地番":"長狭物不明-25","精度区分":null,"座標系":"任意座標系"}},{"type":"Polygon","arcs":[[359,360,-300,361]],"properties":{"市区町村名":"古宇郡神恵内村","大字名":"大字赤石村","丁目名":null,"小字名":"字大森","地番":"395","精度区分":null,"座標系":"任意座標系"}},{"type":"Polygon","arcs":[[-346,362,-161,-188]],"properties":{"市区町村名":"古宇郡神恵内村","大字名":"大字赤石村","丁目名":null,"小字名":"字大森","地番":"292-3","精度区分":null,"座標系":"任意座標系"}},{"type":"Polygon","arcs":[[-344,363,364,-363]],"properties":{"市区町村名":"古宇郡神恵内村","大字名":"大字赤石村","丁目名":null,"小字名":"字大森","地番":"292-2","精度区分":null,"座標系":"任意座標系"}},{"type":"Polygon","arcs":[[365,-56,-316]],"properties":{"市区町村名":"古宇郡神恵内村","大字名":"大字赤石村","丁目名":null,"小字名":"字大森","地番":"489-2","精度区分":null,"座標系":"任意座標系"}},{"type":"Polygon","arcs":[[366,-192,-301,-361,367]],"properties":{"市区町村名":"古宇郡神恵内村","大字名":"大字赤石村","丁目名":null,"小字名":"字大森","地番":"219","精度区分":null,"座標系":"任意座標系"}},{"type":"Polygon","arcs":[[-127,368,369,-114]],"properties":{"市区町村名":"古宇郡神恵内村","大字名":"大字赤石村","丁目名":null,"小字名":"字大森","地番":"209-2","精度区分":null,"座標系":"任意座標系"}},{"type":"Polygon","arcs":[[370,-131,371,372,373]],"properties":{"市区町村名":"古宇郡神恵内村","大字名":"大字赤石村","丁目名":null,"小字名":"字大森","地番":"210-2","精度区分":null,"座標系":"任意座標系"}},{"type":"Polygon","arcs":[[374,-311,-302,-190,375]],"properties":{"市区町村名":"古宇郡神恵内村","大字名":"大字赤石村","丁目名":null,"小字名":"字大森","地番":"160","精度区分":null,"座標系":"任意座標系"}},{"type":"Polygon","arcs":[[376,377,-368,-360]],"properties":{"市区町村名":"古宇郡神恵内村","大字名":"大字赤石村","丁目名":null,"小字名":null,"地番":"長狭物不明-27","精度区分":null,"座標系":"任意座標系"}},{"type":"Polygon","arcs":[[378,379,380,-107,381,-378,382,383]],"properties":{"市区町村名":"古宇郡神恵内村","大字名":"大字赤石村","丁目名":null,"小字名":"字大森","地番":"370","精度区分":null,"座標系":"任意座標系"}},{"type":"Polygon","arcs":[[384,-384,385,386,-251]],"properties":{"市区町村名":"古宇郡神恵内村","大字名":"大字赤石村","丁目名":null,"小字名":"字大森","地番":"369","精度区分":null,"座標系":"任意座標系"}},{"type":"Polygon","arcs":[[-106,-135,-312,-375,387,-376,-189,-367,-382]],"properties":{"市区町村名":"古宇郡神恵内村","大字名":"大字赤石村","丁目名":null,"小字名":"字大森","地番":"94-1","精度区分":null,"座標系":"任意座標系"}},{"type":"Polygon","arcs":[[-388]],"properties":{"市区町村名":"古宇郡神恵内村","大字名":"大字赤石村","丁目名":null,"小字名":"字大森","地番":"94-2","精度区分":null,"座標系":"任意座標系"}},{"type":"Polygon","arcs":[[-199,388,-195,-254,389,390]],"properties":{"市区町村名":"古宇郡神恵内村","大字名":"大字赤石村","丁目名":null,"小字名":"字山ノ上","地番":"93","精度区分":null,"座標系":"任意座標系"}},{"type":"Polygon","arcs":[[-198,391,392,393,394,-385,-193,-389]],"properties":{"市区町村名":"古宇郡神恵内村","大字名":"大字赤石村","丁目名":null,"小字名":"字大森","地番":"83-1","精度区分":null,"座標系":"任意座標系"}},{"type":"Polygon","arcs":[[-394,395,-111,396]],"properties":{"市区町村名":"古宇郡神恵内村","大字名":"大字赤石村","丁目名":null,"小字名":"字大森","地番":"83-5","精度区分":null,"座標系":"任意座標系"}},{"type":"Polygon","arcs":[[-110,397,-379,-395,-397]],"properties":{"市区町村名":"古宇郡神恵内村","大字名":"大字赤石村","丁目名":null,"小字名":"字大森","地番":"83-4","精度区分":null,"座標系":"任意座標系"}},{"type":"Polygon","arcs":[[-398,-109,398,-380]],"properties":{"市区町村名":"古宇郡神恵内村","大字名":"大字赤石村","丁目名":null,"小字名":"字大森","地番":"83-3","精度区分":null,"座標系":"任意座標系"}},{"type":"Polygon","arcs":[[-108,-381,-399]],"properties":{"市区町村名":"古宇郡神恵内村","大字名":"大字赤石村","丁目名":null,"小字名":"字大森","地番":"83-2","精度区分":null,"座標系":"任意座標系"}},{"type":"Polygon","arcs":[[399,400,401,402]],"properties":{"市区町村名":"古宇郡神恵内村","大字名":"大字赤石村","丁目名":null,"小字名":"字大森","地番":"81-1","精度区分":null,"座標系":"任意座標系"}},{"type":"Polygon","arcs":[[403,404,405,-179]],"properties":{"市区町村名":"古宇郡神恵内村","大字名":"大字赤石村","丁目名":null,"小字名":"字大森","地番":"51-6","精度区分":null,"座標系":"任意座標系"}},{"type":"Polygon","arcs":[[406,407,408]],"properties":{"市区町村名":"古宇郡神恵内村","大字名":"大字赤石村","丁目名":null,"小字名":"字大森","地番":"51-5","精度区分":null,"座標系":"任意座標系"}},{"type":"Polygon","arcs":[[409,-407,410,411,-405]],"properties":{"市区町村名":"古宇郡神恵内村","大字名":"大字赤石村","丁目名":null,"小字名":"字大森","地番":"51-4","精度区分":null,"座標系":"任意座標系"}},{"type":"Polygon","arcs":[[412,413,414,415]],"properties":{"市区町村名":"古宇郡神恵内村","大字名":"大字赤石村","丁目名":null,"小字名":"字大森","地番":"51-3","精度区分":null,"座標系":"任意座標系"}},{"type":"Polygon","arcs":[[-411,-409,416,-416,-128,-116,417]],"properties":{"市区町村名":"古宇郡神恵内村","大字名":"大字赤石村","丁目名":null,"小字名":"字大森","地番":"51-2","精度区分":null,"座標系":"任意座標系"}},{"type":"Polygon","arcs":[[-404,-178,-359,-270,-413,-417,-408,-410]],"properties":{"市区町村名":"古宇郡神恵内村","大字名":"大字赤石村","丁目名":null,"小字名":"字大森","地番":"51-1","精度区分":null,"座標系":"任意座標系"}},{"type":"Polygon","arcs":[[-412,418,419,420]],"properties":{"市区町村名":"古宇郡神恵内村","大字名":"大字赤石村","丁目名":null,"小字名":"字大森","地番":"52-3","精度区分":null,"座標系":"任意座標系"}},{"type":"Polygon","arcs":[[-421,421,-176,-406]],"properties":{"市区町村名":"古宇郡神恵内村","大字名":"大字赤石村","丁目名":null,"小字名":"字大森","地番":"52-4","精度区分":null,"座標系":"任意座標系"}},{"type":"Polygon","arcs":[[-177,-422,-420,422,423]],"properties":{"市区町村名":"古宇郡神恵内村","大字名":"大字赤石村","丁目名":null,"小字名":"字大森","地番":"52-1","精度区分":null,"座標系":"任意座標系"}},{"type":"Polygon","arcs":[[-423,-419,424,-117,425]],"properties":{"市区町村名":"古宇郡神恵内村","大字名":"大字赤石村","丁目名":null,"小字名":"字大森","地番":"52-2","精度区分":null,"座標系":"任意座標系"}},{"type":"Polygon","arcs":[[-310,-315,-304]],"properties":{"市区町村名":"古宇郡神恵内村","大字名":"大字赤石村","丁目名":null,"小字名":"字滝ノ沢","地番":"50-1","精度区分":null,"座標系":"任意座標系"}},{"type":"Polygon","arcs":[[426,-372,-130,-403]],"properties":{"市区町村名":"古宇郡神恵内村","大字名":"大字赤石村","丁目名":null,"小字名":"字大森","地番":"48","精度区分":null,"座標系":"任意座標系"}},{"type":"Polygon","arcs":[[-336,-366,427,428]],"properties":{"市区町村名":"古宇郡神恵内村","大字名":"大字赤石村","丁目名":null,"小字名":null,"地番":"44-4","精度区分":null,"座標系":"任意座標系"}},{"type":"Polygon","arcs":[[429,-337,-429]],"properties":{"市区町村名":"古宇郡神恵内村","大字名":"大字赤石村","丁目名":null,"小字名":null,"地番":"44-3","精度区分":null,"座標系":"任意座標系"}},{"type":"Polygon","arcs":[[-338,-430,430,-281,431]],"properties":{"市区町村名":"古宇郡神恵内村","大字名":"大字赤石村","丁目名":null,"小字名":null,"地番":"44-2","精度区分":null,"座標系":"任意座標系"}},{"type":"Polygon","arcs":[[-319,432,433,434,435,-282,-431,-428]],"properties":{"市区町村名":"古宇郡神恵内村","大字名":"大字赤石村","丁目名":null,"小字名":null,"地番":"44-1","精度区分":null,"座標系":"任意座標系"}},{"type":"Polygon","arcs":[[-340,436,437]],"properties":{"市区町村名":"古宇郡神恵内村","大字名":"大字赤石村","丁目名":null,"小字名":"字横澗","地番":"43-2","精度区分":null,"座標系":"任意座標系"}},{"type":"Polygon","arcs":[[-437,-339,-432,-280]],"properties":{"市区町村名":"古宇郡神恵内村","大字名":"大字赤石村","丁目名":null,"小字名":"字横澗","地番":"43-1","精度区分":null,"座標系":"任意座標系"}},{"type":"Polygon","arcs":[[438,439,-322]],"properties":{"市区町村名":"古宇郡神恵内村","大字名":"大字赤石村","丁目名":null,"小字名":"字横澗","地番":"42","精度区分":null,"座標系":"任意座標系"}},{"type":"Polygon","arcs":[[440,441,442,-103]],"properties":{"市区町村名":"古宇郡神恵内村","大字名":"大字赤石村","丁目名":null,"小字名":"字大森","地番":"39-1","精度区分":null,"座標系":"任意座標系"}},{"type":"Polygon","arcs":[[443,-136,-104,-443]],"properties":{"市区町村名":"古宇郡神恵内村","大字名":"大字赤石村","丁目名":null,"小字名":"字大森","地番":"39-2","精度区分":null,"座標系":"任意座標系"}},{"type":"Polygon","arcs":[[444,445,446,447,-243]],"properties":{"市区町村名":"古宇郡神恵内村","大字名":"大字赤石村","丁目名":null,"小字名":"字大森","地番":"38-2","精度区分":null,"座標系":"任意座標系"}},{"type":"Polygon","arcs":[[-448,448,449,-247]],"properties":{"市区町村名":"古宇郡神恵内村","大字名":"大字赤石村","丁目名":null,"小字名":"字大森","地番":"38-1","精度区分":null,"座標系":"任意座標系"}},{"type":"Polygon","arcs":[[450,451,452,453,454,455,456]],"properties":{"市区町村名":"古宇郡神恵内村","大字名":"大字赤石村","丁目名":null,"小字名":"字大森","地番":"37-7","精度区分":null,"座標系":"任意座標系"}},{"type":"Polygon","arcs":[[-452,457,458]],"properties":{"市区町村名":"古宇郡神恵内村","大字名":"大字赤石村","丁目名":null,"小字名":"字大森","地番":"37-9","精度区分":null,"座標系":"任意座標系"}},{"type":"Polygon","arcs":[[459,460,461,462,463,-453,-459]],"properties":{"市区町村名":"古宇郡神恵内村","大字名":"大字赤石村","丁目名":null,"小字名":"字大森","地番":"37-6","精度区分":null,"座標系":"任意座標系"}},{"type":"Polygon","arcs":[[-463,464,465,466]],"properties":{"市区町村名":"古宇郡神恵内村","大字名":"大字赤石村","丁目名":null,"小字名":"字大森","地番":"37-12","精度区分":null,"座標系":"任意座標系"}},{"type":"Polygon","arcs":[[467,-455,468,469,-392,-197]],"properties":{"市区町村名":"古宇郡神恵内村","大字名":"大字赤石村","丁目名":null,"小字名":"字大森","地番":"37-4","精度区分":null,"座標系":"任意座標系"}},{"type":"Polygon","arcs":[[-469,-454,-464,-467]],"properties":{"市区町村名":"古宇郡神恵内村","大字名":"大字赤石村","丁目名":null,"小字名":"字大森","地番":"37-10","精度区分":null,"座標系":"任意座標系"}},{"type":"Polygon","arcs":[[470,-396,-393,-470,-466]],"properties":{"市区町村名":"古宇郡神恵内村","大字名":"大字赤石村","丁目名":null,"小字名":"字大森","地番":"37-5","精度区分":null,"座標系":"任意座標系"}},{"type":"Polygon","arcs":[[471,-449,-447,472]],"properties":{"市区町村名":"古宇郡神恵内村","大字名":"大字赤石村","丁目名":null,"小字名":"字大森","地番":"37-11","精度区分":null,"座標系":"任意座標系"}},{"type":"Polygon","arcs":[[473,-456,-468,-196,-248,-450,-472]],"properties":{"市区町村名":"古宇郡神恵内村","大字名":"大字赤石村","丁目名":null,"小字名":"字大森","地番":"37-3","精度区分":null,"座標系":"任意座標系"}},{"type":"Polygon","arcs":[[-457,-474,-473,-446,474]],"properties":{"市区町村名":"古宇郡神恵内村","大字名":"大字赤石村","丁目名":null,"小字名":"字大森","地番":"37-8","精度区分":null,"座標系":"任意座標系"}},{"type":"Polygon","arcs":[[475,-154,476]],"properties":{"市区町村名":"古宇郡神恵内村","大字名":"大字赤石村","丁目名":null,"小字名":"字大森","地番":"37-2","精度区分":null,"座標系":"任意座標系"}},{"type":"Polygon","arcs":[[-153,477,-358,-144,478,-477]],"properties":{"市区町村名":"古宇郡神恵内村","大字名":"大字赤石村","丁目名":null,"小字名":"字大森","地番":"37-1","精度区分":null,"座標系":"任意座標系"}},{"type":"Polygon","arcs":[[479,-155,-476,-479,-149]],"properties":{"市区町村名":"古宇郡神恵内村","大字名":"大字赤石村","丁目名":null,"小字名":"字大森","地番":"481","精度区分":null,"座標系":"任意座標系"}},{"type":"Polygon","arcs":[[480,481,482,483]],"properties":{"市区町村名":"古宇郡神恵内村","大字名":"大字赤石村","丁目名":null,"小字名":"字大森","地番":"36-4","精度区分":null,"座標系":"任意座標系"}},{"type":"Polygon","arcs":[[484,485,-461,486]],"properties":{"市区町村名":"古宇郡神恵内村","大字名":"大字赤石村","丁目名":null,"小字名":null,"地番":"641","精度区分":null,"座標系":"任意座標系"}},{"type":"Polygon","arcs":[[487,488,-442,489]],"properties":{"市区町村名":"古宇郡神恵内村","大字名":"大字赤石村","丁目名":null,"小字名":"字大森","地番":"482-1","精度区分":null,"座標系":"任意座標系"}},{"type":"Polygon","arcs":[[-483,-488,490,491]],"properties":{"市区町村名":"古宇郡神恵内村","大字名":"大字赤石村","丁目名":null,"小字名":"字大森","地番":"482-3","精度区分":null,"座標系":"任意座標系"}},{"type":"Polygon","arcs":[[-484,492,493]],"properties":{"市区町村名":"古宇郡神恵内村","大字名":"大字赤石村","丁目名":null,"小字名":"字大森","地番":"36-2","精度区分":null,"座標系":"任意座標系"}},{"type":"Polygon","arcs":[[-137,-444,-489,-482]],"properties":{"市区町村名":"古宇郡神恵内村","大字名":"大字赤石村","丁目名":null,"小字名":"字大森","地番":"36-1","精度区分":null,"座標系":"任意座標系"}},{"type":"Polygon","arcs":[[494,-264,-268]],"properties":{"市区町村名":"古宇郡神恵内村","大字名":"大字赤石村","丁目名":null,"小字名":"字大森","地番":"34-1","精度区分":null,"座標系":"任意座標系"}},{"type":"Polygon","arcs":[[-353,495,-258]],"properties":{"市区町村名":"古宇郡神恵内村","大字名":"大字赤石村","丁目名":null,"小字名":null,"地番":"34-2","精度区分":null,"座標系":"任意座標系"}},{"type":"Polygon","arcs":[[496,-173,-347,-183,497,498]],"properties":{"市区町村名":"古宇郡神恵内村","大字名":"大字赤石村","丁目名":null,"小字名":"字横澗","地番":"35-1","精度区分":null,"座標系":"任意座標系"}},{"type":"Polygon","arcs":[[-498,-182,-260,499]],"properties":{"市区町村名":"古宇郡神恵内村","大字名":"大字赤石村","丁目名":null,"小字名":null,"地番":"34-3","精度区分":null,"座標系":"任意座標系"}},{"type":"Polygon","arcs":[[-352,500,-499,-500,-259,-496]],"properties":{"市区町村名":"古宇郡神恵内村","大字名":"大字赤石村","丁目名":null,"小字名":null,"地番":"34-1","精度区分":null,"座標系":"任意座標系"}},{"type":"Polygon","arcs":[[-214,501,-273,502]],"properties":{"市区町村名":"古宇郡神恵内村","大字名":"大字赤石村","丁目名":null,"小字名":null,"地番":"647","精度区分":null,"座標系":"任意座標系"}},{"type":"Polygon","arcs":[[-503,503,504,-151]],"properties":{"市区町村名":"古宇郡神恵内村","大字名":"大字赤石村","丁目名":null,"小字名":null,"地番":"33-2","精度区分":null,"座標系":"任意座標系"}},{"type":"Polygon","arcs":[[-505,505,-139,-356,-478,-152]],"properties":{"市区町村名":"古宇郡神恵内村","大字名":"大字赤石村","丁目名":null,"小字名":null,"地番":"33-1","精度区分":null,"座標系":"任意座標系"}},{"type":"Polygon","arcs":[[-504,-272,-140,-506]],"properties":{"市区町村名":"古宇郡神恵内村","大字名":"大字赤石村","丁目名":null,"小字名":"字大森","地番":"480","精度区分":null,"座標系":"任意座標系"}},{"type":"Polygon","arcs":[[-241,506]],"properties":{"市区町村名":"古宇郡神恵内村","大字名":"大字赤石村","丁目名":null,"小字名":"字大森","地番":"269-2","精度区分":null,"座標系":"任意座標系"}},{"type":"Polygon","arcs":[[-276,507,508]],"properties":{"市区町村名":"古宇郡神恵内村","大字名":"大字赤石村","丁目名":null,"小字名":"字大森","地番":"92","精度区分":null,"座標系":"任意座標系"}},{"type":"Polygon","arcs":[[509,510,-508,-275,511]],"properties":{"市区町村名":"古宇郡神恵内村","大字名":"大字赤石村","丁目名":null,"小字名":"字大森","地番":"28-1","精度区分":null,"座標系":"任意座標系"}},{"type":"Polygon","arcs":[[-510,512,513]],"properties":{"市区町村名":"古宇郡神恵内村","大字名":"大字赤石村","丁目名":null,"小字名":"字大森","地番":"28-2","精度区分":null,"座標系":"任意座標系"}},{"type":"Polygon","arcs":[[514,515,516]],"properties":{"市区町村名":"古宇郡神恵内村","大字名":"大字赤石村","丁目名":null,"小字名":"字大森","地番":"82","精度区分":null,"座標系":"任意座標系"}},{"type":"Polygon","arcs":[[517,518,519]],"properties":{"市区町村名":"古宇郡神恵内村","大字名":"大字赤石村","丁目名":null,"小字名":"字大森","地番":"91-2","精度区分":null,"座標系":"任意座標系"}},{"type":"Polygon","arcs":[[-519,-278,520]],"properties":{"市区町村名":"古宇郡神恵内村","大字名":"大字赤石村","丁目名":null,"小字名":"字大森","地番":"91-1","精度区分":null,"座標系":"任意座標系"}},{"type":"Polygon","arcs":[[521,-517,522,-513,523,-119]],"properties":{"市区町村名":"古宇郡神恵内村","大字名":"大字赤石村","丁目名":null,"小字名":"字大森","地番":"90-2","精度区分":null,"座標系":"任意座標系"}},{"type":"Polygon","arcs":[[-120,-524,-512,-274,-133]],"properties":{"市区町村名":"古宇郡神恵内村","大字名":"大字赤石村","丁目名":null,"小字名":"字大森","地番":"90-1","精度区分":null,"座標系":"任意座標系"}},{"type":"Polygon","arcs":[[524,-520,525,-514,-523,-516]],"properties":{"市区町村名":"古宇郡神恵内村","大字名":"大字赤石村","丁目名":null,"小字名":"字大森","地番":"639","精度区分":null,"座標系":"任意座標系"}},{"type":"Polygon","arcs":[[-526,-521,-277,-509,-511]],"properties":{"市区町村名":"古宇郡神恵内村","大字名":"大字赤石村","丁目名":null,"小字名":null,"地番":"道-9","精度区分":null,"座標系":"任意座標系"}},{"type":"Polygon","arcs":[[526,-265,-495,-267]],"properties":{"市区町村名":"古宇郡神恵内村","大字名":"大字赤石村","丁目名":null,"小字名":"字大森","地番":"27-1","精度区分":null,"座標系":"任意座標系"}},{"type":"Polygon","arcs":[[527,-525,-515]],"properties":{"市区町村名":"古宇郡神恵内村","大字名":"大字赤石村","丁目名":null,"小字名":"字大森","地番":"26-4","精度区分":null,"座標系":"任意座標系"}},{"type":"Polygon","arcs":[[-527,-266]],"properties":{"市区町村名":"古宇郡神恵内村","大字名":"大字赤石村","丁目名":null,"小字名":null,"地番":"23-3","精度区分":null,"座標系":"任意座標系"}},{"type":"Polygon","arcs":[[-343,528,-364]],"properties":{"市区町村名":"古宇郡神恵内村","大字名":"大字赤石村","丁目名":null,"小字名":"字大森","地番":"13-4","精度区分":null,"座標系":"任意座標系"}},{"type":"Polygon","arcs":[[-314,529,-306]],"properties":{"市区町村名":"古宇郡神恵内村","大字名":"大字赤石村","丁目名":null,"小字名":null,"地番":"無地番-1","精度区分":null,"座標系":"任意座標系"}},{"type":"Polygon","arcs":[[-433,-318,530,-332,531,532,533,534,535,536,537,538,-283,-436,539,540,541,542,543]],"properties":{"市区町村名":"古宇郡神恵内村","大字名":"大字赤石村","丁目名":null,"小字名":null,"地番":"道-11","精度区分":null,"座標系":"任意座標系"}},{"type":"Polygon","arcs":[[-298,544,545,546,547,548]],"properties":{"市区町村名":"古宇郡神恵内村","大字名":"大字赤石村","丁目名":null,"小字名":"字滝ノ沢","地番":"49-1","精度区分":null,"座標系":"任意座標系"}},{"type":"Polygon","arcs":[[-297,549,550,551,-545]],"properties":{"市区町村名":"古宇郡神恵内村","大字名":"大字赤石村","丁目名":null,"小字名":"字大森","地番":"321","精度区分":null,"座標系":"任意座標系"}},{"type":"Polygon","arcs":[[552,553,554,555,556,557,558,559,560,561,562,563,-551]],"properties":{"市区町村名":"古宇郡神恵内村","大字名":"大字赤石村","丁目名":null,"小字名":null,"地番":"道-13","精度区分":null,"座標系":"任意座標系"}},{"type":"Polygon","arcs":[[-296,564,565,-293,566,-550]],"properties":{"市区町村名":"古宇郡神恵内村","大字名":"大字赤石村","丁目名":null,"小字名":null,"地番":"道-15","精度区分":null,"座標系":"任意座標系"}},{"type":"Polygon","arcs":[[567,-537,568,-291]],"properties":{"市区町村名":"古宇郡神恵内村","大字名":"大字赤石村","丁目名":null,"小字名":"字大森","地番":"340","精度区分":null,"座標系":"任意座標系"}},{"type":"Polygon","arcs":[[-84,-326,-49,569]],"properties":{"市区町村名":"古宇郡神恵内村","大字名":"大字赤石村","丁目名":null,"小字名":null,"地番":"642-3","精度区分":null,"座標系":"任意座標系"}},{"type":"Polygon","arcs":[[570,-51,-325]],"properties":{"市区町村名":"古宇郡神恵内村","大字名":"大字赤石村","丁目名":null,"小字名":null,"地番":"642-4","精度区分":null,"座標系":"任意座標系"}},{"type":"Polygon","arcs":[[-530,-313,-307]],"properties":{"市区町村名":"古宇郡神恵内村","大字名":"大字赤石村","丁目名":null,"小字名":"字大森","地番":"386","精度区分":null,"座標系":"任意座標系"}},{"type":"Polygon","arcs":[[-77,571]],"properties":{"市区町村名":"古宇郡神恵内村","大字名":"大字赤石村","丁目名":null,"小字名":"字大森","地番":"371","精度区分":null,"座標系":"任意座標系"}},{"type":"Polygon","arcs":[[-317,-54,-335,572,-333,-531]],"properties":{"市区町村名":"古宇郡神恵内村","大字名":"大字赤石村","丁目名":null,"小字名":"字大森","地番":"409","精度区分":null,"座標系":"任意座標系"}},{"type":"Polygon","arcs":[[-334,-573]],"properties":{"市区町村名":"古宇郡神恵内村","大字名":"大字赤石村","丁目名":null,"小字名":"字大森","地番":"409-2","精度区分":null,"座標系":"任意座標系"}},{"type":"Polygon","arcs":[[-329,573,574]],"properties":{"市区町村名":"古宇郡神恵内村","大字名":"大字赤石村","丁目名":null,"小字名":"字大森","地番":"392-2","精度区分":null,"座標系":"任意座標系"}},{"type":"Polygon","arcs":[[575,-574,-328,576]],"properties":{"市区町村名":"古宇郡神恵内村","大字名":"大字赤石村","丁目名":null,"小字名":"字大森","地番":"392-1","精度区分":null,"座標系":"任意座標系"}},{"type":"Polygon","arcs":[[-330,-575,577]],"properties":{"市区町村名":"古宇郡神恵内村","大字名":"大字赤石村","丁目名":null,"小字名":"字大森","地番":"290-2","精度区分":null,"座標系":"任意座標系"}},{"type":"Polygon","arcs":[[-331,-578,-576,-532]],"properties":{"市区町村名":"古宇郡神恵内村","大字名":"大字赤石村","丁目名":null,"小字名":"字大森","地番":"290-1","精度区分":null,"座標系":"任意座標系"}},{"type":"Polygon","arcs":[[578,579,-434,-544]],"properties":{"市区町村名":"古宇郡神恵内村","大字名":"大字赤石村","丁目名":null,"小字名":"字大森","地番":"434","精度区分":null,"座標系":"任意座標系"}},{"type":"Polygon","arcs":[[-579,-543,580,581]],"properties":{"市区町村名":"古宇郡神恵内村","大字名":"大字赤石村","丁目名":null,"小字名":"字大森","地番":"408","精度区分":null,"座標系":"任意座標系"}},{"type":"Polygon","arcs":[[-285,582,-287,583]],"properties":{"市区町村名":"古宇郡神恵内村","大字名":"大字赤石村","丁目名":null,"小字名":"字大森","地番":"441","精度区分":null,"座標系":"任意座標系"}},{"type":"Polygon","arcs":[[584,-582,585,-541]],"properties":{"市区町村名":"古宇郡神恵内村","大字名":"大字赤石村","丁目名":null,"小字名":"字大森","地番":"437","精度区分":null,"座標系":"任意座標系"}},{"type":"Polygon","arcs":[[-539,586,587,-288,-583,-284]],"properties":{"市区町村名":"古宇郡神恵内村","大字名":"大字赤石村","丁目名":null,"小字名":"字大森","地番":"438","精度区分":null,"座標系":"任意座標系"}},{"type":"Polygon","arcs":[[-581,-542,-586]],"properties":{"市区町村名":"古宇郡神恵内村","大字名":"大字赤石村","丁目名":null,"小字名":"字大森","地番":"436","精度区分":null,"座標系":"任意座標系"}},{"type":"Polygon","arcs":[[588,-294,-566]],"properties":{"市区町村名":"古宇郡神恵内村","大字名":"大字赤石村","丁目名":null,"小字名":"字大森","地番":"394","精度区分":null,"座標系":"任意座標系"}},{"type":"Polygon","arcs":[[-295,-589,-565]],"properties":{"市区町村名":"古宇郡神恵内村","大字名":"大字赤石村","丁目名":null,"小字名":"字大森","地番":"377","精度区分":null,"座標系":"任意座標系"}},{"type":"Polygon","arcs":[[589,590,-534]],"properties":{"市区町村名":"古宇郡神恵内村","大字名":"大字赤石村","丁目名":null,"小字名":"字大森","地番":"243","精度区分":null,"座標系":"任意座標系"}},{"type":"Polygon","arcs":[[591,-535,-591]],"properties":{"市区町村名":"古宇郡神恵内村","大字名":"大字赤石村","丁目名":null,"小字名":"字大森","地番":"435","精度区分":null,"座標系":"任意座標系"}},{"type":"Polygon","arcs":[[-584,-286]],"properties":{"市区町村名":"古宇郡神恵内村","大字名":"大字赤石村","丁目名":null,"小字名":"字大森","地番":"214","精度区分":null,"座標系":"任意座標系"}},{"type":"Polygon","arcs":[[-585,-540,-435,-580]],"properties":{"市区町村名":"古宇郡神恵内村","大字名":"大字赤石村","丁目名":null,"小字名":"字大森","地番":"109","精度区分":null,"座標系":"任意座標系"}},{"type":"Polygon","arcs":[[592,-587,-538,-568,-290]],"properties":{"市区町村名":"古宇郡神恵内村","大字名":"大字赤石村","丁目名":null,"小字名":"字滝ノ沢","地番":"70-2","精度区分":null,"座標系":"任意座標系"}},{"type":"Polygon","arcs":[[-588,-593,-289]],"properties":{"市区町村名":"古宇郡神恵内村","大字名":"大字赤石村","丁目名":null,"小字名":"字滝ノ沢","地番":"70-1","精度区分":null,"座標系":"任意座標系"}},{"type":"Polygon","arcs":[[593]],"properties":{"市区町村名":"古宇郡神恵内村","大字名":"大字赤石村","丁目名":null,"小字名":"字大森","地番":"15-1","精度区分":null,"座標系":"任意座標系"}},{"type":"Polygon","arcs":[[594,-207,595,-205,596,-210,597]],"properties":{"市区町村名":"古宇郡神恵内村","大字名":"大字赤石村","丁目名":null,"小字名":null,"地番":"無地番-2","精度区分":null,"座標系":"任意座標系"}},{"type":"Polygon","arcs":[[598,599,600,601]],"properties":{"市区町村名":"古宇郡神恵内村","大字名":"大字赤石村","丁目名":null,"小字名":null,"地番":"長狭物不明-35","精度区分":null,"座標系":"任意座標系"}},{"type":"Polygon","arcs":[[-602,602,603,-30,-32]],"properties":{"市区町村名":"古宇郡神恵内村","大字名":"大字赤石村","丁目名":null,"小字名":null,"地番":"81","精度区分":null,"座標系":"任意座標系"}},{"type":"Polygon","arcs":[[-35,604,605,606]],"properties":{"市区町村名":"古宇郡神恵内村","大字名":"大字赤石村","丁目名":null,"小字名":"字山ノ上","地番":"238","精度区分":null,"座標系":"任意座標系"}},{"type":"Polygon","arcs":[[607,608,609]],"properties":{"市区町村名":"古宇郡神恵内村","大字名":"大字赤石村","丁目名":null,"小字名":null,"地番":"長狭物不明-37","精度区分":null,"座標系":"任意座標系"}},{"type":"Polygon","arcs":[[610]],"properties":{"市区町村名":"古宇郡神恵内村","大字名":"大字赤石村","丁目名":null,"小字名":null,"地番":"長狭物不明-39","精度区分":null,"座標系":"任意座標系"}},{"type":"Polygon","arcs":[[611,612,613,614]],"properties":{"市区町村名":"古宇郡神恵内村","大字名":"大字赤石村","丁目名":null,"小字名":"字大森","地番":"188","精度区分":null,"座標系":"任意座標系"}},{"type":"Polygon","arcs":[[615]],"properties":{"市区町村名":"古宇郡神恵内村","大字名":"大字赤石村","丁目名":null,"小字名":"字山ノ上","地番":"312","精度区分":null,"座標系":"任意座標系"}},{"type":"Polygon","arcs":[[-609,616,617]],"properties":{"市区町村名":"古宇郡神恵内村","大字名":"大字赤石村","丁目名":null,"小字名":"字山ノ上","地番":"224","精度区分":null,"座標系":"任意座標系"}},{"type":"Polygon","arcs":[[618,619,620,-618,621]],"properties":{"市区町村名":"古宇郡神恵内村","大字名":"大字赤石村","丁目名":null,"小字名":"字山ノ上","地番":"163-1","精度区分":null,"座標系":"任意座標系"}},{"type":"Polygon","arcs":[[622,-37,623,-619]],"properties":{"市区町村名":"古宇郡神恵内村","大字名":"大字赤石村","丁目名":null,"小字名":"字山ノ上","地番":"163-3","精度区分":null,"座標系":"任意座標系"}},{"type":"Polygon","arcs":[[-624,-36,-607,624,-620]],"properties":{"市区町村名":"古宇郡神恵内村","大字名":"大字赤石村","丁目名":null,"小字名":"字山ノ上","地番":"163-2","精度区分":null,"座標系":"任意座標系"}},{"type":"Polygon","arcs":[[-595,-208]],"properties":{"市区町村名":"古宇郡神恵内村","大字名":"大字赤石村","丁目名":null,"小字名":null,"地番":"453-3","精度区分":null,"座標系":"任意座標系"}},{"type":"Polygon","arcs":[[-596,-206]],"properties":{"市区町村名":"古宇郡神恵内村","大字名":"大字赤石村","丁目名":null,"小字名":null,"地番":"453-2","精度区分":null,"座標系":"任意座標系"}},{"type":"Polygon","arcs":[[-209,-598]],"properties":{"市区町村名":"古宇郡神恵内村","大字名":"大字赤石村","丁目名":null,"小字名":null,"地番":"453-1","精度区分":null,"座標系":"任意座標系"}},{"type":"Polygon","arcs":[[625,-218,-44,626]],"properties":{"市区町村名":"古宇郡神恵内村","大字名":"大字赤石村","丁目名":null,"小字名":null,"地番":"32-24","精度区分":null,"座標系":"任意座標系"}},{"type":"Polygon","arcs":[[-42,627,628,629]],"properties":{"市区町村名":"古宇郡神恵内村","大字名":"大字赤石村","丁目名":null,"小字名":null,"地番":"206-4","精度区分":null,"座標系":"任意座標系"}},{"type":"Polygon","arcs":[[630,-627,-43,631]],"properties":{"市区町村名":"古宇郡神恵内村","大字名":"大字赤石村","丁目名":null,"小字名":null,"地番":"32-3","精度区分":null,"座標系":"任意座標系"}},{"type":"Polygon","arcs":[[-630,632,-632]],"properties":{"市区町村名":"古宇郡神恵内村","大字名":"大字赤石村","丁目名":null,"小字名":null,"地番":"206-1","精度区分":null,"座標系":"任意座標系"}},{"type":"Polygon","arcs":[[633,-220,634]],"properties":{"市区町村名":"古宇郡神恵内村","大字名":"大字赤石村","丁目名":null,"小字名":null,"地番":"32-20","精度区分":null,"座標系":"任意座標系"}},{"type":"Polygon","arcs":[[-635,-219,-626,635,636]],"properties":{"市区町村名":"古宇郡神恵内村","大字名":"大字赤石村","丁目名":null,"小字名":null,"地番":"32-23","精度区分":null,"座標系":"任意座標系"}},{"type":"Polygon","arcs":[[637,-223,638,639,640]],"properties":{"市区町村名":"古宇郡神恵内村","大字名":"大字赤石村","丁目名":null,"小字名":null,"地番":"32-11","精度区分":null,"座標系":"任意座標系"}},{"type":"Polygon","arcs":[[-636,-631,641,642]],"properties":{"市区町村名":"古宇郡神恵内村","大字名":"大字赤石村","丁目名":null,"小字名":null,"地番":"32-2","精度区分":null,"座標系":"任意座標系"}},{"type":"Polygon","arcs":[[-639,-222,643,644]],"properties":{"市区町村名":"古宇郡神恵内村","大字名":"大字赤石村","丁目名":null,"小字名":null,"地番":"32-19","精度区分":null,"座標系":"任意座標系"}},{"type":"Polygon","arcs":[[-645,645,646,647,648,-640]],"properties":{"市区町村名":"古宇郡神恵内村","大字名":"大字赤石村","丁目名":null,"小字名":null,"地番":"32-14","精度区分":null,"座標系":"任意座標系"}},{"type":"Polygon","arcs":[[-644,-221,-634,649]],"properties":{"市区町村名":"古宇郡神恵内村","大字名":"大字赤石村","丁目名":null,"小字名":null,"地番":"32-18","精度区分":null,"座標系":"任意座標系"}},{"type":"Polygon","arcs":[[-637,-643,650,-646,-650]],"properties":{"市区町村名":"古宇郡神恵内村","大字名":"大字赤石村","丁目名":null,"小字名":null,"地番":"32-13","精度区分":null,"座標系":"任意座標系"}},{"type":"Polygon","arcs":[[-224,-638,651,652,653]],"properties":{"市区町村名":"古宇郡神恵内村","大字名":"大字赤石村","丁目名":null,"小字名":null,"地番":"32-12","精度区分":null,"座標系":"任意座標系"}},{"type":"Polygon","arcs":[[-653,654,655]],"properties":{"市区町村名":"古宇郡神恵内村","大字名":"大字赤石村","丁目名":null,"小字名":null,"地番":"32-21","精度区分":null,"座標系":"任意座標系"}},{"type":"Polygon","arcs":[[-641,-649,656,657,658]],"properties":{"市区町村名":"古宇郡神恵内村","大字名":"大字赤石村","丁目名":null,"小字名":null,"地番":"32-22","精度区分":null,"座標系":"任意座標系"}},{"type":"Polygon","arcs":[[-657,-648,659]],"properties":{"市区町村名":"古宇郡神恵内村","大字名":"大字赤石村","丁目名":null,"小字名":null,"地番":"32-1","精度区分":null,"座標系":"任意座標系"}},{"type":"Polygon","arcs":[[660,-654,661,662]],"properties":{"市区町村名":"古宇郡神恵内村","大字名":"大字赤石村","丁目名":null,"小字名":null,"地番":"31-5","精度区分":null,"座標系":"任意座標系"}},{"type":"Polygon","arcs":[[663,-230,664]],"properties":{"市区町村名":"古宇郡神恵内村","大字名":"大字赤石村","丁目名":null,"小字名":null,"地番":"30-6","精度区分":null,"座標系":"任意座標系"}},{"type":"Polygon","arcs":[[-231,-664,665]],"properties":{"市区町村名":"古宇郡神恵内村","大字名":"大字赤石村","丁目名":null,"小字名":null,"地番":"30-3","精度区分":null,"座標系":"任意座標系"}},{"type":"Polygon","arcs":[[666,-666,667]],"properties":{"市区町村名":"古宇郡神恵内村","大字名":"大字赤石村","丁目名":null,"小字名":null,"地番":"67-2","精度区分":null,"座標系":"任意座標系"}},{"type":"Polygon","arcs":[[668,669,670,671]],"properties":{"市区町村名":"古宇郡神恵内村","大字名":"大字赤石村","丁目名":null,"小字名":null,"地番":"67-7","精度区分":null,"座標系":"任意座標系"}},{"type":"Polygon","arcs":[[672,-668,-665,673,-670,674]],"properties":{"市区町村名":"古宇郡神恵内村","大字名":"大字赤石村","丁目名":null,"小字名":null,"地番":"67-3","精度区分":null,"座標系":"任意座標系"}},{"type":"Polygon","arcs":[[-675,-669,675,676,677,678,679]],"properties":{"市区町村名":"古宇郡神恵内村","大字名":"大字赤石村","丁目名":null,"小字名":null,"地番":"67-1","精度区分":null,"座標系":"任意座標系"}},{"type":"Polygon","arcs":[[-674,680,-671]],"properties":{"市区町村名":"古宇郡神恵内村","大字名":"大字赤石村","丁目名":null,"小字名":null,"地番":"67-6","精度区分":null,"座標系":"任意座標系"}},{"type":"Polygon","arcs":[[-233,681,-673,682,683,684]],"properties":{"市区町村名":"古宇郡神恵内村","大字名":"大字赤石村","丁目名":null,"小字名":null,"地番":"30-5","精度区分":null,"座標系":"任意座標系"}},{"type":"Polygon","arcs":[[-682,-232,-667]],"properties":{"市区町村名":"古宇郡神恵内村","大字名":"大字赤石村","丁目名":null,"小字名":null,"地番":"30-4","精度区分":null,"座標系":"任意座標系"}},{"type":"Polygon","arcs":[[-202,685]],"properties":{"市区町村名":"古宇郡神恵内村","大字名":"大字赤石村","丁目名":null,"小字名":null,"地番":"30-7","精度区分":null,"座標系":"任意座標系"}},{"type":"Polygon","arcs":[[686,-203,-686,-201]],"properties":{"市区町村名":"古宇郡神恵内村","大字名":"大字赤石村","丁目名":null,"小字名":null,"地番":"30-2","精度区分":null,"座標系":"任意座標系"}},{"type":"Polygon","arcs":[[687,-683,-680]],"properties":{"市区町村名":"古宇郡神恵内村","大字名":"大字赤石村","丁目名":null,"小字名":null,"地番":"30-11","精度区分":null,"座標系":"任意座標系"}},{"type":"Polygon","arcs":[[688,-684,-688,689,690]],"properties":{"市区町村名":"古宇郡神恵内村","大字名":"大字赤石村","丁目名":null,"小字名":null,"地番":"30-10","精度区分":null,"座標系":"任意座標系"}},{"type":"Polygon","arcs":[[-234,-685,-689,691,-2,692]],"properties":{"市区町村名":"古宇郡神恵内村","大字名":"大字赤石村","丁目名":null,"小字名":null,"地番":"30-9","精度区分":null,"座標系":"任意座標系"}},{"type":"Polygon","arcs":[[-691,693,694,695]],"properties":{"市区町村名":"古宇郡神恵内村","大字名":"大字赤石村","丁目名":null,"小字名":"字山ノ上","地番":"226-2","精度区分":null,"座標系":"任意座標系"}},{"type":"Polygon","arcs":[[-3,-692,-696,696]],"properties":{"市区町村名":"古宇郡神恵内村","大字名":"大字赤石村","丁目名":null,"小字名":"字山ノ上","地番":"226-1","精度区分":null,"座標系":"任意座標系"}},{"type":"Polygon","arcs":[[-690,-679,697,698,699,-694]],"properties":{"市区町村名":"古宇郡神恵内村","大字名":"大字赤石村","丁目名":null,"小字名":null,"地番":"67-4","精度区分":null,"座標系":"任意座標系"}},{"type":"Polygon","arcs":[[700,-615,701,-699]],"properties":{"市区町村名":"古宇郡神恵内村","大字名":"大字赤石村","丁目名":null,"小字名":null,"地番":"67-5","精度区分":null,"座標系":"任意座標系"}},{"type":"Polygon","arcs":[[702,-228,703,704,705,706]],"properties":{"市区町村名":"古宇郡神恵内村","大字名":"大字赤石村","丁目名":null,"小字名":null,"地番":"31-8","精度区分":null,"座標系":"任意座標系"}},{"type":"Polygon","arcs":[[-705,707,708,709]],"properties":{"市区町村名":"古宇郡神恵内村","大字名":"大字赤石村","丁目名":null,"小字名":null,"地番":"31-1","精度区分":null,"座標系":"任意座標系"}},{"type":"Polygon","arcs":[[710,-707,711,-672]],"properties":{"市区町村名":"古宇郡神恵内村","大字名":"大字赤石村","丁目名":null,"小字名":"字大森","地番":"30-13","精度区分":null,"座標系":"任意座標系"}},{"type":"Polygon","arcs":[[-703,-711,-681,-229]],"properties":{"市区町村名":"古宇郡神恵内村","大字名":"大字赤石村","丁目名":null,"小字名":"字大森","地番":"30-12","精度区分":null,"座標系":"任意座標系"}},{"type":"Polygon","arcs":[[-712,-706,-710,712,-676]],"properties":{"市区町村名":"古宇郡神恵内村","大字名":"大字赤石村","丁目名":null,"小字名":"字大森","地番":"30-1","精度区分":null,"座標系":"任意座標系"}},{"type":"Polygon","arcs":[[-605,-34,713,714,715]],"properties":{"市区町村名":"古宇郡神恵内村","大字名":"大字赤石村","丁目名":null,"小字名":null,"地番":"道-17","精度区分":null,"座標系":"任意座標系"}},{"type":"Polygon","arcs":[[716,717,-23,-604]],"properties":{"市区町村名":"古宇郡神恵内村","大字名":"大字赤石村","丁目名":null,"小字名":null,"地番":"道-19","精度区分":null,"座標系":"任意座標系"}},{"type":"Polygon","arcs":[[-26,718,719,720]],"properties":{"市区町村名":"古宇郡神恵内村","大字名":"大字赤石村","丁目名":null,"小字名":"字山ノ上","地番":"385","精度区分":null,"座標系":"任意座標系"}},{"type":"Polygon","arcs":[[-721,721,722,-27]],"properties":{"市区町村名":"古宇郡神恵内村","大字名":"大字赤石村","丁目名":null,"小字名":"字大森","地番":"297","精度区分":null,"座標系":"任意座標系"}},{"type":"Polygon","arcs":[[-714,-33,-28,-723,723,724]],"properties":{"市区町村名":"古宇郡神恵内村","大字名":"大字赤石村","丁目名":null,"小字名":"字山ノ上","地番":"260","精度区分":null,"座標系":"任意座標系"}},{"type":"Polygon","arcs":[[-252,-387,725,726]],"properties":{"市区町村名":"古宇郡神恵内村","大字名":"大字赤石村","丁目名":null,"小字名":"字大森","地番":"440","精度区分":null,"座標系":"任意座標系"}},{"type":"Polygon","arcs":[[-390,-253,-727,727,728,729,730]],"properties":{"市区町村名":"古宇郡神恵内村","大字名":"大字赤石村","丁目名":null,"小字名":"字大森","地番":"132","精度区分":null,"座標系":"任意座標系"}},{"type":"Polygon","arcs":[[731,-729,732]],"properties":{"市区町村名":"古宇郡神恵内村","大字名":"大字赤石村","丁目名":null,"小字名":"字大森","地番":"433","精度区分":null,"座標系":"任意座標系"}},{"type":"Polygon","arcs":[[733,-730,-732,-719,-25]],"properties":{"市区町村名":"古宇郡神恵内村","大字名":"大字赤石村","丁目名":null,"小字名":"字大森","地番":"108","精度区分":null,"座標系":"任意座標系"}},{"type":"Polygon","arcs":[[-249,-391,-731,-734,-24,-718,734]],"properties":{"市区町村名":"古宇郡神恵内村","大字名":"大字赤石村","丁目名":null,"小字名":"字山ノ上","地番":"53-1","精度区分":null,"座標系":"任意座標系"}},{"type":"Polygon","arcs":[[-735,-717,-603,-601,735]],"properties":{"市区町村名":"古宇郡神恵内村","大字名":"大字赤石村","丁目名":null,"小字名":null,"地番":"長狭物不明-43","精度区分":null,"座標系":"任意座標系"}},{"type":"Polygon","arcs":[[736,-715,-725]],"properties":{"市区町村名":"古宇郡神恵内村","大字名":"大字赤石村","丁目名":null,"小字名":"字大森","地番":"289","精度区分":null,"座標系":"任意座標系"}},{"type":"Polygon","arcs":[[737,738]],"properties":{"市区町村名":"古宇郡神恵内村","大字名":"大字赤石村","丁目名":null,"小字名":null,"地番":"長狭物不明-45","精度区分":null,"座標系":"任意座標系"}},{"type":"Polygon","arcs":[[739,740,741,742,743,744,745,746,747,748,749,750,751,752,753,754,-738,755,756,757,758,759,760]],"properties":{"市区町村名":"古宇郡神恵内村","大字名":"大字赤石村","丁目名":null,"小字名":null,"地番":"道-21","精度区分":null,"座標系":"任意座標系"}},{"type":"Polygon","arcs":[[761,762,-752]],"properties":{"市区町村名":"古宇郡神恵内村","大字名":"大字赤石村","丁目名":null,"小字名":"字大森","地番":"403","精度区分":null,"座標系":"任意座標系"}},{"type":"Polygon","arcs":[[763,-745]],"properties":{"市区町村名":"古宇郡神恵内村","大字名":"大字赤石村","丁目名":null,"小字名":"字大森","地番":"396","精度区分":null,"座標系":"任意座標系"}},{"type":"Polygon","arcs":[[764,-743,765,-741,766,767]],"properties":{"市区町村名":"古宇郡神恵内村","大字名":"大字赤石村","丁目名":null,"小字名":null,"地番":"長狭物不明-47","精度区分":null,"座標系":"任意座標系"}},{"type":"Polygon","arcs":[[768,-548,769,770,-560,771,-554,772,773,774,775,-746,-764,-744,-765]],"properties":{"市区町村名":"古宇郡神恵内村","大字名":"大字赤石村","丁目名":null,"小字名":null,"地番":"長狭物不明-49","精度区分":null,"座標系":"任意座標系"}},{"type":"Polygon","arcs":[[776,777,-772,-559]],"properties":{"市区町村名":"古宇郡神恵内村","大字名":"大字赤石村","丁目名":null,"小字名":"字大森","地番":"302","精度区分":null,"座標系":"任意座標系"}},{"type":"Polygon","arcs":[[-558,-777]],"properties":{"市区町村名":"古宇郡神恵内村","大字名":"大字赤石村","丁目名":null,"小字名":"字大森","地番":"404","精度区分":null,"座標系":"任意座標系"}},{"type":"Polygon","arcs":[[-756,-739,-755]],"properties":{"市区町村名":"古宇郡神恵内村","大字名":"大字赤石村","丁目名":null,"小字名":"字大森","地番":"397","精度区分":null,"座標系":"任意座標系"}},{"type":"Polygon","arcs":[[778,-562,779,-770,780]],"properties":{"市区町村名":"古宇郡神恵内村","大字名":"大字赤石村","丁目名":null,"小字名":"字大森","地番":"327","精度区分":null,"座標系":"任意座標系"}},{"type":"Polygon","arcs":[[-561,-771,-780]],"properties":{"市区町村名":"古宇郡神恵内村","大字名":"大字赤石村","丁目名":null,"小字名":null,"地番":"長狭物不明-51","精度区分":null,"座標系":"任意座標系"}},{"type":"Polygon","arcs":[[781,-760,782]],"properties":{"市区町村名":"古宇郡神恵内村","大字名":"大字赤石村","丁目名":null,"小字名":null,"地番":"長狭物不明-53","精度区分":null,"座標系":"任意座標系"}},{"type":"Polygon","arcs":[[783,-783,-759,784]],"properties":{"市区町村名":"古宇郡神恵内村","大字名":"大字赤石村","丁目名":null,"小字名":"字大森","地番":"401","精度区分":null,"座標系":"任意座標系"}},{"type":"Polygon","arcs":[[-742,-766]],"properties":{"市区町村名":"古宇郡神恵内村","大字名":"大字赤石村","丁目名":null,"小字名":"字大森","地番":"296","精度区分":null,"座標系":"任意座標系"}},{"type":"Polygon","arcs":[[785,-761,-782,-784]],"properties":{"市区町村名":"古宇郡神恵内村","大字名":"大字赤石村","丁目名":null,"小字名":"字大森","地番":"295","精度区分":null,"座標系":"任意座標系"}},{"type":"Polygon","arcs":[[786,-767,-740,-786,787]],"properties":{"市区町村名":"古宇郡神恵内村","大字名":"大字赤石村","丁目名":null,"小字名":"字大森","地番":"267","精度区分":null,"座標系":"任意座標系"}},{"type":"Polygon","arcs":[[-788,-785,-758,788]],"properties":{"市区町村名":"古宇郡神恵内村","大字名":"大字赤石村","丁目名":null,"小字名":null,"地番":"長狭物不明-55","精度区分":null,"座標系":"任意座標系"}},{"type":"Polygon","arcs":[[-552,-564,789,790,-546]],"properties":{"市区町村名":"古宇郡神恵内村","大字名":"大字赤石村","丁目名":null,"小字名":null,"地番":"366","精度区分":null,"座標系":"任意座標系"}},{"type":"Polygon","arcs":[[-791,-781,-547]],"properties":{"市区町村名":"古宇郡神恵内村","大字名":"大字赤石村","丁目名":null,"小字名":"字大森","地番":"439","精度区分":null,"座標系":"任意座標系"}},{"type":"Polygon","arcs":[[-790,-563,-779]],"properties":{"市区町村名":"古宇郡神恵内村","大字名":"大字赤石村","丁目名":null,"小字名":"字大森","地番":"215","精度区分":null,"座標系":"任意座標系"}},{"type":"Polygon","arcs":[[-20,791,792,793]],"properties":{"市区町村名":"古宇郡神恵内村","大字名":"大字赤石村","丁目名":null,"小字名":null,"地番":"長狭物不明-57","精度区分":null,"座標系":"任意座標系"}},{"type":"Polygon","arcs":[[794,795,796,797,798,799]],"properties":{"市区町村名":"古宇郡神恵内村","大字名":"大字赤石村","丁目名":null,"小字名":null,"地番":"長狭物不明-59","精度区分":null,"座標系":"任意座標系"}},{"type":"Polygon","arcs":[[-750,800,-795,801]],"properties":{"市区町村名":"古宇郡神恵内村","大字名":"大字赤石村","丁目名":null,"小字名":null,"地番":"長狭物不明-61","精度区分":null,"座標系":"任意座標系"}},{"type":"Polygon","arcs":[[802,803,804,-774,805,806,807,808,809,810,-21,-794,811,812,813,-747,-776]],"properties":{"市区町村名":"古宇郡神恵内村","大字名":"大字赤石村","丁目名":null,"小字名":null,"地番":"道-23","精度区分":null,"座標系":"任意座標系"}},{"type":"Polygon","arcs":[[-810,814,815,-807,816,-792,-19,817]],"properties":{"市区町村名":"古宇郡神恵内村","大字名":"大字赤石村","丁目名":null,"小字名":null,"地番":"長狭物不明-63","精度区分":null,"座標系":"任意座標系"}},{"type":"Polygon","arcs":[[-775,-805,818,-803]],"properties":{"市区町村名":"古宇郡神恵内村","大字名":"大字赤石村","丁目名":null,"小字名":"字大森","地番":"398","精度区分":null,"座標系":"任意座標系"}},{"type":"Polygon","arcs":[[-813,819,-797,820]],"properties":{"市区町村名":"古宇郡神恵内村","大字名":"大字赤石村","丁目名":null,"小字名":"字大森","地番":"466","精度区分":null,"座標系":"任意座標系"}},{"type":"Polygon","arcs":[[821,-753,-763,822,-799]],"properties":{"市区町村名":"古宇郡神恵内村","大字名":"大字赤石村","丁目名":null,"小字名":"字大森","地番":"465","精度区分":null,"座標系":"任意座標系"}},{"type":"Polygon","arcs":[[-762,-751,-802,823]],"properties":{"市区町村名":"古宇郡神恵内村","大字名":"大字赤石村","丁目名":null,"小字名":"字大森","地番":"463","精度区分":null,"座標系":"任意座標系"}},{"type":"Polygon","arcs":[[-749,824,-801]],"properties":{"市区町村名":"古宇郡神恵内村","大字名":"大字赤石村","丁目名":null,"小字名":"字大森","地番":"464","精度区分":null,"座標系":"任意座標系"}},{"type":"Polygon","arcs":[[-809,825,-815]],"properties":{"市区町村名":"古宇郡神恵内村","大字名":"大字赤石村","丁目名":null,"小字名":"字大森","地番":"399","精度区分":null,"座標系":"任意座標系"}},{"type":"Polygon","arcs":[[-556,826]],"properties":{"市区町村名":"古宇郡神恵内村","大字名":"大字赤石村","丁目名":null,"小字名":"字大森","地番":"455","精度区分":null,"座標系":"任意座標系"}},{"type":"Polygon","arcs":[[-778,-557,-827,-555]],"properties":{"市区町村名":"古宇郡神恵内村","大字名":"大字赤石村","丁目名":null,"小字名":null,"地番":"長狭物不明-65","精度区分":null,"座標系":"任意座標系"}},{"type":"Polygon","arcs":[[-819,-804]],"properties":{"市区町村名":"古宇郡神恵内村","大字名":"大字赤石村","丁目名":null,"小字名":"字大森","地番":"217-1","精度区分":null,"座標系":"任意座標系"}},{"type":"Polygon","arcs":[[-808,-816,-826]],"properties":{"市区町村名":"古宇郡神恵内村","大字名":"大字赤石村","丁目名":null,"小字名":null,"地番":"長狭物不明-67","精度区分":null,"座標系":"任意座標系"}},{"type":"Polygon","arcs":[[-818,-22,-811]],"properties":{"市区町村名":"古宇郡神恵内村","大字名":"大字赤石村","丁目名":null,"小字名":"字大森","地番":"197","精度区分":null,"座標系":"任意座標系"}},{"type":"Polygon","arcs":[[-748,-814,-821,-796,-825]],"properties":{"市区町村名":"古宇郡神恵内村","大字名":"大字赤石村","丁目名":null,"小字名":"字大森","地番":"196","精度区分":null,"座標系":"任意座標系"}},{"type":"Polygon","arcs":[[-823,-824,-800]],"properties":{"市区町村名":"古宇郡神恵内村","大字名":"大字赤石村","丁目名":null,"小字名":"字大森","地番":"195","精度区分":null,"座標系":"任意座標系"}},{"type":"Polygon","arcs":[[827,828]],"properties":{"市区町村名":"古宇郡神恵内村","大字名":"大字赤石村","丁目名":null,"小字名":"字大森","地番":"449","精度区分":null,"座標系":"任意座標系"}},{"type":"Polygon","arcs":[[-613,829,-828,830]],"properties":{"市区町村名":"古宇郡神恵内村","大字名":"大字赤石村","丁目名":null,"小字名":"字大森","地番":"450","精度区分":null,"座標系":"任意座標系"}},{"type":"Polygon","arcs":[[831,832]],"properties":{"市区町村名":"古宇郡神恵内村","大字名":"大字赤石村","丁目名":null,"小字名":"字大森","地番":"173","精度区分":null,"座標系":"任意座標系"}},{"type":"Polygon","arcs":[[833,834,835]],"properties":{"市区町村名":"古宇郡神恵内村","大字名":"大字赤石村","丁目名":null,"小字名":null,"地番":"66-1","精度区分":null,"座標系":"任意座標系"}},{"type":"Polygon","arcs":[[836,837,838,839,840]],"properties":{"市区町村名":"古宇郡神恵内村","大字名":"大字赤石村","丁目名":null,"小字名":"字山ノ上","地番":"71-1","精度区分":null,"座標系":"任意座標系"}},{"type":"Polygon","arcs":[[841,842,843,-838]],"properties":{"市区町村名":"古宇郡神恵内村","大字名":"大字赤石村","丁目名":null,"小字名":null,"地番":"55","精度区分":null,"座標系":"任意座標系"}},{"type":"Polygon","arcs":[[-835,844,845,846,847]],"properties":{"市区町村名":"古宇郡神恵内村","大字名":"大字赤石村","丁目名":null,"小字名":null,"地番":"長狭物不明-71","精度区分":null,"座標系":"任意座標系"}},{"type":"Polygon","arcs":[[-845,-834,848,849]],"properties":{"市区町村名":"古宇郡神恵内村","大字名":"大字赤石村","丁目名":null,"小字名":null,"地番":"長狭物不明-73","精度区分":null,"座標系":"任意座標系"}},{"type":"Polygon","arcs":[[850,-847,851,852,-841]],"properties":{"市区町村名":"古宇郡神恵内村","大字名":"大字赤石村","丁目名":null,"小字名":null,"地番":"長狭物不明-75","精度区分":null,"座標系":"任意座標系"}},{"type":"Polygon","arcs":[[-844,853,-839]],"properties":{"市区町村名":"古宇郡神恵内村","大字名":"大字赤石村","丁目名":null,"小字名":null,"地番":"長狭物不明-77","精度区分":null,"座標系":"任意座標系"}},{"type":"Polygon","arcs":[[854,-851,-840,-854]],"properties":{"市区町村名":"古宇郡神恵内村","大字名":"大字赤石村","丁目名":null,"小字名":null,"地番":"46","精度区分":null,"座標系":"任意座標系"}},{"type":"Polygon","arcs":[[-235,-693,-1]],"properties":{"市区町村名":"古宇郡神恵内村","大字名":"大字赤石村","丁目名":null,"小字名":null,"地番":"30-8","精度区分":null,"座標系":"任意座標系"}},{"type":"Polygon","arcs":[[855,-236,-16,856]],"properties":{"市区町村名":"古宇郡神恵内村","大字名":"大字赤石村","丁目名":null,"小字名":null,"地番":"27-3","精度区分":null,"座標系":"任意座標系"}},{"type":"Polygon","arcs":[[-857,-15,857]],"properties":{"市区町村名":"古宇郡神恵内村","大字名":"大字赤石村","丁目名":null,"小字名":null,"地番":"27-2","精度区分":null,"座標系":"任意座標系"}},{"type":"Polygon","arcs":[[-855,-843,-849,-836,-848]],"properties":{"市区町村名":"古宇郡神恵内村","大字名":"大字赤石村","丁目名":null,"小字名":null,"地番":"56","精度区分":null,"座標系":"任意座標系"}},{"type":"Polygon","arcs":[[858,859,860,-239]],"properties":{"市区町村名":"古宇郡神恵内村","大字名":"大字赤石村","丁目名":null,"小字名":null,"地番":"56-2","精度区分":null,"座標系":"任意座標系"}},{"type":"Polygon","arcs":[[861,-860]],"properties":{"市区町村名":"古宇郡神恵内村","大字名":"大字赤石村","丁目名":null,"小字名":null,"地番":"56-1","精度区分":null,"座標系":"任意座標系"}},{"type":"Polygon","arcs":[[862,-373,-427,-402,863,-400,-125,-414,-269,-262,864,-323,-440,865,-320,-438,-279,-518,-528,-522]],"properties":{"市区町村名":"古宇郡神恵内村","大字名":"大字赤石村","丁目名":null,"小字名":null,"地番":"642-1","精度区分":null,"座標系":"任意座標系"}},{"type":"Polygon","arcs":[[866,867,-426]],"properties":{"市区町村名":"古宇郡神恵内村","大字名":"大字赤石村","丁目名":null,"小字名":null,"地番":"642-6","精度区分":null,"座標系":"任意座標系"}},{"type":"Polygon","arcs":[[-866,-439,-321]],"properties":{"市区町村名":"古宇郡神恵内村","大字名":"大字赤石村","丁目名":null,"小字名":"字大森","地番":"31-3","精度区分":null,"座標系":"任意座標系"}},{"type":"Polygon","arcs":[[-415,-124,-129]],"properties":{"市区町村名":"古宇郡神恵内村","大字名":"大字赤石村","丁目名":null,"小字名":"字大森","地番":"209-1","精度区分":null,"座標系":"任意座標系"}},{"type":"Polygon","arcs":[[-864,-401]],"properties":{"市区町村名":"古宇郡神恵内村","大字名":"大字赤石村","丁目名":null,"小字名":"字大森","地番":"483","精度区分":null,"座標系":"任意座標系"}},{"type":"Polygon","arcs":[[868,-425,-418]],"properties":{"市区町村名":"古宇郡神恵内村","大字名":"大字赤石村","丁目名":null,"小字名":null,"地番":"642-5","精度区分":null,"座標系":"任意座標系"}},{"type":"Polygon","arcs":[[-629,869,-40,-48,870,-507,871,-156,-480,-148,-867,-118,-869,-115,-370,872,-374,-863,-121,-132,873,-494,-487,-460,-458,874,875]],"properties":{"市区町村名":"古宇郡神恵内村","大字名":"大字赤石村","丁目名":null,"小字名":null,"地番":"642-7","精度区分":null,"座標系":"任意座標系"}},{"type":"Polygon","arcs":[[-164,-424,-868,-147]],"properties":{"市区町村名":"古宇郡神恵内村","大字名":"大字赤石村","丁目名":null,"小字名":null,"地番":"長狭物不明-13","精度区分":null,"座標系":"任意座標系"}},{"type":"Polygon","arcs":[[-369,-122,-371,-873]],"properties":{"市区町村名":"古宇郡神恵内村","大字名":"大字赤石村","丁目名":null,"小字名":"字大森","地番":"638-2","精度区分":null,"座標系":"任意座標系"}},{"type":"Polygon","arcs":[[-628,-41,-870]],"properties":{"市区町村名":"古宇郡神恵内村","大字名":"大字赤石村","丁目名":null,"小字名":null,"地番":"長狭物不明-41","精度区分":null,"座標系":"任意座標系"}},{"type":"Polygon","arcs":[[-138,-481,-874]],"properties":{"市区町村名":"古宇郡神恵内村","大字名":"大字赤石村","丁目名":null,"小字名":null,"地番":"667","精度区分":null,"座標系":"任意座標系"}},{"type":"Polygon","arcs":[[-102,-471,876,-490,-441]],"properties":{"市区町村名":"古宇郡神恵内村","大字名":"大字赤石村","丁目名":null,"小字名":null,"地番":"長狭物不明-31","精度区分":null,"座標系":"任意座標系"}},{"type":"Polygon","arcs":[[-877,-465,-462,-486,-491]],"properties":{"市区町村名":"古宇郡神恵内村","大字名":"大字赤石村","丁目名":null,"小字名":null,"地番":"672","精度区分":null,"座標系":"任意座標系"}},{"type":"Polygon","arcs":[[-493,-492,-485]],"properties":{"市区町村名":"古宇郡神恵内村","大字名":"大字赤石村","丁目名":null,"小字名":"字大森","地番":"482-2","精度区分":null,"座標系":"任意座標系"}},{"type":"Polygon","arcs":[[-475,-875,-451]],"properties":{"市区町村名":"古宇郡神恵内村","大字名":"大字赤石村","丁目名":null,"小字名":null,"地番":"668","精度区分":null,"座標系":"任意座標系"}},{"type":"Polygon","arcs":[[-240,-58,-217,-354,877,878,-872]],"properties":{"市区町村名":"古宇郡神恵内村","大字名":"大字赤石村","丁目名":null,"小字名":null,"地番":"670","精度区分":null,"座標系":"任意座標系"}},{"type":"Polygon","arcs":[[-871,-47,-242]],"properties":{"市区町村名":"古宇郡神恵内村","大字名":"大字赤石村","丁目名":null,"小字名":null,"地番":"671","精度区分":null,"座標系":"任意座標系"}},{"type":"Polygon","arcs":[[-879,879,-215,-157]],"properties":{"市区町村名":"古宇郡神恵内村","大字名":"大字赤石村","丁目名":null,"小字名":null,"地番":"673","精度区分":null,"座標系":"任意座標系"}},{"type":"Polygon","arcs":[[-880,-878,-355]],"properties":{"市区町村名":"古宇郡神恵内村","大字名":"大字赤石村","丁目名":null,"小字名":null,"地番":"32-5","精度区分":null,"座標系":"任意座標系"}},{"type":"Polygon","arcs":[[-365,-529,880,-85,881,-261,-162]],"properties":{"市区町村名":"古宇郡神恵内村","大字名":"大字赤石村","丁目名":null,"小字名":null,"地番":"656","精度区分":null,"座標系":"任意座標系"}},{"type":"Polygon","arcs":[[-865,-882,-570,-52,-571,-324]],"properties":{"市区町村名":"古宇郡神恵内村","大字名":"大字赤石村","丁目名":null,"小字名":null,"地番":"642-2","精度区分":null,"座標系":"任意座標系"}},{"type":"Polygon","arcs":[[882,883,884]],"properties":{"市区町村名":"古宇郡神恵内村","大字名":"大字赤石村","丁目名":null,"小字名":null,"地番":"674","精度区分":null,"座標系":"任意座標系"}},{"type":"Polygon","arcs":[[885,-885,886,-245,-250,-736,-600]],"properties":{"市区町村名":"古宇郡神恵内村","大字名":"大字赤石村","丁目名":null,"小字名":"字大森","地番":"筆界未定地-30","精度区分":null,"座標系":"任意座標系"}},{"type":"Polygon","arcs":[[-884,887,-876,-445,-246,-887]],"properties":{"市区町村名":"古宇郡神恵内村","大字名":"大字赤石村","丁目名":null,"小字名":null,"地番":"669","精度区分":null,"座標系":"任意座標系"}},{"type":"Polygon","arcs":[[-227,888,-708,-704]],"properties":{"市区町村名":"古宇郡神恵内村","大字名":"大字赤石村","丁目名":null,"小字名":null,"地番":"31-4","精度区分":null,"座標系":"任意座標系"}},{"type":"Polygon","arcs":[[889,-237,-856,-858,-14,-13,-7,-4,-697,-695,-700,-702,-614,-831,-829,-830,-612,-701,-698,-678,890,891,892,-713,-709,-889,893,-663,894,895,896,897,-658,-660,-647,-651,-642,-633,-888,-883,-886,-599,-31,-623,-622,-617,-608,-850,-842,-837,-853],[-832,898],[899],[900],[-611],[-616]],"properties":{"市区町村名":"古宇郡神恵内村","大字名":"大字赤石村","丁目名":null,"小字名":null,"地番":"長狭物不明-15","精度区分":null,"座標系":"任意座標系"}},{"type":"Polygon","arcs":[[-892,901]],"properties":{"市区町村名":"古宇郡神恵内村","大字名":"大字赤石村","丁目名":null,"小字名":null,"地番":"676","精度区分":null,"座標系":"任意座標系"}},{"type":"Polygon","arcs":[[902,-225,-661]],"properties":{"市区町村名":"古宇郡神恵内村","大字名":"大字赤石村","丁目名":null,"小字名":null,"地番":"31-2","精度区分":null,"座標系":"任意座標系"}},{"type":"Polygon","arcs":[[-894,-226,-903]],"properties":{"市区町村名":"古宇郡神恵内村","大字名":"大字赤石村","丁目名":null,"小字名":null,"地番":"31-7","精度区分":null,"座標系":"任意座標系"}},{"type":"Polygon","arcs":[[903,-897]],"properties":{"市区町村名":"古宇郡神恵内村","大字名":"大字赤石村","丁目名":null,"小字名":null,"地番":"32-4","精度区分":null,"座標系":"任意座標系"}},{"type":"Polygon","arcs":[[-655,-652,-659,-898,-904,-896,904]],"properties":{"市区町村名":"古宇郡神恵内村","大字名":"大字赤石村","丁目名":null,"小字名":null,"地番":"32-25","精度区分":null,"座標系":"任意座標系"}},{"type":"Polygon","arcs":[[-662,-656,-905,-895]],"properties":{"市区町村名":"古宇郡神恵内村","大字名":"大字赤石村","丁目名":null,"小字名":null,"地番":"31-6","精度区分":null,"座標系":"任意座標系"}},{"type":"Polygon","arcs":[[-893,-902,-891,-677]],"properties":{"市区町村名":"古宇郡神恵内村","大字名":"大字赤石村","丁目名":null,"小字名":"字山ノ上","地番":"225","精度区分":null,"座標系":"任意座標系"}},{"type":"Polygon","arcs":[[-833,-899]],"properties":{"市区町村名":"古宇郡神恵内村","大字名":"大字赤石村","丁目名":null,"小字名":null,"地番":"長狭物不明-69","精度区分":null,"座標系":"任意座標系"}},{"type":"Polygon","arcs":[[-900]],"properties":{"市区町村名":"古宇郡神恵内村","大字名":"大字赤石村","丁目名":null,"小字名":null,"地番":"筆界未定地-7V3","精度区分":null,"座標系":"任意座標系"}},{"type":"Polygon","arcs":[[-901]],"properties":{"市区町村名":"古宇郡神恵内村","大字名":"大字赤石村","丁目名":null,"小字名":"字大森","地番":"174","精度区分":null,"座標系":"任意座標系"}}]}},"arcs":[[[918850,47161],[-2146,2579]],[[916704,49740],[-5160,6200]],[[911544,55940],[3197,10148]],[[914741,66088],[7397,-8772],[-1612,-4978]],[[920526,52338],[-1676,-5177]],[[933188,40112],[-14338,7049]],[[920526,52338],[14129,-8909]],[[934655,43429],[-1467,-3317]],[[931554,36416],[-13340,8721]],[[918214,45137],[14126,-6945]],[[932340,38192],[-786,-1776]],[[943852,32533],[-10664,7579]],[[934655,43429],[85,194],[8278,1570],[3263,-1914]],[[946281,43279],[210,-3581]],[[946491,39698],[-2386,-6478]],[[944105,33220],[-253,-687]],[[950114,25602],[-18560,10814]],[[932340,38192],[192,-94],[17582,-12496]],[[833400,796507],[7372,32689]],[[840772,829196],[22558,-56573],[-980,-18211]],[[862350,754412],[-1944,-3670]],[[860406,750742],[-27006,45765]],[[731381,210907],[-50911,46574]],[[680470,257481],[3560,8647]],[[684030,266128],[1658,-2088],[19468,27654]],[[705156,291694],[33108,-28008]],[[738264,263686],[15591,-13189]],[[753855,250497],[-6264,-9994]],[[747591,240503],[-11210,-20774]],[[736381,219729],[-5000,-8822]],[[849010,145670],[-13157,5450],[-4436,-3911],[-68844,43949],[-5301,-10296],[-11984,10241]],[[745288,191103],[9128,7057],[-18035,21569]],[[747591,240503],[79313,-39888]],[[826904,200615],[764,-384]],[[827668,200231],[28733,-14508]],[[856401,185723],[-1691,-9163]],[[854710,176560],[-5700,-30890]],[[717050,156848],[-28337,11866],[-32898,21271]],[[655815,189985],[18761,-8917],[5647,785]],[[680223,181853],[6951,-3303]],[[687174,178550],[2504,-4661]],[[689678,173889],[969,-1805],[17376,-5817]],[[708023,166267],[4683,-4886]],[[712706,161381],[4344,-4533]],[[655815,189985],[-224,145]],[[655591,190130],[630,3129]],[[656221,193259],[7045,-3348]],[[663266,189911],[16957,-8058]],[[466170,471844],[-2444,2657],[3842,10957]],[[467568,485458],[15877,-6321]],[[483445,479137],[-6752,-17102]],[[476693,462035],[-450,-1138],[-10073,10947]],[[532531,416203],[-9523,11901]],[[523008,428104],[5003,9158],[11208,-6060]],[[539219,431202],[-5095,-11427]],[[534124,419775],[-1593,-3572]],[[655591,190130],[-33651,19804]],[[621940,209934],[709,2086],[14079,-5382],[14176,-10853]],[[650904,195785],[5317,-2526]],[[67116,921907],[-86,10055],[-8968,-1257]],[[58062,930705],[-8955,7486],[-5782,-3383],[-3035,-3934],[-2398,-2549]],[[37892,928325],[-615,32891],[4657,5969],[21708,19877],[9611,12937],[15215,-6321],[4983,-3443],[3833,-9163],[2390,-7653],[3453,-4508],[-17900,-74174],[-18019,16562],[-92,10608]],[[58062,930705],[-18623,-2610],[-1547,230]],[[18419,935382],[-2436,-11318],[-7059,4514],[-8924,14172],[18419,-7368]],[[67116,921907],[-1544,-6090],[-13516,6435],[1769,6116],[13291,-6461]],[[108393,869918],[-5064,-1248],[-11323,27702],[3222,1248],[6812,-15473],[2302,1872],[4051,-14101]],[[359398,517978],[-595,-629]],[[358803,517349],[-3785,9539]],[[355018,526888],[733,69]],[[355751,526957],[3647,-8979]],[[391541,502152],[-21571,9274],[-3855,-5555]],[[366115,505871],[-705,360]],[[365410,506231],[-6607,11118]],[[359398,517978],[9554,3393],[-13201,5586]],[[355751,526957],[10793,-2292],[24997,-22513]],[[439607,440436],[-6727,3958]],[[432880,444394],[-3906,1026]],[[428974,445420],[-11686,5948],[-4010,2040]],[[413278,453408],[-2064,1572]],[[411214,454980],[-25488,29416]],[[385726,484396],[1988,6070]],[[387714,490466],[3827,11686]],[[391541,502152],[20589,-29481],[5158,633],[46364,5702],[3646,6560]],[[467298,485566],[-2969,-7255],[-17093,-7687],[3363,-4157],[722,815],[1562,-1385],[1998,-9205],[664,-821]],[[455545,455871],[-11964,-13307]],[[443581,442564],[-3974,-2128]],[[300649,583919],[3606,357],[4493,175],[6214,5190],[-63,7951],[-6472,1389]],[[308427,598981],[-6535,-773],[-7479,7425],[-16961,8060],[-2124,913]],[[275328,614606],[3424,19028],[1606,3352],[1759,3673],[5372,-3673],[1668,-1140],[7388,-807],[3906,-6048],[22712,-804],[21513,-31443],[-7151,-10656],[701,-7425],[-7340,-12894],[-30237,18150]],[[284910,607464],[-12165,3613],[-7422,3649],[-13867,10404],[-14290,9165]],[[237166,634295],[-2595,2691],[-2094,2172],[3355,-2172],[13244,-8576],[7885,-4821],[6218,-3758],[12149,-5225]],[[308427,598981],[-5242,-2434],[-18275,10917]],[[284910,607464],[-29420,7854],[-18324,18977]],[[300649,583919],[3873,6024],[-19612,17521]],[[365410,506231],[-8115,4152],[-60,2111],[-4251,14202],[2034,192]],[[385726,484396],[-20246,18459],[635,3016]],[[366115,505871],[21599,-15405]],[[413278,453408],[-1159,-2983],[-1986,1651],[1081,2904]],[[214304,654468],[-18980,13600],[-2545,3607]],[[192779,671675],[2634,-2278],[18891,-14929]],[[214304,654468],[-23491,15285],[1966,1922]],[[622952,300145],[-371,226]],[[622581,300371],[8095,22164],[-10524,11213]],[[620152,333748],[-2266,2415]],[[617886,336163],[259,564]],[[618145,336727],[10211,22300]],[[628356,359027],[-138,-1331]],[[628218,357696],[-9799,-21402],[10163,-10828]],[[628582,325466],[2603,-2775],[-988,-2707]],[[630197,319984],[-3982,-10904]],[[626215,309080],[-3263,-8935]],[[600873,446114],[-14708,-31932]],[[586165,414182],[-812,310],[14771,32072],[749,-450]],[[583273,312861],[2925,-4736]],[[586198,308125],[-4998,-16050]],[[581200,292075],[2073,20786]],[[583235,273094],[-916,800],[-2183,5789],[117,1293]],[[580253,280976],[4826,-3678],[-1844,-4204]],[[589462,327715],[1883,1622]],[[591345,329337],[1118,-2431]],[[592463,326906],[-2088,-2551],[-913,3360]],[[583859,319979],[-131,-1098]],[[583728,318881],[-3285,22]],[[580443,318903],[-904,7]],[[579539,318910],[321,1095]],[[579860,320005],[3999,-26]],[[583728,318881],[-455,-6020]],[[583273,312861],[-3111,5038]],[[580162,317899],[281,1004]],[[579860,320005],[4427,3560]],[[584287,323565],[-428,-3586]],[[603208,288269],[-1006,685],[-1425,10254],[6060,29089],[-14054,-2087],[-320,696]],[[592463,326906],[1973,2409],[-408,2288]],[[594028,331603],[17805,13925]],[[611833,345528],[6312,-8801]],[[617886,336163],[-7656,-28281]],[[610230,307882],[-6462,-19245]],[[603768,288637],[-560,-368]],[[565890,274830],[-548,580]],[[565342,275410],[-3898,4119]],[[561444,279529],[218,458]],[[561662,279987],[4448,-4777]],[[566110,275210],[-220,-380]],[[579441,261201],[-9738,8470]],[[569703,269671],[997,1725]],[[570700,271396],[479,-536],[1552,-1768],[5363,-5669]],[[578094,263423],[1271,-1343],[2539,3168]],[[581904,265248],[943,-4208],[-2356,-1056]],[[580491,259984],[-1050,1217]],[[580406,252583],[-15210,14632]],[[565196,267215],[624,1050]],[[565820,268265],[362,608]],[[566182,268873],[7079,-6121]],[[573261,262752],[4839,-4183]],[[578100,258569],[13088,-10979]],[[591188,247590],[9791,-11162]],[[600979,236428],[-20573,16155]],[[516685,355210],[-2557,4173]],[[514128,359383],[-971,1451]],[[513157,360834],[44,45],[-6025,10951],[-817,-836]],[[506359,370994],[-21716,32454]],[[484643,403448],[2422,1838]],[[487065,405286],[3104,-1650],[2461,-942],[972,-3203],[4211,-5618],[1954,-4025],[1523,-2243],[2208,-1168],[596,-1975],[1744,-2483],[3565,-10250],[2374,-4203],[993,-3472],[1987,-4877],[2562,-3068],[-634,-899]],[[579644,266151],[-1550,-2728]],[[570700,271396],[-3435,3842],[-682,794]],[[566583,276032],[-767,890],[-3437,3929],[675,1970],[3465,566]],[[566519,283387],[7890,-8981]],[[574409,274406],[-1351,-3125],[6586,-5130]],[[513157,360834],[-6798,10160]],[[503272,367834],[6899,-10059]],[[510171,357775],[-2274,-2330],[-6026,10955],[1401,1434]],[[507141,339116],[-865,1298],[239,1458],[6486,8110]],[[513001,349982],[3213,-6129]],[[516214,343853],[-9073,-4737]],[[574409,274406],[1306,3023]],[[575715,277429],[211,-824]],[[575926,276605],[3748,-10370],[-30,-84]],[[566519,283387],[2239,204],[6322,-3681]],[[575080,279910],[635,-2481]],[[519332,349401],[-5204,9982]],[[516685,355210],[3663,-5980]],[[520348,349230],[-569,-528],[-447,699]],[[519332,349401],[-3497,5830],[-3347,-4270]],[[512488,350961],[-1927,3677],[921,1225]],[[511482,355863],[2646,3520]],[[511482,355863],[-1311,1912]],[[510171,357775],[2986,3059]],[[503272,367834],[3087,3160]],[[626573,392928],[-809,-88]],[[625764,392840],[-276,37576]],[[625488,430416],[811,-131]],[[626299,430285],[274,-37357]],[[654590,307305],[1019,1445]],[[655609,308750],[7184,-24683]],[[662793,284067],[-1249,-1218],[-6954,24456]],[[651801,267543],[-8508,10025]],[[643293,277568],[-5272,6211]],[[638021,283779],[1121,1591]],[[639142,285370],[13682,-16120],[9806,-10065]],[[662630,259185],[-763,-1973],[-10066,10331]],[[918214,45137],[-3104,2074]],[[915110,47211],[-28346,18940],[-1010,431]],[[885754,66582],[-30702,13079]],[[855052,79661],[-31332,25092],[-20056,13530],[-58189,24364],[-11041,-5209],[-2851,1225],[-1390,4147],[-9457,3581],[-203,-868],[-4532,2109],[-710,-7363],[-3162,1086],[-17351,17523],[-3725,3078],[-7084,4186],[478,1529]],[[684447,167671],[7418,-4387],[3783,-2744]],[[695648,160540],[9390,-10048],[1301,4186]],[[706339,154678],[950,-521]],[[707289,154157],[-1427,-4558],[8536,-8200],[993,8315]],[[715391,149714],[16944,-6578],[1500,-4067],[6373,3421]],[[740208,142490],[2471,1328],[-54557,22844],[-3319,2145]],[[684803,168807],[-24407,15782],[-5476,3541],[-16152,9506],[-17662,10394]],[[621106,208030],[-20896,22085]],[[600210,230115],[-7625,8059],[-29610,28484],[-3924,6004]],[[559051,272662],[6145,-5447]],[[580406,252583],[13147,-12646],[7898,-8348]],[[601451,231589],[14034,-14833]],[[615485,216756],[6455,-6822]],[[717050,156848],[4472,-1872]],[[721522,154976],[14874,-6228]],[[736396,148748],[1521,-637]],[[737917,148111],[10810,-4526]],[[748727,143585],[2320,-972]],[[751047,142613],[18385,-7698]],[[769432,134915],[10331,-4326]],[[779763,130589],[18111,-7583]],[[797874,123006],[1892,-792]],[[799766,122214],[4502,-1886],[3705,-2499]],[[807973,117829],[16521,-11144]],[[824494,106685],[2617,-2096]],[[827111,104589],[14828,-11875]],[[841939,92714],[13777,-11033],[10568,-4502]],[[866284,77179],[12587,-5363]],[[878871,71816],[8498,-3620],[8051,-5380]],[[895420,62816],[17457,-11664]],[[912877,51152],[5973,-3991]],[[943852,32533],[10347,-7354]],[[954199,25179],[4255,-3024],[19529,-16391]],[[977983,5764],[-991,-2172]],[[976992,3592],[-19342,16654],[-7536,5356]],[[650904,195785],[751,3635]],[[651655,199420],[3705,-3784],[1220,-599]],[[656580,195037],[-359,-1778]],[[657714,232825],[10282,9592]],[[667996,242417],[4825,-3972]],[[672821,238445],[-3015,-7742]],[[669806,230703],[-1594,-4092],[-10498,6214]],[[667996,242417],[2437,2273],[-22478,16537]],[[647955,261227],[3846,6316]],[[662630,259185],[13455,-12356]],[[676085,246829],[-3264,-8384]],[[655609,308750],[5885,10769]],[[661494,319519],[7458,-9491]],[[668952,310028],[5823,-12197],[-8043,-9922]],[[666732,287909],[-3939,-3842]],[[558034,273564],[-4603,8433]],[[553431,281997],[559,664]],[[553990,282661],[84,101]],[[554074,282762],[915,1088]],[[554989,283850],[3459,4115],[-3807,5289],[-14417,23534]],[[540224,316788],[-19876,32442]],[[487065,405286],[9725,19675]],[[496790,424961],[3141,-2092],[13208,-16530],[6831,-17720],[519,-5653],[1795,-2234],[-583,-632],[5876,-23448],[1635,-10220],[4331,-11978],[10224,-9160],[8223,-1254],[876,4958],[7406,-402],[-464,-3632],[15856,-3404]],[[575664,321560],[-3842,-279]],[[571822,321281],[-2389,893],[-906,-6588]],[[568527,315586],[-10133,-10050]],[[558394,305536],[-2554,-5136],[4614,-7816],[2141,7704]],[[562595,300288],[8238,14405]],[[570833,314693],[989,6588]],[[575664,321560],[2723,-5173]],[[578387,316387],[-13971,-30607]],[[564416,285780],[-2754,-5793]],[[561444,279529],[-2381,-3994]],[[559063,275535],[-1029,-1971]],[[594028,331603],[-1154,6482],[-8260,19160]],[[584614,357245],[-4530,10509]],[[580084,367754],[3886,24768],[-1949,-743]],[[582021,391779],[-1889,-720],[-5837,-23482]],[[574295,367577],[-2590,-12857]],[[571705,354720],[-12678,-14278],[-3094,1118],[238,18486],[-2465,11540]],[[553706,371586],[2503,17009]],[[556209,388595],[3454,14071]],[[559663,402666],[4954,20184]],[[564617,422850],[10769,25810]],[[575386,448660],[11519,16534],[20461,13180],[17724,-9]],[[625090,478365],[-8684,-15297]],[[616406,463068],[-2433,-6279],[5804,-5183],[19286,-157],[5248,10130]],[[644311,461579],[-2979,12772]],[[641332,474351],[1897,-588],[-1327,10680],[-6047,5965],[-4055,801]],[[631800,491209],[11278,41758],[-11508,20380],[-828,5651]],[[630742,558998],[-2069,14114]],[[628673,573112],[8391,-6166],[499,39319],[4640,18849]],[[642203,625114],[7110,-8299]],[[649313,616815],[-578,-937]],[[648735,615878],[-7425,-12039],[8025,-14900],[-3778,-5125]],[[645557,583814],[-3869,-21794],[-76,-8880]],[[641612,553140],[490,-2094]],[[642102,551046],[7794,-14612],[-6403,-40810],[9781,-30357]],[[653274,465267],[3038,-5307]],[[656312,459960],[-7848,-38707]],[[648464,421253],[-5124,7733]],[[643340,428986],[-17041,1299]],[[625488,430416],[-5787,2905],[-14576,-23533]],[[605125,409788],[-14531,-9198]],[[590594,400590],[14740,18624],[-4371,6265]],[[600963,425479],[10867,14052]],[[611830,439531],[225,-134],[2113,3228],[-1049,1795]],[[613119,444420],[-2402,4106],[-5755,-4868]],[[604962,443658],[-4089,2456]],[[586165,414182],[4355,-1668]],[[590520,412514],[-4423,-5490],[4497,-6434]],[[605125,409788],[-7129,-19997]],[[597996,389791],[-1455,-11021],[7181,-21931],[8111,-11311]],[[604962,443658],[5688,-3417]],[[610650,440241],[1180,-710]],[[600963,425479],[-10443,-12965]],[[536413,416954],[-2289,2821]],[[539219,431202],[10419,-9042]],[[549638,422160],[3936,-733],[663,-610]],[[554237,420817],[-941,-597],[-16883,-3266]],[[550470,362666],[-2432,26],[-211,15291]],[[547827,377983],[-149,10818]],[[547678,388801],[-17119,25443],[478,-2151]],[[531037,412093],[-10032,12538],[-16380,14605]],[[504625,439236],[-9554,8519]],[[495071,447755],[289,8613],[-1028,8271],[-5725,12443],[-5162,2055]],[[467568,485458],[-270,108]],[[467298,485566],[2071,3753]],[[469369,489319],[1788,-712]],[[471157,488607],[4953,-1972]],[[476110,486635],[4199,-1672]],[[480309,484963],[10395,-4139],[6402,-13913]],[[497106,466911],[373,-1146]],[[497479,465765],[166,-1330]],[[497645,464435],[968,-7798],[-220,-6585],[23513,-20965]],[[521906,429087],[1102,-983]],[[532531,416203],[11007,-16359]],[[543538,399844],[3196,-4749]],[[546734,395095],[3358,-4990]],[[550092,390105],[66,-4833]],[[550158,385272],[312,-22606]],[[621106,208030],[-18255,13858],[-4521,7465],[1880,762]],[[471071,391449],[-4376,8244],[206,279],[-7725,15655]],[[459176,415627],[20833,-13870]],[[480009,401757],[823,-1202]],[[480832,400555],[-9761,-9106]],[[480832,400555],[22440,-32721]],[[512488,350961],[513,-979]],[[507141,339116],[-2923,-1526],[-3765,5889],[-10720,18492],[-3076,120],[-10069,18967],[-5517,10391]],[[553431,281997],[-13866,14892],[1100,1829]],[[540665,298718],[4088,-4085],[-385,-2297],[9622,-9675]],[[540665,298718],[2727,4533]],[[543392,303251],[10447,-20037]],[[553839,283214],[235,-452]],[[607670,228130],[7815,-11374]],[[601451,231589],[6219,-3459]],[[567696,271417],[550,923],[-2356,2490]],[[566110,275210],[473,822]],[[569703,269671],[-2007,1746]],[[564416,285780],[2103,-2393]],[[639918,403807],[-7026,-10127]],[[632892,393680],[5252,14029],[5196,21277]],[[648464,421253],[-1931,-3942],[-6615,-13504]],[[480832,400555],[3811,2893]],[[480009,401757],[3549,3311]],[[483558,405068],[1085,-1620]],[[536413,416954],[-3882,-751]],[[631922,393516],[-5349,-588]],[[632892,393680],[-23,-60],[-947,-104]],[[583728,318881],[5629,-38]],[[589357,318843],[110,-4590],[-3269,-6128]],[[589330,319942],[-5471,37]],[[584287,323565],[2070,1664]],[[586357,325229],[2793,2246]],[[589150,327475],[180,-7533]],[[608444,390938],[-10448,-1147]],[[625764,392840],[-17320,-1902]],[[639918,403807],[10420,-36801]],[[650338,367006],[-9989,20721],[-8427,5789]],[[648861,322088],[-5496,9480]],[[643365,331568],[-7160,12351]],[[636205,343919],[-7987,13777]],[[628356,359027],[3566,34489]],[[650338,367006],[10058,-16204],[594,-957]],[[660990,349845],[-12129,-27757]],[[655609,308750],[-6748,13338]],[[660990,349845],[8081,-13019]],[[669071,336826],[-7577,-17307]],[[608444,390938],[-6927,-15116],[4767,-2332],[8798,15895],[-6638,1553]],[[639142,285370],[15448,21935]],[[666732,287909],[4708,-5928]],[[671440,281981],[-8810,-22796]],[[638021,283779],[-4369,4746]],[[633652,288525],[-3457,3755]],[[630195,292280],[7499,14640]],[[637694,306920],[11167,15168]],[[630195,292280],[-7243,7865]],[[626215,309080],[11479,-2160]],[[630197,319984],[5236,-684],[7932,12268]],[[628582,325466],[7623,18453]],[[579860,320005],[-2989,21],[-2062,7132]],[[574809,327158],[1618,766]],[[576427,327924],[1604,759]],[[578031,328683],[1829,-8678]],[[575080,279910],[-580,2261]],[[574500,282171],[1916,-3121]],[[576416,279050],[-701,-1621]],[[577717,289868],[-1830,-1669]],[[575887,288199],[1453,7884],[1052,-182]],[[578392,295901],[-675,-6033]],[[574500,282171],[1387,6028]],[[577717,289868],[-443,-3960],[719,-3209]],[[577993,282699],[-1577,-3649]],[[579953,314506],[-1566,1881]],[[578387,316387],[1152,2523]],[[579539,318910],[623,-1011]],[[580162,317899],[-209,-3393]],[[578392,295901],[918,8206],[643,10399]],[[581200,292075],[-2176,-6990],[-1031,-2386]],[[577993,282699],[1484,-6619]],[[579477,276080],[-1197,-68]],[[578280,276012],[-1864,3038]],[[578280,276012],[-2354,593]],[[579477,276080],[1713,-7649]],[[581190,268431],[-1138,-2597],[-408,317]],[[577993,282699],[2260,-1723]],[[583235,273094],[-2045,-4663]],[[578031,328683],[-221,1049],[5753,2724],[2794,-7227]],[[536413,416954],[6439,-9570],[1850,-5857]],[[544702,401527],[-1164,-1683]],[[544702,401527],[2032,-6432]],[[544702,401527],[6871,9937],[8090,-8798]],[[556209,388595],[-6117,1510]],[[554237,420817],[854,542]],[[555091,421359],[2696,1711]],[[557787,423070],[8154,5173]],[[565941,428243],[-1324,-5393]],[[550158,385272],[1690,-4992],[1858,-8694]],[[553706,371586],[-1316,-8940],[-1920,20]],[[547678,388801],[-5009,2813]],[[542669,391614],[-8083,4538],[-3549,15941]],[[622581,300371],[-1257,765]],[[621324,301136],[-3439,2091]],[[617885,303227],[2267,30521]],[[617885,303227],[-7655,4655]],[[657714,232825],[-2407,1485],[-17461,10315]],[[637846,244625],[6733,11058]],[[644579,255683],[2096,3441]],[[646675,259124],[21321,-16707]],[[646675,259124],[284,468]],[[646959,259592],[996,1635]],[[628942,255685],[-4621,5739]],[[624321,261424],[-236,4614]],[[624085,266038],[7024,7961]],[[631109,273999],[680,-660]],[[631789,273339],[4925,-4791]],[[636714,268548],[1328,-1292]],[[638042,267256],[-9100,-11571]],[[624321,261424],[-2055,2552]],[[622266,263976],[1819,2062]],[[622266,263976],[-3288,4084]],[[618978,268060],[783,6322]],[[619761,274382],[1177,9510]],[[620938,283892],[6757,-6572]],[[627695,277320],[3414,-3321]],[[620938,283892],[636,5131]],[[621574,289023],[6796,-10434]],[[628370,278589],[-675,-1269]],[[643293,277568],[-6579,-9020]],[[631789,273339],[-3419,5250]],[[628370,278589],[5282,9936]],[[621574,289023],[1378,11122]],[[639155,265284],[7804,-5692]],[[644579,255683],[-5424,9601]],[[639155,265284],[-1113,1972]],[[637846,244625],[-8904,11060]],[[578618,259585],[-518,-1016]],[[573261,262752],[5357,-3167]],[[566182,268873],[1514,2544]],[[579441,261201],[-823,-1616]],[[580491,259984],[10697,-12394]],[[603560,288018],[208,619]],[[603768,288637],[12748,8371],[64,-94]],[[616580,296914],[-3311,-16021]],[[613269,280893],[-647,649],[-9062,6476]],[[611650,273059],[2421,7029]],[[614071,280088],[5690,-5706]],[[618978,268060],[-7328,4999]],[[618756,293683],[-2176,3231]],[[616580,296914],[1305,6313]],[[621324,301136],[-2568,-7453]],[[618756,293683],[-4685,-13595]],[[614071,280088],[-802,805]],[[613269,280893],[-1619,-7834]],[[611650,273059],[-8830,12754],[740,2205]],[[570833,314693],[-2306,893]],[[553839,283214],[914,1088],[236,-452]],[[540692,308430],[-3788,-4043],[-20690,39466]],[[519332,349401],[18418,-35327]],[[537750,314074],[2942,-5644]],[[540224,316788],[-2474,-2714]],[[543392,303251],[-2700,5179]],[[559051,272662],[-1017,902]],[[559063,275535],[6133,-8320]],[[559063,275535],[829,-17]],[[559892,275518],[3986,-6101],[1942,-1152]],[[559892,275518],[5450,-108]],[[651655,199420],[711,3451],[5335,-2268],[-1121,-5566]],[[580084,367754],[-4128,-377]],[[575956,367377],[6065,24402]],[[575801,352900],[-483,210]],[[575318,353110],[638,14267]],[[584614,357245],[-8813,-4345]],[[575801,352900],[-503,-248]],[[575298,352652],[20,458]],[[581107,338517],[-5091,-437]],[[576016,338080],[-217,8840]],[[575799,346920],[4058,858],[1250,-9261]],[[574375,338074],[-4557,7275],[1887,9371]],[[571705,354720],[1851,-806]],[[573556,353914],[-34,-929],[666,-7267],[187,-7644]],[[574295,367577],[-739,-13663]],[[589462,327715],[-1697,6250],[-6658,4552]],[[575799,346920],[-501,5732]],[[575801,352900],[5883,-2561],[9661,-21002]],[[576016,338080],[-1641,-6]],[[573556,353914],[1762,-804]],[[562595,300288],[-4201,5248]],[[581107,338517],[0,-5817],[-8655,836],[-118,4531],[2041,7]],[[459176,415627],[2236,3905],[22146,-14464]],[[610650,440241],[2469,4179]],[[549638,422160],[3326,11072],[-22646,10533],[-26408,26922],[-6431,-4922]],[[497106,466911],[6878,5076]],[[503984,471987],[26719,-27239],[22567,-10497],[859,2859],[20105,62068],[20369,34325]],[[594603,533503],[6640,-9046],[9756,26038]],[[610999,550495],[10370,27676],[10,454]],[[621379,578625],[1295,58361],[5,223],[5117,92510],[-1065,42387],[1612,387]],[[628343,772493],[1076,-42818],[-5121,-92580],[-1320,-59481],[-93,-249]],[[622885,577365],[-20840,-55617]],[[602045,521748],[-499,772],[-26160,-73860]],[[565941,428243],[8503,20745]],[[574444,448988],[26350,74523]],[[600794,523511],[-6025,8208],[-20060,-33803]],[[574709,497916],[-19834,-61234],[-4093,-13626],[3090,-576]],[[553872,422480],[1219,-1121]],[[653274,465267],[39166,51950]],[[692440,517217],[32080,53152]],[[724520,570369],[5776,28131]],[[730296,598500],[3861,501],[-1708,-18273],[-16024,-40661],[2378,-7337],[-8314,-6643],[-4030,-240],[-8213,-10819],[-8719,-9177],[-8990,-18261],[-2828,-7593]],[[677709,479997],[-5213,-3986],[-1079,-4720],[-11021,-8268],[-4084,-3063]],[[642102,551046],[17267,7422]],[[659369,558468],[1195,-1484],[13399,19827]],[[673963,576811],[18477,-59594]],[[659369,558468],[1027,1520],[28699,42469],[34263,34529],[4310,4343],[30487,20721],[28888,25505],[15474,30710],[9707,34505]],[[812224,752770],[6536,-22585],[-4186,-41136],[-6729,-15687],[-9936,-1424],[-12043,-19560],[-828,2084]],[[785038,654462],[12048,19567],[10044,1440]],[[807130,675469],[226,32],[6046,14095],[4111,40388],[-5273,18219],[-8824,-31369],[-10716,-20531],[480,-692]],[[793180,695611],[-4950,-9234],[-10471,-9522],[4304,-10299],[-1093,-1844]],[[780970,664712],[-4936,11813],[-17475,-15429],[-4156,-2824],[6588,-27296]],[[760991,630976],[10251,-18745]],[[771242,612231],[-1386,-1154]],[[769856,611077],[-10323,18877]],[[759533,629954],[-6340,26267],[-24672,-16769],[-9564,-9639]],[[718957,629813],[-28771,-28995],[-6038,-8934]],[[684148,591884],[-10185,-15073]],[[641612,553140],[15057,6472]],[[656669,559612],[1697,729],[-3716,37648],[-5915,17889]],[[649313,616815],[6125,-18522],[3931,-39825]],[[628673,573112],[-5788,4253]],[[628343,772493],[22969,-56013],[-10788,-73922],[536,-5572],[1143,-11872]],[[466170,471844],[-10685,-11274],[60,-4699]],[[495071,447755],[-18378,14280]],[[432880,444394],[-1315,-8104],[-2511,1135],[-519,-2918],[-1593,1567],[2032,9346]],[[521906,429087],[-22500,33077],[-1761,2271]],[[471157,488607],[2972,3571],[2810,-3280]],[[476939,488898],[-829,-2263]],[[503984,471987],[-23253,27265],[-3792,-10354]],[[469369,489319],[7037,12751],[22724,-11664],[4854,-18419]],[[476939,488898],[3370,-3935]],[[553872,422480],[14963,30387]],[[568835,452867],[-11048,-29797]],[[574709,497916],[7373,-11118]],[[582082,486798],[-14748,-27356],[1501,-6575]],[[625090,478365],[3278,-1],[12964,-4013]],[[644311,461579],[-10605,-2033],[-9672,-3228],[-7628,6750]],[[574444,448988],[-5609,3879]],[[582082,486798],[18712,36713]],[[602045,521748],[9469,-14625],[4153,-3258]],[[615667,503865],[16133,-12656]],[[656669,559612],[-6039,26034],[-5073,-1832]],[[594603,533503],[12604,21240]],[[607207,554743],[3792,-4248]],[[607207,554743],[14172,23882]],[[630742,558998],[-15075,-55133]],[[439607,440436],[8462,-6790],[-1444,-3162],[-8360,5760],[1342,4192]],[[715391,149714],[-8102,4443]],[[706339,154678],[-10691,5862]],[[684447,167671],[356,1136]],[[740208,142490],[-24817,7224]],[[745288,191103],[-23318,5641]],[[721970,196744],[6282,8988]],[[728252,205732],[1037,1485]],[[729289,207217],[15999,-16114]],[[729289,207217],[1597,2818]],[[730886,210035],[495,872]],[[827668,200231],[8048,21805]],[[835716,222036],[26031,-13833]],[[861747,208203],[-5247,-21944],[-99,-536]],[[930652,161509],[-2636,503]],[[928016,162012],[-16840,8069],[-15418,18909]],[[895758,188990],[7747,-6101],[27147,-21380]],[[908826,144787],[-3179,-4931],[-7877,574],[6393,7900],[4663,-3543]],[[903089,104597],[5621,28172],[943,-450]],[[909653,132319],[2921,-1398]],[[912574,130921],[-5536,-25810]],[[907038,105111],[-3949,-514]],[[902611,130287],[-3754,-9538],[-3687,2560],[3912,9690],[3529,-2712]],[[928016,162012],[-994,-4239],[-15524,7404],[-11291,-3294],[-5033,-5981]],[[895174,155902],[-4569,22707],[5153,10381]],[[861299,149735],[1345,24245]],[[862644,173980],[6583,29997]],[[869227,203977],[11226,-6341],[15305,-8646]],[[895174,155902],[-817,-12860],[-14813,-22242],[-10257,6492],[-4151,7965],[-3837,14478]],[[861299,149735],[-12289,-4065]],[[854710,176560],[7934,-2580]],[[861747,208203],[7480,-4226]],[[721735,155961],[-213,-985]],[[712706,161381],[3699,-1766],[-324,-1445],[5654,-2209]],[[689678,173889],[3628,-1630]],[[693306,172259],[11795,-2941]],[[705101,169318],[2922,-3051]],[[722739,160606],[-1004,-4645]],[[708023,166267],[3982,-1332],[6596,-4191],[4138,-138]],[[705101,169318],[6802,-1697],[10836,-7015]],[[737939,148215],[-22,-104]],[[736396,148748],[1543,-533]],[[721735,155961],[16533,-6114]],[[738268,149847],[-329,-1632]],[[770260,137273],[-828,-2358]],[[751047,142613],[248,1041]],[[751295,143654],[50,213]],[[751345,143867],[16476,-5751],[2439,-843]],[[722739,160606],[16265,-7110]],[[739004,153496],[-736,-3649]],[[748727,143585],[206,874]],[[748933,144459],[2362,-805]],[[748933,144459],[659,2780]],[[749592,147239],[2394,-664]],[[751986,146575],[-328,-1385]],[[751658,145190],[-313,-1323]],[[737939,148215],[10994,-3756]],[[739004,153496],[1542,-674],[2932,-3886],[6114,-1697]],[[770260,137273],[3754,-1297]],[[774014,135976],[6442,-2227]],[[780456,133749],[-693,-3160]],[[774014,135976],[6534,-1810]],[[780548,134166],[-92,-417]],[[751658,145190],[16374,-5433]],[[768032,139757],[2388,-2027]],[[770420,137730],[-160,-457]],[[751986,146575],[11908,-3306],[4138,-3512]],[[796603,124341],[-16840,6248]],[[780456,133749],[4811,-1786]],[[785267,131963],[11336,-7622]],[[854260,85592],[-12321,7122]],[[827111,104589],[27149,-18997]],[[854260,85592],[12024,-8413]],[[870607,76717],[-4323,462]],[[854260,85592],[16347,-8875]],[[827386,105612],[17550,-11175]],[[844936,94437],[-10839,6174]],[[834097,100611],[-5931,3802],[-941,603]],[[827225,105016],[161,596]],[[877302,76004],[-6695,713]],[[827111,104589],[6986,-3978]],[[844936,94437],[32366,-18433]],[[827386,105612],[1179,4384]],[[828565,109996],[37201,-21965],[2860,6283]],[[868626,94314],[19975,-11593],[2052,7010]],[[890653,89731],[1445,-3193],[-1267,-10567]],[[890831,75971],[-1183,843],[-1148,-2005],[-11198,1195]],[[827111,104589],[114,427]],[[878871,71816],[-8264,4901]],[[877302,76004],[3167,-1793],[8393,-6396]],[[888862,67815],[2137,-1629]],[[890999,66186],[4421,-3370]],[[915110,47211],[-12058,5608],[-17298,13763]],[[918214,45137],[-14709,6083],[-16879,6980],[-31574,21461]],[[890831,75971],[-1969,-8156]],[[892772,71246],[-1773,-5060]],[[890831,75971],[1086,-773]],[[891917,75198],[-1091,-2481],[1946,-1471]],[[892772,71246],[16261,-12287],[2511,-3019]],[[916704,49740],[-3827,1412]],[[891917,75198],[1904,4332]],[[893821,79530],[1370,-880]],[[895191,78650],[-2419,-7404]],[[895191,78650],[19550,-12562]],[[890653,89731],[3173,10839]],[[893826,100570],[2390,3828],[3822,-2096],[993,-8816]],[[901031,93486],[-7210,-13956]],[[893826,100570],[2087,7133],[7176,-3106]],[[907038,105111],[-6007,-11625]],[[824078,107018],[416,-333]],[[807973,117829],[-1115,968]],[[806858,118797],[12861,-8221]],[[819719,110576],[388,-316]],[[820107,110260],[3971,-3242]],[[806858,118797],[-4477,3883]],[[802381,122680],[4380,780],[4270,-2989]],[[811031,120471],[-500,-2394],[9188,-7501]],[[827225,105016],[-3147,2002]],[[820107,110260],[7279,-4648]],[[811031,120471],[1219,-852],[16315,-9623]],[[826904,200615],[6082,16478]],[[832986,217093],[1972,5345]],[[834958,222438],[758,-402]],[[730886,210035],[-50812,46483]],[[680074,256518],[396,963]],[[705156,291694],[2584,3671]],[[707740,295365],[13027,-10137],[23127,-12800]],[[743894,272428],[-5630,-8742]],[[743894,272428],[17599,-9741],[-569,-908]],[[760924,261779],[-7069,-11282]],[[760924,261779],[996,-529]],[[761920,261250],[71066,-44157]],[[669071,336826],[10322,-16629]],[[679393,320197],[-10441,-10169]],[[679393,320197],[3332,-5368],[12724,-9901]],[[695449,304928],[-1381,-2240]],[[694068,302688],[-17073,-27702]],[[676995,274986],[-5555,6995]],[[707740,295365],[-13672,7323]],[[695449,304928],[12291,-9563]],[[684030,266128],[-7035,8858]],[[680074,256518],[-3989,-9689]],[[728252,205732],[-52167,41097]],[[761920,261250],[73038,-38812]],[[769057,599244],[-344,665],[12783,7470],[33794,56815],[464,2692],[4266,-7142]],[[820020,659744],[-23601,-43354],[-19102,-27121],[-8260,9975]],[[725576,523048],[-20778,-17625]],[[704798,505423],[-860,1862],[20259,17185],[4754,21736]],[[728951,546206],[37779,54793]],[[766730,600999],[165,241],[4760,2781]],[[771655,604021],[8831,5161],[2946,4952]],[[783432,614134],[30312,50961]],[[813744,665095],[52,87],[524,3043],[11617,23400],[4391,34011]],[[830328,725636],[1844,1545]],[[832172,727181],[-4698,-36395]],[[827474,690786],[-8416,-16951]],[[819058,673835],[-1147,-2312]],[[817911,671523],[-1763,-3551]],[[816148,667972],[10789,-18061],[604,407],[24903,-22178],[2635,9862],[3665,49438]],[[858744,687440],[806,-109]],[[859550,687331],[-3675,-49575],[-206,-770],[-2812,-10528],[-11821,10528],[-13551,12068],[-13307,-8960],[-1747,-3108],[-27383,-48712],[-661,637]],[[784387,588911],[29262,52053],[12544,8447],[-6173,10333]],[[769057,599244],[4324,-8373],[8479,-7142],[2527,5182]],[[784387,588911],[661,-637],[-20309,-41640],[-17332,-26731]],[[747407,519903],[-1128,-78]],[[746279,519825],[17815,27477],[5587,11456]],[[769681,558758],[11732,24055],[-8589,7234]],[[772824,590047],[-5087,9195],[-37341,-54157],[-4820,-22037]],[[816148,667972],[21024,-18936],[11157,39821]],[[848329,688857],[10415,-1417]],[[783432,614134],[10022,34975],[10870,16874],[9420,-888]],[[683756,484478],[6922,16460],[18545,21324],[6536,1546],[8779,9013],[-304,4121],[-3496,4430],[17519,41774],[-1786,8086],[1976,18543],[7144,9066],[26064,-14820]],[[766730,600999],[-17694,2444],[-20085,-57237]],[[704798,505423],[-1551,-5819]],[[703247,499604],[-5352,303],[-14139,-15429]],[[683756,484478],[-6047,-4481]],[[730296,598500],[10346,27312]],[[740642,625812],[29214,-14735]],[[771242,612231],[4463,3715],[9333,38516]],[[812224,752770],[-3774,32634]],[[808450,785404],[1007,923]],[[809457,786327],[923,-1738]],[[810380,784589],[11775,-7145],[-5650,-32987],[3190,-2503],[5352,-13682],[5281,-2636]],[[760991,630976],[19979,33736]],[[780970,664712],[4068,-10250]],[[719147,597052],[-190,32761]],[[759533,629954],[-17262,159],[-1629,-4301]],[[730296,598500],[-11149,-1448]],[[754884,568492],[17940,21555]],[[769681,558758],[-14797,9734]],[[731654,519600],[23230,48892]],[[746279,519825],[-14625,-225]],[[731654,519600],[-6078,3448]],[[706781,499404],[-3534,200]],[[731654,519600],[-24873,-20196]],[[747407,519903],[-36824,-20714],[-3802,215]],[[684148,591884],[913,-8226],[34086,13394]],[[719147,597052],[971,-25048],[4402,-1635]],[[840772,829196],[332,1476]],[[841104,830672],[23052,-57809],[-996,-18498]],[[863160,754365],[-810,47]],[[839287,689693],[-2347,217]],[[836940,689910],[10744,37446],[9891,8882]],[[857575,736238],[4693,1556]],[[862268,737794],[-176,-3271]],[[862092,734523],[-5206,-1816]],[[856886,732707],[-7461,-6228],[-10138,-36786]],[[819058,673835],[7084,676],[10798,15399]],[[839287,689693],[-12120,-17287],[-9256,-883]],[[810380,784589],[-7008,26930]],[[803372,811519],[4826,5367],[175,794]],[[808373,817680],[4029,18222],[-35,31447],[-5712,32778],[-10403,5393],[-15232,-61666],[7055,-17268],[21382,-40259]],[[808450,785404],[-21404,40298],[-7348,17988],[3204,12971],[12600,51012]],[[795502,907673],[12188,-6319],[5892,-33812],[35,-31600]],[[813617,835942],[0,-280],[-4361,-19732]],[[809256,815930],[-4454,-4951],[6212,-23872]],[[811014,787107],[338,-1303],[14201,-8616]],[[825553,777188],[-2040,-1529],[-5158,-30115],[2554,-2004],[5260,-13446],[4289,-1847],[2656,8069],[5767,6190],[20880,4935],[645,3301]],[[863160,754365],[-343,-6370]],[[862817,747995],[-3511,-2889]],[[859306,745106],[-19422,-5205],[-5398,-5226],[-2314,-7494]],[[811014,787107],[9552,9744]],[[820566,796851],[6271,6396],[-2538,17616],[-10682,15079]],[[795502,907673],[30605,-5391],[-966,-17918],[362,-14481],[1617,-13222],[134,-1095],[13850,-24894]],[[833400,796507],[-5120,-17275],[-2727,-2044]],[[808373,817680],[-12967,23886],[-3217,-13532],[11183,-16515]],[[862817,747995],[-549,-10201]],[[857575,736238],[1731,8868]],[[862092,734523],[-2542,-47192]],[[848329,688857],[8557,43850]],[[839287,689693],[9042,-836]],[[827474,690786],[9466,-876]],[[809256,815930],[11310,-19079]],[[807130,675469],[-13950,20142]],[[916479,143995],[-1516,2327]],[[914963,146322],[627,4676],[3655,5010],[1575,-10375],[-4341,-1638]],[[909653,132319],[5310,14003]],[[916479,143995],[-3905,-13074]],[[965990,38943],[-4857,3217],[2467,21841],[3356,130]],[[966956,64131],[469,-22231],[-1435,-2957]],[[929494,133926],[6375,24369]],[[935869,158295],[11989,-7518]],[[947858,150777],[-18364,-16851]],[[987924,124384],[-12231,-36718],[-18834,5532],[-8415,-3444],[-12777,3336]],[[935667,93090],[336,8258]],[[936003,101348],[14026,-2479]],[[950029,98869],[22105,13691],[12253,14244]],[[984387,126804],[3537,-2420]],[[935667,93090],[-16752,4374],[4858,14594]],[[923773,112058],[20044,-2048]],[[943817,110010],[-7814,-8662]],[[935869,158295],[-5217,3214]],[[930652,161509],[41490,-10337]],[[972142,151172],[-6297,-11677]],[[965845,139495],[-17987,11282]],[[929494,133926],[-5721,-21868]],[[923773,112058],[6879,49451]],[[984387,126804],[-18542,12691]],[[972142,151172],[13959,-3477],[2192,5306],[6660,-7513]],[[994953,145488],[-7029,-21104]],[[943817,110010],[6212,-11141]],[[943817,110010],[22028,29485]],[[954395,25906],[-196,-727]],[[944105,33220],[10290,-7314]],[[946491,39698],[5281,-4007],[5151,-402],[-2528,-9383]],[[976992,3592],[-1642,-3592],[-3330,2693]],[[972020,2693],[-14990,17870],[-6959,4947]],[[950071,25510],[43,92]],[[972020,2693],[-23661,19138],[1712,3679]],[[589462,327715],[-312,-240]],[[576427,327924],[-262,1029],[-1649,-780],[293,-1015]],[[496790,424961],[7835,14275]],[[542669,391614],[2724,-3472],[2434,-10159]],[[583235,273094],[1615,-1499],[-2946,-6347]],[[581904,265248],[-714,3183]],[[581200,292075],[-947,-11099]],[[693306,172259],[712,2986],[-6844,3305]],[[663266,189911],[-6686,5126]],[[651655,199420],[-17315,15486],[-6244,-1111],[-27117,22633]],[[589357,318843],[-27,1099]],[[603208,288269],[352,-251]],[[624321,261424],[563,-11020],[12962,-5779]],[[637846,244625],[28360,-18834],[22366,-18947],[11534,-11519],[-6714,-13569],[11709,-12438]],[[621574,289023],[-2818,4660]],[[607670,228130],[-2127,3094]],[[605543,231224],[-4564,5204]],[[605543,231224],[-4092,365]],[[459176,415627],[-830,1684],[-4709,9543],[6519,-1618],[-7609,14978],[-5269,-4527],[-3697,6877]],[[455545,455871],[10066,-12458],[15266,-5451],[2198,-3866],[13715,-9135]],[[717722,198648],[-319,-2505],[-12521,-21709]],[[704882,174434],[-1556,36441]],[[703326,210875],[9796,-10165],[4600,-2062]],[[721970,196744],[-4248,1904]],[[703326,210875],[-4628,4802],[-6277,-6110],[-19731,14022],[-2884,7114]],[[704882,174434],[219,-5116]],[[799766,122214],[2615,466]],[[994953,145488],[5046,-5692],[-3850,-8657],[-9762,-21950],[228,-21854],[1269,-21816],[6335,-22568],[-16236,-37187]],[[868626,94314],[-14854,9024]],[[853772,103338],[3029,6291],[-6439,4995]],[[850362,114624],[-12516,11029],[-9281,-15657]],[[799766,122214],[-3163,2127]],[[785267,131963],[-4627,2625]],[[780640,134588],[-2165,1120]],[[778475,135708],[-4539,2347],[-1337,-124]],[[772599,137931],[-2179,-201]],[[965990,38943],[734,-487],[1518,3129],[-476,22576],[-810,-30]],[[946281,43279],[1918,-2764],[4158,-3858],[1102,1302],[-7178,5320]],[[967346,38044],[2266,-1501],[-345,4681],[-1921,-3180]],[[853772,103338],[-7015,4261],[3605,7025]],[[796603,124341],[1271,-1335]],[[778475,135708],[-5876,2223]],[[780640,134588],[-92,-422]]],"bbox":[323.692,1424.309,2564.664,3079.479],"transform":{"scale":[0.002240974240974241,0.0016551716551716552],"translate":[323.692,1424.309]}}