{"type":"Topology","objects":{"01404-4334-16.featurecollection":{"type":"GeometryCollection","geometries":[{"type":"Polygon","arcs":[[0,1]],"properties":{"市区町村名":"古宇郡神恵内村","大字名":"大字赤石村","丁目名":null,"小字名":null,"地番":"水-2","精度区分":null,"座標系":"任意座標系"}},{"type":"Polygon","arcs":[[2,-1,3]],"properties":{"市区町村名":"古宇郡神恵内村","大字名":"大字赤石村","丁目名":null,"小字名":null,"地番":"長狭物不明-3","精度区分":null,"座標系":"任意座標系"}},{"type":"Polygon","arcs":[[4,5,-3,6]],"properties":{"市区町村名":"古宇郡神恵内村","大字名":"大字赤石村","丁目名":null,"小字名":"字二ノ目沢","地番":"485","精度区分":null,"座標系":"任意座標系"}},{"type":"Polygon","arcs":[[-5,7]],"properties":{"市区町村名":"古宇郡神恵内村","大字名":"大字赤石村","丁目名":null,"小字名":null,"地番":"長狭物不明-6","精度区分":null,"座標系":"任意座標系"}}]}},"arcs":[[[840662,630925],[3503,18875],[-13011,55217],[121326,112670],[-1022,40173],[24440,28349],[12192,49714],[-6523,858]],[[981567,936781],[13845,63218],[4439,-30917],[148,-19850],[-1035,-13128],[-4898,-23788],[-4733,-15283],[-5927,-12609],[-5177,-6660],[-9615,-10091],[-5029,-5878],[-4437,-7543],[-1775,-7316],[1479,-35509],[294,-14749],[-2516,-10580],[-5790,-10431],[-13016,-13323],[-9615,-8425],[-8455,-6131],[-18935,-9992],[-17010,-11757],[-10093,-8388],[-9911,-11951],[-8579,-13030],[-6063,-17603],[-1234,-9076],[549,-8261],[3563,-17928],[411,-9076],[-1236,-10126],[-3700,-10438],[-2192,-8135],[0,-6444],[2742,-6081],[5755,-6900],[6990,-7442],[3016,-9587],[-822,-5537],[-2741,-8532],[-6305,-10414],[-3017,-8986],[-1369,-14977],[1098,-9388],[2330,-7533],[4268,-5962],[6854,-7533],[9593,-7352],[13158,-9349],[7140,-5862],[5072,-8714],[1782,-6263],[-1234,-5718],[-6855,-16570],[-3838,-7080],[-4249,-6227],[-137,-3721],[549,-7535],[14530,-22908],[7092,-9128],[5890,-9824],[1282,-13149],[-1547,-14191],[-4108,-11089],[-4749,-6877],[-6297,-6365],[-9203,-6337],[-8726,-4316],[-12922,-4317],[-24300,-7754],[-8638,-4068],[-12150,-9730],[-9185,-12971],[-5915,-12031],[-4991,-27657],[-3095,-14506],[-6903,-16599],[-2433,-3486],[-3724,-2566],[-3180,-1217],[-3674,-263],[-5860,756],[-11146,3062],[-8492,1020],[-20867,65],[-6505,-2104],[-3053,-2731],[-1344,-1806],[472,-12102],[-2615,-3657],[-5232,-3994],[-9081,-5871],[-8225,-3778],[-12569,-4715],[-15185,-6015],[-14759,-6490],[-12406,-7476],[-20936,-14632],[-20831,-17649],[-19648,-15736],[-16232,-10930],[-16787,-9701],[-37571,-19361],[-20677,-8997],[-24198,-9093],[-11479,-3404],[-22950,-6041],[-22759,-4135],[-11298,-1153],[-30537,-1081],[-14980,-1272],[-11523,-1950],[-66152,0],[118835,43935],[31078,-27697],[120739,47257],[102718,69865],[61985,32879],[7041,25389],[64771,2260],[30388,80609],[79745,41085],[13726,39336],[-28354,42653],[-1406,33425],[16582,20810],[-37014,31216],[-25465,53009],[21617,39855],[-15991,17669],[6934,37370]],[[835578,639611],[1877,10116],[-13289,56387],[121630,112952],[-1016,39931],[24750,28706],[12037,49078]],[[840662,630925],[-6730,-180],[1646,8866]],[[12165,617715],[262806,197575]],[[274971,815290],[108381,76850],[259338,46449],[214947,1375],[50597,6467],[73333,-9650]],[[835578,639611],[-823413,-21896]],[[12165,617715],[-12165,-9146],[103703,212880],[171268,-6159]]],"bbox":[3572.136,0,4119.121,824.982],"transform":{"scale":[0.0005469855469855471,0.0008249828249828249],"translate":[3572.136,0]}}