{"type":"Topology","objects":{"01664-4600-10":{"type":"GeometryCollection","geometries":[{"type":"MultiPolygon","arcs":[[[0,1]]],"properties":{"筆ID":"H000000001","version":"ver1.0","座標系":"任意座標系","測地系判別":null,"地図名":"区画整理図２火災復興","地図番号":"区-19","縮尺分母":"600","市区町村コード":"01664","市区町村名":"川上郡標茶町","大字コード":"047","丁目コード":"002","小字コード":"0000","予備コード":"00","大字名":"旭","丁目名":"２丁目","小字名":null,"予備名":null,"地番":"57-3","精度区分":null,"座標値種別":"図上測量","筆界未定構成筆":null,"代表点緯度":274.657,"代表点経度":87.856908483}},{"type":"MultiPolygon","arcs":[[[2,3,-1,4]]],"properties":{"筆ID":"H000000002","version":"ver1.0","座標系":"任意座標系","測地系判別":null,"地図名":"区画整理図２火災復興","地図番号":"区-19","縮尺分母":"600","市区町村コード":"01664","市区町村名":"川上郡標茶町","大字コード":"047","丁目コード":"002","小字コード":"0000","予備コード":"00","大字名":"旭","丁目名":"２丁目","小字名":null,"予備名":null,"地番":"道-1","精度区分":null,"座標値種別":"図上測量","筆界未定構成筆":null,"代表点緯度":199.1715,"代表点経度":61.462147931}},{"type":"MultiPolygon","arcs":[[[5,-3]]],"properties":{"筆ID":"H000000003","version":"ver1.0","座標系":"任意座標系","測地系判別":null,"地図名":"区画整理図２火災復興","地図番号":"区-19","縮尺分母":"600","市区町村コード":"01664","市区町村名":"川上郡標茶町","大字コード":"049","丁目コード":"002","小字コード":"0000","予備コード":"00","大字名":"富士","丁目名":"２丁目","小字名":null,"予備名":null,"地番":"道-1","精度区分":null,"座標値種別":"図上測量","筆界未定構成筆":null,"代表点緯度":74.711,"代表点経度":5.653481973}}]}},"arcs":[[[895516,999132],[-11798,-9743]],[[883718,989389],[-2938,872],[11791,9738],[2945,-867]],[[493661,416701],[-116656,27488]],[[377005,444189],[46363,50222],[92676,100470],[41134,44978],[26374,28422],[53467,57606],[34939,38110],[20396,22228],[27875,30631],[42251,48427],[30198,32570],[29423,31817],[29352,31896],[4143,4479],[28122,23344]],[[895516,999132],[104483,-30781],[-43074,-34064],[-463264,-517586]],[[493661,416701],[-376717,-416701],[-116944,25288],[40088,45474],[19733,22454],[24801,28351],[33112,37203],[27611,31454],[30102,32314],[36616,40152],[38356,47111],[50154,50860],[34995,38634],[41437,44894]]],"bbox":[-23.405,22.365,101.869,276.002],"transform":{"scale":[0.00012527412527412528,0.00025363725363725364],"translate":[-23.405,22.365]}}
