{"type":"Topology","objects":{"01215-4301-38":{"type":"GeometryCollection","geometries":[{"type":"MultiPolygon","arcs":[[[0,1,2,3,4,5,6,7,8,9,10,11,12,13,14,15,16,17]]],"properties":{"筆ID":"H000000001","version":"ver1.0","座標系":"任意座標系","測地系判別":null,"地図名":"H21430101215036","地図番号":"切-9","縮尺分母":"4800","市区町村コード":"01215","市区町村名":"美唄市","大字コード":"000","丁目コード":"000","小字コード":"0000","予備コード":"00","大字名":null,"丁目名":null,"小字名":null,"予備名":null,"地番":"1849-1W1","精度区分":null,"座標値種別":"図上測量","筆界未定構成筆":null,"代表点緯度":275081.6685,"代表点経度":161620.943116977}},{"type":"MultiPolygon","arcs":[[[18,19]]],"properties":{"筆ID":"H000000002","version":"ver1.0","座標系":"任意座標系","測地系判別":null,"地図名":"H21430101215036","地図番号":"切-24","縮尺分母":"4800","市区町村コード":"01215","市区町村名":"美唄市","大字コード":"000","丁目コード":"000","小字コード":"0000","予備コード":"00","大字名":null,"丁目名":null,"小字名":null,"予備名":null,"地番":"1849-34","精度区分":null,"座標値種別":"図上測量","筆界未定構成筆":null,"代表点緯度":269745.386,"代表点経度":159433.82948435}},{"type":"MultiPolygon","arcs":[[[20,21,22,23,-23,24,-20,25,26,27]]],"properties":{"筆ID":"H000000003","version":"ver1.0","座標系":"任意座標系","測地系判別":null,"地図名":"H21430101215036","地図番号":"切-24","縮尺分母":"4800","市区町村コード":"01215","市区町村名":"美唄市","大字コード":"000","丁目コード":"000","小字コード":"0000","予備コード":"00","大字名":null,"丁目名":null,"小字名":null,"予備名":null,"地番":"1849-28","精度区分":null,"座標値種別":"図上測量","筆界未定構成筆":null,"代表点緯度":269395.063,"代表点経度":159420.60476151}},{"type":"MultiPolygon","arcs":[[[28,29,30,-4,31]]],"properties":{"筆ID":"H000000004","version":"ver1.0","座標系":"任意座標系","測地系判別":null,"地図名":"H21430101215036","地図番号":"切-22","縮尺分母":"4800","市区町村コード":"01215","市区町村名":"美唄市","大字コード":"000","丁目コード":"000","小字コード":"0000","予備コード":"00","大字名":null,"丁目名":null,"小字名":null,"予備名":null,"地番":"1849-45","精度区分":null,"座標値種別":"図上測量","筆界未定構成筆":null,"代表点緯度":272635.2155,"代表点経度":160327.035628692}},{"type":"MultiPolygon","arcs":[[[-31,32,-7,33,-5]]],"properties":{"筆ID":"H000000005","version":"ver1.0","座標系":"任意座標系","測地系判別":null,"地図名":"H21430101215036","地図番号":"切-17","縮尺分母":"4800","市区町村コード":"01215","市区町村名":"美唄市","大字コード":"000","丁目コード":"000","小字コード":"0000","予備コード":"00","大字名":null,"丁目名":null,"小字名":null,"予備名":null,"地番":"地区外-2627086","精度区分":null,"座標値種別":"図上測量","筆界未定構成筆":null,"代表点緯度":272834.8415,"代表点経度":160526.983}},{"type":"MultiPolygon","arcs":[[[34,35,36,37,-2,38]]],"properties":{"筆ID":"H000000006","version":"ver1.0","座標系":"任意座標系","測地系判別":null,"地図名":"H21430101215036","地図番号":"切-23","縮尺分母":"4800","市区町村コード":"01215","市区町村名":"美唄市","大字コード":"000","丁目コード":"000","小字コード":"0000","予備コード":"00","大字名":null,"丁目名":null,"小字名":null,"予備名":null,"地番":"1849-43","精度区分":null,"座標値種別":"図上測量","筆界未定構成筆":null,"代表点緯度":271840.0275,"代表点経度":160054.272128888}},{"type":"MultiPolygon","arcs":[[[39,40,41]]],"properties":{"筆ID":"H000000007","version":"ver1.0","座標系":"任意座標系","測地系判別":null,"地図名":"H21430101215036","地図番号":"切-24","縮尺分母":"4800","市区町村コード":"01215","市区町村名":"美唄市","大字コード":"000","丁目コード":"000","小字コード":"0000","予備コード":"00","大字名":null,"丁目名":null,"小字名":null,"予備名":null,"地番":"地区外-2627088","精度区分":null,"座標値種別":"図上測量","筆界未定構成筆":null,"代表点緯度":268966.2915,"代表点経度":158811.887003156}},{"type":"MultiPolygon","arcs":[[[42,43]]],"properties":{"筆ID":"H000000008","version":"ver1.0","座標系":"任意座標系","測地系判別":null,"地図名":"H21430101215036","地図番号":"切-25","縮尺分母":"4800","市区町村コード":"01215","市区町村名":"美唄市","大字コード":"000","丁目コード":"000","小字コード":"0000","予備コード":"00","大字名":null,"丁目名":null,"小字名":null,"予備名":null,"地番":"1849-11","精度区分":null,"座標値種別":"図上測量","筆界未定構成筆":null,"代表点緯度":267329.2735,"代表点経度":159399.149926958}},{"type":"MultiPolygon","arcs":[[[44,45,46,47]]],"properties":{"筆ID":"H000000009","version":"ver1.0","座標系":"任意座標系","測地系判別":null,"地図名":"H21430101215036","地図番号":"切-25","縮尺分母":"4800","市区町村コード":"01215","市区町村名":"美唄市","大字コード":"000","丁目コード":"000","小字コード":"0000","予備コード":"00","大字名":null,"丁目名":null,"小字名":null,"予備名":null,"地番":"1849-12","精度区分":null,"座標値種別":"図上測量","筆界未定構成筆":null,"代表点緯度":267326.3265,"代表点経度":159220.23999939}},{"type":"MultiPolygon","arcs":[[[48,49,50]]],"properties":{"筆ID":"H000000010","version":"ver1.0","座標系":"任意座標系","測地系判別":null,"地図名":"H21430101215036","地図番号":"切-25","縮尺分母":"4800","市区町村コード":"01215","市区町村名":"美唄市","大字コード":"000","丁目コード":"000","小字コード":"0000","予備コード":"00","大字名":null,"丁目名":null,"小字名":null,"予備名":null,"地番":"地区外-2627091","精度区分":null,"座標値種別":"図上測量","筆界未定構成筆":null,"代表点緯度":267127.008,"代表点経度":158890.14925}},{"type":"MultiPolygon","arcs":[[[51,52,53,54]]],"properties":{"筆ID":"H000000011","version":"ver1.0","座標系":"任意座標系","測地系判別":null,"地図名":"H21430101215036","地図番号":"切-39","縮尺分母":"4800","市区町村コード":"01215","市区町村名":"美唄市","大字コード":"000","丁目コード":"000","小字コード":"0000","予備コード":"00","大字名":null,"丁目名":null,"小字名":null,"予備名":null,"地番":"地区外-2627092","精度区分":null,"座標値種別":"図上測量","筆界未定構成筆":null,"代表点緯度":263416.783,"代表点経度":156239.934}},{"type":"MultiPolygon","arcs":[[[55,56,57]]],"properties":{"筆ID":"H000000012","version":"ver1.0","座標系":"任意座標系","測地系判別":null,"地図名":"H21430101215036","地図番号":"切-31","縮尺分母":"4800","市区町村コード":"01215","市区町村名":"美唄市","大字コード":"000","丁目コード":"000","小字コード":"0000","予備コード":"00","大字名":null,"丁目名":null,"小字名":null,"予備名":null,"地番":"地区外-2627093","精度区分":null,"座標値種別":"図上測量","筆界未定構成筆":null,"代表点緯度":265330.828,"代表点経度":158520.598842323}},{"type":"MultiPolygon","arcs":[[[58,59,60]]],"properties":{"筆ID":"H000000013","version":"ver1.0","座標系":"任意座標系","測地系判別":null,"地図名":"H21430101215036","地図番号":"切-19","縮尺分母":"4800","市区町村コード":"01215","市区町村名":"美唄市","大字コード":"000","丁目コード":"000","小字コード":"0000","予備コード":"00","大字名":null,"丁目名":null,"小字名":null,"予備名":null,"地番":"地区外-2627094","精度区分":null,"座標値種別":"図上測量","筆界未定構成筆":null,"代表点緯度":267862.29,"代表点経度":161979.5855}},{"type":"MultiPolygon","arcs":[[[61,62,-10]]],"properties":{"筆ID":"H000000014","version":"ver1.0","座標系":"任意座標系","測地系判別":null,"地図名":"H21430101215036","地図番号":"切-16","縮尺分母":"4800","市区町村コード":"01215","市区町村名":"美唄市","大字コード":"000","丁目コード":"000","小字コード":"0000","予備コード":"00","大字名":null,"丁目名":null,"小字名":null,"予備名":null,"地番":"地区外-2627095","精度区分":null,"座標値種別":"図上測量","筆界未定構成筆":null,"代表点緯度":276121.885,"代表点経度":160863.456}},{"type":"MultiPolygon","arcs":[[[-13,63,64,65]]],"properties":{"筆ID":"H000000015","version":"ver1.0","座標系":"任意座標系","測地系判別":null,"地図名":"H21430101215036","地図番号":"切-3","縮尺分母":"4800","市区町村コード":"01215","市区町村名":"美唄市","大字コード":"000","丁目コード":"000","小字コード":"0000","予備コード":"00","大字名":null,"丁目名":null,"小字名":null,"予備名":null,"地番":"地区外-2627096","精度区分":null,"座標値種別":"図上測量","筆界未定構成筆":null,"代表点緯度":277911.1615,"代表点経度":164687.935558303}},{"type":"MultiPolygon","arcs":[[[-15,66,67,68]]],"properties":{"筆ID":"H000000016","version":"ver1.0","座標系":"任意座標系","測地系判別":null,"地図名":"H21430101215036","地図番号":"切-10","縮尺分母":"4800","市区町村コード":"01215","市区町村名":"美唄市","大字コード":"000","丁目コード":"000","小字コード":"0000","予備コード":"00","大字名":null,"丁目名":null,"小字名":null,"予備名":null,"地番":"地区外-2627097","精度区分":null,"座標値種別":"図上測量","筆界未定構成筆":null,"代表点緯度":274852.5515,"代表点経度":163412.42525}},{"type":"MultiPolygon","arcs":[[[-16,-69,69]]],"properties":{"筆ID":"H000000017","version":"ver1.0","座標系":"任意座標系","測地系判別":null,"地図名":"H21430101215036","地図番号":"切-16","縮尺分母":"4800","市区町村コード":"01215","市区町村名":"美唄市","大字コード":"000","丁目コード":"000","小字コード":"0000","予備コード":"00","大字名":null,"丁目名":null,"小字名":null,"予備名":null,"地番":"地区外-2627098","精度区分":null,"座標値種別":"図上測量","筆界未定構成筆":null,"代表点緯度":274367.9005,"代表点経度":161708.035}},{"type":"MultiPolygon","arcs":[[[70]]],"properties":{"筆ID":"H000000018","version":"ver1.0","座標系":"任意座標系","測地系判別":null,"地図名":"H21430101215036","地図番号":"切-23","縮尺分母":"4800","市区町村コード":"01215","市区町村名":"美唄市","大字コード":"000","丁目コード":"000","小字コード":"0000","予備コード":"00","大字名":null,"丁目名":null,"小字名":null,"予備名":null,"地番":"1849-50","精度区分":null,"座標値種別":"図上測量","筆界未定構成筆":null,"代表点緯度":271218.833,"代表点経度":159916.12879013}},{"type":"MultiPolygon","arcs":[[[71,72,-35,73]]],"properties":{"筆ID":"H000000019","version":"ver1.0","座標系":"任意座標系","測地系判別":null,"地図名":"H21430101215036","地図番号":"切-23","縮尺分母":"4800","市区町村コード":"01215","市区町村名":"美唄市","大字コード":"000","丁目コード":"000","小字コード":"0000","予備コード":"00","大字名":null,"丁目名":null,"小字名":null,"予備名":null,"地番":"1849-47","精度区分":null,"座標値種別":"図上測量","筆界未定構成筆":null,"代表点緯度":271362.8365,"代表点経度":159912.471038997}},{"type":"MultiPolygon","arcs":[[[74,-32,-3,-38]]],"properties":{"筆ID":"H000000020","version":"ver1.0","座標系":"任意座標系","測地系判別":null,"地図名":"H21430101215036","地図番号":"切-22","縮尺分母":"4800","市区町村コード":"01215","市区町村名":"美唄市","大字コード":"000","丁目コード":"000","小字コード":"0000","予備コード":"00","大字名":null,"丁目名":null,"小字名":null,"予備名":null,"地番":"1849-44","精度区分":null,"座標値種別":"図上測量","筆界未定構成筆":null,"代表点緯度":272438.9185,"代表点経度":160260.531028281}},{"type":"MultiPolygon","arcs":[[[75]]],"properties":{"筆ID":"H000000021","version":"ver1.0","座標系":"任意座標系","測地系判別":null,"地図名":"H21430101215036","地図番号":"切-25","縮尺分母":"4800","市区町村コード":"01215","市区町村名":"美唄市","大字コード":"000","丁目コード":"000","小字コード":"0000","予備コード":"00","大字名":null,"丁目名":null,"小字名":null,"予備名":null,"地番":"1849-7","精度区分":null,"座標値種別":"図上測量","筆界未定構成筆":null,"代表点緯度":267074.2425,"代表点経度":160114.087986038}},{"type":"MultiPolygon","arcs":[[[76]]],"properties":{"筆ID":"H000000022","version":"ver1.0","座標系":"任意座標系","測地系判別":null,"地図名":"H21430101215036","地図番号":"切-25","縮尺分母":"4800","市区町村コード":"01215","市区町村名":"美唄市","大字コード":"000","丁目コード":"000","小字コード":"0000","予備コード":"00","大字名":null,"丁目名":null,"小字名":null,"予備名":null,"地番":"1849-8","精度区分":null,"座標値種別":"図上測量","筆界未定構成筆":null,"代表点緯度":267136.249,"代表点経度":160040.318386137}},{"type":"MultiPolygon","arcs":[[[77]]],"properties":{"筆ID":"H000000023","version":"ver1.0","座標系":"任意座標系","測地系判別":null,"地図名":"H21430101215036","地図番号":"切-25","縮尺分母":"4800","市区町村コード":"01215","市区町村名":"美唄市","大字コード":"000","丁目コード":"000","小字コード":"0000","予備コード":"00","大字名":null,"丁目名":null,"小字名":null,"予備名":null,"地番":"1849-10","精度区分":null,"座標値種別":"図上測量","筆界未定構成筆":null,"代表点緯度":267160.7455,"代表点経度":159870.154734849}},{"type":"MultiPolygon","arcs":[[[78]]],"properties":{"筆ID":"H000000024","version":"ver1.0","座標系":"任意座標系","測地系判別":null,"地図名":"H21430101215036","地図番号":"切-23","縮尺分母":"4800","市区町村コード":"01215","市区町村名":"美唄市","大字コード":"000","丁目コード":"000","小字コード":"0000","予備コード":"00","大字名":null,"丁目名":null,"小字名":null,"予備名":null,"地番":"1849-40","精度区分":null,"座標値種別":"図上測量","筆界未定構成筆":null,"代表点緯度":270217.0045,"代表点経度":159518.931504109}},{"type":"MultiPolygon","arcs":[[[79]]],"properties":{"筆ID":"H000000025","version":"ver1.0","座標系":"任意座標系","測地系判別":null,"地図名":"H21430101215036","地図番号":"切-23","縮尺分母":"4800","市区町村コード":"01215","市区町村名":"美唄市","大字コード":"000","丁目コード":"000","小字コード":"0000","予備コード":"00","大字名":null,"丁目名":null,"小字名":null,"予備名":null,"地番":"1849-38","精度区分":null,"座標値種別":"図上測量","筆界未定構成筆":null,"代表点緯度":270163.434,"代表点経度":159318.684060326}},{"type":"MultiPolygon","arcs":[[[80]]],"properties":{"筆ID":"H000000026","version":"ver1.0","座標系":"任意座標系","測地系判別":null,"地図名":"H21430101215036","地図番号":"切-23","縮尺分母":"4800","市区町村コード":"01215","市区町村名":"美唄市","大字コード":"000","丁目コード":"000","小字コード":"0000","予備コード":"00","大字名":null,"丁目名":null,"小字名":null,"予備名":null,"地番":"1849-39","精度区分":null,"座標値種別":"図上測量","筆界未定構成筆":null,"代表点緯度":270120.158,"代表点経度":159387.293060931}},{"type":"MultiPolygon","arcs":[[[81]]],"properties":{"筆ID":"H000000027","version":"ver1.0","座標系":"任意座標系","測地系判別":null,"地図名":"H21430101215036","地図番号":"切-23","縮尺分母":"4800","市区町村コード":"01215","市区町村名":"美唄市","大字コード":"000","丁目コード":"000","小字コード":"0000","予備コード":"00","大字名":null,"丁目名":null,"小字名":null,"予備名":null,"地番":"1849-32","精度区分":null,"座標値種別":"図上測量","筆界未定構成筆":null,"代表点緯度":269982.6795,"代表点経度":159072.831394234}},{"type":"MultiPolygon","arcs":[[[82]]],"properties":{"筆ID":"H000000028","version":"ver1.0","座標系":"任意座標系","測地系判別":null,"地図名":"H21430101215036","地図番号":"切-23","縮尺分母":"4800","市区町村コード":"01215","市区町村名":"美唄市","大字コード":"000","丁目コード":"000","小字コード":"0000","予備コード":"00","大字名":null,"丁目名":null,"小字名":null,"予備名":null,"地番":"1849-33","精度区分":null,"座標値種別":"図上測量","筆界未定構成筆":null,"代表点緯度":269992.964,"代表点経度":159168.876019251}},{"type":"MultiPolygon","arcs":[[[83]]],"properties":{"筆ID":"H000000029","version":"ver1.0","座標系":"任意座標系","測地系判別":null,"地図名":"H21430101215036","地図番号":"切-23","縮尺分母":"4800","市区町村コード":"01215","市区町村名":"美唄市","大字コード":"000","丁目コード":"000","小字コード":"0000","予備コード":"00","大字名":null,"丁目名":null,"小字名":null,"予備名":null,"地番":"1849-37","精度区分":null,"座標値種別":"図上測量","筆界未定構成筆":null,"代表点緯度":269984.3765,"代表点経度":159301.725630025}},{"type":"MultiPolygon","arcs":[[[84]]],"properties":{"筆ID":"H000000030","version":"ver1.0","座標系":"任意座標系","測地系判別":null,"地図名":"H21430101215036","地図番号":"切-23","縮尺分母":"4800","市区町村コード":"01215","市区町村名":"美唄市","大字コード":"000","丁目コード":"000","小字コード":"0000","予備コード":"00","大字名":null,"丁目名":null,"小字名":null,"予備名":null,"地番":"1849-31","精度区分":null,"座標値種別":"図上測量","筆界未定構成筆":null,"代表点緯度":269773.7945,"代表点経度":159203.695108755}},{"type":"MultiPolygon","arcs":[[[85]]],"properties":{"筆ID":"H000000031","version":"ver1.0","座標系":"任意座標系","測地系判別":null,"地図名":"H21430101215036","地図番号":"切-23","縮尺分母":"4800","市区町村コード":"01215","市区町村名":"美唄市","大字コード":"000","丁目コード":"000","小字コード":"0000","予備コード":"00","大字名":null,"丁目名":null,"小字名":null,"予備名":null,"地番":"1849-36","精度区分":null,"座標値種別":"図上測量","筆界未定構成筆":null,"代表点緯度":269840.62,"代表点経度":159548.08871232}},{"type":"MultiPolygon","arcs":[[[86]]],"properties":{"筆ID":"H000000032","version":"ver1.0","座標系":"任意座標系","測地系判別":null,"地図名":"H21430101215036","地図番号":"切-23","縮尺分母":"4800","市区町村コード":"01215","市区町村名":"美唄市","大字コード":"000","丁目コード":"000","小字コード":"0000","予備コード":"00","大字名":null,"丁目名":null,"小字名":null,"予備名":null,"地番":"1849-35","精度区分":null,"座標値種別":"図上測量","筆界未定構成筆":null,"代表点緯度":269689.226,"代表点経度":159750.552660602}},{"type":"MultiPolygon","arcs":[[[-27,87]]],"properties":{"筆ID":"H000000033","version":"ver1.0","座標系":"任意座標系","測地系判別":null,"地図名":"H21430101215036","地図番号":"切-24","縮尺分母":"4800","市区町村コード":"01215","市区町村名":"美唄市","大字コード":"000","丁目コード":"000","小字コード":"0000","予備コード":"00","大字名":null,"丁目名":null,"小字名":null,"予備名":null,"地番":"1849-29","精度区分":null,"座標値種別":"図上測量","筆界未定構成筆":null,"代表点緯度":269552.4395,"代表点経度":159638.931453394}},{"type":"MultiPolygon","arcs":[[[-24]]],"properties":{"筆ID":"H000000034","version":"ver1.0","座標系":"任意座標系","測地系判別":null,"地図名":"H21430101215036","地図番号":"切-24","縮尺分母":"4800","市区町村コード":"01215","市区町村名":"美唄市","大字コード":"000","丁目コード":"000","小字コード":"0000","予備コード":"00","大字名":null,"丁目名":null,"小字名":null,"予備名":null,"地番":"1849-25W1","精度区分":null,"座標値種別":"図上測量","筆界未定構成筆":null,"代表点緯度":269316.867,"代表点経度":159508.10213462}},{"type":"MultiPolygon","arcs":[[[88]]],"properties":{"筆ID":"H000000035","version":"ver1.0","座標系":"任意座標系","測地系判別":null,"地図名":"H21430101215036","地図番号":"切-24","縮尺分母":"4800","市区町村コード":"01215","市区町村名":"美唄市","大字コード":"000","丁目コード":"000","小字コード":"0000","予備コード":"00","大字名":null,"丁目名":null,"小字名":null,"予備名":null,"地番":"1849-27","精度区分":null,"座標値種別":"図上測量","筆界未定構成筆":null,"代表点緯度":269212.929,"代表点経度":159336.005250253}},{"type":"MultiPolygon","arcs":[[[89,90]]],"properties":{"筆ID":"H000000036","version":"ver1.0","座標系":"任意座標系","測地系判別":null,"地図名":"H21430101215036","地図番号":"切-24","縮尺分母":"4800","市区町村コード":"01215","市区町村名":"美唄市","大字コード":"000","丁目コード":"000","小字コード":"0000","予備コード":"00","大字名":null,"丁目名":null,"小字名":null,"予備名":null,"地番":"1849-24","精度区分":null,"座標値種別":"図上測量","筆界未定構成筆":null,"代表点緯度":269380.3195,"代表点経度":159066.627246118}},{"type":"MultiPolygon","arcs":[[[91,-58,92,-52]]],"properties":{"筆ID":"H000000037","version":"ver1.0","座標系":"任意座標系","測地系判別":null,"地図名":"H21430101215036","地図番号":"切-32","縮尺分母":"4800","市区町村コード":"01215","市区町村名":"美唄市","大字コード":"000","丁目コード":"000","小字コード":"0000","予備コード":"00","大字名":null,"丁目名":null,"小字名":null,"予備名":null,"地番":"地区外-2627125","精度区分":null,"座標値種別":"図上測量","筆界未定構成筆":null,"代表点緯度":263674.32,"代表点経度":157929.534}},{"type":"MultiPolygon","arcs":[[[-34,-6]]],"properties":{"筆ID":"H000000038","version":"ver1.0","座標系":"任意座標系","測地系判別":null,"地図名":"H21430101215036","地図番号":"切-17","縮尺分母":"4800","市区町村コード":"01215","市区町村名":"美唄市","大字コード":"000","丁目コード":"000","小字コード":"0000","予備コード":"00","大字名":null,"丁目名":null,"小字名":null,"予備名":null,"地番":"1849-46","精度区分":null,"座標値種別":"図上測量","筆界未定構成筆":null,"代表点緯度":273057.7735,"代表点経度":160733.740345903}},{"type":"MultiPolygon","arcs":[[[93]]],"properties":{"筆ID":"H000000039","version":"ver1.0","座標系":"任意座標系","測地系判別":null,"地図名":"H21430101215036","地図番号":"切-24","縮尺分母":"4800","市区町村コード":"01215","市区町村名":"美唄市","大字コード":"000","丁目コード":"000","小字コード":"0000","予備コード":"00","大字名":null,"丁目名":null,"小字名":null,"予備名":null,"地番":"1849-13","精度区分":null,"座標値種別":"図上測量","筆界未定構成筆":null,"代表点緯度":267581.3895,"代表点経度":159264.530508913}},{"type":"MultiPolygon","arcs":[[[94,95]]],"properties":{"筆ID":"H000000040","version":"ver1.0","座標系":"任意座標系","測地系判別":null,"地図名":"H21430101215036","地図番号":"切-24","縮尺分母":"4800","市区町村コード":"01215","市区町村名":"美唄市","大字コード":"000","丁目コード":"000","小字コード":"0000","予備コード":"00","大字名":null,"丁目名":null,"小字名":null,"予備名":null,"地番":"1849-26","精度区分":null,"座標値種別":"図上測量","筆界未定構成筆":null,"代表点緯度":268904.7935,"代表点経度":159484.674475373}},{"type":"MultiPolygon","arcs":[[[96,97,98,99,-99,100,101,102,103,104,105]]],"properties":{"筆ID":"H000000041","version":"ver1.0","座標系":"任意座標系","測地系判別":null,"地図名":"H21430101215036","地図番号":"切-24","縮尺分母":"4800","市区町村コード":"01215","市区町村名":"美唄市","大字コード":"000","丁目コード":"000","小字コード":"0000","予備コード":"00","大字名":null,"丁目名":null,"小字名":null,"予備名":null,"地番":"1849-20","精度区分":null,"座標値種別":"図上測量","筆界未定構成筆":null,"代表点緯度":268795.836,"代表点経度":158930.750040303}},{"type":"MultiPolygon","arcs":[[[106,-97]]],"properties":{"筆ID":"H000000042","version":"ver1.0","座標系":"任意座標系","測地系判別":null,"地図名":"H21430101215036","地図番号":"切-24","縮尺分母":"4800","市区町村コード":"01215","市区町村名":"美唄市","大字コード":"000","丁目コード":"000","小字コード":"0000","予備コード":"00","大字名":null,"丁目名":null,"小字名":null,"予備名":null,"地番":"1849-19","精度区分":null,"座標値種別":"図上測量","筆界未定構成筆":null,"代表点緯度":268616.362,"代表点経度":158919.719222036}},{"type":"MultiPolygon","arcs":[[[-100]]],"properties":{"筆ID":"H000000043","version":"ver1.0","座標系":"任意座標系","測地系判別":null,"地図名":"H21430101215036","地図番号":"切-24","縮尺分母":"4800","市区町村コード":"01215","市区町村名":"美唄市","大字コード":"000","丁目コード":"000","小字コード":"0000","予備コード":"00","大字名":null,"丁目名":null,"小字名":null,"予備名":null,"地番":"1849-22","精度区分":null,"座標値種別":"図上測量","筆界未定構成筆":null,"代表点緯度":268975.267,"代表点経度":158916.577158053}},{"type":"MultiPolygon","arcs":[[[-105,107,108]]],"properties":{"筆ID":"H000000044","version":"ver1.0","座標系":"任意座標系","測地系判別":null,"地図名":"H21430101215036","地図番号":"切-24","縮尺分母":"4800","市区町村コード":"01215","市区町村名":"美唄市","大字コード":"000","丁目コード":"000","小字コード":"0000","予備コード":"00","大字名":null,"丁目名":null,"小字名":null,"予備名":null,"地番":"1849-21","精度区分":null,"座標値種別":"図上測量","筆界未定構成筆":null,"代表点緯度":268727.9435,"代表点経度":158990.51018243}},{"type":"MultiPolygon","arcs":[[[-102,109,-90,110]]],"properties":{"筆ID":"H000000045","version":"ver1.0","座標系":"任意座標系","測地系判別":null,"地図名":"H21430101215036","地図番号":"切-24","縮尺分母":"4800","市区町村コード":"01215","市区町村名":"美唄市","大字コード":"000","丁目コード":"000","小字コード":"0000","予備コード":"00","大字名":null,"丁目名":null,"小字名":null,"予備名":null,"地番":"1849-23","精度区分":null,"座標値種別":"図上測量","筆界未定構成筆":null,"代表点緯度":269188.6105,"代表点経度":158993.069392552}},{"type":"MultiPolygon","arcs":[[[111,112,113,-54]]],"properties":{"筆ID":"H000000046","version":"ver1.0","座標系":"任意座標系","測地系判別":null,"地図名":"H21430101215036","地図番号":"切-38","縮尺分母":"4800","市区町村コード":"01215","市区町村名":"美唄市","大字コード":"000","丁目コード":"000","小字コード":"0000","予備コード":"00","大字名":null,"丁目名":null,"小字名":null,"予備名":null,"地番":"地区外-2627135","精度区分":null,"座標値種別":"図上測量","筆界未定構成筆":null,"代表点緯度":266586.521,"代表点経度":156239.934589896}},{"type":"MultiPolygon","arcs":[[[-113,114,-49,115]]],"properties":{"筆ID":"H000000047","version":"ver1.0","座標系":"任意座標系","測地系判別":null,"地図名":"H21430101215036","地図番号":"切-31","縮尺分母":"4800","市区町村コード":"01215","市区町村名":"美唄市","大字コード":"000","丁目コード":"000","小字コード":"0000","予備コード":"00","大字名":null,"丁目名":null,"小字名":null,"予備名":null,"地番":"地区外-2627136","精度区分":null,"座標値種別":"図上測量","筆界未定構成筆":null,"代表点緯度":266568.539,"代表点経度":157737.619996067}},{"type":"MultiPolygon","arcs":[[[116,117,118,-45,119,120,-50]]],"properties":{"筆ID":"H000000048","version":"ver1.0","座標系":"任意座標系","測地系判別":null,"地図名":"H21430101215036","地図番号":"切-24","縮尺分母":"4800","市区町村コード":"01215","市区町村名":"美唄市","大字コード":"000","丁目コード":"000","小字コード":"0000","予備コード":"00","大字名":null,"丁目名":null,"小字名":null,"予備名":null,"地番":"地区外-2627137","精度区分":null,"座標値種別":"図上測量","筆界未定構成筆":null,"代表点緯度":267731.9975,"代表点経度":158947.44775}},{"type":"MultiPolygon","arcs":[[[-117,-115,121,-40,122]]],"properties":{"筆ID":"H000000049","version":"ver1.0","座標系":"任意座標系","測地系判別":null,"地図名":"H21430101215036","地図番号":"切-30","縮尺分母":"4800","市区町村コード":"01215","市区町村名":"美唄市","大字コード":"000","丁目コード":"000","小字コード":"0000","予備コード":"00","大字名":null,"丁目名":null,"小字名":null,"予備名":null,"地番":"地区外-2627138","精度区分":null,"座標値種別":"図上測量","筆界未定構成筆":null,"代表点緯度":268957.9085,"代表点経度":157929.53475}},{"type":"MultiPolygon","arcs":[[[123,124,125,-41]]],"properties":{"筆ID":"H000000050","version":"ver1.0","座標系":"任意座標系","測地系判別":null,"地図名":"H21430101215036","地図番号":"切-23","縮尺分母":"4800","市区町村コード":"01215","市区町村名":"美唄市","大字コード":"000","丁目コード":"000","小字コード":"0000","予備コード":"00","大字名":null,"丁目名":null,"小字名":null,"予備名":null,"地番":"地区外-2627139","精度区分":null,"座標値種別":"図上測量","筆界未定構成筆":null,"代表点緯度":270732.9745,"代表点経度":159230.73875}},{"type":"MultiPolygon","arcs":[[[126,127,128,-57]]],"properties":{"筆ID":"H000000051","version":"ver1.0","座標系":"任意座標系","測地系判別":null,"地図名":"H21430101215036","地図番号":"切-25","縮尺分母":"4800","市区町村コード":"01215","市区町村名":"美唄市","大字コード":"000","丁目コード":"000","小字コード":"0000","予備コード":"00","大字名":null,"丁目名":null,"小字名":null,"予備名":null,"地番":"地区外-2627140","精度区分":null,"座標値種別":"図上測量","筆界未定構成筆":null,"代表点緯度":265713.059,"代表点経度":159626.105169991}},{"type":"MultiPolygon","arcs":[[[129,-61,130,-128]]],"properties":{"筆ID":"H000000052","version":"ver1.0","座標系":"任意座標系","測地系判別":null,"地図名":"H21430101215036","地図番号":"切-20","縮尺分母":"4800","市区町村コード":"01215","市区町村名":"美唄市","大字コード":"000","丁目コード":"000","小字コード":"0000","予備コード":"00","大字名":null,"丁目名":null,"小字名":null,"予備名":null,"地番":"地区外-2627141","精度区分":null,"座標値種別":"図上測量","筆界未定構成筆":null,"代表点緯度":265618.3975,"代表点経度":161308.734}},{"type":"MultiPolygon","arcs":[[[-60,131,132,133]]],"properties":{"筆ID":"H000000053","version":"ver1.0","座標系":"任意座標系","測地系判別":null,"地図名":"H21430101215036","地図番号":"切-13","縮尺分母":"4800","市区町村コード":"01215","市区町村名":"美唄市","大字コード":"000","丁目コード":"000","小字コード":"0000","予備コード":"00","大字名":null,"丁目名":null,"小字名":null,"予備名":null,"地番":"地区外-2627142","精度区分":null,"座標値種別":"図上測量","筆界未定構成筆":null,"代表点緯度":268444.2395,"代表点経度":163025.83325}},{"type":"MultiPolygon","arcs":[[[134,135,136,-133]]],"properties":{"筆ID":"H000000054","version":"ver1.0","座標系":"任意座標系","測地系判別":null,"地図名":"H21430101215036","地図番号":"切-12","縮尺分母":"4800","市区町村コード":"01215","市区町村名":"美唄市","大字コード":"000","丁目コード":"000","小字コード":"0000","予備コード":"00","大字名":null,"丁目名":null,"小字名":null,"予備名":null,"地番":"地区外-2627143","精度区分":null,"座標値種別":"図上測量","筆界未定構成筆":null,"代表点緯度":270849.058,"代表点経度":163372.445017704}},{"type":"MultiPolygon","arcs":[[[-18,137,-68,138,-136]]],"properties":{"筆ID":"H000000055","version":"ver1.0","座標系":"任意座標系","測地系判別":null,"地図名":"H21430101215036","地図番号":"切-11","縮尺分母":"4800","市区町村コード":"01215","市区町村名":"美唄市","大字コード":"000","丁目コード":"000","小字コード":"0000","予備コード":"00","大字名":null,"丁目名":null,"小字名":null,"予備名":null,"地番":"地区外-2627144","精度区分":null,"座標値種別":"図上測量","筆界未定構成筆":null,"代表点緯度":273499.119,"代表点経度":162998.335}},{"type":"MultiPolygon","arcs":[[[-70,-138,-17]]],"properties":{"筆ID":"H000000056","version":"ver1.0","座標系":"任意座標系","測地系判別":null,"地図名":"H21430101215036","地図番号":"切-17","縮尺分母":"4800","市区町村コード":"01215","市区町村名":"美唄市","大字コード":"000","丁目コード":"000","小字コード":"0000","予備コード":"00","大字名":null,"丁目名":null,"小字名":null,"予備名":null,"地番":"地区外-2627145","精度区分":null,"座標値種別":"図上測量","筆界未定構成筆":null,"代表点緯度":273472.5355,"代表点経度":161889.114}},{"type":"MultiPolygon","arcs":[[[-67,-14,-66,139]]],"properties":{"筆ID":"H000000057","version":"ver1.0","座標系":"任意座標系","測地系判別":null,"地図名":"H21430101215036","地図番号":"切-4","縮尺分母":"4800","市区町村コード":"01215","市区町村名":"美唄市","大字コード":"000","丁目コード":"000","小字コード":"0000","予備コード":"00","大字名":null,"丁目名":null,"小字名":null,"予備名":null,"地番":"地区外-2627146","精度区分":null,"座標値種別":"図上測量","筆界未定構成筆":null,"代表点緯度":274824.512,"代表点経度":164687.935}},{"type":"MultiPolygon","arcs":[[[-12,140,141,-64]]],"properties":{"筆ID":"H000000058","version":"ver1.0","座標系":"任意座標系","測地系判別":null,"地図名":"H21430101215036","地図番号":"切-9","縮尺分母":"4800","市区町村コード":"01215","市区町村名":"美唄市","大字コード":"000","丁目コード":"000","小字コード":"0000","予備コード":"00","大字名":null,"丁目名":null,"小字名":null,"予備名":null,"地番":"地区外-2627147","精度区分":null,"座標値種別":"図上測量","筆界未定構成筆":null,"代表点緯度":277914.6505,"代表点経度":163529.392000993}},{"type":"MultiPolygon","arcs":[[[142,-141,-11,-63]]],"properties":{"筆ID":"H000000059","version":"ver1.0","座標系":"任意座標系","測地系判別":null,"地図名":"H21430101215036","地図番号":"切-15","縮尺分母":"4800","市区町村コード":"01215","市区町村名":"美唄市","大字コード":"000","丁目コード":"000","小字コード":"0000","予備コード":"00","大字名":null,"丁目名":null,"小字名":null,"予備名":null,"地番":"地区外-2627148","精度区分":null,"座標値種別":"図上測量","筆界未定構成筆":null,"代表点緯度":277929.7395,"代表点経度":161308.736}},{"type":"MultiPolygon","arcs":[[[143,144,-62,-9]]],"properties":{"筆ID":"H000000060","version":"ver1.0","座標系":"任意座標系","測地系判別":null,"地図名":"H21430101215036","地図番号":"切-21","縮尺分母":"4800","市区町村コード":"01215","市区町村名":"美唄市","大字コード":"000","丁目コード":"000","小字コード":"0000","予備コード":"00","大字名":null,"丁目名":null,"小字名":null,"予備名":null,"地番":"地区外-2627149","精度区分":null,"座標値種別":"図上測量","筆界未定構成筆":null,"代表点緯度":275269.9155,"代表点経度":159370.355232114}},{"type":"MultiPolygon","arcs":[[[-125,145,-144,-8,-33,-30,146]]],"properties":{"筆ID":"H000000061","version":"ver1.0","座標系":"任意座標系","測地系判別":null,"地図名":"H21430101215036","地図番号":"切-22","縮尺分母":"4800","市区町村コード":"01215","市区町村名":"美唄市","大字コード":"000","丁目コード":"000","小字コード":"0000","予備コード":"00","大字名":null,"丁目名":null,"小字名":null,"予備名":null,"地番":"地区外-2627150","精度区分":null,"座標値種別":"図上測量","筆界未定構成筆":null,"代表点緯度":273063.119,"代表点経度":159578.2725}},{"type":"MultiPolygon","arcs":[[[-73,147,148,-36]]],"properties":{"筆ID":"H000000062","version":"ver1.0","座標系":"任意座標系","測地系判別":null,"地図名":"H21430101215036","地図番号":"切-23","縮尺分母":"4800","市区町村コード":"01215","市区町村名":"美唄市","大字コード":"000","丁目コード":"000","小字コード":"0000","予備コード":"00","大字名":null,"丁目名":null,"小字名":null,"予備名":null,"地番":"1849-42","精度区分":null,"座標値種別":"図上測量","筆界未定構成筆":null,"代表点緯度":271445.824,"代表点経度":159851.773868566}},{"type":"MultiPolygon","arcs":[[[149,150,151,152,-148,-72]]],"properties":{"筆ID":"H000000063","version":"ver1.0","座標系":"任意座標系","測地系判別":null,"地図名":"H21430101215036","地図番号":"切-23","縮尺分母":"4800","市区町村コード":"01215","市区町村名":"美唄市","大字コード":"000","丁目コード":"000","小字コード":"0000","予備コード":"00","大字名":null,"丁目名":null,"小字名":null,"予備名":null,"地番":"1849-49","精度区分":null,"座標値種別":"図上測量","筆界未定構成筆":null,"代表点緯度":271227.255,"代表点経度":159812.237555695}},{"type":"MultiPolygon","arcs":[[[-104,153,-21,154,-95,155,-108]]],"properties":{"筆ID":"H000000064","version":"ver1.0","座標系":"任意座標系","測地系判別":null,"地図名":"H21430101215036","地図番号":"切-24","縮尺分母":"4800","市区町村コード":"01215","市区町村名":"美唄市","大字コード":"000","丁目コード":"000","小字コード":"0000","予備コード":"00","大字名":null,"丁目名":null,"小字名":null,"予備名":null,"地番":"1849-25W2","精度区分":null,"座標値種別":"図上測量","筆界未定構成筆":null,"代表点緯度":269033.331,"代表点経度":159097.373842651}},{"type":"MultiPolygon","arcs":[[[-46,-119,156,-43,157]]],"properties":{"筆ID":"H000000065","version":"ver1.0","座標系":"任意座標系","測地系判別":null,"地図名":"H21430101215036","地図番号":"切-25","縮尺分母":"4800","市区町村コード":"01215","市区町村名":"美唄市","大字コード":"000","丁目コード":"000","小字コード":"0000","予備コード":"00","大字名":null,"丁目名":null,"小字名":null,"予備名":null,"地番":"1849-6","精度区分":null,"座標値種別":"図上測量","筆界未定構成筆":null,"代表点緯度":267258.7145,"代表点経度":159510.934765316}},{"type":"MultiPolygon","arcs":[[[158,-120,-48,159,160]]],"properties":{"筆ID":"H000000066","version":"ver1.0","座標系":"任意座標系","測地系判別":null,"地図名":"H21430101215036","地図番号":"切-25","縮尺分母":"4800","市区町村コード":"01215","市区町村名":"美唄市","大字コード":"000","丁目コード":"000","小字コード":"0000","予備コード":"00","大字名":null,"丁目名":null,"小字名":null,"予備名":null,"地番":"1849-18","精度区分":null,"座標値種別":"図上測量","筆界未定構成筆":null,"代表点緯度":267234.826,"代表点経度":159250.623088364}},{"type":"MultiPolygon","arcs":[[[161,162,-161,163]]],"properties":{"筆ID":"H000000067","version":"ver1.0","座標系":"任意座標系","測地系判別":null,"地図名":"H21430101215036","地図番号":"切-25","縮尺分母":"4800","市区町村コード":"01215","市区町村名":"美唄市","大字コード":"000","丁目コード":"000","小字コード":"0000","予備コード":"00","大字名":null,"丁目名":null,"小字名":null,"予備名":null,"地番":"1849-17","精度区分":null,"座標値種別":"図上測量","筆界未定構成筆":null,"代表点緯度":267103.1035,"代表点経度":159680.511425779}},{"type":"MultiPolygon","arcs":[[[-162,164,165,166]]],"properties":{"筆ID":"H000000068","version":"ver1.0","座標系":"任意座標系","測地系判別":null,"地図名":"H21430101215036","地図番号":"切-25","縮尺分母":"4800","市区町村コード":"01215","市区町村名":"美唄市","大字コード":"000","丁目コード":"000","小字コード":"0000","予備コード":"00","大字名":null,"丁目名":null,"小字名":null,"予備名":null,"地番":"1849-16","精度区分":null,"座標値種別":"図上測量","筆界未定構成筆":null,"代表点緯度":267109.2755,"代表点経度":159861.868167378}},{"type":"MultiPolygon","arcs":[[[167,168]]],"properties":{"筆ID":"H000000069","version":"ver1.0","座標系":"任意座標系","測地系判別":null,"地図名":"H21430101215036","地図番号":"切-25","縮尺分母":"4800","市区町村コード":"01215","市区町村名":"美唄市","大字コード":"000","丁目コード":"000","小字コード":"0000","予備コード":"00","大字名":null,"丁目名":null,"小字名":null,"予備名":null,"地番":"1849-14","精度区分":null,"座標値種別":"図上測量","筆界未定構成筆":null,"代表点緯度":267118.727,"代表点経度":159994.115319242}},{"type":"MultiPolygon","arcs":[[[169,-168,170,-166]]],"properties":{"筆ID":"H000000070","version":"ver1.0","座標系":"任意座標系","測地系判別":null,"地図名":"H21430101215036","地図番号":"切-25","縮尺分母":"4800","市区町村コード":"01215","市区町村名":"美唄市","大字コード":"000","丁目コード":"000","小字コード":"0000","予備コード":"00","大字名":null,"丁目名":null,"小字名":null,"予備名":null,"地番":"1849-15","精度区分":null,"座標値種別":"図上測量","筆界未定構成筆":null,"代表点緯度":267118.4495,"代表点経度":159906.868540839}},{"type":"MultiPolygon","arcs":[[[171,172,-151]]],"properties":{"筆ID":"H000000071","version":"ver1.0","座標系":"任意座標系","測地系判別":null,"地図名":"H21430101215036","地図番号":"切-23","縮尺分母":"4800","市区町村コード":"01215","市区町村名":"美唄市","大字コード":"000","丁目コード":"000","小字コード":"0000","予備コード":"00","大字名":null,"丁目名":null,"小字名":null,"予備名":null,"地番":"1849-54","精度区分":null,"座標値種別":"図上測量","筆界未定構成筆":null,"代表点緯度":271091.476,"代表点経度":159835.951619636}},{"type":"MultiPolygon","arcs":[[[-152,173,174,175,176,177]]],"properties":{"筆ID":"H000000072","version":"ver1.0","座標系":"任意座標系","測地系判別":null,"地図名":"H21430101215036","地図番号":"切-23","縮尺分母":"4800","市区町村コード":"01215","市区町村名":"美唄市","大字コード":"000","丁目コード":"000","小字コード":"0000","予備コード":"00","大字名":null,"丁目名":null,"小字名":null,"予備名":null,"地番":"1849-48","精度区分":null,"座標値種別":"図上測量","筆界未定構成筆":null,"代表点緯度":271004.7035,"代表点経度":159764.206348266}},{"type":"MultiPolygon","arcs":[[[178,-177,179]]],"properties":{"筆ID":"H000000073","version":"ver1.0","座標系":"任意座標系","測地系判別":null,"地図名":"H21430101215036","地図番号":"切-23","縮尺分母":"4800","市区町村コード":"01215","市区町村名":"美唄市","大字コード":"000","丁目コード":"000","小字コード":"0000","予備コード":"00","大字名":null,"丁目名":null,"小字名":null,"予備名":null,"地番":"1849-55","精度区分":null,"座標値種別":"図上測量","筆界未定構成筆":null,"代表点緯度":270890.2935,"代表点経度":159797.738042016}},{"type":"MultiPolygon","arcs":[[[-173,180,-174]]],"properties":{"筆ID":"H000000074","version":"ver1.0","座標系":"任意座標系","測地系判別":null,"地図名":"H21430101215036","地図番号":"切-23","縮尺分母":"4800","市区町村コード":"01215","市区町村名":"美唄市","大字コード":"000","丁目コード":"000","小字コード":"0000","予備コード":"00","大字名":null,"丁目名":null,"小字名":null,"予備名":null,"地番":"1849-53","精度区分":null,"座標値種別":"図上測量","筆界未定構成筆":null,"代表点緯度":271045.662,"代表点経度":159830.539011727}},{"type":"MultiPolygon","arcs":[[[181,182,183]]],"properties":{"筆ID":"H000000075","version":"ver1.0","座標系":"任意座標系","測地系判別":null,"地図名":"H21430101215036","地図番号":"切-23","縮尺分母":"4800","市区町村コード":"01215","市区町村名":"美唄市","大字コード":"000","丁目コード":"000","小字コード":"0000","予備コード":"00","大字名":null,"丁目名":null,"小字名":null,"予備名":null,"地番":"1849-51","精度区分":null,"座標値種別":"図上測量","筆界未定構成筆":null,"代表点緯度":270871.198,"代表点経度":159820.098798353}},{"type":"MultiPolygon","arcs":[[[184,-183,185]]],"properties":{"筆ID":"H000000076","version":"ver1.0","座標系":"任意座標系","測地系判別":null,"地図名":"H21430101215036","地図番号":"切-23","縮尺分母":"4800","市区町村コード":"01215","市区町村名":"美唄市","大字コード":"000","丁目コード":"000","小字コード":"0000","予備コード":"00","大字名":null,"丁目名":null,"小字名":null,"予備名":null,"地番":"1849-56","精度区分":null,"座標値種別":"図上測量","筆界未定構成筆":null,"代表点緯度":270888.765,"代表点経度":159815.207419056}},{"type":"MultiPolygon","arcs":[[[-135,-132,-59,-130,-127,-56,-92,-55,-114,-116,-51,-121,-159,-163,-167,-171,-169,-170,-165,-164,-160,-47,-158,-44,-157,-118,-123,-42,-126,-147,-29,-75,-37,-149,-153,-178,-179,186,-184,-185,187,-175,-181,-172,-150,-74,-39,-1],[-71],[-79],[-81],[-87],[-86],[-80],[-89],[-85],[-26,-19,-25,-22,-154,-103,-111,-91,-110,-101,-98,-107,-106,-109,-156,-96,-155,-28,-88],[-83],[-84],[-82],[-94],[-78],[-77],[-76]]],"properties":{"筆ID":"H000000077","version":"ver1.0","座標系":"任意座標系","測地系判別":null,"地図名":"H21430101215036","地図番号":"切-39","縮尺分母":"4800","市区町村コード":"01215","市区町村名":"美唄市","大字コード":"000","丁目コード":"000","小字コード":"0000","予備コード":"00","大字名":null,"丁目名":null,"小字名":null,"予備名":null,"地番":"1849-1W2","精度区分":null,"座標値種別":"図上測量","筆界未定構成筆":null,"代表点緯度":268440.2095,"代表点経度":160563.611352499}},{"type":"MultiPolygon","arcs":[[[-188,-186,-182,-187,-180,-176]]],"properties":{"筆ID":"H000000078","version":"ver1.0","座標系":"任意座標系","測地系判別":null,"地図名":"H21430101215036","地図番号":"切-23","縮尺分母":"4800","市区町村コード":"01215","市区町村名":"美唄市","大字コード":"000","丁目コード":"000","小字コード":"0000","予備コード":"00","大字名":null,"丁目名":null,"小字名":null,"予備名":null,"地番":"1849-52","精度区分":null,"座標値種別":"図上測量","筆界未定構成筆":null,"代表点緯度":270917.643,"代表点経度":159796.197091342}}]}},"arcs":[[[777421,571428],[-110755,0],[-166666,0],[-40285,0]],[[459715,571428],[351,974],[1830,243],[1474,1851],[-1086,1599],[1228,-117],[1908,576],[-1440,799],[-992,2259],[108,2329],[3006,2239],[3453,1213],[1513,1401],[3318,-968],[159,-2274],[3827,-1133],[1538,231],[212,-638],[705,150],[-697,1714],[-1589,-48],[646,713],[-2180,5610],[-989,1278],[591,1472],[3082,2118],[2138,-79],[1823,2567],[-1037,2652],[-1847,1648]],[[480768,601807],[-92,82],[-830,2002],[2988,671],[-117,535],[-1671,119],[-368,232]],[[480678,605448],[3654,1806],[3249,114],[819,525],[2613,-243],[4184,631],[1672,4298],[-709,2142],[-1280,1031],[-2007,22],[-1727,372],[-1291,-603],[-2300,-249],[-968,509],[4568,2268],[1577,-688],[2521,-368],[3235,1632],[237,2020],[1996,1457],[1523,1318]],[[502244,623442],[2867,-1234],[4683,-57],[101,182],[2355,358],[5899,-439],[-95,3139],[-2964,2017],[-1557,766]],[[513533,628174],[3084,2421],[4305,735],[3846,1172],[6065,3594],[953,1331],[-266,3176],[-2523,3990],[-5133,1747],[-1099,1267],[-59,1861],[-947,826],[208,1279],[2046,586],[1497,873],[4535,-610],[3674,-1160],[2747,-1459],[1515,-143],[1705,873],[916,3141],[2321,2132],[1991,581],[593,997],[-3982,-776],[-3539,-2925],[-497,-2590],[-721,6],[-3295,1284],[-4173,2240],[-4456,-78],[-4778,-1047],[-1652,-1607],[159,-5711],[3196,-3350],[2558,-213],[1963,-1209],[600,-864],[-1509,-2974],[-2793,-2039],[-656,278],[75,1627],[-656,367],[-1439,553],[-1086,-432],[-1481,604],[-3847,-1168],[-2281,-3257],[2631,-2653],[-2822,-1496]],[[511026,629954],[-375,548],[-419,2308],[-1456,1163],[-2047,383],[-4859,180],[-1870,1261]],[[500000,635797],[-2721,1833],[-834,1544],[-246,897],[-360,790],[-910,922],[-1427,735],[-3128,1077],[-6092,2138],[-2275,1700],[190,155],[-705,2702],[-1573,2166],[-57,1412],[-683,1585],[-2580,2281],[-2521,1101],[-76,1149],[-3206,3800],[-1138,2434],[-1198,1815],[-4057,2788],[-2960,1451],[-1119,2196],[-1479,1855],[-1330,1755],[-1100,2310],[-2238,3584],[-3007,3381],[-2484,2090],[-393,3314],[-6046,8203],[-1277,2131],[-1924,3126],[-1289,2464],[-4737,1828],[-682,2886],[-306,522],[-276,368]],[[431756,714285],[-1047,1396],[-981,2133],[-2095,3930],[-2210,3226],[-3193,2645],[-3167,4848],[-3247,5435],[24156,19288],[8022,11091],[5850,24652],[7600,10583],[33940,12775],[4616,-4462]],[[500000,811825],[122,-119],[28557,2251],[6826,5480],[18045,7089],[15156,2975],[4488,881],[11250,6646],[-786,2733],[7645,6168],[797,2368],[5458,1484],[-1157,4590],[4419,2771]],[[600820,857142],[14884,9330],[11802,2422],[2164,6071],[5269,6321],[4164,3780],[10223,1378],[17340,6330]],[[666666,892774],[824,300],[2494,3880],[5558,8649],[15708,10165],[2655,3223],[-1309,4928],[7225,3927],[5721,5918],[925,7125],[2231,1624],[13107,9536],[930,3492],[6377,626],[15819,11322],[11708,-1352],[4487,-4769],[2557,-4335],[3721,-7273],[4318,-1457],[-573,-5714],[12533,-9935],[12331,-6585],[962,-2459],[4568,-1389],[252,-2276],[4671,-2996],[3713,-5718],[5103,-7860],[4750,-2645],[2957,-6159],[10343,-4109]],[[833332,890458],[17348,-6891],[8000,-1083],[1952,-5683],[-469,-5958],[-5489,-4665],[-6254,-7791],[580,-1245]],[[849000,857142],[2743,-5894],[-9161,-10490],[-3982,-526],[-1904,-6555],[621,-3850],[9778,-8168],[-548,-6375],[-3236,-4944],[-2579,-5257],[132,-7046],[-6419,-6009],[-1113,-629]],[[833332,791399],[-5904,-3338],[-1092,-4696],[-12500,-1502],[-15941,-3869],[-15140,-5705],[-1115,-2826],[-7722,-3021],[119,-1700],[-2593,-2156],[-2455,-2042],[-13867,-44],[-2479,-8],[-8567,-11805],[-1832,-8713],[-32763,-6584],[-20166,-896],[-1861,2720],[-5983,1009],[-1546,-1325],[-5343,847],[-4497,-2784],[-3419,-272]],[[666666,732689],[-5014,-399],[-5878,4756],[-7538,247],[-18313,2224],[-20135,-2754],[-4047,1826],[-12821,-4025],[-2666,-837],[-2656,-4634],[-5892,-1160],[-5861,-7102],[920,-4096],[5244,-2450]],[[582009,714285],[989,-462],[3466,-3721],[7230,-1410],[837,-7247],[5171,-9031],[-319,-11685],[4266,-873],[2272,-5026],[2746,-2002],[11666,-8505],[2127,-4087],[-829,-1470],[4977,-7304],[-1550,-3267],[1556,-3431],[4346,-1057],[4291,-8060],[4451,-1720],[-677,-3778],[3524,-1169],[4705,3247],[6112,-1312],[8734,-5850],[4020,1409],[546,-295]],[[666666,626179],[8429,-4541],[5009,892],[14416,-11992],[2182,2347],[7283,-1869],[7221,-1853],[22429,573],[6637,3036],[9320,-5780],[26166,-3609],[6160,-1667],[5278,-12988],[-5783,-5603],[836,-9825],[-4828,-1872]],[[389852,429200],[-1810,262],[3173,8505],[-7780,5721],[4242,2391],[9071,-6032],[13693,-5479],[-2069,-3657]],[[408372,430911],[-1870,-3307],[-16004,2782],[-646,-1186]],[[395352,402776],[255,363]],[[395607,403139],[3816,5435]],[[399423,408574],[3294,-816]],[[402717,407758],[1363,-211],[3394,841],[955,2341],[-4190,641],[-1522,-3612]],[[399423,408574],[-22448,-1346],[5669,20405],[5725,-1156],[1483,2723]],[[408372,430911],[6523,-2937]],[[414895,427974],[-2720,-5515]],[[412175,422459],[-1676,-3428],[6234,-1536],[-3989,-7911],[4447,-980],[863,-10426],[-5380,129],[-319,4804],[-17471,-1002],[468,667]],[[479594,606130],[569,1405],[4968,1288],[445,952],[1621,597],[7230,389],[1510,2618],[-3316,1916],[-2749,-756],[-3667,-1897],[-1097,1484],[134,2501],[735,2451],[1281,477],[3644,-1011],[5825,-434],[-1366,4014],[-608,1768]],[[494753,623892],[-464,1244],[2307,2526],[2853,-2044],[551,-428]],[[500000,625190],[2244,-1748]],[[480678,605448],[-1084,682]],[[500000,625190],[0,10607]],[[511026,629954],[316,-470],[2191,-1310]],[[450560,539066],[-277,45],[-3336,1348]],[[446947,540459],[-13,791],[-1039,2835],[-1910,-450],[-7235,5167]],[[436750,548802],[820,448],[-109,146],[4080,1417],[4387,492],[5661,3632],[254,2423],[-1252,1371],[-4887,1067],[-1032,58],[-6055,782],[84,2554],[5212,2036],[2594,748],[3810,3416],[4264,1415],[4062,963],[-1002,2659],[-1813,519],[-1342,2300],[599,1076],[2949,3376],[9757,4986],[1351,1796],[2521,1979],[4511,3418],[2792,1637],[2727,1107],[280,2765],[-2237,2396]],[[479736,601784],[1032,23]],[[459715,571428],[-124,-345],[1084,-1313],[3437,-688],[3187,-148],[3592,-1046],[255,-797],[3280,-1515],[34,-2450],[936,-678],[3032,202],[1123,-753],[104,-1190],[-1569,-68],[-1114,407],[16,-582],[-1965,-71],[-1681,1107],[-525,1791],[-1474,1277],[-4189,615],[-1845,1074],[-3259,299],[-390,-583],[-2826,-394],[-620,-778],[-1281,100],[-1666,-1519],[-4229,528],[-1137,-507],[-120,-1756],[1425,-897],[1050,-30],[485,-904],[1435,-57],[370,-1086],[1889,-1573],[-121,-2421],[-4894,-2486],[-737,-1289],[-338,-74],[-1472,110],[-976,-2452],[1091,-924],[2260,-4830],[2277,-1065],[3382,-2867],[2894,-236],[2664,-2126],[2916,-3514],[1969,-904],[-677,-436],[-2786,1358],[-2586,1988],[-2005,1408],[-3604,760],[-3324,1673],[-1808,293]],[[333333,345799],[0,82772]],[[333333,428571],[18616,0]],[[351949,428571],[478,-9978],[-1211,-2335],[-4813,255],[-6490,-3640],[717,-17398],[223,-15535],[-1381,-13995],[-2101,-3695],[4940,-5408],[-59,-101],[-5488,-4387],[-191,-1016],[-482,-2553],[-1502,-1070],[-1256,-1916]],[[394494,283577],[-2340,1265]],[[392154,284842],[432,1980],[5175,-314],[-609,-3097],[-2658,166]],[[363334,286458],[419,3383],[965,4067],[276,1571]],[[364994,295479],[13380,-3764],[6114,-4796],[7086,-2395],[3325,-1713],[4005,-661],[14334,-2371]],[[413238,279779],[-12556,-5110]],[[400682,274669],[-13498,2757],[-12318,4724],[-11532,4308]],[[333333,259074],[0,26640]],[[333333,285714],[29914,0]],[[363247,285714],[-169,-1443],[-1741,-2121],[-857,-1293],[-394,-670],[-992,-2571],[-1252,-1887],[-1472,-1448],[-377,-2426],[-5587,-3409],[-2826,-2176],[-3906,-1786],[-5443,-3058],[-2216,-461],[-2682,-1891]],[[166666,115734],[0,-115734]],[[166666,0],[-166666,0],[0,142857]],[[0,142857],[103098,0]],[[103098,142857],[1210,-696],[-2652,-2329],[-219,-3012],[960,-3389],[1015,-1629],[1940,-2721],[-379,-2143],[-2586,-2755],[3627,-4518],[2516,-862],[365,-1987],[-879,-2203],[-41,-1677],[-4780,-2302],[-771,-1452],[-1609,555],[-2799,-1434],[-2369,-1087],[-1272,-2090],[690,-3153],[-2490,-3216],[-5355,-2970],[579,-3040],[6025,-271],[5556,-4365],[4962,508],[14465,-4989],[7618,2073],[5229,8244],[6787,1513],[-3506,4541],[5416,2613],[741,4686],[3989,319],[312,1646],[11814,4369],[9459,2100]],[[207720,142857],[256,2723],[9533,4427],[1886,3478],[11877,4490],[2214,190],[14874,1272],[5140,-3599],[4254,332],[2803,-2724],[18388,2576],[5756,6770],[20087,1764],[3827,4111],[14052,6070],[6622,-1165],[514,3503],[3530,3460]],[[333333,180535],[0,-37678]],[[333333,142857],[-125613,0]],[[605505,285714],[-114,412],[5317,-276],[2373,2405],[-1341,853],[10187,3561],[-2357,7796],[6048,8471],[48,3794],[3845,1301],[753,255],[795,4082],[2579,1058],[112,4525],[-1928,5566],[6854,8714],[10704,3811],[3581,5812],[13705,5241]],[[666666,353095],[0,-67381]],[[666666,285714],[-61161,0]],[[500000,811825],[0,45317]],[[500000,857142],[100820,0]],[[833332,890458],[1,109541]],[[833333,999999],[166666,0],[0,-142857]],[[999999,857142],[-150999,0]],[[833332,791399],[0,-77114]],[[833332,714285],[-166666,0]],[[666666,714285],[0,18404]],[[666666,714285],[-84657,0]],[[455591,519770],[-1821,-3090],[-3454,18],[-8988,8135],[-9,1209],[2844,4509],[2202,2160],[1055,-113],[825,414],[404,825],[1084,886],[810,1457],[3131,-976],[-122,-1971],[-3729,-1931],[-1022,-1133],[1678,-6880],[1204,-383],[55,-962],[3853,-2174]],[[442256,533329],[471,1399],[-4004,1567]],[[438723,536295],[6015,1456],[2112,2747],[97,-39]],[[450560,539066],[-1775,-2655],[-3658,-3579],[-2871,497]],[[479736,601784],[-1039,1114],[202,1514],[695,1718]],[[467380,271135],[964,-2989],[-5000,800],[-365,1666],[4401,523]],[[462090,274173],[-425,-1693],[-7300,635],[326,1665],[7399,-607]],[[444191,275551],[-256,-1182],[-5290,422],[309,1157],[5237,-397]],[[415149,464652],[-3341,-3884],[-11296,3443],[6013,7345],[4506,-1472],[-2452,-3410],[6570,-2022]],[[392463,466561],[-4672,-7628],[-4753,705],[2305,5372],[2327,1673],[1613,470],[3180,-592]],[[392436,458654],[-610,476],[3317,1468],[631,-475],[-3338,-1469]],[[359719,447456],[980,7204],[10732,293],[-11712,-7497]],[[370175,449888],[-1439,2198],[5593,1483],[1430,-2257],[-5584,-1424]],[[382547,449577],[-971,2949],[8010,1196],[674,-1670],[-3144,-1777],[-4569,-698]],[[374176,435999],[-388,3800],[3366,269],[469,-3791],[-3447,-278]],[[421422,433218],[-8964,1997],[1516,2724],[-14225,3146],[4130,8089],[11777,-2477],[-1878,-3376],[21816,-4673],[-1986,-3631],[-9991,1965],[-2195,-3764]],[[436221,433348],[-1980,-3512],[-11177,2350],[1862,3590],[11295,-2428]],[[414895,427974],[10118,-1951],[-2526,-5430],[-10312,1866]],[[387222,400833],[-2223,2207],[5212,2302],[2267,-2222],[-5256,-2287]],[[358522,403711],[-2287,6415]],[[356235,410126],[722,2834],[340,1107],[4773,3137],[-1045,4947],[3951,1000],[3054,-13211],[-9508,-6229]],[[166666,115734],[9782,2172],[3895,-1139],[16764,6086],[9577,-1537],[198,3102],[3365,2218],[1689,1113],[-7456,8360],[3082,5073],[158,1675]],[[333333,142857],[0,-142857],[-166667,0]],[[386148,298812],[-1721,-1786],[-7156,3520],[1763,1686],[-1971,995],[3666,3455],[5574,-4160],[-2443,-2560],[2288,-1150]],[[398908,385204],[512,126]],[[399420,385330],[7425,1834],[2553,-4255],[-9539,-2307],[-2425,4238],[1474,364]],[[347811,358361],[1132,1579],[521,5395],[-2119,7673]],[[347345,373008],[-188,9830],[-1179,3859]],[[345978,386697],[711,375]],[[346689,387072],[1562,49],[-175,2358],[-1635,-66],[248,-2341]],[[345978,386697],[-531,8778],[93,3562],[-515,5398],[1326,1563],[3905,3414],[2056,245]],[[352312,409657],[-1710,-5075],[-263,-5163],[820,-1050],[256,-2894],[415,-6171]],[[351830,389304],[-813,-3720],[-1321,-3101],[128,-1235]],[[349824,381248],[9,-89]],[[349833,381159],[1058,-10157],[-986,-636],[1357,-4491],[90,-2376]],[[351352,363499],[-209,-1854],[-1387,-3815],[-9967,-19017],[-583,-1027],[-2390,1027],[-162,65],[2973,7589],[3373,2390],[24,3552],[4787,5952]],[[347811,358361],[-3335,4631],[1866,3467],[1003,6549]],[[349833,381159],[694,22]],[[350527,381181],[5125,162],[-108,-6642],[3071,57],[5,-8345],[-3944,-397],[-175,-2270],[-3149,-247]],[[352312,409657],[3923,469]],[[358522,403711],[3259,-8236],[1394,-3618],[-11345,-2553]],[[0,142857],[0,142857],[166667,0]],[[166667,285714],[-1,-93440]],[[166666,192274],[-5742,772],[-1724,-1111],[-1007,-2450],[-805,-1055],[-2083,-3284],[-5194,-959],[-763,-3642],[-5833,-1579],[13,-2186],[-3254,-465],[-398,-4081],[-2915,-3408],[-2406,-2184],[-1325,-470],[-2736,-1541],[-7903,-1386],[-4696,-3573],[-7161,-385],[-3177,-1315],[-3815,-2352],[-64,-138],[-883,-1900],[649,-1972],[-1502,-4001],[-2002,-3074],[2419,-1252],[739,-426]],[[166667,285714],[166666,0]],[[333333,259074],[-437,-308],[-3149,-2085],[-1900,-1027],[-740,-534],[-1454,-1135],[-5925,-3462],[-2092,-1224],[-2395,-129],[-5174,-2675],[-5055,-3388],[-1988,-974],[-4863,-2564],[-5380,-2619],[-5429,-3788],[-5465,-3227],[-5397,-1927],[-1604,-154],[-6151,-516],[-6091,-1473],[-6007,-1119],[-2093,-417],[-4889,-973],[-6109,-577],[-1914,-397],[-5614,-911],[-2377,161],[-4250,95],[-2963,267],[-2874,-189],[-3433,-327],[-8315,-2308],[-7483,-2088],[-430,-120],[-202,-200],[-736,-725],[-6124,-807],[-1698,594],[-2381,952],[-1576,234],[-945,140],[-1665,-4539],[-5271,-2960],[-1508,-1303],[-983,-2151],[980,-1926],[-749,-1199],[-1880,-378],[-2028,765],[-1298,-898],[708,-2691],[-5489,-3142],[27,-1433],[-1117,-2072],[-3084,-976],[-208,27]],[[333333,285714],[0,52455]],[[333333,338169],[1494,-1376],[2117,-882],[451,-202],[3919,256],[5110,1107],[117,25],[3287,1450],[1018,266],[1587,439],[3642,670],[4015,393],[2020,604],[2451,-2079],[2332,360],[622,-387],[2517,-1470],[2414,-418],[3589,-571],[-1051,-4015],[-37,-5745],[110,-99],[1023,-3802],[-416,-1537],[-2168,-1244],[-1991,-2030],[-3052,-3583],[-1935,-7046],[-343,-5258],[-1072,-5898]],[[365103,296097],[-109,-618]],[[363334,286458],[-51,-440]],[[363283,286018],[-36,-304]],[[166667,285714],[0,142857],[166666,0]],[[333333,345799],[-4019,-6128],[4015,-1498],[4,-4]],[[333333,428571],[0,142857]],[[333333,571428],[117320,0]],[[450653,571428],[-1337,-733],[-345,-160],[-7694,-3563],[-2180,-450],[-4214,-4505],[4534,-3498],[10230,-308],[-3161,-3586],[-11048,-3150],[-6937,-5513],[6255,-8082],[-24,-4749],[-4616,-2599],[-4008,-3875],[585,-3859],[-5525,-10673],[1557,-3325],[6643,-341],[5146,-3617],[-6333,1333],[-3135,-2091],[1904,-2963],[-7150,-6597],[-5925,-5448],[-7546,-4364],[-9809,-11344],[320,-6910],[-3265,4349],[-3129,607],[-11831,-7023],[-191,-7114],[-14674,1203],[-6714,-2397],[-2941,-10337],[1921,-2228],[5669,-6862],[-3588,-943],[-6294,-4693],[136,-2253],[10,-196]],[[333333,180535],[215,211],[2567,9276],[16269,-154],[10656,2692],[4294,-3429],[16515,2514],[3724,-654],[3035,4402],[2161,150],[2845,199],[4894,2928],[355,2426],[18109,7148],[9679,-5831],[9266,-832],[2019,2758],[4542,-344],[9036,4797],[256,6636],[8916,3742],[1888,-1464],[2805,1420],[13646,11],[2913,4218],[13219,-1084],[2842,-714]],[[499999,221557],[0,-78700]],[[499999,142857],[-166666,0]],[[499999,221557],[12364,-3106],[2616,-3231],[7880,962],[1547,5959],[9323,1371],[6246,8828],[-4709,5709],[8124,5544],[-351,2319],[5142,2190],[3914,1666],[-1990,5639],[4556,5436],[10305,1097],[1948,2750],[25037,-2236],[12124,12425],[-584,2360],[3750,2192],[-1736,6283]],[[666666,285714],[0,-142857],[-166667,0]],[[666666,353095],[10850,4148],[314,3116],[-7375,1297],[-637,20626],[-1286,1614],[1642,1860],[-2111,17686],[6875,8782],[163,139],[3771,3213],[-663,4396],[-5763,2801],[-3336,1622],[-1001,4176]],[[668109,428571],[165223,0]],[[833332,428571],[0,-142857],[-166666,0]],[[668109,428571],[-198,829],[1352,1245],[-1538,2754],[1486,2056],[9944,13754],[5808,5679],[2360,4785],[544,5001],[354,3245],[18062,13644],[1488,2416],[2511,1865],[7399,-708],[4097,6642],[17851,6277],[1686,14006],[-10302,7328],[6817,4446],[5774,17083],[-208,10522],[33386,16725],[440,3186],[199,77]],[[777421,571428],[55911,0]],[[833332,571428],[0,-142857]],[[666666,626179],[0,88106]],[[833332,714285],[0,-142857]],[[999999,857142],[0,-142857],[-166667,0]],[[666666,892774],[0,107225]],[[666666,999999],[166667,0]],[[500000,857142],[0,142857],[166666,0]],[[431756,714285],[-98423,0]],[[333333,714285],[0,142857],[166667,0]],[[333333,571428],[0,142857]],[[494753,623892],[-4053,-1503],[-195,-265],[-768,-1186],[-7748,478],[51,-10077],[-8170,-3227],[-1526,-604],[540,-1625],[229,-687],[2583,-7766],[-1145,-911],[-4638,-3689],[-4667,-2343],[-6793,-3409],[-1357,-681],[-2548,-1279],[-1483,-744],[-2358,-1183],[645,-1416],[3629,-7974],[-4328,-2373]],[[438723,536295],[-1377,159]],[[437346,536454],[-472,916],[-2537,2542],[-2393,3345],[-1044,1158],[-53,1424],[3594,1661],[2309,1302]],[[442256,533329],[-2805,-5808],[-1749,-961],[542,-4398]],[[438244,522162],[-515,-2787]],[[437729,519375],[-9987,783]],[[427742,520158],[163,3552],[-941,2085],[987,381],[5070,3564],[3458,2310],[995,3943],[-128,461]],[[349824,381248],[3389,2698],[38,1693],[-462,970],[-276,975],[478,978],[3389,1127],[5272,1021],[10932,4264],[2450,501],[773,124],[1268,170],[1359,42],[1217,135],[920,107],[618,184],[674,290],[789,561],[893,748],[513,648],[594,908],[425,698],[791,436],[478,45],[867,-134],[769,-17],[1053,34],[1079,139],[1686,327],[513,145],[487,318],[433,508],[974,690],[920,492],[480,66]],[[395352,402776],[-517,-239],[-1116,-780],[-256,-318],[2995,-543],[3229,-429],[1889,-136],[2202,-190],[2126,-296],[1215,-353],[345,-324],[97,-240],[-71,-246],[-309,-223],[-960,-405],[-1866,-687],[-1596,-629],[-991,-502],[-1390,-784],[-658,-481],[-1269,-1210],[-654,-842],[-329,-731],[-197,-732],[-126,-1434],[465,-1656],[793,-1500],[1017,-1536]],[[398908,385204],[-921,1444],[-744,1503],[-593,1916],[192,1518],[329,1081],[267,537],[536,657],[748,776],[1249,1006],[886,493],[1806,928],[2253,881],[1647,584],[399,208],[124,163],[-258,321],[-925,270],[-1368,275],[-4536,377],[-2430,275],[-1872,287],[-2401,420],[-978,-397],[-2091,-420],[-1123,-163],[-1354,-73],[-1370,205],[-393,-49],[-482,-348],[-876,-1466],[-733,-777],[-662,-581],[-707,-532],[-574,-313],[-763,-298],[-904,-186],[-1111,-134],[-1408,-117],[-2307,-231],[-2520,-520],[-3123,-1225],[-7746,-3057],[-5614,-1125],[-1396,-520],[-1435,-432],[-459,-704],[381,-1206],[279,-651],[65,-1911],[-3365,-2712]],[[365103,296097],[13652,-3887],[6197,-4858],[6672,-2224],[530,-286]],[[394494,283577],[698,-377],[6992,-1050],[11239,-1746],[3912,-853],[9795,-1164],[4943,-319],[1210,-622],[-1252,-1499],[-1957,-617],[138,-309],[2420,255],[4728,1358],[3836,556],[8422,-494],[20844,-2083],[1698,300],[2418,1271],[682,-416],[-2258,-1273],[-2126,-500],[1849,-3670],[2011,-1906],[3481,-1522],[4116,-968],[-295,-438],[-4334,1206],[-3457,1443],[-2264,2403],[-1961,3667],[-20112,2010],[-9203,384],[-3063,-385],[-2635,-750],[-361,-231],[-1727,-405],[-3512,-241],[-132,459],[140,461],[1836,700],[949,973],[-746,351],[-3621,170],[-10333,1185],[-4264,888]],[[421772,271504],[-5300,1243],[-5214,503],[-6520,134],[-18299,3822],[-13086,4944],[-10070,3868]],[[400682,274669],[4344,-887],[5216,-70],[5852,-566],[4632,-795],[1962,-463]],[[422688,271888],[-916,-384]],[[423691,271652],[-983,-367]],[[422708,271285],[-936,219]],[[422688,271888],[1003,-236]],[[423691,271652],[5001,-257],[7644,260],[7630,972]],[[443966,272627],[884,-357]],[[444850,272270],[-8386,-1083],[-7409,-274],[-5652,209],[-695,163]],[[446182,272442],[-1017,338]],[[445165,272780],[3913,498],[10675,-1118],[2870,-12],[2643,514],[252,-499],[-2521,-507],[-3151,-1],[-10903,1144],[-2761,-357]],[[443966,272627],[1199,153]],[[446182,272442],[-1332,-172]],[[438244,522162],[148,-1202],[-325,-1612]],[[438067,519348],[-338,27]],[[437729,519375],[-85,-877],[-327,-2104]],[[437317,516394],[-935,-3270]],[[436382,513124],[-3833,-745],[60,-2399],[224,-1295],[1258,-423]],[[434091,508262],[-424,-921]],[[433667,507341],[-3145,1486],[-2517,1189],[-3387,-63],[660,6535],[2416,2635],[48,1035]],[[434458,506967],[-791,374]],[[434091,508262],[346,-231],[466,-116],[-445,-948]],[[438067,519348],[-225,-1119],[-525,-1835]],[[435187,506623],[193,374]],[[435380,506997],[1019,68],[187,239]],[[436586,507304],[989,-1052],[210,-857],[-2598,1228]],[[436106,507814],[480,-510]],[[435380,506997],[11,20],[365,744],[350,53]],[[434458,506967],[729,-344]],[[436106,507814],[-387,412],[-532,3353],[803,175],[392,1370]]],"bbox":[155395.134,262745.903,165532.736,278789.903],"transform":{"scale":[0.010137612137612152,0.016044016044016046],"translate":[155395.134,262745.903]}}
