{"type":"Topology","objects":{"01511-4503-10":{"type":"GeometryCollection","geometries":[{"type":"MultiPolygon","arcs":[[[0]]],"properties":{"筆ID":"H000000001","version":"ver1.0","座標系":"任意座標系","測地系判別":null,"地図名":"H20450301518002","地図番号":"連-E-9","縮尺分母":"600","市区町村コード":"01511","市区町村名":"宗谷郡猿払村","大字コード":"000","丁目コード":"000","小字コード":"0000","予備コード":"00","大字名":null,"丁目名":null,"小字名":null,"予備名":null,"地番":"24-1","精度区分":null,"座標値種別":"図上測量","筆界未定構成筆":null,"代表点緯度":8306.6145,"代表点経度":4476.850975922}}]}},"arcs":[[[0,528580],[999999,471419],[-239808,-193371],[-14370,-122221],[-470211,-684407],[-275610,528580]]],"bbox":[4468.342,8295.809,4496.944,8336.694],"transform":{"scale":[0.00002860202860202937,0.0000408850408850411],"translate":[4468.342,8295.809]}}
