{"type":"Topology","objects":{"01425-4315-4.featurecollection":{"type":"GeometryCollection","geometries":[{"type":"Polygon","arcs":[[0,1]],"properties":{"市区町村名":"空知郡上砂川町","大字名":null,"丁目名":null,"小字名":"字上砂川","地番":"筆界未定地-1","精度区分":null,"座標系":"任意座標系"}},{"type":"Polygon","arcs":[[-1,2]],"properties":{"市区町村名":"空知郡上砂川町","大字名":null,"丁目名":null,"小字名":"字東奈井江","地番":"58-1","精度区分":null,"座標系":"任意座標系"}}]}},"arcs":[[[680406,353426],[-1514,2134],[-1956,2994],[-2356,3562],[-743,1468],[-528,1435],[-1294,2734],[-340,813],[-224,2346],[-255,1418],[-541,1472],[-556,930],[-1058,1083],[-2292,2005],[-2026,1952],[-2067,1501],[-1227,1206],[-924,1267],[-1089,1450],[-776,1753],[-718,2242],[-446,2408],[-652,2457],[-708,1071],[-666,704],[-906,665],[-541,530],[-1067,1212],[-1205,1399],[-1070,1528],[-503,877],[-356,775],[-610,454],[-1272,862],[-1012,1117],[-966,1470],[-1829,2647],[-988,1687],[-1171,1720],[-1181,1855],[-708,761],[-1191,1168],[-607,1026],[-184,1121],[-10,1640],[-399,2218],[-432,2130],[-939,2310],[-390,806],[-2033,2730],[-3204,4855],[-1097,2003],[-440,1206],[-214,935],[69,1917],[138,1892],[-369,1733],[-728,2159],[-503,1953],[-647,1383],[-1263,2579],[-1588,2896],[-1776,3280],[-2077,2719],[-2297,2689],[-970,836],[-1582,1805],[-1024,1494],[-520,934],[-596,1535],[-631,2068],[-251,503],[-555,829],[-854,822],[-847,754],[-647,788],[-754,1094],[-750,1261],[-433,977],[-672,2376],[-390,940],[-233,1038],[-488,1228],[-616,1007],[-621,628],[-1391,590],[-1631,621],[-2764,525],[-1191,415],[-1894,-129],[-412,34],[-1117,544],[-771,435],[-772,198],[-973,828],[-1003,716],[-1068,1312],[-460,530],[-3335,1660],[-356,-143],[-543,-485],[-391,-578],[-1196,-1159],[-545,-705],[-1848,-1171],[-2950,-2036],[-1689,-1180],[-1513,-516],[-496,-91],[-872,103],[-758,-199],[-2120,-1269],[-3782,-1647],[-2764,-1574],[-1687,-1126],[-2059,-1365],[-1861,-1049],[-1226,-430],[-1793,-912],[-1992,-605],[-2831,-654],[-2916,-49],[-1177,158],[-3687,-171],[-1245,154],[-3603,-245],[-2071,318],[-2415,-88],[-1237,-235],[-1129,-568],[-759,-605],[-1944,-1070],[-1420,-1033],[-744,-608],[-534,-563],[-890,-608],[-1388,-834],[-679,-216],[-503,46],[-298,216],[-516,381],[-773,376],[-1186,687],[-1534,908],[-1392,1166],[-733,651],[-390,589],[-514,945],[-479,1038],[-135,953],[-173,1007],[-254,917],[-570,941],[-405,911],[-528,1430],[-194,954],[-156,497],[-372,771],[-291,313],[-997,613],[-1670,1046],[-382,632],[-621,717],[-1503,1532],[-1093,1111],[-1396,1376],[-1277,1197],[-1697,1453],[-1012,959],[-1419,1808],[-828,1151],[-651,1237],[-189,716],[-153,1042],[-203,468],[-899,1494],[-1684,2805],[-456,455],[-1292,551],[-2015,1658],[-2564,1686],[-4536,3077],[-3593,2488],[-2612,1380],[-1850,1212],[-1032,319],[-1608,785],[-599,580],[-334,506],[-463,1088],[-198,1247],[-502,3158],[-491,2290],[-463,2066],[-501,1962],[-320,804],[-325,382],[-781,820],[-938,860],[-1768,1157],[-1102,584],[-703,584],[-658,675],[-818,1378],[-818,1129],[-729,1632],[-563,1554],[-305,1884],[35,1010],[-164,668],[-300,474],[-1509,1579],[-1751,1837],[-887,1022],[-977,1451],[-963,1051],[-1667,1892],[-1166,1443],[-466,849],[-198,1005],[-390,840],[-936,1561],[-1022,1015],[-1337,1208],[-1382,1012],[-827,967],[-751,1199],[-669,1284],[-535,598],[-2945,1925],[-2554,1611],[-2930,2419],[-2239,1911],[-2948,2874],[-2240,1961],[-2789,2418],[-1133,1057],[-725,539],[-1667,1090],[-981,305],[-2226,720],[-1543,790],[-1161,740],[-1218,555],[-1086,712],[-2049,1654],[-2029,1692],[-1249,943],[-1126,467],[-933,-17],[-1059,357],[-3110,1488],[-2111,838],[-1859,591],[-3470,1536],[-4550,1852],[-2432,764],[-2641,1256],[-7347,3163],[-4529,2129],[-3026,1438],[-2181,903],[-639,400],[-827,703],[-297,659],[-312,957],[-483,2120],[-257,1447],[70,1146],[498,2543],[160,1250],[-72,1060],[-242,1175],[-578,1501],[-1034,2408],[-1222,2838],[-209,819],[-460,1036],[-93,845],[103,539],[708,1213],[865,1505],[461,1446],[181,1587],[320,1843],[399,1920],[356,1151],[402,920],[468,595],[1578,2109],[1103,1081],[833,697],[1898,801],[-44319,0]],[[323962,654845],[0,305183],[2217,864],[1538,907],[1482,448],[1854,17],[3159,-1047],[2434,-351],[1680,75],[1197,404],[1112,763],[1139,2256],[534,862],[1036,437],[2264,-123],[1849,-260],[1983,136],[1273,-200],[1232,-564],[2384,-1701],[1636,-1263],[1458,-759],[1130,-61],[1898,168],[1499,525],[1593,830],[2760,1928],[2534,2014],[1313,815],[1160,364],[985,-219],[964,-746],[1165,-1331],[851,-1430],[1237,-3576],[840,-2213],[1071,-1924],[1240,-1432],[2004,-1523],[2248,-1201],[1855,-477],[2178,-237],[2116,144],[1973,585],[2633,1339],[1474,908],[2513,2223],[3254,2766],[1818,1383],[956,311],[889,-169],[1316,-939],[1109,-1304],[307,-758],[65,-1500],[534,-1274],[1137,-1641],[1488,-1819],[1058,-668],[2137,-870],[1714,-119],[2030,485],[2360,50],[1736,446],[1293,579],[2482,1552],[1850,651],[1939,354],[1862,-62],[1288,312],[972,521],[988,1218],[1208,1648],[2045,2697],[1748,2076],[1089,981],[2520,1653],[1815,760],[960,249],[2426,-131],[955,231],[2091,851],[1593,10],[3425,-787],[2562,438],[2215,545],[1562,-115],[1665,-449],[2707,-1222],[1112,-234],[2240,174],[3365,812],[2606,1091],[3513,1562],[2645,1355],[1034,649],[2570,2700],[1739,772],[6737,2204],[889,505],[975,774],[2579,1155],[1343,723],[1347,569],[854,994],[534,903],[1301,1424],[715,727],[649,284],[2074,196],[829,-52],[770,-390],[462,-751],[311,-1735],[378,-1781],[541,-1180],[563,-742],[399,-81],[837,285],[1739,1030],[1832,568],[1255,-170],[1968,-1239],[1328,-68],[1301,488],[1215,1277],[743,403],[1988,-110],[1480,-475],[1311,-795],[529,-2],[532,132],[488,329],[374,821],[197,1409],[910,1746],[987,2580],[565,1028],[845,923],[1477,1104],[1282,548],[1564,313],[2242,-2],[815,167],[973,631],[927,1004],[722,1489],[427,740],[1354,1054],[768,35],[1106,-469],[1629,-1186],[3312,-2076],[2153,-1090],[1119,29],[1121,412],[1040,654],[1490,1143],[659,227],[644,-227],[1994,-1795],[1083,-642],[962,-50],[893,382],[1489,1237],[1604,568],[933,359],[666,-47],[838,-297],[1232,-669],[1768,-558],[735,27],[957,235],[794,559],[1718,2371],[1043,2002],[796,923],[1032,574],[1024,304],[588,-48],[1627,-1225],[2661,-1083],[1297,-528],[765,-655],[686,-254],[1273,-20],[686,-161],[607,-544],[366,-669],[544,-2148],[754,-2919],[529,-1403],[282,-643],[961,-407],[838,0],[1614,227],[1922,-29],[1114,-161],[1083,-757],[972,-524],[1149,-255],[1443,113],[1055,369],[1953,1450],[2526,1866],[1773,1007],[1064,832],[652,855],[621,1797],[275,659],[773,965],[1123,930],[932,463],[546,-37],[942,-398],[1283,-692],[923,-57],[1481,313],[970,-133],[537,-416],[274,-741],[481,-2710],[302,-2161],[368,-911],[809,-1055],[841,-509],[1030,-187],[861,220],[715,522],[963,1882],[626,1601],[525,950],[840,658],[1606,696],[1853,790],[2292,1743],[1372,652],[3847,98],[1654,493],[1119,298],[905,-63],[1134,-509],[1232,-941],[1254,-1249],[1037,-790],[1788,-707],[1587,-212],[1439,232],[1852,802],[1325,637],[1166,838],[2534,3322],[2304,1834],[1250,508],[1335,176],[1428,-320],[1664,-777],[4407,-3678],[2417,-957],[3594,-308],[1059,-349],[1652,-1302],[1120,-1278],[1190,-964],[919,-170],[1242,142],[2919,1459],[919,17],[1015,-237],[860,-767],[350,-1204],[29,-1855],[226,-894],[539,-960],[774,-629],[1159,-290],[1382,236],[1132,376],[1252,760],[1307,332],[1735,-412],[1692,-1215],[417,-1301],[271,-1384],[617,-917],[731,-832],[496,-1065],[665,-1422],[756,-841],[777,-374],[2200,2],[957,-422],[713,-744],[489,-870],[425,-1343],[343,-1124],[279,-366],[1325,-54],[920,39],[964,444],[914,498],[969,-91],[879,-604],[630,-955],[331,-1088],[-80,-2337],[118,-682],[452,-974],[1323,-1607],[1706,-1086],[2428,-642],[591,-525],[729,-1880],[369,-1653],[382,-1604],[727,-1364],[1109,-1090],[1080,-898],[960,-981],[2415,-3759],[1265,-1285],[3853,-5025],[2259,-1746],[1717,-992],[818,-946],[899,-1124],[450,-812],[262,-1462],[-44,-2065],[208,-1339],[1154,-1944],[218,-1339],[-170,-1685],[-1975,-3292],[-406,-793],[-215,-1291],[26,-813],[321,-1009],[530,-720],[992,-629],[1749,-842],[958,-1101],[512,-1218],[206,-1520],[-125,-1649],[-1179,-3801],[-48,-875],[368,-727],[651,-572],[566,-259],[1534,145],[1061,19],[623,-145],[294,-381],[-45,-602],[-1678,-3354],[-998,-3469],[-591,-2500],[7,-1348],[423,-1233],[550,-967],[649,-525],[1290,-662],[1211,-377],[2226,167],[2175,657],[1656,103],[1374,-335],[618,-1435],[466,-2190],[27,-7527],[274,-3310],[1425,-2905],[486,-1707],[402,-1708],[-395,-3819],[55,-1994],[1761,-3706],[1334,-1729],[1520,-878],[2316,-292],[1975,-289],[1984,-692],[1570,-734],[3076,-2342],[2249,-2467],[1078,-267],[1479,393],[1506,1743],[929,649],[1121,185],[1944,-227],[2185,-959],[3754,-2296],[2559,-2073],[1042,-885],[764,-1449],[239,-951],[-29,-1843],[-381,-2324],[324,-2428],[544,-1682],[1089,-2034],[1337,-1018],[1078,-642],[804,-733],[460,-787],[-1189,-2054],[-75,-951],[200,-1245],[459,-1159],[606,-768],[846,-698],[559,-835],[254,-618],[-114,-1102],[-521,-1368],[-1045,-1303],[-411,-992],[31,-1636],[596,-2355],[642,-2449],[224,-862],[-132,-870],[-623,-940],[-1260,-1016],[-561,-1219],[16,-1373],[517,-1178],[878,-1337],[623,-1079],[1020,-1480],[416,-1231],[55,-1117],[-422,-2091],[-665,-1692],[-99,-1063],[176,-1347],[546,-1364],[2160,-3856],[220,-1039],[-422,-1714],[-1061,-3100],[-147,-842],[232,-1120],[412,-797],[503,-762],[216,-855],[-15,-816],[-507,-772],[-1561,-1483],[-1209,-1514],[-537,-1303],[-1210,-2875],[-2430,-4333],[-308,-2205],[726,-3543],[-171,-1350],[-46,-2413],[966,-2923],[-21,-1804],[-1293,-2571],[-2385,-2241],[-1209,-2172],[-2244,-2165],[-624,-1407],[28,-1130],[502,-2369],[-61,-1023],[-698,-4593],[-508,-1588],[-915,-1915],[-984,-1278],[-881,-729],[-1268,-434],[-1549,-901],[-551,-773],[-542,-1423],[-682,-2160],[-121,-1864],[889,-2578],[684,-1935],[224,-1500],[-135,-737],[-634,-1451],[-1173,-2325],[-1972,-2852],[-681,-1407],[-642,-2496],[-78,-2025],[104,-1801],[163,-1662],[807,-1093],[1060,-1075],[348,-929],[-8,-847],[-156,-1000],[-555,-2463],[-47,-1561],[223,-1789],[-311,-1169],[-385,-452],[-1111,-825],[-496,-679],[-158,-854],[-41,-1983],[345,-1807],[818,-1140],[761,-777],[817,-211],[1192,36],[943,-158],[986,-811],[1346,-1662],[771,-750],[1192,-383],[2067,-811],[986,-780],[524,-748],[331,-885],[502,-477],[2514,-1349],[606,-582],[422,-704],[261,-900],[69,-1055],[-124,-1044],[-69,-2066],[-291,-3481],[-157,-1872],[988,-1658],[437,-1576],[85,-2240],[-287,-1050],[-509,-1654],[-45,-3126],[254,-1508],[427,-1175],[1067,-1623],[115,-614],[-91,-1260],[-262,-1676],[-54,-2279],[-201,-710],[-957,-1067],[-661,-788],[-341,-1034],[76,-1397],[629,-1564],[1141,-1454],[1230,-899],[1523,-1514],[1029,-1744],[618,-2344],[1006,-5440],[919,-2091],[730,-2179],[171,-2443],[255,-1795],[563,-1716],[842,-1385],[1273,-3681],[878,-1346],[1237,-1725],[2266,-3448],[791,-1457],[270,-1063],[144,-3553],[462,-1589],[1070,-1572],[846,-2043],[779,-2850],[199,-3316],[40,-1369],[517,-1350],[1317,-1518],[1625,-1507],[1860,-2714],[1427,-2388],[2592,-2724],[2507,-2645],[2438,-2027],[3578,-2505],[3371,-2323],[3613,-1394],[4657,-1797],[9125,-577],[4738,-593],[6274,-1802],[12752,-3816],[4205,-926],[2762,-845],[1777,-790],[5988,-2070],[2806,-1534],[1814,-1616],[1423,-844],[13100,-2299],[4288,-1200],[10095,-3601],[3383,-1081],[2462,-414],[6932,-418],[7430,-1813],[1467,-431],[3855,-1855],[4518,-2001],[7371,-3831],[3140,-2136],[2844,-2553],[4439,-4643],[2696,-3204],[2492,-2823],[1346,-1795],[1790,-4921],[3358,-6124],[1078,-2293],[331,-2152],[56,-5126],[-197,-1808],[-893,-4364],[-2074,-3999],[-1019,-1269],[-8906,-4817],[-5673,-1912],[-3867,129],[-2678,5],[-2362,-739],[-5940,-3359],[-4763,-2040],[-2652,-892],[-6935,-1683],[-7149,-2063],[-10716,-4014],[-2829,-1285],[-7233,-2877],[-3192,-1211],[-5775,-1834],[-8721,-3989],[-1640,-1181],[-3193,-1751],[-6144,-2572],[-2669,-1523],[-3526,-1731],[-6910,-2907],[-4688,-2329],[-2640,-1898],[-4693,-4152],[-4007,-2936],[-3575,-2191],[-6532,-2749],[-1571,-1165],[-1430,112],[-2775,217],[-3966,-1535],[-2012,-1697],[-2968,-1918],[-1924,-1713],[-2383,-2058],[-3254,-3676],[-1136,-1811],[-3464,-5033],[-3479,-3584],[-3261,-3382],[-2244,-1998],[-2948,-2324],[-3240,-2583],[-2002,-908],[-3495,-1283],[-2805,-1441],[-2314,-1791],[-4077,-3325],[-1723,-1713],[-2134,-2067],[-1517,-562],[-2351,-305],[-6723,-1268],[-2967,-325],[-4024,-600],[-3983,3],[-3120,-132],[-5682,-782],[-4459,-400],[-5910,-458],[-3164,174],[-5229,1160],[-9044,2323],[-5332,-688],[-2417,-58],[-3934,603],[-7200,1495],[-2222,8],[-6893,338],[-7698,-164],[-7554,-461],[-9710,-895],[-4064,-902]],[[680406,353426],[-8974,-1855],[-9875,-2255],[-3952,-1418],[-4914,-2455],[-2902,-1590],[-1021,-976],[-1152,-1204],[-413,-1089],[-45,-1235],[325,-1218],[1890,-3732],[1389,-1453],[4908,-3497],[1489,-1377],[5626,-9782],[4899,-7448],[2657,-5190],[3260,-6869],[2289,-4450],[1646,-3202],[2594,-5729],[1302,-2305],[2283,-3279],[1392,-2636],[1415,-1970],[1886,-3270],[2900,-6186],[2942,-5110],[-2080,945],[-4137,1594],[-1096,480],[-1599,952],[-832,401],[-1413,647],[-764,172],[-1031,387],[-916,117],[-2211,636],[-1031,125],[-1146,305],[-1821,541],[-3046,370],[-1769,480],[-1255,149],[-766,-87],[-1786,15],[-2447,141],[-2369,-165],[-1334,95],[-1978,113],[-1785,54],[-1007,-144],[-1761,-429],[-1451,-31],[-1570,-130],[-1580,4],[-3003,369],[-2973,128],[-2105,-355],[-2140,-27],[-1891,180],[-4396,537],[-2684,524],[-3106,385],[-2153,-57],[-3264,381],[-2244,352],[-3076,629],[-812,183],[-1884,762],[-2223,984],[-1510,727],[-1000,352],[-1933,510],[-1525,183],[-1342,70],[-720,53],[-985,276],[-1552,406],[-1596,68],[-1074,-10],[-2549,-208],[-1120,367],[-1087,-145],[-3358,104],[-380,21],[-6659,374],[-567,-62],[-787,143],[-855,-197],[-2983,-239],[-366,-265],[-3146,-544],[-1182,-423],[-2200,-565],[-874,-466],[-2175,-640],[-1038,-453],[-440,-375],[-1010,-349],[-816,-406],[-843,-265],[-2138,-956],[-954,-535],[-1720,-648],[-2091,-910],[-1908,-981],[-3218,-1282],[-1746,-848],[-1700,-565],[-1398,-483],[-1168,-125],[-1157,-285],[-1323,-446],[-2234,-400],[-1642,-417],[-2092,-804],[-615,-42],[-2149,219],[-1504,-191],[-1681,-133],[-1154,-338],[-2469,-251],[-2905,-305],[-1664,-466],[-1778,-291],[-559,80],[-1275,-73],[-1863,-547],[-3819,-913],[-1794,-531],[-948,-35],[-1054,-132],[-740,-434],[-364,-111],[-1340,177],[-1660,-40],[-2816,-255],[-3755,365],[-3417,100],[-3008,368],[-2092,32],[-2626,-141],[-2305,-592],[-1414,-200],[-1570,-471],[-1067,-153],[-1048,-146],[-376,-298],[-422,-537],[-537,-1032],[-1113,-1867],[-345,-442],[-522,-756],[-99,-502],[-539,-1012],[-728,-826],[-341,-477],[-348,-938],[-1527,-3148],[-1247,-2895],[-1660,-3545],[-843,-2657],[-65,-652],[-321,-617],[-92,-576],[-970,-2535],[-29,-692],[-794,-2190],[100,-713],[107,-830],[-912,-2921],[-456,-1025],[41,-712],[-933,-1815],[-441,-1044],[-91,-731],[-403,-995],[-865,-1875],[-652,-1739],[-246,-1599],[76,-1054],[-351,-2213],[46,-744],[-375,-1278],[-367,-1557],[-753,-1787],[-534,-1899],[-304,-1391],[-394,-942],[-867,-1081],[-1394,-1327],[-1004,-578],[-316,-304],[-693,-349],[-1884,-560],[-1696,-908],[-392,-331],[-1078,-653],[-2537,-860],[-1791,-437],[-1433,-616],[-1534,-382],[-2863,-252],[-1134,-408],[-855,-110],[-742,-290],[-4455,-1408],[-2051,-456],[-3285,-715],[-589,-411],[-500,-179],[-1345,-454],[-737,-411],[-757,-286],[-1389,-233],[-807,-194],[-2324,-628],[-1338,-378],[-1510,-201],[-871,-316],[-1092,-52],[-862,-265],[-1072,170],[-2340,30],[-778,402],[-1949,351],[-1544,446],[-1458,262],[-1055,362],[-867,609],[-1268,713],[-1521,578],[-662,402],[-914,844],[-736,304],[-1949,802],[-1502,966],[-747,245],[-1141,159],[-1325,47],[-1871,-159],[-1822,243],[-1559,-115],[-805,-270],[-2768,-707],[-1928,-446],[-1414,-227],[-1295,17],[-2045,-38],[-981,-403],[-394,-144],[-1301,-134],[-2379,8],[-1870,-197],[-882,-147],[-2066,369],[-960,84],[-1756,22],[-2254,-143],[-1631,91],[-1457,-57],[-1953,-319],[-2991,16],[-1263,-57],[-1802,-424],[-782,-40],[-1373,-49],[-836,-119],[-4029,-1085],[-2092,-638],[-1357,-612],[-1216,-969],[-2286,-1361],[-1152,-880],[-1101,-970],[-834,-1026],[-1619,-1340],[-1729,-1178],[-609,-579],[-1386,-1021],[-1097,-995],[-1216,-938],[-853,-659],[-605,-305],[-1078,-76],[-1724,-833],[-850,-500],[-810,-345],[-978,-234],[-1919,-545],[-1241,-494],[-2337,-729],[-1566,-230],[-3369,-1080],[-3789,-841],[-2604,-703],[-4379,-1083],[-2501,-683],[-1658,-4],[-1190,264],[-2351,106],[-1548,-90],[-1520,-60],[-4509,54],[-4602,428],[-1816,522],[-3275,911],[-2418,925],[-2728,591],[-1910,229],[-877,-50],[-966,390],[-494,120],[-345,301],[-873,-64],[-547,295],[-1882,377],[-110,-1579],[201,-953],[304,-3889],[-646,-1964],[-1016,-2910],[-376,-1877],[-148,-2003],[22,-2349],[-321,-2663],[-792,-2705],[-638,-1817],[-521,-869],[-969,-2066],[-706,-1947],[-519,-1144],[-245,-1329],[60,-558],[-215,-1934],[-205,-2630],[-252,-1168],[-85,-903],[24,-2093],[248,-814],[-56,-2549],[110,-1944],[237,-1260],[262,-806],[293,-223],[743,-2976],[-28,-1162],[59,-594],[456,-2585],[100,-3450],[-71,-2573],[141,-2294],[178,-832],[37,-1192],[-143,-333],[-382,-3591],[-276,-716],[-337,-462],[-349,-1364],[-48,-895],[146,-861],[-497,303],[-738,-154],[-1037,-466],[-2296,-721],[-835,-532],[-885,-845],[-960,-1141],[-1035,-1113],[-967,-444],[-1870,-500],[-654,-375],[-1631,-377],[-745,-326],[-735,-123],[-1230,102],[-1284,-50],[-1439,-338],[-1387,-174],[-1965,176],[-984,-42],[-2043,301],[-4666,-245],[-2611,-173],[-4147,194],[-1254,-298],[-2413,-350],[-836,30],[-2393,111],[-1450,-263],[-1895,-813],[-1613,-1039],[-3594,-2106],[-2145,-1500],[-1394,-1228],[-632,-445],[-1011,-630],[-364,-366],[-505,-314],[-262,-344],[-930,-479],[-1088,-915],[-1923,-1219],[-3018,-2303],[-1732,-1399],[-1185,-1216],[-1377,-1363],[-2577,-2195],[-1074,-675],[-839,-677],[-539,-662],[-434,-215],[-958,-600],[-887,-837],[-948,-1150],[-1027,-985],[-1242,-1036],[-1226,-1111],[-2027,-1534],[-1857,-1187],[-1994,-1485],[-933,-825],[-620,-852],[-96,-449],[-259,-533],[-589,-708],[-1374,-2353],[-623,-832],[-1701,-1749],[-2245,-2462],[-1130,-551],[-1385,-823],[-1087,-444],[-621,80],[-826,-516],[-1014,-921],[-1248,-1162],[-1080,-507],[-1166,-453],[-1728,-582],[-1116,9],[-1228,-192],[-1667,-55],[-1310,-24],[-1020,-348],[-1227,-45],[-1831,68],[-1565,386],[-3369,-55],[-821,-251],[-2166,-1371],[-1633,-1114],[-498,-407],[-886,-202],[-727,-104],[-3399,436],[-852,-56],[-794,-8],[-872,414],[-2083,1192],[-441,591],[-684,578],[-378,541],[-1475,1167],[-867,818],[-2166,1168],[-1038,245],[-1001,-247],[-353,107],[-4787,-1313],[-1495,-738],[-5446,-2979],[-444,-27],[-333,-183],[-314,-369],[-1712,-1176],[-1931,-1000],[-666,-495],[-1708,-974],[-1944,-1533],[-350,-677],[-426,-474],[-1708,-1597],[-262,-359],[-219,-207],[-1521,-902],[-1047,-834],[-429,-207],[-544,-543],[-1992,-1588],[-406,-113],[-1924,-1839],[-1549,-1410],[-2086,-2221],[-660,-1076],[-1019,-964],[-1611,-2433],[-612,-663],[-1686,-1054],[-2186,-1616],[-1377,-1271],[-726,-734],[-1071,-649],[-1032,-852],[-978,-708],[-2538,-1837],[-3422,-3068],[-1443,-1027],[-380,-36],[-2975,1359],[-3537,2765],[-2128,2634],[-1236,788],[-2904,2855],[-721,709],[-365,464],[-556,430],[-1913,2658],[-346,234],[-345,744],[-562,663],[-887,885],[-1700,2299],[-710,395],[-551,623],[-2224,2291],[-2672,2736],[-218,170],[-528,116],[-671,-273],[-902,-1338],[-448,-250],[-698,-24],[-2365,-524],[-1493,-94],[-1273,-363],[-3172,-2080],[-1150,-1280],[-1237,-706],[-2918,-515],[-3957,-79],[-972,-338],[-531,-662],[-2245,-1167],[-128,78127],[-319,77802],[2161,122279],[1781,100716],[2243,259796],[53155,0],[264622,0]]],"bbox":[11776.663,11805.699,18161.605,18156.666],"transform":{"scale":[0.0063849483849483845,0.006350973350973351],"translate":[11776.663,11805.699]}}