{"type":"Topology","objects":{"01425-4315-6":{"type":"GeometryCollection","geometries":[{"type":"MultiPolygon","arcs":[[[0,1,2,3]]],"properties":{"筆ID":"H000000001","version":"ver1.0","座標系":"任意座標系","測地系判別":null,"地図名":"H20431501425007","地図番号":"切-24-1","縮尺分母":"2400","市区町村コード":"01425","市区町村名":"空知郡上砂川町","大字コード":"000","丁目コード":"000","小字コード":"0000","予備コード":"00","大字名":null,"丁目名":null,"小字名":null,"予備名":null,"地番":"地区外-476586","精度区分":null,"座標値種別":"図上測量","筆界未定構成筆":null,"代表点緯度":1435.35,"代表点経度":1203.521}},{"type":"MultiPolygon","arcs":[[[4,5,6,7,8,9]]],"properties":{"筆ID":"H000000002","version":"ver1.0","座標系":"任意座標系","測地系判別":null,"地図名":"H20431501425007","地図番号":"切-33-6","縮尺分母":"2400","市区町村コード":"01425","市区町村名":"空知郡上砂川町","大字コード":"000","丁目コード":"000","小字コード":"0001","予備コード":"00","大字名":null,"丁目名":null,"小字名":"字鶉","予備名":null,"地番":"長狭物不明-1","精度区分":null,"座標値種別":"図上測量","筆界未定構成筆":null,"代表点緯度":2082.9775,"代表点経度":-13.16243312}},{"type":"MultiPolygon","arcs":[[[10,11,12,13,14,-3]]],"properties":{"筆ID":"H000000003","version":"ver1.0","座標系":"任意座標系","測地系判別":null,"地図名":"H20431501425007","地図番号":"切-33-5","縮尺分母":"2400","市区町村コード":"01425","市区町村名":"空知郡上砂川町","大字コード":"000","丁目コード":"000","小字コード":"0000","予備コード":"00","大字名":null,"丁目名":null,"小字名":null,"予備名":null,"地番":"地区外-476588","精度区分":null,"座標値種別":"図上測量","筆界未定構成筆":null,"代表点緯度":2055.2225,"代表点経度":624.64125}},{"type":"MultiPolygon","arcs":[[[15,16,17,18,19,-9,20,21,22,23]]],"properties":{"筆ID":"H000000004","version":"ver1.0","座標系":"任意座標系","測地系判別":null,"地図名":"H20431501425007","地図番号":"切-33-5","縮尺分母":"2400","市区町村コード":"01425","市区町村名":"空知郡上砂川町","大字コード":"000","丁目コード":"000","小字コード":"0001","予備コード":"00","大字名":null,"丁目名":null,"小字名":"字鶉","予備名":null,"地番":"長狭物不明-2","精度区分":null,"座標値種別":"図上測量","筆界未定構成筆":null,"代表点緯度":1956.085,"代表点経度":174.044227415}},{"type":"MultiPolygon","arcs":[[[24,25,26,-13,27]]],"properties":{"筆ID":"H000000005","version":"ver1.0","座標系":"任意座標系","測地系判別":null,"地図名":"H20431501425007","地図番号":"切-33-5","縮尺分母":"2400","市区町村コード":"01425","市区町村名":"空知郡上砂川町","大字コード":"000","丁目コード":"000","小字コード":"0001","予備コード":"00","大字名":null,"丁目名":null,"小字名":"字鶉","予備名":null,"地番":"長狭物不明-3","精度区分":null,"座標値種別":"図上測量","筆界未定構成筆":null,"代表点緯度":1925.2395,"代表点経度":514.918862633}},{"type":"MultiPolygon","arcs":[[[28,-5,29,30,31,-16,32,33,34,-25,35,36,-1,37]]],"properties":{"筆ID":"H000000006","version":"ver1.0","座標系":"任意座標系","測地系判別":null,"地図名":"H20431501425007","地図番号":"切-33-5","縮尺分母":"2400","市区町村コード":"01425","市区町村名":"空知郡上砂川町","大字コード":"000","丁目コード":"000","小字コード":"0000","予備コード":"00","大字名":null,"丁目名":null,"小字名":null,"予備名":null,"地番":"地区外-476591","精度区分":null,"座標値種別":"図上測量","筆界未定構成筆":null,"代表点緯度":1390.8325,"代表点経度":363.521}},{"type":"MultiPolygon","arcs":[[[38,-15,39,40,-6,-29]]],"properties":{"筆ID":"H000000007","version":"ver1.0","座標系":"任意座標系","測地系判別":null,"地図名":"H20431501425007","地図番号":"切-33-6","縮尺分母":"2400","市区町村コード":"01425","市区町村名":"空知郡上砂川町","大字コード":"000","丁目コード":"000","小字コード":"0000","予備コード":"00","大字名":null,"丁目名":null,"小字名":null,"予備名":null,"地番":"地区外-476592","精度区分":null,"座標値種別":"図上測量","筆界未定構成筆":null,"代表点緯度":2779.682,"代表点経度":363.521}},{"type":"MultiPolygon","arcs":[[[41,42,43,44]]],"properties":{"筆ID":"H000000008","version":"ver1.0","座標系":"任意座標系","測地系判別":null,"地図名":"H20431501425007","地図番号":"切-33-6","縮尺分母":"2400","市区町村コード":"01425","市区町村名":"空知郡上砂川町","大字コード":"000","丁目コード":"000","小字コード":"0001","予備コード":"00","大字名":null,"丁目名":null,"小字名":"字鶉","予備名":null,"地番":"22-4","精度区分":null,"座標値種別":"図上測量","筆界未定構成筆":null,"代表点緯度":2130.1255,"代表点経度":187.999370217}},{"type":"MultiPolygon","arcs":[[[-37,45,-11,-2]]],"properties":{"筆ID":"H000000009","version":"ver1.0","座標系":"任意座標系","測地系判別":null,"地図名":"H20431501425007","地図番号":"切-33-5","縮尺分母":"2400","市区町村コード":"01425","市区町村名":"空知郡上砂川町","大字コード":"000","丁目コード":"000","小字コード":"0001","予備コード":"00","大字名":null,"丁目名":null,"小字名":"字鶉","予備名":null,"地番":"50-2","精度区分":null,"座標値種別":"図上測量","筆界未定構成筆":null,"代表点緯度":1834.828,"代表点経度":748.330396535}},{"type":"MultiPolygon","arcs":[[[-36,-28,-12,-46]]],"properties":{"筆ID":"H000000010","version":"ver1.0","座標系":"任意座標系","測地系判別":null,"地図名":"H20431501425007","地図番号":"切-33-5","縮尺分母":"2400","市区町村コード":"01425","市区町村名":"空知郡上砂川町","大字コード":"000","丁目コード":"000","小字コード":"0001","予備コード":"00","大字名":null,"丁目名":null,"小字名":"字鶉","予備名":null,"地番":"50-1","精度区分":null,"座標値種別":"図上測量","筆界未定構成筆":null,"代表点緯度":1886.25,"代表点経度":623.453693573}},{"type":"MultiPolygon","arcs":[[[-35,46,47,-26]]],"properties":{"筆ID":"H000000011","version":"ver1.0","座標系":"任意座標系","測地系判別":null,"地図名":"H20431501425007","地図番号":"切-33-5","縮尺分母":"2400","市区町村コード":"01425","市区町村名":"空知郡上砂川町","大字コード":"000","丁目コード":"000","小字コード":"0001","予備コード":"00","大字名":null,"丁目名":null,"小字名":"字鶉","予備名":null,"地番":"20-3","精度区分":null,"座標値種別":"図上測量","筆界未定構成筆":null,"代表点緯度":1930.992,"代表点経度":491.509089636}},{"type":"MultiPolygon","arcs":[[[-34,48,49,-47]]],"properties":{"筆ID":"H000000012","version":"ver1.0","座標系":"任意座標系","測地系判別":null,"地図名":"H20431501425007","地図番号":"切-33-5","縮尺分母":"2400","市区町村コード":"01425","市区町村名":"空知郡上砂川町","大字コード":"000","丁目コード":"000","小字コード":"0001","予備コード":"00","大字名":null,"丁目名":null,"小字名":"字鶉","予備名":null,"地番":"20-2","精度区分":null,"座標値種別":"図上測量","筆界未定構成筆":null,"代表点緯度":1939.0525,"代表点経度":451.662832713}},{"type":"MultiPolygon","arcs":[[[-33,-24,50,51,52,53,54,-49]]],"properties":{"筆ID":"H000000013","version":"ver1.0","座標系":"任意座標系","測地系判別":null,"地図名":"H20431501425007","地図番号":"切-33-5","縮尺分母":"2400","市区町村コード":"01425","市区町村名":"空知郡上砂川町","大字コード":"000","丁目コード":"000","小字コード":"0001","予備コード":"00","大字名":null,"丁目名":null,"小字名":"字鶉","予備名":null,"地番":"20-1","精度区分":null,"座標値種別":"図上測量","筆界未定構成筆":null,"代表点緯度":1935.2925,"代表点経度":363.279368225}},{"type":"MultiPolygon","arcs":[[[-27,-48,-50,-55,55,56,57,58,59,60,61,62,-40,-14]]],"properties":{"筆ID":"H000000014","version":"ver1.0","座標系":"任意座標系","測地系判別":null,"地図名":"H20431501425007","地図番号":"切-33-6","縮尺分母":"2400","市区町村コード":"01425","市区町村名":"空知郡上砂川町","大字コード":"000","丁目コード":"000","小字コード":"0001","予備コード":"00","大字名":null,"丁目名":null,"小字名":"字鶉","予備名":null,"地番":"21-1","精度区分":null,"座標値種別":"図上測量","筆界未定構成筆":null,"代表点緯度":2120.1265,"代表点経度":277.497825163}},{"type":"MultiPolygon","arcs":[[[-22,63,-59,64,65,66]]],"properties":{"筆ID":"H000000015","version":"ver1.0","座標系":"任意座標系","測地系判別":null,"地図名":"H20431501425007","地図番号":"切-33-5","縮尺分母":"2400","市区町村コード":"01425","市区町村名":"空知郡上砂川町","大字コード":"000","丁目コード":"000","小字コード":"0001","予備コード":"00","大字名":null,"丁目名":null,"小字名":"字鶉","予備名":null,"地番":"20-10","精度区分":null,"座標値種別":"図上測量","筆界未定構成筆":null,"代表点緯度":2002.7635,"代表点経度":266.793862527}},{"type":"MultiPolygon","arcs":[[[-31,67,68,-18,69]]],"properties":{"筆ID":"H000000016","version":"ver1.0","座標系":"任意座標系","測地系判別":null,"地図名":"H20431501425007","地図番号":"切-33-5","縮尺分母":"2400","市区町村コード":"01425","市区町村名":"空知郡上砂川町","大字コード":"000","丁目コード":"000","小字コード":"0001","予備コード":"00","大字名":null,"丁目名":null,"小字名":"字鶉","予備名":null,"地番":"18-2","精度区分":null,"座標値種別":"図上測量","筆界未定構成筆":null,"代表点緯度":1907.574,"代表点経度":234.91829132}},{"type":"MultiPolygon","arcs":[[[70,-7,-41,-63,-43,71,72,-61]]],"properties":{"筆ID":"H000000017","version":"ver1.0","座標系":"任意座標系","測地系判別":null,"地図名":"H20431501425007","地図番号":"切-33-6","縮尺分母":"2400","市区町村コード":"01425","市区町村名":"空知郡上砂川町","大字コード":"000","丁目コード":"000","小字コード":"0001","予備コード":"00","大字名":null,"丁目名":null,"小字名":"字鶉","予備名":null,"地番":"22-1","精度区分":null,"座標値種別":"図上測量","筆界未定構成筆":null,"代表点緯度":2187.3775,"代表点経度":97.886698452}},{"type":"MultiPolygon","arcs":[[[-54,73,-56]]],"properties":{"筆ID":"H000000018","version":"ver1.0","座標系":"任意座標系","測地系判別":null,"地図名":"H20431501425007","地図番号":"切-33-5","縮尺分母":"2400","市区町村コード":"01425","市区町村名":"空知郡上砂川町","大字コード":"000","丁目コード":"000","小字コード":"0001","予備コード":"00","大字名":null,"丁目名":null,"小字名":"字鶉","予備名":null,"地番":"20-7","精度区分":null,"座標値種別":"図上測量","筆界未定構成筆":null,"代表点緯度":2030.7165,"代表点経度":396.592447616}},{"type":"MultiPolygon","arcs":[[[-53,74]]],"properties":{"筆ID":"H000000019","version":"ver1.0","座標系":"任意座標系","測地系判別":null,"地図名":"H20431501425007","地図番号":"切-33-5","縮尺分母":"2400","市区町村コード":"01425","市区町村名":"空知郡上砂川町","大字コード":"000","丁目コード":"000","小字コード":"0001","予備コード":"00","大字名":null,"丁目名":null,"小字名":"字鶉","予備名":null,"地番":"20-13","精度区分":null,"座標値種別":"図上測量","筆界未定構成筆":null,"代表点緯度":2003.9585,"代表点経度":384.735653793}},{"type":"MultiPolygon","arcs":[[[-52,75,76,77]]],"properties":{"筆ID":"H000000020","version":"ver1.0","座標系":"任意座標系","測地系判別":null,"地図名":"H20431501425007","地図番号":"切-33-5","縮尺分母":"2400","市区町村コード":"01425","市区町村名":"空知郡上砂川町","大字コード":"000","丁目コード":"000","小字コード":"0001","予備コード":"00","大字名":null,"丁目名":null,"小字名":"字鶉","予備名":null,"地番":"20-8","精度区分":null,"座標値種別":"図上測量","筆界未定構成筆":null,"代表点緯度":1986.8295,"代表点経度":329.284278291}},{"type":"MultiPolygon","arcs":[[[-51,78,-76]]],"properties":{"筆ID":"H000000021","version":"ver1.0","座標系":"任意座標系","測地系判別":null,"地図名":"H20431501425007","地図番号":"切-33-5","縮尺分母":"2400","市区町村コード":"01425","市区町村名":"空知郡上砂川町","大字コード":"000","丁目コード":"000","小字コード":"0001","予備コード":"00","大字名":null,"丁目名":null,"小字名":"字鶉","予備名":null,"地番":"20-6","精度区分":null,"座標値種別":"図上測量","筆界未定構成筆":null,"代表点緯度":1938.117,"代表点経度":292.728956402}},{"type":"MultiPolygon","arcs":[[[-23,-67,79,-79]]],"properties":{"筆ID":"H000000022","version":"ver1.0","座標系":"任意座標系","測地系判別":null,"地図名":"H20431501425007","地図番号":"切-33-5","縮尺分母":"2400","市区町村コード":"01425","市区町村名":"空知郡上砂川町","大字コード":"000","丁目コード":"000","小字コード":"0001","予備コード":"00","大字名":null,"丁目名":null,"小字名":"字鶉","予備名":null,"地番":"20-5","精度区分":null,"座標値種別":"図上測量","筆界未定構成筆":null,"代表点緯度":1955.655,"代表点経度":272.52282996}},{"type":"MultiPolygon","arcs":[[[-66,80,-77,-80]]],"properties":{"筆ID":"H000000023","version":"ver1.0","座標系":"任意座標系","測地系判別":null,"地図名":"H20431501425007","地図番号":"切-33-5","縮尺分母":"2400","市区町村コード":"01425","市区町村名":"空知郡上砂川町","大字コード":"000","丁目コード":"000","小字コード":"0001","予備コード":"00","大字名":null,"丁目名":null,"小字名":"字鶉","予備名":null,"地番":"20-11","精度区分":null,"座標値種別":"図上測量","筆界未定構成筆":null,"代表点緯度":2006.082,"代表点経度":294.772989029}},{"type":"MultiPolygon","arcs":[[[-81,81,-57,-74,-75,-78]]],"properties":{"筆ID":"H000000024","version":"ver1.0","座標系":"任意座標系","測地系判別":null,"地図名":"H20431501425007","地図番号":"切-33-5","縮尺分母":"2400","市区町村コード":"01425","市区町村名":"空知郡上砂川町","大字コード":"000","丁目コード":"000","小字コード":"0001","予備コード":"00","大字名":null,"丁目名":null,"小字名":"字鶉","予備名":null,"地番":"20-4","精度区分":null,"座標値種別":"図上測量","筆界未定構成筆":null,"代表点緯度":2018.86,"代表点経度":345.878768267}},{"type":"MultiPolygon","arcs":[[[-82,-65,-58]]],"properties":{"筆ID":"H000000025","version":"ver1.0","座標系":"任意座標系","測地系判別":null,"地図名":"H20431501425007","地図番号":"切-33-5","縮尺分母":"2400","市区町村コード":"01425","市区町村名":"空知郡上砂川町","大字コード":"000","丁目コード":"000","小字コード":"0001","予備コード":"00","大字名":null,"丁目名":null,"小字名":"字鶉","予備名":null,"地番":"20-12","精度区分":null,"座標値種別":"図上測量","筆界未定構成筆":null,"代表点緯度":2033.738,"代表点経度":306.976561319}},{"type":"MultiPolygon","arcs":[[[-32,-70,-17]]],"properties":{"筆ID":"H000000026","version":"ver1.0","座標系":"任意座標系","測地系判別":null,"地図名":"H20431501425007","地図番号":"切-33-5","縮尺分母":"2400","市区町村コード":"01425","市区町村名":"空知郡上砂川町","大字コード":"000","丁目コード":"000","小字コード":"0001","予備コード":"00","大字名":null,"丁目名":null,"小字名":"字鶉","予備名":null,"地番":"18-1","精度区分":null,"座標値種別":"図上測量","筆界未定構成筆":null,"代表点緯度":1888.601,"代表点経度":269.821583333}},{"type":"MultiPolygon","arcs":[[[-69,82,-19]]],"properties":{"筆ID":"H000000027","version":"ver1.0","座標系":"任意座標系","測地系判別":null,"地図名":"H20431501425007","地図番号":"切-33-5","縮尺分母":"2400","市区町村コード":"01425","市区町村名":"空知郡上砂川町","大字コード":"000","丁目コード":"000","小字コード":"0001","予備コード":"00","大字名":null,"丁目名":null,"小字名":"字鶉","予備名":null,"地番":"18-3","精度区分":null,"座標値種別":"図上測量","筆界未定構成筆":null,"代表点緯度":1907.574,"代表点経度":224.143183597}},{"type":"MultiPolygon","arcs":[[[-68,-30,-10,-20,-83]]],"properties":{"筆ID":"H000000028","version":"ver1.0","座標系":"任意座標系","測地系判別":null,"地図名":"H20431501425007","地図番号":"切-33-5","縮尺分母":"2400","市区町村コード":"01425","市区町村名":"空知郡上砂川町","大字コード":"000","丁目コード":"000","小字コード":"0001","予備コード":"00","大字名":null,"丁目名":null,"小字名":"字鶉","予備名":null,"地番":"18","精度区分":null,"座標値種別":"図上測量","筆界未定構成筆":null,"代表点緯度":1967.038,"代表点経度":57.423991433}},{"type":"MultiPolygon","arcs":[[[-8,-71,-60,-64,-21]]],"properties":{"筆ID":"H000000029","version":"ver1.0","座標系":"任意座標系","測地系判別":null,"地図名":"H20431501425007","地図番号":"切-33-5","縮尺分母":"2400","市区町村コード":"01425","市区町村名":"空知郡上砂川町","大字コード":"000","丁目コード":"000","小字コード":"0001","予備コード":"00","大字名":null,"丁目名":null,"小字名":"字鶉","予備名":null,"地番":"19","精度区分":null,"座標値種別":"図上測量","筆界未定構成筆":null,"代表点緯度":2018.7205,"代表点経度":150.897514244}},{"type":"MultiPolygon","arcs":[[[83,-44,-62]]],"properties":{"筆ID":"H000000030","version":"ver1.0","座標系":"任意座標系","測地系判別":null,"地図名":"H20431501425007","地図番号":"切-33-6","縮尺分母":"2400","市区町村コード":"01425","市区町村名":"空知郡上砂川町","大字コード":"000","丁目コード":"000","小字コード":"0001","予備コード":"00","大字名":null,"丁目名":null,"小字名":"字鶉","予備名":null,"地番":"21-2","精度区分":null,"座標値種別":"図上測量","筆界未定構成筆":null,"代表点緯度":2114.5445,"代表点経度":204.454077438}},{"type":"MultiPolygon","arcs":[[[-73,84,-45,-84]]],"properties":{"筆ID":"H000000031","version":"ver1.0","座標系":"任意座標系","測地系判別":null,"地図名":"H20431501425007","地図番号":"切-33-5","縮尺分母":"2400","市区町村コード":"01425","市区町村名":"空知郡上砂川町","大字コード":"000","丁目コード":"000","小字コード":"0001","予備コード":"00","大字名":null,"丁目名":null,"小字名":"字鶉","予備名":null,"地番":"22-3","精度区分":null,"座標値種別":"図上測量","筆界未定構成筆":null,"代表点緯度":2101.6055,"代表点経度":187.96847656}},{"type":"MultiPolygon","arcs":[[[-42,-85,-72]]],"properties":{"筆ID":"H000000032","version":"ver1.0","座標系":"任意座標系","測地系判別":null,"地図名":"H20431501425007","地図番号":"切-33-6","縮尺分母":"2400","市区町村コード":"01425","市区町村名":"空知郡上砂川町","大字コード":"000","丁目コード":"000","小字コード":"0001","予備コード":"00","大字名":null,"丁目名":null,"小字名":"字鶉","予備名":null,"地番":"22-2","精度区分":null,"座標値種別":"図上測量","筆界未定構成筆":null,"代表点緯度":2130.025,"代表点経度":161.532174009}}]}},"arcs":[[[499999,0],[0,384670]],[[499999,384670],[5589,20568],[-5589,976]],[[499999,406214],[0,93786]],[[499999,500000],[500000,0],[0,-500000],[-500000,0]],[[11375,418146],[-5215,811],[24120,81043]],[[30280,500000],[19020,63908],[4386,-334]],[[53686,563574],[-20901,-71860]],[[32785,491714],[-8937,-30664]],[[23848,461050],[-975,-3138]],[[22873,457912],[-11498,-39766]],[[499999,406214],[-18700,3265],[-6014,1437]],[[475285,410916],[-94190,29027],[-25435,3791]],[[355660,443734],[1826,6460],[-8957,2688]],[[348529,452882],[-75344,22653],[-52264,24465]],[[220921,500000],[279078,0]],[[207753,388255],[-11076,1867]],[[196677,390122],[-2709,1511]],[[193968,391633],[-22343,11434]],[[171625,403067],[-4091,2024]],[[167534,405091],[-61866,27826],[-82795,24995]],[[23848,461050],[85489,-25702],[59277,-26810]],[[168614,408538],[5554,-2763]],[[174168,405775],[22429,-11819]],[[196597,393956],[11156,-5701]],[[334093,369279],[-9536,1384]],[[324557,370663],[21862,75346]],[[346419,446009],[2110,6873]],[[355660,443734],[-21567,-74455]],[[0,500000],[30280,0]],[[11375,418146],[153120,-23348]],[[164495,394798],[28700,-4173]],[[193195,390625],[3482,-503]],[[207753,388255],[69310,-10479]],[[277063,377776],[28984,-4342]],[[306047,373434],[18510,-2771]],[[334093,369279],[123857,-18860]],[[457950,350419],[31216,-4800],[10833,39051]],[[499999,0],[-499999,0],[0,500000]],[[0,500000],[0,499999],[499999,0],[0,-499999]],[[220921,500000],[-81665,38226]],[[139256,538226],[-31720,21527],[-53850,3821]],[[146815,495015],[-4688,4003]],[[142127,499018],[3881,1421]],[[146008,500439],[976,-5336]],[[146984,495103],[-169,-88]],[[457950,350419],[17335,60497]],[[306047,373434],[21642,75304]],[[327689,448738],[18730,-2729]],[[277063,377776],[21962,75108]],[[299025,452884],[28664,-4146]],[[196597,393956],[34586,37781]],[[231183,431737],[17153,-2477],[3524,3861]],[[251860,433121],[10665,-1596],[5312,18803]],[[267837,450328],[5877,6265]],[[273714,456593],[25311,-3709]],[[273714,456593],[-4236,514]],[[269478,457107],[-42502,6271]],[[226976,463378],[-10517,1504]],[[216459,464882],[-29966,4416]],[[186493,469298],[-35729,5249]],[[150764,474547],[-842,4558]],[[149922,479105],[16280,6246],[-12711,17977],[-7483,-2889]],[[146008,500439],[-6752,37787]],[[168614,408538],[17879,60760]],[[216459,464882],[-5279,-18689]],[[211180,446193],[-9112,-9985]],[[202068,436208],[-27900,-30433]],[[164495,394798],[299,1036]],[[164794,395834],[6831,7233]],[[193968,391633],[-773,-1008]],[[150764,474547],[-117979,17167]],[[142127,499018],[-4086,3812],[-9323,3286],[-6976,-4680],[-14334,-9489],[20670,-7918],[10081,5970]],[[138159,489999],[8652,-11999],[3111,1105]],[[267837,450328],[1641,6779]],[[251860,433121],[15977,17207]],[[231183,431737],[-23125,3565]],[[208058,435302],[1172,3817]],[[209230,439119],[42630,-5998]],[[196597,393956],[11461,41346]],[[202068,436208],[5990,-906]],[[211180,446193],[-1950,-7074]],[[211180,446193],[15796,17185]],[[164794,395834],[2740,9257]],[[149922,479105],[-2938,15998]],[[138159,489999],[8656,5016]]],"bbox":[-56.479,996.826,1623.521,3276.826],"transform":{"scale":[0.0016800016800016802,0.0022800022800022798],"translate":[-56.479,996.826]}}
