{"type":"Topology","objects":{"01458-4500-3":{"type":"GeometryCollection","geometries":[{"type":"MultiPolygon","arcs":[[[0,1]]],"properties":{"筆ID":"H000000001","version":"ver1.0","座標系":"任意座標系","測地系判別":null,"地図名":"東川町ポンクラヌマナイ（３０００）図郭無","地図番号":"開-ポ-1","縮尺分母":"3000","市区町村コード":"01458","市区町村名":"上川郡東川町","大字コード":"000","丁目コード":"000","小字コード":"0000","予備コード":"00","大字名":null,"丁目名":null,"小字名":null,"予備名":null,"地番":"1874-1","精度区分":null,"座標値種別":"図上測量","筆界未定構成筆":null,"代表点緯度":4205.832,"代表点経度":2439.028953657}},{"type":"MultiPolygon","arcs":[[[2,3,-2,4,5]]],"properties":{"筆ID":"H000000002","version":"ver1.0","座標系":"任意座標系","測地系判別":null,"地図名":"東川町ポンクラヌマナイ（３０００）図郭無","地図番号":"開-ポ-1","縮尺分母":"3000","市区町村コード":"01458","市区町村名":"上川郡東川町","大字コード":"000","丁目コード":"000","小字コード":"0000","予備コード":"00","大字名":null,"丁目名":null,"小字名":null,"予備名":null,"地番":"1874-2","精度区分":null,"座標値種別":"図上測量","筆界未定構成筆":null,"代表点緯度":4221.401,"代表点経度":2440.321167168}},{"type":"MultiPolygon","arcs":[[[6,7,-3,8]]],"properties":{"筆ID":"H000000003","version":"ver1.0","座標系":"任意座標系","測地系判別":null,"地図名":"東川町ポンクラヌマナイ（３０００）図郭無","地図番号":"開-ポ-1","縮尺分母":"3000","市区町村コード":"01458","市区町村名":"上川郡東川町","大字コード":"000","丁目コード":"000","小字コード":"0000","予備コード":"00","大字名":null,"丁目名":null,"小字名":null,"予備名":null,"地番":"1874-3","精度区分":null,"座標値種別":"図上測量","筆界未定構成筆":null,"代表点緯度":4232.5385,"代表点経度":2540.462737166}},{"type":"MultiPolygon","arcs":[[[9,10,-7,11]]],"properties":{"筆ID":"H000000004","version":"ver1.0","座標系":"任意座標系","測地系判別":null,"地図名":"東川町ポンクラヌマナイ（３０００）図郭無","地図番号":"開-ポ-1","縮尺分母":"3000","市区町村コード":"01458","市区町村名":"上川郡東川町","大字コード":"000","丁目コード":"000","小字コード":"0000","予備コード":"00","大字名":null,"丁目名":null,"小字名":null,"予備名":null,"地番":"1874-4","精度区分":null,"座標値種別":"図上測量","筆界未定構成筆":null,"代表点緯度":4239.681,"代表点経度":2540.252033271}},{"type":"MultiPolygon","arcs":[[[12,-10,13]]],"properties":{"筆ID":"H000000005","version":"ver1.0","座標系":"任意座標系","測地系判別":null,"地図名":"東川町ポンクラヌマナイ（３０００）図郭無","地図番号":"開-ポ-1","縮尺分母":"3000","市区町村コード":"01458","市区町村名":"上川郡東川町","大字コード":"000","丁目コード":"000","小字コード":"0000","予備コード":"00","大字名":null,"丁目名":null,"小字名":null,"予備名":null,"地番":"1874-5","精度区分":null,"座標値種別":"図上測量","筆界未定構成筆":null,"代表点緯度":4245.932,"代表点経度":2552.57543757}},{"type":"MultiPolygon","arcs":[[[14]]],"properties":{"筆ID":"H000000006","version":"ver1.0","座標系":"任意座標系","測地系判別":null,"地図名":"東川町ポンクラヌマナイ（３０００）図郭無","地図番号":"開-ポ-1","縮尺分母":"3000","市区町村コード":"01458","市区町村名":"上川郡東川町","大字コード":"000","丁目コード":"000","小字コード":"0000","予備コード":"00","大字名":null,"丁目名":null,"小字名":null,"予備名":null,"地番":"1875","精度区分":null,"座標値種別":"図上測量","筆界未定構成筆":null,"代表点緯度":4354.061,"代表点経度":2839.002216982}},{"type":"MultiPolygon","arcs":[[[15,16,17,18,19,20]]],"properties":{"筆ID":"H000000007","version":"ver1.0","座標系":"任意座標系","測地系判別":null,"地図名":"東川町ポンクラヌマナイ（３０００）図郭無","地図番号":"開-ポ-1","縮尺分母":"3000","市区町村コード":"01458","市区町村名":"上川郡東川町","大字コード":"000","丁目コード":"000","小字コード":"0000","予備コード":"00","大字名":null,"丁目名":null,"小字名":null,"予備名":null,"地番":"1876-1","精度区分":null,"座標値種別":"図上測量","筆界未定構成筆":null,"代表点緯度":4448.5045,"代表点経度":2454.807397694}},{"type":"MultiPolygon","arcs":[[[-16,21]]],"properties":{"筆ID":"H000000008","version":"ver1.0","座標系":"任意座標系","測地系判別":null,"地図名":"東川町ポンクラヌマナイ（３０００）図郭無","地図番号":"開-ポ-1","縮尺分母":"3000","市区町村コード":"01458","市区町村名":"上川郡東川町","大字コード":"000","丁目コード":"000","小字コード":"0000","予備コード":"00","大字名":null,"丁目名":null,"小字名":null,"予備名":null,"地番":"1876-2","精度区分":null,"座標値種別":"図上測量","筆界未定構成筆":null,"代表点緯度":4641.3735,"代表点経度":2481.982052364}},{"type":"MultiPolygon","arcs":[[[22,23,24,25,26,27]]],"properties":{"筆ID":"H000000009","version":"ver1.0","座標系":"任意座標系","測地系判別":null,"地図名":"東川町ポンクラヌマナイ（３０００）図郭無","地図番号":"開-ポ-1","縮尺分母":"3000","市区町村コード":"01458","市区町村名":"上川郡東川町","大字コード":"000","丁目コード":"000","小字コード":"0000","予備コード":"00","大字名":null,"丁目名":null,"小字名":null,"予備名":null,"地番":"1877-1","精度区分":null,"座標値種別":"図上測量","筆界未定構成筆":null,"代表点緯度":4810.889,"代表点経度":2297.268815688}},{"type":"MultiPolygon","arcs":[[[28,-24]]],"properties":{"筆ID":"H000000010","version":"ver1.0","座標系":"任意座標系","測地系判別":null,"地図名":"東川町ポンクラヌマナイ（３０００）図郭無","地図番号":"開-ポ-1","縮尺分母":"3000","市区町村コード":"01458","市区町村名":"上川郡東川町","大字コード":"000","丁目コード":"000","小字コード":"0000","予備コード":"00","大字名":null,"丁目名":null,"小字名":null,"予備名":null,"地番":"1877-2","精度区分":null,"座標値種別":"図上測量","筆界未定構成筆":null,"代表点緯度":4668.2,"代表点経度":2424.586171831}},{"type":"MultiPolygon","arcs":[[[29,-27]]],"properties":{"筆ID":"H000000011","version":"ver1.0","座標系":"任意座標系","測地系判別":null,"地図名":"東川町ポンクラヌマナイ（３０００）図郭無","地図番号":"開-ポ-1","縮尺分母":"3000","市区町村コード":"01458","市区町村名":"上川郡東川町","大字コード":"000","丁目コード":"000","小字コード":"0000","予備コード":"00","大字名":null,"丁目名":null,"小字名":null,"予備名":null,"地番":"1877-3","精度区分":null,"座標値種別":"図上測量","筆界未定構成筆":null,"代表点緯度":4695.739,"代表点経度":2181.064872549}},{"type":"MultiPolygon","arcs":[[[30,31,32,33]]],"properties":{"筆ID":"H000000012","version":"ver1.0","座標系":"任意座標系","測地系判別":null,"地図名":"東川町ポンクラヌマナイ（３０００）図郭無","地図番号":"開-ポ-1","縮尺分母":"3000","市区町村コード":"01458","市区町村名":"上川郡東川町","大字コード":"000","丁目コード":"000","小字コード":"0000","予備コード":"00","大字名":null,"丁目名":null,"小字名":null,"予備名":null,"地番":"2071","精度区分":null,"座標値種別":"図上測量","筆界未定構成筆":null,"代表点緯度":3968.264,"代表点経度":2690.061844277}},{"type":"MultiPolygon","arcs":[[[34,35,-31,36]]],"properties":{"筆ID":"H000000013","version":"ver1.0","座標系":"任意座標系","測地系判別":null,"地図名":"東川町ポンクラヌマナイ（３０００）図郭無","地図番号":"開-ポ-1","縮尺分母":"3000","市区町村コード":"01458","市区町村名":"上川郡東川町","大字コード":"000","丁目コード":"000","小字コード":"0000","予備コード":"00","大字名":null,"丁目名":null,"小字名":null,"予備名":null,"地番":"筆界未定地-19","精度区分":null,"座標値種別":"図上測量","筆界未定構成筆":[{"大字コード":"000","丁目コード":"000","小字コード":"0000","予備コード":"00","地番":"2070-1"},{"大字コード":"000","丁目コード":"000","小字コード":"0000","予備コード":"00","地番":"2070-2"}],"代表点緯度":3932.924,"代表点経度":2858.496091843}},{"type":"MultiPolygon","arcs":[[[-35,37,38,39,40]]],"properties":{"筆ID":"H000000014","version":"ver1.0","座標系":"任意座標系","測地系判別":null,"地図名":"東川町ポンクラヌマナイ（３０００）図郭無","地図番号":"開-ポ-1","縮尺分母":"3000","市区町村コード":"01458","市区町村名":"上川郡東川町","大字コード":"000","丁目コード":"000","小字コード":"0000","予備コード":"00","大字名":null,"丁目名":null,"小字名":null,"予備名":null,"地番":"筆界未定地-22","精度区分":null,"座標値種別":"図上測量","筆界未定構成筆":[{"大字コード":"000","丁目コード":"000","小字コード":"0000","予備コード":"00","地番":"2069-1"},{"大字コード":"000","丁目コード":"000","小字コード":"0000","予備コード":"00","地番":"2069-2"}],"代表点緯度":4078.935,"代表点経度":2856.649490416}},{"type":"MultiPolygon","arcs":[[[41,42]]],"properties":{"筆ID":"H000000015","version":"ver1.0","座標系":"任意座標系","測地系判別":null,"地図名":"東川町ポンクラヌマナイ（３０００）図郭無","地図番号":"開-ポ-1","縮尺分母":"3000","市区町村コード":"01458","市区町村名":"上川郡東川町","大字コード":"000","丁目コード":"000","小字コード":"0000","予備コード":"00","大字名":null,"丁目名":null,"小字名":null,"予備名":null,"地番":"筆界未定地-23","精度区分":null,"座標値種別":"図上測量","筆界未定構成筆":[{"大字コード":"000","丁目コード":"000","小字コード":"0000","予備コード":"00","地番":"2066-1"},{"大字コード":"000","丁目コード":"000","小字コード":"0000","予備コード":"00","地番":"2066-2"},{"大字コード":"000","丁目コード":"000","小字コード":"0000","予備コード":"00","地番":"2066-3"},{"大字コード":"000","丁目コード":"000","小字コード":"0000","予備コード":"00","地番":"2066-4"},{"大字コード":"000","丁目コード":"000","小字コード":"0000","予備コード":"00","地番":"2066-5"}],"代表点緯度":4261.158,"代表点経度":2980.024056576}},{"type":"MultiPolygon","arcs":[[[43,44,45]]],"properties":{"筆ID":"H000000016","version":"ver1.0","座標系":"任意座標系","測地系判別":null,"地図名":"東川町ポンクラヌマナイ（３０００）図郭無","地図番号":"開-ポ-1","縮尺分母":"3000","市区町村コード":"01458","市区町村名":"上川郡東川町","大字コード":"000","丁目コード":"000","小字コード":"0000","予備コード":"00","大字名":null,"丁目名":null,"小字名":null,"予備名":null,"地番":"筆界未定地-24","精度区分":null,"座標値種別":"図上測量","筆界未定構成筆":[{"大字コード":"000","丁目コード":"000","小字コード":"0000","予備コード":"00","地番":"2067-1"},{"大字コード":"000","丁目コード":"000","小字コード":"0000","予備コード":"00","地番":"2067-2"},{"大字コード":"000","丁目コード":"000","小字コード":"0000","予備コード":"00","地番":"2067-3"}],"代表点緯度":4019.7645,"代表点経度":3213.988122506}},{"type":"MultiPolygon","arcs":[[[-45,46,-40,47]]],"properties":{"筆ID":"H000000017","version":"ver1.0","座標系":"任意座標系","測地系判別":null,"地図名":"東川町ポンクラヌマナイ（３０００）図郭無","地図番号":"開-ポ-1","縮尺分母":"3000","市区町村コード":"01458","市区町村名":"上川郡東川町","大字コード":"000","丁目コード":"000","小字コード":"0000","予備コード":"00","大字名":null,"丁目名":null,"小字名":null,"予備名":null,"地番":"筆界未定地-25","精度区分":null,"座標値種別":"図上測量","筆界未定構成筆":[{"大字コード":"000","丁目コード":"000","小字コード":"0000","予備コード":"00","地番":"2068-1"},{"大字コード":"000","丁目コード":"000","小字コード":"0000","予備コード":"00","地番":"2068-2"},{"大字コード":"000","丁目コード":"000","小字コード":"0000","予備コード":"00","地番":"2068-3"}],"代表点緯度":4027.0535,"代表点経度":3044.114459123}},{"type":"MultiPolygon","arcs":[[[-33,48]]],"properties":{"筆ID":"H000000018","version":"ver1.0","座標系":"任意座標系","測地系判別":null,"地図名":"東川町ポンクラヌマナイ（３０００）図郭無","地図番号":"開-ポ-1","縮尺分母":"3000","市区町村コード":"01458","市区町村名":"上川郡東川町","大字コード":"000","丁目コード":"000","小字コード":"0000","予備コード":"00","大字名":null,"丁目名":null,"小字名":null,"予備名":null,"地番":"筆界未定地-26","精度区分":null,"座標値種別":"図上測量","筆界未定構成筆":[{"大字コード":"000","丁目コード":"000","小字コード":"0000","予備コード":"00","地番":"2072-1"},{"大字コード":"000","丁目コード":"000","小字コード":"0000","予備コード":"00","地番":"2072-2"}],"代表点緯度":3901.099,"代表点経度":2697.596188037}},{"type":"MultiPolygon","arcs":[[[49,-17,-22,-21,50,-25,-29,-23]]],"properties":{"筆ID":"H000000019","version":"ver1.0","座標系":"任意座標系","測地系判別":null,"地図名":"東川町ポンクラヌマナイ（３０００）図郭無","地図番号":"開-ポ-1","縮尺分母":"3000","市区町村コード":"01458","市区町村名":"上川郡東川町","大字コード":"000","丁目コード":"000","小字コード":"0000","予備コード":"00","大字名":null,"丁目名":null,"小字名":null,"予備名":null,"地番":"2938","精度区分":null,"座標値種別":"図上測量","筆界未定構成筆":null,"代表点緯度":4655.0345,"代表点経度":2770.320131926}},{"type":"MultiPolygon","arcs":[[[51,-14,-12,-9,-6,52,-19]]],"properties":{"筆ID":"H000000020","version":"ver1.0","座標系":"任意座標系","測地系判別":null,"地図名":"東川町ポンクラヌマナイ（３０００）図郭無","地図番号":"開-ポ-1","縮尺分母":"3000","市区町村コード":"01458","市区町村名":"上川郡東川町","大字コード":"000","丁目コード":"000","小字コード":"0000","予備コード":"00","大字名":null,"丁目名":null,"小字名":null,"予備名":null,"地番":"2594","精度区分":null,"座標値種別":"図上測量","筆界未定構成筆":null,"代表点緯度":4219.063,"代表点経度":2427.186018211}},{"type":"MultiPolygon","arcs":[[[53,-46,-48,-39,54,-42]]],"properties":{"筆ID":"H000000021","version":"ver1.0","座標系":"任意座標系","測地系判別":null,"地図名":"東川町ポンクラヌマナイ（３０００）図郭無","地図番号":"開-ポ-1","縮尺分母":"3000","市区町村コード":"01458","市区町村名":"上川郡東川町","大字コード":"000","丁目コード":"000","小字コード":"0000","予備コード":"00","大字名":null,"丁目名":null,"小字名":null,"予備名":null,"地番":"2593","精度区分":null,"座標値種別":null,"筆界未定構成筆":null,"代表点緯度":4201.3945,"代表点経度":2906.598640309}}]}},"arcs":[[[455054,473056],[-101892,-26372],[-1423,1780]],[[351739,448464],[18044,15643],[20081,10529],[65190,-1580]],[[387289,478770],[19580,1910],[51390,-6795]],[[458259,473885],[-3205,-829]],[[351739,448464],[-965,1366]],[[350774,449830],[36515,28940]],[[392145,482619],[14209,799],[60016,-7433]],[[466370,475985],[-8111,-2100]],[[387289,478770],[4856,3849]],[[401180,489778],[30394,-3847],[24263,-532],[26955,-3017],[2966,-1379]],[[485758,481003],[-19388,-5018]],[[392145,482619],[9035,7159]],[[505575,486132],[-19817,-5129]],[[401180,489778],[7777,6164],[96618,-9810]],[[622213,650387],[6352,-8070],[80994,-102519],[-65391,-17443],[-66519,84551],[44564,43481]],[[201280,813551],[188,-14358],[1673,96],[90097,5201],[114598,-9123],[94779,-22986],[3298,18380]],[[505913,790761],[38948,603],[23015,12392],[34679,6791],[23460,-2740]],[[626015,807807],[91673,-116120],[-106146,-27890],[-119560,-31713],[99138,-123469],[-69600,-18290]],[[521520,490325],[-33136,4060],[-79597,8051],[-61166,-47736]],[[347621,454700],[-63613,96305],[-12560,18940],[-31423,47321],[-8342,13362],[-28542,43809],[-60550,92939],[-12567,19265]],[[130024,786641],[-4794,15258],[5058,2945],[47392,6918],[11428,7803],[5368,742],[6804,-6756]],[[201280,813551],[1861,-424],[19881,-4529],[49985,3891],[5188,11405],[8346,4095],[24964,-16434],[11382,5657],[11415,-6911],[71660,4717],[29988,-501],[23790,-13283],[27634,-10760],[18539,287]],[[619662,815937],[-18137,1812],[-35184,-7866],[-22410,-11612],[-35410,-407]],[[508521,797864],[2140,16977],[-104599,20851],[-115360,9536],[-87561,-11270],[-1154,-147],[-128,-11353]],[[201859,822458],[-5732,5603],[-9164,-1597],[-10821,-7264],[-48557,-6982],[-10378,-5926]],[[117207,806292],[-1282,1964]],[[115925,808256],[23799,10519],[1863,4657],[11834,6793],[9719,2849],[25319,2811],[14682,2233],[30330,4611],[7350,-2167],[12756,3105],[7079,5458],[13310,4297],[17469,2534],[8305,518],[13172,-1064],[14532,2159],[13218,605],[15449,318],[13318,901],[51499,5805],[7758,-3117],[6993,-737],[4304,79],[8252,2189],[13733,-2671],[13623,666],[233,8283],[-12060,1785],[-22295,3281],[-12013,2857],[-8600,-3975],[-66539,-7373],[-8508,-519],[-17828,-688],[-13474,347],[-15446,-1330],[-14077,-1383],[-13115,-1616],[-22625,-6432],[-9771,-1896],[-26491,-16],[-9841,-795],[-17760,-1432],[-15289,-2999],[-21513,-5889],[-7075,-6172],[-1912,-5134],[-10882,-3153],[-18218,-6648],[-1892,-1180]],[[108600,819530],[-39999,61674],[-68601,105871],[129509,3703],[73632,1939],[47266,1245],[117658,3106],[106868,2931],[144729,-184062]],[[508521,797864],[-20964,-240],[-26265,10351],[-23333,13045],[-31912,671],[-69890,-4290],[-13088,8035],[-11280,-6195],[-24255,16915],[-13711,-6387],[-4531,-10388],[-44769,-3090],[-19967,3532],[-1415,1383],[-1282,1252]],[[115925,808256],[-2421,3712],[-4904,7562]],[[387812,445373],[99851,-105055],[135568,-143312],[136175,-143367]],[[759406,53639],[-10292,-13757]],[[749114,39882],[-379962,400429]],[[369152,440311],[18660,5062]],[[507069,476608],[46320,-48973],[136328,-143137],[135567,-142361]],[[825284,142137],[-65878,-88498]],[[387812,445373],[119257,31235]],[[507069,476608],[25461,6564]],[[532530,483172],[38241,-3908]],[[570771,479264],[285045,-296530]],[[855816,182734],[-30532,-40597]],[[916681,461813],[-68605,-28532],[-44289,-10105],[-44331,6973],[-55201,20351],[-12571,4561],[-81751,25715],[-62218,6585]],[[547715,487361],[96983,25238],[177547,47208],[94436,-97994]],[[921403,456846],[78596,-81732],[-98438,-131557]],[[901561,243557],[-136277,143070],[-51991,54352]],[[713293,440979],[44607,-16613],[46205,-6961],[45556,9818],[71742,29623]],[[901561,243557],[-45745,-60823]],[[570771,479264],[37149,-3798],[81955,-25891],[23418,-8596]],[[749114,39882],[-13925,-18613],[-11022,-14731],[-4892,-6538],[-6178,6538],[-129696,137247],[-136379,143665],[-127126,134638],[25823,11627],[1346,606],[22087,5990]],[[619662,815937],[6353,-8130]],[[130024,786641],[-12817,19651]],[[521520,490325],[-15945,-4193]],[[350774,449830],[-3153,4870]],[[916681,461813],[4722,-4967]],[[532530,483172],[15185,4189]]],"bbox":[1878.687,3628.085,3370.904,4894.28],"transform":{"scale":[0.0014922184922184923,0.001266196266196266],"translate":[1878.687,3628.085]}}
