{"type":"Topology","objects":{"函館市":{"type":"GeometryCollection","geometries":[{"type":"Polygon","arcs":[[0,1,2,3],[4]],"properties":{"A45_004":"6154","A45_007":"0","A45_009":"檜山","A45_010":"い","A45_015":"函館市","A45_016":"他Ｌ","A45_018":null,"A45_020":null,"A45_024":"森林空間利用","A45_025":33.66,"A45_026":"保健保","A45_027":null,"A45_028":null,"A45_029":null}},{"type":"Polygon","arcs":[[5,6,7,8]],"properties":{"A45_004":"6153","A45_007":"0","A45_009":"檜山","A45_010":"カ","A45_015":"函館市","A45_016":null,"A45_018":null,"A45_020":null,"A45_024":"森林空間利用","A45_025":0.41,"A45_026":null,"A45_027":null,"A45_028":null,"A45_029":null}},{"type":"MultiPolygon","arcs":[[[9,10,-1,11]],[[-3,12]]],"properties":{"A45_004":"6154","A45_007":"0","A45_009":"檜山","A45_010":"ろ","A45_015":"函館市","A45_016":"他Ｌ","A45_018":null,"A45_020":null,"A45_024":"森林空間利用","A45_025":47.36,"A45_026":"保健保","A45_027":null,"A45_028":null,"A45_029":null}},{"type":"Polygon","arcs":[[13,14,15,16,17,18,19,20]],"properties":{"A45_004":"6153","A45_007":"0","A45_009":"檜山","A45_010":"タ","A45_015":"函館市","A45_016":null,"A45_018":null,"A45_020":null,"A45_024":"森林空間利用","A45_025":0.03,"A45_026":"土流保","A45_027":null,"A45_028":null,"A45_029":null}},{"type":"MultiPolygon","arcs":[[[21,22,-16,23,24,25,26,27,28,29,30,31],[32]],[[33,34,35,36,37,38]],[[39,40,41,42,43,44,45,46],[47]],[[-20,48,-18,49,50,51]],[[52,53,54]],[[55,56,57,58]],[[59,60,61]],[[62,63,64,65]],[[66,67,68]],[[69,70]],[[71,72,73]]],"properties":{"A45_004":"6153","A45_007":"0","A45_009":"檜山","A45_010":"イ","A45_015":"函館市","A45_016":null,"A45_018":null,"A45_020":null,"A45_024":"森林空間利用","A45_025":121.22,"A45_026":"土流保","A45_027":"保健保","A45_028":null,"A45_029":null}},{"type":"Polygon","arcs":[[74]],"properties":{"A45_004":"6152","A45_007":"0","A45_009":"檜山","A45_010":"ろ","A45_015":"函館市","A45_016":"スギ","A45_018":"イタヤカエデ","A45_020":null,"A45_024":"水源涵養","A45_025":3.93,"A45_026":null,"A45_027":null,"A45_028":null,"A45_029":null}},{"type":"Polygon","arcs":[[75,76,77]],"properties":{"A45_004":"6152","A45_007":"0","A45_009":"檜山","A45_010":"い","A45_015":"函館市","A45_016":"スギ","A45_018":null,"A45_020":null,"A45_024":"水源涵養","A45_025":3.38,"A45_026":null,"A45_027":null,"A45_028":null,"A45_029":null}},{"type":"MultiPolygon","arcs":[[[78,79,80,81,82]],[[83,84,85]]],"properties":{"A45_004":"6156","A45_007":"0","A45_009":"檜山","A45_010":"ろ","A45_015":"函館市","A45_016":"他Ｌ","A45_018":null,"A45_020":null,"A45_024":"森林空間利用","A45_025":3.04,"A45_026":"保健保","A45_027":null,"A45_028":null,"A45_029":null}},{"type":"Polygon","arcs":[[86,-77,87,88]],"properties":{"A45_004":"6152","A45_007":"0","A45_009":"檜山","A45_010":"は","A45_015":"函館市","A45_016":"トドマツ","A45_018":null,"A45_020":null,"A45_024":"水源涵養","A45_025":0.74,"A45_026":null,"A45_027":null,"A45_028":null,"A45_029":null}},{"type":"Polygon","arcs":[[89,-58,90,-34,91,92]],"properties":{"A45_004":"6153","A45_007":"0","A45_009":"檜山","A45_010":"ト","A45_015":"函館市","A45_016":null,"A45_018":null,"A45_020":null,"A45_024":"森林空間利用","A45_025":0.06,"A45_026":"土流保","A45_027":null,"A45_028":null,"A45_029":null}},{"type":"MultiPolygon","arcs":[[[93]],[[94]]],"properties":{"A45_004":"6155","A45_007":"0","A45_009":"檜山","A45_010":"ホ","A45_015":"函館市","A45_016":null,"A45_018":null,"A45_020":null,"A45_024":"森林空間利用","A45_025":0.02,"A45_026":"土流保","A45_027":"保健保","A45_028":null,"A45_029":null}},{"type":"Polygon","arcs":[[-61,95,-28,96,-63,97,-36,98]],"properties":{"A45_004":"6153","A45_007":"0","A45_009":"檜山","A45_010":"リ","A45_015":"函館市","A45_016":null,"A45_018":null,"A45_020":null,"A45_024":"森林空間利用","A45_025":0.02,"A45_026":"土流保","A45_027":null,"A45_028":null,"A45_029":null}},{"type":"MultiPolygon","arcs":[[[99,-38,100,-71,101,-42,102,-40,103,104]],[[-65,105,-73,106]]],"properties":{"A45_004":"6153","A45_007":"0","A45_009":"檜山","A45_010":"チ","A45_015":"函館市","A45_016":null,"A45_018":null,"A45_020":null,"A45_024":"森林空間利用","A45_025":0.07,"A45_026":"土流保","A45_027":null,"A45_028":null,"A45_029":null}},{"type":"MultiPolygon","arcs":[[[107,-85,108,109]],[[110,-80]]],"properties":{"A45_004":"6156","A45_007":"0","A45_009":"檜山","A45_010":"い","A45_015":"函館市","A45_016":"他Ｌ","A45_018":null,"A45_020":null,"A45_024":"森林空間利用","A45_025":2.86,"A45_026":"保健保","A45_027":null,"A45_028":null,"A45_029":null}},{"type":"Polygon","arcs":[[-25,111]],"properties":{"A45_004":"6153","A45_007":"0","A45_009":"檜山","A45_010":"レ","A45_015":"函館市","A45_016":null,"A45_018":null,"A45_020":null,"A45_024":"森林空間利用","A45_025":0.02,"A45_026":null,"A45_027":null,"A45_028":null,"A45_029":null}},{"type":"Polygon","arcs":[[-49,-19]],"properties":{"A45_004":"6153","A45_007":"0","A45_009":"檜山","A45_010":"ニ","A45_015":"函館市","A45_016":null,"A45_018":null,"A45_020":null,"A45_024":"森林空間利用","A45_025":0.13,"A45_026":"土流保","A45_027":null,"A45_028":null,"A45_029":null}},{"type":"MultiPolygon","arcs":[[[112,113,114,115,-22],[116],[-95],[-94]],[[117,118,-55,119,-51]]],"properties":{"A45_004":"6155","A45_007":"0","A45_009":"檜山","A45_010":"イ","A45_015":"函館市","A45_016":null,"A45_018":null,"A45_020":null,"A45_024":"森林空間利用","A45_025":119.37,"A45_026":"土流保","A45_027":"保健保","A45_028":null,"A45_029":null}},{"type":"Polygon","arcs":[[-31,120,121]],"properties":{"A45_004":"6153","A45_007":"0","A45_009":"檜山","A45_010":"ヌ","A45_015":"函館市","A45_016":null,"A45_018":null,"A45_020":null,"A45_024":"森林空間利用","A45_025":0.05,"A45_026":null,"A45_027":null,"A45_028":null,"A45_029":null}},{"type":"Polygon","arcs":[[122,-120]],"properties":{"A45_004":"6155","A45_007":"0","A45_009":"檜山","A45_010":"ハ","A45_015":"函館市","A45_016":null,"A45_018":null,"A45_020":null,"A45_024":"森林空間利用","A45_025":0.67,"A45_026":null,"A45_027":null,"A45_028":null,"A45_029":null}},{"type":"Polygon","arcs":[[-111,-79,123,124,125,-86,-108,126,-81]],"properties":{"A45_004":"6156","A45_007":"0","A45_009":"檜山","A45_010":"イ","A45_015":"函館市","A45_016":null,"A45_018":null,"A45_020":null,"A45_024":"森林空間利用","A45_025":0.78,"A45_026":null,"A45_027":null,"A45_028":null,"A45_029":null}},{"type":"Polygon","arcs":[[-5]],"properties":{"A45_004":"6154","A45_007":"0","A45_009":"檜山","A45_010":"イ","A45_015":"函館市","A45_016":null,"A45_018":null,"A45_020":null,"A45_024":"森林空間利用","A45_025":0.2,"A45_026":"土流保","A45_027":null,"A45_028":null,"A45_029":null}},{"type":"MultiPolygon","arcs":[[[-92,-39,-100,127]],[[-104,-47,128]],[[-30,-6,129,-121]],[[-8,-59,-90,130]]],"properties":{"A45_004":"6153","A45_007":"0","A45_009":"檜山","A45_010":"ロ","A45_015":"函館市","A45_016":null,"A45_018":null,"A45_020":null,"A45_024":"森林空間利用","A45_025":10.27,"A45_026":"土流保","A45_027":"保健保","A45_028":null,"A45_029":null}},{"type":"Polygon","arcs":[[-41,-103]],"properties":{"A45_004":"6153","A45_007":"0","A45_009":"檜山","A45_010":"ネ","A45_015":"函館市","A45_016":null,"A45_018":null,"A45_020":null,"A45_024":"森林空間利用","A45_025":0.01,"A45_026":"土流保","A45_027":"保健保","A45_028":null,"A45_029":null}},{"type":"Polygon","arcs":[[-48]],"properties":{"A45_004":"6153","A45_007":"0","A45_009":"檜山","A45_010":"ラ","A45_015":"函館市","A45_016":null,"A45_018":null,"A45_020":null,"A45_024":"森林空間利用","A45_025":0.01,"A45_026":"土流保","A45_027":"保健保","A45_028":null,"A45_029":null}},{"type":"MultiPolygon","arcs":[[[131,132,133,-26,-112,-24,-15,134,-21,-52,-123,-54],[135]],[[-44,136,-68,137]]],"properties":{"A45_004":"6153","A45_007":"0","A45_009":"檜山","A45_010":"ハ","A45_015":"函館市","A45_016":null,"A45_018":null,"A45_020":null,"A45_024":"森林空間利用","A45_025":1.06,"A45_026":null,"A45_027":null,"A45_028":null,"A45_029":null}},{"type":"Polygon","arcs":[[-62,-99,-35,-91,-57]],"properties":{"A45_004":"6153","A45_007":"0","A45_009":"檜山","A45_010":"ソ","A45_015":"函館市","A45_016":null,"A45_018":null,"A45_020":null,"A45_024":"森林空間利用","A45_025":0.52,"A45_026":"土流保","A45_027":null,"A45_028":null,"A45_029":null}},{"type":"Polygon","arcs":[[138]],"properties":{"A45_004":"6151","A45_007":"0","A45_009":"檜山","A45_010":"は","A45_015":"函館市","A45_016":"アカマツ","A45_018":"スギ","A45_020":"欧州アカマツ","A45_024":"森林空間利用","A45_025":0.22,"A45_026":"保健保","A45_027":"風致保","A45_028":null,"A45_029":null}},{"type":"Polygon","arcs":[[139]],"properties":{"A45_004":"6151","A45_007":"0","A45_009":"檜山","A45_010":"ろ","A45_015":"函館市","A45_016":"アカマツ","A45_018":"スギ","A45_020":"カツラ","A45_024":"森林空間利用","A45_025":0.48,"A45_026":"保健保","A45_027":"風致保","A45_028":null,"A45_029":null}},{"type":"Polygon","arcs":[[-45,-138,-67,140]],"properties":{"A45_004":"6153","A45_007":"0","A45_009":"檜山","A45_010":"ワ","A45_015":"函館市","A45_016":null,"A45_018":null,"A45_020":null,"A45_024":"森林空間利用","A45_025":0.07,"A45_026":"土流保","A45_027":null,"A45_028":null,"A45_029":null}},{"type":"Polygon","arcs":[[141]],"properties":{"A45_004":"6152","A45_007":"0","A45_009":"檜山","A45_010":"ほ","A45_015":"函館市","A45_016":"他Ｌ","A45_018":null,"A45_020":null,"A45_024":"水源涵養","A45_025":0.17,"A45_026":null,"A45_027":null,"A45_028":null,"A45_029":null}},{"type":"Polygon","arcs":[[-23,142,-50,-17]],"properties":{"A45_004":"6153","A45_007":"0","A45_009":"檜山","A45_010":"ホ","A45_015":"函館市","A45_016":null,"A45_018":null,"A45_020":null,"A45_024":"森林空間利用","A45_025":0.02,"A45_026":"土流保","A45_027":null,"A45_028":null,"A45_029":null}},{"type":"Polygon","arcs":[[-33]],"properties":{"A45_004":"6153","A45_007":"0","A45_009":"檜山","A45_010":"ナ","A45_015":"函館市","A45_016":null,"A45_018":null,"A45_020":null,"A45_024":"森林空間利用","A45_025":0.01,"A45_026":"土流保","A45_027":"保健保","A45_028":null,"A45_029":null}},{"type":"Polygon","arcs":[[-117]],"properties":{"A45_004":"6155","A45_007":"0","A45_009":"檜山","A45_010":"ロ","A45_015":"函館市","A45_016":null,"A45_018":null,"A45_020":null,"A45_024":"森林空間利用","A45_025":0.63,"A45_026":"土流保","A45_027":null,"A45_028":null,"A45_029":null}},{"type":"Polygon","arcs":[[-136]],"properties":{"A45_004":"6153","A45_007":"0","A45_009":"檜山","A45_010":"ヨ","A45_015":"函館市","A45_016":null,"A45_018":null,"A45_020":null,"A45_024":"森林空間利用","A45_025":0.02,"A45_026":null,"A45_027":null,"A45_028":null,"A45_029":null}},{"type":"Polygon","arcs":[[-114,143]],"properties":{"A45_004":"6155","A45_007":"0","A45_009":"檜山","A45_010":"い","A45_015":"函館市","A45_016":"他Ｌ","A45_018":null,"A45_020":null,"A45_024":"森林空間利用","A45_025":31.13,"A45_026":"土流保","A45_027":"保健保","A45_028":null,"A45_029":null}},{"type":"Polygon","arcs":[[-14,-135]],"properties":{"A45_004":"6153","A45_007":"0","A45_009":"檜山","A45_010":"ム","A45_015":"函館市","A45_016":null,"A45_018":null,"A45_020":null,"A45_024":"森林空間利用","A45_025":0.02,"A45_026":null,"A45_027":null,"A45_028":null,"A45_029":null}},{"type":"MultiPolygon","arcs":[[[-29,-96,-60,-56,-7]],[[-98,-66,-107,-72,144,-102,-70,-101,-37]]],"properties":{"A45_004":"6153","A45_007":"0","A45_009":"檜山","A45_010":"ヘ","A45_015":"函館市","A45_016":null,"A45_018":null,"A45_020":null,"A45_024":"森林空間利用","A45_025":1.34,"A45_026":"土流保","A45_027":null,"A45_028":null,"A45_029":null}},{"type":"Polygon","arcs":[[145,-88,-76]],"properties":{"A45_004":"6152","A45_007":"0","A45_009":"檜山","A45_010":"に","A45_015":"函館市","A45_016":"他Ｌ","A45_018":null,"A45_020":null,"A45_024":"水源涵養","A45_025":0.45,"A45_026":null,"A45_027":null,"A45_028":null,"A45_029":null}},{"type":"Polygon","arcs":[[-87,146]],"properties":{"A45_004":"6152","A45_007":"0","A45_009":"檜山","A45_010":"イ","A45_015":"函館市","A45_016":null,"A45_018":null,"A45_020":null,"A45_024":"水源涵養","A45_025":0.86,"A45_026":null,"A45_027":null,"A45_028":null,"A45_029":null}},{"type":"Polygon","arcs":[[-133,147]],"properties":{"A45_004":"6153","A45_007":"0","A45_009":"檜山","A45_010":"ル","A45_015":"函館市","A45_016":null,"A45_018":null,"A45_020":null,"A45_024":"森林空間利用","A45_025":0.37,"A45_026":null,"A45_027":null,"A45_028":null,"A45_029":null}},{"type":"Polygon","arcs":[[148]],"properties":{"A45_004":"6151","A45_007":"0","A45_009":"檜山","A45_010":"い","A45_015":"函館市","A45_016":"ヤチダモ","A45_018":null,"A45_020":null,"A45_024":"森林空間利用","A45_025":0.92,"A45_026":"保健保","A45_027":"風致保","A45_028":null,"A45_029":null}},{"type":"Polygon","arcs":[[-116,149,-118,-143]],"properties":{"A45_004":"6155","A45_007":"0","A45_009":"檜山","A45_010":"ニ","A45_015":"函館市","A45_016":null,"A45_018":null,"A45_020":null,"A45_024":"森林空間利用","A45_025":0.11,"A45_026":"土流保","A45_027":null,"A45_028":null,"A45_029":null}},{"type":"MultiPolygon","arcs":[[[-124,-83,150,-10,151]],[[-109,-84,-126,152]]],"properties":{"A45_004":"6156","A45_007":"0","A45_009":"檜山","A45_010":"は","A45_015":"函館市","A45_016":"他Ｌ","A45_018":null,"A45_020":null,"A45_024":"森林空間利用","A45_025":57.83,"A45_026":"保健保","A45_027":null,"A45_028":null,"A45_029":null}}]}},"arcs":[[[141.14103906829865,41.809138419802416],[141.13496995300122,41.81304859111981],[141.13366335677875,41.81390011419909],[141.13349703436091,41.813001050258485],[141.1332074355749,41.81127235993165],[141.13312747235517,41.810769084026205],[141.1329222803392,41.80959005213941],[141.13272125578152,41.808375747043264]],[[141.13272125578152,41.808375747043264],[141.13275319700273,41.80837297083615],[141.13374950103884,41.808280514234525],[141.13377559037139,41.80862575137752],[141.13383084202002,41.80899681884829],[141.13388664585221,41.80941399276173],[141.13454158612552,41.809430400892495],[141.1350465401659,41.80943097196199],[141.1355014972965,41.809456261797266],[141.13605228078845,41.80945627888434],[141.13614506474318,41.809192147100134],[141.13628507839388,41.80874026115435],[141.13633508159893,41.80859611332015],[141.13641092142717,41.80836058897024],[141.13600402406672,41.80818531919732],[141.1355585188108,41.808008659072584],[141.1353543709077,41.8080017091118],[141.1346430413435,41.808109450590855],[141.13371811829674,41.80822746322706],[141.13274875615042,41.808326865292834],[141.13271209168994,41.80833047517148]],[[141.13271209168994,41.80833047517148],[141.13237584686811,41.80634486922054]],[[141.13237584686811,41.80634486922054],[141.13259055730856,41.806212946770295],[141.1329635888987,41.80602298207514],[141.1334682812364,41.805754141440666],[141.13367493465074,41.805641661433754],[141.13401908091606,41.80546474859949],[141.13455071514358,41.80518702086453],[141.13521650663674,41.80484208409513],[141.13540536156842,41.80513733242212],[141.13557838843207,41.80538925231234],[141.13571836161333,41.80562284042196],[141.13589138667834,41.805880870306105],[141.13564388875471,41.806236929890574],[141.13596301408205,41.80646052473361],[141.13627769585918,41.80666550990555],[141.13694317978417,41.80687189532193],[141.13753894916346,41.80704161627779],[141.13857383681335,41.807363554684514],[141.138887414223,41.807474662326],[141.139473461931,41.80763716172583],[141.1404580783779,41.807934935349174],[141.1407977658045,41.80799688334968],[141.14050027276966,41.808352108363295],[141.14024888707667,41.80869372573506],[141.1406566154107,41.80892982205388],[141.14103906829865,41.809138419802416]],[[141.13896865088276,41.810011583268135],[141.13876645181057,41.80992686443346],[141.13867423083133,41.810058234699966],[141.1388694862381,41.81014906262937],[141.13896865088276,41.810011583268135]],[[141.15122515941385,41.80299392512972],[141.15124098118662,41.8031597394306],[141.15133593430613,41.80384132661612],[141.15174863858903,41.80445376672816],[141.15208803283673,41.80480290243217],[141.1524071536674,41.80510232091558]],[[141.1524071536674,41.80510232091558],[141.15227576901174,41.80523952328559],[141.15226965811843,41.805245633279576],[141.15224965899478,41.80526535181473],[141.15221632742185,41.8052978470182]],[[141.15221632742185,41.8052978470182],[141.15171278891427,41.804815110729],[141.1512409191334,41.80425183025796],[141.15105763010575,41.80375993887031],[141.1510487466026,41.803680225662106],[141.1510334779129,41.80354246481313],[141.15098876811743,41.80340747927197],[141.15093850320963,41.80325527441158],[141.150814918374,41.80300474397398]],[[141.150814918374,41.80300474397398],[141.15094018404244,41.80300197136409],[141.15122515941385,41.80299392512972]],[[141.14252055388073,41.80995614725861],[141.14186643019178,41.81024636927474],[141.14122786027778,41.810542980074665],[141.14060484503779,41.81082348221815],[141.1399721090259,41.81110287279954],[141.13942353336955,41.81135532508841],[141.1388674591662,41.81159666715268],[141.13825583204124,41.81187578074286],[141.13774947595786,41.81210490371853],[141.1371989568666,41.812353190347665],[141.13640817489755,41.81271062229756],[141.13575932843054,41.81300945442296],[141.1351418683028,41.81329134511969],[141.13432525510672,41.813657109288386],[141.13367057473744,41.813961217736214],[141.1335930828547,41.81394705071602],[141.13235348162806,41.813790919415624],[141.1319887957465,41.81373619207181],[141.1308777948746,41.813572564922126],[141.1299695506545,41.81344477395737],[141.12935127843895,41.81337115185738],[141.12761533687848,41.8131489006015],[141.1263318523334,41.81298026962394],[141.12446092523174,41.8127346836589],[141.12426122177823,41.81271384726642],[141.12384154235355,41.81265384090221]],[[141.12384154235355,41.81265384090221],[141.12403655044665,41.81220084609235],[141.12413322217066,41.81194504562756],[141.1242507275893,41.8116475858676],[141.12441184383175,41.81131374223559],[141.1245165689847,41.8110926609977],[141.12458407119817,41.810949623826275],[141.12467713124482,41.81071271092309],[141.12480574868658,41.810389142944814],[141.12487686167805,41.8102461066727],[141.12506381274505,41.80983866162513],[141.1252554852527,41.8094328830213],[141.12537159942002,41.80919374879265],[141.12549132166743,41.80899183300687],[141.12577740590285,41.80900934010917],[141.12610015369938,41.80901601577669],[141.12628208295206,41.809002411732145],[141.1268184242311,41.80898687504447],[141.12737726384984,41.80894300971232],[141.1279558282991,41.80885081661211],[141.12818247723982,41.80880805115084],[141.12862382942643,41.808746128331336],[141.12902157528566,41.80866476216926],[141.12954958434608,41.808638115257004],[141.1305133895815,41.80855426696603],[141.13163523807606,41.80846792395573],[141.13272125578152,41.808375747043264]],[[141.14103906829865,41.809138419802416],[141.141425409855,41.809355627660295],[141.14180953008594,41.80955867209524],[141.14237085003498,41.809876707444275],[141.14252055388073,41.80995614725861]],[[141.13271209168994,41.80833047517148],[141.13162885199011,41.80843070641219],[141.1305089487292,41.808512604972925],[141.12955847504378,41.808592009713664],[141.12902102400125,41.80859310418861],[141.1290293769045,41.808222871288706],[141.12931047080184,41.80807678631481],[141.1296679504158,41.807870989055104],[141.13004820625991,41.80765491614164],[141.13050901258106,41.80738662859021],[141.1307573315858,41.80723498940348],[141.1312792450414,41.80695726076919],[141.131403405443,41.80687144206359],[141.13150090004677,41.80681311833097],[141.1318983761094,41.806595378973775],[141.13233640440177,41.806369031305955],[141.13237584686811,41.80634486922054]],[[141.1530219553992,41.80761564994248],[141.15313527717154,41.807639540432646],[141.15329720460255,41.80767398536637]],[[141.15329720460255,41.80767398536637],[141.15337608593785,41.807690651602506],[141.15379215368517,41.80777898840978],[141.15374353993272,41.80791452613465],[141.1539157430173,41.807978690964035]],[[141.1539157430173,41.807978690964035],[141.15428292361827,41.808115907723156],[141.15505144916523,41.808395343270654],[141.15582691837784,41.80867894537721],[141.15626353563385,41.808837828603096],[141.15642629673647,41.80888144032639],[141.15684125561967,41.808935612788495]],[[141.15684125561967,41.808935612788495],[141.15686097505414,41.80896699912789]],[[141.15686097505414,41.80896699912789],[141.15647795739204,41.808916437443834],[141.15641074116303,41.80890615909214]],[[141.15641074116303,41.80890615909214],[141.15633713704943,41.80890365717824],[141.15627769905683,41.808879490596205],[141.15624409229127,41.80886671392789]],[[141.15624409229127,41.80886671392789],[141.15579580813022,41.80870755191222],[141.15534835764078,41.80854644556223],[141.15483508127426,41.808371450082575],[141.15435874635926,41.808195622730004],[141.15390407431386,41.808029240057564]],[[141.15390407431386,41.808029240057564],[141.15386435575562,41.80801479604622],[141.15368104334567,41.80795174187959],[141.1537138263323,41.80781120392413],[141.15301139915704,41.80765036827005],[141.15285058238868,41.807614810875],[141.1528578057434,41.80758064922775],[141.1530219553992,41.80761564994248]],[[141.17171819793674,41.80475936535266],[141.17156432393466,41.804750194066386],[141.1691662088537,41.80472984330782],[141.1659892772836,41.80470585569089],[141.1652206986766,41.805351032024696],[141.16442323294604,41.80602120411549],[141.16368021037368,41.80663582868071],[141.1628824667527,41.80730322276571],[141.16212833395565,41.80792090322728],[141.16052562695637,41.80923347184744],[141.1593895655762,41.810170267743835],[141.15703093972633,41.809302796986685]],[[141.15703093972633,41.809302796986685],[141.15700344565275,41.80923919333429],[141.15682182486756,41.80872536028731],[141.15678155142774,41.808736190822735],[141.15684125561967,41.808935612788495]],[[141.1539157430173,41.807978690964035],[141.15398825175663,41.80770122583112]],[[141.15398825175663,41.80770122583112],[141.15403935842988,41.80770955984848],[141.15411657332146,41.807712895434],[141.15412879510808,41.807701231227036],[141.15414990489438,41.80767206801174],[141.15413907615772,41.80761346369057],[141.15406019572168,41.80758679789261],[141.1540257561839,41.807573465443284]],[[141.1540257561839,41.807573465443284],[141.15412048896968,41.80722628666399],[141.154124659126,41.80715990680448]],[[141.154124659126,41.80715990680448],[141.15415353725615,41.80730072444908],[141.15479598234896,41.80724241780353],[141.15546730737054,41.80730354292439],[141.15543815134987,41.80715550372371],[141.15543176526404,41.80711217618619],[141.1549032049192,41.80706161000552],[141.1548907124366,41.80696217736276]],[[141.1548907124366,41.80696217736276],[141.15497070173677,41.80699967459549],[141.15544066405567,41.80693080900983],[141.15543233363547,41.80687609335722],[141.15496542811223,41.8069444040612],[141.15493932259193,41.80688052161899],[141.1548682203923,41.806858300270555],[141.15468184938806,41.80684051797573],[141.15436382393153,41.80681439986489],[141.15399191739328,41.80673967519607]],[[141.15399191739328,41.80673967519607],[141.15381361330782,41.80651052973734],[141.15322008413983,41.80601779298694],[141.15314426679475,41.80584919888161],[141.15272627000155,41.80547950827287],[141.1524071536674,41.80510232091558]],[[141.1524071536674,41.80510232091558],[141.15315490667382,41.80434549105178],[141.1532879586726,41.804196068693834]],[[141.1532879586726,41.804196068693834],[141.1533382298756,41.804238843148305],[141.1542097898502,41.804721591128725],[141.1549549761914,41.80513323241297],[141.154947203351,41.80505990708924]],[[141.154947203351,41.80505990708924],[141.15511555014274,41.80456163860896],[141.15520472242025,41.80432333715248],[141.15534917692327,41.80391200163779],[141.1554050131311,41.80377479836846],[141.1555108516447,41.803497334134875],[141.15568447026232,41.80310433219939],[141.15582586617103,41.802741880233775],[141.15596142997623,41.80237776092515],[141.1560861578501,41.802081688819094],[141.15623699933832,41.801701739643754],[141.15634478218618,41.80143760785951],[141.15652479318493,41.80095933760356],[141.15663285392333,41.80068937371584],[141.1567556383623,41.80038746860697],[141.15691008972914,41.799998910221746],[141.15710343407642,41.79951202985647],[141.15723899698236,41.799150966444124],[141.15736372485622,41.79885489523742],[141.157456784903,41.79862798009743],[141.1576017942876,41.798238032259576],[141.15779180304952,41.79778003721912],[141.15794014532167,41.79737870126626],[141.15810932128835,41.79695403510083],[141.15828044069002,41.79652075882614],[141.15839211310578,41.79624190783794],[141.15850128810422,41.7959358370694],[141.15857045676142,41.79578113479173],[141.15847825736597,41.79553116193375],[141.15852104531024,41.79528035990091],[141.15856355626335,41.79501511565525],[141.1586274369069,41.7950506685537],[141.15873770278296,41.795082891262595],[141.15930125125197,41.79530454896599],[141.1599400675803,41.795537040802],[141.16031586008916,41.795675092132],[141.16051694939796,41.79574397930139],[141.16071053926026,41.795801756246235],[141.16098717611754,41.7958900876576],[141.1613315669984,41.79627616391405],[141.16165596325237,41.796611967168744],[141.16175983494867,41.796732234405276],[141.16215616707365,41.79711775488066],[141.16257443726076,41.79755077215059],[141.1626544256614,41.79762354439128],[141.16270747307163,41.797687981715164],[141.16306547339315,41.79809405619596],[141.16316906899755,41.7981923808739],[141.16330544039403,41.798297928007166],[141.1635095802032,41.79843597394125],[141.16408561485952,41.79885344193297],[141.1641358869619,41.79887316316616],[141.16479802001282,41.799386177830065],[141.1652624209242,41.799404247008624],[141.16600040909185,41.799414269053486],[141.16626038600822,41.79941483292838],[141.16663895022768,41.79963065223301],[141.16695530114652,41.799793698420665],[141.1671402764029,41.79994063055583],[141.16737191208432,41.80011589493277],[141.1676893691693,41.80035948710087],[141.16795822239425,41.800569191914846],[141.1681001480037,41.80066724140027],[141.168769796689,41.8008836245798],[141.16926502096413,41.80103251184112],[141.16921835064664,41.80117804822855],[141.1689733150667,41.80219236298734],[141.16906549917366,41.80271452555513],[141.16916878900867,41.80332556722134],[141.16930624228945,41.80393077588479],[141.169327897065,41.8040932581975],[141.16962369937443,41.80417436805283],[141.17017114008632,41.80433547800009],[141.17064136770517,41.804471586794484],[141.17121936198424,41.804629641744775],[141.17171819793674,41.80475936535266]],[[141.16016157689552,41.8028561696767],[141.1602829547948,41.80286200717608],[141.1603126800864,41.80277201921352],[141.16018491430265,41.802762570936125],[141.16016157689552,41.8028561696767]],[[141.15198966678992,41.80553086675633],[141.15245321514402,41.805915281065545],[141.1524573808037,41.80591861395306],[141.15258819618856,41.80603110385255],[141.1526776283701,41.806108319643435],[141.15285649183392,41.80625719701225]],[[141.15285649183392,41.80625719701225],[141.152854543003,41.80633357643359],[141.15271177832614,41.80633968193097],[141.15273844142615,41.80636856905442],[141.15285787499118,41.8063657946459],[141.15288898344005,41.806363018438724],[141.15289259781542,41.80628691690787]],[[141.15289259781542,41.80628691690787],[141.15300869309698,41.806383575142085],[141.15338419962137,41.80663994487775],[141.15352474117407,41.80667744480842],[141.153631119281,41.80669939096434]],[[141.153631119281,41.80669939096434],[141.15376748528143,41.80687270740969],[141.15374109377666,41.80695991826581],[141.1537322048776,41.80698463703157]],[[141.1537322048776,41.80698463703157],[141.15338362675317,41.80695601880541],[141.15329280062252,41.806965181098406],[141.15311254141085,41.806942678262196],[141.15300116397276,41.80691601066558],[141.15294367121368,41.8068768469891],[141.15279007780003,41.80681296094958],[141.1526734240395,41.80676185337705],[141.15250066607308,41.806689634219424],[141.15238512387458,41.80664824562023],[141.15225291633925,41.80659630437617],[141.15214903924704,41.806561303661454],[141.1521021000321,41.80653436177158],[141.15193017663654,41.80644020095473],[141.15171492570352,41.80630882079566],[141.15152967435523,41.806151056326364],[141.15145385161424,41.80607106342904]],[[141.15145385161424,41.80607106342904],[141.15181772900524,41.805705007880015],[141.1518371732472,41.80567640134505],[141.15198966678992,41.80553086675633]],[[141.15141690926322,41.806114667957786],[141.15151133987666,41.80620104963896],[141.15173547611158,41.80637436878231],[141.15188073460848,41.806480749587145],[141.1520826539915,41.806596575971405],[141.15235318085485,41.80667435293923],[141.15248594327187,41.80673129531323]],[[141.15248594327187,41.80673129531323],[141.15245760473493,41.806866555147614],[141.15253231861183,41.80688100095762],[141.15253926497536,41.80684433829576],[141.15255621269927,41.80675962665567]],[[141.15255621269927,41.80675962665567],[141.15267258856937,41.80680629157728],[141.1527489679907,41.806844344591],[141.15285978874846,41.806896841616144],[141.15292505884457,41.80692767397318],[141.1529533892877,41.806938507206546],[141.1530361565936,41.8069701723358],[141.1531014275891,41.80699517169001],[141.15337917690778,41.80706294999532],[141.15368386811627,41.80711406476246]],[[141.15368386811627,41.80711406476246],[141.15351749443704,41.807128501579314]],[[141.15351749443704,41.807128501579314],[141.15307587155445,41.807045719884286],[141.15241733039574,41.80687516435756],[141.1524037146599,41.806969596769704]],[[141.1524037146599,41.806969596769704],[141.15233455499603,41.806960429080725],[141.15218345899967,41.80694431502831],[141.15079331216185,41.8068603920936]],[[141.15079331216185,41.8068603920936],[141.1507935954483,41.806760960350225]],[[141.1507935954483,41.806760960350225],[141.15141690926322,41.806114667957786]],[[141.1523242874361,41.80680433555187],[141.15240816810268,41.806808782699356],[141.15241067001665,41.80676351082759],[141.15232595567858,41.80675656356476],[141.1523242874361,41.80680433555187]],[[141.15624409229127,41.80886671392789],[141.15622770304634,41.80888976624993],[141.15638768524371,41.80894670862392],[141.15641074116303,41.80890615909214]],[[141.15686097505414,41.80896699912789],[141.1569312336897,41.80918558564643],[141.15695928084637,41.80927640907923]],[[141.15695928084637,41.80927640907923],[141.15686512542544,41.80924196594418],[141.15581385302715,41.808861423216285],[141.15386934789234,41.80816144489494]],[[141.15386934789234,41.80816144489494],[141.15390407431386,41.808029240057564]],[[141.15077691482298,41.80702870471117],[141.15181181776137,41.80707317708568],[141.15235898687803,41.80714568492561]],[[141.15235898687803,41.80714568492561],[141.1522656381489,41.80757479823853]],[[141.1522656381489,41.80757479823853],[141.15077691482298,41.80702870471117]],[[141.15221632742185,41.8052978470182],[141.15283068219043,41.8058844630977]],[[141.15283068219043,41.8058844630977],[141.15281318138346,41.80592806762644],[141.15284011787736,41.806018336177495],[141.15285094571476,41.8061058258234],[141.15285177668835,41.806142766375764],[141.15285788488376,41.806189426800806]],[[141.15285788488376,41.806189426800806],[141.15279233779637,41.806140263562504],[141.15274151171167,41.806092490676114],[141.1526090289837,41.806002220326434],[141.15238711587295,41.8058025141749],[141.1520177220405,41.805497538780564]],[[141.1520177220405,41.805497538780564],[141.15221632742185,41.8052978470182]],[[141.15283068219043,41.8058844630977],[141.15294233302254,41.805993898000224],[141.1529803824389,41.8060316722241],[141.15354752100149,41.806593289848635],[141.15359529119002,41.806653839403396]],[[141.15359529119002,41.806653839403396],[141.15344502976455,41.8066077293634],[141.15329504802827,41.806527733768114],[141.15317756419353,41.806440796305935],[141.15303897057225,41.80633774838856],[141.152959260062,41.80626525493778],[141.15289454574696,41.80621692537102]],[[141.15289454574696,41.80621692537102],[141.15289732914863,41.806131657949834],[141.15289038728173,41.80610193895352],[141.152888720838,41.80609416161644],[141.1528881668557,41.80605249962338],[141.15287095203308,41.80596584274962],[141.15283068219043,41.8058844630977]],[[141.15399247137572,41.806774671414125],[141.15409523780517,41.8067960599904],[141.1542771625612,41.80683661671667],[141.15462101924487,41.806868845720885],[141.15482127758008,41.80689218312796],[141.15488599189524,41.806924958919915]],[[141.15488599189524,41.806924958919915],[141.15478183511385,41.80692162333446],[141.15411300211355,41.807011867603805],[141.1541124454332,41.80702853294065]],[[141.1541124454332,41.80702853294065],[141.153968015212,41.80701103123432]],[[141.153968015212,41.80701103123432],[141.15399247137572,41.806774671414125]],[[141.1507933103632,41.806899553971455],[141.1517251662836,41.80695152219523],[141.1521226288565,41.806978197885705],[141.15224789362566,41.80699320037609],[141.15239565673446,41.8070154244225]],[[141.15239565673446,41.8070154244225],[141.15237176714362,41.807073749953815]],[[141.15237176714362,41.807073749953815],[141.1518243210358,41.80699818621752],[141.1507930288754,41.806955103295586],[141.1507933103632,41.806899553971455]],[[141.1537158147333,41.8070285203501],[141.15369886880802,41.807074070112435]],[[141.15369886880802,41.807074070112435],[141.1532550245999,41.80699323185234],[141.1537158147333,41.8070285203501]],[[141.15388357336843,41.80710601583018],[141.15395662529824,41.807051024985014]],[[141.15395662529824,41.807051024985014],[141.15398856562007,41.80705519334271],[141.154111054182,41.807071027705945]],[[141.154111054182,41.807071027705945],[141.15411021871188,41.807102413146026],[141.15388357336843,41.80710601583018]],[[140.70513627142208,41.764283373878804],[140.70569788994595,41.76422006520402],[140.70600175287888,41.76418424610624],[140.70633978105633,41.764138707135814],[140.70674724858685,41.76404456430537],[140.7070633360044,41.76395514021776],[140.70740942390597,41.76380239216688],[140.70774106959487,41.76364047732636],[140.70802994172863,41.76346272992123],[140.70824159717216,41.76332108669901],[140.70836049833855,41.762925859840784],[140.70847939860556,41.762508970113075],[140.70881880004782,41.762725343400064],[140.7091104304023,41.76291338534469],[140.7094481627028,41.763150866619405],[140.70920011079676,41.763503039334005],[140.70886845071863,41.76392353444379],[140.70846262984668,41.76435624684353],[140.70822347223572,41.764604821255716],[140.7078640446901,41.764877277164835],[140.7076548893619,41.7650266968248],[140.7075365610637,41.76511418197413],[140.7074929520383,41.76515389783431],[140.70729018909122,41.76521138519747],[140.7070971487147,41.76524970800784],[140.70690050655338,41.76514138107006],[140.70670302802256,41.765086104240545],[140.70636751075227,41.76494277658809],[140.70596533213455,41.764819724151145],[140.70573061987244,41.76502941367671],[140.70552537029988,41.764858871639824],[140.7053267900995,41.76462528263089],[140.70541206471532,41.764531129907915],[140.70513627142208,41.764283373878804]],[[140.700725175027,41.76623772209341],[140.70070572988578,41.766288826967966]],[[140.70070572988578,41.766288826967966],[140.70024689307985,41.76609855740269],[140.70007692031385,41.76589107661209]],[[140.70007692031385,41.76589107661209],[140.70044996179655,41.76552946641197],[140.70033748628617,41.765282269761144],[140.7002175113293,41.76504173888538],[140.70051554665537,41.764905375582835],[140.70086524533502,41.76477012474169],[140.70102606839856,41.76469458438777],[140.70132715962092,41.76453266774859],[140.70190961363798,41.764403258004165],[140.7023131951981,41.76428661773343],[140.70245510911622,41.76460325103944],[140.7026586760573,41.76505209188077],[140.70281503128894,41.76541038717981],[140.70302998184837,41.765935609241176],[140.7027013938545,41.76604919631359],[140.70228170273862,41.76617416790371],[140.70168174791462,41.76634773885729],[140.70141176783903,41.76643160963128],[140.70112459182673,41.766086085604556],[140.700725175027,41.76623772209341]],[[141.14134255711355,41.81569375356405],[141.14133644532097,41.81571902901021],[141.14090786080936,41.815928434349985],[141.1405598267748,41.8161167344],[141.14049092971283,41.81636281409283],[141.14030620716602,41.81666527138537],[141.13995122766727,41.81687384575157]],[[141.13995122766727,41.81687384575157],[141.13980902596603,41.81674219129929],[141.13951321106612,41.81688910814603],[141.13885187301577,41.81705906742223],[141.13846828518348,41.81725569789233],[141.13863657711653,41.81772231383394],[141.13892598794422,41.8178467521261]],[[141.13892598794422,41.8178467521261],[141.1389593150206,41.817900358015315],[141.13871015694843,41.81815532031198],[141.13833574130166,41.81825029591465],[141.13867848822184,41.81824614104676],[141.1390248468195,41.81820893429506],[141.13893124088435,41.81827753368144],[141.1386501469869,41.81841917510508],[141.13839127533737,41.818542762638565]],[[141.13839127533737,41.818542762638565],[141.13827851204388,41.81846749118199],[141.13823879438513,41.818448602721034]],[[141.13823879438513,41.818448602721034],[141.13805332360226,41.81723207629948],[141.13839970288421,41.81685268830114],[141.1388608023844,41.81633943082027],[141.13961077042092,41.81569425538578],[141.14007213791905,41.81532931319743],[141.14075373229917,41.81551764472373],[141.14134255711355,41.81569375356405]],[[141.14140532709445,41.81574263891184],[141.1414375363135,41.81592289632482],[141.1414611417186,41.815968724876925],[141.1415338905768,41.81636506869319]],[[141.1415338905768,41.81636506869319],[141.1411583723612,41.816317839896605],[141.14086339113288,41.81645392620794]],[[141.14086339113288,41.81645392620794],[141.14052174318417,41.81667111068338],[141.14045036129534,41.81665861010697],[141.1405884180213,41.8164191988871],[141.1406648136305,41.816170342087844],[141.1411397869718,41.815892334663715],[141.14140532709445,41.81574263891184]],[[140.69993716117125,41.76678318789402],[140.70003076260986,41.76679457780773],[140.69977690558,41.76664681020236],[140.69959249239986,41.766389058208695],[140.69977470314024,41.76630601840821],[140.69998525691432,41.76599189511006],[140.70007692031385,41.76589107661209]],[[140.70070572988578,41.766288826967966],[140.70078931917197,41.76654268759517],[140.70061599822992,41.76660017495828],[140.70046796622393,41.76642657972309],[140.70035909429697,41.76629464827958],[140.70001023108756,41.766407401680446],[140.70003466926477,41.766482115557366],[140.70007133012797,41.76652016767178]],[[140.70007133012797,41.76652016767178],[140.70021269096316,41.766795416875205],[140.70048348222718,41.76709816734678],[140.70074510760088,41.76741174925303],[140.70049928781208,41.76756005555232],[140.7001623909818,41.767268135616185],[140.69991770074154,41.76708981714154],[140.6997199497161,41.766944549651434],[140.69993716117125,41.76678318789402]],[[141.14985333716203,41.80302193361553],[141.14992581892164,41.80323024537971],[141.15010355823284,41.80361992611892],[141.15038294971356,41.804095432758224],[141.15050931705156,41.80429069086289],[141.15066734682085,41.80448095143498],[141.150821212729,41.80464038234798],[141.15089759125107,41.80470759767768],[141.15107979030034,41.8048223116006],[141.1513933614147,41.80502563122809],[141.1517363718363,41.80527116773043],[141.15199800260592,41.80548142922476],[141.1520177220405,41.805497538780564]],[[141.15285788488376,41.806189426800806],[141.15285649183392,41.80625719701225]],[[141.15198966678992,41.80553086675633],[141.1518169142194,41.80538782418893],[141.1513903028204,41.80508229121494],[141.15090258698507,41.8047717571111],[141.150750385722,41.80464176820321],[141.15052486543044,41.80440012306742],[141.15038433287094,41.80419819918774],[141.15005744909223,41.803659918970304],[141.14976834493342,41.80302443103289]],[[141.14976834493342,41.80302443103289],[141.14985333716203,41.80302193361553]],[[141.16636005517267,41.80507915617828],[141.16636755012263,41.80516414570893],[141.1662353389899,41.805174418664706],[141.16622951138305,41.80509303901272],[141.16636005517267,41.80507915617828]],[[141.16261995284873,41.812863381140346],[141.1626191236739,41.81278977882545],[141.1627421680169,41.81279117097596],[141.16274299719186,41.812862551965395],[141.16261995284873,41.812863381140346]],[[141.15359529119002,41.806653839403396],[141.15399191739328,41.80673967519607]],[[141.1548907124366,41.80696217736276],[141.15488599189524,41.806924958919915]],[[141.15399247137572,41.806774671414125],[141.153631119281,41.80669939096434]],[[141.15289259781542,41.80628691690787],[141.15289454574696,41.80621692537102]],[[141.14813231085765,41.8042700631131],[141.1487105848259,41.80440284261732],[141.14897333615073,41.80445784515366],[141.1495504967583,41.80460395710713],[141.1496999236128,41.80466923080058],[141.14980407589763,41.80477477793384],[141.14987684274234,41.804833661944144],[141.1500590453889,41.804902548214216],[141.15012931391692,41.80495476644947],[141.15016902707913,41.80504086844156],[141.15021013239192,41.80508864222725],[141.15027817779588,41.8051453040128],[141.15049176138592,41.805295847825334],[141.15056674955605,41.80537334060738],[141.15077116725578,41.80553388398175],[141.15089697971206,41.80569164665234],[141.15097502467785,41.805754142339985],[141.15120416294195,41.805888299605556],[141.15130720636267,41.80594885095888],[141.15140663720678,41.80602162319957],[141.15145385161424,41.80607106342904]],[[141.1537322048776,41.80698463703157],[141.1537158147333,41.8070285203501]],[[141.15369886880802,41.807074070112435],[141.15368386811627,41.80711406476246]],[[141.15255621269927,41.80675962665567],[141.15248594327187,41.80673129531323]],[[141.15141690926322,41.806114667957786],[141.1513216440789,41.80602745260506],[141.1511755519104,41.80593190503362],[141.15091530699607,41.80577302720366],[141.15078504919092,41.805636650411316],[141.1507331133427,41.80556498973271],[141.15061285240148,41.80546499771167],[141.15042704527212,41.805302511801706],[141.15018013280707,41.80512669164369],[141.15010347999186,41.80500698198681],[141.15004015512926,41.80494920863923],[141.1498976719402,41.80488448982754],[141.14980629362577,41.80483893736726],[141.149722694447,41.80477394156434],[141.1496254858277,41.80467450622371],[141.1495738260715,41.8046472864433],[141.14947244729586,41.80462450661587],[141.14920136465145,41.80455561764785],[141.148732246796,41.80444839417828],[141.148107589394,41.80431700142868]],[[141.148107589394,41.80431700142868],[141.14813231085765,41.8042700631131]],[[141.1541124454332,41.80702853294065],[141.154111054182,41.807071027705945]],[[141.15395662529824,41.807051024985014],[141.15396218130985,41.80703158344101],[141.153968015212,41.80701103123432]],[[141.13850126062488,41.81860553711607],[141.13900845487655,41.81828836871347],[141.13923427913886,41.81810589806895],[141.13880542573003,41.81816115511343],[141.13896319739393,41.8180114557643],[141.13973648934774,41.81750876261952],[141.14024979629136,41.817146323244394],[141.1407214421411,41.81676166162156],[141.14082116526475,41.81658529737376],[141.14086339113288,41.81645392620794]],[[141.1415338905768,41.81636506869319],[141.14155111079532,41.81636729091792],[141.14179552224581,41.816568941403716],[141.14185466705948,41.8168658516779],[141.14181299697242,41.816986392308365],[141.14177688109845,41.81713220568695]],[[141.14177688109845,41.81713220568695],[141.1411458079329,41.8174727007048],[141.1405913956766,41.81778514586802],[141.14025141507096,41.817985111024264],[141.13972561294696,41.81827422597494],[141.13951145918674,41.81840392620045],[141.13907565132052,41.818652216426884],[141.13893426980093,41.81873803513242],[141.13850126062488,41.81860553711607]],[[141.13995122766727,41.81687384575157],[141.1400292717338,41.8169463401017],[141.14058839913554,41.816756935684225],[141.14003675679118,41.81719547659019],[141.13932457287098,41.8176703968715],[141.13892598794422,41.8178467521261]],[[141.15398825175663,41.80770122583112],[141.15390909343017,41.807688170372955],[141.15385937710886,41.80766094879395],[141.15382299503545,41.80759345557373],[141.1538277191741,41.807559293926474],[141.15384244107605,41.80754040726418],[141.1538943814208,41.80753624340309],[141.153971595413,41.80755263174876],[141.1540257561839,41.807573465443284]],[[141.17171819793674,41.80475936535266],[141.17196317506077,41.804771871324974],[141.17245424177003,41.80476938739752],[141.17304752092656,41.80477745971222],[141.1735349759586,41.80478303101227],[141.17407770422295,41.804790546646636],[141.1736743870635,41.805156602195666],[141.17355772520904,41.80526019690074],[141.17358380644777,41.805744305555436],[141.17361184371185,41.806017329836095],[141.1736523743578,41.80640145186572],[141.17331015893689,41.80681694584558],[141.17304794090995,41.80715495333862],[141.17298960818408,41.80724743961786]],[[141.17298960818408,41.80724743961786],[141.171797235754,41.80690272138366],[141.1687559822031,41.809393991839436],[141.16844150187404,41.81052384699812],[141.1681711971433,41.81142484088388],[141.1675916982985,41.81332320630111],[141.16741306955777,41.813900354318086],[141.1656595651371,41.81483157531716],[141.16503877122256,41.81512790912592],[141.16376913803555,41.815583368977514],[141.16305918893062,41.815825540216736],[141.1627572658354,41.81592523995807],[141.16237201965322,41.81598883191924],[141.16134600201661,41.815980744316114],[141.15944200864197,41.8159704066092]],[[141.15944200864197,41.8159704066092],[141.15943173298837,41.81596151860941],[141.15894794988816,41.81486219093755],[141.15872188640625,41.81439890608486],[141.1584694404126,41.813849520139456],[141.15842556069134,41.81375036358861],[141.1583858484284,41.8136542629341],[141.15826864877937,41.81342623083611],[141.15818922155557,41.81324097319253],[141.15810757390565,41.81304877098421]],[[141.15810757390565,41.81304877098421],[141.15801676935865,41.81269214392749],[141.15793012687408,41.812396066425535],[141.15787764064083,41.8122355284471],[141.15782460132453,41.81204804857878],[141.15774157141658,41.81172502918695],[141.15767964859714,41.81143950612853],[141.1576396629403,41.811252582940526],[141.15753885793214,41.81091345399289],[141.15747415081165,41.81074763789337],[141.15741555458436,41.81057182403066],[141.15732808022693,41.81028657796339],[141.1572342161864,41.80998550023089],[141.15712202396247,41.80964359327742],[141.1570698201163,41.80939250975671],[141.15703093972633,41.809302796986685]],[[141.16264871226855,41.81510894602127],[141.16268539111815,41.81481648199525],[141.16228098398045,41.81481202495518],[141.162268190225,41.81510948921175],[141.16264871226855,41.81510894602127]],[[141.15695928084637,41.80927640907923],[141.1572275414182,41.81014964628935],[141.15733695833416,41.81045933503048],[141.15759966019635,41.81137451122494],[141.15758021415576,41.811420060987246],[141.15768518392434,41.81178446538098],[141.15789095960037,41.81246466761053],[141.1579334489697,41.81260298603916],[141.15796454842535,41.81275963444977]],[[141.15796454842535,41.81275963444977],[141.1579209456954,41.81267158812352],[141.15776042390468,41.81234301092143],[141.15762489787102,41.8120316548372],[141.1574479922313,41.811642807769545],[141.1568022187476,41.81160334731681],[141.15616533686108,41.811527780882614],[141.15562733183611,41.81148887890884],[141.15517598728223,41.811447759206935],[141.15469686716693,41.81139413892858],[141.15417108302933,41.81136273730067],[141.15356725302655,41.811294115431274],[141.15327394813443,41.81126605388548],[141.15282676744158,41.811243819946526],[141.15227098911504,41.8111660339855],[141.15211850276688,41.81115853004234],[141.1518738044328,41.81114324606414],[141.15138968408684,41.81109795800456],[141.1507622450818,41.81101517001427],[141.1501645241737,41.810977933584965],[141.14964762983453,41.81092014584823],[141.14923294704312,41.81088735926442],[141.1488182651511,41.8108404065597],[141.14844219025514,41.81080873333654],[141.14758477211973,41.810733991580655],[141.1473070210024,41.81070593093415],[141.1472434155514,41.810706484916516],[141.14699343999547,41.81067592505411],[141.14702483622744,41.81050233521478],[141.1471245746397,41.81004933680764],[141.14722875840067,41.809587174308824],[141.1471671089751,41.809380807778275],[141.14784400799482,41.80909558599267],[141.14822037157313,41.808932005607794],[141.1488089445774,41.80867483367683],[141.1492361378377,41.808494312762534],[141.14973582724684,41.80827879922743],[141.15028245766956,41.80804190071336],[141.15069048637707,41.80787887790808],[141.15072967793247,41.8073686628337],[141.15077691482298,41.80702870471117]],[[141.1522656381489,41.80757479823853],[141.15215311767253,41.80809473228628],[141.15383295322846,41.808324758181236],[141.15386934789234,41.80816144489494]],[[141.1532879586726,41.804196068693834],[141.1533251798134,41.804153296937336]],[[141.1533251798134,41.804153296937336],[141.15389622143374,41.80447549884541],[141.15438532762101,41.804752426183704],[141.15461641021938,41.80488464001433],[141.15491248502343,41.80505018541794],[141.154947203351,41.80505990708924]],[[141.1522656381489,41.80757479823853],[141.1536204856971,41.80807200282089],[141.15386934789234,41.80816144489494]],[[141.14134255711355,41.81569375356405],[141.14138645302268,41.8155134988491],[141.14112870822356,41.81533767869115],[141.1409837276172,41.815218522117334],[141.1404218635784,41.814704677379154],[141.14039576255465,41.81456580406881],[141.14028525116368,41.81397475972756],[141.1404027808639,41.8132626270688],[141.1415657328725,41.813226280068996],[141.14166794531963,41.813231282098165],[141.14184181664672,41.813261562271464],[141.1420554047334,41.81332850510664]],[[141.1420554047334,41.81332850510664],[141.14203457193815,41.81335405664456],[141.14202540334992,41.81340655007243]],[[141.14202540334992,41.81340655007243],[141.14165738637956,41.81331043862605],[141.14050776682026,41.81334095442173],[141.14038329615238,41.81400809309921],[141.1404979714045,41.81465079719675],[141.1405235220431,41.81468940419285],[141.1411592662874,41.81524741283806],[141.1415061653775,41.81548850579015],[141.14144810244824,41.81571819893594],[141.14140532709445,41.81574263891184]],[[141.13850126062488,41.81860553711607],[141.13846571042444,41.81859442599216],[141.13839127533737,41.818542762638565]],[[141.14813231085765,41.8042700631131],[141.1483892597568,41.80378151900209],[141.14863509843127,41.80331297131676],[141.1487309238933,41.803289365911716],[141.1492411641487,41.803144121804],[141.14967863126407,41.80302692755089],[141.14976834493342,41.80302443103289]],[[141.1507935954483,41.806760960350225],[141.15079359814635,41.8067190195673],[141.15057086125643,41.80635489036609],[141.15034784737549,41.805973540047034],[141.1501228891603,41.80559524472494],[141.14988071072645,41.805205562187155],[141.1494629702401,41.80522471325014],[141.14907326971587,41.80545217337931],[141.1487791203603,41.805628809222355],[141.1485688552687,41.80574712223211],[141.147888616167,41.80613983098864],[141.14778362211672,41.80620815338375],[141.147547836064,41.80575347684168],[141.14759923141963,41.8055601693665],[141.14774813576807,41.805043569105635],[141.1479203622352,41.80468945025814],[141.14809647827013,41.80433810941645],[141.148107589394,41.80431700142868]],[[141.15122515941385,41.80299392512972],[141.1514537418969,41.803115306626296],[141.1520153388371,41.80345500574413],[141.15252777703557,41.80372471242571],[141.15296438979505,41.80396025386284],[141.1533251798134,41.804153296937336]],[[141.14985333716203,41.80302193361553],[141.1502235817531,41.803011113872],[141.15056466222967,41.80300862544788],[141.150814918374,41.80300474397398]],[[141.15235898687803,41.80714568492561],[141.1529486507598,41.80722402756703],[141.15355387561107,41.80719099636759]],[[141.15355387561107,41.80719099636759],[141.15348665758341,41.807227378440984],[141.15298531162313,41.807264301906216],[141.15285532181593,41.8072901277374],[141.15288281319152,41.80741344817231],[141.153509426619,41.80732847842677],[141.1536883017739,41.80730404204809],[141.15370691234438,41.80729071139741],[141.15372302190013,41.80727904629116],[141.15374107668953,41.80726599263164],[141.15377579681586,41.80724099687473],[141.15379385160526,41.80722766622404],[141.15383218340872,41.807200170351784],[141.15383635086715,41.807176284358256]],[[141.15383635086715,41.807176284358256],[141.154124659126,41.80715990680448]],[[141.15329720460255,41.80767398536637],[141.15346135785563,41.80765788120646],[141.15354413685264,41.80749318116557],[141.15308084390603,41.8075337172075],[141.15315750211727,41.80756260523025],[141.15316999819714,41.80761509865806],[141.1530219553992,41.80761564994248]],[[141.15353355363078,41.807997010154104],[141.15355772291088,41.80791479772995],[141.15342968103522,41.80788090857725],[141.15340551175524,41.807961175767836],[141.15353355363078,41.807997010154104]],[[141.15351749443704,41.807128501579314],[141.15294754369444,41.80715348114842],[141.15237176714362,41.807073749953815]],[[141.15239565673446,41.8070154244225],[141.1527311803,41.807065707316724],[141.1527556247725,41.807016546776424],[141.1524037146599,41.806969596769704]],[[140.76353186710224,41.7924207163432],[140.76330244375305,41.79240015514324],[140.76281887918816,41.79237569897953],[140.76238530793586,41.7923506879341],[140.7619020185635,41.792346229095415],[140.76148094788772,41.79231733028073],[140.76138623488708,41.79232038168049],[140.76141401584442,41.7922106742834],[140.7615065111168,41.79215123988802],[140.76210451171409,41.792152647327036],[140.76270251231136,41.792164609209564],[140.76355187881637,41.79216963462113],[140.76353186710224,41.7924207163432]],[[140.76474864173662,41.793455352182946],[140.76475057168176,41.79370698788738],[140.7647677613234,41.79427858708731],[140.76434056986164,41.794409945662665],[140.7643539238947,41.794028604336795],[140.7643564428958,41.79368447785656],[140.76438229300862,41.793336466305114],[140.76437119987116,41.79304066669362],[140.7643978773604,41.79280764066027],[140.76458785914264,41.792820144834025],[140.76456339938164,41.7931320513033],[140.76475338206316,41.79313122392704],[140.76474864173662,41.793455352182946]],[[141.1507933103632,41.806899553971455],[141.15079331216185,41.8068603920936]],[[140.70513627142208,41.764283373878804],[140.70466019011593,41.76452610719428],[140.70446828288522,41.76417364399867],[140.70464466062282,41.76408310385239],[140.70513627142208,41.764283373878804]],[[141.15703093972633,41.809302796986685],[141.15695928084637,41.80927640907923]],[[141.17298960818408,41.80724743961786],[141.172889892255,41.80729298668217],[141.17278933276174,41.80751545737268],[141.17254571631196,41.80800566792743],[141.17236043528607,41.80836284177195],[141.17217487636964,41.80872862482636],[141.1720584843119,41.8089688706171],[141.17177681125105,41.80952018380963],[141.17163680659354,41.80982514301615],[141.1714359699942,41.81020397973008],[141.1712112429048,41.81064642009641],[141.17099595959604,41.81108441601321],[141.17089317967674,41.811295498588606],[141.17070012041444,41.81167989131416],[141.17067234035648,41.81176099217624],[141.17050706115214,41.81205289592463],[141.17030705462713,41.812476449628655],[141.17014399584895,41.81278890738235],[141.16996982504764,41.8131402482241],[141.1697989898318,41.813445205631915],[141.1696281537166,41.81376932939123],[141.16949537331305,41.81404234737663],[141.1692370331628,41.814568664812214],[141.16900091615963,41.81504137815726],[141.16879285710496,41.81544187864001],[141.16870897194173,41.815498813819424],[141.1683934358087,41.81566822810646],[141.1680242919877,41.81585708303817],[141.16792124317107,41.81591124021178],[141.16759792880163,41.81607926504625],[141.16702240855756,41.816376154636025],[141.16668965130665,41.81656167757956],[141.16630522980273,41.81676358617079],[141.16616412707305,41.81685245987329],[141.1659438633189,41.81695799531542],[141.1655175001328,41.817182955329315],[141.1652689041369,41.817319041640644],[141.1649994762451,41.8174620716175],[141.1645442250362,41.81770202782649],[141.1643895119666,41.81779117941959],[141.16411425107202,41.81794448594945],[141.16350262124917,41.81827609296748],[141.1632440122017,41.81865548366386],[141.16310763361065,41.81868242105708],[141.16243659277478,41.818509365415075],[141.1620213721888,41.81817689055128],[141.1618888912596,41.81805273464619],[141.16082987210115,41.81715114271128],[141.16013968919555,41.816583410596145],[141.15944200864197,41.8159704066092]],[[141.15388357336843,41.80710601583018],[141.15368386811627,41.80711406476246]],[[140.700725175027,41.76623772209341],[140.7010190177137,41.766588523341916],[140.70064015491943,41.76673877127745],[140.70044268987846,41.76644213259856],[140.70007133012797,41.76652016767178]],[[140.69993716117125,41.76678318789402],[140.69964664417756,41.766568759840595],[140.69952416101142,41.76646599071314],[140.6993947332806,41.76637544157358],[140.6991750405959,41.76619434599245],[140.69897868082165,41.766009083852325],[140.69873371628825,41.76578521381674],[140.69869067923167,41.76551496844125],[140.69845709831662,41.76535775705502],[140.69818546618654,41.76518082533504],[140.69780079197318,41.76494667514913],[140.69759220591578,41.764841403208365],[140.69799078814464,41.764706432056414],[140.69833074266984,41.764968632996215],[140.69865653197365,41.76521500317006],[140.69891205274922,41.76542831786274],[140.6991767376166,41.76564691067659],[140.69934227132904,41.76578801070831],[140.69960807405363,41.76590217244751],[140.69975111572165,41.76590439916888],[140.70007692031385,41.76589107661209]],[[141.15355387561107,41.80719099636759],[141.15383635086715,41.807176284358256]],[[140.76464157834636,41.79574896244486],[140.76460682764326,41.79631278160981],[140.7645948558681,41.796821609030246],[140.76456594536234,41.79725405612998],[140.7642093012185,41.79743485583412],[140.76420765815712,41.79701185161586],[140.76423240480193,41.79652996608524],[140.76425770542897,41.79608946375792],[140.76426411129995,41.7957761687354],[140.76427801571805,41.79547898326864],[140.76431859672613,41.79495932441346],[140.7643391768118,41.79447966020838],[140.76470026360647,41.794334967385055],[140.76468634839654,41.79482907290361],[140.76463826794196,41.79534484309022],[140.76464157834636,41.79574896244486]],[[141.15810757390565,41.81304877098421],[141.15796454842535,41.81275963444977]],[[141.13823879438513,41.818448602721034],[141.1379002230171,41.81828749996833],[141.13766941740988,41.81817695080583],[141.13716864431768,41.81790863357679],[141.13684284961806,41.817742810282645],[141.13668953499433,41.817658926018844],[141.13607627559992,41.81733672321139],[141.13562605160126,41.8171028482181],[141.1353505299033,41.81696368892329],[141.13486530968652,41.816707037699814],[141.13448896589335,41.81651982582951],[141.13404263236185,41.81627539729196],[141.13340409662197,41.81594930491668],[141.13289388064828,41.81568681979108],[141.13241809791708,41.81554932064483],[141.13191759462148,41.81542209805162],[141.13163123699218,41.815336543746675],[141.1310879610408,41.815196543585834],[141.13079604829926,41.81512265438721],[141.1300380717998,41.81491959916034],[141.1295661777371,41.814795154572934],[141.1291795528943,41.814687100129795],[141.12871794078063,41.81446322289963],[141.127824953559,41.81467455818449],[141.12715861707676,41.81482201912109],[141.1268361489693,41.81478007024424],[141.12625481910487,41.81467923016253],[141.12568765176394,41.81460866485821],[141.12529269560167,41.81446783642172],[141.12490135111665,41.81431534197964],[141.12440168508994,41.81412173772822],[141.1233773563801,41.81372480935266],[141.1235187531882,41.813355134931726],[141.12363486735552,41.813116834374625],[141.1238218193218,41.812699112774055],[141.12384154235355,41.81265384090221]],[[141.14252055388073,41.80995614725861],[141.1427083089415,41.81005558529723],[141.1432468589556,41.810270299335066],[141.14329548799657,41.80987534766938],[141.14335605823572,41.809525113893066],[141.1436049069411,41.809835639903035],[141.1438712528563,41.81015310957854],[141.14402984020518,41.810326149932045],[141.14414952737906,41.810764435430535],[141.14426671623625,41.811156613587045],[141.14438779376195,41.811544349092635],[141.144173355816,41.81178236906129],[141.1438789195767,41.81209843309642],[141.14362809596008,41.81233950716274],[141.14319144902635,41.81268722913251],[141.14284646459288,41.81295996293214],[141.1426675912366,41.81298023275172],[141.14230345484083,41.81302493805065],[141.1420554047334,41.81332850510664]],[[141.14202540334992,41.81340655007243],[141.14202206866372,41.81342460396252],[141.14207010505157,41.813683463021626],[141.14268696892867,41.81412065224652],[141.1431907907226,41.81449256777796],[141.14286332058606,41.81448505933821],[141.1428835931036,41.814553940212356],[141.1430166199213,41.81484668662552],[141.14318852443108,41.81528164013575],[141.14311406776022,41.81561493068472],[141.14307100192542,41.81586989927659],[141.1429620886298,41.81646787918947],[141.14251714365145,41.816196230871576],[141.14244354223587,41.81616095496428],[141.14226603494984,41.81656117935512],[141.14217297490308,41.81679087070232],[141.14208463989445,41.816960015192755],[141.14196214773511,41.81701861501726],[141.14177688109845,41.81713220568695]]],"bbox":[140.69759220591578,41.762508970113075,141.17407770422295,41.81873803513242]}
