{"type":"Topology","objects":{"南幌町":{"type":"GeometryCollection","geometries":[{"type":"Polygon","arcs":[[0]],"properties":{"A45_004":"74","A45_007":"0","A45_009":"空知","A45_010":"チ","A45_015":"南幌町","A45_016":null,"A45_018":null,"A45_020":null,"A45_024":"森林空間利用","A45_025":3.98,"A45_026":"防風保","A45_027":null,"A45_028":null,"A45_029":null}},{"type":"Polygon","arcs":[[1,2]],"properties":{"A45_004":"74","A45_007":"0","A45_009":"空知","A45_010":"ホ","A45_015":"南幌町","A45_016":null,"A45_018":null,"A45_020":null,"A45_024":"山地災害防止（気象）","A45_025":0.02,"A45_026":null,"A45_027":null,"A45_028":null,"A45_029":null}},{"type":"Polygon","arcs":[[3,4,-2]],"properties":{"A45_004":"74","A45_007":"0","A45_009":"空知","A45_010":"ヌ","A45_015":"南幌町","A45_016":null,"A45_018":null,"A45_020":null,"A45_024":"山地災害防止（気象）","A45_025":0.03,"A45_026":"防風保","A45_027":null,"A45_028":null,"A45_029":null}},{"type":"Polygon","arcs":[[5]],"properties":{"A45_004":"74","A45_007":"1","A45_009":"空知","A45_010":"イ1","A45_015":"南幌町","A45_016":null,"A45_018":null,"A45_020":null,"A45_024":"山地災害防止（気象）","A45_025":0.14,"A45_026":null,"A45_027":null,"A45_028":null,"A45_029":null}},{"type":"Polygon","arcs":[[6]],"properties":{"A45_004":"74","A45_007":"0","A45_009":"空知","A45_010":"へ","A45_015":"南幌町","A45_016":"他Ｌ","A45_018":null,"A45_020":null,"A45_024":"山地災害防止（気象）","A45_025":0.04,"A45_026":"防風保","A45_027":null,"A45_028":null,"A45_029":null}},{"type":"MultiPolygon","arcs":[[[7]],[[8]]],"properties":{"A45_004":"74","A45_007":"0","A45_009":"空知","A45_010":"ト","A45_015":"南幌町","A45_016":null,"A45_018":null,"A45_020":null,"A45_024":"森林空間利用","A45_025":2,"A45_026":"防風保","A45_027":null,"A45_028":null,"A45_029":null}},{"type":"MultiPolygon","arcs":[[[9,10,11,12,13,14,15,16]],[[17,18,19]],[[20,21,22,23,24,25]],[[26,27,28,29]]],"properties":{"A45_004":"74","A45_007":"0","A45_009":"空知","A45_010":"ロ","A45_015":"南幌町","A45_016":null,"A45_018":null,"A45_020":null,"A45_024":"山地災害防止（気象）","A45_025":0.11,"A45_026":null,"A45_027":null,"A45_028":null,"A45_029":null}},{"type":"MultiPolygon","arcs":[[[30,31,32]],[[33,34,35]]],"properties":{"A45_004":"74","A45_007":"2","A45_009":"空知","A45_010":"イ2","A45_015":"南幌町","A45_016":null,"A45_018":null,"A45_020":null,"A45_024":"山地災害防止（気象）","A45_025":0.06,"A45_026":"防風保","A45_027":null,"A45_028":null,"A45_029":null}},{"type":"MultiPolygon","arcs":[[[36,37,38]],[[39,40,41]],[[42,43,44]]],"properties":{"A45_004":"74","A45_007":"0","A45_009":"空知","A45_010":"に","A45_015":"南幌町","A45_016":"ヤチダモ","A45_018":null,"A45_020":null,"A45_024":"山地災害防止（気象）","A45_025":4.31,"A45_026":"防風保","A45_027":null,"A45_028":null,"A45_029":null}},{"type":"MultiPolygon","arcs":[[[45,46,47]],[[48,49,50]],[[51,-41,52,-18]]],"properties":{"A45_004":"74","A45_007":"0","A45_009":"空知","A45_010":"は","A45_015":"南幌町","A45_016":"ヤチダモ","A45_018":null,"A45_020":null,"A45_024":"山地災害防止（気象）","A45_025":3.91,"A45_026":"防風保","A45_027":null,"A45_028":null,"A45_029":null}},{"type":"MultiPolygon","arcs":[[[53,54,55]],[[56,57]],[[58,59,60,61]]],"properties":{"A45_004":"74","A45_007":"0","A45_009":"空知","A45_010":"と","A45_015":"南幌町","A45_016":"ヤチダモ","A45_018":"他Ｌ","A45_020":null,"A45_024":"山地災害防止（気象）","A45_025":1.74,"A45_026":"防風保","A45_027":null,"A45_028":null,"A45_029":null}},{"type":"MultiPolygon","arcs":[[[-47,62,63]],[[64,-27,65]],[[66,-13,67]],[[68,69,-11]],[[70,71]],[[-50,72,73]],[[-53,-40,74,-19]],[[75,76]],[[77,-37,78,-44]],[[79,-24,80]],[[81,-34,82,-22]],[[83,-32,84]]],"properties":{"A45_004":"74","A45_007":"0","A45_009":"空知","A45_010":"ほ","A45_015":"南幌町","A45_016":"他Ｌ","A45_018":null,"A45_020":null,"A45_024":"山地災害防止（気象）","A45_025":0.96,"A45_026":"防風保","A45_027":null,"A45_028":null,"A45_029":null}},{"type":"MultiPolygon","arcs":[[[85,86,-60,87]],[[88,89]],[[-51,-74,90]],[[91,-57]],[[-25,-80,92]],[[-35,-82,-21,93]],[[94,-28,-65,95]],[[-14,-67,96,97]],[[98,99,-69,-10]]],"properties":{"A45_004":"74","A45_007":"0","A45_009":"空知","A45_010":"ろ","A45_015":"南幌町","A45_016":"他Ｌ","A45_018":"カンバ","A45_020":null,"A45_024":"山地災害防止（気象）","A45_025":5.14,"A45_026":"防風保","A45_027":null,"A45_028":null,"A45_029":null}},{"type":"MultiPolygon","arcs":[[[-85,-31,100]],[[-71,101]],[[-63,-46,102]],[[-76,103]],[[-59,104,-88]],[[-61,-87,105]],[[-38,-78,-43,106]],[[107]],[[-29,-95,108]],[[-15,-98,109]],[[110,-99,-17]],[[111,-89,112,-54,113]]],"properties":{"A45_004":"74","A45_007":"0","A45_009":"空知","A45_010":"い","A45_015":"南幌町","A45_016":"ヤチダモ","A45_018":null,"A45_020":null,"A45_024":"山地災害防止（気象）","A45_025":6.47,"A45_026":"防風保","A45_027":null,"A45_028":null,"A45_029":null}}]}},"arcs":[[[141.63900705543148,43.06357316227185],[141.64237526380768,43.065298082640595],[141.64328515468634,43.06575667303225],[141.64417893421063,43.06621692896829],[141.64368173502424,43.06677574340603],[141.64292044002656,43.06636965273749],[141.64004245299708,43.06490333152373],[141.63816545277365,43.06396892782397],[141.6387112576187,43.0634092815133],[141.63900705543148,43.06357316227185]],[[141.63846850631677,43.06333483743298],[141.6384998944548,43.06329512067351]],[[141.6384998944548,43.06329512067351],[141.6385537764359,43.06332234135318],[141.63826295906853,43.06361257955711],[141.63846850631677,43.06333483743298]],[[141.63846850631677,43.06333483743298],[141.6383273100576,43.063262862891]],[[141.6383273100576,43.063262862891],[141.63521833126123,43.0616779678641],[141.63531082293633,43.06167241544983],[141.6384998944548,43.06329512067351]],[[141.62849662831704,43.05821563104673],[141.62797693618694,43.05874500437863],[141.62786111699717,43.05868556278869],[141.62837941967467,43.05815563367576],[141.62849662831704,43.05821563104673]],[[141.61397170672916,43.05077821254468],[141.6135184061498,43.05122259814459],[141.61343674501,43.051302865335174],[141.61336119926017,43.05126397864989],[141.6134414709474,43.0511820450156],[141.61388921731378,43.05073571508136],[141.61397170672916,43.05077821254468]],[[141.64618924993414,43.067231607952515],[141.64802901552693,43.06817933600774],[141.64755014812107,43.06872537917309],[141.64566982220475,43.06777736783146],[141.64618924993414,43.067231607952515]],[[141.64527824299677,43.06677439891956],[141.64475882426058,43.067310161934635],[141.6443280498998,43.06708989368383],[141.64386144205213,43.066849349318204],[141.6443719673926,43.06631692818388],[141.64527824299677,43.06677439891956]],[[141.6336646112331,43.06118158616146],[141.63344600582872,43.06141016684592]],[[141.63344600582872,43.06141016684592],[141.63337490272983,43.06148460193303]],[[141.63337490272983,43.06148460193303],[141.633145765365,43.06137043389861]],[[141.633145765365,43.06137043389861],[141.63320603792857,43.061311001301874]],[[141.63320603792857,43.061311001301874],[141.63344991248374,43.06107103430099]],[[141.63344991248374,43.06107103430099],[141.63367851744982,43.06084662287355]],[[141.63367851744982,43.06084662287355],[141.6338840485103,43.060951894814316]],[[141.6338840485103,43.060951894814316],[141.6336646112331,43.06118158616146]],[[141.60651765886308,43.046975065047434],[141.60609186764583,43.047412238983846]],[[141.60609186764583,43.047412238983846],[141.60600853016973,43.047497778899576]],[[141.60600853016973,43.047497778899576],[141.60592881876022,43.04745694608141],[141.60646933379297,43.0469506223735],[141.60651765886308,43.046975065047434]],[[141.62768394515814,43.05779982230417],[141.6272745287967,43.058250034611596]],[[141.6272745287967,43.058250034611596],[141.62719147730508,43.05834141562404]],[[141.62719147730508,43.05834141562404],[141.6270842583321,43.058286413087664]],[[141.6270842583321,43.058286413087664],[141.6271667648346,43.05819670391498]],[[141.6271667648346,43.05819670391498],[141.6275803414598,43.05774676680006]],[[141.6275803414598,43.05774676680006],[141.62768394515814,43.05779982230417]],[[141.63227031672199,43.060929624902485],[141.63234919985592,43.060856852661786]],[[141.63234919985592,43.060856852661786],[141.632631962895,43.060539119484986]],[[141.632631962895,43.060539119484986],[141.6327672362192,43.060387475801576]],[[141.6327672362192,43.060387475801576],[141.63284860777725,43.060430252054694],[141.63232864405197,43.06095907050491],[141.63227031672199,43.060929624902485]],[[141.6285510651798,43.05824341200407],[141.62811664586678,43.05868501150429]],[[141.62811664586678,43.05868501150429],[141.6280305375795,43.05877278443666]],[[141.6280305375795,43.05877278443666],[141.62797693618694,43.05874500887529],[141.62849662921627,43.05821563284536],[141.6285510651798,43.05824341200407]],[[141.62780917575304,43.05865889968869],[141.62789306721157,43.05857057457257]],[[141.62789306721157,43.05857057457257],[141.62834220572842,43.05813646552565]],[[141.62834220572842,43.05813646552565],[141.62837941787603,43.05815563547441],[141.6278611187958,43.05868555919142],[141.62780917575304,43.05865889968869]],[[141.62227481892802,43.05580542458092],[141.62233426231654,43.05573626131961]],[[141.62233426231654,43.05573626131961],[141.62275063403473,43.05525104919678]],[[141.62275063403473,43.05525104919678],[141.62442155461127,43.05610517491408],[141.6250661967478,43.0564593261372],[141.62713762230368,43.05752316296383],[141.62664293312508,43.0580583683992],[141.62419404771737,43.056794543933286],[141.62336720293428,43.05637067636582],[141.62227481892802,43.05580542458092]],[[141.60785661629,43.048451615150086],[141.60796549810954,43.0483233034779]],[[141.60796549810954,43.0483233034779],[141.6083332596724,43.047899462890086]],[[141.6083332596724,43.047899462890086],[141.6091714835773,43.04832611295995],[141.61007775018828,43.048796086970015],[141.60957834316622,43.049342402629975],[141.60785661629,43.048451615150086]],[[141.62203376644544,43.05488439919589],[141.62160101987143,43.055352395596806]],[[141.62160101987143,43.055352395596806],[141.6215371320332,43.055421552562784]],[[141.6215371320332,43.055421552562784],[141.62114217946822,43.055216003515966],[141.62164992590357,43.054688302023735],[141.62203376644544,43.05488439919589]],[[141.61356287402765,43.05056710838556],[141.61338371558628,43.050780970765395],[141.61262964124518,43.05040543995925],[141.61239688051188,43.050646235235774]],[[141.61239688051188,43.050646235235774],[141.60983831019013,43.04933352092547]],[[141.60983831019013,43.04933352092547],[141.61027273310043,43.04888441838141],[141.61303432807205,43.05029462189947],[141.61356287402765,43.05056710838556]],[[141.6052878314685,43.04633926594458],[141.60630880750574,43.046856186364096],[141.60586022746776,43.047317519687965]],[[141.60586022746776,43.047317519687965],[141.60485257938325,43.046814488398134]],[[141.60485257938325,43.046814488398134],[141.6052878314685,43.04633926594458]],[[141.60651765886308,43.046975065047434],[141.6083332596724,43.047899462890086]],[[141.60796549810954,43.0483233034779],[141.60609186764583,43.047412238983846]],[[141.63540319680038,43.06177221141859],[141.63442856912337,43.061817387962265],[141.63793738560213,43.06367167760605]],[[141.63793738560213,43.06367167760605],[141.6383273100576,43.063262862891]],[[141.6383273100576,43.063262862891],[141.63846850361875,43.06333483743298],[141.63826296086717,43.063612575959844],[141.63809296202083,43.06378255861841],[141.63800630694578,43.06386921009618],[141.63726972351918,43.063483392844475],[141.63389651491246,43.061757361813015],[141.63411871580632,43.061744036558245],[141.63521833305987,43.06167796516613],[141.63540319680038,43.06177221141859]],[[141.6161129610445,43.05186924307134],[141.6157446401033,43.0522697948154],[141.61724906019623,43.053037236679344]],[[141.61724906019623,43.053037236679344],[141.617117958827,43.05317499483032],[141.61544010088022,43.052338930197664],[141.61595673531536,43.05179288253572],[141.6161129610445,43.05186924307134]],[[141.61814717085548,43.05351590353632],[141.61831499783915,43.05360042182223]],[[141.61831499783915,43.05360042182223],[141.62052248182732,43.05472637572188],[141.62063582788136,43.05476230993287]],[[141.62063582788136,43.05476230993287],[141.6209424850079,43.05490660885312],[141.62131381508078,43.05451958920787]],[[141.62131381508078,43.05451958920787],[141.6214549465887,43.054593580929236],[141.62104330800247,43.055046576638404],[141.620964149676,43.05513378839385],[141.61802423083378,43.053648029233386],[141.61808811507473,43.053579423551746],[141.61814717085548,43.05351590353632]],[[141.61239688051188,43.050646235235774],[141.61344146645075,43.05118204951218]],[[141.61344146645075,43.05118204951218],[141.61336120285745,43.0512639741533],[141.61068820459724,43.049891542161156],[141.60975637026053,43.04941823436422],[141.60983831019013,43.04933352092547]],[[141.6307938268738,43.0600580046734],[141.63234919985592,43.060856852661786]],[[141.63227031672199,43.060929624902485],[141.63055496244175,43.060057720487634],[141.6307938268738,43.0600580046734]],[[141.63279331116263,43.06111850411588],[141.63320603792857,43.061311001301874]],[[141.633145765365,43.06137043389861],[141.6327452621843,43.06117099934232],[141.63279331116263,43.06111850411588]],[[141.63344600582872,43.06141016684592],[141.63361793102294,43.061498774349154]],[[141.63361793102294,43.061498774349154],[141.63342434026137,43.061509318000844],[141.63337490272983,43.06148460193303]],[[141.6025767747986,43.04564954978706],[141.60397131392523,43.04635645288816]],[[141.60397131392523,43.04635645288816],[141.6039021461674,43.04643311379736],[141.6032394636306,43.04609090557102],[141.60253789350924,43.04571953952536],[141.6025767747986,43.04564954978706]],[[141.60586022746776,43.047317519687965],[141.60578912257023,43.047390560825924],[141.60406851714862,43.04651283150217],[141.6041265674873,43.04645228554477]],[[141.6041265674873,43.04645228554477],[141.60485257938325,43.046814488398134]],[[141.60785661629,43.048451615150086],[141.60710921941524,43.048064967824196],[141.60600853016973,43.047497778899576]],[[141.61351840435117,43.05122259994323],[141.61534983862435,43.052161443595935]],[[141.61534983862435,43.052161443595935],[141.6152709644836,43.05224448519505],[141.61343674590938,43.05130286983176],[141.61351840435117,43.05122259994323]],[[141.62160101987143,43.055352395596806],[141.62233426231654,43.05573626131961]],[[141.62227481892802,43.05580542458092],[141.62212901364336,43.05572986983782],[141.6215371320332,43.055421552562784]],[[141.62689485301524,43.05805615696631],[141.6271667648346,43.05819670391498]],[[141.6270842583321,43.058286413087664],[141.62681069086096,43.058145586449875],[141.62689485301524,43.05805615696631]],[[141.6272745287967,43.058250034611596],[141.62789306721157,43.05857057457257]],[[141.62780917575304,43.05865889968869],[141.62719147730508,43.05834141562404]],[[141.63004537599357,43.05968025074315],[141.629969510085,43.0597531318018],[141.6280305375795,43.05877278443666]],[[141.62811664586678,43.05868501150429],[141.63004537599357,43.05968025074315]],[[141.6189316413824,43.053303086168675],[141.62055311273622,43.054120551922146],[141.62100833067012,43.05435942714603]],[[141.62100833067012,43.05435942714603],[141.62063582788136,43.05476230993287]],[[141.61831499783915,43.05360042182223],[141.61854530252398,43.05329224214346],[141.61881637707432,43.053412243180674],[141.6189316413824,43.053303086168675]],[[141.63798720174822,43.06361944857889],[141.63570131036744,43.062450677956626],[141.63596768146357,43.06218155223706],[141.63824805820155,43.06334595575145]],[[141.63824805820155,43.06334595575145],[141.63798720174822,43.06361944857889]],[[141.6041265674873,43.04645228554477],[141.60457876279992,43.04598040137459],[141.6052878314685,43.04633926594458]],[[141.6161129610445,43.05186924307134],[141.6165244512427,43.052070370151675],[141.61762569626916,43.052641180646155],[141.61724906019623,43.053037236679344]],[[141.62689485301524,43.05805615696631],[141.6273139946454,43.05761066160294],[141.6275803414598,43.05774676680006]],[[141.62768394515814,43.05779982230417],[141.62834220572842,43.05813646552565]],[[141.63170151351432,43.060058309543535],[141.632631962895,43.060539119484986]],[[141.6307938268738,43.0600580046734],[141.63170151351432,43.060058309543535]],[[141.63279331116263,43.06111850411588],[141.6330241266624,43.06086604553178]],[[141.6330241266624,43.06086604553178],[141.63344991248374,43.06107103430099]],[[141.6336646112331,43.06118158616146],[141.63424426566058,43.06146573955243]],[[141.63424426566058,43.06146573955243],[141.63361793102294,43.061498774349154]],[[141.6285510651798,43.05824341200407],[141.6293023624143,43.05862422452856],[141.63050969326792,43.05923419690088],[141.63004537599357,43.05968025074315]],[[141.6025767747986,43.04564954978706],[141.60288481867968,43.0450973948291],[141.60440073210833,43.045879572084786],[141.60397131392523,43.04635645288816]],[[141.61356287402765,43.05056710838556],[141.61388921461577,43.05073571598068],[141.61344146645075,43.05118204951218]],[[141.61351840435117,43.05122259994323],[141.61397170403114,43.05077821524263],[141.61578839302018,43.05169911202461],[141.61534983862435,43.052161443595935]],[[141.61814717085548,43.05351590353632],[141.61853225246176,43.05310170817751],[141.6189316413824,43.053303086168675]],[[141.62100833067012,43.05435942714603],[141.62131381508078,43.05451958920787]],[[141.62203376644544,43.05488439919589],[141.62275063403473,43.05525104919678]],[[141.63070563755542,43.05988714877309],[141.63105222368137,43.05952199434478],[141.63175707452962,43.0598836045449],[141.63070563755542,43.05988714877309]],[[141.63170151351432,43.060058309543535],[141.63214342238126,43.06005859732658],[141.6327672362192,43.060387475801576]],[[141.6330241266624,43.06086604553178],[141.63324467550166,43.06062468458173],[141.63367851744982,43.06084662287355]],[[141.6338840485103,43.060951894814316],[141.6348278177498,43.06143492967845],[141.63424426566058,43.06146573955243]],[[141.6383273100576,43.063262862891],[141.63824805820155,43.06334595575145]],[[141.63798720174822,43.06361944857889],[141.63793738560213,43.06367167760605]],[[141.63540319680038,43.06177221141859],[141.6383273100576,43.063262862891]]],"bbox":[141.60253789350924,43.0450973948291,141.64802901552693,43.06872537917309]}
