{"type":"Topology","objects":{"音更町":{"type":"GeometryCollection","geometries":[{"type":"Polygon","arcs":[[0,1,2]],"properties":{"A45_004":"390","A45_007":"0","A45_009":"十勝西部","A45_010":"り","A45_015":"音更町","A45_016":"アカエゾマツ","A45_018":null,"A45_020":null,"A45_024":"森林空間利用","A45_025":0.03,"A45_026":"保健保","A45_027":null,"A45_028":null,"A45_029":null}},{"type":"Polygon","arcs":[[3,4,5]],"properties":{"A45_004":"388","A45_007":"0","A45_009":"十勝西部","A45_010":"ろ","A45_015":"音更町","A45_016":"ヤチダモ","A45_018":"ハンノキ","A45_020":"ミズナラ","A45_024":"山地災害防止（気象）","A45_025":0.36,"A45_026":"防風保","A45_027":null,"A45_028":null,"A45_029":null}},{"type":"Polygon","arcs":[[6,-5,7,8]],"properties":{"A45_004":"388","A45_007":"0","A45_009":"十勝西部","A45_010":"は","A45_015":"音更町","A45_016":"アカエゾマツ","A45_018":null,"A45_020":null,"A45_024":"山地災害防止（気象）","A45_025":0.23,"A45_026":"防風保","A45_027":null,"A45_028":null,"A45_029":null}},{"type":"MultiPolygon","arcs":[[[9,10,11,12,13]],[[14,15,16,17,18]]],"properties":{"A45_004":"388","A45_007":"0","A45_009":"十勝西部","A45_010":"ロ","A45_015":"音更町","A45_016":null,"A45_018":null,"A45_020":null,"A45_024":"水源涵養","A45_025":0.26,"A45_026":null,"A45_027":null,"A45_028":null,"A45_029":null}},{"type":"MultiPolygon","arcs":[[[19,20]],[[21,22]]],"properties":{"A45_004":"388","A45_007":"0","A45_009":"十勝西部","A45_010":"と","A45_015":"音更町","A45_016":"カラマツ","A45_018":"ハンノキ","A45_020":"ミズナラ","A45_024":"山地災害防止（気象）","A45_025":1.97,"A45_026":"防風保","A45_027":null,"A45_028":null,"A45_029":null}},{"type":"Polygon","arcs":[[-8,-4,23,24]],"properties":{"A45_004":"388","A45_007":"0","A45_009":"十勝西部","A45_010":"ね","A45_015":"音更町","A45_016":"他Ｎ","A45_018":"他Ｌ","A45_020":null,"A45_024":"水源涵養","A45_025":1.04,"A45_026":null,"A45_027":null,"A45_028":null,"A45_029":null}},{"type":"Polygon","arcs":[[-9,-25,25]],"properties":{"A45_004":"388","A45_007":"0","A45_009":"十勝西部","A45_010":"い","A45_015":"音更町","A45_016":"カラマツ","A45_018":"ハンノキ","A45_020":"ヤチダモ","A45_024":"山地災害防止（気象）","A45_025":0.38,"A45_026":"防風保","A45_027":null,"A45_028":null,"A45_029":null}},{"type":"Polygon","arcs":[[26,27]],"properties":{"A45_004":"390","A45_007":"0","A45_009":"十勝西部","A45_010":"そ","A45_015":"音更町","A45_016":"トドマツ","A45_018":null,"A45_020":null,"A45_024":"森林空間利用","A45_025":0.11,"A45_026":"保健保","A45_027":null,"A45_028":null,"A45_029":null}},{"type":"MultiPolygon","arcs":[[[28,29]],[[30,31,32]]],"properties":{"A45_004":"388","A45_007":"0","A45_009":"十勝西部","A45_010":"れ","A45_015":"音更町","A45_016":"アカエゾマツ","A45_018":"他Ｌ","A45_020":"トドマツ","A45_024":"水源涵養","A45_025":1.81,"A45_026":null,"A45_027":null,"A45_028":null,"A45_029":null}},{"type":"MultiPolygon","arcs":[[[-29,33]],[[-31,34,35]],[[36,37]]],"properties":{"A45_004":"388","A45_007":"0","A45_009":"十勝西部","A45_010":"ほ","A45_015":"音更町","A45_016":"ヤチダモ","A45_018":"ミズナラ","A45_020":"ハンノキ","A45_024":"山地災害防止（気象）","A45_025":1.96,"A45_026":"防風保","A45_027":null,"A45_028":null,"A45_029":null}},{"type":"MultiPolygon","arcs":[[[-35,-33,38]],[[-37,39]]],"properties":{"A45_004":"388","A45_007":"0","A45_009":"十勝西部","A45_010":"そ","A45_015":"音更町","A45_016":"他Ｎ","A45_018":null,"A45_020":null,"A45_024":"水源涵養","A45_025":0.29,"A45_026":null,"A45_027":null,"A45_028":null,"A45_029":null}},{"type":"Polygon","arcs":[[40,41,42,43]],"properties":{"A45_004":"390","A45_007":"0","A45_009":"十勝西部","A45_010":"た","A45_015":"音更町","A45_016":"欧州アカマツ","A45_018":null,"A45_020":null,"A45_024":"森林空間利用","A45_025":0.7,"A45_026":"保健保","A45_027":null,"A45_028":null,"A45_029":null}},{"type":"MultiPolygon","arcs":[[[44,45]],[[46,47]],[[48,-15,49]],[[50,-11]],[[-14,51,52]]],"properties":{"A45_004":"388","A45_007":"0","A45_009":"十勝西部","A45_010":"へ","A45_015":"音更町","A45_016":"カラマツ","A45_018":"ミズナラ","A45_020":"ハンノキ","A45_024":"山地災害防止（気象）","A45_025":1.97,"A45_026":"防風保","A45_027":null,"A45_028":null,"A45_029":null}},{"type":"MultiPolygon","arcs":[[[-20,53,54,55]],[[-22,56,57,58]]],"properties":{"A45_004":"388","A45_007":"0","A45_009":"十勝西部","A45_010":"よ","A45_015":"音更町","A45_016":"カラマツ","A45_018":"トドマツ","A45_020":"ニレ","A45_024":"水源涵養","A45_025":0.82,"A45_026":null,"A45_027":null,"A45_028":null,"A45_029":null}},{"type":"MultiPolygon","arcs":[[[-45,59]],[[-47,60]],[[61]],[[-49,62,-16]],[[-18,63]],[[-52,-13,64]]],"properties":{"A45_004":"388","A45_007":"0","A45_009":"十勝西部","A45_010":"た","A45_015":"音更町","A45_016":"トドマツ","A45_018":"ヤチダモ","A45_020":"ミズナラ","A45_024":"水源涵養","A45_025":3.38,"A45_026":null,"A45_027":null,"A45_028":null,"A45_029":null}},{"type":"MultiPolygon","arcs":[[[65,66]],[[67,68]],[[69,70]]],"properties":{"A45_004":"388","A45_007":"0","A45_009":"十勝西部","A45_010":"に","A45_015":"音更町","A45_016":"カラマツ","A45_018":"ミズナラ","A45_020":"ニレ","A45_024":"山地災害防止（気象）","A45_025":1.99,"A45_026":"防風保","A45_027":null,"A45_028":null,"A45_029":null}},{"type":"MultiPolygon","arcs":[[[71,72]],[[73,74,75]]],"properties":{"A45_004":"388","A45_007":"0","A45_009":"十勝西部","A45_010":"ぬ","A45_015":"音更町","A45_016":"ハンノキ","A45_018":"ヤチダモ","A45_020":"ミズナラ","A45_024":"山地災害防止（気象）","A45_025":1.06,"A45_026":"防風保","A45_027":null,"A45_028":null,"A45_029":null}},{"type":"MultiPolygon","arcs":[[[-72,76]],[[-76,77,78]]],"properties":{"A45_004":"388","A45_007":"0","A45_009":"十勝西部","A45_010":"る","A45_015":"音更町","A45_016":"他Ｌ","A45_018":"ニレ","A45_020":"トドマツ","A45_024":"水源涵養","A45_025":0.9,"A45_026":null,"A45_027":null,"A45_028":null,"A45_029":null}},{"type":"Polygon","arcs":[[79,80,81]],"properties":{"A45_004":"388","A45_007":"0","A45_009":"十勝西部","A45_010":"り","A45_015":"音更町","A45_016":"他Ｌ","A45_018":"ヤチダモ","A45_020":"ミズナラ","A45_024":"山地災害防止（気象）","A45_025":0.88,"A45_026":"防風保","A45_027":null,"A45_028":null,"A45_029":null}},{"type":"MultiPolygon","arcs":[[[82,83,84,85]],[[86,-80,87,-74,-79,88]],[[-58,89,-55,90]]],"properties":{"A45_004":"388","A45_007":"0","A45_009":"十勝西部","A45_010":"イ","A45_015":"音更町","A45_016":null,"A45_018":null,"A45_020":null,"A45_024":"水源涵養","A45_025":1.04,"A45_026":null,"A45_027":null,"A45_028":null,"A45_029":null}},{"type":"Polygon","arcs":[[-81,-87,91]],"properties":{"A45_004":"388","A45_007":"0","A45_009":"十勝西部","A45_010":"わ","A45_015":"音更町","A45_016":"ヤチダモ","A45_018":"他Ｌ","A45_020":"ニレ","A45_024":"水源涵養","A45_025":0.21,"A45_026":null,"A45_027":null,"A45_028":null,"A45_029":null}},{"type":"MultiPolygon","arcs":[[[92,93]],[[94,95]]],"properties":{"A45_004":"388","A45_007":"0","A45_009":"十勝西部","A45_010":"ち","A45_015":"音更町","A45_016":"ヤチダモ","A45_018":"ニレ","A45_020":"ハンノキ","A45_024":"山地災害防止（気象）","A45_025":1.95,"A45_026":"防風保","A45_027":null,"A45_028":null,"A45_029":null}},{"type":"MultiPolygon","arcs":[[[-93,96,-83,97]],[[-95,98,-85,99]]],"properties":{"A45_004":"388","A45_007":"0","A45_009":"十勝西部","A45_010":"か","A45_015":"音更町","A45_016":"トドマツ","A45_018":"ミズナラ","A45_020":"ニレ","A45_024":"水源涵養","A45_025":0.85,"A45_026":null,"A45_027":null,"A45_028":null,"A45_029":null}},{"type":"MultiPolygon","arcs":[[[-66,100]],[[-68,101]],[[102]],[[-70,103]]],"properties":{"A45_004":"388","A45_007":"0","A45_009":"十勝西部","A45_010":"つ","A45_015":"音更町","A45_016":"ヤチダモ","A45_018":"ミズナラ","A45_020":"ハンノキ","A45_024":"水源涵養","A45_025":2.19,"A45_026":null,"A45_027":null,"A45_028":null,"A45_029":null}},{"type":"Polygon","arcs":[[104,105,106,107,108,-2]],"properties":{"A45_004":"390","A45_007":"0","A45_009":"十勝西部","A45_010":"ち","A45_015":"音更町","A45_016":"トドマツ","A45_018":"トドマツ","A45_020":null,"A45_024":"森林空間利用","A45_025":1.1,"A45_026":"保健保","A45_027":null,"A45_028":null,"A45_029":null}},{"type":"Polygon","arcs":[[109,110]],"properties":{"A45_004":"390","A45_007":"0","A45_009":"十勝西部","A45_010":"イ","A45_015":"音更町","A45_016":"他Ｌ","A45_018":null,"A45_020":null,"A45_024":"森林空間利用","A45_025":4.56,"A45_026":"土崩保","A45_027":"保健保","A45_028":null,"A45_029":null}},{"type":"Polygon","arcs":[[111,-3,-109,112]],"properties":{"A45_004":"390","A45_007":"0","A45_009":"十勝西部","A45_010":"ぬ","A45_015":"音更町","A45_016":"他Ｎ","A45_018":null,"A45_020":null,"A45_024":"森林空間利用","A45_025":0.11,"A45_026":"保健保","A45_027":null,"A45_028":null,"A45_029":null}},{"type":"Polygon","arcs":[[-111,113,114]],"properties":{"A45_004":"390","A45_007":"0","A45_009":"十勝西部","A45_010":"い","A45_015":"音更町","A45_016":"ミズナラ","A45_018":"他Ｌ","A45_020":null,"A45_024":"森林空間利用","A45_025":2.25,"A45_026":"保健保","A45_027":null,"A45_028":null,"A45_029":null}},{"type":"Polygon","arcs":[[115,116,117,118]],"properties":{"A45_004":"390","A45_007":"0","A45_009":"十勝西部","A45_010":"へ","A45_015":"音更町","A45_016":"ストローブマツ","A45_018":null,"A45_020":null,"A45_024":"森林空間利用","A45_025":0.1,"A45_026":"保健保","A45_027":null,"A45_028":null,"A45_029":null}},{"type":"Polygon","arcs":[[-43,119,120,121]],"properties":{"A45_004":"390","A45_007":"0","A45_009":"十勝西部","A45_010":"つ","A45_015":"音更町","A45_016":"ミズナラ","A45_018":"他Ｌ","A45_020":"アカエゾマツ","A45_024":"森林空間利用","A45_025":0.81,"A45_026":"保健保","A45_027":null,"A45_028":null,"A45_029":null}},{"type":"Polygon","arcs":[[122,-113,-108,123,124]],"properties":{"A45_004":"390","A45_007":"0","A45_009":"十勝西部","A45_010":"る","A45_015":"音更町","A45_016":"カシワ","A45_018":null,"A45_020":null,"A45_024":"森林空間利用","A45_025":0.24,"A45_026":"保健保","A45_027":null,"A45_028":null,"A45_029":null}},{"type":"Polygon","arcs":[[125,-125,126,127]],"properties":{"A45_004":"390","A45_007":"0","A45_009":"十勝西部","A45_010":"お","A45_015":"音更町","A45_016":"トドマツ","A45_018":"トドマツ","A45_020":null,"A45_024":"森林空間利用","A45_025":0.17,"A45_026":"保健保","A45_027":null,"A45_028":null,"A45_029":null}},{"type":"Polygon","arcs":[[128,-128,129,130,131]],"properties":{"A45_004":"390","A45_007":"0","A45_009":"十勝西部","A45_010":"わ","A45_015":"音更町","A45_016":"トドマツ","A45_018":null,"A45_020":null,"A45_024":"森林空間利用","A45_025":0.13,"A45_026":"保健保","A45_027":null,"A45_028":null,"A45_029":null}},{"type":"Polygon","arcs":[[132,-117,133,-106]],"properties":{"A45_004":"390","A45_007":"0","A45_009":"十勝西部","A45_010":"と","A45_015":"音更町","A45_016":"カシワ","A45_018":"ミズナラ","A45_020":null,"A45_024":"森林空間利用","A45_025":0.32,"A45_026":"保健保","A45_027":null,"A45_028":null,"A45_029":null}},{"type":"Polygon","arcs":[[134,135,136]],"properties":{"A45_004":"390","A45_007":"0","A45_009":"十勝西部","A45_010":"は","A45_015":"音更町","A45_016":"トドマツ","A45_018":"ダケカンバ","A45_020":null,"A45_024":"森林空間利用","A45_025":0.47,"A45_026":"保健保","A45_027":null,"A45_028":null,"A45_029":null}},{"type":"Polygon","arcs":[[137,-137,138,139,-119]],"properties":{"A45_004":"390","A45_007":"0","A45_009":"十勝西部","A45_010":"に","A45_015":"音更町","A45_016":"アカエゾマツ","A45_018":null,"A45_020":null,"A45_024":"森林空間利用","A45_025":0.08,"A45_026":"保健保","A45_027":null,"A45_028":null,"A45_029":null}},{"type":"Polygon","arcs":[[140,-130,-127,-124,-107,-134,141,-139,-136,142,-114,143,-120,-42]],"properties":{"A45_004":"390","A45_007":"0","A45_009":"十勝西部","A45_010":"ろ","A45_015":"音更町","A45_016":"ミズナラ","A45_018":"他Ｌ","A45_020":null,"A45_024":"森林空間利用","A45_025":14.01,"A45_026":"保健保","A45_027":null,"A45_028":null,"A45_029":null}},{"type":"Polygon","arcs":[[144,-132,145]],"properties":{"A45_004":"390","A45_007":"0","A45_009":"十勝西部","A45_010":"か","A45_015":"音更町","A45_016":"欧州アカマツ","A45_018":null,"A45_020":null,"A45_024":"森林空間利用","A45_025":0.02,"A45_026":"保健保","A45_027":null,"A45_028":null,"A45_029":null}},{"type":"Polygon","arcs":[[146,-146,-131,-141,-41,147]],"properties":{"A45_004":"390","A45_007":"0","A45_009":"十勝西部","A45_010":"よ","A45_015":"音更町","A45_016":"ストローブマツ","A45_018":null,"A45_020":null,"A45_024":"森林空間利用","A45_025":0.69,"A45_026":"保健保","A45_027":null,"A45_028":null,"A45_029":null}},{"type":"Polygon","arcs":[[148,-28,149,-148,-44,-122]],"properties":{"A45_004":"390","A45_007":"0","A45_009":"十勝西部","A45_010":"れ","A45_015":"音更町","A45_016":"バンクシャマツ","A45_018":null,"A45_020":null,"A45_024":"森林空間利用","A45_025":0.59,"A45_026":"保健保","A45_027":null,"A45_028":null,"A45_029":null}},{"type":"Polygon","arcs":[[-140,-142,-116]],"properties":{"A45_004":"390","A45_007":"0","A45_009":"十勝西部","A45_010":"ほ","A45_015":"音更町","A45_016":"カシワ","A45_018":"ミズナラ","A45_020":null,"A45_024":"森林空間利用","A45_025":0.43,"A45_026":"保健保","A45_027":null,"A45_028":null,"A45_029":null}}]}},"arcs":[[[143.13785024639202,42.9578649127357],[143.13810417356905,42.95769256755811]],[[143.13810417356905,42.95769256755811],[143.13813161907916,42.95783743125264]],[[143.13813161907916,42.95783743125264],[143.13785024639202,42.9578649127357]],[[143.22827431720617,42.95155195885604],[143.2282807599493,42.95070067319772]],[[143.2282807599493,42.95070067319772],[143.2287454396506,42.95070041059569]],[[143.2287454396506,42.95070041059569],[143.22874432449117,42.95076595858233],[143.2287217775882,42.95155141926278],[143.22827431720617,42.95155195885604]],[[143.22875408843066,42.95010409442864],[143.2287454396506,42.95070041059569]],[[143.2282807599493,42.95070067319772],[143.22828690861417,42.95009491235055]],[[143.22828690861417,42.95009491235055],[143.22875408843066,42.95010409442864]],[[143.2285980281767,42.96268452167356],[143.2285927329685,42.962967264927556]],[[143.2285927329685,42.962967264927556],[143.2284638520254,42.96302836486733]],[[143.2284638520254,42.96302836486733],[143.2282502585428,42.96306279721052],[143.22797501293672,42.96294169180582]],[[143.22797501293672,42.96294169180582],[143.22813416955654,42.96287892722091]],[[143.22813416955654,42.96287892722091],[143.2285980281767,42.96268452167356]],[[143.2282210908309,42.96311640130107],[143.2281291513395,42.96316805835943]],[[143.2281291513395,42.96316805835943],[143.22767167880517,42.96338773845355]],[[143.22767167880517,42.96338773845355],[143.22767224807598,42.96316970951466],[143.22767364292457,42.96307333186898]],[[143.22767364292457,42.96307333186898],[143.22791307213078,42.962971408104174]],[[143.22791307213078,42.962971408104174],[143.2282210908309,42.96311640130107]],[[143.2280843462159,42.9689329195188],[143.22809282952068,42.966546818481106]],[[143.22809282952068,42.966546818481106],[143.22854917700312,42.96654711166007],[143.22853107005307,42.9673856215494],[143.2285132427922,42.96820357743336],[143.2285131969267,42.96893043469202],[143.2280843462159,42.9689329195188]],[[143.22805419374623,42.97137595843394],[143.22808073273993,42.9689776365089]],[[143.22808073273993,42.9689776365089],[143.22851319332946,42.968975151682116],[143.22851319243017,42.96899931556617],[143.22849619614277,42.96983671389341],[143.22848892422468,42.970637729247976],[143.2284719333333,42.97138402715132],[143.22805419374623,42.97137595843394]],[[143.22827431720617,42.95155195885604],[143.22781519351662,42.951535834011736],[143.22782051930182,42.950764260662304],[143.22784251312174,42.94995685832252],[143.22785645351274,42.94911529343624],[143.22792144751708,42.94911696167866],[143.22789912454522,42.9507434323637],[143.22794412032516,42.95074371205286],[143.22798310863385,42.949118352929865],[143.22830057920856,42.9491278066032]],[[143.22830057920856,42.9491278066032],[143.22828690861417,42.95009491235055]],[[143.22830057920856,42.9491278066032],[143.2287316512449,42.949140319770144],[143.22875631964865,42.949957722571064],[143.22875408843066,42.95010409442864]],[[143.13507511482493,42.96141680763973],[143.1343265380395,42.96087872437386]],[[143.1343265380395,42.96087872437386],[143.13446845105835,42.96077204949067],[143.13458796736103,42.96085636273113],[143.13493706799153,42.961116352238086],[143.1351938424221,42.9613111274068],[143.13507511482493,42.96141680763973]],[[143.22817968244664,42.959092716655725],[143.22815231607677,42.96141215904412]],[[143.22815231607677,42.96141215904412],[143.22770957803488,42.96140908875867],[143.22771459445318,42.961150787279216],[143.22776375679217,42.96115051118733],[143.2277999940747,42.95909520328121],[143.22817968244664,42.959092716655725]],[[143.22819646019872,42.957317652787644],[143.22817801870082,42.9590532768874]],[[143.22817801870082,42.9590532768874],[143.2277447235404,42.959058816711206],[143.2277608834582,42.95826641236523],[143.22777704517472,42.957448456481295]],[[143.22777704517472,42.957448456481295],[143.22819646019872,42.957317652787644]],[[143.22817968244664,42.959092716655725],[143.22864908448793,42.95908939995604],[143.22863736812025,42.95989902452055],[143.22862870764897,42.96069226163876],[143.2286114406657,42.96141523022891],[143.22815231607677,42.96141215904412]],[[143.22819646019872,42.957317652787644],[143.22820426541472,42.95686520746357]],[[143.22820426541472,42.95686520746357],[143.22835786242564,42.95687382296876],[143.228679224367,42.95683717109875],[143.22866918703363,42.95744654272397],[143.2286610796453,42.958279775391524],[143.22864964206752,42.95905579229116],[143.22817801870082,42.9590532768874]],[[143.228199546672,42.956818268248696],[143.22820733480086,42.95664356774665]],[[143.22820733480086,42.95664356774665],[143.22868256984492,42.95664247237239],[143.2286800607365,42.956794954223945],[143.22840036078827,42.95684049499305],[143.228199546672,42.956818268248696]],[[143.22777704517472,42.957448456481295],[143.2277848602833,42.95684186286189],[143.22820426541472,42.95686520746357]],[[143.228199546672,42.956818268248696],[143.22784569042648,42.956805479889155],[143.22784708977161,42.95664411093719],[143.22820733480086,42.95664356774665]],[[143.13464697008186,42.96035151301214],[143.13515724091422,42.96000164705857],[143.1353356888912,42.9598954353263],[143.13567401294557,42.960104553782344],[143.1358491936856,42.96022391000565]],[[143.1358491936856,42.96022391000565],[143.13550711226364,42.96059626440628],[143.1354487534574,42.9608363959831],[143.13542055701333,42.96106335339123]],[[143.13542055701333,42.96106335339123],[143.1353573895321,42.96109602845916]],[[143.1353573895321,42.96109602845916],[143.13535730499592,42.96109594841949],[143.13535721956026,42.96109586748047],[143.13494496313973,42.96068297613862],[143.13494487860345,42.960682896099],[143.13464697008186,42.96035151301214]],[[143.22810147020692,42.96607270848892],[143.22812909468217,42.96406267335391]],[[143.22812909468217,42.96406267335391],[143.22856628030988,42.96402435953678],[143.22855872960196,42.964824818211],[143.22855256834663,42.9656374986718],[143.22855033263198,42.965853306285275],[143.22830479073372,42.96598633670027],[143.22810147020692,42.96607270848892]],[[143.22810783560834,42.96643683139483],[143.22810257817167,42.96612242481025]],[[143.22810257817167,42.96612242481025],[143.22825756733306,42.96606215944133],[143.2285494953632,42.965913021269095],[143.22854390697597,42.96644073535186],[143.22810783560834,42.96643683139483]],[[143.22813048683275,42.964013234923065],[143.2281291513395,42.96316805835943]],[[143.2282210908309,42.96311640130107],[143.22859106112884,42.9630597539047],[143.22858883081014,42.96318418320367],[143.2285673945699,42.96396853322141],[143.22813048683275,42.964013234923065]],[[143.2285927329685,42.962967264927556],[143.22859217538877,42.96301031547385],[143.2284638520254,42.96302836486733]],[[143.22813416955654,42.96287892722091],[143.22814175174068,42.9615629744519]],[[143.22814175174068,42.9615629744519],[143.22861532034102,42.961564101302415],[143.22860388186388,42.96236622642045],[143.2285980281767,42.96268452167356]],[[143.2280843462159,42.9689329195188],[143.2277460428458,42.968938740830424]],[[143.2277460428458,42.968938740830424],[143.22774799797202,42.96876653954439],[143.22762412085677,42.96876431372232]],[[143.22762412085677,42.96876431372232],[143.22763887783213,42.96818521687447],[143.22764503998684,42.967375592309956],[143.22765148093134,42.966546525302086],[143.22809282952068,42.966546818481106]],[[143.22805419374623,42.97137595843394],[143.2277164470566,42.97136955885826]],[[143.2277164470566,42.97136955885826],[143.22774548436684,42.96898068071402]],[[143.22774548436684,42.96898068071402],[143.22808073273993,42.9689776365089]],[[143.22810147020692,42.96607270848892],[143.2278214878716,42.96618935145761],[143.22781511167835,42.96599604128447],[143.22765845967044,42.96599048077627],[143.2276709818306,42.96562635876967],[143.22766686653296,42.964812567646106],[143.22766996649597,42.96410265271544],[143.22812909468217,42.96406267335391]],[[143.22810783560834,42.96643683139483],[143.2278220274648,42.966434322286375],[143.22782842883913,42.966228792125264],[143.22810257817167,42.96612242481025]],[[143.2276567896294,42.96603797577217],[143.22777566831263,42.96603742358842],[143.22777147657263,42.966433764706665],[143.2276431550078,42.96643264954736],[143.2276567896294,42.96603797577217]],[[143.22813048683275,42.964013234923065],[143.22766996919398,42.964060435840615],[143.22767025158106,42.963985722863015],[143.22767167880517,42.96338773845355]],[[143.22767364292457,42.96307333186898],[143.22767643262154,42.96287224525809],[143.22791307213078,42.962971408104174]],[[143.22797501293672,42.96294169180582],[143.22767754868022,42.962801975830686],[143.2276842423342,42.962361195612914],[143.22769818092655,42.96156184760139],[143.22814175174068,42.9615629744519]],[[143.22823777505351,42.9540336038679],[143.22827375333128,42.9516916649386]],[[143.22827375333128,42.9516916649386],[143.2287262121452,42.95169917967359],[143.22872694239476,42.95332592824918],[143.22871134365386,42.95403084294923],[143.22823777505351,42.9540336038679]],[[143.2282048445781,42.95648858577984],[143.22821991361837,42.955385663517745]],[[143.22821991361837,42.955385663517745],[143.22870516711004,42.95506766234297],[143.22868679216202,42.95575757904924],[143.22867952474047,42.95648193619263],[143.2282048445781,42.95648858577984]],[[143.2282249174462,42.95531011686858],[143.2282391609088,42.95408359807981]],[[143.2282391609088,42.95408359807981],[143.22871134095587,42.954078892826814],[143.2287121701308,42.95413444215098],[143.228706286766,42.954935178715736],[143.22870600347954,42.955021001917885],[143.2282249174462,42.95531011686858]],[[143.22796357266094,42.98132309338627],[143.2279809448649,42.97892616001445]],[[143.2279809448649,42.97892616001445],[143.2283906292244,42.978935339394575],[143.22838696898367,42.97971719019637],[143.22837941917504,42.98052459253613],[143.2283543703581,42.98133088331382],[143.22796357266094,42.98132309338627]],[[143.227989311258,42.97839316871001],[143.22839118860276,42.978875068629684]],[[143.22839118860276,42.978875068629684],[143.22839090981284,42.978895343845245],[143.22797900322865,42.978887553018346]],[[143.22797900322865,42.978887553018346],[143.227989311258,42.97839316871001]],[[143.22796357266094,42.98132309338627],[143.22746278517963,42.98131335552716],[143.22747838841718,42.98052845062769],[143.22748038581136,42.97969966061107],[143.22749098971764,42.97892031082386],[143.2279809448649,42.97892616001445]],[[143.22797900322865,42.978887553018346],[143.22749210397768,42.978870872393024],[143.22751187557282,42.9780606920475],[143.22751466526978,42.97785960543667]],[[143.22751466526978,42.97785960543667],[143.227989311258,42.97839316871001]],[[143.22839230466133,42.97879924498937],[143.22798876087285,42.97831567772652]],[[143.22798876087285,42.97831567772652],[143.2280135992484,42.976443959221555]],[[143.2280135992484,42.976443959221555],[143.2284232845072,42.97644730649819],[143.22841184513078,42.977261096722415],[143.2284012385266,42.97807794284301],[143.22839230466133,42.97879924498937]],[[143.22769517539228,42.97394091574084],[143.22766363616807,42.97635756854713]],[[143.22766363616807,42.97635756854713],[143.22751059403896,42.97635728616001],[143.22753675441794,42.97554877315757],[143.22754180411124,42.97476220091504],[143.22755102126285,42.973944799013445],[143.22756745997054,42.97312823168276],[143.2275777886842,42.972320828443685],[143.227583948141,42.971540644985],[143.22772643492732,42.97154314959687]],[[143.22772643492732,42.97154314959687],[143.22769573387126,42.97388842231304]],[[143.22769573387126,42.97388842231304],[143.22769517539228,42.97394091574084]],[[143.22765835355045,42.97644116952455],[143.2276343749267,42.97789127236455],[143.22798876087285,42.97831567772652]],[[143.22839230466133,42.97879924498937],[143.22839118860276,42.978875068629684]],[[143.22751466526978,42.97785960543667],[143.22752248127773,42.97725328970772],[143.22752808765136,42.97644033225572],[143.22765835355045,42.97644116952455]],[[143.2277164470566,42.97136955885826],[143.22758784760134,42.971367055145656],[143.2276031711496,42.97061908989928],[143.227613498964,42.96981696388202],[143.22761827346477,42.96899123066095],[143.22762412085677,42.96876431372232]],[[143.2277460428458,42.968938740830424],[143.22774548436684,42.96898068071402]],[[143.22765835355045,42.97644116952455],[143.2280135992484,42.976443959221555]],[[143.2280058273073,42.97635813601937],[143.2280254235347,42.97393453864823]],[[143.2280254235347,42.97393453864823],[143.22844788546178,42.97393955326799],[143.2284356115145,42.97477167437347],[143.22842639526215,42.97556852316899],[143.22840856890053,42.97635870529023],[143.2280058273073,42.97635813601937]],[[143.22802570412324,42.97388621177946],[143.22805529451642,42.971548715500994]],[[143.22805529451642,42.971548715500994],[143.22848247788426,42.97155595144618],[143.2284682632,42.97232780268615],[143.2284532130456,42.973144648806674],[143.2284481660502,42.97389289194359],[143.22802570412324,42.97388621177946]],[[143.2280058273073,42.97635813601937],[143.22766363616807,42.97635756854713]],[[143.22769517539228,42.97394091574084],[143.2280254235347,42.97393453864823]],[[143.22802570412324,42.97388621177946],[143.22769573387126,42.97388842231304]],[[143.22772643492732,42.97154314959687],[143.22805529451642,42.971548715500994]],[[143.22823777505351,42.9540336038679],[143.22781142355853,42.95404497759386],[143.22781063665178,42.95331339889448],[143.22782540891575,42.95250932854287],[143.22782851607343,42.951688871644315],[143.22827375333128,42.9516916649386]],[[143.2282048445781,42.95648858577984],[143.22776738375802,42.95649245915984],[143.22778770753695,42.95574532758502],[143.2277857685986,42.95565033939186],[143.22784548717976,42.95563201030921],[143.22783714326982,42.95580171147998],[143.22788158416796,42.955801713278674],[143.2278857633176,42.955595071555535],[143.22821991361837,42.955385663517745]],[[143.22779022114202,42.955517299983626],[143.22787687981435,42.955527301344084],[143.22778910688197,42.955578403520676],[143.22779022114202,42.955517299983626]],[[143.2282249174462,42.95531011686858],[143.2279329885169,42.955483141933655],[143.22783327618498,42.95547397334541],[143.22784050403624,42.95536509782117],[143.22779356392203,42.955368151019556],[143.22779386879228,42.954934592357745],[143.22779609371497,42.954888764704954],[143.2278538670626,42.95488793283203],[143.22787002698038,42.95408719626732],[143.2282391609088,42.95408359807981]],[[143.13810417356905,42.95769256755811],[143.13846306961517,42.95745574188918],[143.13919991384518,42.95698276504276]],[[143.13919991384518,42.95698276504276],[143.13933877456503,42.957182645662776],[143.13938964021992,42.95728020231967],[143.13946951980276,42.95740705439224]],[[143.13946951980276,42.95740705439224],[143.1392330925334,42.95750682967667],[143.13900085520555,42.95759991040773],[143.1387032479568,42.957953119141344],[143.13872811601,42.95804795355041],[143.13875749776054,42.958363654259415],[143.13840039316386,42.95843720261502],[143.13809444650173,42.9582507389806],[143.13728233171452,42.9585912519849],[143.13712940469856,42.958658104887824]],[[143.13712940469856,42.958658104887824],[143.1371345605118,42.95865469196064],[143.13750518731473,42.95833703882351]],[[143.13750518731473,42.95833703882351],[143.13803923532265,42.957902184238606],[143.13813161907916,42.95783743125264]],[[143.1442931550053,42.95361986356608],[143.1451342216672,42.95305817309639],[143.1460463140864,42.95246188031172],[143.14636800248155,42.95219000446536],[143.14652591533894,42.95224455194471],[143.14670319959322,42.95205520148657],[143.1468480273149,42.95218132330961],[143.14681866085272,42.95226043936798],[143.14651379787375,42.952479598754664],[143.14620445537156,42.95305449127198],[143.1456229618305,42.95384571930469],[143.1451200951165,42.95443035597635],[143.14524491202332,42.95469180957957],[143.1452392876633,42.955363504222525],[143.14496828685714,42.9559724225894],[143.14467757830784,42.95625374581391],[143.14433922817312,42.95653220739564]],[[143.14433922817312,42.95653220739564],[143.14401080295642,42.956105685029556],[143.14403958036263,42.95569655735044],[143.14412321641356,42.95510218911494],[143.14422039445589,42.9543560261099],[143.1442931550053,42.95361986356608]],[[143.13728790571253,42.95824030324757],[143.137350523708,42.95820543293456],[143.13785024639202,42.9578649127357]],[[143.13750518731473,42.95833703882351],[143.13729409214892,42.95824295714697],[143.13728790571253,42.95824030324757]],[[143.14433922817312,42.95653220739564],[143.14386259378392,42.95628936526219],[143.14325334806375,42.955908447517054],[143.14303375700257,42.9557750501786],[143.1429359233544,42.955726098280984],[143.14251617917859,42.955451867110185],[143.14236074395336,42.95536800353073],[143.14236065851782,42.955367923491046],[143.14230091295696,42.955315112602584],[143.14293849721406,42.954813072365596],[143.14318060909812,42.954603860380075],[143.14348806662116,42.95439752532575],[143.1435546470296,42.95427760163023],[143.14363922736874,42.95413862219988],[143.14378502815674,42.95404574651417],[143.14391667181718,42.95396692723211],[143.1440656903796,42.95383925227987],[143.14415140026716,42.9537116321863]],[[143.14415140026716,42.9537116321863],[143.1442931550053,42.95361986356608]],[[143.14027927746696,42.956401792209135],[143.13975917614533,42.95668148586208],[143.13987953870998,42.956798011019615],[143.13987962324626,42.95679809105928]],[[143.13987962324626,42.95679809105928],[143.13924780004612,42.95695055402506]],[[143.13924780004612,42.95695055402506],[143.13940509057267,42.95684463996837],[143.13980813253949,42.95658366120722],[143.14022017761937,42.95630980595297]],[[143.14022017761937,42.95630980595297],[143.14022255992342,42.95631327283945],[143.1402782414479,42.95640018781866],[143.14027927746696,42.956401792209135]],[[143.13542055701333,42.96106335339123],[143.1357693554716,42.960925101512416],[143.13614066216206,42.96078618053797],[143.13613667097087,42.96104638048627],[143.13610324586836,42.96152135202897],[143.1358078365626,42.96162005352283],[143.1353227737273,42.96151864596896],[143.13523241164677,42.961530603354845]],[[143.13523241164677,42.961530603354845],[143.13520085983208,42.96150719310271],[143.13517630744087,42.961489544806845]],[[143.13517630744087,42.961489544806845],[143.1353187132882,42.961222725848295],[143.1353573895321,42.96109602845916]],[[143.13663260121376,42.95867574239178],[143.13708970952274,42.958385210109554],[143.13728790571253,42.95824030324757]],[[143.13712940469856,42.958658104887824],[143.13697654513174,42.95876148915158],[143.136922709016,42.95879744584567],[143.13688843675214,42.95880448124199]],[[143.13688843675214,42.95880448124199],[143.13663584956504,42.95867719839419],[143.13663260121376,42.95867574239178]],[[143.13587752233008,42.95917029127611],[143.13617655860156,42.95897261669313],[143.13663260121376,42.95867574239178]],[[143.13688843675214,42.95880448124199],[143.1365650774166,42.95901744969574],[143.13605077672224,42.959314598290284]],[[143.13605077672224,42.959314598290284],[143.13605069128658,42.95931451735128],[143.13587810778864,42.95917076791682],[143.1358780223531,42.959170686977814],[143.13587781460973,42.959170529596456],[143.13587773007345,42.95917044865747],[143.13587752233008,42.95917029127611]],[[143.13545028770088,42.95946328320418],[143.13587752233008,42.95917029127611]],[[143.13605077672224,42.959314598290284],[143.13594539686284,42.959618677060526]],[[143.13594539686284,42.959618677060526],[143.1356333932667,42.95952085690219],[143.13563313695994,42.959520768768634]],[[143.13563313695994,42.959520768768634],[143.13545080121372,42.95946346037061],[143.1354505440076,42.95946337223705],[143.13545028770088,42.95946328320418]],[[143.13919991384518,42.95698276504276],[143.13924780004612,42.95695055402506]],[[143.13987962324626,42.95679809105928],[143.14004007039313,42.95725757807498],[143.13946951980276,42.95740705439224]],[[143.14042981048755,42.95617612352947],[143.14069041423141,42.95600360748069]],[[143.14069041423141,42.95600360748069],[143.14097135524406,42.95589164638255],[143.14112739121634,42.95582960305392],[143.1414508431821,42.95615565495974],[143.14145092861764,42.956155734999356],[143.14147352948004,42.95620079912777],[143.1407321832439,42.956574513303345],[143.14050735722896,42.95628416628147]],[[143.14050735722896,42.95628416628147],[143.14042981048755,42.95617612352947]],[[143.14022017761937,42.95630980595297],[143.14042981048755,42.95617612352947]],[[143.14050735722896,42.95628416628147],[143.14033196424901,42.95637455803959]],[[143.14033196424901,42.95637455803959],[143.14027927746696,42.956401792209135]],[[143.1358491936856,42.96022391000565],[143.13598654084643,42.96007192098255],[143.1359996574585,42.960024746145336],[143.13598120966532,42.959765769274995],[143.13594539686284,42.959618677060526]],[[143.13987962324626,42.95679809105928],[143.14024951440382,42.95715673349666],[143.14024959894013,42.9571568135363],[143.14079983564415,42.95695821624889],[143.1407997502085,42.95695813530988],[143.14062055849223,42.956756299563786],[143.1405189665773,42.95662978563632],[143.14033196424901,42.95637455803959]],[[143.14069041423141,42.95600360748069],[143.14092329997055,42.955852748905436],[143.14097613154348,42.95581992724805],[143.14158809771286,42.955412758292354],[143.14230778827408,42.954920561135154],[143.14272076505148,42.95465417115325],[143.1431559820632,42.95438043371024],[143.14373533701638,42.95398464657438],[143.144040475188,42.953782091370606],[143.14415140026716,42.9537116321863]],[[143.14433922817312,42.95653220739564],[143.14402942701673,42.95678716969235],[143.1430981097902,42.9572155698429],[143.14194243599485,42.957747152809084],[143.14125835858664,42.957663576113355],[143.1405944529718,42.95826704458863],[143.1398673663861,42.958921536999526],[143.13931209617655,42.95940133520365],[143.1388583423389,42.95984537546387],[143.138709953302,42.95998174506167],[143.13772861488388,42.96088050053487],[143.13717052529972,42.96139149082484],[143.13649240500075,42.96199275416244],[143.13616723263186,42.96225504413519],[143.13563217738334,42.96182721235618],[143.13523241164677,42.961530603354845]],[[143.13532888551987,42.959539181488246],[143.13545028770088,42.95946328320418]],[[143.13563313695994,42.959520768768634],[143.13532888551987,42.959539181488246]],[[143.13431411030814,42.960204508031836],[143.13454639979676,42.96006010568954],[143.13489563442621,42.95983313389224],[143.13532888551987,42.959539181488246]],[[143.13464697008186,42.96035151301214],[143.13433071808842,42.96022821775824],[143.13431411030814,42.960204508031836]],[[143.13517630744087,42.961489544806845],[143.13507511482493,42.96141680763973]],[[143.1343265380395,42.96087872437386],[143.13430596514837,42.960864256980074],[143.13428784560784,42.96085109989854],[143.133860128942,42.960547892571405],[143.13394596653342,42.96045673549014],[143.13431411030814,42.960204508031836]]],"bbox":[143.133860128942,42.94911529343624,143.22875631964865,42.98133088331382]}
