{"type":"Topology","objects":{"01347-4402-10.featurecollection":{"type":"GeometryCollection","geometries":[{"type":"Polygon","arcs":[[0,1,2,3,4,5]],"properties":{"市区町村名":"山越郡長万部町","大字名":null,"丁目名":null,"小字名":"字富野","地番":"251-1","精度区分":null,"座標系":"任意座標系"}},{"type":"Polygon","arcs":[[6,7,-1]],"properties":{"市区町村名":"山越郡長万部町","大字名":null,"丁目名":null,"小字名":"字富野","地番":"251-2","精度区分":null,"座標系":"任意座標系"}},{"type":"Polygon","arcs":[[8,9]],"properties":{"市区町村名":"山越郡長万部町","大字名":null,"丁目名":null,"小字名":"字富野","地番":"252","精度区分":null,"座標系":"任意座標系"}},{"type":"Polygon","arcs":[[-9,10,11]],"properties":{"市区町村名":"山越郡長万部町","大字名":null,"丁目名":null,"小字名":"字富野","地番":"253","精度区分":null,"座標系":"任意座標系"}},{"type":"Polygon","arcs":[[12,13,14]],"properties":{"市区町村名":"山越郡長万部町","大字名":null,"丁目名":null,"小字名":"字富野","地番":"254-1","精度区分":null,"座標系":"任意座標系"}},{"type":"Polygon","arcs":[[15,-13,16]],"properties":{"市区町村名":"山越郡長万部町","大字名":null,"丁目名":null,"小字名":"字富野","地番":"254-2","精度区分":null,"座標系":"任意座標系"}},{"type":"Polygon","arcs":[[17,18,-15,19,20]],"properties":{"市区町村名":"山越郡長万部町","大字名":null,"丁目名":null,"小字名":"字富野","地番":"255-1","精度区分":null,"座標系":"任意座標系"}},{"type":"Polygon","arcs":[[-19,21,-11,22,-17]],"properties":{"市区町村名":"山越郡長万部町","大字名":null,"丁目名":null,"小字名":"字富野","地番":"255-2","精度区分":null,"座標系":"任意座標系"}},{"type":"Polygon","arcs":[[23,24,25,26,27,28,29,30,31,32,33,34]],"properties":{"市区町村名":"山越郡長万部町","大字名":null,"丁目名":null,"小字名":"字富野","地番":"256","精度区分":null,"座標系":"任意座標系"}},{"type":"Polygon","arcs":[[35,-26,36,37,38,39,40,41,42,43,44]],"properties":{"市区町村名":"山越郡長万部町","大字名":null,"丁目名":null,"小字名":"字富野","地番":"257-1","精度区分":null,"座標系":"任意座標系"}},{"type":"Polygon","arcs":[[45,-33,46]],"properties":{"市区町村名":"山越郡長万部町","大字名":null,"丁目名":null,"小字名":"字富野","地番":"257-2","精度区分":null,"座標系":"任意座標系"}},{"type":"Polygon","arcs":[[47,48,-47,-32]],"properties":{"市区町村名":"山越郡長万部町","大字名":null,"丁目名":null,"小字名":"字富野","地番":"257-3","精度区分":null,"座標系":"任意座標系"}},{"type":"Polygon","arcs":[[49,50,51,52]],"properties":{"市区町村名":"山越郡長万部町","大字名":null,"丁目名":null,"小字名":"字富野","地番":"257-4","精度区分":null,"座標系":"任意座標系"}},{"type":"Polygon","arcs":[[53,54,55,56,57]],"properties":{"市区町村名":"山越郡長万部町","大字名":null,"丁目名":null,"小字名":"字富野","地番":"257-7","精度区分":null,"座標系":"任意座標系"}},{"type":"Polygon","arcs":[[-57,58,59,60]],"properties":{"市区町村名":"山越郡長万部町","大字名":null,"丁目名":null,"小字名":"字富野","地番":"257-8","精度区分":null,"座標系":"任意座標系"}},{"type":"Polygon","arcs":[[61,62,-60,63,-28]],"properties":{"市区町村名":"山越郡長万部町","大字名":null,"丁目名":null,"小字名":"字富野","地番":"257-9","精度区分":null,"座標系":"任意座標系"}},{"type":"Polygon","arcs":[[-36,64,-62,-27]],"properties":{"市区町村名":"山越郡長万部町","大字名":null,"丁目名":null,"小字名":"字富野","地番":"257-10","精度区分":null,"座標系":"任意座標系"}},{"type":"Polygon","arcs":[[65,-63,-65,-45]],"properties":{"市区町村名":"山越郡長万部町","大字名":null,"丁目名":null,"小字名":"字富野","地番":"257-11","精度区分":null,"座標系":"任意座標系"}},{"type":"Polygon","arcs":[[66,-61,-66,-44]],"properties":{"市区町村名":"山越郡長万部町","大字名":null,"丁目名":null,"小字名":"字富野","地番":"257-12","精度区分":null,"座標系":"任意座標系"}},{"type":"Polygon","arcs":[[-43,67,68,-58,-67]],"properties":{"市区町村名":"山越郡長万部町","大字名":null,"丁目名":null,"小字名":"字富野","地番":"257-13","精度区分":null,"座標系":"任意座標系"}},{"type":"Polygon","arcs":[[69,-41,70,71]],"properties":{"市区町村名":"山越郡長万部町","大字名":null,"丁目名":null,"小字名":"字富野","地番":"257-14","精度区分":null,"座標系":"任意座標系"}},{"type":"Polygon","arcs":[[-71,-40,72,73]],"properties":{"市区町村名":"山越郡長万部町","大字名":null,"丁目名":null,"小字名":"字富野","地番":"257-15","精度区分":null,"座標系":"任意座標系"}},{"type":"Polygon","arcs":[[-73,-39,74,75]],"properties":{"市区町村名":"山越郡長万部町","大字名":null,"丁目名":null,"小字名":"字富野","地番":"257-16","精度区分":null,"座標系":"任意座標系"}},{"type":"Polygon","arcs":[[-75,-38,76,77]],"properties":{"市区町村名":"山越郡長万部町","大字名":null,"丁目名":null,"小字名":"字富野","地番":"257-17","精度区分":null,"座標系":"任意座標系"}},{"type":"Polygon","arcs":[[78,-77,-37,-25]],"properties":{"市区町村名":"山越郡長万部町","大字名":null,"丁目名":null,"小字名":"字富野","地番":"257-18","精度区分":null,"座標系":"任意座標系"}},{"type":"Polygon","arcs":[[79,80,81,-79,-24]],"properties":{"市区町村名":"山越郡長万部町","大字名":null,"丁目名":null,"小字名":"字富野","地番":"257-19","精度区分":null,"座標系":"任意座標系"}},{"type":"Polygon","arcs":[[82,-78,-82,83]],"properties":{"市区町村名":"山越郡長万部町","大字名":null,"丁目名":null,"小字名":"字富野","地番":"257-20","精度区分":null,"座標系":"任意座標系"}},{"type":"Polygon","arcs":[[84,-76,-83,85]],"properties":{"市区町村名":"山越郡長万部町","大字名":null,"丁目名":null,"小字名":"字富野","地番":"257-21","精度区分":null,"座標系":"任意座標系"}},{"type":"Polygon","arcs":[[86,-74,-85,87]],"properties":{"市区町村名":"山越郡長万部町","大字名":null,"丁目名":null,"小字名":"字富野","地番":"257-22","精度区分":null,"座標系":"任意座標系"}},{"type":"Polygon","arcs":[[88,-72,-87,89]],"properties":{"市区町村名":"山越郡長万部町","大字名":null,"丁目名":null,"小字名":"字富野","地番":"257-23","精度区分":null,"座標系":"任意座標系"}},{"type":"Polygon","arcs":[[-84,-81,90,91,92,93,-90,-88,-86]],"properties":{"市区町村名":"山越郡長万部町","大字名":null,"丁目名":null,"小字名":"字富野","地番":"257-24","精度区分":null,"座標系":"任意座標系"}},{"type":"Polygon","arcs":[[94,-93,95,96]],"properties":{"市区町村名":"山越郡長万部町","大字名":null,"丁目名":null,"小字名":"字富野","地番":"257-25","精度区分":null,"座標系":"任意座標系"}},{"type":"Polygon","arcs":[[-92,97,-96]],"properties":{"市区町村名":"山越郡長万部町","大字名":null,"丁目名":null,"小字名":"字富野","地番":"257-26","精度区分":null,"座標系":"任意座標系"}},{"type":"Polygon","arcs":[[98,-51,99,-48,-31]],"properties":{"市区町村名":"山越郡長万部町","大字名":null,"丁目名":null,"小字名":"字富野","地番":"257-27","精度区分":null,"座標系":"任意座標系"}},{"type":"Polygon","arcs":[[100,101,-55,102]],"properties":{"市区町村名":"山越郡長万部町","大字名":null,"丁目名":null,"小字名":"字富野","地番":"257-29","精度区分":null,"座標系":"任意座標系"}},{"type":"Polygon","arcs":[[103,-103,-54,-69]],"properties":{"市区町村名":"山越郡長万部町","大字名":null,"丁目名":null,"小字名":"字富野","地番":"257-30","精度区分":null,"座標系":"任意座標系"}},{"type":"Polygon","arcs":[[104,105,106]],"properties":{"市区町村名":"山越郡長万部町","大字名":null,"丁目名":null,"小字名":"字富野","地番":"258-2","精度区分":null,"座標系":"任意座標系"}},{"type":"Polygon","arcs":[[107,108,109,-105,110]],"properties":{"市区町村名":"山越郡長万部町","大字名":null,"丁目名":null,"小字名":"字富野","地番":"258-3","精度区分":null,"座標系":"任意座標系"}},{"type":"Polygon","arcs":[[111,112,-108,113]],"properties":{"市区町村名":"山越郡長万部町","大字名":null,"丁目名":null,"小字名":"字富野","地番":"258-4","精度区分":null,"座標系":"任意座標系"}},{"type":"Polygon","arcs":[[114,115,116,117,-112]],"properties":{"市区町村名":"山越郡長万部町","大字名":null,"丁目名":null,"小字名":"字富野","地番":"258-5","精度区分":null,"座標系":"任意座標系"}},{"type":"Polygon","arcs":[[118,119,-116,120]],"properties":{"市区町村名":"山越郡長万部町","大字名":null,"丁目名":null,"小字名":"字富野","地番":"258-6","精度区分":null,"座標系":"任意座標系"}},{"type":"Polygon","arcs":[[121,122,-119,123]],"properties":{"市区町村名":"山越郡長万部町","大字名":null,"丁目名":null,"小字名":"字富野","地番":"258-7","精度区分":null,"座標系":"任意座標系"}},{"type":"Polygon","arcs":[[124,125,-122,126]],"properties":{"市区町村名":"山越郡長万部町","大字名":null,"丁目名":null,"小字名":"字富野","地番":"258-8","精度区分":null,"座標系":"任意座標系"}},{"type":"Polygon","arcs":[[127,128,-125,129]],"properties":{"市区町村名":"山越郡長万部町","大字名":null,"丁目名":null,"小字名":"字富野","地番":"258-9","精度区分":null,"座標系":"任意座標系"}},{"type":"Polygon","arcs":[[130,131,-128,132]],"properties":{"市区町村名":"山越郡長万部町","大字名":null,"丁目名":null,"小字名":"字富野","地番":"258-10","精度区分":null,"座標系":"任意座標系"}},{"type":"Polygon","arcs":[[133,134,-131,135]],"properties":{"市区町村名":"山越郡長万部町","大字名":null,"丁目名":null,"小字名":"字富野","地番":"258-11","精度区分":null,"座標系":"任意座標系"}},{"type":"Polygon","arcs":[[136,137,-136,138,139]],"properties":{"市区町村名":"山越郡長万部町","大字名":null,"丁目名":null,"小字名":"字富野","地番":"258-12","精度区分":null,"座標系":"任意座標系"}},{"type":"Polygon","arcs":[[-139,-133,140,141]],"properties":{"市区町村名":"山越郡長万部町","大字名":null,"丁目名":null,"小字名":"字富野","地番":"258-13","精度区分":null,"座標系":"任意座標系"}},{"type":"Polygon","arcs":[[-141,-130,142,143]],"properties":{"市区町村名":"山越郡長万部町","大字名":null,"丁目名":null,"小字名":"字富野","地番":"258-14","精度区分":null,"座標系":"任意座標系"}},{"type":"Polygon","arcs":[[-143,-127,144,145]],"properties":{"市区町村名":"山越郡長万部町","大字名":null,"丁目名":null,"小字名":"字富野","地番":"258-15","精度区分":null,"座標系":"任意座標系"}},{"type":"Polygon","arcs":[[-145,-124,146,147]],"properties":{"市区町村名":"山越郡長万部町","大字名":null,"丁目名":null,"小字名":"字富野","地番":"258-16","精度区分":null,"座標系":"任意座標系"}},{"type":"Polygon","arcs":[[-147,-121,148,149]],"properties":{"市区町村名":"山越郡長万部町","大字名":null,"丁目名":null,"小字名":"字富野","地番":"258-17","精度区分":null,"座標系":"任意座標系"}},{"type":"Polygon","arcs":[[-149,-115,150,151]],"properties":{"市区町村名":"山越郡長万部町","大字名":null,"丁目名":null,"小字名":"字富野","地番":"258-18","精度区分":null,"座標系":"任意座標系"}},{"type":"Polygon","arcs":[[-151,-114,152,153]],"properties":{"市区町村名":"山越郡長万部町","大字名":null,"丁目名":null,"小字名":"字富野","地番":"258-19","精度区分":null,"座標系":"任意座標系"}},{"type":"Polygon","arcs":[[-153,-111,154,155]],"properties":{"市区町村名":"山越郡長万部町","大字名":null,"丁目名":null,"小字名":"字富野","地番":"258-20","精度区分":null,"座標系":"任意座標系"}},{"type":"Polygon","arcs":[[-155,-107,156,157]],"properties":{"市区町村名":"山越郡長万部町","大字名":null,"丁目名":null,"小字名":"字富野","地番":"258-21","精度区分":null,"座標系":"任意座標系"}},{"type":"Polygon","arcs":[[158,159,160,161]],"properties":{"市区町村名":"山越郡長万部町","大字名":null,"丁目名":null,"小字名":"字富野","地番":"258-22","精度区分":null,"座標系":"任意座標系"}},{"type":"Polygon","arcs":[[-159,162,163,164,165,166,167]],"properties":{"市区町村名":"山越郡長万部町","大字名":null,"丁目名":null,"小字名":"字富野","地番":"258-23","精度区分":null,"座標系":"任意座標系"}},{"type":"Polygon","arcs":[[168,169,-165,170]],"properties":{"市区町村名":"山越郡長万部町","大字名":null,"丁目名":null,"小字名":"字富野","地番":"258-24","精度区分":null,"座標系":"任意座標系"}},{"type":"Polygon","arcs":[[171,172,-169,173]],"properties":{"市区町村名":"山越郡長万部町","大字名":null,"丁目名":null,"小字名":"字富野","地番":"258-25","精度区分":null,"座標系":"任意座標系"}},{"type":"Polygon","arcs":[[174,175,-172,176]],"properties":{"市区町村名":"山越郡長万部町","大字名":null,"丁目名":null,"小字名":"字富野","地番":"258-26","精度区分":null,"座標系":"任意座標系"}},{"type":"Polygon","arcs":[[177,178,-175,179]],"properties":{"市区町村名":"山越郡長万部町","大字名":null,"丁目名":null,"小字名":"字富野","地番":"258-27","精度区分":null,"座標系":"任意座標系"}},{"type":"Polygon","arcs":[[180,181,-178,182]],"properties":{"市区町村名":"山越郡長万部町","大字名":null,"丁目名":null,"小字名":"字富野","地番":"258-28","精度区分":null,"座標系":"任意座標系"}},{"type":"Polygon","arcs":[[183,184,-181,185]],"properties":{"市区町村名":"山越郡長万部町","大字名":null,"丁目名":null,"小字名":"字富野","地番":"258-29","精度区分":null,"座標系":"任意座標系"}},{"type":"Polygon","arcs":[[186,-184,187]],"properties":{"市区町村名":"山越郡長万部町","大字名":null,"丁目名":null,"小字名":"字富野","地番":"258-30","精度区分":null,"座標系":"任意座標系"}},{"type":"Polygon","arcs":[[188,-137,189,190]],"properties":{"市区町村名":"山越郡長万部町","大字名":null,"丁目名":null,"小字名":"字富野","地番":"258-31","精度区分":null,"座標系":"任意座標系"}},{"type":"Polygon","arcs":[[191,-191,192,193]],"properties":{"市区町村名":"山越郡長万部町","大字名":null,"丁目名":null,"小字名":"字富野","地番":"258-32","精度区分":null,"座標系":"任意座標系"}},{"type":"Polygon","arcs":[[-188,194,195]],"properties":{"市区町村名":"山越郡長万部町","大字名":null,"丁目名":null,"小字名":"字富野","地番":"258-33","精度区分":null,"座標系":"任意座標系"}},{"type":"Polygon","arcs":[[-195,-186,196,197]],"properties":{"市区町村名":"山越郡長万部町","大字名":null,"丁目名":null,"小字名":"字富野","地番":"258-34","精度区分":null,"座標系":"任意座標系"}},{"type":"Polygon","arcs":[[-197,-183,198,199]],"properties":{"市区町村名":"山越郡長万部町","大字名":null,"丁目名":null,"小字名":"字富野","地番":"258-35","精度区分":null,"座標系":"任意座標系"}},{"type":"Polygon","arcs":[[-199,-180,200,201]],"properties":{"市区町村名":"山越郡長万部町","大字名":null,"丁目名":null,"小字名":"字富野","地番":"258-36","精度区分":null,"座標系":"任意座標系"}},{"type":"Polygon","arcs":[[-201,-177,202,203]],"properties":{"市区町村名":"山越郡長万部町","大字名":null,"丁目名":null,"小字名":"字富野","地番":"258-37","精度区分":null,"座標系":"任意座標系"}},{"type":"Polygon","arcs":[[-203,-174,204,205]],"properties":{"市区町村名":"山越郡長万部町","大字名":null,"丁目名":null,"小字名":"字富野","地番":"258-38","精度区分":null,"座標系":"任意座標系"}},{"type":"Polygon","arcs":[[206,-205,-171,207,208]],"properties":{"市区町村名":"山越郡長万部町","大字名":null,"丁目名":null,"小字名":"字富野","地番":"258-39","精度区分":null,"座標系":"任意座標系"}},{"type":"Polygon","arcs":[[209,-162,210,211]],"properties":{"市区町村名":"山越郡長万部町","大字名":null,"丁目名":null,"小字名":"字富野","地番":"258-41","精度区分":null,"座標系":"任意座標系"}},{"type":"Polygon","arcs":[[212,213,214,215]],"properties":{"市区町村名":"山越郡長万部町","大字名":null,"丁目名":null,"小字名":"字富野","地番":"258-42","精度区分":null,"座標系":"任意座標系"}},{"type":"Polygon","arcs":[[216,217,-213,218]],"properties":{"市区町村名":"山越郡長万部町","大字名":null,"丁目名":null,"小字名":"字富野","地番":"258-43","精度区分":null,"座標系":"任意座標系"}},{"type":"Polygon","arcs":[[219,220,-217,221]],"properties":{"市区町村名":"山越郡長万部町","大字名":null,"丁目名":null,"小字名":"字富野","地番":"258-44","精度区分":null,"座標系":"任意座標系"}},{"type":"Polygon","arcs":[[222,223,-220,224]],"properties":{"市区町村名":"山越郡長万部町","大字名":null,"丁目名":null,"小字名":"字富野","地番":"258-45","精度区分":null,"座標系":"任意座標系"}},{"type":"Polygon","arcs":[[225,226,-223,227]],"properties":{"市区町村名":"山越郡長万部町","大字名":null,"丁目名":null,"小字名":"字富野","地番":"258-46","精度区分":null,"座標系":"任意座標系"}},{"type":"Polygon","arcs":[[228,229,-226,230]],"properties":{"市区町村名":"山越郡長万部町","大字名":null,"丁目名":null,"小字名":"字富野","地番":"258-47","精度区分":null,"座標系":"任意座標系"}},{"type":"Polygon","arcs":[[231,232,-229,233]],"properties":{"市区町村名":"山越郡長万部町","大字名":null,"丁目名":null,"小字名":"字富野","地番":"258-48","精度区分":null,"座標系":"任意座標系"}},{"type":"Polygon","arcs":[[234,235,-232,236]],"properties":{"市区町村名":"山越郡長万部町","大字名":null,"丁目名":null,"小字名":"字富野","地番":"258-49","精度区分":null,"座標系":"任意座標系"}},{"type":"Polygon","arcs":[[237,-235,238]],"properties":{"市区町村名":"山越郡長万部町","大字名":null,"丁目名":null,"小字名":"字富野","地番":"258-50","精度区分":null,"座標系":"任意座標系"}},{"type":"Polygon","arcs":[[-239,239,240]],"properties":{"市区町村名":"山越郡長万部町","大字名":null,"丁目名":null,"小字名":"字富野","地番":"258-53","精度区分":null,"座標系":"任意座標系"}},{"type":"Polygon","arcs":[[-240,-237,241,242]],"properties":{"市区町村名":"山越郡長万部町","大字名":null,"丁目名":null,"小字名":"字富野","地番":"258-54","精度区分":null,"座標系":"任意座標系"}},{"type":"Polygon","arcs":[[-242,-234,243,244]],"properties":{"市区町村名":"山越郡長万部町","大字名":null,"丁目名":null,"小字名":"字富野","地番":"258-55","精度区分":null,"座標系":"任意座標系"}},{"type":"Polygon","arcs":[[-244,-231,245,246]],"properties":{"市区町村名":"山越郡長万部町","大字名":null,"丁目名":null,"小字名":"字富野","地番":"258-56","精度区分":null,"座標系":"任意座標系"}},{"type":"Polygon","arcs":[[-246,-228,247,248]],"properties":{"市区町村名":"山越郡長万部町","大字名":null,"丁目名":null,"小字名":"字富野","地番":"258-57","精度区分":null,"座標系":"任意座標系"}},{"type":"Polygon","arcs":[[-248,-225,249,250]],"properties":{"市区町村名":"山越郡長万部町","大字名":null,"丁目名":null,"小字名":"字富野","地番":"258-58","精度区分":null,"座標系":"任意座標系"}},{"type":"Polygon","arcs":[[-250,-222,251,252]],"properties":{"市区町村名":"山越郡長万部町","大字名":null,"丁目名":null,"小字名":"字富野","地番":"258-59","精度区分":null,"座標系":"任意座標系"}},{"type":"Polygon","arcs":[[253,-252,-219,254]],"properties":{"市区町村名":"山越郡長万部町","大字名":null,"丁目名":null,"小字名":"字富野","地番":"258-60","精度区分":null,"座標系":"任意座標系"}},{"type":"Polygon","arcs":[[255,256,257,258]],"properties":{"市区町村名":"山越郡長万部町","大字名":null,"丁目名":null,"小字名":"字富野","地番":"258-62","精度区分":null,"座標系":"任意座標系"}},{"type":"Polygon","arcs":[[259,260,-256,261]],"properties":{"市区町村名":"山越郡長万部町","大字名":null,"丁目名":null,"小字名":"字富野","地番":"258-63","精度区分":null,"座標系":"任意座標系"}},{"type":"Polygon","arcs":[[262,263,-260,264]],"properties":{"市区町村名":"山越郡長万部町","大字名":null,"丁目名":null,"小字名":"字富野","地番":"258-64","精度区分":null,"座標系":"任意座標系"}},{"type":"Polygon","arcs":[[265,266,-263,267]],"properties":{"市区町村名":"山越郡長万部町","大字名":null,"丁目名":null,"小字名":"字富野","地番":"258-65","精度区分":null,"座標系":"任意座標系"}},{"type":"Polygon","arcs":[[268,269,-266,270]],"properties":{"市区町村名":"山越郡長万部町","大字名":null,"丁目名":null,"小字名":"字富野","地番":"258-66","精度区分":null,"座標系":"任意座標系"}},{"type":"Polygon","arcs":[[271,-269,272]],"properties":{"市区町村名":"山越郡長万部町","大字名":null,"丁目名":null,"小字名":"字富野","地番":"258-67","精度区分":null,"座標系":"任意座標系"}},{"type":"Polygon","arcs":[[273,274,275,276]],"properties":{"市区町村名":"山越郡長万部町","大字名":null,"丁目名":null,"小字名":"字富野","地番":"258-70","精度区分":null,"座標系":"任意座標系"}},{"type":"Polygon","arcs":[[277,278,279,280]],"properties":{"市区町村名":"山越郡長万部町","大字名":null,"丁目名":null,"小字名":"字富野","地番":"258-71","精度区分":null,"座標系":"任意座標系"}},{"type":"Polygon","arcs":[[-273,281,282]],"properties":{"市区町村名":"山越郡長万部町","大字名":null,"丁目名":null,"小字名":"字富野","地番":"258-73","精度区分":null,"座標系":"任意座標系"}},{"type":"Polygon","arcs":[[-282,-271,283,284]],"properties":{"市区町村名":"山越郡長万部町","大字名":null,"丁目名":null,"小字名":"字富野","地番":"258-74","精度区分":null,"座標系":"任意座標系"}},{"type":"Polygon","arcs":[[-284,-268,285,286]],"properties":{"市区町村名":"山越郡長万部町","大字名":null,"丁目名":null,"小字名":"字富野","地番":"258-75","精度区分":null,"座標系":"任意座標系"}},{"type":"Polygon","arcs":[[-286,-265,287,288]],"properties":{"市区町村名":"山越郡長万部町","大字名":null,"丁目名":null,"小字名":"字富野","地番":"258-76","精度区分":null,"座標系":"任意座標系"}},{"type":"Polygon","arcs":[[289,290,291,292]],"properties":{"市区町村名":"山越郡長万部町","大字名":null,"丁目名":null,"小字名":"字富野","地番":"258-79","精度区分":null,"座標系":"任意座標系"}},{"type":"Polygon","arcs":[[293,294,295,296]],"properties":{"市区町村名":"山越郡長万部町","大字名":null,"丁目名":null,"小字名":"字富野","地番":"258-80","精度区分":null,"座標系":"任意座標系"}},{"type":"Polygon","arcs":[[297,298,-290,299]],"properties":{"市区町村名":"山越郡長万部町","大字名":null,"丁目名":null,"小字名":"字富野","地番":"258-81","精度区分":null,"座標系":"任意座標系"}},{"type":"Polygon","arcs":[[-294,300,301,302,-298,303]],"properties":{"市区町村名":"山越郡長万部町","大字名":null,"丁目名":null,"小字名":"字富野","地番":"258-82","精度区分":null,"座標系":"任意座標系"}},{"type":"Polygon","arcs":[[304,305,-302,306]],"properties":{"市区町村名":"山越郡長万部町","大字名":null,"丁目名":null,"小字名":"字富野","地番":"258-83","精度区分":null,"座標系":"任意座標系"}},{"type":"Polygon","arcs":[[307,308,309,310]],"properties":{"市区町村名":"山越郡長万部町","大字名":null,"丁目名":null,"小字名":"字富野","地番":"258-84","精度区分":null,"座標系":"任意座標系"}},{"type":"Polygon","arcs":[[311,312,313,314]],"properties":{"市区町村名":"山越郡長万部町","大字名":null,"丁目名":null,"小字名":"字富野","地番":"258-85","精度区分":null,"座標系":"任意座標系"}},{"type":"Polygon","arcs":[[-296,315,-312,316]],"properties":{"市区町村名":"山越郡長万部町","大字名":null,"丁目名":null,"小字名":"字富野","地番":"258-86","精度区分":null,"座標系":"任意座標系"}},{"type":"Polygon","arcs":[[-313,-316,-295,-304,-300,-293,317]],"properties":{"市区町村名":"山越郡長万部町","大字名":null,"丁目名":null,"小字名":"字富野","地番":"258-87","精度区分":null,"座標系":"任意座標系"}},{"type":"Polygon","arcs":[[318,319,320,321]],"properties":{"市区町村名":"山越郡長万部町","大字名":null,"丁目名":null,"小字名":"字富野","地番":"258-103","精度区分":null,"座標系":"任意座標系"}},{"type":"Polygon","arcs":[[322,323,324,-320]],"properties":{"市区町村名":"山越郡長万部町","大字名":null,"丁目名":null,"小字名":"字富野","地番":"258-104","精度区分":null,"座標系":"任意座標系"}},{"type":"Polygon","arcs":[[325,326,327,-324]],"properties":{"市区町村名":"山越郡長万部町","大字名":null,"丁目名":null,"小字名":"字富野","地番":"258-105","精度区分":null,"座標系":"任意座標系"}},{"type":"Polygon","arcs":[[328,329,330,331]],"properties":{"市区町村名":"山越郡長万部町","大字名":null,"丁目名":null,"小字名":"字富野","地番":"258-107","精度区分":null,"座標系":"任意座標系"}},{"type":"Polygon","arcs":[[-208,-164,332,333]],"properties":{"市区町村名":"山越郡長万部町","大字名":null,"丁目名":null,"小字名":"字富野","地番":"258-110","精度区分":null,"座標系":"任意座標系"}},{"type":"Polygon","arcs":[[-118,334,-109,-113]],"properties":{"市区町村名":"山越郡長万部町","大字名":null,"丁目名":null,"小字名":"字富野","地番":"258-111","精度区分":null,"座標系":"任意座標系"}},{"type":"Polygon","arcs":[[-168,335,336,-160]],"properties":{"市区町村名":"山越郡長万部町","大字名":null,"丁目名":null,"小字名":"字富野","地番":"258-117","精度区分":null,"座標系":"任意座標系"}},{"type":"Polygon","arcs":[[337,338]],"properties":{"市区町村名":"山越郡長万部町","大字名":null,"丁目名":null,"小字名":"字富野","地番":"274","精度区分":null,"座標系":"任意座標系"}},{"type":"Polygon","arcs":[[339,340]],"properties":{"市区町村名":"山越郡長万部町","大字名":null,"丁目名":null,"小字名":"字富野","地番":"道-6","精度区分":null,"座標系":"任意座標系"}},{"type":"Polygon","arcs":[[-338,341,-340,342]],"properties":{"市区町村名":"山越郡長万部町","大字名":null,"丁目名":null,"小字名":"字富野","地番":"道-7","精度区分":null,"座標系":"任意座標系"}},{"type":"Polygon","arcs":[[343,-333,-163,-210,344]],"properties":{"市区町村名":"山越郡長万部町","大字名":null,"丁目名":null,"小字名":"字富野","地番":"258-40","精度区分":null,"座標系":"任意座標系"}},{"type":"Polygon","arcs":[[345,-259,346,347,348]],"properties":{"市区町村名":"山越郡長万部町","大字名":null,"丁目名":null,"小字名":"字富野","地番":"258-78","精度区分":null,"座標系":"任意座標系"}},{"type":"Polygon","arcs":[[-20,-14,-16,-23,-10,-12,-22,-18,349,-34,-46,-49,-100,-50,350,-101,-104,-68,-42,-70,-89,-94,-95,351,-314,-318,-292,352,353,-347,-258,354,355,-215,356,-211,-161,-337,357,358,-157,-106,-110,-335,-117,-120,-123,-126,-129,-132,-135,359,-3,360,361,-5,362]],"properties":{"市区町村名":"山越郡長万部町","大字名":null,"丁目名":null,"小字名":"字富野","地番":"道-5","精度区分":null,"座標系":"任意座標系"}},{"type":"Polygon","arcs":[[-288,-262,-346,363,364]],"properties":{"市区町村名":"山越郡長万部町","大字名":null,"丁目名":null,"小字名":"字富野","地番":"258-77","精度区分":null,"座標系":"任意座標系"}},{"type":"Polygon","arcs":[[365,366,-275,367,368,369,370,371]],"properties":{"市区町村名":"山越郡長万部町","大字名":null,"丁目名":null,"小字名":"字富野","地番":"258-97","精度区分":null,"座標系":"任意座標系"}},{"type":"Polygon","arcs":[[372,373,374,-370]],"properties":{"市区町村名":"山越郡長万部町","大字名":null,"丁目名":null,"小字名":"字富野","地番":"258-101","精度区分":null,"座標系":"任意座標系"}},{"type":"Polygon","arcs":[[375,-278,376,-368,-274]],"properties":{"市区町村名":"山越郡長万部町","大字名":null,"丁目名":null,"小字名":"字富野","地番":"258-118","精度区分":null,"座標系":"任意座標系"}},{"type":"Polygon","arcs":[[377,-276,-367,378,379]],"properties":{"市区町村名":"山越郡長万部町","大字名":null,"丁目名":null,"小字名":"字富野","地番":"筆界未定地-1","精度区分":null,"座標系":"任意座標系"}},{"type":"Polygon","arcs":[[-356,380,-255,-216]],"properties":{"市区町村名":"山越郡長万部町","大字名":null,"丁目名":null,"小字名":"字富野","地番":"258-61","精度区分":null,"座標系":"任意座標系"}},{"type":"Polygon","arcs":[[381,-52,-99,-30]],"properties":{"市区町村名":"山越郡長万部町","大字名":null,"丁目名":null,"小字名":"字富野","地番":"257-5","精度区分":null,"座標系":"任意座標系"}},{"type":"Polygon","arcs":[[-64,-59,-56,-102,-351,-53,-382,-29]],"properties":{"市区町村名":"山越郡長万部町","大字名":null,"丁目名":null,"小字名":"字富野","地番":"257-6","精度区分":null,"座標系":"任意座標系"}},{"type":"Polygon","arcs":[[-372,382,383,384,385]],"properties":{"市区町村名":"山越郡長万部町","大字名":null,"丁目名":null,"小字名":"字富野","地番":"258-115","精度区分":null,"座標系":"任意座標系"}},{"type":"Polygon","arcs":[[-190,-140,-142,-144,-146,-148,-150,-152,-154,-156,-158,-359,386,-166,-170,-173,-176,-179,-182,-185,-187,-196,-198,-200,-202,-204,-206,-207,387,-345,-212,-357,-214,-218,-221,-224,-227,-230,-233,-236,-238,-241,-243,-245,-247,-249,-251,-253,-254,-381,-355,-257,-261,-264,-267,-270,-272,-283,-285,-287,-289,-365,388,389,-353,-291,-299,-303,-306,390,-310,391,392,393,394,395,396,397,398,399,400,-321,-325,-328,401,-331,402,-193]],"properties":{"市区町村名":"山越郡長万部町","大字名":null,"丁目名":null,"小字名":"字富野","地番":"258-1","精度区分":null,"座標系":"任意座標系"}},{"type":"Polygon","arcs":[[403,-400,404,-373,-369,-377,-281,405,406]],"properties":{"市区町村名":"山越郡長万部町","大字名":null,"丁目名":null,"小字名":"字富野","地番":"258-98","精度区分":null,"座標系":"任意座標系"}},{"type":"Polygon","arcs":[[-311,-391,-305,407]],"properties":{"市区町村名":"山越郡長万部町","大字名":null,"丁目名":null,"小字名":"字富野","地番":"258-92","精度区分":null,"座標系":"任意座標系"}},{"type":"Polygon","arcs":[[-364,-349,408,-389]],"properties":{"市区町村名":"山越郡長万部町","大字名":null,"丁目名":null,"小字名":"字富野","地番":"258-91","精度区分":null,"座標系":"任意座標系"}},{"type":"Polygon","arcs":[[-409,-348,-354,-390]],"properties":{"市区町村名":"山越郡長万部町","大字名":null,"丁目名":null,"小字名":"字富野","地番":"258-90","精度区分":null,"座標系":"任意座標系"}},{"type":"Polygon","arcs":[[-167,-387,-358,-336]],"properties":{"市区町村名":"山越郡長万部町","大字名":null,"丁目名":null,"小字名":"字富野","地番":"258-112","精度区分":null,"座標系":"任意座標系"}},{"type":"Polygon","arcs":[[-209,-334,-344,-388]],"properties":{"市区町村名":"山越郡長万部町","大字名":null,"丁目名":null,"小字名":"字富野","地番":"258-109","精度区分":null,"座標系":"任意座標系"}},{"type":"Polygon","arcs":[[-385,409,-396,410]],"properties":{"市区町村名":"山越郡長万部町","大字名":null,"丁目名":null,"小字名":"字富野","地番":"258-93","精度区分":null,"座標系":"任意座標系"}},{"type":"Polygon","arcs":[[-386,-411,-395,411]],"properties":{"市区町村名":"山越郡長万部町","大字名":null,"丁目名":null,"小字名":"字富野","地番":"258-68","精度区分":null,"座標系":"任意座標系"}},{"type":"Polygon","arcs":[[-366,-412,-394,412]],"properties":{"市区町村名":"山越郡長万部町","大字名":null,"丁目名":null,"小字名":"字富野","地番":"258-94","精度区分":null,"座標系":"任意座標系"}},{"type":"Polygon","arcs":[[413,-397,-410,-384]],"properties":{"市区町村名":"山越郡長万部町","大字名":null,"丁目名":null,"小字名":"字富野","地番":"258-69","精度区分":null,"座標系":"任意座標系"}},{"type":"Polygon","arcs":[[-371,-375,414,-398,-414,-383]],"properties":{"市区町村名":"山越郡長万部町","大字名":null,"丁目名":null,"小字名":"字富野","地番":"258-116","精度区分":null,"座標系":"任意座標系"}},{"type":"Polygon","arcs":[[-405,-399,-415,-374]],"properties":{"市区町村名":"山越郡長万部町","大字名":null,"丁目名":null,"小字名":"字富野","地番":"258-102","精度区分":null,"座標系":"任意座標系"}},{"type":"Polygon","arcs":[[415,-322,-401,-404,416]],"properties":{"市区町村名":"山越郡長万部町","大字名":null,"丁目名":null,"小字名":"字富野","地番":"258-51","精度区分":null,"座標系":"任意座標系"}},{"type":"Polygon","arcs":[[417,-194,-403,-330]],"properties":{"市区町村名":"山越郡長万部町","大字名":null,"丁目名":null,"小字名":"字富野","地番":"258-108","精度区分":null,"座標系":"任意座標系"}},{"type":"Polygon","arcs":[[418,-332,-402,-327]],"properties":{"市区町村名":"山越郡長万部町","大字名":null,"丁目名":null,"小字名":"字富野","地番":"258-106","精度区分":null,"座標系":"任意座標系"}},{"type":"Polygon","arcs":[[419,-380,420,-392,-309]],"properties":{"市区町村名":"山越郡長万部町","大字名":null,"丁目名":null,"小字名":"字富野","地番":"258-100","精度区分":null,"座標系":"任意座標系"}},{"type":"Polygon","arcs":[[-379,-413,-393,-421]],"properties":{"市区町村名":"山越郡長万部町","大字名":null,"丁目名":null,"小字名":"字富野","地番":"258-99","精度区分":null,"座標系":"任意座標系"}},{"type":"Polygon","arcs":[[421,-406,-280,422]],"properties":{"市区町村名":"山越郡長万部町","大字名":null,"丁目名":null,"小字名":"字富野","地番":"258-113","精度区分":null,"座標系":"任意座標系"}},{"type":"Polygon","arcs":[[423,-417,-407,-422]],"properties":{"市区町村名":"山越郡長万部町","大字名":null,"丁目名":null,"小字名":"字富野","地番":"258-114","精度区分":null,"座標系":"任意座標系"}},{"type":"Polygon","arcs":[[-361,-2,424,425]],"properties":{"市区町村名":"山越郡長万部町","大字名":null,"丁目名":null,"小字名":"字富野","地番":"250-1","精度区分":null,"座標系":"任意座標系"}},{"type":"Polygon","arcs":[[426,-425,-8]],"properties":{"市区町村名":"山越郡長万部町","大字名":null,"丁目名":null,"小字名":"字富野","地番":"250-2","精度区分":null,"座標系":"任意座標系"}}]}},"arcs":[[[784293,307678],[-39110,11237],[-2588,-12317],[27598,-7784]],[[770193,298814],[-4210,-1570],[-16975,-1579],[-22861,-17583],[-17232,-23774],[4056,-6857],[-18496,-18366],[7584,-5717],[-7222,-10080]],[[694837,213288],[-216323,23751],[74384,156905]],[[552898,393944],[280439,-30373]],[[833337,363571],[-8414,-10557],[-2124,-4929]],[[822799,348085],[-38506,-40407]],[[784293,307678],[-5331,-5592]],[[778962,302086],[-8769,-3272]],[[685362,147802],[-236549,26085]],[[448813,173887],[27520,58807],[237271,-26179],[-11287,-28735],[-16955,-29978]],[[685362,147802],[-132001,-8494],[-107198,28913]],[[446163,168221],[2650,5666]],[[616557,120376],[31841,-3556]],[[648398,116820],[-12553,-10521],[2932,-6215]],[[638777,100084],[-22737,-12994],[-21029,6960],[-42538,-30087],[-45419,17876],[59368,23586],[36785,7581],[13350,7370]],[[656426,123548],[-8028,-6728]],[[616557,120376],[15504,8560],[24365,-5388]],[[378094,22762],[55255,118075]],[[433349,140837],[183208,-20461]],[[638777,100084],[26780,-56780],[-29465,-22877]],[[636092,20427],[-147325,-10782],[-110673,13117]],[[433349,140837],[12814,27384]],[[685362,147802],[-28936,-24254]],[[5643,176490],[25142,3525],[1987,-6080]],[[32772,173935],[677,-2077],[22179,-2122],[5351,-357],[3878,1629]],[[64857,171008],[9249,3883]],[[74106,174891],[17206,-280],[4966,6940],[7426,6135],[4863,9089],[11499,3905]],[[120066,200680],[5164,1755],[13820,-445],[5437,2536],[10391,534]],[[154878,205060],[7156,368]],[[162034,205428],[14262,732],[12704,7314],[21946,424],[3790,5770],[-9158,6729],[14059,5486],[-388,4242],[5038,1791]],[[224287,237916],[6293,2238],[14730,-3391]],[[245310,236763],[12460,-2869],[3293,1320],[-2269,2233],[10335,6963],[17488,7097],[21048,-4214],[21556,-3123]],[[329221,244170],[41897,-5808],[8319,5003]],[[379437,243365],[88904,-9846],[-97910,-209183]],[[370431,24336],[-90367,36612],[-181213,-43713],[-98851,42450],[5643,116805]],[[89127,207149],[-15021,-32258]],[[64857,171008],[7249,15403]],[[72106,186411],[10151,21567]],[[82257,207978],[10185,21640]],[[92442,229618],[10287,21858]],[[102729,251476],[10080,21416]],[[112809,272892],[6594,-730]],[[119403,272162],[-9974,-21420]],[[109429,250742],[-10251,-22014]],[[99178,228728],[-10051,-21579]],[[331328,248693],[48109,-5328]],[[329221,244170],[2107,4523]],[[245310,236763],[9282,20428]],[[254592,257191],[76736,-8498]],[[189546,264394],[32372,-3586]],[[221918,260808],[-10204,-21487]],[[211714,239321],[-32190,3596]],[[179524,242917],[10022,21477]],[[145251,254076],[15697,-1680]],[[160948,252396],[15745,-1685]],[[176693,250711],[-3432,-7184]],[[173261,243527],[-31315,3539]],[[141946,247066],[3305,7010]],[[173261,243527],[-10369,-21697]],[[162892,221830],[-31253,3384]],[[131639,225214],[10307,21852]],[[120066,200680],[1347,2859]],[[121413,203539],[10226,21675]],[[162892,221830],[-8014,-16770]],[[89127,207149],[32286,-3610]],[[99178,228728],[32461,-3514]],[[109429,250742],[32517,-3676]],[[119403,272162],[32672,-3619]],[[152075,268543],[-6824,-14467]],[[80886,276427],[31923,-3535]],[[102729,251476],[-31968,3384]],[[70761,254860],[10125,21567]],[[92442,229618],[-31909,3455]],[[60533,233073],[10228,21787]],[[82257,207978],[-31884,3452]],[[50373,211430],[10160,21643]],[[72106,186411],[-31824,3524]],[[40282,189935],[10091,21495]],[[32772,173935],[7510,16000]],[[5643,176490],[400,8280]],[[6043,184770],[3873,8528]],[[9916,193298],[30366,-3363]],[[19661,214756],[30712,-3326]],[[9916,193298],[9745,21458]],[[29506,236432],[31027,-3359]],[[19661,214756],[9845,21676]],[[39385,258182],[31376,-3322]],[[29506,236432],[9879,21750]],[[49261,279930],[31625,-3503]],[[39385,258182],[9876,21748]],[[6043,184770],[720,14911]],[[6763,199681],[24118,54393]],[[30881,254074],[11788,26586]],[[42669,280660],[6592,-730]],[[10847,284184],[31822,-3524]],[[30881,254074],[-21323,3466]],[[9558,257540],[1289,26644]],[[6763,199681],[2795,57859]],[[224287,237916],[-12573,1405]],[[221918,260808],[32674,-3617]],[[168113,266767],[15436,-1708]],[[183549,265059],[-6856,-14348]],[[160948,252396],[7165,14371]],[[152075,268543],[16038,-1776]],[[434653,258438],[43306,-4817]],[[477959,253621],[-7383,-15632],[-43353,4764]],[[427223,242753],[7430,15685]],[[441687,273283],[22530,-2527]],[[464217,270756],[20738,-2325]],[[484955,268431],[-6996,-14810]],[[434653,258438],[7034,14845]],[[448942,288598],[22994,-2618]],[[471936,285980],[-7719,-15224]],[[441687,273283],[7255,15315]],[[448942,288598],[7395,15609]],[[456337,304207],[43262,-4774]],[[499599,299433],[-7443,-15755]],[[492156,283678],[-20220,2302]],[[463747,319851],[43259,-4736]],[[507006,315115],[-7407,-15682]],[[456337,304207],[7410,15644]],[[470970,335097],[43240,-4734]],[[514210,330363],[-7204,-15248]],[[463747,319851],[7223,15246]],[[478413,350812],[43169,-4840]],[[521582,345972],[-7372,-15609]],[[470970,335097],[7443,15715]],[[485498,365766],[43148,-4836]],[[528646,360930],[-7064,-14958]],[[478413,350812],[7085,14954]],[[492926,381447],[43161,-4763]],[[536087,376684],[-7441,-15754]],[[485498,365766],[7428,15681]],[[501567,399682],[43135,-4762]],[[544702,394920],[-8615,-18236]],[[492926,381447],[8641,18235]],[[450382,389198],[7263,15333]],[[457645,404531],[43922,-4849]],[[492926,381447],[-43919,4847]],[[449007,386294],[1375,2904]],[[485498,365766],[-43886,4921]],[[441612,370687],[7395,15607]],[[478413,350812],[-43886,4921]],[[434527,355733],[7085,14954]],[[470970,335097],[-43938,4811]],[[427032,339908],[7495,15825]],[[463747,319851],[-43939,4812]],[[419808,324663],[7224,15245]],[[456337,304207],[-43921,4848]],[[412416,309055],[7392,15608]],[[448942,288598],[-43853,4995]],[[405089,293593],[7327,15462]],[[441687,273283],[-43888,4919]],[[397799,278202],[7290,15391]],[[434653,258438],[-43904,4883]],[[390749,263321],[7050,14881]],[[427223,242753],[-43930,4828]],[[383293,247581],[7383,15586],[73,154]],[[342241,268590],[14014,-1571]],[[356255,267019],[-7747,-15615]],[[348508,251404],[-13643,1500]],[[334865,252904],[7376,15686]],[[342241,268590],[906,1926]],[[343147,270516],[6164,13109]],[[349311,283625],[43172,-4688]],[[392483,278937],[-7122,-15179]],[[385361,263758],[-14277,1600]],[[371084,265358],[-14829,1661]],[[356568,299056],[43138,-4722]],[[399706,294334],[-7223,-15397]],[[349311,283625],[7257,15431]],[[363908,314666],[43056,-4862]],[[406964,309804],[-7258,-15470]],[[356568,299056],[7340,15610]],[[371166,330102],[43122,-4683]],[[414288,325419],[-7324,-15615]],[[363908,314666],[7258,15436]],[[378370,345423],[43073,-4751]],[[421443,340672],[-7155,-15253]],[[371166,330102],[7204,15321]],[[385748,361110],[43053,-4751]],[[428801,356359],[-7358,-15687]],[[378370,345423],[7378,15687]],[[392831,376174],[42955,-4926]],[[435786,371248],[-6985,-14889]],[[385748,361110],[7083,15064]],[[400226,391898],[42987,-4817],[-7427,-15833]],[[392831,376174],[7395,15724]],[[408329,409976],[49316,-5445]],[[450382,389198],[-49173,5492]],[[401209,394690],[7120,15286]],[[356166,415735],[52163,-5759]],[[401209,394690],[-52135,5823]],[[349074,400513],[7092,15222]],[[392831,376174],[-45018,5161]],[[347813,381335],[7325,15615],[45088,-5052]],[[385748,361110],[-45089,4974]],[[340659,366084],[7154,15251]],[[378370,345423],[-45071,4973]],[[333299,350396],[7360,15688]],[[371166,330102],[-45090,4896]],[[326076,334998],[7223,15398]],[[363908,314666],[-44987,5080]],[[318921,319746],[7155,15252]],[[356568,299056],[-45041,4930]],[[311527,303986],[7394,15760]],[[304271,288516],[7256,15470]],[[349311,283625],[-28185,3061]],[[321126,286686],[-16855,1830]],[[297287,273627],[44954,-5037]],[[334865,252904],[-44981,4942]],[[289884,257846],[7403,15781]],[[246150,279186],[45057,-4817]],[[291207,274369],[-7471,-15847]],[[283736,258522],[-44978,4944]],[[238758,263466],[7392,15720]],[[253203,294183],[45020,-4928]],[[298223,289255],[-7016,-14886]],[[246150,279186],[7053,14997]],[[260408,309504],[45070,-4856]],[[305478,304648],[-7255,-15393]],[[253203,294183],[7205,15321]],[[267766,325154],[45106,-4822]],[[312872,320332],[-7394,-15684]],[[260408,309504],[7358,15650]],[[275073,340695],[45089,-4896]],[[320162,335799],[-7290,-15467]],[[267766,325154],[7307,15541]],[[282278,356018],[45141,-4825]],[[327419,351193],[-7257,-15394]],[[275073,340695],[7205,15323]],[[289673,371744],[45001,-5158]],[[334674,366586],[-7255,-15393]],[[282278,356018],[7395,15726]],[[296826,386956],[45071,-5049]],[[341897,381907],[-7223,-15321]],[[289673,371744],[7153,15212]],[[304202,402641],[45121,-4978],[-7426,-15756]],[[296826,386956],[7376,15685]],[[296826,386956],[-44006,4930]],[[252820,391886],[7460,15601],[43922,-4846]],[[289673,371744],[-44068,5051]],[[245605,376795],[7215,15091]],[[282278,356018],[-44342,4740]],[[237936,360758],[7669,16037]],[[275073,340695],[-44423,4825]],[[230650,345520],[7286,15238]],[[267766,325154],[-44577,4766]],[[223189,329920],[7461,15600]],[[260408,309504],[-44678,4815]],[[215730,314319],[7459,15601]],[[253203,294183],[-44758,4899]],[[208445,299082],[7285,15237]],[[201228,283989],[7217,15093]],[[246150,279186],[-30242,3233],[-14680,1570]],[[151769,289594],[44264,-4731]],[[196033,284863],[-7504,-15878]],[[188529,268985],[-44228,4861]],[[144301,273846],[7468,15748]],[[158876,304583],[44189,-4837]],[[203065,299746],[-7032,-14883]],[[151769,289594],[7107,14989]],[[166139,319900],[44200,-4761]],[[210339,315139],[-7274,-15393]],[[158876,304583],[7263,15317]],[[173575,335580],[44138,-4833]],[[217713,330747],[-7374,-15608]],[[166139,319900],[7436,15680]],[[180872,350969],[44149,-4756]],[[225021,346213],[-7308,-15466]],[[173575,335580],[7297,15389]],[[188222,366467],[44106,-4790],[-7307,-15464]],[[180872,350969],[7350,15498]],[[187575,408653],[19465,-1986]],[[207040,406667],[-4433,-9057]],[[202607,397610],[-26599,3015]],[[176008,400625],[11567,8028]],[[210587,413916],[-13467,1359]],[[197120,415275],[22406,15547],[15372,-1697]],[[234898,429125],[-7473,-15024]],[[227425,414101],[-15879,1774],[-959,-1959]],[[180872,350969],[-44347,4777]],[[136525,355746],[7292,15543],[44405,-4822]],[[173575,335580],[-44238,4843]],[[129337,340423],[7188,15323]],[[166139,319900],[-44196,4761]],[[121943,324661],[7394,15762]],[[158876,304583],[-44087,4826]],[[114789,309409],[7154,15252]],[[56978,299702],[45299,-4653]],[[102277,295049],[-7454,-15765]],[[94823,279284],[-45279,4976]],[[49544,284260],[7434,15442]],[[53802,315828],[5911,-613]],[[59713,315215],[-10128,-20812]],[[49585,294403],[-24035,1821]],[[25550,296224],[28252,19604]],[[64222,314749],[45161,-4672]],[[109383,310077],[-7106,-15028]],[[56978,299702],[7244,15047]],[[53802,315828],[20263,14060]],[[74065,329888],[42593,-4420]],[[116658,325468],[-7275,-15391]],[[64222,314749],[-4509,466]],[[94445,344029],[29661,-2806]],[[124106,341223],[-7448,-15755]],[[74065,329888],[20380,14141]],[[106191,352180],[34372,23850]],[[140563,376030],[-599,-1265]],[[139964,374765],[-11567,-24468]],[[128397,350297],[-22206,1883]],[[20271,292560],[26985,-2941]],[[47256,289619],[-2359,-4848]],[[44897,284771],[-30950,3402]],[[13947,288173],[6324,4387]],[[49585,294403],[-2329,-4784]],[[20271,292560],[5279,3664]],[[49544,284260],[-4647,511]],[[275370,424656],[14241,-1573]],[[289611,423083],[-7055,-15139]],[[282556,407944],[-13932,1556]],[[268624,409500],[6746,15156]],[[289611,423083],[13491,-1489]],[[303102,421594],[-7211,-15140]],[[295891,406454],[-13335,1490]],[[303102,421594],[13190,-1456]],[[316292,420138],[-7369,-15140]],[[308923,404998],[-13032,1456]],[[329784,418648],[13041,-1440]],[[342825,417208],[-7085,-15205]],[[335740,402003],[-12734,1422]],[[323006,403425],[6778,15223]],[[343147,270516],[-28226,3186]],[[314921,273702],[6205,12984]],[[492156,283678],[-7201,-15247]],[[371084,265358],[-7584,-15602]],[[363500,249756],[-14992,1648]],[[442810,906742],[326965,-36740],[-74208,-157117]],[[695567,712885],[-433139,47824],[180382,146033]],[[992920,845411],[2036,2793],[-1700,2264]],[[993256,850468],[-37416,66925],[-4361,49543],[5718,-1593],[3369,-48472],[39433,-69299],[-22747,-32562],[-7733,-22673],[-25950,-106055],[-5817,569],[26225,106839],[7587,21544],[21356,30177]],[[442810,906742],[1813,4121],[327184,-36239],[59174,125375],[7404,-1548],[-58898,-124751],[213769,-23232]],[[992920,845411],[-215152,23767],[-74574,-157342],[-7627,1049]],[[298208,275588],[16713,-1886]],[[297287,273627],[921,1961]],[[122516,292720],[29253,-3126]],[[144301,273846],[-29136,3202]],[[115165,277048],[3676,7836]],[[118841,284884],[3675,7836]],[[378094,22762],[-7663,1574]],[[189546,264394],[-5997,665]],[[10847,284184],[3100,3989]],[[94823,279284],[5548,-610]],[[100371,278674],[14794,-1626]],[[188529,268985],[5248,-576]],[[193777,268409],[14995,-1648],[29986,-3295]],[[283736,258522],[6148,-676]],[[363500,249756],[14544,-1599]],[[378044,248157],[5249,-576]],[[544702,394920],[8196,-976]],[[694837,213288],[20487,-2250],[17124,38413],[2630,5900],[15742,13958]],[[750820,269309],[11669,10343],[49894,44234],[10416,24199]],[[833337,363571],[7368,-1021],[-8277,-10244],[-12907,-29351],[-77877,-68607],[-20699,-48917],[-11086,-28886],[-17250,-29425],[-49313,-41655],[29525,-62193],[-55145,-43272],[-8103,575],[26519,19852]],[[122516,292720],[-14814,1583]],[[107702,294303],[7087,15106]],[[201289,381415],[-6309,614]],[[194980,382029],[7627,15581]],[[207040,406667],[3165,6466]],[[210205,413133],[6205,-692]],[[216410,412441],[-6218,-12759]],[[210192,399682],[-4628,-9494]],[[205564,390188],[-4275,-8773]],[[216410,412441],[16182,-1803]],[[232592,410638],[-6092,-12741]],[[226500,397897],[-16308,1785]],[[187575,408653],[9545,6622]],[[210587,413916],[-382,-783]],[[155515,386405],[20493,14220]],[[194980,382029],[-18268,2026]],[[176712,384055],[-21197,2350]],[[193777,268409],[3808,7962],[3643,7618]],[[162034,205428],[17490,37489]],[[205564,390188],[20891,-2205]],[[226455,387983],[-4149,-8910]],[[222306,379073],[-1799,201]],[[220507,379274],[-19218,2141]],[[378044,248157],[7317,15601]],[[304271,288516],[-6063,-12928]],[[107702,294303],[-3665,-7814]],[[104037,286489],[-3666,-7815]],[[124106,341223],[4291,9074]],[[139964,374765],[30572,-3297]],[[170536,371468],[18309,-1974]],[[188845,369494],[6303,-680]],[[195148,368814],[19659,-2119]],[[214807,366695],[18908,-2039],[5905,12487]],[[239620,377143],[4257,9002]],[[243877,386145],[4431,9366]],[[248308,395511],[6007,12705]],[[254315,408216],[1235,2744]],[[255550,410960],[13074,-1460]],[[308923,404998],[14083,-1573]],[[335740,402003],[13334,-1490]],[[254843,411040],[707,-80]],[[254315,408216],[-21723,2422]],[[227425,414101],[14083,-1573]],[[241508,412528],[13335,-1488]],[[94445,344029],[11746,8151]],[[118841,284884],[-14804,1605]],[[222306,379073],[17314,-1930]],[[214807,366695],[5700,12579]],[[195148,368814],[6141,12601]],[[188845,369494],[6135,12535]],[[226455,387983],[17422,-1838]],[[226500,397897],[21808,-2386]],[[261878,426145],[13492,-1489]],[[254843,411040],[7035,15105]],[[342825,417208],[13341,-1473]],[[316292,420138],[13492,-1490]],[[140563,376030],[14952,10375]],[[176712,384055],[-6176,-12587]],[[248090,427668],[-6582,-15140]],[[234898,429125],[13192,-1457]],[[248090,427668],[13788,-1523]],[[770193,298814],[4797,-1353]],[[774990,297461],[-24170,-28152]],[[778962,302086],[-3972,-4625]]],"bbox":[20695.715,-230545.297,21509.153,-228866.066],"transform":{"scale":[0.0008134388134388117,0.0016792326792326791],"translate":[20695.715,-230545.297]}}