{"type":"Topology","objects":{"01347-4402-7":{"type":"GeometryCollection","geometries":[{"type":"MultiPolygon","arcs":[[[0,1]]],"properties":{"筆ID":"H000000001","version":"ver1.0","座標系":"任意座標系","測地系判別":null,"地図名":"双葉・殖－１１　図郭無","地図番号":"殖-11","縮尺分母":"10000","市区町村コード":"01347","市区町村名":"山越郡長万部町","大字コード":"000","丁目コード":"000","小字コード":"0000","予備コード":"00","大字名":null,"丁目名":null,"小字名":null,"予備名":null,"地番":"地区外-268381","精度区分":null,"座標値種別":"図上測量","筆界未定構成筆":null,"代表点緯度":-229479.2435,"代表点経度":22438.134329211}},{"type":"MultiPolygon","arcs":[[[2,-1]]],"properties":{"筆ID":"H000000002","version":"ver1.0","座標系":"任意座標系","測地系判別":null,"地図名":"双葉・殖－１１　図郭無","地図番号":"殖-11","縮尺分母":"10000","市区町村コード":"01347","市区町村名":"山越郡長万部町","大字コード":"000","丁目コード":"000","小字コード":"0000","予備コード":"00","大字名":null,"丁目名":null,"小字名":null,"予備名":null,"地番":"地区外-268382","精度区分":null,"座標値種別":"図上測量","筆界未定構成筆":null,"代表点緯度":-229480.9795,"代表点経度":22373.316493091}},{"type":"MultiPolygon","arcs":[[[3]]],"properties":{"筆ID":"H000000003","version":"ver1.0","座標系":"任意座標系","測地系判別":null,"地図名":"双葉・殖－１１　図郭無","地図番号":"殖-11","縮尺分母":"10000","市区町村コード":"01347","市区町村名":"山越郡長万部町","大字コード":"000","丁目コード":"000","小字コード":"0000","予備コード":"00","大字名":null,"丁目名":null,"小字名":null,"予備名":null,"地番":"地区外-268383","精度区分":null,"座標値種別":"図上測量","筆界未定構成筆":null,"代表点緯度":-229552.6875,"代表点経度":21966.182426554}}]}},"arcs":[[[730524,276832],[-128783,455539]],[[601741,732371],[398258,267628],[-269475,-723167]],[[730524,276832],[-4610,-14316],[-132043,463387],[7870,6468]],[[269886,668049],[50061,7362],[-80290,-214803],[50406,-185652],[-105218,-274956],[-184845,175069],[209545,529895],[60341,-36915]]],"bbox":[21825.04,-229750.111,22652.689,-229213.317],"transform":{"scale":[0.0008276498276498253,0.0005367945367945312],"translate":[21825.04,-229750.111]}}
