{"type":"Topology","objects":{"01347-4402-12.featurecollection":{"type":"GeometryCollection","geometries":[{"type":"Polygon","arcs":[[0,1,2]],"properties":{"市区町村名":"山越郡長万部町","大字名":null,"丁目名":null,"小字名":"字平里","地番":"206","精度区分":null,"座標系":"任意座標系"}},{"type":"Polygon","arcs":[[3,4,-2]],"properties":{"市区町村名":"山越郡長万部町","大字名":null,"丁目名":null,"小字名":"字平里","地番":"207","精度区分":null,"座標系":"任意座標系"}},{"type":"Polygon","arcs":[[5,6,7]],"properties":{"市区町村名":"山越郡長万部町","大字名":null,"丁目名":null,"小字名":"字平里","地番":"216","精度区分":null,"座標系":"任意座標系"}},{"type":"Polygon","arcs":[[8,9]],"properties":{"市区町村名":"山越郡長万部町","大字名":null,"丁目名":null,"小字名":"字平里","地番":"225","精度区分":null,"座標系":"任意座標系"}},{"type":"Polygon","arcs":[[10,11,12,13]],"properties":{"市区町村名":"山越郡長万部町","大字名":null,"丁目名":null,"小字名":"字平里","地番":"226","精度区分":null,"座標系":"任意座標系"}},{"type":"Polygon","arcs":[[14,15,-13,16,17]],"properties":{"市区町村名":"山越郡長万部町","大字名":null,"丁目名":null,"小字名":"字平里","地番":"227-1","精度区分":null,"座標系":"任意座標系"}},{"type":"Polygon","arcs":[[18,-18,19]],"properties":{"市区町村名":"山越郡長万部町","大字名":null,"丁目名":null,"小字名":"字平里","地番":"227-2","精度区分":null,"座標系":"任意座標系"}},{"type":"Polygon","arcs":[[20,21,22,23,24,-19,25]],"properties":{"市区町村名":"山越郡長万部町","大字名":null,"丁目名":null,"小字名":"字平里","地番":"228-1","精度区分":null,"座標系":"任意座標系"}},{"type":"Polygon","arcs":[[-25,26,-15]],"properties":{"市区町村名":"山越郡長万部町","大字名":null,"丁目名":null,"小字名":"字平里","地番":"228-2","精度区分":null,"座標系":"任意座標系"}},{"type":"Polygon","arcs":[[27,28]],"properties":{"市区町村名":"山越郡長万部町","大字名":null,"丁目名":null,"小字名":"字平里","地番":"230","精度区分":null,"座標系":"任意座標系"}},{"type":"Polygon","arcs":[[29,-12,30,31]],"properties":{"市区町村名":"山越郡長万部町","大字名":null,"丁目名":null,"小字名":"字平里","地番":"234-1","精度区分":null,"座標系":"任意座標系"}},{"type":"Polygon","arcs":[[-32,32,33]],"properties":{"市区町村名":"山越郡長万部町","大字名":null,"丁目名":null,"小字名":"字平里","地番":"234-2","精度区分":null,"座標系":"任意座標系"}},{"type":"Polygon","arcs":[[34,35]],"properties":{"市区町村名":"山越郡長万部町","大字名":null,"丁目名":null,"小字名":"字平里","地番":"238","精度区分":null,"座標系":"任意座標系"}},{"type":"Polygon","arcs":[[36,37,38]],"properties":{"市区町村名":"山越郡長万部町","大字名":null,"丁目名":null,"小字名":"字平里","地番":"243","精度区分":null,"座標系":"任意座標系"}},{"type":"Polygon","arcs":[[39,40,41,-37,42]],"properties":{"市区町村名":"山越郡長万部町","大字名":null,"丁目名":null,"小字名":"字平里","地番":"244","精度区分":null,"座標系":"任意座標系"}},{"type":"Polygon","arcs":[[-41,43,44]],"properties":{"市区町村名":"山越郡長万部町","大字名":null,"丁目名":null,"小字名":"字平里","地番":"245","精度区分":null,"座標系":"任意座標系"}},{"type":"Polygon","arcs":[[45,-44,-40,46]],"properties":{"市区町村名":"山越郡長万部町","大字名":null,"丁目名":null,"小字名":"字平里","地番":"246","精度区分":null,"座標系":"任意座標系"}},{"type":"Polygon","arcs":[[47,48]],"properties":{"市区町村名":"山越郡長万部町","大字名":null,"丁目名":null,"小字名":"字平里","地番":"247","精度区分":null,"座標系":"任意座標系"}},{"type":"Polygon","arcs":[[49,50,51]],"properties":{"市区町村名":"山越郡長万部町","大字名":null,"丁目名":null,"小字名":"字平里","地番":"248","精度区分":null,"座標系":"任意座標系"}},{"type":"Polygon","arcs":[[52,53,54]],"properties":{"市区町村名":"山越郡長万部町","大字名":null,"丁目名":null,"小字名":"字平里","地番":"249","精度区分":null,"座標系":"任意座標系"}},{"type":"Polygon","arcs":[[55,56,57,58]],"properties":{"市区町村名":"山越郡長万部町","大字名":null,"丁目名":null,"小字名":"字平里","地番":"251","精度区分":null,"座標系":"任意座標系"}},{"type":"Polygon","arcs":[[59,60,61]],"properties":{"市区町村名":"山越郡長万部町","大字名":null,"丁目名":null,"小字名":"字平里","地番":"255","精度区分":null,"座標系":"任意座標系"}},{"type":"Polygon","arcs":[[62,63,64]],"properties":{"市区町村名":"山越郡長万部町","大字名":null,"丁目名":null,"小字名":"字平里","地番":"256","精度区分":null,"座標系":"任意座標系"}},{"type":"Polygon","arcs":[[65,-63,66]],"properties":{"市区町村名":"山越郡長万部町","大字名":null,"丁目名":null,"小字名":"字平里","地番":"258-1","精度区分":null,"座標系":"任意座標系"}},{"type":"Polygon","arcs":[[67,-51,68]],"properties":{"市区町村名":"山越郡長万部町","大字名":null,"丁目名":null,"小字名":"字平里","地番":"260","精度区分":null,"座標系":"任意座標系"}},{"type":"Polygon","arcs":[[69,70,71,72]],"properties":{"市区町村名":"山越郡長万部町","大字名":null,"丁目名":null,"小字名":"字平里","地番":"270","精度区分":null,"座標系":"任意座標系"}},{"type":"Polygon","arcs":[[73,74,-71,75]],"properties":{"市区町村名":"山越郡長万部町","大字名":null,"丁目名":null,"小字名":"字平里","地番":"271","精度区分":null,"座標系":"任意座標系"}},{"type":"Polygon","arcs":[[76,77]],"properties":{"市区町村名":"山越郡長万部町","大字名":null,"丁目名":null,"小字名":"字平里","地番":"272","精度区分":null,"座標系":"任意座標系"}},{"type":"Polygon","arcs":[[78,79,-53,80]],"properties":{"市区町村名":"山越郡長万部町","大字名":null,"丁目名":null,"小字名":"字平里","地番":"筆界未定地-1","精度区分":null,"座標系":"任意座標系"}},{"type":"Polygon","arcs":[[81,-70,82,83]],"properties":{"市区町村名":"山越郡長万部町","大字名":null,"丁目名":null,"小字名":"字平里","地番":"筆界未定地-3","精度区分":null,"座標系":"任意座標系"}},{"type":"Polygon","arcs":[[-54,-80,84,85,86,-56,87]],"properties":{"市区町村名":"山越郡長万部町","大字名":null,"丁目名":null,"小字名":"字平里","地番":"筆界未定地-4","精度区分":null,"座標系":"任意座標系"}},{"type":"Polygon","arcs":[[-73,88,89,90,91,92]],"properties":{"市区町村名":"山越郡長万部町","大字名":null,"丁目名":null,"小字名":"字平里","地番":"筆界未定地-5","精度区分":null,"座標系":"任意座標系"}},{"type":"Polygon","arcs":[[93,-62,94,-58]],"properties":{"市区町村名":"山越郡長万部町","大字名":null,"丁目名":null,"小字名":"字平里","地番":"筆界未定地-7","精度区分":null,"座標系":"任意座標系"}},{"type":"Polygon","arcs":[[95,96,97,98,99,-26,100,101,102]],"properties":{"市区町村名":"山越郡長万部町","大字名":null,"丁目名":null,"小字名":"字平里","地番":"筆界未定地-8","精度区分":null,"座標系":"任意座標系"}},{"type":"Polygon","arcs":[[103,104,105]],"properties":{"市区町村名":"山越郡長万部町","大字名":null,"丁目名":null,"小字名":"字平里","地番":"筆界未定地-9","精度区分":null,"座標系":"任意座標系"}},{"type":"Polygon","arcs":[[106,107,108]],"properties":{"市区町村名":"山越郡長万部町","大字名":null,"丁目名":null,"小字名":"字平里","地番":"筆界未定地-10","精度区分":null,"座標系":"任意座標系"}},{"type":"Polygon","arcs":[[109,110,-106]],"properties":{"市区町村名":"山越郡長万部町","大字名":null,"丁目名":null,"小字名":"字平里","地番":"筆界未定地-11","精度区分":null,"座標系":"任意座標系"}},{"type":"Polygon","arcs":[[-108,111,112,113]],"properties":{"市区町村名":"山越郡長万部町","大字名":null,"丁目名":null,"小字名":"字平里","地番":"筆界未定地-12","精度区分":null,"座標系":"任意座標系"}},{"type":"Polygon","arcs":[[114,115]],"properties":{"市区町村名":"山越郡長万部町","大字名":null,"丁目名":null,"小字名":"字平里","地番":"筆界未定地-13","精度区分":null,"座標系":"任意座標系"}},{"type":"Polygon","arcs":[[-6,116,117]],"properties":{"市区町村名":"山越郡長万部町","大字名":null,"丁目名":null,"小字名":"字平里","地番":"筆界未定地-14","精度区分":null,"座標系":"任意座標系"}},{"type":"Polygon","arcs":[[118,119,120]],"properties":{"市区町村名":"山越郡長万部町","大字名":null,"丁目名":null,"小字名":"字平里","地番":"筆界未定地-15","精度区分":null,"座標系":"任意座標系"}},{"type":"Polygon","arcs":[[-120,121,122]],"properties":{"市区町村名":"山越郡長万部町","大字名":null,"丁目名":null,"小字名":"字平里","地番":"筆界未定地-16","精度区分":null,"座標系":"任意座標系"}},{"type":"Polygon","arcs":[[123,-101,-20,-17,-30,-34]],"properties":{"市区町村名":"山越郡長万部町","大字名":null,"丁目名":null,"小字名":"字平里","地番":"筆界未定地-17","精度区分":null,"座標系":"任意座標系"}},{"type":"Polygon","arcs":[[124,125,-76,-82]],"properties":{"市区町村名":"山越郡長万部町","大字名":null,"丁目名":null,"小字名":"字平里","地番":"筆界未定地-53","精度区分":null,"座標系":"任意座標系"}},{"type":"Polygon","arcs":[[-83,-93,126,127,128,129]],"properties":{"市区町村名":"山越郡長万部町","大字名":null,"丁目名":null,"小字名":"字平里","地番":"筆界未定地-55","精度区分":null,"座標系":"任意座標系"}},{"type":"Polygon","arcs":[[-98,130]],"properties":{"市区町村名":"山越郡長万部町","大字名":null,"丁目名":null,"小字名":"字平里","地番":"道-18","精度区分":null,"座標系":"任意座標系"}},{"type":"Polygon","arcs":[[-3,-5,131,-116,132,-117,-8,133,-121,-123,134]],"properties":{"市区町村名":"山越郡長万部町","大字名":null,"丁目名":null,"小字名":"字平里","地番":"道-19","精度区分":null,"座標系":"任意座標系"}},{"type":"Polygon","arcs":[[-113,135,136]],"properties":{"市区町村名":"山越郡長万部町","大字名":null,"丁目名":null,"小字名":"字平里","地番":"道-20","精度区分":null,"座標系":"任意座標系"}},{"type":"Polygon","arcs":[[-136,-112,-107,137,-102,-124,-33,-31,-11,138,-9,139]],"properties":{"市区町村名":"山越郡長万部町","大字名":null,"丁目名":null,"小字名":"字平里","地番":"道-21","精度区分":null,"座標系":"任意座標系"}},{"type":"Polygon","arcs":[[-86,140]],"properties":{"市区町村名":"山越郡長万部町","大字名":null,"丁目名":null,"小字名":"字平里","地番":"道-22","精度区分":null,"座標系":"任意座標系"}},{"type":"Polygon","arcs":[[-128,141]],"properties":{"市区町村名":"山越郡長万部町","大字名":null,"丁目名":null,"小字名":"字平里","地番":"道-23","精度区分":null,"座標系":"任意座標系"}},{"type":"Polygon","arcs":[[-96,142]],"properties":{"市区町村名":"山越郡長万部町","大字名":null,"丁目名":null,"小字名":"字平里","地番":"道-24","精度区分":null,"座標系":"任意座標系"}},{"type":"Polygon","arcs":[[-24,143,144,-16,-27]],"properties":{"市区町村名":"山越郡長万部町","大字名":null,"丁目名":null,"小字名":"字平里","地番":"道-28","精度区分":null,"座標系":"任意座標系"}},{"type":"Polygon","arcs":[[-77,145,146,147,-89,-72,-75,148]],"properties":{"市区町村名":"山越郡長万部町","大字名":null,"丁目名":null,"小字名":"字平里","地番":"道-30","精度区分":null,"座標系":"任意座標系"}},{"type":"Polygon","arcs":[[-38,-42,-45,-46,149,-48,150,-52,-68,151,-81,-55,-88,-59,-95,-61,152,-104,-111,153]],"properties":{"市区町村名":"山越郡長万部町","大字名":null,"丁目名":null,"小字名":"字平里","地番":"道-31","精度区分":null,"座標系":"任意座標系"}},{"type":"Polygon","arcs":[[-147,154]],"properties":{"市区町村名":"山越郡長万部町","大字名":null,"丁目名":null,"小字名":"字平里","地番":"道-32","精度区分":null,"座標系":"任意座標系"}},{"type":"Polygon","arcs":[[155]],"properties":{"市区町村名":"山越郡長万部町","大字名":null,"丁目名":null,"小字名":"字平里","地番":"道-33","精度区分":null,"座標系":"任意座標系"}},{"type":"Polygon","arcs":[[156]],"properties":{"市区町村名":"山越郡長万部町","大字名":null,"丁目名":null,"小字名":"字平里","地番":"道-34","精度区分":null,"座標系":"任意座標系"}},{"type":"Polygon","arcs":[[-91,157]],"properties":{"市区町村名":"山越郡長万部町","大字名":null,"丁目名":null,"小字名":"字平里","地番":"道-149","精度区分":null,"座標系":"任意座標系"}},{"type":"Polygon","arcs":[[158,-21,-100]],"properties":{"市区町村名":"山越郡長万部町","大字名":null,"丁目名":null,"小字名":"字平里","地番":"道-150","精度区分":null,"座標系":"任意座標系"}},{"type":"Polygon","arcs":[[-144,-23,159]],"properties":{"市区町村名":"山越郡長万部町","大字名":null,"丁目名":null,"小字名":"字平里","地番":"道-151","精度区分":null,"座標系":"任意座標系"}},{"type":"Polygon","arcs":[[-64,-66,160,-125,-84,-130,161,-29,162,-35,163]],"properties":{"市区町村名":"山越郡長万部町","大字名":null,"丁目名":null,"小字名":"字平里","地番":"道-152","精度区分":null,"座標系":"任意座標系"}}]}},"arcs":[[[834239,2130],[-54374,47531],[-55713,48646]],[[724152,98307],[85710,67287]],[[809862,165594],[55502,-48358],[55020,-47582],[-86145,-67524]],[[724152,98307],[-54372,47531]],[[669780,145838],[85709,67107],[54373,-47351]],[[744038,231070],[12,706],[1091,2066],[2076,3021],[3390,1629],[2322,958],[2238,1242],[1664,2212],[1397,1765],[3802,2439],[4147,1390],[3938,382],[5055,399],[4036,1399],[3001,2213],[2022,2467],[969,3097],[3745,5313]],[[788943,263768],[11102,-9677]],[[800045,254091],[-43101,-34174],[-12906,11153]],[[589290,367292],[7479,97560]],[[596769,464852],[82294,-5347],[-5813,-62309],[-48168,-4800],[-35792,-25104]],[[595219,464958],[-2103,144]],[[593116,465102],[-76640,4295]],[[516476,469397],[8538,96932]],[[525014,566329],[70205,-101371]],[[444983,560388],[996,10863]],[[445979,571251],[79035,-4922]],[[516476,469397],[-58259,3038]],[[458217,472435],[969,4215],[1045,2720],[3229,4526],[1228,3452],[702,3767],[-634,2649],[-2294,1645],[-4408,1697],[-2904,2244],[-78,1494],[409,3043],[-582,3203],[-534,3666],[1524,3059],[2791,2323],[151,2688],[833,2828],[1279,1681],[2636,1867],[1739,1836],[735,1810],[261,2681],[-1892,3479],[-857,2664],[-604,1809],[668,2281],[79,1948],[-291,1602],[-1803,960],[-2218,1268],[-991,1277],[-1251,2039],[-1365,3164],[-1955,2832],[-3273,1897],[-3761,1466],[-1817,173]],[[437047,473785],[7936,86603]],[[458217,472435],[-21170,1350]],[[356222,478733],[377,3883]],[[356599,482616],[2442,2160],[1820,2667],[825,2735],[1000,2258],[585,2566],[-117,2241],[-799,2102],[-1335,2324],[-2479,2030]],[[358541,503699],[5682,72099]],[[364223,575798],[69439,-3862]],[[433662,571936],[-272,-1688],[1068,-2771],[1533,-3734],[1769,-2446],[2836,-659],[2779,-96],[1608,-154]],[[437047,473785],[-80825,4948]],[[433662,571936],[12317,-685]],[[348748,399685],[3076,-489],[1850,-1615],[2078,-420],[2189,-429],[1932,-783],[1774,-1237],[902,-2202],[-69,-1857],[-770,-2180],[227,-2248],[1194,-1478],[2542,-1383],[2357,-998],[1335,-2324]],[[369365,380042],[-22305,1148],[1688,18495]],[[510896,415529],[5580,53868]],[[593116,465102],[-7730,-97823],[-68425,4010]],[[516961,371289],[386,532],[229,1194],[1075,1881],[1510,1758],[1572,2405],[815,2643],[-715,1817],[-1120,1100],[-2210,1360],[-1571,1038],[-2229,1175],[-1257,830],[-401,1609],[327,2211],[1048,1604],[1824,1550],[1479,2598],[1011,2350],[270,2773],[-782,2287],[-1341,1115],[-1323,1300],[-1327,2416],[-1741,2725],[-1594,1969]],[[516961,371289],[-9998,402]],[[506963,371691],[3933,43838]],[[343354,345432],[2809,32283],[24136,-1831]],[[370299,375884],[-789,-2365],[-1581,-2498],[-890,-2265],[332,-3466],[1071,-3888],[1614,-2901],[3746,-2768],[3170,-1798],[2995,-1320],[2626,-1669],[2461,-2214],[1658,-2439],[1431,-3634],[739,-3865],[544,-3573],[66,-3913],[137,-3173],[748,-3773],[837,-2848],[1381,-1862],[2155,-1915],[1977,-321],[2261,312],[1910,149],[1920,241],[2282,-621],[4111,-1304],[-5458,-6792],[20240,-53301],[-33931,5475],[1765,36449],[-11064,38718],[-37409,8690]],[[240091,79831],[9130,99500]],[[249221,179331],[75276,-4664],[-9870,-99077]],[[314627,75590],[-74536,4241]],[[160569,84411],[1131,9321]],[[161700,93732],[3210,898],[2417,766],[2129,1251],[1806,1365],[273,1656],[24,1394],[-264,1880],[180,1849],[699,1441],[1031,1419],[1300,748],[2952,544],[3599,313],[3375,1444],[2312,1983],[1492,1573],[273,1656],[-947,1740],[-891,2294],[-1188,2686],[-393,1702],[-374,1886],[255,1472],[818,1526],[2434,951],[2214,966],[1447,1111],[725,1719],[548,2195],[770,2181],[-338,2256],[-1659,2439],[-1592,1970],[-2773,1305],[-2136,983],[-1795,2170],[-2329,4718],[-1317,2509],[-402,1609],[439,2203],[1401,4092],[1977,3122],[2013,3492],[2032,3677],[1054,2813],[880,2172],[151,2689]],[[189532,182560],[59689,-3229]],[[240091,79831],[-79522,4580]],[[161700,93732],[8110,90172]],[[169810,183904],[19722,-1344]],[[81951,89116],[8864,99053],[78995,-4265]],[[160569,84411],[-78618,4705]],[[9103,193178],[78517,-4605],[-9573,-99470]],[[78047,89103],[-78047,4852],[9103,99223]],[[8790,196828],[8861,100170]],[[17651,296998],[78617,-4705]],[[96268,292293],[-8510,-100008],[-78968,4543]],[[99491,292166],[79956,-4703]],[[179447,287463],[-8128,-86913],[-1269,-13574]],[[170050,186976],[-78977,4991],[8418,100199]],[[188406,185893],[-949,2857],[-181,2710],[713,2743],[3004,2215],[2144,2552],[2049,3862],[196,3150],[288,2958],[1823,1551],[2193,1897],[1320,3260]],[[201006,215648],[1169,1689],[-596,1901],[-1158,1848],[-144,1963],[-104,1216],[1039,1512],[1722,1651],[2046,1535],[2546,943],[3138,159],[3093,-305],[2872,-288],[2901,-1129],[3591,221],[3404,606],[2657,936],[2600,1497],[2321,2075],[2830,5018],[1229,3452],[656,3306],[-140,4290],[-904,3318],[1091,3182],[1450,3437],[2542,2060],[2914,1290],[2675,1121],[2438,-166],[2520,-451],[3789,-1189]],[[257193,262346],[-7684,-80057]],[[249509,182289],[-61103,3604]],[[316628,279420],[3729,489],[3153,1461],[2579,2429],[1803,2483],[1175,2898],[-252,4297],[240,3613],[546,3312],[926,2636],[2091,1997],[3938,1500]],[[336556,306535],[-2718,-27916]],[[333838,278619],[-17210,801]],[[186002,357083],[1746,29378]],[[187748,386461],[155618,-8834],[-2820,-27817]],[[340546,349810],[-15200,1967],[-25433,11410],[-35941,-20907],[-46195,-3646],[-24478,13206],[-7297,5243]],[[142875,389519],[44873,-3058]],[[186002,357083],[-25935,5117],[-17192,27319]],[[103680,377580],[-7412,-85287]],[[17651,296998],[6861,87651],[33899,-11522],[24589,5117],[20680,-664]],[[276071,483729],[-79124,4088]],[[196947,487817],[8397,97689]],[[205344,585506],[79809,-5065]],[[285153,580441],[-9082,-96712]],[[148972,491086],[5564,19347],[-7327,17528],[-14437,14383],[319,12446],[-9652,9684]],[[123439,564474],[2170,25720],[79735,-4688]],[[196947,487817],[-47975,3269]],[[82083,593346],[40109,-2733],[-1869,-23787]],[[120323,566826],[-11197,2996],[-3777,11610],[-23266,11914]],[[106570,377476],[11679,-330],[12198,-23629],[7002,-12853],[45302,-12391]],[[182751,328273],[-3304,-40810]],[[99491,292166],[7079,85310]],[[188818,390576],[8129,97241]],[[276071,483729],[-8276,-97604]],[[267795,386125],[-78977,4451]],[[182751,328273],[12315,-10981],[28018,-7772],[38589,6862],[17576,7549],[12375,5671],[6583,3460],[3474,2461],[35850,-16679]],[[337531,318844],[-714,-9629]],[[336817,309215],[-2776,-1020],[-3947,-1592],[-2414,-1883],[-992,-2165],[-1028,-2536],[18,-3258],[766,-3588],[-962,-3005],[-1136,-3645],[-3702,-3656],[-3992,-2054],[-4207,-830],[-4486,-252],[-4893,147],[-4225,-1015],[-3023,-2399],[-1338,-3445],[-2095,-4324],[-1632,-4169],[-1693,-2490],[-2728,-1675],[-3792,-1138],[-4198,-737],[-4950,709],[-6605,2032],[-4869,1542],[-4509,1796],[-4765,324],[-4237,10],[-4390,-1562],[-3486,-1437],[-2480,-1413],[-1818,-3784],[-591,-3776],[87,-4844],[46,-4097],[-1411,-4184],[-1135,-3645],[-3436,-3209],[-3474,-2461],[-3662,-960],[-4792,47],[-4480,957],[-3841,633],[-3968,-660],[-3791,-1137],[-2489,-1506],[-1426,-2043],[-234,-2403],[1299,-2694],[1668,-2347],[403,-2726]],[[188406,185893],[-18356,1083]],[[285153,580441],[67861,-4066]],[[353014,576375],[-1977,-3121],[-3109,-4442],[-953,-2912],[-111,-6879],[998,-4627],[1063,-3980],[364,-5422],[-1514,-7527],[185,-7270],[2063,-5166],[589,-3110],[-465,-5924],[-220,-4545],[1371,-5397],[3607,-3037]],[[354905,503016],[-1305,-20289]],[[353600,482727],[-3693,-3564]],[[349907,479163],[-73836,4566]],[[257193,262346],[4009,-1203],[5977,-1618],[5515,-1771],[4276,-757],[4367,168],[3470,136],[3091,813],[1962,1820],[1635,3053],[1414,3067],[1046,2720],[1692,2491],[2180,2922],[1777,2205],[2746,1860],[3471,135],[5327,-269],[5480,1302]],[[333838,278619],[-10116,-100456],[-74213,4126]],[[349018,402458],[3648,36414]],[[352666,438872],[315,3141]],[[352981,442013],[1257,10616]],[[354238,452629],[3142,2484],[1626,2959],[1665,2213],[770,2181],[-1140,2032],[-2830,1867],[-2090,1446]],[[355381,467811],[841,10922]],[[437047,473785],[-10355,-97183]],[[426692,376602],[-53680,3099]],[[373012,379701],[-1290,2786],[-1943,1807],[-3162,1891],[-1823,1892],[-6,2233],[252,2589],[-383,1794],[-1113,2309],[-3318,1435],[-3500,704],[-3531,1543],[-1682,1046],[-2495,728]],[[406338,173278],[-78406,4598],[11808,129279]],[[339740,307155],[2832,458],[2979,821],[1981,2005],[1120,2344],[8872,-3955],[6334,-63240],[48005,-18996]],[[411863,226592],[-5525,-53314]],[[372976,375888],[133582,-8357]],[[506558,367531],[-5540,-47729]],[[501018,319802],[-56230,7832],[-23627,1331],[-8727,-9455],[-4959,617],[-4774,232],[-2898,12],[-1791,-65],[-3273,1899],[-1502,2893],[-527,3758],[-981,4812],[-181,6154],[-955,5090],[-1577,3271],[-1883,3571],[-2971,2715],[-2829,1868],[-3243,1058],[-2375,813],[-2922,2060],[-2350,2207],[-1177,1662],[-643,2556],[446,2296],[1334,2236],[1461,2412],[1112,2251]],[[411863,226592],[19546,2576],[25309,12512],[617,18940],[-21742,37864],[27376,1671],[18035,-20955],[12588,-39101],[18117,1649],[29500,1713],[5699,2403],[31384,19915],[-90261,-97694]],[[488031,168085],[-81693,5193]],[[506558,367531],[11181,-855],[67232,-3650]],[[584971,363026],[-1952,-20058],[-2109,-35402]],[[580910,307566],[-4998,-5522],[-30819,-27863],[-24500,-4191],[-19575,49812]],[[666460,148391],[-53809,47585],[53600,94610]],[[666251,290586],[85733,-74703],[-85524,-67492]],[[744038,231070],[-82136,70978]],[[661902,302048],[39036,-6758],[26008,-13408],[34762,5625],[27235,-23739]],[[802580,251499],[6984,-9596],[55987,-31831]],[[865551,210072],[-51142,-41254]],[[814409,168818],[-55085,48052],[43256,34629]],[[865551,210072],[1440,-99],[30527,-3575],[23315,8267],[22225,-9893],[13849,-13506],[9894,-1421],[3472,-17077],[16107,-18964],[-16,-28933]],[[986364,124871],[-42002,-34342],[-3841,-5134],[-16162,-12664],[-55400,48259],[-54550,47828]],[[506963,371691],[-80271,4911]],[[188818,390576],[-48823,2581]],[[139995,393157],[-8580,31013],[4953,31392],[-12345,11821],[17760,11724],[3018,73],[4171,11906]],[[349907,479163],[-1391,-1673],[-159,-2780],[996,-3511],[1291,-2787],[1057,-1746]],[[351701,466666],[-1195,-13411]],[[350506,453255],[-2689,-2422],[-908,-2451],[461,-3288],[1641,-2624],[1011,-2209],[-585,-2566],[-2117,-2275],[-4498,-2671],[-5295,-1686],[-2174,-1713],[-2001,-4516],[-57,-2881],[1979,-1438],[2548,-173],[2162,-706],[1287,-1669],[-48,-2789],[-998,-3374],[-1064,-2906],[-527,-3128],[1281,-2878],[1952,-1715],[3141,-958]],[[345008,400219],[-931,-18733],[-76282,4639]],[[352981,442013],[-1821,775],[-1454,2240],[-171,1687],[402,1833],[1647,2028],[2654,2053]],[[669780,145838],[-3320,2553]],[[666251,290586],[-53216,46801],[1414,6510],[47453,-41849]],[[800045,254091],[11054,8268],[550,-3600],[-9069,-7260]],[[986364,124871],[11339,8901],[2296,-2763],[-58520,-48377],[-2160,-2737],[-102500,-79895],[-2580,2130]],[[584971,363026],[3378,-3114]],[[588349,359912],[-3499,-58849],[-4616,-3873],[676,10376]],[[372976,375888],[36,3813]],[[595219,464958],[1550,-106]],[[589290,367292],[15639,-14651],[-1295,-6425],[-15285,13696]],[[337531,318844],[3632,-1643],[-840,-7480],[-3506,-506]],[[351701,466666],[3365,-2091],[-912,-8219],[-3648,-3101]],[[349018,402458],[-3360,-143],[2435,30726],[1619,1751],[2954,4080]],[[364223,575798],[-3094,304]],[[361129,576102],[-5669,200],[1723,2887],[168058,-10281],[-227,-2579]],[[82083,593346],[-17976,945],[156,3052],[10455,-611],[47909,-2798],[8228,98258],[9398,99947],[-27731,1827],[-13939,919],[-41,1863],[18854,-1098],[23303,-1215],[3438,38753],[2197,25998],[2426,34077]],[[148760,893263],[3342,-42]],[[152102,893221],[-23569,-272985],[-2729,-26891],[80270,-4911],[148811,-9104],[-1871,-2955]],[[123439,564474],[-3116,2352]],[[81951,89116],[-3904,-13]],[[9103,193178],[-313,3650]],[[103680,377580],[388,7417],[3267,336],[-765,-7857]],[[336556,306535],[3184,620]],[[488031,168085],[-2135,-2460],[-158186,8823],[-9309,-99073],[-3774,215]],[[148760,893263],[8956,98860],[-44669,2857],[-22714,1548],[-1780,3471],[72090,-4168],[-8541,-102610]],[[54504,595318],[-10996,470],[40,2696],[2317,-251],[9897,-303],[-1258,-2612]],[[61293,796774],[39,2696],[23720,-1524],[-567,-2380],[-23192,1208]],[[354905,503016],[3097,-1420],[-1614,-15430],[-2788,-3439]],[[355381,467811],[-2395,1745],[-1566,2246],[-359,3189],[660,2188],[2567,3454],[2311,1983]],[[358541,503699],[-3087,1513],[5675,70890]],[[142875,389519],[-2880,3638]],[[345008,400219],[3740,-534]],[[369365,380042],[934,-4158]],[[343354,345432],[-2808,4378]]],"bbox":[21769.725,-229858.728,24020.506,-227162.1],"transform":{"scale":[0.0022507832507832532,0.0026966306966306934],"translate":[21769.725,-229858.728]}}