{"type":"Topology","objects":{"01560-4514-23":{"type":"GeometryCollection","geometries":[{"type":"MultiPolygon","arcs":[[[0,1]]],"properties":{"筆ID":"H000000001","version":"ver1.0","座標系":"任意座標系","測地系判別":null,"地図名":"H22451401560029","地図番号":"開-20","縮尺分母":"2500","市区町村コード":"01560","市区町村名":"紋別郡滝上町","大字コード":"044","丁目コード":"000","小字コード":"0000","予備コード":"00","大字名":"字滝ノ上原野","丁目名":null,"小字名":null,"予備名":null,"地番":"4106-4","精度区分":null,"座標値種別":"図上測量","筆界未定構成筆":null,"代表点緯度":601.2765,"代表点経度":649.194517019}},{"type":"MultiPolygon","arcs":[[[-2,2,3,4,5]]],"properties":{"筆ID":"H000000002","version":"ver1.0","座標系":"任意座標系","測地系判別":null,"地図名":"H22451401560029","地図番号":"開-20","縮尺分母":"2500","市区町村コード":"01560","市区町村名":"紋別郡滝上町","大字コード":"044","丁目コード":"000","小字コード":"0000","予備コード":"00","大字名":"字滝ノ上原野","丁目名":null,"小字名":null,"予備名":null,"地番":"4106-5","精度区分":null,"座標値種別":"図上測量","筆界未定構成筆":null,"代表点緯度":590.683,"代表点経度":644.996183961}},{"type":"MultiPolygon","arcs":[[[6,7]]],"properties":{"筆ID":"H000000003","version":"ver1.0","座標系":"任意座標系","測地系判別":null,"地図名":"H22451401560029","地図番号":"開-20","縮尺分母":"2500","市区町村コード":"01560","市区町村名":"紋別郡滝上町","大字コード":"044","丁目コード":"000","小字コード":"0000","予備コード":"00","大字名":"字滝ノ上原野","丁目名":null,"小字名":null,"予備名":null,"地番":"4107-10","精度区分":null,"座標値種別":"図上測量","筆界未定構成筆":null,"代表点緯度":557.6375,"代表点経度":593.139403055}},{"type":"MultiPolygon","arcs":[[[8,9,10,11,12,-8,13]]],"properties":{"筆ID":"H000000004","version":"ver1.0","座標系":"任意座標系","測地系判別":null,"地図名":"H22451401560029","地図番号":"開-20","縮尺分母":"2500","市区町村コード":"01560","市区町村名":"紋別郡滝上町","大字コード":"044","丁目コード":"000","小字コード":"0000","予備コード":"00","大字名":"字滝ノ上原野","丁目名":null,"小字名":null,"予備名":null,"地番":"4107-6","精度区分":null,"座標値種別":"図上測量","筆界未定構成筆":null,"代表点緯度":634.1635,"代表点経度":617.56488384}},{"type":"MultiPolygon","arcs":[[[-12,14]]],"properties":{"筆ID":"H000000005","version":"ver1.0","座標系":"任意座標系","測地系判別":null,"地図名":"H22451401560029","地図番号":"開-20","縮尺分母":"2500","市区町村コード":"01560","市区町村名":"紋別郡滝上町","大字コード":"044","丁目コード":"000","小字コード":"0000","予備コード":"00","大字名":"字滝ノ上原野","丁目名":null,"小字名":null,"予備名":null,"地番":"4107-8","精度区分":null,"座標値種別":"図上測量","筆界未定構成筆":null,"代表点緯度":642.552,"代表点経度":654.484937635}},{"type":"MultiPolygon","arcs":[[[15,16,17]]],"properties":{"筆ID":"H000000006","version":"ver1.0","座標系":"任意座標系","測地系判別":null,"地図名":"H22451401560029","地図番号":"開-20","縮尺分母":"2500","市区町村コード":"01560","市区町村名":"紋別郡滝上町","大字コード":"044","丁目コード":"000","小字コード":"0000","予備コード":"00","大字名":"字滝ノ上原野","丁目名":null,"小字名":null,"予備名":null,"地番":"4108-2","精度区分":null,"座標値種別":"図上測量","筆界未定構成筆":null,"代表点緯度":705.8175,"代表点経度":740.070639065}},{"type":"MultiPolygon","arcs":[[[18,19,20]]],"properties":{"筆ID":"H000000007","version":"ver1.0","座標系":"任意座標系","測地系判別":null,"地図名":"H22451401560029","地図番号":"開-20","縮尺分母":"2500","市区町村コード":"01560","市区町村名":"紋別郡滝上町","大字コード":"044","丁目コード":"000","小字コード":"0000","予備コード":"00","大字名":"字滝ノ上原野","丁目名":null,"小字名":null,"予備名":null,"地番":"4108-3","精度区分":null,"座標値種別":"図上測量","筆界未定構成筆":null,"代表点緯度":866.395,"代表点経度":859.506763503}},{"type":"MultiPolygon","arcs":[[[21,22,23]]],"properties":{"筆ID":"H000000008","version":"ver1.0","座標系":"任意座標系","測地系判別":null,"地図名":"H22451401560029","地図番号":"開-20","縮尺分母":"2500","市区町村コード":"01560","市区町村名":"紋別郡滝上町","大字コード":"044","丁目コード":"000","小字コード":"0000","予備コード":"00","大字名":"字滝ノ上原野","丁目名":null,"小字名":null,"予備名":null,"地番":"4108-5","精度区分":null,"座標値種別":"図上測量","筆界未定構成筆":null,"代表点緯度":898.97,"代表点経度":900.707409844}},{"type":"MultiPolygon","arcs":[[[24,25,26,27,28,29]]],"properties":{"筆ID":"H000000009","version":"ver1.0","座標系":"任意座標系","測地系判別":null,"地図名":"H22451401560029","地図番号":"開-20","縮尺分母":"2500","市区町村コード":"01560","市区町村名":"紋別郡滝上町","大字コード":"044","丁目コード":"000","小字コード":"0000","予備コード":"00","大字名":"字滝ノ上原野","丁目名":null,"小字名":null,"予備名":null,"地番":"4107-1","精度区分":null,"座標値種別":"図上測量","筆界未定構成筆":null,"代表点緯度":970.801,"代表点経度":913.279763931}},{"type":"MultiPolygon","arcs":[[[-29,30]]],"properties":{"筆ID":"H000000010","version":"ver1.0","座標系":"任意座標系","測地系判別":null,"地図名":"H22451401560029","地図番号":"開-20","縮尺分母":"2500","市区町村コード":"01560","市区町村名":"紋別郡滝上町","大字コード":"044","丁目コード":"000","小字コード":"0000","予備コード":"00","大字名":"字滝ノ上原野","丁目名":null,"小字名":null,"予備名":null,"地番":"4107-9","精度区分":null,"座標値種別":"図上測量","筆界未定構成筆":null,"代表点緯度":970.801,"代表点経度":927.208962665}},{"type":"MultiPolygon","arcs":[[[31,32,-23]]],"properties":{"筆ID":"H000000011","version":"ver1.0","座標系":"任意座標系","測地系判別":null,"地図名":"H22451401560029","地図番号":"開-20","縮尺分母":"2500","市区町村コード":"01560","市区町村名":"紋別郡滝上町","大字コード":"044","丁目コード":"000","小字コード":"0000","予備コード":"00","大字名":"字滝ノ上原野","丁目名":null,"小字名":null,"予備名":null,"地番":"4108-1","精度区分":null,"座標値種別":"図上測量","筆界未定構成筆":null,"代表点緯度":962.7455,"代表点経度":963.913056846}},{"type":"MultiPolygon","arcs":[[[33,34,35]]],"properties":{"筆ID":"H000000012","version":"ver1.0","座標系":"任意座標系","測地系判別":null,"地図名":"H22451401560029","地図番号":"開-20","縮尺分母":"2500","市区町村コード":"01560","市区町村名":"紋別郡滝上町","大字コード":"044","丁目コード":"000","小字コード":"0000","予備コード":"00","大字名":"字滝ノ上原野","丁目名":null,"小字名":null,"予備名":null,"地番":"4108-6","精度区分":null,"座標値種別":"図上測量","筆界未定構成筆":null,"代表点緯度":998.8745,"代表点経度":1033.7507483}},{"type":"MultiPolygon","arcs":[[[36,37,38]]],"properties":{"筆ID":"H000000013","version":"ver1.0","座標系":"任意座標系","測地系判別":null,"地図名":"H22451401560029","地図番号":"開-20","縮尺分母":"2500","市区町村コード":"01560","市区町村名":"紋別郡滝上町","大字コード":"044","丁目コード":"000","小字コード":"0000","予備コード":"00","大字名":"字滝ノ上原野","丁目名":null,"小字名":null,"予備名":null,"地番":"4107-11","精度区分":null,"座標値種別":"図上測量","筆界未定構成筆":null,"代表点緯度":1074.1135,"代表点経度":1044.837246397}},{"type":"MultiPolygon","arcs":[[[39,-19,40,41,-17]]],"properties":{"筆ID":"H000000014","version":"ver1.0","座標系":"任意座標系","測地系判別":null,"地図名":"H22451401560029","地図番号":"開-20","縮尺分母":"2500","市区町村コード":"01560","市区町村名":"紋別郡滝上町","大字コード":"044","丁目コード":"000","小字コード":"0000","予備コード":"00","大字名":"字滝ノ上原野","丁目名":null,"小字名":null,"予備名":null,"地番":"4108-4","精度区分":null,"座標値種別":"図上測量","筆界未定構成筆":null,"代表点緯度":738.7555,"代表点経度":734.209490635}},{"type":"MultiPolygon","arcs":[[[-10,42,-25,43]]],"properties":{"筆ID":"H000000015","version":"ver1.0","座標系":"任意座標系","測地系判別":null,"地図名":"H22451401560029","地図番号":"開-20","縮尺分母":"2500","市区町村コード":"01560","市区町村名":"紋別郡滝上町","大字コード":"044","丁目コード":"000","小字コード":"0000","予備コード":"00","大字名":"字滝ノ上原野","丁目名":null,"小字名":null,"予備名":null,"地番":"4107-7","精度区分":null,"座標値種別":"図上測量","筆界未定構成筆":null,"代表点緯度":789.5335,"代表点経度":721.415940401}},{"type":"MultiPolygon","arcs":[[[44,-5,45]]],"properties":{"筆ID":"H000000016","version":"ver1.0","座標系":"任意座標系","測地系判別":null,"地図名":"H22451401560029","地図番号":"開-20","縮尺分母":"2500","市区町村コード":"01560","市区町村名":"紋別郡滝上町","大字コード":"044","丁目コード":"000","小字コード":"0000","予備コード":"00","大字名":"字滝ノ上原野","丁目名":null,"小字名":null,"予備名":null,"地番":"4106-1","精度区分":null,"座標値種別":"図上測量","筆界未定構成筆":null,"代表点緯度":531.112,"代表点経度":601.778486409}},{"type":"MultiPolygon","arcs":[[[46,-14,-7,-13,-15,-11,-44,-30,-31,-28,47,-38,48,-35,49,-32,-22,50,-20,-40,-16,51,-3,-1,-6,-45]]],"properties":{"筆ID":"H000000017","version":"ver1.0","座標系":"任意座標系","測地系判別":null,"地図名":"H22451401560029","地図番号":"開-20","縮尺分母":"2500","市区町村コード":"01560","市区町村名":"紋別郡滝上町","大字コード":"044","丁目コード":"000","小字コード":"0000","予備コード":"00","大字名":"字滝ノ上原野","丁目名":null,"小字名":null,"予備名":null,"地番":"4431","精度区分":null,"座標値種別":"図上測量","筆界未定構成筆":null,"代表点緯度":761.7455,"代表点経度":720.561534005}},{"type":"MultiPolygon","arcs":[[[-27,52,-39,-48]]],"properties":{"筆ID":"H000000018","version":"ver1.0","座標系":"任意座標系","測地系判別":null,"地図名":"H22451401560029","地図番号":"開-20","縮尺分母":"2500","市区町村コード":"01560","市区町村名":"紋別郡滝上町","大字コード":"044","丁目コード":"000","小字コード":"0000","予備コード":"00","大字名":"字滝ノ上原野","丁目名":null,"小字名":null,"予備名":null,"地番":"4107-12","精度区分":null,"座標値種別":"図上測量","筆界未定構成筆":null,"代表点緯度":1067.891,"代表点経度":1032.970421242}},{"type":"MultiPolygon","arcs":[[[-41,-21,-51,-24,53,54]]],"properties":{"筆ID":"H000000019","version":"ver1.0","座標系":"任意座標系","測地系判別":null,"地図名":"H22451401560029","地図番号":"開-20","縮尺分母":"2500","市区町村コード":"01560","市区町村名":"紋別郡滝上町","大字コード":"044","丁目コード":"000","小字コード":"0000","予備コード":"00","大字名":"字滝ノ上原野","丁目名":null,"小字名":null,"予備名":null,"地番":"4108-8","精度区分":null,"座標値種別":"図上測量","筆界未定構成筆":null,"代表点緯度":871.5355,"代表点経度":878.430971693}},{"type":"MultiPolygon","arcs":[[[-54,-33,-50,-34,55]]],"properties":{"筆ID":"H000000020","version":"ver1.0","座標系":"任意座標系","測地系判別":null,"地図名":"H22451401560029","地図番号":"開-20","縮尺分母":"2500","市区町村コード":"01560","市区町村名":"紋別郡滝上町","大字コード":"044","丁目コード":"000","小字コード":"0000","予備コード":"00","大字名":"字滝ノ上原野","丁目名":null,"小字名":null,"予備名":null,"地番":"4108-7","精度区分":null,"座標値種別":"図上測量","筆界未定構成筆":null,"代表点緯度":961.815,"代表点経度":990.858635223}},{"type":"MultiPolygon","arcs":[[[56,57,58,59]]],"properties":{"筆ID":"H000000021","version":"ver1.0","座標系":"任意座標系","測地系判別":null,"地図名":"H22451401560029","地図番号":"開-32","縮尺分母":"2500","市区町村コード":"01560","市区町村名":"紋別郡滝上町","大字コード":"044","丁目コード":"000","小字コード":"0000","予備コード":"00","大字名":"字滝ノ上原野","丁目名":null,"小字名":null,"予備名":null,"地番":"4434","精度区分":null,"座標値種別":null,"筆界未定構成筆":null,"代表点緯度":-597.9855,"代表点経度":1408.130063384}},{"type":"MultiPolygon","arcs":[[[60,61,62,63]]],"properties":{"筆ID":"H000000022","version":"ver1.0","座標系":"任意座標系","測地系判別":null,"地図名":"H22451401560029","地図番号":"開-32","縮尺分母":"2500","市区町村コード":"01560","市区町村名":"紋別郡滝上町","大字コード":"044","丁目コード":"000","小字コード":"0000","予備コード":"00","大字名":"字滝ノ上原野","丁目名":null,"小字名":null,"予備名":null,"地番":"4433","精度区分":null,"座標値種別":null,"筆界未定構成筆":null,"代表点緯度":-477.7125,"代表点経度":1315.19692008}},{"type":"MultiPolygon","arcs":[[[64,65]]],"properties":{"筆ID":"H000000023","version":"ver1.0","座標系":"任意座標系","測地系判別":null,"地図名":"H22451401560029","地図番号":"開-32","縮尺分母":"2500","市区町村コード":"01560","市区町村名":"紋別郡滝上町","大字コード":"044","丁目コード":"000","小字コード":"0000","予備コード":"00","大字名":"字滝ノ上原野","丁目名":null,"小字名":null,"予備名":null,"地番":"4432","精度区分":null,"座標値種別":null,"筆界未定構成筆":null,"代表点緯度":-315.172,"代表点経度":1518.30538968}},{"type":"MultiPolygon","arcs":[[[66,-64,67,-65,68,-58]]],"properties":{"筆ID":"H000000024","version":"ver1.0","座標系":"任意座標系","測地系判別":null,"地図名":"H22451401560029","地図番号":"開-32","縮尺分母":"2500","市区町村コード":"01560","市区町村名":"紋別郡滝上町","大字コード":"044","丁目コード":"000","小字コード":"0000","予備コード":"00","大字名":"字滝ノ上原野","丁目名":null,"小字名":null,"予備名":null,"地番":"4109","精度区分":null,"座標値種別":"図上測量","筆界未定構成筆":null,"代表点緯度":-477.7125,"代表点経度":1415.915908443}},{"type":"MultiPolygon","arcs":[[[-62,-60,69]]],"properties":{"筆ID":"H000000025","version":"ver1.0","座標系":"任意座標系","測地系判別":null,"地図名":"H22451401560029","地図番号":"開-32","縮尺分母":"2500","市区町村コード":"01560","市区町村名":"紋別郡滝上町","大字コード":"044","丁目コード":"000","小字コード":"0000","予備コード":"00","大字名":"字滝ノ上原野","丁目名":null,"小字名":null,"予備名":null,"地番":"4110","精度区分":null,"座標値種別":"図上測量","筆界未定構成筆":null,"代表点緯度":-626.7845,"代表点経度":1362.979728849}}]}},"arcs":[[[105475,718660],[3771,6897],[28125,14699],[2316,-1321]],[[139687,738935],[-25327,-16476],[-8885,-3799]],[[139687,738935],[786,-448]],[[140473,738487],[-12709,-8082],[-22528,-19007]],[[105236,711398],[-8792,-1689]],[[96444,709709],[7222,5642],[1809,3309]],[[83130,711543],[-5900,-4744]],[[77230,706799],[-11481,-1060],[1209,4054],[16172,1750]],[[37780,668283],[-30417,5061],[-7363,1002],[10758,12043],[10469,10936],[25518,26700],[15253,15880],[24151,26304],[13484,15367],[8605,8778],[19372,10743],[22832,13209]],[[150442,814306],[-28861,-24937]],[[121581,789369],[-6185,-772],[-5026,-7717],[599,-362]],[[110969,780518],[-6995,-6290],[21850,-13541],[-13022,-24000]],[[112802,736687],[-16044,-9151],[-2429,-6989],[-11199,-9004]],[[77230,706799],[-11086,-11652],[-8736,-12445],[-19628,-14419]],[[110969,780518],[32192,-19497],[-8569,-11908],[-21790,-12426]],[[145307,741222],[-947,552]],[[144360,741774],[8922,5186],[56222,50246],[20005,14810],[62317,37657],[1595,-681]],[[293421,848992],[-1730,-1407],[-22919,-19303],[-25761,-21244],[-30116,-25000],[-45699,-28138],[-21889,-12678]],[[311134,868876],[-6228,3348]],[[304906,872224],[1649,1968],[28140,7121]],[[334695,881313],[-23561,-12437]],[[349367,886386],[4234,10453],[22971,6209]],[[376572,903048],[-3849,-8626]],[[372723,894422],[-23356,-8036]],[[296593,876485],[-19733,11095]],[[276860,887580],[33589,19590],[16351,7670],[24269,12398],[60622,30524],[73112,37360]],[[484803,995122],[-3642,-5576],[2773,-12883]],[[483934,976663],[-66900,-22644],[-10672,-13873],[-15814,-8495]],[[390548,931651],[6157,8937],[11604,9646],[19030,9580],[-3603,2826],[-11726,-5305],[-16224,-9364],[-9962,-9514],[-20719,-30643]],[[365105,907814],[-19004,-6504],[-5819,-10881],[-12712,-4166],[-29763,-8366],[-1214,-1412]],[[390548,931651],[-8423,-4525],[-3728,-14764],[-13292,-4548]],[[376572,903048],[10971,2965],[5937,18554],[23491,12132],[10723,14387],[56971,18852]],[[484665,969938],[-8521,-17220],[-10005,-8472],[-53811,-28569],[-30613,-18181],[-8992,-3074]],[[402667,900984],[4050,3503],[11911,7618],[22543,8715],[31794,18604],[21855,22075],[1858,12975]],[[496678,974474],[16334,6740]],[[513012,981214],[11817,-11484],[-50200,-31076],[-44602,-26858],[-27360,-10812]],[[497914,996377],[9108,-9255]],[[507022,987122],[-11507,-5342]],[[495515,981780],[-1296,5354],[3695,9243]],[[144360,741774],[-2856,1666],[16992,17856],[-33113,22390],[28956,3654],[30087,16043],[26906,29960],[52544,6505],[20689,8113],[20341,24263]],[[311134,868876],[4057,-2182]],[[315191,866694],[-21770,-17702]],[[150442,814306],[30917,17885],[15070,8482],[43190,24996],[22052,13053],[15189,8858]],[[296593,876485],[-8926,-10379],[-11539,-12352],[-25611,-9349],[-26661,-2855],[-20316,-2605],[-28826,-31654],[-27609,-14734],[-25524,-3188]],[[49264,666719],[589,1235],[12392,11438],[7191,6608],[17512,16290],[9496,7419]],[[105236,711398],[-11759,-9922],[-36632,-30429],[-5095,-4531],[-2486,203]],[[49264,666719],[-11484,1564]],[[483934,976663],[2063,698],[9518,4419]],[[507022,987122],[5990,-5908]],[[496678,974474],[-6862,-2832],[-5151,-1704]],[[349367,886386],[-613,-1516],[-14059,-3557]],[[145307,741222],[-4834,-2735]],[[484803,995122],[9546,4877],[3565,-3622]],[[372723,894422],[-2855,-6398]],[[369868,888024],[-20724,-8189],[-33953,-13141]],[[402667,900984],[-32799,-12960]],[[758360,116067],[4411,8957]],[[762771,125024],[10069,-11147],[7605,-6493],[42949,-10005],[22473,-22172],[7498,-10871],[11943,-7541]],[[865308,56795],[-5119,-2027]],[[860189,54768],[-13300,7938],[-7783,10189],[-21718,20126],[-40283,9222],[-9827,5540],[-11749,-9296],[-10967,-39729],[7491,-11215],[7244,-22854],[-2589,-541],[-10011,22013],[-8015,11571],[7603,29208],[2840,11462],[11850,12942],[-2615,4723]],[[764001,130277],[-5641,-14210]],[[758360,116067],[-12779,-4090],[-16459,-8665],[-18822,-11758]],[[710300,91554],[-4266,1734],[17542,10470],[15254,8075],[17084,6388],[2746,9672],[-305,1952],[-13119,20717],[2288,23722],[-3203,5058],[5177,1527]],[[749498,180869],[2999,-4855],[-2187,-26169],[13691,-19568]],[[997351,210064],[-24448,12335],[-14077,2366],[-24948,7609],[-17173,8841],[-6486,-595]],[[910219,240620],[-355,1659],[8349,662],[17269,-9823],[23529,-6955],[16509,-1986],[24479,-13025],[-2648,-1088]],[[762771,125024],[1230,5253]],[[749498,180869],[78760,21963],[48653,22485],[19645,9238],[13663,6065]],[[997351,210064],[-1436,-15736],[-9984,-1377],[-5425,-7496],[-8260,-9673],[-19500,-23185],[-22721,-26679],[-10213,-8994],[-21617,-20985],[-15783,-9521],[6504,-19814],[-23608,-9809]],[[860189,54768],[-24955,-10441],[-39445,-2077],[-20550,-15940],[-41911,-16175],[-25911,-10135],[-30090,1816],[15922,26391],[12026,9873],[-1278,8902],[-2530,9429],[10019,26767],[-1186,8376]]],"bbox":[516.03,-732.91,1575.201,1089.134],"transform":{"scale":[0.0010591720591720591,0.0018220458220458218],"translate":[516.03,-732.91]}}
